{"type":"Topology","arcs":[[[10897,10192],[28,62],[3,79],[13,52],[23,14],[239,108],[-5,13]],[[11198,10520],[28,6]],[[11226,10526],[4,-6],[345,155],[22,-68],[-10,-73],[14,-49],[39,-80],[2,-82],[-36,-99],[-52,12],[-25,29],[-31,-21],[-13,21],[-37,9],[-20,-20],[-30,15],[-21,-29],[-52,-25],[-37,0],[-46,-40],[-4,-18],[-34,-40],[-11,-52],[13,-23],[-43,-30],[-43,18],[4,36],[-16,10],[-52,-3],[-26,-17],[7,-80]],[[11037,9976],[-28,71],[-28,53],[-84,92]],[[10822,10988],[215,0]],[[11037,10988],[192,4]],[[11229,10992],[1,-121]],[[11230,10871],[-58,-21],[-58,-29],[-61,6],[44,-76],[-72,-4],[-57,3]],[[10968,10750],[-145,-1],[0,-24]],[[10823,10725],[-131,-2]],[[10692,10723],[-3,262],[133,3]],[[9199,10499],[2,-164],[-3,-37],[-16,-40],[-72,-98],[-22,-44],[-29,-115],[6,-42],[15,-33],[74,-98],[-21,-131]],[[9133,9697],[3,-34],[33,25],[6,-54],[42,-88],[-4,-51],[12,-18],[41,-20]],[[9266,9457],[-2,-80],[20,-110],[54,-93],[33,-40],[85,-141],[42,-40],[68,-22],[93,11],[91,43],[78,69],[15,50],[15,92],[20,33],[41,32],[32,-2],[24,-34],[34,-116],[47,-115],[62,-94]],[[10118,8900],[84,-114],[103,-106],[71,-112],[79,-110],[29,-33],[134,-193],[22,-39],[75,-164],[24,-81]],[[10739,7948],[-2,-92],[-34,-55],[-35,-18],[-81,4],[-73,30],[-78,43],[-153,105],[-77,61],[-148,104],[-99,49],[-57,17],[-78,4],[-46,-6],[-85,0],[-148,-10],[-57,-16],[-85,-36],[-125,-73],[-91,-79],[-107,-105],[-113,-120]],[[8967,7755],[-26,31],[5,47],[23,52],[12,60],[-4,49],[-24,63],[-14,95],[4,89],[-23,11],[-44,3],[-74,-7],[-15,-13],[-47,-80],[-63,-80],[-8,-41],[57,-88],[-8,-44],[-35,-37],[-64,-26],[-34,-3],[-101,11],[-85,25],[-102,20],[-25,22],[-5,24],[114,83],[27,34],[22,53],[8,54],[-23,29],[-53,-10],[-56,3],[-93,64],[-90,42],[-40,36],[18,35],[64,35],[16,76],[5,62],[-28,15],[-95,-43],[-47,-10],[-56,32],[-60,25],[-54,35],[12,24],[27,1],[76,-27],[31,6],[68,47],[60,22],[55,1],[30,17],[25,75],[-16,57],[-45,43],[-104,40],[-73,41]],[[7992,8935],[-12,29],[10,116],[-30,44],[-44,37],[-48,62],[-2,62],[34,35],[24,11],[60,-1],[28,21],[40,67],[19,19],[63,21],[16,24],[-42,67],[-15,58],[20,93],[-2,36],[-15,30],[-63,64],[-94,62],[-36,-4]],[[7903,9888],[-33,26],[-49,11],[23,33],[49,25],[60,19],[58,9],[97,51],[28,34],[42,74],[13,44],[34,39],[0,70],[-13,43],[40,9],[8,54],[63,-8],[170,58],[64,-2],[17,-10],[80,28],[83,-1],[462,5]],[[10813,11487],[4,-173],[5,-326]],[[10692,10723],[-16,-79],[-87,17]],[[10589,10661],[-1,90]],[[10588,10751],[-3,233]],[[10585,10984],[6,79],[19,54],[203,370]],[[10594,10511],[174,2],[57,-2]],[[10825,10511],[143,2]],[[10968,10513],[209,1],[21,6]],[[10897,10192],[-65,48],[-38,7],[-69,-3]],[[10725,10244],[-111,227]],[[10614,10471],[-20,40]],[[10823,10725],[2,-214]],[[10594,10511],[-2,41]],[[10592,10552],[-3,109]],[[10267,10541],[67,-7],[76,36],[7,12]],[[10417,10582],[175,-30]],[[10614,10471],[-162,-83],[44,-93]],[[10496,10295],[-82,-37],[-134,-2],[29,19],[20,70],[-1,67],[-34,34],[20,44],[-12,29]],[[10302,10519],[-35,22]],[[10062,11026],[249,-45],[85,-1]],[[10396,10980],[12,-44],[5,-57],[2,-130]],[[10415,10749],[2,-167]],[[10267,10541],[-77,-33],[-103,-1]],[[10087,10507],[-7,103],[-14,42]],[[10066,10652],[-59,107],[37,26],[16,39],[-2,134],[4,68]],[[10920,9533],[35,-144],[16,-53],[22,-44],[65,-73],[-8,-75],[5,-62],[57,-236]],[[11112,8846],[143,-591],[56,-150],[40,-176]],[[11351,7929],[19,-49]],[[11370,7880],[-43,-32],[-63,20],[-22,38],[-27,17],[-20,-7],[-14,72],[-20,29],[-31,-19],[-50,-7],[-34,6],[9,49],[-35,30],[-25,-23],[-41,-10],[2,-39],[-22,-19],[-68,-8],[-52,-52],[-16,36],[-38,2],[-21,-15]],[[10118,8900],[58,51],[28,42],[21,10],[18,75],[-2,67],[-12,38],[29,81],[62,24],[40,-95],[71,20],[-13,33],[4,31],[32,27],[51,81],[45,36],[40,-4],[14,12],[32,-34],[21,39],[28,88],[11,8],[224,3]],[[9266,9457],[27,82],[44,85],[76,81],[47,35],[65,39],[108,46],[143,42],[144,50],[114,26],[144,18],[88,25],[92,41],[99,60],[125,90]],[[10582,10177],[96,50],[47,17]],[[10725,10244],[39,-79],[22,-76],[134,-556]],[[10415,10749],[173,2]],[[9199,10499],[-3,189]],[[9196,10688],[175,-36],[29,-9],[321,-134],[148,-27],[35,-12],[26,30],[24,7],[133,0]],[[10302,10519],[-327,-157],[-202,-162],[-156,-121],[-171,-138],[-192,-152],[-121,-92]],[[10496,10295],[28,14],[49,-102],[9,-30]],[[7290,12584],[619,5]],[[7909,12589],[34,-33],[297,-223],[61,-35],[152,-55],[355,-165],[53,-29],[54,-46],[433,-495]],[[9348,11508],[-53,-50],[-3,-27],[-55,-68],[-2,-36],[-24,-1],[-22,-33],[2,-180]],[[9191,11113],[4,-291]],[[9195,10822],[1,-134]],[[7903,9888],[-22,-31],[-34,-77],[-48,-42],[-50,-22],[-18,1],[-152,65],[-28,48],[-1,34],[20,58],[41,85],[49,125],[-1,91],[-63,139],[-19,11],[-52,-2],[-55,-42],[-15,-60],[-27,-47],[-25,-26],[-50,-28],[-35,-6],[-110,9],[-105,5],[-30,27],[-7,41],[42,61],[58,27],[58,4],[30,12],[29,30],[13,38],[-17,69],[-28,50],[-50,38],[-60,12],[-59,22],[-25,23],[-18,69],[-27,43],[-33,-1],[-78,-57],[-51,10],[-4,63],[28,68],[0,23],[-25,21],[-45,6],[-102,55],[-35,38],[-12,83],[12,40],[24,40],[60,25],[47,-25],[26,-1],[67,46],[29,48],[8,39],[-5,66],[-19,83],[-35,65],[-30,26],[-42,16],[-12,22],[5,53],[31,42],[46,30],[74,21],[31,35],[7,35],[40,40],[73,-7],[42,13],[35,-11],[28,-24],[44,-10],[45,6],[10,30],[-68,87],[-18,59],[24,31],[66,-35],[56,-36],[55,34],[11,53],[-29,65],[16,100],[-13,125],[14,78],[-3,27],[-38,69],[-71,82],[-8,51]],[[11230,10871],[3,-332],[-7,-13]],[[10968,10513],[3,45],[-3,192]],[[7909,12589],[303,3],[142,3],[7,27],[37,-5],[14,-23],[30,20],[68,8],[36,38],[51,91],[-5,93],[8,35],[66,60]],[[8666,12939],[45,16],[26,-7],[34,15],[136,3],[69,21],[65,5],[180,-48],[35,-20],[74,-14],[13,-19],[3,-42],[19,-40],[108,5],[22,53],[11,6],[139,-1],[21,5],[68,-30],[26,-29],[47,-34],[94,-43],[57,-48],[10,-81],[-39,-205],[-11,-81],[5,-41],[39,-111]],[[9962,12174],[-227,-3],[2,-35],[-41,-30],[-27,-82],[-34,-50],[-42,-14],[-32,-128],[-43,-43],[-42,-12],[-30,-28],[-39,-18],[-40,-72],[0,-25],[26,-33],[16,-60],[-42,-15],[-19,-18]],[[3293,12460],[329,9],[752,15],[370,3],[519,10],[382,3],[302,75],[389,3],[11,-1],[943,7]],[[7992,8935],[-188,-106],[-38,-18],[-160,-24],[-103,-32],[-1102,-388],[-33,-16]],[[6368,8351],[-1,23],[-64,5],[-138,0],[-57,18],[-77,-1],[-47,-13],[-41,4],[-87,41],[-148,24],[-162,10],[-136,0],[-52,9],[-211,70],[-54,26],[-81,76],[-92,57],[-84,25],[-96,0],[-62,15],[-142,1],[-54,3],[-244,41],[-108,-7],[-55,28],[-57,71],[-31,74],[1,35],[22,119],[-106,44],[-83,7],[-104,46],[-119,28]],[[3598,9230],[18,25],[-19,58],[33,23],[28,5],[-9,48],[23,79],[-2,86],[-38,27],[18,15],[6,37],[46,44],[-34,1],[-21,32],[51,33],[-31,26],[-7,82],[-53,60],[-56,-3],[4,31],[-57,13],[-40,66],[-16,0],[-29,35],[-57,-20],[0,39],[-43,3],[-6,38],[-48,11],[-25,21],[17,17],[34,8],[-4,33],[13,29],[-1,40],[-19,35],[-32,17],[16,40],[31,114],[-19,14],[29,29],[-10,36],[-44,15],[0,20],[-23,39],[2,34],[25,18],[-5,44],[12,37],[-11,52],[24,23],[10,43],[-21,11],[10,33],[-17,25],[8,32],[-2,91],[-8,24],[19,43],[-17,31],[5,55],[34,50],[62,25],[13,59],[23,31],[-71,63],[18,28],[42,-12],[14,34],[26,19],[22,38],[-3,35],[13,33],[25,24],[11,72],[-6,29],[61,13],[26,17],[17,32],[-15,40],[7,55],[-10,26],[-35,-3],[-26,41],[27,39],[-20,65],[-26,-9],[-24,21],[-37,0],[-14,42],[22,19],[-8,142],[-19,46],[-74,44],[-20,18],[-18,57]],[[4517,6565],[75,-6],[62,21],[143,8],[135,34],[74,41],[40,40],[67,92],[27,20],[93,-1],[31,7],[131,59],[124,73],[164,71],[104,39],[97,53],[58,20],[101,23],[33,-10],[235,-57],[7,9],[-28,127],[-8,85],[-35,78],[-23,37],[-162,225],[-7,45],[-141,43],[188,224],[79,109],[132,220],[55,57]],[[8967,7755],[5,-23],[-50,-80],[-22,-79],[-3,-164],[32,-346],[48,-67],[100,-75],[84,-84],[38,-104],[9,-166],[-24,-202],[-43,-102],[-46,-47],[-100,-40],[-130,-12],[-195,25],[-89,-8],[-199,-58],[-170,-30],[-60,21],[-77,43],[-81,77],[-45,71],[-84,75],[-48,26],[-66,46],[-100,34],[-164,67],[-78,11],[-60,-33],[-33,-66],[-29,-85],[-13,-72],[4,-60],[35,-198],[6,-115],[65,-132],[40,-108],[32,-194],[32,-123],[32,-57],[127,-122],[179,-120],[205,-144],[211,-120],[110,-32],[44,-6],[68,1],[124,-13],[163,-29]],[[8751,4736],[52,-41],[83,-96],[51,-53],[56,-66],[37,-53],[61,-137],[24,-73],[31,-120],[8,-74],[-11,-71],[-39,-113],[-67,-105],[-51,-47],[-71,-44],[-88,-32],[-53,-15],[-133,-56],[-191,-125],[-100,-73],[-81,-53],[-57,-26],[-158,-55],[-258,-28],[-335,-133],[-170,43],[-129,76],[-93,127],[-78,100],[-92,78],[-63,36],[-46,-1],[-92,-53],[-213,-171],[-96,-70],[-101,-45],[-81,-16],[-122,19],[-184,67],[-132,72],[-100,46]],[[5669,3355],[31,47],[64,40],[45,53],[114,191],[-48,31],[-135,7],[-58,147],[-32,41],[-49,-9],[-153,41],[-34,34],[4,27],[151,159],[-10,51],[-32,50],[-37,30],[-27,-26],[18,-42],[-12,-51],[-51,-22],[-23,0],[-73,24],[-55,8],[-57,-21],[-64,15],[-46,33],[3,50],[36,30],[-3,13],[-75,47],[0,24],[39,93],[8,31],[-3,81],[39,108],[3,65],[-16,95],[13,103],[-14,14],[-47,-2],[-33,32],[-3,103],[-10,84],[-33,49],[-142,-23],[-18,-14],[13,-62],[-7,-49],[-19,-24],[-40,-19],[-18,10],[4,57],[-29,20],[-46,-28],[-18,-80],[-18,-2],[-32,48],[-1,61],[-23,74],[-85,88],[-21,45],[-3,44],[14,33],[37,19],[72,9],[22,-25],[-1,-35],[24,-17],[51,17],[24,46],[56,167],[8,77],[-9,43],[-57,71],[18,73],[-17,27],[-49,-9],[-44,21],[-46,129],[-11,78],[81,22],[21,41],[-67,53],[-14,75],[-21,12],[-45,-4],[-65,6],[-16,28],[0,112],[50,117]],[[10396,10980],[189,4]],[[9195,10822],[486,-93],[385,-77]],[[9191,11113],[871,-87]],[[3598,9230],[-28,-48],[57,-9],[31,-20],[11,-41],[-56,-18],[51,-52],[0,-51],[28,-11],[65,16],[34,-51],[-6,-43],[-50,-17],[2,-67],[29,-55],[28,-33],[54,-16],[48,18],[16,-31],[1,-43],[-13,-37],[9,-49],[-9,-31],[-34,-44],[1,-27],[39,-8],[30,-20],[43,-72],[41,-9],[27,44],[22,2],[68,-73],[25,-5],[58,8],[23,-26],[-34,-64],[47,-60],[93,-173],[8,-49],[-25,-43],[-6,-39],[9,-26],[45,-57],[16,-32],[9,-59],[23,-27],[79,-10],[23,-25],[-27,-57],[61,-46],[30,-42],[-21,-56],[-82,-94],[-47,-74],[-46,-94],[-37,-52],[-28,-58],[-8,-71],[34,-58],[3,-27],[-84,-12],[-82,-45],[-2,-34],[32,-20],[40,-39],[68,-138],[22,-26],[40,3],[43,13],[59,8],[21,-43],[-2,-20]],[[5669,3355],[-95,12],[-94,-16],[-100,-57],[-52,-40],[-80,-142],[-29,-104],[-9,-188],[6,-91]],[[5216,2729],[-61,-19],[-65,-60],[-36,8],[4,58],[51,58],[-13,22],[-29,-34],[-60,-1],[-7,46],[-40,47],[-87,-58],[-50,-27],[-27,11],[-6,57],[-51,79],[-20,-15],[10,-51],[-35,-50],[-17,1],[-43,43],[-25,4],[-34,-42],[-40,-28],[-41,5],[-18,32],[31,55],[-10,41],[-20,11],[-62,-11],[0,34],[65,46],[-7,34],[-61,9],[-17,35],[65,43],[-20,26],[-71,-1],[-17,13],[9,98],[-50,21],[42,24],[-45,23],[-19,25],[-1,72],[-23,35],[-20,0],[-40,-40],[-26,-47],[-42,-36],[-104,4],[-4,50],[17,19],[63,17],[6,24],[-86,-17],[-47,10],[-6,21],[29,42],[-35,24],[-19,54],[-59,44],[16,68],[-102,30],[-19,31],[14,16],[2,73],[34,38],[10,38],[-14,34],[-55,36],[-19,-10],[0,-43],[10,-48],[-5,-25],[-56,-47],[-29,0],[-16,43],[31,29],[6,28],[-30,29],[-40,-9],[-60,-41],[-29,6],[0,30],[31,28],[5,32],[-33,23],[-19,28],[5,40],[32,41],[36,31],[-5,42],[-12,21],[-41,7],[-41,126],[-35,9],[-14,-36],[28,-53],[-16,-19],[-55,-7],[-58,78],[-16,6],[-28,-28],[-43,16],[-54,3],[-20,53],[-26,-3],[-52,35],[-20,-12],[-19,-50],[-18,-23],[-20,19],[-6,54],[-22,22],[-44,20],[-14,-8],[30,-65],[7,-38],[-57,49],[-20,-11],[15,-47],[-27,-6],[-27,26],[-44,90],[-29,8],[-13,-18],[14,-61],[-62,-23],[-25,-44],[-44,13],[-49,-34],[-31,2],[-32,20],[-17,35],[39,-1],[29,26],[11,38],[6,59],[-20,30],[-23,3],[-30,-26],[-34,-7],[-16,18],[-18,91],[-50,-3],[-34,31],[-6,29],[-41,41],[21,91],[-46,57],[27,35],[4,59],[-19,42],[-11,69],[-34,-3],[-48,51],[-25,-7],[-32,-33],[-37,9],[-71,0],[-32,14],[-42,-5],[59,76],[-8,30],[-37,30],[-38,10],[58,108],[-7,31],[-45,-2],[-23,24],[32,49],[-18,23],[-37,-2],[2,50],[-10,34],[-33,24],[-11,-38],[-29,-33],[-32,27],[-21,42],[-30,15],[-23,-19],[14,-50],[-12,-24],[-54,0],[-41,20],[2,-40],[-48,14],[-55,-5],[-49,3],[-8,31],[-45,43],[-28,7],[-11,43],[-29,45],[-32,-5],[-39,7],[-39,20],[-32,45],[-60,-25],[-23,27],[2,32],[-27,21],[-15,34],[3,35],[-35,13],[-11,70],[-56,17],[-16,20],[-33,5],[-59,39],[-36,80],[-42,19],[7,30],[-5,47],[36,74],[2,26],[-23,18],[-60,11],[-19,23],[-75,41],[-26,27],[-118,-21],[-27,19],[-40,-20],[-43,-1],[-29,-64],[-30,-15],[-40,-52],[-22,-4],[-22,19],[-24,-19],[-45,14],[-51,-16],[-30,19],[-61,9],[-33,-32],[-18,-3],[-21,26],[-8,408],[-11,711],[-3,129],[1211,14],[-20,1089],[0,141],[-2,363],[-4,324],[11,573],[1,598],[-2,115],[-11,1185],[-6,612],[202,-2],[934,-2],[67,3],[222,3],[189,1],[378,-5],[123,2]],[[11370,7880],[170,-456],[11,-36],[4,-61],[-18,-154],[-31,-127],[-26,-168],[-51,-302],[-11,-72],[-96,-853]],[[11322,5651],[-32,-11],[-54,25],[-51,8],[-15,35],[-40,22],[-62,2],[-16,40],[-44,20],[-51,-6],[-38,5],[-55,-24],[-50,3],[-23,20],[-40,2],[-38,33],[-79,23],[-28,50],[-16,11],[-73,27],[-69,-23],[-39,-66],[-1,-60],[-55,-60],[-6,-28],[19,-16],[-1,-37],[42,-29],[-21,-27],[-4,-40],[7,-50],[-7,-23],[-36,-32],[-10,-36],[-38,-9],[-50,-32],[-33,11],[-41,40],[-40,10],[-30,19],[-30,-8],[-1,-63],[14,-39],[33,-35],[55,-7],[-3,-15],[-52,-10],[-42,-27],[-35,-1],[-39,37],[-32,-11],[-8,-43],[6,-46],[-79,-6],[3,-48],[-18,-19],[17,-28],[63,-34],[-2,-59],[-23,-13],[20,-50],[-30,-21],[-21,41],[-35,23],[-88,-46],[-47,-45],[-24,-37],[-88,-104],[-40,-17],[-45,10],[-27,52],[-6,32],[11,33],[67,79],[0,62],[17,48],[-21,30],[-30,15],[-58,-3],[-57,-18],[-61,-27],[-33,-84],[-19,-154],[-13,-16],[-53,-14],[-66,9],[-118,55],[8,53],[84,129],[19,77],[-13,55],[-26,7],[-57,-72],[-34,-28],[-82,-46],[-61,-58],[-35,-8],[-78,-6],[-17,-29],[-8,-109],[-15,-55]],[[11351,7929],[71,41],[57,17],[28,-8],[101,-77],[29,-7],[63,37],[24,26],[14,78],[18,16],[52,12],[114,-7],[143,5],[59,-8],[44,19],[54,6],[76,-3],[106,-22],[125,-10],[18,8]],[[12547,8052],[38,-28],[57,-20],[648,-79],[78,-29]],[[13368,7896],[-4,-18],[19,-33],[-47,2],[-21,-39],[1,-87],[-13,-54],[-25,-10],[26,-32],[-1,-82],[-18,-17],[-21,15],[-41,-49],[-23,-40],[0,-39],[-24,0],[-4,-28],[-51,-59],[16,-33],[-29,-72],[-31,-11],[10,-61],[-27,-21],[6,-42],[-17,-49],[-3,-40],[-37,-4],[-5,-33],[-43,-31],[-63,-125],[-25,-25],[-9,-32],[-26,7],[-54,-46],[-8,-50],[22,-32],[2,-67],[-43,-29],[16,-19],[-29,-66],[12,-56],[-5,-52],[23,-14],[5,-36],[28,-18],[30,20],[64,-3],[25,15],[71,-10],[44,-14],[38,-36],[77,-30],[39,4],[23,-31],[20,1],[30,-39],[63,-49],[13,4],[63,-39],[10,8],[127,-80],[-34,-99],[-45,-107],[-34,-93],[-87,-125],[-25,-71],[-6,-225],[12,-159],[-1,-26]],[[13324,5085],[-7,-121],[4,-92],[2,-406]],[[13323,4466],[-43,-52],[-63,-4],[-45,13],[-32,-8],[-8,73],[-28,-1],[-36,55],[2,37],[-47,21],[16,64],[-18,26],[-36,27],[-39,13],[-38,92],[-52,69],[-42,10],[3,26],[-37,-6],[-46,80],[-44,24],[-28,-1],[-20,31],[-36,-3],[-23,44],[-48,8],[-33,38],[-21,46],[-59,0],[-17,25],[-27,5],[-31,23],[-47,11],[-23,46],[-33,8],[-10,88],[-56,-13],[-16,-29],[-43,33],[-34,38],[-31,1],[-49,18],[-49,-37],[-46,16],[-10,27],[-76,78],[-3,26],[-19,20],[-39,11],[-20,29],[-85,14],[-66,-2],[-39,20],[-28,-9],[-45,35],[-13,38],[-17,2],[-36,-34],[-28,-6],[-39,-35],[-25,16]],[[10349,11549],[33,-27],[18,-31],[-4,-33],[31,-2],[30,25],[-6,48],[38,33],[69,27],[10,-25],[38,-21],[24,29],[31,-16],[53,5],[-1,44]],[[10713,11605],[34,-8],[41,-24],[44,-49],[-19,-37]],[[10396,10980],[-26,68],[-6,62],[14,104],[-2,33],[-40,126],[-3,49],[13,48],[3,79]],[[9962,12174],[35,-100],[39,-47],[63,-90],[46,-46],[152,-122],[28,-45],[4,-74],[14,-46],[6,-55]],[[11825,17629],[44,-49],[65,-118],[3,-36],[18,-59],[48,-45],[9,-25],[-13,-87],[28,-77],[78,-27],[32,1],[50,26],[43,-5],[46,-28],[41,-56],[-27,-63],[-18,-18],[-1,-50],[14,-90],[12,-40],[-8,-39],[-43,-110],[-31,-12],[-23,-41],[35,-100],[-15,-46],[14,-37],[-15,-75],[-72,22],[-30,-26],[-26,19],[-15,33],[-63,0],[-86,-31],[-20,-38],[-11,-55],[-1,-79],[-32,-59],[-33,-34],[-16,-39],[-47,-55],[-29,-80],[8,-35],[23,-43],[3,-54],[-27,-100],[-11,-19],[7,-103],[-31,-32],[-13,-41],[13,-46],[34,-35],[12,-41],[26,-36],[13,-125],[-40,-28]],[[11747,15163],[-268,-85],[-59,0],[-112,37],[-30,0],[-20,-126],[-31,-75],[-3,-88],[-13,-100],[5,-92],[-7,-42],[54,-45],[-22,-32],[-71,-38],[-12,-91],[-36,-24],[-17,-64],[-24,-1],[-55,-26],[-39,-34],[-20,-75],[1,-46],[-23,-32],[7,-18],[-4,-67],[9,-19],[-18,-31],[-9,-78],[-24,-44],[8,-26],[-19,-19],[21,-27],[-5,-30],[12,-109],[12,-26],[-9,-29],[-22,-22],[6,-32],[-32,-42],[1,-62],[-112,-74],[-36,-82],[2,-54],[-26,-42],[-11,-63],[19,-33],[-33,-67],[11,-26],[-50,-15],[-40,-63],[23,-61],[20,-20],[-24,-35],[50,-53],[24,-1],[3,-51],[32,-101],[7,-71],[14,-28],[37,-20]],[[10789,12443],[-4,-21],[-38,-73],[26,-45],[46,-10],[15,-22],[-18,-29],[9,-41],[35,-31],[7,-46],[-26,-47],[6,-41],[-23,-24],[-39,-13],[-2,-98],[-17,-22],[25,-50],[-21,-50],[-50,-59],[16,-18],[-23,-98]],[[8666,12939],[16,30],[40,46],[33,16],[-1,63],[-29,20],[34,35],[37,-21],[2,175],[23,52],[54,-5],[4,21],[-37,50],[1,67],[26,44],[73,46],[-10,56],[12,22],[45,-14],[23,11],[-14,30],[16,35],[30,32],[1,30],[-19,25],[-2,68],[14,58],[63,22],[27,41],[25,10],[10,28],[67,-25],[21,21],[-5,24],[36,33],[2,18],[-17,67],[50,49],[9,19],[-24,71],[27,31],[-10,41],[-23,45],[22,28],[-18,28],[29,58],[21,24],[-12,23],[-75,43],[-8,41],[-25,16],[22,95],[23,58],[-10,24],[9,28],[-26,30],[-5,40],[51,47],[14,31],[41,-7],[23,8],[32,32],[20,-9],[65,82],[80,14],[12,21],[39,27],[0,24],[81,73],[115,56],[16,19],[26,66],[-6,41],[42,35],[19,3],[20,37],[34,31],[40,24],[85,19],[36,30],[5,36],[57,44],[20,51],[6,57],[-10,25],[4,38],[-66,119],[-4,38],[-19,5],[6,42],[-42,45],[12,39],[-20,36],[42,15],[-21,33],[-56,49],[-11,62],[19,66],[34,47],[-24,50],[26,59],[-5,47],[-21,38],[6,47],[18,29],[12,50],[2,91],[36,110],[129,214],[25,73],[48,102],[16,15],[2,52],[14,19],[15,64],[-3,27],[24,36],[8,95],[8,32],[-19,44],[3,52],[31,79],[-23,79],[-56,70],[-24,43],[-15,58],[-4,92],[8,31],[30,57],[3,57],[28,47],[-6,75],[44,102],[2,25],[37,84],[2,37],[14,25],[25,75],[19,38],[48,52],[-7,57],[39,51],[29,57],[21,23],[18,104],[7,82],[25,45],[10,46],[33,60],[1,-1071],[4,-415],[-3,-409],[417,1],[283,5],[323,5],[58,3]],[[10789,12443],[28,59],[54,10],[25,-36],[6,-45],[22,-25],[173,2],[-75,-226],[-13,-64],[12,-32],[99,88],[103,107],[31,19],[73,10],[27,13],[140,94],[23,27],[9,36],[-2,77],[25,34],[34,25],[29,40],[2,54],[105,32],[190,76],[90,26]],[[11999,12844],[2,-8],[-57,-78],[1,-21],[23,-183],[-40,-47],[-12,-89],[-22,-42],[-89,-78],[-23,-13],[-59,-72],[-39,-71],[-8,-93],[-26,-85],[-12,-64],[-4,-85],[-15,-71],[-32,-29],[-15,-54],[-21,-35],[-9,-54],[-26,0],[0,-86],[-9,-22],[-75,2],[-46,-11],[-66,-37],[-99,-87],[-23,-28],[-20,-88],[-9,-65],[-22,-39],[-53,-14],[-32,-19],[-25,-90]],[[11999,12844],[37,9],[107,40],[83,13],[-25,69],[2,53],[24,6],[42,56],[0,69],[-29,31],[-19,42],[-2,79],[21,45],[-55,30],[-34,109],[-9,67],[-2,91],[-11,21],[26,98],[0,33],[-25,70],[-35,51],[-81,60],[-3,27],[49,23],[66,122],[6,19],[-15,76],[28,34],[60,1],[30,26],[17,61],[65,61],[24,32],[21,54],[45,84],[6,53]],[[12413,14659],[134,-37],[56,-31],[45,-17],[67,-56],[74,-102],[63,57],[28,47],[29,33],[109,53],[28,8],[45,-14],[65,27],[65,79],[5,26],[-6,92],[-17,78],[11,22],[2,119],[-6,239],[138,26],[84,24]],[[13432,15332],[42,-34],[-6,-33],[17,-33],[49,-41],[16,-30],[-16,-31],[-45,-32],[15,-116],[12,-53],[44,-47],[5,-40],[-25,-58],[-7,-110],[-26,-53],[22,-45],[-26,-30],[-42,-12],[-24,-33],[-22,-2],[15,-73],[-3,-30],[-24,-29],[-23,-68],[0,-62],[-18,-46],[16,-19],[49,-22],[16,-18],[1,-37],[-67,-5],[-10,-21],[-6,-65],[8,-7],[57,11],[32,-12],[16,-24],[21,-73],[-6,-32],[-56,-31],[1,-22],[41,-22],[15,-50],[29,-39],[12,-30],[90,-90],[22,-38],[-15,-85],[2,-44],[17,-43],[40,-28],[49,-5],[9,-26],[-27,-48],[11,-18],[36,-10],[-25,-136],[0,-56],[25,-52],[50,-11],[28,-60],[29,-25],[14,-54],[50,-14],[9,-38],[-25,-27],[16,-37],[-34,-30],[26,-30],[71,-59],[17,-25],[-35,-106],[-32,2],[-63,-20],[-17,-15],[18,-29],[57,-5],[17,-46],[83,-31],[17,-116],[39,-51],[45,-8],[-8,-57]],[[14137,12102],[-151,-69],[-47,-10],[-270,-32],[-28,-5],[-92,-33],[-140,1],[-47,-29],[-264,-336],[-46,-72],[-75,-158],[-37,-60],[-65,-95],[-58,-66],[-97,-83],[-46,-32],[-52,-24],[-146,-50],[-89,-11],[-67,13],[-116,44],[-35,6],[-940,-9]],[[11747,15163],[33,-4],[40,-41],[39,-28],[55,-57],[2,-46],[44,8],[15,-98],[1,-59],[48,-4],[95,12],[52,16],[99,57],[42,11],[77,-15],[-9,-103],[2,-46],[31,-107]],[[13323,4466],[1,-125],[-4,-185],[12,-290],[6,-160],[-4,-216],[5,-64],[-5,-307],[2,-525],[8,-531],[6,-321],[-4,-60],[9,-435],[-2,-337],[7,-252],[-8,-198],[2,-77],[7,-80],[-5,-281],[-106,-3],[-363,2],[-402,-4],[-59,-3],[-258,-4],[-57,3],[-680,-12],[-270,12],[-570,-2],[-1451,-6],[-774,-4],[-108,-1],[-46,12],[-1247,-3],[-20,37],[26,46],[-1,41],[31,-18],[53,39],[-26,21],[-7,39],[-29,27],[24,54],[-35,45],[13,29],[25,-31],[21,13],[-15,33],[-25,-11],[-30,51],[43,39],[5,37],[-40,0],[-14,33],[-64,34],[-8,14],[-46,-25],[-50,-11],[-49,63],[-43,-17],[3,33],[-42,12],[-24,23],[-16,66],[34,21],[-13,30],[-52,16],[-26,23],[38,44],[27,-32],[18,70],[2,39],[28,1],[22,63],[-18,64],[-19,14],[-40,2],[-26,-25],[-64,9],[-22,43],[-4,47],[-43,1],[-35,39],[21,37],[-37,15],[-38,-6],[-26,12],[-21,67],[-20,6],[-53,-39],[-58,18],[7,-40],[-32,7],[-55,50],[-35,-19],[-22,13],[-35,-6],[-15,38],[-53,-12],[-14,48],[-31,6],[5,-46],[-25,-19],[-33,45],[-51,37],[-41,47],[-32,8],[-17,36],[-43,21],[-6,32],[-32,8],[3,75],[-27,17],[-5,63],[-35,94],[-17,26],[9,24],[35,35],[-46,23],[5,34],[-44,0],[-40,24],[12,52],[-48,19],[-50,59],[0,25],[-23,15],[-56,-25],[-61,54],[-27,8],[-40,-11],[-87,-6],[-8,-7],[-1,-61],[-25,-3],[-34,50],[-3,20],[-27,27],[11,40],[57,57],[69,104],[43,73],[30,70],[13,164],[-7,32]],[[13368,7896],[58,-2],[13,36],[-17,49],[8,59],[-29,22],[24,50],[-7,54],[-18,23],[26,48],[20,14],[-3,29],[-33,41],[58,68],[22,46],[-9,17],[7,46],[191,-59],[59,-11],[60,2],[184,25],[14,-3],[393,47],[113,15],[171,-22],[156,-56],[44,-8],[143,-50],[69,-48],[29,-37],[26,-52]],[[15140,8239],[-50,-32],[-189,-67],[-19,-12],[-192,-72],[-3,-64],[-1,-196],[1,-286],[253,-22],[63,-8],[125,-33],[136,-48],[-116,-126],[-36,-17],[-11,-44],[-51,16],[-55,-25],[-1,-50],[-10,-12],[-44,-4],[-15,-37],[-35,-33],[-30,2],[-6,-33],[-36,-2],[-31,-20],[-58,-6],[17,-49],[-16,-24],[29,-15],[3,-38],[-33,-7],[-42,-42],[-74,32],[-32,-44],[-2,-18],[-61,-36],[-17,-29],[27,-66],[-31,-32],[-51,-14],[-10,-29],[-37,-22],[-5,-63],[-38,-7],[-2,-40],[13,-79],[28,-26],[17,-40],[-6,-32],[27,-28],[41,-9],[25,-61],[20,6],[30,-26],[40,-54],[-7,-126],[27,-43],[14,-4],[69,-92],[33,-21],[55,-97],[23,1],[18,-23],[29,-2],[25,-56],[-1,-31],[32,-52],[35,-23],[29,5],[35,-22],[14,7],[56,-68],[-9,-49],[36,-8],[16,14],[37,0],[33,-46],[44,12],[37,-24],[29,1],[44,-20],[114,-2],[24,27],[39,11],[16,20],[35,0],[23,27],[40,12],[3,-367],[-268,10],[-166,-2],[-236,2],[-223,3],[-507,-10],[-126,3],[-9,6],[-201,-8],[-355,8],[-221,-4]],[[14137,12102],[17,-52],[69,10],[27,-29],[-36,-24],[-14,-90],[25,-58],[8,-87],[20,-24],[98,14],[55,-60],[11,-63],[45,-97],[-42,-62],[-11,-53],[-54,-32],[-8,-45],[-30,-11],[11,-62],[-20,-19],[-12,-50],[10,-40],[27,2],[20,38],[57,-13],[49,39],[46,-10],[25,-39],[45,4]],[[14575,11189],[-2,-44],[-44,-112],[-44,-47],[-3,-20],[27,-67],[25,-27],[66,-32],[42,-34],[54,-58],[20,-36],[15,-48],[1,-37],[-15,-35],[-36,-32],[-40,-15],[-140,-10],[-155,0],[-43,-10],[-53,-42],[-17,-25],[-18,-57],[-6,-120],[84,-184],[46,-132],[10,-84],[1,-65],[-10,-73],[-14,-44],[-27,-31],[-30,-16],[-84,-27],[-90,-59],[-87,-74],[-106,-81],[-126,-125],[-53,-58],[-57,-50],[-111,-75],[-68,-39],[-100,-51],[-97,-39],[-78,-23],[-116,-50],[-60,-31],[-90,-38],[-100,-23],[-73,-6],[-85,13],[-63,24],[-81,56],[-56,56],[-24,42],[-41,51],[-92,145],[-28,35],[-48,41],[-54,21],[-62,13],[-94,0],[-91,17],[-145,43],[-108,38],[-178,48],[-74,37],[-35,24],[-90,82],[-25,36],[-77,84]],[[11222,9709],[-78,66],[-78,108],[-29,93]],[[14575,11189],[40,12],[54,-6],[33,-12],[40,-32],[80,-89],[77,-65],[35,-17],[70,-20],[99,-21],[107,-45],[77,-71],[19,-51],[-21,-41],[-38,-34],[-30,-16],[-93,-6],[-104,-11],[-111,-48],[-63,-40],[-39,-48],[-15,-84],[-2,-78],[25,-130],[32,-136],[80,-139],[24,-29],[53,-39],[81,-102],[24,-47],[60,-158],[23,-46],[44,-58],[122,-105],[104,-60],[54,-64],[70,-174],[34,-101],[85,-195],[12,-74],[-13,-91],[-43,-89],[-134,-134],[-59,-19],[-153,-69],[-175,-68]],[[12547,8052],[-124,143],[-144,159],[-483,476],[-56,43],[-49,28],[-252,133]],[[11439,9034],[38,109],[-103,102],[-100,94],[-43,51],[-42,41],[-86,66],[-17,20]],[[11086,9517],[35,63],[101,129]],[[11086,9517],[-8,13],[-158,3]],[[11825,17629],[369,4],[114,5],[473,1],[211,5],[100,-14],[-23,-58],[-31,-48],[2,-43],[-20,-29],[1,-38],[19,-24],[41,-15],[14,-25],[-12,-59],[9,-16],[73,-31],[29,-38],[15,-38],[-36,-25],[-62,6],[-15,-45],[-20,-32],[17,-63],[51,-46],[-9,-33],[18,-36],[29,-7],[15,-25],[-7,-29],[27,-56],[1,-50],[21,-12],[25,-77],[-9,-59],[-25,-20],[-13,-36],[38,-40],[-12,-88],[-14,-21],[22,-28],[35,-21],[8,-29],[-14,-43],[13,-55],[-49,-37],[16,-26],[35,-21],[-14,-57],[12,-18],[63,13],[13,-35],[-41,-11],[-6,-26],[38,-44],[7,-52],[19,-49],[-14,-32],[1,-69],[41,-67],[20,-72],[-42,-62],[4,-63],[12,-16],[37,-6],[9,-31],[-26,-43],[4,-42]],[[11439,9034],[-31,-93],[-2,-81],[-104,82],[-50,5],[-65,-31],[-38,-57],[-37,-13]]],"transform":{"scale":[0.000042388051154800476,0.00003497334700153769],"translate":[-87.47308,32.047202]},"objects":{"Geometry\\01-047":{"type":"GeometryCollection","geometries":[{"arcs":[[0,1,2,3]],"type":"Polygon","properties":{"GEOID":"010479565001"}},{"arcs":[[4,5,6,7,8,9,10]],"type":"Polygon","properties":{"GEOID":"010479564002"}},{"arcs":[[11,12,13,14,15,16,17,18]],"type":"Polygon","properties":{"GEOID":"010479562012"}},{"arcs":[[19,-11,20,21,22,23]],"type":"Polygon","properties":{"GEOID":"010479564001"}},{"arcs":[[24,25,26,-1,27,28,29]],"type":"Polygon","properties":{"GEOID":"010479565003"}},{"arcs":[[-21,-10,30,-25,31,32]],"type":"Polygon","properties":{"GEOID":"010479564003"}},{"arcs":[[33,34,-32,-30,35,36,37]],"type":"Polygon","properties":{"GEOID":"010479566002"}},{"arcs":[[38,39,40,-34,41,42,43]],"type":"Polygon","properties":{"GEOID":"010479568001"}},{"arcs":[[44,45,46,47,-15,48]],"type":"Polygon","properties":{"GEOID":"010479572002"}},{"arcs":[[49,50,51,-49,-14]],"type":"Polygon","properties":{"GEOID":"010479572001"}},{"arcs":[[52,-22,-33,-35,-41]],"type":"Polygon","properties":{"GEOID":"010479566004"}},{"arcs":[[53,54,-42,-38,55,-12]],"type":"Polygon","properties":{"GEOID":"010479567011"}},{"arcs":[[-56,-37,56,-50,-13]],"type":"Polygon","properties":{"GEOID":"010479567021"}},{"arcs":[[57,58,59,60,61,-54,-19,62]],"type":"Polygon","properties":{"GEOID":"010479562011"}},{"arcs":[[-8,63,-2,-27,64]],"type":"Polygon","properties":{"GEOID":"010479565002"}},{"arcs":[[65,66,67,-59]],"type":"Polygon","properties":{"GEOID":"010479562022"}},{"arcs":[[68,-63,-18,69,70,71]],"type":"Polygon","properties":{"GEOID":"010479569001"}},{"arcs":[[72,-70,-17,73,74,75]],"type":"Polygon","properties":{"GEOID":"010479569002"}},{"arcs":[[76,-23,-53,-40]],"type":"Polygon","properties":{"GEOID":"010479566001"}},{"arcs":[[-29,-51,-57,-36]],"type":"Polygon","properties":{"GEOID":"010479566003"}},{"arcs":[[77,-43,-55,-62]],"type":"Polygon","properties":{"GEOID":"010479568003"}},{"arcs":[[78,-44,-78,-61]],"type":"Polygon","properties":{"GEOID":"010479568002"}},{"arcs":[[-72,79,-76,80,81]],"type":"Polygon","properties":{"GEOID":"010479570001"}},{"arcs":[[-65,-26,-31,-9]],"type":"Polygon","properties":{"GEOID":"010479565004"}},{"arcs":[[-16,-48,82,83,-74]],"type":"Polygon","properties":{"GEOID":"010479571001"}},{"arcs":[[-71,-73,-80]],"type":"Polygon","properties":{"GEOID":"010479569003"}},{"arcs":[[-47,84,85,86,87,88,-83]],"type":"Polygon","properties":{"GEOID":"010479571002"}},{"arcs":[[89,90,-24,-77,91]],"type":"Polygon","properties":{"GEOID":"010479563001"}},{"arcs":[[-68,92,-92,-39,-79,-60]],"type":"Polygon","properties":{"GEOID":"010479563002"}},{"arcs":[[93,94,95,-90,-93,-67,96]],"type":"Polygon","properties":{"GEOID":"010479562021"}},{"arcs":[[97,98,-5,-20,-91,-96]],"type":"Polygon","properties":{"GEOID":"010479561011"}},{"arcs":[[-99,99,100,101,102,-6]],"type":"Polygon","properties":{"GEOID":"010479561012"}},{"arcs":[[103,-100,-98,-95]],"type":"Polygon","properties":{"GEOID":"010479561022"}},{"arcs":[[-81,-75,-84,-89,104]],"type":"Polygon","properties":{"GEOID":"010479570002"}},{"arcs":[[105,106,-87]],"type":"Polygon","properties":{"GEOID":"010479573021"}},{"arcs":[[-64,-7,-103,107,108,109,-3]],"type":"Polygon","properties":{"GEOID":"010479561013"}},{"arcs":[[-109,110,-106,-86,111,112,113]],"type":"Polygon","properties":{"GEOID":"010479573022"}},{"arcs":[[-28,-4,-110,-114,114,-52]],"type":"Polygon","properties":{"GEOID":"010479573011"}},{"arcs":[[115,-101,-104,-94]],"type":"Polygon","properties":{"GEOID":"010479561021"}},{"arcs":[[-115,-113,116,-45]],"type":"Polygon","properties":{"GEOID":"010479573012"}},{"arcs":[[-117,-112,-85,-46]],"type":"Polygon","properties":{"GEOID":"010479573013"}}]}}}