{"type":"Topology","arcs":[[[6631,7432],[119,0],[162,2],[44,-2],[45,3],[330,4],[140,-1]],[[7471,7438],[291,0],[370,-1],[138,-3],[368,6],[39,-1],[47,-15],[89,-44],[53,-29],[101,-64],[35,-19],[29,-8],[58,-9]],[[9089,7251],[-22,-42],[-18,-21],[-33,-25],[-174,-86],[-27,-18],[-68,-97],[-33,-31],[-43,-14],[-49,-10],[-82,-10],[11,-49],[10,-14],[18,-6],[41,-53],[30,-19],[0,-26],[27,-37],[35,-26],[33,-33],[65,-29],[39,-11],[2,-108],[-2,-49],[5,-67],[0,-85],[-3,-59],[6,-13],[151,-1],[68,-44],[68,-92],[49,-21],[21,-23],[43,-28],[26,-63],[24,-62],[7,-10],[25,-79],[-13,-32],[-2,-24],[18,-95],[43,-212],[44,-209],[47,-233],[8,-72],[8,-214],[8,-126],[11,-54],[4,-36],[-3,-67],[1,-26],[-34,-5],[-18,-8],[-75,-42],[-29,-7],[-141,-3],[-39,-7],[-24,-17],[-13,-15],[-94,-143],[-32,-22],[-24,-1],[-389,61],[-7,46],[-18,70],[-3,36],[7,67],[-1,24],[-14,53],[-15,33],[-46,55],[-32,28],[-141,100],[-36,22],[-37,9],[-116,0]],[[8142,4724],[-57,4],[-21,12],[-98,78],[-86,83],[-77,57],[-17,18],[-50,82],[-29,38],[-31,28],[-33,12],[-13,39],[-83,119],[-23,23],[-26,15],[-98,45],[-43,26],[-121,101]],[[7236,5504],[-29,58],[-11,34],[-31,128],[-7,147],[-18,64],[-11,47],[-23,146],[-6,30],[-11,21],[-28,34]],[[7061,6213],[-66,81],[-36,77],[-5,58]],[[6954,6429],[-4,48],[-10,26],[-30,48],[-43,57],[-69,62],[-26,32],[-27,49],[-93,120],[-57,73],[-18,29],[-7,26],[-1,185],[-2,90],[63,0],[1,158]],[[3347,9831],[22,2],[778,16],[584,8],[404,12],[403,-3],[248,4],[941,2]],[[6727,9872],[0,-155],[12,-311],[19,-583],[7,-57],[44,-295],[2,-28],[-5,-27],[-11,-26],[-53,-100],[-19,-54],[-42,-150],[-44,-150],[-11,-25],[-25,-41]],[[6601,7870],[-24,-51],[-5,-42],[5,-28],[47,-119],[7,-42],[-3,-36],[3,-120]],[[6631,7432],[-109,1],[0,-47],[-6,-5],[-73,-132],[-37,-33],[-21,-12],[-41,-11],[-60,-3],[23,-60],[38,-105],[28,-64],[19,-66],[25,-102],[95,-116],[21,-19],[114,-63],[307,-166]],[[7061,6213],[-62,-82],[-11,-24],[-15,-77],[-48,-38],[-17,-4],[-17,-23],[-23,-3],[-24,-21],[-33,-42],[-22,-19],[-13,-24],[-28,-19],[-2,-25],[-22,-22],[-2,-17],[12,-58],[9,-15],[-9,-28],[-19,-12],[-45,-48],[-14,-10],[-2,74],[-45,-18],[-79,-10],[-128,-13],[-39,-5],[-69,-5],[-187,3],[-148,-4],[-29,-6],[-84,-29],[-48,-2],[-76,22],[-12,7],[-14,42],[-33,73],[-16,25],[-22,20],[-60,36],[-28,10],[-51,13],[-20,-25],[-17,34],[-19,22],[-49,35],[-63,29],[-48,6],[-99,-4],[-158,-2],[-59,-7],[-153,-42],[-39,-7],[-98,-6],[-31,12],[-12,16],[-16,41],[-26,42],[-69,92],[-27,24],[-66,36],[-19,-20],[-31,-19],[-136,-51]],[[4231,6041],[-8,8],[-1,28],[10,26],[13,13],[0,16],[23,7],[18,27],[-8,14],[23,35],[-15,5],[-14,22],[15,38],[-12,18],[-26,3],[1,21],[-28,3],[-15,13],[2,30],[-27,17],[7,34],[-2,14],[36,32],[-4,13],[-18,1],[-16,43],[34,21],[17,18],[18,-3],[-9,27],[11,28],[-13,23],[4,45],[-11,9],[5,16],[-29,-2],[-14,23],[-22,10],[-15,-6],[-8,16],[-21,0],[14,47],[15,12],[-3,24],[-8,15],[13,13],[13,28],[15,9],[3,35],[-8,38],[23,32],[-3,16],[-16,29],[-41,44],[-8,22],[-18,-3],[-15,39],[7,20],[-13,20],[-3,34],[-11,1],[-7,18],[-23,8],[-1,55],[-16,10],[-63,-20],[2,60],[-3,22],[8,7],[1,42],[6,22],[-8,22],[-12,11],[-14,37],[-10,45],[-33,78],[0,10],[-19,12],[-23,24],[-4,25],[3,35],[-15,11],[-13,41],[2,14],[-13,14],[-17,3],[-1,30],[30,30],[17,43],[26,54],[50,53],[27,16],[59,4],[88,-17],[50,-5],[21,15],[41,52],[5,32],[-10,58],[1,22],[12,51],[-5,60],[-203,240],[-31,27],[-25,11],[-41,4],[-421,-8],[-42,-1],[-321,-16],[7,55],[12,157],[-5,59],[-20,137],[-42,64],[17,72],[6,55],[3,83],[3,19],[15,29],[23,31],[32,30],[49,53],[15,10],[37,-4],[21,21],[3,16],[32,8],[-1,28],[19,9],[1,29],[23,0],[7,38],[21,26],[-18,9],[-10,42],[15,7],[-7,14],[19,7],[3,12],[-17,7],[13,18],[-11,9],[-23,3],[2,21],[-21,27],[-7,16],[26,15],[-16,15],[-22,1]],[[6727,9872],[736,1],[579,1],[640,1],[700,-9]],[[9382,9866],[6,-92],[-2,-29],[-52,-131],[-27,-81],[-11,-26],[-16,-23],[-83,-90],[41,-34],[70,-88],[40,-58],[222,-393],[11,-25],[10,-42],[18,-97],[7,-28],[13,-25],[66,-91],[13,-25],[6,-27],[10,-70],[-3,-44],[-17,-65],[17,-48],[9,-35],[13,-29],[35,-37],[-15,-84],[-19,-39],[-10,-37],[13,-23],[26,-26],[10,-18],[38,-103],[7,-40],[4,-127],[8,-27],[17,-23],[63,-73],[39,-48],[-40,-39],[-11,-25],[4,-35],[-138,-8],[-55,-9],[-148,-38],[-40,-14],[-253,-113],[-22,18],[-46,20],[-66,20],[-55,9]],[[7471,7438],[-10,26],[-1,31],[9,17],[6,75],[-18,9],[-29,-3],[-17,17],[-38,1],[-68,-35],[-28,9],[-18,-2],[-67,4],[-70,-27],[-51,-12],[-6,7],[-85,-68],[-20,-4],[-69,16],[-45,1],[0,14],[-42,28],[-24,23],[-9,19],[-25,17],[-8,23],[0,19],[-13,21],[-25,21],[0,30],[10,9],[-28,17],[-16,35],[-23,19],[-22,50],[-15,10],[-5,15]],[[7236,5504],[23,-42],[10,-45],[-14,-93],[-10,-50],[-3,-35],[4,-74],[10,-70],[-9,-29],[-18,-36],[-24,-32],[-49,-50],[-10,-18],[-8,-29],[-20,-119],[-3,-71],[-8,-71],[-5,-19],[-15,-24],[-93,-61],[-20,-21],[-52,-93],[-7,-47],[5,-101],[-8,-39],[-13,-15],[-40,-29],[-43,-80],[-26,-31],[-71,-53],[-16,-19],[-14,-31],[-4,-41],[4,-51],[-34,-14],[-51,-31],[-39,-45],[-16,-13],[-54,-26],[-22,-19],[-51,-63],[-71,-70],[-39,-58],[-14,-15],[-21,-9],[-58,0],[-27,-13],[-41,-28],[-22,36],[-39,45],[-94,90],[-54,59],[-53,47],[-47,55],[-68,89],[-21,17],[-69,25],[-26,6],[-145,25],[-27,8],[-271,99],[5,-32],[12,-23],[27,-35],[9,-33],[7,-182],[5,-68],[24,-134],[2,-42],[-4,-28],[-39,-180],[-8,-28],[-13,-24],[-44,-55],[-22,-17],[-26,-10],[-108,-24],[-36,-19],[-254,-213],[-14,-14],[-16,-28],[-17,-48],[-18,-38],[-111,-156],[-40,-31],[-34,-10],[-120,-30],[-26,-11],[-22,-16],[-17,-23],[-54,-100]],[[4263,2430],[-188,-1],[-395,2],[-405,0],[-394,-1],[-215,1],[2,408],[-57,-3],[-54,1],[1,201],[-85,3],[-6,310],[-6,473],[-11,846],[-413,0],[-7,207],[-337,-2]],[[1693,4875],[2,90],[37,9],[8,9],[20,60],[13,20],[27,21],[28,34],[26,10],[50,-12],[18,-16],[23,-30],[22,-17],[35,-6],[90,-61],[31,-5],[34,56],[8,32],[7,7],[34,9],[29,24],[15,6],[22,-13],[25,-23],[17,-9],[31,5],[27,16],[27,10],[27,2],[50,35],[20,8],[21,0],[23,-11],[42,-52],[31,-13],[173,-24],[65,-4],[59,18],[33,6],[40,1],[20,-7],[54,-26],[39,-7],[16,-9],[13,-39],[13,-11],[69,-7],[23,-18],[34,-65],[19,-20],[70,-28],[17,-11],[32,-30],[21,57],[10,41],[24,51],[25,33],[0,28],[-20,53],[-7,41],[0,241],[10,42],[24,35],[42,36],[17,22],[4,28],[-4,128],[-6,37],[-15,25],[-49,49],[-17,23],[-6,41],[16,38],[58,79],[7,28],[5,50],[-2,19],[-24,63],[9,10],[124,6],[27,-4],[133,-42],[41,-5],[175,-16],[27,-1],[135,5],[45,11]],[[9382,9866],[149,-3],[100,1],[707,5],[401,11],[844,18],[722,4],[819,3],[21,-405],[20,-349],[13,-243],[7,-116],[10,-126],[11,-146],[8,-119],[6,-126],[21,-348],[24,-484],[399,3],[5,-202],[-404,-2],[-3,-397],[-2,-178],[-22,-461],[-10,-278],[-7,-147],[-14,-551],[-7,-232],[-1,-199],[19,-288],[15,-195],[6,-336],[2,-216],[-790,-16],[-12,223],[-187,-2],[11,-227],[-680,9],[-294,-12],[12,-287],[-10,-101],[4,-13],[-288,-9],[-78,-1],[-34,6],[-121,-123],[-77,81],[-983,-31],[0,3],[-158,9],[-34,-29],[-42,-21],[-24,-29],[-21,-8],[-24,-43],[1,-27],[18,-52],[8,-52],[-1,-50],[-5,-13],[-36,-38],[7,-33],[-3,-31],[-20,-14],[-4,-43],[-39,-84],[-22,-19],[-26,-10],[-15,-12],[-35,-46],[-31,-21],[-30,-54],[-10,-29],[3,-49],[-4,-35],[-13,-21],[-4,-28],[10,-20],[0,-31],[-13,-19],[5,-31],[0,-29],[-18,-34],[-39,-47],[-37,-60],[-13,-32],[-39,-10],[-21,-23],[-19,-51],[-13,-18],[-19,-12],[-32,-68],[-26,-25],[-73,-34],[-11,-15]],[[8792,1823],[-137,167],[-66,101],[-29,41],[-47,53],[-56,43],[-17,18],[-42,56],[-12,36],[-2,62],[-9,60],[-53,225],[93,0],[99,-4],[39,4],[19,7],[161,96],[-32,14],[-34,-8],[-16,13],[-2,19],[-15,21],[10,37],[-4,19],[-24,23],[1,28],[-17,10],[-14,26],[-17,-13],[-18,11],[0,20],[18,37],[-3,25],[-18,53],[-23,21],[-16,34],[-34,43],[-8,30],[12,20],[-23,43],[-16,10],[-4,36],[20,34],[-1,43],[-6,20],[11,10],[7,30],[16,6],[-3,21],[8,11],[-6,36],[-32,16],[-7,10],[-6,33],[-20,6],[8,18],[-3,33],[4,94],[-22,26],[-15,6],[-16,62],[-13,13],[-14,40],[-9,10],[-8,27],[-11,15],[-33,26],[-8,20],[-13,13],[2,28],[-22,14],[-12,20],[13,18],[-2,36],[11,32],[40,39],[6,42],[42,45],[6,27],[-16,41],[-21,18],[1,21],[-11,12],[-10,54],[6,18],[-14,25],[-2,20],[-30,25],[-41,8],[-61,35],[-14,22],[-3,32],[8,22],[2,31]],[[8792,1823],[-14,-27],[-37,-89],[-7,-47],[-13,-31],[-12,-14],[-34,-14],[-57,-59],[-21,-25],[-33,-31],[-33,-41],[-32,-80],[-45,-94],[-38,-37],[-11,-23],[-60,-14],[-15,-30],[-14,-17],[-2,-26],[12,-33],[3,-29],[-13,-42],[-14,-4],[-41,-29],[-33,-20],[-14,-35],[-19,-31],[-64,-25],[-9,-41],[8,-20],[-8,-45],[7,-49],[-2,-54],[4,-35],[-22,-22],[-1,-22],[-10,-30],[-15,-10],[-20,13],[-9,-12],[-15,-72],[6,-40],[-26,4],[-4,-34],[-28,-48],[-21,-17],[-5,-30],[-19,-10],[-2,-14],[14,-18],[-35,-32],[24,-25],[18,-41],[-2,-14],[-18,-27],[5,-38],[17,-46],[-6,-12],[-17,-6],[-16,-29],[-104,2],[-433,0],[-982,0],[-620,2],[-174,1],[-389,-3],[-392,0],[-2,408],[2,406],[0,412],[12,401],[7,404],[4,398],[-386,0],[-204,-1]],[[1693,4875],[-464,-3],[0,205],[-192,-4],[2,-101],[101,0],[-3,-101],[-197,0],[-109,-2],[-289,-1],[-1,-89],[-189,-5],[1,-101],[-198,0],[0,98],[-99,2],[-2,330],[0,170],[-8,554],[-3,352],[-8,923],[-5,431],[-9,602],[-5,791],[-7,810],[-9,604],[2,10],[293,2],[0,57],[0,550],[101,3],[529,20],[657,25],[273,9],[365,12],[113,5],[-2,88],[2,308],[-4,448],[8,3],[56,-3],[27,-17],[3,-45],[19,-26],[9,-39],[-11,-27],[1,-22],[8,-12],[45,-10],[20,-12],[38,-52],[36,-4],[46,-16],[58,-3],[43,-35],[50,-55],[31,-7],[4,-30],[-1,-70],[5,-33],[17,-1],[8,-21],[15,-20],[-9,-27],[15,-27],[-6,-19],[26,-23],[-29,-50],[-4,-28],[16,-30],[28,-1],[25,-22],[9,-35],[-6,-26],[20,3],[0,-18],[19,-28],[-14,-8],[-34,3],[-5,21],[-17,3],[-20,-14],[-2,-39],[15,-13],[-15,-14],[2,-37],[19,8],[11,-9],[-20,-59],[-15,-9],[-13,13],[-33,-2],[-10,-6],[9,-27],[-6,-15],[-21,-10],[-2,-17],[8,-37],[-1,-30],[-15,-47],[12,-7],[5,-22],[-9,-6],[11,-23],[30,-29],[-2,-34],[-18,-26],[6,-10],[-1,-34],[-16,-18],[7,-16],[-5,-15],[27,-28],[-14,-12],[-1,-25],[7,-14],[24,-7],[-20,-20],[8,-15],[24,-4],[-16,-30],[10,-17],[25,-1],[13,-13],[30,-8],[23,1],[37,26],[11,-28],[-6,-20],[24,-17],[1,-22],[15,-9],[9,-17],[-9,-10],[12,-59],[8,-7],[29,9],[7,-31],[12,-22],[21,-9],[7,-17],[24,-7],[8,-50],[21,5],[11,-23],[15,18],[14,-17],[24,7],[15,-22],[24,-19],[9,-26],[11,13],[15,-26],[29,0]]],"transform":{"scale":[0.00004310600629160826,0.0000357755892255893],"translate":[-85.999258,31.880275]},"objects":{"Geometry\\01-011":{"type":"GeometryCollection","geometries":[{"arcs":[[0,1,2,3,4,5,6]],"type":"Polygon","properties":{"GEOID":"010119522021"}},{"arcs":[[7,8,9,10,-6,11,12]],"type":"Polygon","properties":{"GEOID":"010119522012"}},{"arcs":[[-7,-11]],"type":"Polygon","properties":{"GEOID":"010119522011"}},{"arcs":[[-9,13,14,-2,15]],"type":"Polygon","properties":{"GEOID":"010119522023"}},{"arcs":[[-16,-1,-10]],"type":"Polygon","properties":{"GEOID":"010119522022"}},{"arcs":[[-12,-5,16,17,18]],"type":"Polygon","properties":{"GEOID":"010119525003"}},{"arcs":[[-3,-15,19,20]],"type":"Polygon","properties":{"GEOID":"010119521001"}},{"arcs":[[-17,-4,-21,21]],"type":"Polygon","properties":{"GEOID":"010119525002"}},{"arcs":[[-13,-19,22]],"type":"Polygon","properties":{"GEOID":"010119525001"}}]}}}