{"type":"Topology","arcs":[[[16545,13775],[449,183],[54,-13],[111,41],[397,156],[230,90],[122,54],[157,79],[138,60],[140,67],[37,48],[15,13],[73,39],[13,2],[42,-11],[108,3],[43,-14],[38,-18],[106,27],[41,-15],[54,10],[-47,138],[-7,30],[10,96],[-6,30],[-48,134],[-2,45],[12,33],[16,24],[60,67]],[[18901,15173],[567,45],[301,24],[96,14]],[[19865,15256],[-12,-61],[-19,-42],[-14,-68],[-13,-29],[-18,-18],[-76,-41],[-85,-65],[-50,-46],[-24,-31],[-34,-56],[-113,-160],[-14,-43],[7,-52]],[[19400,14544],[2,-39],[-5,-35],[-37,-88],[-81,-147],[-29,-78],[-10,-39],[-8,-107],[7,-102],[-8,-58],[-22,-52],[-8,-65],[-11,-47],[-24,-59],[-4,-19],[5,-62],[26,-89],[14,-59],[5,-39],[1,-62],[-14,-73]],[[19199,13225],[-54,69],[-62,-14],[-17,-35],[-17,11],[-54,-1],[-57,-10],[-50,-32],[-41,-88],[-25,-25],[-48,-8],[-31,-15],[-20,-31],[-22,-4],[-54,22],[-35,-11],[-12,-15],[8,-25],[42,-42],[22,-15],[41,-39],[-6,-25],[22,-17],[5,-17],[-24,-5],[-22,8],[23,-66],[-29,-2],[-53,47],[2,27],[-34,5],[-42,58],[-33,30],[-29,2],[-22,9],[-84,-6],[-31,-10],[7,52],[-37,4],[-13,21],[-39,-9],[-29,-21],[-21,1],[-16,-15],[17,-29],[-4,-45],[-37,0],[-27,-5],[-16,-14],[22,-26],[1,-23],[-46,-49],[-11,-4],[-55,10],[-24,33],[-51,22],[-15,25],[-64,42],[-13,33],[-11,-4],[-1,-26],[-10,-24],[-28,-11],[8,-15],[-11,-40],[27,-32],[4,-44],[-58,-20],[9,-47],[-6,-12],[-29,-4],[-14,19],[6,23],[-15,29],[-24,10],[-2,-22],[-27,4],[-21,-24],[-19,11],[-21,-1],[-52,54],[-21,-13],[1,-27],[-34,-42],[-10,-39],[-11,-17],[-32,1],[3,34],[-23,19],[-18,-20],[-31,-17],[-3,-23],[-17,1],[-11,-26],[-19,-22],[32,-26],[15,-37],[4,-62],[-3,-35],[-45,-69],[6,-23],[-12,-8],[-25,3],[-7,-15],[15,-15],[19,-1],[23,-41],[5,-28],[-45,-26],[34,-6],[29,4],[-8,-24],[9,-25],[-26,-3],[-23,-13],[-13,-33],[27,-20],[-16,-34],[14,-37],[-19,-1],[-13,25],[-25,-17],[29,-48],[-25,-10],[39,-41],[-25,-22],[-47,-1],[-34,5],[-77,22],[-134,86],[-35,9],[-45,40],[-49,25],[-56,35],[-67,20],[-33,19],[-17,24],[-46,37],[-46,26],[-26,26],[-39,12]],[[16583,12288],[-17,44],[-36,56],[-126,230],[-12,26],[-3,33],[7,26],[32,64],[16,26],[28,25],[69,28],[20,14],[24,32],[57,114],[7,53],[-7,30],[-22,56],[-30,37],[-30,17],[-61,26],[-51,39],[-15,19],[-54,93],[-12,34],[-2,44],[11,93],[7,28],[16,32],[18,22],[46,40],[33,39],[49,67]],[[6698,8054],[11,1],[198,-2],[53,12],[32,22]],[[6992,8087],[70,-57],[22,-24],[21,-37],[23,-59],[19,-31],[42,-21],[111,-2],[96,5],[57,-2],[87,-8],[40,3],[214,41],[103,26],[83,12],[124,3],[39,7]],[[8143,7943],[67,-122],[17,-49],[12,-58],[50,-259],[6,-23],[74,-223],[11,-58],[0,-37],[-7,-49],[-18,-77],[-12,-68],[-13,-91],[-34,-166],[-10,-57],[-12,-111],[-2,-39],[-9,-407]],[[8263,6049],[-134,41],[-66,11],[-44,0],[-46,-5],[-66,-20],[-94,-43],[-66,-19],[-60,-8],[-38,-1],[-446,20],[-350,22]],[[6853,6047],[-38,1],[-40,135],[-25,65],[-29,102],[-14,78],[-3,116],[-14,77],[4,87],[-6,43],[-5,87],[-12,100],[-1,25],[15,148],[2,48],[-9,36],[-51,75],[-21,56],[-12,101],[8,86],[9,39],[20,49],[16,103],[16,87],[13,40],[24,59],[8,79],[-1,44],[-9,41]],[[8091,8352],[101,27],[55,-1],[148,-26],[65,-16],[53,-18],[289,-100],[67,-28],[49,-32],[85,-60],[30,-45],[6,-44],[-82,-655],[-16,-170],[7,-50],[13,-29],[79,-116],[26,-30],[33,-22]],[[9099,6937],[32,-75],[9,-32],[3,-44],[-3,-593],[3,-265],[-3,-7]],[[9140,5921],[-35,20],[-49,11],[-263,12]],[[8793,5964],[-220,9],[-48,4],[-46,17],[-58,37],[-44,11],[-105,5]],[[8272,6047],[-9,2]],[[8143,7943],[-24,53],[-11,36],[-18,81],[-3,55],[15,92],[0,52],[-11,40]],[[9099,6937],[42,-14],[244,-40],[67,-5],[42,9],[69,23],[60,11],[47,3],[76,-2],[60,-6],[62,-16],[31,-15],[188,-116],[21,-5]],[[10108,6764],[-7,-65],[-33,-171],[4,-45],[12,-28],[39,-51],[17,-32],[7,-55],[-3,-25],[-32,-111],[-6,-67],[5,-209]],[[10111,5905],[-99,0],[-283,12],[-45,-8],[-31,-16],[-174,-121],[-38,-15],[-27,1],[-27,9],[-138,77],[-50,32],[-59,45]],[[10075,7113],[56,-135],[238,-517],[40,-84],[21,-37],[40,-58],[33,-40],[46,-49],[55,-47],[97,-73]],[[10701,6073],[-72,-37],[-64,-23],[-330,-98],[-41,-7],[-83,-3]],[[10108,6764],[7,72],[-3,39],[-12,42],[-64,135],[-14,41],[53,20]],[[9039,9229],[104,-48],[39,-16],[55,-15],[119,-14],[39,-6],[15,4],[68,-37],[95,-43],[46,-29],[42,-44],[68,-89],[53,-57],[65,-84],[35,10],[143,7]],[[10025,8768],[181,15],[56,-4],[41,-22],[42,-38],[54,-32],[62,-12],[97,7],[36,-3],[45,-11],[40,0],[42,6],[37,-2],[281,-40],[90,-28],[46,-24],[40,-12],[107,2],[109,-1],[37,-2],[98,-13],[30,-2],[35,6],[64,26],[26,8],[93,12],[51,11],[92,30],[46,14],[86,18],[43,5],[95,4],[177,-1],[54,-18],[25,-21],[76,-86]],[[12559,8560],[46,-40],[117,-64],[27,-12],[35,-8],[61,-1],[86,-11],[50,-25],[56,-69],[34,-21],[84,-35],[55,-4],[109,12],[116,21],[71,-5],[44,-15],[191,-97],[57,-49],[32,-24],[138,-81],[59,-51],[24,-13],[45,-11],[44,4],[95,23],[24,-59],[27,-104],[37,-25],[11,-17],[5,-64],[7,-129],[-4,-52],[-15,-57],[6,-44],[12,-25],[26,-37],[17,-7],[45,14],[25,-3],[85,-43],[-196,-77]],[[14347,7255],[-625,-245]],[[13722,7010],[10,75],[-1,28],[-43,63],[-32,37],[-15,31],[-18,10],[-65,7],[-63,-7],[-40,14],[-39,30],[-9,45],[-22,-21],[-18,-6],[-60,1],[-12,8],[-18,61],[-26,5],[-8,43],[5,78],[0,90],[-29,-4],[-88,19],[-152,27],[-43,10],[-119,12],[-13,23],[-42,30],[-57,74],[-30,1],[-82,-70],[-57,-33],[-62,-51],[-9,-15],[13,-24],[31,-17],[19,-29],[-12,-29],[-67,-38],[-12,-23],[-10,-68],[-14,-25],[-44,-19],[-31,-24],[-19,-29],[3,-31],[14,-28],[-8,-34],[6,-26],[-9,-18],[-40,-5],[-5,-35],[-20,-20],[-3,-42],[-20,9],[-53,0],[-40,17],[-11,50],[-65,7],[-54,-5],[-11,-39],[-31,-92],[-6,-37],[11,-19],[-9,-30],[12,-59],[21,-42],[-1,-22],[-16,-2],[-9,-31],[-26,-15],[-32,5],[-31,-30],[-34,-7],[-31,-25],[-45,-7],[-6,-16],[-28,11],[-13,-14],[-7,-67],[18,-15],[-4,-25],[11,-12],[-5,-27],[-26,-14],[7,-14],[-18,-26],[-28,-12],[-12,-27],[-6,-33],[13,-46],[-3,-9]],[[11669,6341],[-81,-6],[-70,0],[-62,5],[-171,25],[-38,2],[-46,-9],[-47,-19],[-112,-68],[-218,-129],[-123,-69]],[[10075,7113],[-87,249],[-279,808],[-41,112],[-29,61],[-53,89],[-27,38],[-131,175],[-22,33],[-172,230]],[[9234,8908],[-67,92],[-36,55],[-56,102],[-36,72]],[[13722,7010],[-843,-330],[-391,-152],[-304,-118],[-86,-26],[-97,-18],[-57,-5],[-275,-20]],[[7571,9583],[4,-49],[26,-53],[30,-29],[42,-21],[41,-8],[263,2]],[[7977,9425],[245,2],[-4,-64],[-8,-66],[-14,-54],[-17,-46],[-28,-63],[-59,-117]],[[8092,9017],[-30,10],[-167,3],[-121,-5],[-255,12],[-233,13],[-40,0],[-53,-7],[-52,-12]],[[7141,9031],[4,34],[-8,42],[12,43],[-18,28],[0,21],[12,15],[51,24],[43,6],[78,37],[97,52],[23,26],[20,64],[23,44],[33,35],[18,69],[8,12],[34,0]],[[6634,8970],[90,4],[69,14],[76,23],[53,6],[97,-8],[33,2],[89,20]],[[8092,9017],[-39,-77],[-34,-75]],[[8019,8865],[-18,-53],[-8,-38],[-3,-61],[5,-153],[10,-42],[18,-41],[58,-100],[10,-25]],[[8091,8352],[-21,-2],[-356,9],[-28,-3],[-31,-12],[-25,-18],[-53,-50],[-60,-41]],[[7517,8235],[-142,147],[-68,74],[-17,35],[-10,119],[-13,28],[-142,154],[-14,5],[-96,0],[-65,6],[-74,-1],[-99,3],[-47,-4],[-43,5],[-10,15],[-3,29],[-11,13],[-42,4]],[[6621,8867],[13,103]],[[8879,9748],[19,72],[31,70],[183,312],[43,76],[25,55],[24,65],[13,44],[14,71],[7,61],[1,100],[-12,358]],[[9227,11032],[-11,293]],[[9216,11325],[39,-17],[192,-76]],[[9447,11232],[-48,-60],[-22,-20],[-81,-65],[29,-30],[41,-22],[12,-15],[13,-59],[-5,-28],[-19,-40],[5,-35],[-5,-32],[6,-35],[18,-27],[4,-23],[-19,-36],[-6,-28],[12,-25],[68,-56],[24,-27],[22,-53],[10,-53],[23,-31],[20,-11],[40,-5],[32,3],[24,-20],[10,-42],[17,-24],[33,-13],[65,5],[37,19],[29,26],[44,29],[106,122],[13,29],[4,68],[12,38],[20,22],[24,12],[76,23]],[[10135,10713],[-82,-116],[-7,-17],[-57,-86],[-40,-56],[-20,-19],[-35,-48],[-21,-17],[-35,-59],[-19,-15],[-19,-42],[-23,-30],[-31,-80],[-34,-50],[-8,-30],[-36,-53],[-1,-15],[-34,-51],[-12,-40],[5,-7],[5,-66],[27,-33],[71,-104],[7,-14],[44,-34],[48,-31],[41,6],[23,-17],[35,-15],[0,-17],[46,-45],[38,-27],[7,-18],[-22,-88],[10,-71]],[[10006,9308],[-28,-64],[-13,-87],[-29,-18],[-22,-2],[-31,-19],[-52,-50],[-10,-40],[124,-19],[32,-18],[49,-14],[2,-40],[-4,-76],[1,-93]],[[9039,9229],[-125,250],[-24,64],[-11,49],[-6,46],[0,65],[6,45]],[[6235,4744],[263,-10],[22,-11],[162,-5],[-8,55],[-19,92],[-5,64],[11,59],[15,48],[20,38],[45,59],[21,36],[28,62],[29,70],[17,87],[34,247],[2,29],[-3,196],[-4,71],[-12,116]],[[8272,6047],[-8,-9],[-9,-91],[-23,-93],[-4,-53],[4,-121],[-3,-45],[-22,-61],[-23,-33],[-43,-39],[-42,-22],[-76,-24],[-35,-17],[-34,-25],[-35,-41],[-144,-200],[-23,-30],[-47,-53],[-80,-70],[-156,-115],[-61,-51],[-206,-200],[-34,-31],[-55,-42],[-76,-49],[-148,-123],[-26,-29],[-14,-34],[-4,-51],[0,-160],[1,-61],[-2,-109],[-12,-38],[-62,-53],[-23,-33],[-155,-114],[-38,-32],[-10,-15]],[[6544,3680],[-129,26]],[[6415,3706],[84,67],[-20,58],[13,10],[37,-45],[37,27],[12,-15],[37,28],[17,-21],[99,74],[-75,92],[3,27],[23,16],[-15,16],[38,154],[-121,11],[13,16],[0,59],[-51,18],[-1,-12],[-174,72]],[[6371,4358],[13,11],[42,69],[-32,51],[-12,11],[-36,7],[-16,48],[-25,17],[-27,42],[-14,35],[-28,1],[-41,-16],[-8,39],[9,19],[34,40],[5,12]],[[11044,4954],[44,-70],[-15,-129],[-2,-37],[8,-58],[39,-116],[7,-26],[1,-49],[-28,-347],[-171,5],[-714,6],[-34,0]],[[10179,4133],[-39,3],[-63,15],[-43,19],[-54,36],[-41,43],[-21,31],[-22,44],[120,83],[336,242],[103,69],[98,69],[120,89],[169,118],[43,6],[114,-2],[27,-59],[18,15]],[[10006,9308],[18,5],[-3,18],[1,74],[7,83],[8,27],[43,33],[133,59],[51,14],[2,36],[-3,58],[8,73],[18,49],[-21,49],[-24,27],[-26,13],[11,25],[152,127],[59,58],[52,42],[80,36],[50,42],[45,31],[30,32],[69,37],[50,21],[18,16],[30,12],[32,33],[49,36],[33,14],[22,25],[42,33],[20,7],[63,5],[92,18],[79,8],[45,15],[91,14],[14,15],[48,5],[43,14],[15,-3],[38,6],[91,29],[40,-12],[20,3],[80,-10],[36,-13],[31,4],[14,-22],[2,-44],[43,-18],[39,-1],[54,-16],[17,-18],[17,6],[52,-6],[29,-13],[62,-20],[54,3],[18,-3],[359,361],[84,9],[24,19]],[[12756,10888],[17,-13],[45,3],[51,-3],[32,-13],[-5,-10],[-41,-10],[-45,-26],[-3,-24],[10,-8],[35,-4],[23,-13],[23,-38],[20,-39],[2,-36],[10,-27],[7,-44],[-2,-63],[-13,-60],[4,-37],[-5,-53],[-8,-18],[-57,-71],[-8,-33],[4,-34],[15,-62],[-19,-58],[0,-40],[9,-26],[29,-31],[-6,-21],[-63,-59],[-24,-38],[-108,-86],[-9,-16],[6,-30],[-13,-98],[-25,-30],[-8,-19],[7,-26],[26,-45],[-11,-64],[2,-28],[48,-62],[35,-19],[16,-27]],[[12759,9329],[49,-87],[11,-32],[4,-47],[-5,-355],[-20,-43],[-25,-17],[-53,-14],[-25,-12],[-30,-29],[-44,-86],[-22,-21],[-40,-26]],[[13159,16612],[121,193],[41,61],[70,79]],[[13391,16945],[115,116]],[[13506,17061],[74,73]],[[13580,17134],[72,73],[27,38],[90,141]],[[13769,17386],[48,-5],[21,-12],[10,-25],[49,-27],[16,-19],[6,-30],[26,-14],[28,7],[38,-12],[-19,-38],[0,-49],[7,-22],[14,-10],[67,-18],[32,-3],[1,50],[7,24],[20,19],[37,4],[21,-11],[30,37],[27,68],[8,35],[12,25],[7,38],[-31,5],[-46,22],[24,41],[52,-27],[42,-3],[43,6],[47,0],[0,23],[-8,21],[40,34],[24,3],[-11,40],[-2,61],[-14,16],[15,12],[49,0],[3,235],[19,3],[29,20],[32,34],[69,8]],[[14658,17952],[10,-68],[31,-252],[3,-50],[-4,-38],[-13,-59],[-5,1],[-54,-239],[-26,-73],[-73,-147],[-16,-41]],[[14511,16986],[-9,-30],[-116,-116],[-115,-292],[-345,-484],[-17,-17]],[[13909,16047],[-3,336],[176,4],[-3,339],[182,5],[1,169],[-354,-8],[0,164],[-177,-2],[1,-167],[-171,-4],[-3,-84],[-41,1],[-57,-55],[-20,-23],[-57,3],[-2,-56],[-83,-113],[-80,3]],[[13218,16559],[-2,22],[-13,12],[-44,19]],[[12493,14122],[2,118],[276,-12],[37,0],[-1,168],[50,2],[169,-5],[1,336],[176,-4],[-1,13],[6,151],[338,-6],[12,-1],[1,454],[1,267],[-2,274],[175,2],[0,166],[176,2]],[[14511,16986],[6,0]],[[14517,16986],[-17,-85],[-1,-39],[12,-76],[38,-118],[14,-70],[5,-51],[5,-97],[17,-80],[18,-47],[51,-87]],[[14659,16236],[232,-366],[108,-169],[61,-78],[46,-46],[97,-81]],[[15203,15496],[-151,-193],[-15,-25],[-71,1],[-63,-9],[-23,1],[-43,15],[-18,-21],[-34,-6],[-17,-20],[-24,-47],[-42,-15],[-10,-21],[-42,-10],[-14,-9],[-21,-32],[-24,-50],[-13,-44],[7,-33],[-130,-85],[-31,-13],[0,-12],[-490,-304],[-315,-197],[-209,-134],[-25,-13],[-62,-23],[-343,-96]],[[12980,14101],[-44,-12]],[[12936,14089],[11,20],[-23,18],[-13,30],[-34,-15],[-23,5],[-40,-19],[-71,35],[-4,22],[-16,-4],[-28,43],[-40,-21],[-48,-19],[-8,-15],[-51,-34],[-55,-13]],[[8019,8865],[11,-2],[215,-26],[90,-25],[31,8],[47,44],[53,40],[144,97],[32,17],[47,8],[108,-6],[41,-39],[30,-21],[33,-16],[49,-12],[284,-24]],[[16621,17096],[21,-39],[20,-28],[-24,-44],[-42,-49],[10,-61],[40,-29],[26,-6],[8,-19],[26,-4],[-28,-80],[57,21],[14,-6],[-8,-20],[12,-13],[-27,-20],[-32,-39],[-16,-11],[-45,-47],[-53,-48],[-33,-20],[-49,-54],[-21,-17],[-22,-38],[-33,-21],[-30,-42],[-26,-22],[-6,-23],[-79,-79],[-30,-64],[-28,-45],[-33,-31],[0,-34],[-172,-1],[-3,-166],[-172,-2],[-2,-167],[-89,-4],[-84,0],[-1,-163],[-18,-7],[-54,-52],[-86,-91],[-82,-95]],[[15427,15316],[-224,180]],[[15203,15496],[44,113],[25,39],[232,235],[320,309],[62,70],[107,145],[55,60],[254,261],[51,56],[220,260],[48,52]],[[12576,17687],[22,22],[66,18],[25,37],[12,60],[17,42],[37,40],[25,6],[10,82],[10,22],[-6,47],[10,35],[-1,22],[-31,42],[-20,-12],[-16,-40],[-14,12],[-30,-25],[-4,-20],[-18,-6],[-48,-56],[-9,29],[29,40],[12,27],[57,54],[19,26],[-16,51],[-24,19],[1,49],[-7,22]],[[12684,18332],[51,54],[27,25],[40,25],[20,17],[34,46],[27,20],[65,32],[25,18],[68,41],[38,17],[26,22]],[[13105,18649],[66,-52],[58,-37],[89,-48],[120,-64]],[[13438,18448],[-42,-67],[-34,-32],[-49,-34],[-32,-35],[-36,-57],[-48,-90],[-35,-95],[-17,-30],[-131,-177],[-21,-24],[-91,-85],[-69,-86],[-44,-29],[-58,-19]],[[12731,17588],[-31,21],[-53,14],[-41,28],[-30,36]],[[12790,18922],[415,-10],[0,13]],[[13205,18925],[28,-15],[85,-20],[4,-27],[-33,-43],[18,-13],[36,55],[44,-6],[5,-6],[59,1]],[[13451,18851],[-1,-13],[-41,-26],[-21,-28],[-3,-29],[6,-23],[17,-23],[-13,-43],[13,-30],[46,12],[24,-36],[10,-32],[31,-14]],[[13519,18566],[-43,-54],[-34,-66]],[[13442,18446],[-4,2]],[[13105,18649],[-165,153],[-99,83],[-51,37]],[[14348,13033],[125,95],[43,52],[18,14],[65,33],[120,47],[27,15],[68,48],[62,20],[38,22],[12,35],[6,107],[5,27],[29,45],[38,36],[24,17],[158,79],[53,43],[39,27],[60,28],[107,55],[65,41],[63,22],[18,12],[35,37],[29,51],[10,29],[0,26],[-8,25],[-31,71],[0,26],[16,29],[75,97],[14,30],[4,28],[-8,40],[4,24],[22,42],[46,39],[93,59],[41,33],[108,120],[3,11]],[[16044,14770],[29,-1],[27,-11],[22,-21],[5,-19],[-5,-69],[11,-52],[14,-31],[36,-47],[100,-91],[27,-29],[31,-53],[68,-118],[106,-197],[14,-41],[29,-135],[2,-41],[-15,-39]],[[16583,12288],[0,-45],[-79,-377],[-99,-441]],[[16405,11425],[-32,12],[-321,136],[-55,27],[-42,24],[-56,39],[-130,104],[-59,39],[-47,25],[-444,215],[-89,54],[-159,121],[-31,29],[-34,49],[-211,417],[-41,71],[-56,63],[-64,46],[-134,83],[-37,34],[-15,20]],[[5672,4415],[230,349],[173,-9],[160,-11]],[[6371,4358],[-29,-34],[-19,-7],[-15,-29],[-1,-26],[-32,-13],[-20,-20],[-13,-30],[-41,-20],[-30,-34],[43,-72],[-17,-66],[31,-15],[49,3],[36,-18],[28,-30],[8,-46],[22,-74],[29,-56],[-5,-33],[-31,-13],[51,-19]],[[6544,3680],[-7,-31],[-5,-234],[-15,-24],[-39,-35],[-68,-83],[-25,-23],[-85,-64],[-78,-53],[-44,-36],[-260,-276],[-38,-44],[-122,-165],[-263,-401],[-43,-60],[-59,-58],[-81,-61],[-97,-70],[-43,-17],[-57,-2],[-22,4],[-95,32],[-51,9],[-50,-1],[-63,-16],[-163,-57],[-74,-21],[-54,-8],[-71,-3]],[[4472,1882],[-1,65],[-149,0],[1,150],[-5,0]],[[4318,2097],[19,47],[2,16],[-21,43],[-50,26],[-13,17],[-53,47],[-29,71],[-40,53],[-6,31],[2,34],[13,33],[29,15],[30,4],[26,-7],[41,1],[85,47],[23,18],[-31,44],[-4,37],[4,16],[33,1],[30,-25],[22,1],[46,24],[15,28],[42,47],[22,-1],[26,-18],[16,-22],[46,-40],[-1,-47],[-11,-19],[4,-41],[24,-10],[50,19],[46,4],[20,13],[35,76],[38,49],[41,27],[53,24],[44,13],[54,25],[39,22],[25,23],[55,13],[41,15],[32,18],[38,14],[13,17],[-11,25],[-23,27],[-12,32],[-27,42],[0,13],[24,45],[32,30],[49,52],[34,23],[54,10],[16,-3],[48,-31],[25,-3],[-8,-35],[-16,-27],[-1,-26],[40,-16],[39,4],[52,38],[-60,24],[-21,20],[-21,55],[0,42],[22,92],[10,53],[6,66],[1,37],[-8,53],[-31,95],[-63,131],[-9,34],[-3,55],[8,30],[35,63],[8,20],[42,147],[25,58],[133,200]],[[6061,12967],[39,69],[45,40],[76,79],[22,19],[44,49],[63,93],[3,16],[-39,105],[-6,52],[4,11],[50,23],[18,2],[36,-20],[37,-42],[29,-53],[3,-17],[-8,-53],[-17,-29],[18,-37],[24,-11],[33,-4],[117,9],[49,13],[45,6]],[[6746,13287],[190,-210],[127,-136],[56,-63],[30,-25],[58,-36],[133,39],[103,18]],[[7443,12874],[-5,-30],[-26,-87],[-4,-152],[-18,-125]],[[7390,12480],[-17,-29],[-50,-70]],[[7323,12381],[-21,-26],[-30,-49],[-69,-42],[-18,-16],[-111,-132],[-29,-43]],[[7045,12073],[-17,25],[-88,77],[-43,31],[-43,42],[-64,78],[-19,29],[-58,115]],[[6713,12470],[-14,33],[-25,96],[-13,31],[-21,21],[-27,12],[-35,3],[-42,-8],[-49,-22],[-65,-52],[-44,-46],[-25,-18],[-128,-52],[-106,-52],[-40,-31],[-46,-59],[-31,-16],[-95,-25],[-30,-14],[-42,-43]],[[5835,12228],[-63,37],[-42,18],[-32,29],[-25,15],[-30,52],[17,40],[32,27],[22,-1],[67,-23],[70,-27],[20,3],[34,19],[14,34],[3,45],[-1,55],[14,71],[30,83],[5,38],[26,83],[5,27],[20,45],[40,69]],[[13275,19407],[92,0],[1,163],[24,4],[147,-6],[5,307],[-2,30],[295,-4],[63,-3]],[[13900,19898],[2,-164],[323,-4],[38,1],[0,-167],[353,4],[-1,-131],[8,-10],[168,2],[0,-28],[56,-25]],[[14847,19376],[-62,-123],[-53,-94]],[[14732,19159],[-49,24],[-36,7],[-97,12],[-41,16],[-29,40],[-15,51],[-31,48],[45,43],[58,40],[13,19],[5,46],[-21,19],[-77,18],[-30,-23],[-22,-55],[-26,12],[-60,10],[-51,-12],[14,-43],[-38,-20],[-43,-38],[-45,-75],[-26,-30],[-73,-60],[-9,-15],[3,-39],[28,-46],[11,-52],[11,-17],[50,-52],[4,-37],[-18,-53]],[[14137,18897],[-27,2],[-34,-10],[-146,-90],[-22,-24],[-14,-46],[-4,-111],[-8,-20],[-27,-27],[-75,-37],[-18,-24],[-22,-72],[2,-31],[-18,-57]],[[13724,18350],[-88,11],[-53,16],[-47,19],[-94,50]],[[13519,18566],[33,59]],[[13552,18625],[51,48],[38,52],[23,44],[5,36],[16,60],[2,33],[-7,61],[-1,39],[-15,23],[-27,21],[-24,10],[-69,4],[-90,34],[-2,25],[-31,25],[-29,7],[-17,23],[-17,9],[-33,0],[-46,45],[-5,24],[-6,72],[-21,21],[28,66]],[[6992,8087],[52,41],[38,19],[152,59],[58,15],[40,3],[51,-5],[42,-9],[53,3],[39,22]],[[12441,17992],[28,29],[16,31],[1,58],[18,31],[85,69],[16,18],[35,53],[44,51]],[[12576,17687],[-37,21],[-21,3],[-64,1],[-60,12],[-32,21],[-14,16],[-14,35],[-3,28],[7,40],[11,25],[31,42],[61,61]],[[14494,18711],[46,84],[87,153],[23,43],[61,129],[21,39]],[[14847,19376],[15,-7],[-11,-21],[72,-30],[-11,-80],[61,0],[104,103],[67,-24],[70,-39],[61,88],[41,-25],[-1,61],[179,3],[0,139],[7,156],[22,35],[-16,38],[167,136],[169,0],[4,171],[175,2],[1,165],[83,2],[89,91],[3,1],[-1,78],[-165,164],[0,4]],[[16032,20587],[103,-1],[62,1]],[[16197,20587],[26,-9],[14,-24],[-11,-19],[-9,-49],[12,-35],[25,-9],[53,4],[6,-66],[23,-67],[-4,-58],[15,-61],[3,-70],[-7,-23],[-15,-16],[-36,-8],[-45,8],[-48,-10],[-134,2],[-15,-7],[-19,-24],[-5,-30],[8,-48],[-23,-52],[-2,-40],[6,-59],[-4,-67],[-11,-39],[-29,-35],[-48,-22],[14,-42],[37,-47],[53,-33],[12,-33],[-16,-23],[-159,-97]],[[15864,19379],[-32,43],[-29,15],[-55,6],[-32,-9],[-20,-29],[-35,-36],[-50,-35],[-80,-65],[-25,-26],[-45,-21],[-51,-4],[-43,-12],[-16,-13],[-13,-33],[-24,-20],[-54,-11],[-60,8],[-21,-4],[-23,-16],[-12,-19],[-3,-30],[4,-34],[-13,-30],[-22,-12],[-71,8],[-29,-9],[-16,-28],[-1,-33],[-9,-77],[-24,-25],[-62,-1],[-43,-17],[-38,-34],[-31,-15],[-96,-79],[-19,-22],[-29,-15],[-42,7],[-106,59]],[[4991,13279],[8,-49],[-4,-38],[-42,-53],[-9,-24],[6,-41],[39,-76],[28,-40],[40,-76]],[[5057,12882],[-8,-10],[-93,-63],[-63,-47],[-87,-77],[-103,-75],[-102,-85],[-41,-30],[-199,-123],[-67,-57],[-223,-239]],[[4071,12076],[1,341],[1,348],[95,1],[74,-1],[6,71],[-2,102],[157,-2],[27,-2],[2,164],[168,8],[186,0],[-2,171],[207,2]],[[11619,18290],[474,-17]],[[12093,18273],[17,-42],[-3,-24],[-65,-80],[-34,-22],[-27,-2],[-46,9],[-20,-6],[-30,-29],[-16,-21],[-44,-28],[-15,-29],[11,-24],[28,-24],[10,13],[47,3],[0,13],[44,-2],[77,-9],[21,-17],[20,-3],[37,-33],[-14,-35],[25,-18],[60,-11],[36,-62],[15,-11],[-38,-70],[-10,-24],[-4,-37],[-85,-4],[-18,-6],[-22,-23],[-8,-20],[-36,-8],[-70,10],[-87,0],[-132,4],[-18,-5],[-60,-43]],[[11639,17553],[-83,109],[-19,42],[-11,42],[-1,66],[61,393],[7,45],[26,40]],[[5944,11979],[34,19],[15,34],[29,-6],[18,35],[-6,20],[32,-2],[39,14],[10,20],[25,-31],[29,-28],[9,-32],[-9,-32],[56,-35],[46,-39],[36,-10],[26,42],[47,56],[34,26],[80,65],[28,28],[22,38],[6,63],[10,36],[1,27],[-10,28],[1,42],[16,33],[45,36],[100,44]],[[7045,12073],[-41,-25],[-36,-10],[-134,-18],[-21,-5],[-46,-21],[-73,-52],[-30,-24],[-24,-29],[-30,-63],[-30,-39],[-52,-47],[-38,-23],[-49,-23],[-55,-33],[-31,-24],[-48,-53],[-42,-60],[-55,-92],[-28,-81],[-14,-20],[-45,-46],[-65,-143],[-15,-22],[-46,-30],[-21,-26],[-9,-37],[1,-35],[9,-74]],[[5977,10918],[-12,-7],[-4,-34],[-26,5],[-11,32],[-54,25],[-32,-7],[-12,-21],[-18,-3],[-46,43],[-42,57],[-17,-10],[-24,-46],[-16,-5],[-46,17],[27,27],[40,12],[14,24],[1,50],[-40,3],[-34,54],[-12,28],[-32,17],[-13,-1],[-3,-35],[-20,-7],[-14,53],[18,65],[-18,31],[-15,4],[-44,-52],[-37,-37],[-61,-52],[0,-23],[-13,-17],[-48,-14],[-14,4],[24,34],[4,35],[-29,57],[-11,11],[-43,17],[-14,-10],[3,-34]],[[5233,11208],[-49,24],[-52,35],[-47,22],[-77,51],[-38,22],[-4,35],[7,110],[13,46],[28,19],[84,-37],[76,-39],[41,-25],[76,-32],[12,-2],[64,6],[36,8],[106,14],[29,33],[-19,31],[-48,36],[-22,7],[-65,41],[-3,36],[53,58],[66,58],[14,61],[15,48],[4,39],[14,11],[17,-4],[80,-36],[81,-29],[45,-9],[68,-1],[38,9],[39,35],[30,74],[-1,16]],[[6172,14432],[312,-6],[574,-14],[530,-11]],[[7588,14401],[-32,-21],[-28,-30],[-87,-66],[-24,-21],[-63,-38],[-37,-29],[-46,-73],[-14,-38],[-27,-35],[-20,-41],[-26,-29],[-34,-55],[-68,-25],[-89,-38],[-43,-10],[-129,-18],[-30,-20],[-38,-95],[-19,-73],[5,-25],[25,-22],[41,11],[64,-6],[35,2],[43,-26],[11,-28],[-24,-34],[-10,-34],[-17,-19],[-62,-42],[-47,-87],[-21,-24],[-31,-25]],[[6061,12967],[-42,25],[-35,28],[-33,40],[-15,49],[3,48],[7,33],[20,60],[4,54],[-8,42],[-18,38],[-30,37],[-57,48],[-25,27],[-15,24],[-10,35],[0,51],[20,75],[21,60],[17,34],[307,504],[17,42],[3,26],[-5,39],[-15,46]],[[6698,8054],[-43,203],[-2,35],[2,84],[9,38],[-1,26],[-21,56],[-49,166],[-8,44],[3,37],[25,74],[8,50]],[[12542,17110],[42,22]],[[12584,17132],[21,-39],[9,-30],[1,-45],[46,-8],[54,-38],[18,-21],[20,11],[27,32],[60,-44],[31,-13],[16,30],[4,22],[14,26],[21,10],[78,3],[2,-60],[68,-1],[302,-13],[15,-9]],[[13159,16612],[-44,-59],[-25,-43],[-22,-48],[-22,-38],[-26,-28]],[[13020,16396],[-163,86],[-38,15],[-63,2],[-38,-11],[-54,-27]],[[12664,16461],[-9,27],[0,99],[-6,17],[-76,77],[-27,13],[-71,-8],[1,50],[-8,25],[-24,39],[-5,23],[8,37],[-16,7],[-19,25],[-40,39],[14,9],[32,39],[71,59],[53,72]],[[16197,20587],[96,2],[72,-1],[541,7]],[[16906,20595],[-1,-63],[-105,-161],[-94,-141],[-282,-408],[90,-53],[-61,-96],[-23,-19],[-72,-93],[-24,-21],[-33,-48],[-22,-18],[-31,-45],[-56,-50],[-18,-26],[-70,-75],[-21,-28],[-74,-78],[-43,-54],[-56,-61],[-35,-28],[-25,-34],[-55,-103],[-40,-67],[-42,-64],[-51,-68],[-24,-23],[-27,-43],[-1,-16],[-39,-64],[-10,0]],[[15561,18547],[29,68],[-16,14],[-49,-38],[-48,-29],[-25,-21],[-137,-70],[-55,-31],[-18,-6],[-91,-66],[-28,-15],[-44,-10],[-62,-2],[-51,9],[-40,-2]],[[14926,18348],[10,39],[39,49],[25,23],[74,55],[23,24],[18,30],[18,71],[36,12],[18,25],[13,46],[12,17],[22,7],[54,-5],[34,14],[37,61],[59,63],[21,27],[15,39],[23,16],[58,20],[30,23],[39,54],[16,15],[64,33],[50,8],[25,16],[17,22],[40,67],[4,27],[-6,21],[11,26],[18,16],[26,43],[-5,27]],[[8480,15707],[151,-2],[4,134]],[[8635,15839],[160,-290],[13,-17],[34,-11],[116,-15],[16,-4],[24,-26],[49,-168],[32,-92]],[[9079,15216],[-17,-5],[-86,9],[-60,0],[-13,-10],[-45,24]],[[8858,15234],[15,70],[7,13],[-33,9],[-33,-11],[-43,-22],[-29,-37],[-36,-8],[-14,6],[-24,-14],[-30,3],[-39,30],[-2,19],[-26,34],[-23,9],[1,22],[-21,9],[-9,23],[-16,10],[-39,-30],[-32,59],[-24,35],[-23,48],[-21,63],[21,48],[48,37],[47,48]],[[16258,7458],[13,32],[20,13],[26,2],[1,-82],[-36,-29],[-6,-32],[-18,0],[0,96]],[[16115,7553],[0,13],[37,41],[6,22],[1,58],[9,28],[89,-1],[-1,-166],[-15,-1],[0,-42],[-58,-1],[-1,-17],[-67,-3],[0,69]],[[11692,3449],[26,-205],[14,-79],[16,-69],[33,-105],[149,-439],[76,-227]],[[12006,2325],[-447,-1],[-190,0],[-172,1],[-955,-5],[-370,-6],[-268,-7],[-68,7],[-212,-4]],[[9324,2310],[37,32],[26,56],[10,50],[-1,52],[14,44],[37,50],[47,57],[106,111],[22,20],[29,16],[29,7],[78,6],[28,22],[2,76],[16,66],[26,44],[30,25],[63,37],[17,27],[2,47],[125,4],[39,10],[39,22],[42,10],[140,4],[36,12],[117,89],[73,43],[156,86],[83,44],[20,8],[25,-14],[21,6],[56,2],[59,9],[67,31],[27,7],[51,54],[49,16],[45,-12],[20,23],[17,-4],[2,-21],[26,4],[40,-40],[23,-2],[38,-18],[32,-23],[31,-9],[3,-53],[40,-6],[1,19],[37,-8],[22,-15],[53,20],[48,-7],[47,3]],[[14659,16236],[407,184],[55,29],[64,52],[160,180],[39,48],[37,51],[321,489]],[[15742,17269],[89,139]],[[15831,17408],[19,-4],[145,-2],[52,-5],[21,-15],[0,-73],[-7,-27],[-61,-113],[9,-44],[21,9],[28,41],[61,62],[26,32],[35,81],[20,33],[16,42],[37,25],[51,57],[17,38],[35,21],[48,82],[44,59],[20,35],[35,48],[14,42],[26,51],[52,84],[44,52],[46,85],[32,47],[49,43],[29,15],[6,13],[82,150],[86,161],[109,134],[86,97],[98,114],[74,89],[27,25],[359,325],[107,117],[203,207],[221,218],[523,600],[-9,41],[149,149],[118,100]],[[19034,20749],[15,-322],[1,-70],[29,-646],[19,-312],[1,-30]],[[19099,19369],[-143,-173],[-49,-48],[-59,-38],[-196,-99],[-53,-28],[-38,-28],[-65,-63],[-966,-984],[-219,-225],[-143,-140],[-82,-84],[-30,-27],[-52,-40],[-125,-77],[-64,-48],[-142,-123],[-52,-48]],[[12980,14101],[-59,-70],[-21,-41],[-1,-30],[8,-28],[75,-180],[9,-39],[5,-67],[9,-24],[20,-29],[66,-55],[58,-25],[43,-3],[348,28],[28,-4],[28,-19],[15,-24],[-4,-45],[-22,-28],[-41,-35],[-16,-19],[-6,-38],[25,-38],[58,-29],[57,-38],[41,-36],[21,-8],[33,2],[88,53],[69,3],[68,33],[124,84],[71,32],[43,29],[36,31],[21,-28],[11,-28],[1,-26],[-16,-67],[4,-46],[57,-187],[14,-29]],[[14348,13033],[-18,-15],[-36,-57],[-61,-64],[-11,-22],[-22,-63],[-15,-31],[-36,-57],[-52,-30],[-36,-63],[-88,-78],[-36,-37],[-21,-31],[-25,-50]],[[13891,12435],[-32,6],[-83,3],[-813,58],[-64,5],[-1028,73],[-65,11],[-57,-38],[-12,-18],[-28,-17],[-42,-45],[-24,-8],[-32,-34],[-42,-34],[-37,-43],[-34,-29],[-16,-19],[-26,-16],[-16,-22],[-44,-31],[-5,-20],[-49,-46],[-31,-21],[-21,-35],[-29,-15],[-37,-30]],[[11224,12070],[-322,6],[-82,3],[-239,4]],[[10581,12083],[217,209],[63,63],[64,56],[116,49],[81,42],[61,48],[58,64],[55,78],[53,58],[44,44],[53,61],[197,287],[47,47],[38,22],[55,25],[152,59],[63,37],[337,285],[95,69],[72,43],[123,66],[97,51],[54,38],[73,72],[40,55],[47,78]],[[15427,15316],[136,-109],[54,-38],[71,-31],[58,-13],[62,-5],[33,1],[123,19]],[[15964,15140],[5,-39],[-15,-30],[-5,-24],[3,-63],[16,-87],[8,-17],[50,-53],[7,-17],[-5,-28],[16,-12]],[[8905,3422],[278,23],[91,5],[210,-10],[77,2],[131,8],[354,19],[56,6],[51,12],[40,14],[332,143],[-35,47],[-126,145],[-50,43],[-46,30],[-34,37],[-14,36],[-40,141],[-1,10]],[[11044,4954],[-19,35],[-9,50],[0,24],[-42,336],[-70,524]],[[10904,5923],[172,-127],[77,-60],[36,-31],[59,-59],[37,-42],[54,-74],[38,-61],[49,-100],[25,-65],[15,-50],[17,-72],[7,-46],[118,-981],[32,-268]],[[11640,3887],[52,-438]],[[9324,2310],[-93,-3],[-150,-2]],[[9081,2305],[-9,21],[-71,134],[-24,64],[-29,29],[-55,17],[-31,16],[-27,22],[-30,17],[-56,12],[-188,-3],[-43,21],[-14,18],[-33,74],[37,166],[2,73],[-7,218],[7,62],[19,42],[53,86],[323,28]],[[5057,12882],[36,-60],[65,-72],[36,-48],[133,-218],[35,-53],[90,-74],[21,-25],[79,-111],[32,-38],[32,-25],[57,-19],[42,1],[38,11],[43,33],[39,44]],[[5835,12228],[33,-21],[30,-35],[32,-31],[29,-35],[-20,-100],[5,-27]],[[5233,11208],[46,-35],[-2,-33],[-42,-44],[-60,-36],[-111,-74],[-30,-9],[-37,8],[-55,46],[-13,88],[-14,64],[-22,32],[-22,8],[-33,-10],[-26,-23],[-60,-90],[-7,-23],[27,-46],[24,-21],[31,-17],[59,-48],[8,-29],[-13,-38],[-25,-34],[-18,-15],[-84,-47],[-36,-3],[-15,15],[-1,33],[-20,31],[-54,112],[-33,56],[-38,101],[-16,16],[-26,-15],[-5,-63],[-18,-57],[-37,-30],[-50,-23],[-72,-9],[-49,2],[-54,-5],[-5,-31],[3,-71],[-5,-25],[-19,-21],[-35,-16],[-38,1],[-36,75],[-46,72],[-69,5],[-33,-20],[-27,-31],[-15,-34],[-12,-52],[6,-35],[12,-4],[64,8],[23,-2],[49,-18],[38,-19],[34,-28],[7,-14],[41,-59],[15,-44],[-1,-28],[-13,-40],[-41,-43],[-32,-6],[-53,-16],[-33,-26],[-6,-23],[-31,-25],[-23,-28],[-27,-13],[-39,-9],[-80,7],[-51,32],[-28,26],[-14,46],[-23,52],[-25,42],[-42,59],[-24,28],[-27,11],[-42,-44],[-24,-34],[-14,-30],[-2,-39],[20,-64],[47,-65],[5,-25],[-21,-25],[-32,-18],[-57,-53],[-20,-34],[-1,-26],[32,-78],[42,-50],[18,-42],[-8,-24],[-20,-16],[-69,-25],[-26,-1],[-13,16],[-4,51],[-14,48],[8,32],[-15,34],[-45,36],[-64,20],[-29,-3],[-69,-80],[-47,-15],[-52,-30],[-27,-44],[14,-43],[16,-32],[4,-26],[-9,-14],[-29,-13],[-54,-45],[-18,-26],[-8,-30],[11,-31],[15,-17],[3,-20],[26,-42],[30,-37],[55,-75],[39,-43],[1,-38],[-29,-17],[-66,-8],[-35,14],[-38,28],[-42,12],[-16,-10],[-9,-21],[2,-30],[34,-47],[20,-34],[7,-28],[-17,-61],[-15,-30],[3,-30],[-14,-28],[6,-53],[20,-52],[-9,-29],[-19,-22],[-51,-36],[-27,-25]],[[2827,8959],[-31,1],[-53,21],[-50,40],[-53,19],[-26,-10],[-5,-31],[21,-27],[0,-23],[-11,-28],[-45,-28],[-67,-60],[-39,-48],[-79,-126],[-42,-61],[-31,-55],[-38,-48],[-49,-34],[-50,-2],[-46,32],[-16,46],[-18,7],[-43,-45],[-24,-16],[-19,-43],[-10,-56],[-15,-43],[-37,-34],[-36,-14],[-45,-6],[-33,5],[-72,3],[-58,14],[-38,20],[-28,42],[-16,59],[38,95],[-20,59],[-40,16],[-34,-3],[-21,-15],[-31,-36],[-8,-60],[-10,-44],[-12,-22],[-15,-53],[-18,-25],[-1,-55],[20,-47],[-4,-37],[-33,-47],[-17,-13],[-23,-32],[-37,-33],[-25,-11],[-28,2],[-62,16],[-26,-8],[-14,-24],[-18,-64],[-4,-33],[7,-27],[-2,-38],[9,-29],[3,-52],[-8,-52],[-33,-33],[-65,-39],[-29,-44],[-27,-23],[-32,1],[-22,10],[-28,37],[-27,42],[-27,35],[-22,18],[-49,20],[-80,17],[-54,16],[-51,4],[-24,-26],[5,-41],[41,-50],[1,-24],[-9,-21],[-8,-50],[-20,-49],[-22,-108],[-1,-53],[15,-38],[33,-30],[67,-75],[19,-33],[42,-107],[20,-31],[15,-39],[3,-44],[-20,-53],[-13,-14],[-37,-17],[-57,53],[-57,26],[-36,-2],[-16,-12],[-94,-31],[-43,-9],[-74,5],[-96,-3],[-26,-6],[-42,-23],[-33,-11],[-43,1],[-32,17],[-27,28],[-9,28],[-11,112],[3,29],[23,44],[27,32],[34,29],[70,11],[77,-2],[27,-4],[45,10],[18,24],[6,52],[-33,44],[-65,48],[-23,4],[-58,22],[-58,-2],[-45,-16],[-54,-53]],[[50,7361],[-1,576],[175,0],[3,396],[-2,19],[-4,428],[-175,-3],[-5,439],[-6,79],[1,154],[-1,333],[-35,682],[558,-7],[937,-13],[283,0],[0,188],[6,133],[173,-4],[4,154],[4,15],[96,-4],[68,4],[6,162],[179,2],[2,336],[149,-6],[732,-11],[1,172],[-2,165],[532,2],[3,169],[197,1],[144,-1],[-1,155]],[[13900,19898],[352,-3],[2,271],[-2,73],[2,335],[263,3],[379,3],[396,5],[257,6],[170,0],[313,-4]],[[14347,7255],[105,-403],[-5,-17],[-21,-17],[-27,-34],[-10,1],[-42,-20],[-16,-19],[-1,-22],[-66,-90],[-69,-113],[-53,-129],[-40,-133],[-39,-96],[-37,-81],[-27,-88],[-63,-85],[-10,-26],[12,-46],[30,-20],[5,-17],[21,2],[38,-43]],[[14032,5759],[67,-25],[5,-25],[57,-46],[34,-8],[65,-40],[104,10],[25,-16],[71,-10],[51,-37],[35,-8],[58,-1],[58,-24],[81,-51],[28,-31],[41,-32],[54,-57],[46,-58],[53,-52],[28,-17],[40,-13],[40,-1],[21,26],[26,18],[29,12],[40,29],[46,1],[24,11],[18,-4],[11,-22],[14,-80],[20,-68],[37,-57],[17,-19],[41,-28],[24,-27],[67,-43],[38,-16],[64,-59],[40,-53],[36,-40],[26,-56],[47,-72],[-3,-16],[2,-58],[-4,-24],[24,-96],[-2,-55],[-11,-10],[-31,0],[-39,6],[-16,19],[-64,7],[-12,-5],[-24,-32],[32,-45],[37,-37],[34,-24],[96,-95],[39,-21],[3,-13],[-25,-21],[-47,-4],[-54,2],[-19,-22],[0,-19],[-17,-33],[-35,-15],[-10,-28],[6,-32],[34,-56],[40,-18],[-2,-16],[-30,-15],[-33,-2],[-12,-22],[34,-77],[50,-21],[-6,-20],[12,-19],[25,-7],[23,-23],[39,1]],[[15793,3704],[27,-34],[12,-34],[27,-22],[81,-35],[60,-7],[46,-1],[48,28],[60,21],[33,1],[29,-25],[1,-19],[-12,-35],[-49,-32],[-17,-35],[11,-62],[12,-20],[30,-16],[116,-22],[91,-31],[115,-42],[85,-27],[25,-23],[7,-52],[-8,-30],[11,-78],[8,-35],[23,-60],[53,-90],[30,-32],[59,-84],[43,-54],[41,-33],[36,-19],[32,-8],[14,4],[13,20],[21,1],[38,-64],[28,-75],[48,-16],[8,-18],[-20,-35],[-62,-19],[-55,-1],[-68,16],[-13,-6],[-48,-45],[-17,-37],[7,-24]],[[16853,2358],[-600,-4],[-1247,-14],[-164,0],[-281,-4],[-526,-1]],[[14035,2335],[-28,37],[2,44],[-14,28],[5,41],[29,18],[42,-9],[29,-12],[65,10],[39,-6],[56,8],[36,-10],[28,7],[11,16],[12,79],[-20,49],[-2,24],[5,31],[-8,23],[-7,46],[4,28],[12,13],[30,7],[39,-1],[63,-7],[42,-15],[31,22],[30,10],[61,-18],[20,8],[11,22],[27,10],[32,-3],[51,9],[14,17],[-12,62],[-15,27],[-1,39],[24,26],[77,26],[-36,34],[-416,419],[-285,285],[-20,24],[-27,50],[-41,109],[-18,36],[-127,205],[-71,108],[-44,47],[-55,29],[-42,9],[-53,-1],[-33,-9],[-326,-122],[-75,-26],[-35,-6],[-97,-6],[-76,1],[-51,-8],[-69,-23],[-42,9],[-47,34],[-115,105],[-44,-20],[-292,-63],[-96,-12],[-123,-5],[-42,-12],[-36,-19],[-26,-22],[-23,-29],[-18,-32],[-64,-140],[-15,-22],[-32,-31],[-26,-16],[-48,-18],[-129,-16]],[[10904,5923],[-203,150]],[[16906,20595],[170,3],[2,213],[0,115],[357,6],[-2,329],[354,4],[-1,666],[373,3]],[[18159,21934],[4,-63],[21,-282],[2,-42],[43,-579],[5,-138],[-6,-15]],[[18228,20815],[-77,-50],[-51,-43],[-162,-156],[-77,-62],[-46,-30],[-296,-167],[-42,-25],[-42,-32],[-453,-446],[-59,-64],[-65,-81],[-538,-722],[-30,-46],[-31,-58],[-28,-67]],[[16231,18766],[-52,17],[-27,-4],[-33,-15],[-61,-16],[-23,-14],[-28,-37],[-17,-6],[-43,22],[-64,22],[-30,-1],[-51,-50],[-53,-75],[-83,-64],[-54,-37],[-35,-7],[-19,13],[3,33]],[[7934,14442],[40,39],[38,7],[21,-5],[18,-15],[37,2],[-7,41],[-16,39],[1,30],[15,22],[44,26],[12,24],[2,23],[23,28],[16,44],[17,30],[18,15],[54,21],[63,78],[34,23],[29,25],[35,50],[29,17],[30,-2],[20,6],[13,18],[30,23],[44,51],[21,11],[34,6],[33,18],[25,19],[41,14],[88,42],[22,22]],[[9079,15216],[42,-117],[14,-25],[72,-97]],[[9207,14977],[-42,-19],[-50,-32],[-69,-48],[-50,-43],[-49,-52],[-98,-122],[-33,-46],[-19,-44],[-24,-94],[-14,-29],[-38,-43],[-57,-49]],[[8664,14356],[-36,-47]],[[8628,14309],[-40,18],[-68,56],[-61,5],[-525,14]],[[7934,14402],[0,40]],[[7588,14401],[282,-6],[63,0],[1,7]],[[8628,14309],[-42,-87],[-82,-107],[-48,-75],[-84,-182]],[[8372,13858],[-30,-63],[-78,-150],[-67,-93],[-56,-94],[-33,-46],[-37,-44],[-23,-35],[-32,-68],[-27,-33],[-37,-12],[-164,4],[-38,-11],[-49,-38],[-18,-7],[-75,-11],[-18,-11],[-16,-25],[-7,-34],[-19,-37],[-38,-47],[-46,-45],[-13,-24],[-8,-60]],[[8664,14356],[33,-27],[41,-1],[38,9],[14,-5],[38,-34],[63,-38],[-40,-43],[-7,-20],[31,-31]],[[8875,14166],[-17,-23],[-17,-35],[-41,-36],[-8,-17],[36,-6],[19,-9],[13,-42],[28,-41],[28,-33],[76,-113],[0,-31],[-29,-22],[19,-26]],[[8982,13732],[-14,-18],[1,-15],[36,-24],[-41,-34],[-19,-49],[-33,-53],[-51,32],[-35,35],[-19,12],[-61,4],[-130,3],[-32,-5],[-20,-11],[-22,-22],[-48,-86],[-6,-30],[0,-67],[-5,-21],[-18,-22],[-19,-12]],[[8446,13349],[-36,56],[-29,68],[-23,100],[-5,49],[8,58],[31,124],[-4,38],[-16,16]],[[8982,13732],[14,-19],[21,-11],[50,-8],[29,-21],[16,-55],[8,-13],[29,-16]],[[9149,13589],[-181,-334],[6,-3],[-32,-59],[-69,2],[-33,-52],[-75,-109],[-4,-12],[-87,-118],[-6,-1]],[[8668,12903],[1,62],[-12,34],[-61,112],[-150,238]],[[12759,9329],[18,26],[28,20],[9,15],[9,67],[14,44],[13,12],[105,11],[84,-20],[63,-5],[41,6],[34,15],[47,42],[28,17],[51,17],[57,-4],[31,7],[33,40],[23,16],[18,3],[61,-4],[50,9],[18,-3],[44,-19],[23,-4],[60,10],[148,-6],[50,-4],[10,74],[-6,36],[-25,30],[-13,24],[-6,36],[-16,22],[20,58],[5,50],[113,197],[20,22],[29,17],[60,23],[30,29],[26,58],[24,5],[56,-68],[35,-38],[42,-20],[35,-4],[53,12],[83,9],[26,8],[39,26],[20,4],[116,-68],[36,-10],[152,-14],[51,-2],[274,0],[108,3],[118,11],[32,8],[19,15],[42,75],[39,-14],[40,-23],[42,-33],[38,30],[56,-4],[31,-52],[27,-31],[66,0],[56,-22],[39,1],[16,17],[70,39],[21,15],[56,67],[27,24],[17,42],[16,-12],[33,4],[17,11],[50,47],[67,35],[19,20]],[[16370,10426],[43,-42],[20,-31],[41,-90],[6,-23],[-1,-36],[-8,-47],[4,-39],[36,-82],[12,-37],[23,-220],[2,-101],[50,-213],[2,-21],[-6,-104],[14,-139],[-2,-31],[-12,-68],[-9,-118],[1,-43],[6,-66],[-21,-73],[-9,-44],[-1,-31],[4,-68],[8,-49],[13,-31],[32,-53],[36,-41],[52,-44],[22,-38],[30,-68],[57,-83],[20,-44],[20,-61],[29,-72],[70,-155],[21,-68],[2,-124]],[[16977,7728],[-82,-37],[-53,-30],[-52,-43],[-25,-25],[-48,-68],[-59,-113]],[[16658,7412],[-91,-172],[-32,-47],[-45,-49],[-37,-33],[-206,-163],[-55,-52],[-52,-61],[-203,-263],[-41,-44],[-64,-54],[-44,-29],[-60,-31],[-88,-30],[-89,-23],[-25,-11],[-85,-48],[-29,-21],[-84,-74],[-50,-52],[-35,-15],[-50,-8],[-26,3],[-80,30],[-127,22],[-36,1],[-74,-16],[-262,-43],[-34,-10],[-41,-20],[-35,-28],[-171,-166],[-69,-61],[-42,-23],[-164,-62]],[[9505,13073],[165,-7],[17,-10],[0,-18],[-41,-70],[-58,-74],[-22,-40],[-11,-31],[-28,-112],[-23,-52],[-42,-60],[-31,-54],[-24,-55],[-35,-54],[-113,-152],[57,-112],[19,-48],[3,-36],[93,-5],[162,7],[306,-4],[252,-2],[32,21],[113,66],[108,68],[268,182],[-11,48],[-17,19],[-9,39],[-28,29],[-7,23],[-30,30],[-16,6],[-13,26],[-8,39],[-12,6],[-20,29],[-3,49],[-11,13],[-4,25]],[[10483,12802],[346,-11],[250,-14],[1,183],[15,0],[2,167],[166,-7],[0,163],[172,-6],[-11,173],[179,-7],[4,6],[12,141],[37,-1],[1,12],[78,-1],[0,-11],[215,-5],[5,168],[185,0],[0,164],[174,-2],[2,165],[177,-8],[0,51]],[[10581,12083],[-230,-222],[-92,-87],[-111,-108],[-126,-120],[-157,-151],[-40,-41],[-133,-127],[-40,-25],[-26,-9],[-43,-4],[-50,9],[-86,34]],[[9216,11325],[-10,6],[-11,301],[-6,114],[-12,131],[-18,144]],[[9159,12021],[11,-5],[-12,108],[-3,70],[2,41],[9,73],[14,61],[22,68],[27,62],[171,388],[56,108],[49,78]],[[15964,15140],[351,59],[376,62],[133,14],[94,3],[130,-4],[746,-39],[72,-5],[113,-10],[91,-12],[211,-30],[124,-17],[72,-6],[90,-3],[102,3],[232,18]],[[11224,12070],[-23,-26],[-19,-9],[-38,-40],[-28,-13],[-51,-47],[-27,-36],[-11,-24],[-37,-33],[-33,-49],[-24,-16],[-59,-61],[-127,-141],[-79,-88],[-136,-133],[-144,-207],[-56,-173],[-111,-129],[-8,-22],[1,-34],[-10,-18],[-17,-5],[0,-20],[-15,-14],[-31,-8],[-6,-11]],[[13443,17832],[12,-28],[32,-54],[49,-31],[19,-35],[16,-62],[25,-1],[17,-17],[20,-34],[-39,-61],[10,-24],[-16,-36],[-2,-16],[-27,-43],[16,-28],[-15,-38],[11,-55],[-8,-23],[4,-27],[19,-13],[7,-30],[-15,-30],[2,-12]],[[13506,17061],[-62,62],[38,42],[-3,18],[-29,17],[-327,12],[-51,4],[-69,1],[-16,-3],[-126,-48],[-15,-9],[-13,18],[-1,26],[-75,11],[-41,1]],[[12716,17213],[5,20],[-5,32],[27,25],[59,37],[31,12],[14,13],[29,72],[15,20],[37,35],[54,20],[52,51],[34,51],[28,25],[29,3],[18,-7],[26,27],[62,26],[32,25],[37,69],[7,42],[25,41],[12,11],[27,-3],[21,-29],[38,-22],[13,23]],[[9997,14611],[-1,9]],[[9996,14620],[28,15],[48,35],[116,111],[26,30],[48,68],[28,30],[70,52],[78,36]],[[10438,14997],[100,29],[56,23],[75,44]],[[10669,15093],[160,97],[292,175],[35,19],[71,33],[224,80],[47,18],[62,34],[110,70],[56,32]],[[11726,15651],[138,64],[45,17],[75,15],[110,11],[42,11],[37,17],[78,44],[141,65],[67,17],[57,2],[37,7],[38,23],[194,160],[50,51],[35,45],[42,67],[44,58],[64,71]],[[13218,16559],[-14,0],[2,-37],[-1,-130],[-7,-2],[-170,6],[-72,-79],[-28,-37],[6,-83],[-24,-34],[-57,-19],[-1,-80],[-6,-8],[-167,-147],[-2,-169],[-186,8],[-128,-116],[-40,-5],[0,-35],[-175,6],[-1,-166],[-102,2],[-69,-51],[-1,-63],[-71,-52],[-196,1],[0,-168],[-82,2],[-2,-163],[-179,4],[0,334],[-123,5],[-50,4],[-2,-168],[-174,8],[1,-131],[-2,-371],[-352,14],[-173,5],[-4,-9],[0,-159],[-174,5],[-5,-167],[-215,8],[-16,63],[-119,5],[-9,-62],[13,-1],[1,-163],[-108,2]],[[9934,14166],[40,75],[23,67],[12,64],[2,67],[-14,172]],[[14352,18394],[75,-25],[46,-24],[52,-40],[31,-32]],[[14556,18273],[31,-41],[20,-36],[26,-69],[11,-62],[14,-113]],[[13769,17386],[43,69],[59,82],[19,37],[48,120],[65,111],[110,183],[30,39],[67,67],[30,43],[42,90],[70,167]],[[12357,18265],[139,-3],[2,337],[-2,10],[6,285],[-1,38],[232,-5],[57,-5]],[[12441,17992],[-10,30],[-16,23],[-36,22],[-18,19],[-7,22],[4,39],[-3,97],[2,21]],[[14137,18897],[13,-5],[127,-72],[21,-19],[23,-46],[20,-23],[46,-15],[52,6],[55,-12]],[[14494,18711],[-88,-184],[-54,-133]],[[14352,18394],[-77,10],[-60,-3],[-130,-15],[-131,-13],[-155,-20],[-75,-3]],[[11658,17158],[24,255],[-6,62],[-18,48],[-19,30]],[[12093,18273],[264,-8]],[[12731,17588],[-23,-15],[-164,-152],[-30,-24]],[[12514,17397],[-50,-34],[-40,-35],[-53,-68],[-13,-32],[-4,-58],[-6,-25],[-15,-29],[-32,-33],[-259,-238],[-28,-22],[-62,-31],[-35,-8],[-40,0],[-133,29],[-47,3],[-48,-21]],[[11649,16795],[-15,33],[-4,44],[28,286]],[[8805,5050],[-16,25],[-6,24],[2,224],[5,289],[2,348],[1,4]],[[8905,3422],[-2,82],[6,49],[-5,14],[-22,15],[-64,14],[-20,15],[-66,23],[-23,22],[-12,24],[-49,179],[-5,30],[3,38],[53,138],[60,115],[14,62],[1,157],[6,41],[12,37],[18,32],[28,37],[43,37],[297,197],[12,9],[-28,23],[-30,34],[-47,70],[-38,38],[-79,50],[-34,17],[-22,3],[-29,-6],[-40,-30],[-38,62]],[[7934,14442],[4,571],[7,703],[450,-8],[85,-1]],[[4991,13279],[151,2],[-2,335],[91,1],[74,-3],[5,70],[3,99],[166,-2],[4,328],[161,-2],[191,-5],[4,250],[-3,86],[77,1],[122,-3],[137,-4]],[[14517,16986],[22,6],[31,34],[37,31],[22,10],[32,-2],[19,-9],[15,-20],[13,-33]],[[14708,17003],[17,-18],[58,-20],[31,5],[48,41],[31,58],[50,56],[30,40],[26,17],[34,12],[28,26],[23,42],[17,18],[-10,34],[21,50],[-5,46],[6,45],[13,26],[36,38],[10,41],[0,55],[16,33],[10,8],[111,52],[11,-31],[-14,-59],[4,-62],[5,-15],[25,-32],[52,-25],[46,-47],[35,-20],[63,1],[30,-10],[39,-61],[37,-33],[100,-45]],[[14926,18348],[-24,-11],[-35,-27],[-38,-7],[-57,1],[-56,-23],[-39,-1],[-36,10],[-71,-10],[-14,-7]],[[17592,1113],[53,95],[401,720],[42,78],[64,136],[56,127],[27,57],[44,77],[48,69],[402,502],[80,112]],[[18809,3086],[71,-19],[74,-37],[33,-13],[80,-18],[79,-2],[458,32],[78,1],[44,-4],[73,-17],[-63,-119],[-13,-49],[7,-26],[15,-17],[43,-20],[143,-44],[5,12],[129,41],[82,30],[53,24],[119,42],[86,16],[66,18],[89,20],[54,4],[52,-6],[58,-20],[77,-51],[46,-50]],[[20847,2814],[30,-96],[54,-89],[49,-92],[44,-96],[29,-107],[11,-79],[-18,-78],[-61,-76],[-157,-133],[-89,-43],[-86,-54],[-109,-71],[-48,-40],[-15,-44],[-10,-65],[17,-69],[26,-54],[5,-46],[-9,-57],[12,-73],[25,-87],[45,-86],[29,-45],[22,-52],[1,-52],[-14,-74],[-6,-411],[16,-84],[1,-50],[-4,-203],[-31,-121],[-100,65],[-127,52],[-139,27],[-226,1],[-90,9],[-58,19],[-49,5],[-69,-27],[-66,-38],[-97,-60],[-112,-42],[-83,-51],[-46,-20],[-78,-20],[-92,-7],[-32,7],[-53,24],[-55,4],[-180,-4],[-105,9],[-30,17],[-33,48],[-43,209],[-29,54],[-36,34],[-76,41],[-306,205],[-143,84],[-85,131],[-54,100],[-59,51],[-263,99]],[[13891,12435],[-5,-26],[3,-27],[-7,-49],[4,-46],[-4,-18],[-25,-55],[-23,-16],[-73,-17],[-35,-19],[-72,-58],[-18,-19],[-23,-56],[-32,-53],[-28,-33],[-73,-47],[-35,-45],[-66,-62],[-45,-2],[-65,-28],[-7,-32],[-17,-22],[-74,-37],[-43,-31],[0,-37],[-8,-30],[-17,-18],[-5,-42],[36,-59],[8,-74],[-12,-18],[-59,-28],[-25,-22],[-46,-14],[-52,-23],[-26,-35],[-40,-70],[-21,-28],[-44,-44],[-60,-47],[3,-72],[-10,-58],[6,-30]],[[5977,10918],[25,17],[18,-4],[31,-22],[29,6],[38,-3],[53,-14],[37,-17],[27,29],[21,15],[22,-15],[-10,-16],[28,-10],[4,18],[50,4],[3,23],[13,31],[16,8],[49,-2],[30,5],[36,-13],[34,6],[30,42],[30,25],[28,-5],[7,-19],[21,1],[18,28],[27,-3],[6,-56],[33,-26],[22,-30],[5,-18],[-34,-14],[-6,-45],[23,-14],[35,2],[44,-23],[22,-5],[46,-25],[0,16],[25,3],[3,-24],[12,-12],[1,-27],[31,-24],[27,-9],[31,5],[26,-22]],[[7044,10685],[-8,-98],[-9,-55]],[[7027,10532],[-9,-35],[-60,-214],[-4,-33],[7,-54],[15,-74]],[[6976,10122],[-6,-64],[-9,-42],[-15,-43],[-9,-12],[-41,-32],[-62,-52],[-69,-50],[-15,-27],[-84,-211],[-9,-43],[-11,-213],[-2,-17],[-34,-120],[-13,-76],[3,-25],[17,-34]],[[6617,9061],[-229,0],[-58,2],[-87,50],[-60,11],[-22,10],[-76,19],[-28,3],[-54,30],[-22,49],[-30,16],[-28,39],[-13,9],[-35,6],[-62,-1],[-46,-9],[-65,12],[-52,-2],[-38,3],[-58,-16],[-77,-9],[-53,-9],[-70,-23],[-26,-15],[-53,1],[-72,-22],[-15,0]],[[5188,9215],[-87,4],[-50,24],[-46,7],[-51,1],[-115,24],[-104,44],[-24,4],[-63,-10],[-166,-14],[-103,-35],[-79,-5],[-35,-13],[-55,-6],[-36,15],[-23,28],[-73,43],[-20,0],[-65,-16],[-40,-34],[-20,-12],[-55,-12],[-37,-42],[-40,-21],[-18,-20],[-20,-37],[-26,-25],[-34,-59],[-14,-19],[-58,-50],[-38,-12],[-40,37],[-6,16],[-3,41],[-10,58],[-26,68],[-35,12],[-22,-1],[-67,-32],[-142,-119],[-42,-26],[-43,-12],[-56,-47],[-13,-21],[-6,-39],[-56,-102],[-32,7],[-35,-12],[-39,24],[27,43],[-6,29],[-70,-12],[-22,-43],[-5,-39],[-7,-10],[-28,-9],[-13,73],[41,39],[6,23],[-16,46]],[[10751,17006],[39,-18]],[[10790,16988],[-16,-25],[-1,-54]],[[10773,16909],[-112,-1],[-17,-5],[-74,-42],[-42,-48],[-26,-19],[-34,-15],[0,-47],[8,-19],[23,-18],[35,-9],[20,-13],[-26,-21],[-46,-27],[-39,-2],[-16,-27],[-45,-23],[-18,-31],[-38,-16],[-21,-2],[-18,-15],[-8,-35],[10,-53],[-8,-24],[6,-96],[8,-94],[15,-52],[-43,-49],[-34,-69],[-46,-5],[-57,72],[-48,80],[-29,6]],[[10053,16190],[-10,26]],[[10043,16216],[1,350],[1,206],[4,114],[-2,108],[3,7],[701,-20],[0,25]],[[11658,17158],[-64,26],[-24,-5],[-16,-15],[-19,-63],[-36,-18],[-16,-34],[-34,-22],[-7,-45],[-34,-1],[-46,-32],[-17,3],[-27,36],[14,4],[-2,45],[17,9],[26,28],[8,29],[47,-2],[0,46],[-85,3],[-10,58],[12,49],[16,27],[-1,27],[-29,42],[-69,22],[-38,31],[-56,-22],[-21,-15],[-9,-19],[-1,-26],[-10,-18],[-64,-31],[-8,-12],[0,-44],[-7,-17],[-58,-48],[-47,-28],[-26,-33],[-35,-35],[-92,-70]],[[10751,17006],[-1,157],[-9,135],[11,22],[147,-4],[14,6],[7,20],[0,37],[11,98],[170,-5],[-2,104],[3,732],[34,0],[483,-18]],[[13443,17832],[21,48],[25,83],[-22,10],[-37,56],[-3,19],[46,64],[32,25],[48,25],[42,31],[37,42],[24,9],[27,-8],[33,41],[7,28],[1,45]],[[10214,15582],[77,53],[36,21],[60,41],[155,127],[61,59],[156,178],[22,30],[24,47],[25,64],[29,44],[122,129],[50,40]],[[11031,16415],[56,23],[25,15],[28,27],[44,59],[35,29],[111,40],[51,33],[176,89],[35,20],[57,45]],[[11649,16795],[97,-127],[90,-115]],[[11836,16553],[-45,-22],[-34,-28],[-21,-46],[-24,-19],[-75,-44],[-42,-27],[-78,-65],[-33,-44],[-32,-31],[-89,-64],[-76,-83],[-59,-46],[-59,-55],[-42,-33],[0,-66],[-14,-51],[-50,-31],[-33,-40],[-12,-31],[-44,-54],[-31,-14],[-15,2],[-4,43],[5,29],[-11,17],[-37,13],[-26,24],[-32,0],[-49,-17],[-91,-64],[-62,-28],[-91,-64],[-17,-45],[-35,-39],[-5,-16],[-3,-50],[35,-44],[18,-69],[14,-18],[28,-18],[1,-80],[20,-4],[16,-15],[6,-29],[61,-94]],[[10438,14997],[-40,152],[0,175],[-183,1],[0,239],[-1,18]],[[9995,15408],[15,59],[66,207],[32,105],[11,50],[7,67],[-7,85],[-17,69],[-49,140]],[[10773,16909],[3,-19],[20,-20],[23,-6],[38,-40],[33,-7],[21,-12],[11,-24],[0,-42],[8,-48],[-1,-38],[15,-63],[26,-37],[61,-138]],[[10214,15582],[-175,-153],[-35,-26]],[[10004,15403],[-9,5]],[[6976,10122],[49,15],[91,-2],[40,-15],[124,-41],[-6,-31],[6,-14],[-38,-84],[9,-34],[26,-31],[31,-13],[41,-56],[55,-36],[12,-14],[24,-48],[22,-13],[10,-17],[29,16],[11,19],[0,26],[12,23],[19,-7],[27,2]],[[7570,9767],[0,-2]],[[7570,9765],[1,-182]],[[6634,8970],[-3,31],[-14,60]],[[7044,10685],[23,9],[29,2],[22,26],[30,-2],[31,13],[15,-6],[85,-2],[17,12],[28,4],[57,30],[41,12],[48,23],[66,69],[13,8],[43,0]],[[7592,10883],[0,-96],[42,6],[35,24],[28,7],[47,0],[69,-22],[33,-6],[-6,-35],[-15,-17],[26,-15],[192,-5],[36,22],[26,4]],[[8105,10750],[1,-70],[-10,-318]],[[8096,10362],[-92,3],[-39,10],[-67,34],[-35,27],[-48,45],[-30,17],[-56,12]],[[7729,10510],[-53,25],[-49,8],[-33,-3],[-148,-25],[-205,-21],[-40,-2],[-86,5],[-29,7],[-59,28]],[[7570,9765],[47,0],[8,-34],[16,-5],[80,1],[35,19],[90,25],[-35,116],[23,11],[2,44],[163,-4],[2,91],[6,89],[158,-6]],[[8165,10112],[-19,-17],[-20,-5],[-11,-14],[-9,-31],[26,-39],[31,-27],[-5,-24],[-31,-21],[-33,-10],[-23,0],[-37,-49],[-26,-18],[-10,-18],[21,-18],[58,-23],[-11,-36],[-19,-12],[-33,-50],[-16,-36],[10,-39],[2,-40],[-8,-57],[-21,-30],[-18,-13],[10,-23],[-9,-14],[13,-23]],[[9207,14977],[65,28],[76,42]],[[9348,15047],[79,11],[34,9],[46,21],[153,92],[162,104]],[[9822,15284],[173,124]],[[10004,15403],[-21,-120],[-10,-97],[-6,-125],[2,-67],[25,-333],[2,-41]],[[9997,14611],[-12,3],[-83,-46],[-39,-23],[-97,-50],[-12,-14],[-107,-55],[-68,-18],[-79,3],[-6,6],[-14,-96]],[[9480,14321],[-117,15],[-27,22],[-141,4],[-134,-170],[-16,-17],[-41,-15],[-22,7],[-30,47],[-16,16],[-61,-64]],[[9149,13589],[232,426],[50,94],[17,39],[14,60],[18,113]],[[9934,14166],[-20,-28],[-50,-60]],[[9864,14078],[-87,-103],[-26,-39],[-20,-42],[-15,-48],[-7,-40],[-2,-73],[9,-84],[11,-79],[0,-45],[-10,-72],[-24,-78],[-17,-38],[-28,-48],[-143,-216]],[[9159,12021],[-106,44],[-236,73],[-44,24],[-19,17],[8,66],[-8,20],[-71,-12],[-46,-13]],[[8637,12240],[-41,65],[-14,178],[0,44],[12,89],[35,138],[39,149]],[[16977,7728],[550,253],[41,36],[12,17],[264,457],[57,136],[30,58],[68,116],[19,37],[12,49],[10,157],[8,68],[9,38],[25,61],[26,43],[31,36],[55,48],[171,123],[23,13],[42,14],[157,25]],[[18587,9513],[29,-25],[4,-18],[26,-27],[-2,-34]],[[18644,9409],[9,-14],[-4,-21],[20,-8],[-41,-32],[37,-14],[3,-23],[30,-60],[9,-51],[22,-38],[34,-25],[87,-54],[77,-40],[53,-74],[-13,-18],[-30,-17],[-36,-41],[-17,-31],[-12,13],[-27,-16],[-19,-70],[8,-37],[38,-12],[9,-53],[46,-39],[12,-32],[32,-22],[10,-33],[22,-11],[-11,-22],[-43,-56],[-28,4],[1,-39],[-25,-38],[-12,-68],[5,-25],[39,-12],[14,-13],[-7,-46],[-12,-45],[21,-58],[38,2],[41,-30],[6,-47],[7,-13],[0,-43],[23,-12],[7,-50],[20,-46],[35,15],[20,-5],[36,-23],[20,-1],[36,16],[24,2],[31,-9],[22,-15],[20,-31],[6,-29],[-6,-25],[1,-29],[28,-73],[28,-28],[22,4],[19,-13],[30,-4],[36,-17],[3,-19],[29,-17],[18,-1]],[[19545,7577],[-45,-82],[-47,-70],[-28,-48],[-57,-121],[-38,-120],[-108,-287],[-49,-81],[-32,-73],[-23,-78],[-27,-70],[-9,-14]],[[19082,6533],[-221,-4],[-46,3],[-60,13],[-59,24],[-28,17],[-70,52],[-72,59],[-264,239],[-204,186],[-178,150],[-120,99],[-58,30],[-46,10],[-111,-5],[-24,6],[-36,20],[-29,23],[-38,13],[-35,-3],[-43,-12],[-169,-59],[-84,-31],[-74,-23],[-37,-8]],[[16976,7332],[-62,7],[-110,56],[-47,13],[-44,5],[-55,-1]],[[17793,5407],[21,-87],[40,-117],[15,-62],[37,6],[55,35],[44,19],[54,8],[245,-5],[42,5],[29,13],[37,34],[13,24],[65,164],[25,46],[68,78],[100,156],[27,50],[58,135],[30,84],[12,50],[10,74],[12,35],[82,143],[57,124],[24,29],[72,67],[15,18]],[[19545,7577],[13,1],[11,25],[23,2],[46,22],[17,-11],[13,-32],[19,-23],[13,16],[-8,19],[22,4],[20,-17],[22,-51],[47,-24],[-13,-22],[25,-8],[9,9],[38,-19],[36,-71],[81,-5],[161,-53],[38,-20],[72,-64],[38,-16],[47,-5]],[[20335,7234],[-268,-1011],[-232,-800],[-23,-77],[-51,-156],[-126,-347],[-52,-135],[-40,-95],[-57,-121],[-336,-678],[-36,-77],[-188,-429],[-50,-106],[-67,-116]],[[17592,1113],[-68,31],[-92,55],[-99,68],[-54,62],[-52,116],[-13,118],[0,34],[-12,30],[-33,26],[-69,20],[-78,-9],[-66,-4],[-121,-21],[-173,-38],[-36,-1],[-27,17],[-62,157],[-21,68],[-11,70],[22,52],[14,18],[36,31],[34,41],[50,40],[59,33],[33,12],[60,4],[39,19],[44,33],[9,25],[-5,67],[-8,19],[-39,52]],[[15793,3704],[12,16],[25,4],[65,-9],[76,-5],[8,18],[-12,33],[-9,46],[3,46],[25,69],[21,33],[12,38],[8,53],[15,33],[-1,32],[-15,31],[87,52],[83,40],[68,20],[305,60],[0,18],[13,38],[37,47],[21,121],[0,32],[-13,36],[-6,37],[-4,87],[11,21],[27,22],[21,26],[27,58],[15,46],[-7,26],[-29,37],[-52,116],[-1,21],[26,57],[34,-51],[64,-8],[44,-59],[61,-23],[23,-33],[30,-21],[19,-6],[57,-1],[45,-9],[44,-22],[17,1],[58,26],[62,37],[17,29],[-22,40],[4,14],[33,19],[34,50],[20,36],[26,21],[58,15],[6,40],[27,35],[83,72],[8,30],[14,14],[35,3],[15,27],[19,18],[32,8],[30,-6],[28,-29],[37,-3],[29,-13],[47,-4]],[[11991,16350],[22,5],[120,-9],[62,-16],[52,-36],[32,-15],[21,-1],[34,10],[330,173]],[[11726,15651],[-1,12],[45,50],[32,48],[209,422],[12,51],[-5,55],[-13,36],[-14,25]],[[16976,7332],[5,-51],[-5,-18],[-1,-51],[21,-105],[19,-108],[9,-31],[37,-92],[66,-117],[59,-125],[13,-36],[14,-95],[17,-52],[33,-57],[50,-150],[25,-51],[61,-103],[35,-51],[38,-46],[42,-45],[38,-48],[148,-222],[16,-30],[38,-83],[25,-76],[14,-82]],[[7045,12073],[4,-14],[4,-96],[-12,-77],[1,-20],[36,-103],[-3,-49]],[[7075,11714],[-16,-110],[-21,-102],[-6,-62],[20,-142],[26,-127],[3,-49],[-4,-87],[6,-36],[13,-37],[4,-29],[-9,-56],[-41,-128],[-6,-64]],[[7567,11679],[4,4],[12,71],[13,30],[24,29],[26,44],[22,16],[1,32],[42,2],[21,14],[5,22],[-11,44],[21,22],[50,33],[31,3]],[[7828,12045],[10,-80],[19,-58],[49,-125],[12,-49],[3,-52],[-3,-37]],[[7918,11644],[-35,-210]],[[7883,11434],[-172,24]],[[7711,11458],[-88,15],[-50,16]],[[7573,11489],[4,163],[-10,27]],[[7592,10883],[7,48],[41,52],[2,63],[11,50],[0,61],[15,38],[4,49],[8,44],[-2,78],[10,34],[18,36],[5,22]],[[7883,11434],[-5,-53],[9,-49],[22,-45],[23,-27],[85,-82],[32,-41],[27,-61],[8,-48]],[[8084,11028],[7,-83]],[[8091,10945],[14,-195]],[[7075,11714],[167,-7],[37,-9],[63,-32],[123,-109],[42,-33],[66,-35]],[[8637,12240],[-23,4],[-35,51],[-10,5],[-61,-21]],[[8508,12279],[-47,-22],[-27,-7],[-154,2],[-21,6],[-55,42],[-74,29],[-30,24],[-29,53],[-34,26],[-70,26],[-73,45],[-28,5],[-151,-20]],[[7715,12488],[-97,-9],[-64,-15],[-90,4],[-74,12]],[[12514,17397],[-3,-93],[5,-24],[27,-32],[9,-23],[-4,-21],[-22,-44],[1,-32],[15,-18]],[[11991,16350],[-155,203]],[[8096,10362],[154,-6],[47,1]],[[8297,10357],[-8,-49],[45,-10],[-2,-29],[-26,6],[-27,-7],[-32,1],[-76,-65],[-15,-32],[18,-24],[5,-18],[-14,-18]],[[7570,9767],[-2,265],[11,76],[19,54],[57,109],[15,39],[59,200]],[[7715,12488],[76,-162],[24,-72],[6,-33],[7,-176]],[[7567,11679],[-13,8],[-34,3],[-26,14],[-6,18],[-1,43],[8,62],[-8,50],[1,90],[-9,13],[-55,40],[-41,7],[-14,13],[-35,14],[-15,14],[9,153],[-2,151],[-3,9]],[[20725,17082],[60,55],[47,37],[38,23],[46,40],[21,30],[67,130],[42,66],[66,73],[60,52],[63,40],[36,37],[35,49],[30,27],[68,55],[27,33],[29,52],[85,181],[13,34],[36,73],[40,58],[55,60],[33,41],[22,33],[15,41],[17,89],[26,40],[55,49],[27,45],[35,1],[47,-27],[42,-2],[59,-9],[21,2],[65,38],[44,4],[65,-27],[33,-5],[4,29],[10,12],[4,45],[17,34],[33,-2],[21,13],[-2,24],[32,7],[-2,34],[-12,14],[38,44],[35,6],[10,13],[-14,16],[28,19],[24,52],[22,-4],[29,25],[3,40],[13,25],[56,-9],[85,-3],[33,-16],[13,-34],[23,-37],[9,-46],[21,-24],[63,-41],[42,-38],[37,-17],[40,14],[38,40],[44,37],[46,28],[105,49],[62,16],[25,0]],[[23330,18965],[35,-8],[45,-20],[55,-126],[121,-313],[186,-459],[70,-168],[64,-161],[154,-346],[107,-243],[60,-132],[82,-165],[128,-286],[119,-277]],[[24556,16261],[-147,-169],[-51,-63],[-25,-38],[-40,-71],[-27,-65],[-13,-40],[-16,-64],[-11,-93],[-3,-77],[-11,-51],[-21,-35],[-386,-550]],[[23805,14945],[-60,18],[-73,18],[-12,5],[-157,40],[-130,34],[-680,180],[-81,18],[-103,19],[-126,19],[-62,12],[-56,13],[-75,24],[-50,19],[-324,141],[-69,26],[-87,22],[-58,9],[-82,6],[-441,10],[-74,0],[-90,-9],[-45,-8],[-73,-20],[-485,-153],[-307,-96],[-88,-25],[-52,-11]],[[19865,15256],[8,49],[11,97],[12,53],[7,70],[3,250],[14,64],[47,87],[13,34],[47,163],[12,48],[13,102],[15,41],[55,92],[39,54],[33,27],[69,43],[26,20],[28,38],[36,91],[25,46],[36,53],[120,171],[38,37],[27,18],[90,49],[36,29]],[[24556,16261],[42,52],[26,45],[100,243],[32,64],[23,36],[64,70],[28,45],[16,34],[93,237],[32,-10],[44,-30],[14,20],[47,25],[13,-19],[31,-23],[31,3],[59,-20],[36,-26],[33,-7],[46,-23],[14,5],[39,-3],[28,-10],[-21,-59],[14,-2],[55,10],[21,11],[0,23],[32,-5],[16,-17],[29,7],[17,-18],[24,48],[31,-22],[43,-24],[55,-20],[36,7],[86,38],[17,19],[25,17],[14,22],[15,53],[27,13],[68,11],[38,-3],[5,-21],[28,-16],[38,21],[44,1]],[[26204,17063],[-3,-41],[8,-50],[14,-42],[37,-55],[104,-98],[59,-40],[167,-67],[90,-41],[111,-53],[99,-54],[83,-50],[77,-55],[47,-43],[19,-29],[43,-5],[58,-44],[42,-40],[73,-94],[52,-90],[8,-66],[73,-120],[70,-125],[104,-159],[79,-129],[16,-41],[7,-70],[-11,-56],[-25,-52],[-34,-41],[-34,-30],[-57,-31],[-106,-41],[-109,-20],[-72,5],[-123,18],[-173,-15],[-117,-19],[-85,-41],[-96,-83],[-28,-47],[-29,-71],[-7,-70],[15,-174],[40,-74],[52,-82],[50,-126],[9,-64],[-2,-52],[-26,-74],[-75,-173],[-26,-84],[-7,-96],[12,-49],[35,-76],[100,-118],[65,-110],[29,-72],[23,-91],[17,-39],[6,-39],[18,-67],[60,-108],[37,-143],[11,-75],[-11,-62],[-28,-50],[-53,-51],[-53,-44],[-66,-35],[-100,-42]],[[26767,12498],[-161,402],[-19,40],[-32,49],[-57,59],[-37,28],[-716,515],[-829,597],[-261,188],[-138,92],[-22,13],[-97,67],[-428,308],[-60,39],[-35,19],[-70,31]],[[13552,18625],[-6,214],[0,40],[-21,19],[-29,-1],[-24,-34],[-21,-12]],[[13205,18925],[-1,88],[-11,359],[0,35],[82,0]],[[16231,18766],[-54,-182]],[[16177,18584],[-151,-3],[-1,-334],[-324,-1],[-389,-3]],[[15312,18243],[54,74],[20,33],[52,61],[15,24],[13,36],[53,67],[42,9]],[[8805,5050],[-6,-19],[13,-55],[-11,-12],[-33,-16],[-63,-54],[-46,10],[-25,-61],[-25,-9],[-22,2],[-108,-12],[-33,-7],[-77,-33],[-26,0],[-19,-11],[-31,-64],[-43,12],[-25,-28],[-1,-13],[-33,-81],[-33,-18],[-55,21],[-51,-9],[19,-40],[-31,-36],[-34,-5],[-20,-45],[-12,-16],[-83,-58],[-23,11],[-33,-30],[-16,-24],[-8,-27],[-33,-44],[-52,-16],[-31,-67],[-44,-24],[-28,16],[-17,-1],[-24,17],[-63,-13],[-65,9],[-50,28],[-27,-70],[-13,-10],[-32,-4],[-47,-15],[-19,-24],[3,-30],[-8,-13],[-43,-41],[-12,-19],[-5,-27],[13,-41],[-14,-29],[-18,20],[-34,1],[-27,11],[-21,-20],[-17,-64],[-11,-16],[-27,-14],[-45,-4],[-9,-36],[-3,-39],[-21,-16],[-27,-9],[-41,1],[-33,6],[-4,-34],[-17,-25],[-4,-24],[-24,-54],[0,-37],[-11,-21]],[[6806,3531],[-14,-2],[-69,19],[-52,34],[-42,21],[-21,1],[-17,26],[-47,50]],[[6806,3531],[50,-32],[9,-17],[33,-2],[248,-24],[59,-16],[81,-39],[46,-16],[37,-5],[136,-10],[-4,-83],[5,-34],[-7,-14],[-53,-66],[-7,-24],[-5,-84],[5,-132],[-2,-87],[4,-55],[9,-147],[-2,-48],[2,-72],[-4,-62],[-8,-37],[9,-24]],[[7447,2401],[-641,31],[-186,7],[-12,2],[-318,4],[-148,-2],[-269,1],[18,-1009],[-701,-4],[-3,333],[-210,-2],[-25,3],[-478,3],[-2,114]],[[15831,17408],[41,72],[109,227],[25,68],[9,51],[6,168],[8,65],[16,70],[132,455]],[[18228,20815],[78,51],[26,32],[10,27],[34,3],[140,0],[-7,40],[0,49],[14,18],[44,29],[47,8],[23,22],[9,20],[30,15],[21,2],[15,35],[-52,33],[-3,14],[17,77],[17,5],[42,-18],[23,-4],[52,-23],[27,-2],[28,17],[5,12],[29,-21],[8,-22],[27,25],[-11,16],[8,22],[-8,23],[26,14],[47,12],[10,-32],[30,-565]],[[15312,18243],[-53,-75],[-92,-143],[-25,-42],[-74,-114],[-20,-22],[-51,-84],[-20,-41],[-3,-19],[-22,-34],[-14,-33],[-9,-41],[-18,-24],[-32,-56],[-9,-33],[1,-21],[-19,-61],[-31,-38],[-2,-48],[-7,-13],[-90,-123],[-27,-52],[1,-41],[25,-40],[3,-17],[-16,-25]],[[8297,10357],[194,-3],[8,50],[29,-5]],[[8528,10399],[-7,-55],[-16,-94],[2,-60],[18,-49],[60,-111],[25,-40],[31,-35],[86,-85],[56,-49],[96,-73]],[[12584,17132],[32,20],[65,52],[35,9]],[[10483,12802],[-156,3],[-116,4],[-1,163],[171,2],[5,165],[-280,9],[-35,7],[-36,-5],[5,232],[2,260],[-133,7],[-5,-73],[42,-2],[-2,-34],[-77,0],[0,109],[2,29],[-4,229],[-1,171]],[[9348,15047],[19,124],[2,56],[-5,252],[-1,133],[58,5],[66,26],[23,3],[72,29],[61,5],[47,-3],[42,17],[26,27],[47,-47],[63,-42],[13,-23],[-12,-33],[-31,-26],[-12,-30],[-23,-36],[-28,16],[-16,22],[-9,27],[-20,12],[-21,1],[-47,-20],[-30,2],[-30,-10],[-28,-23],[20,-58],[4,-47],[43,3],[84,-14],[32,9],[27,-3],[-8,-46],[8,-21],[38,-50]],[[8635,15839],[0,8],[216,-10],[138,-2],[5,87],[1,103],[262,-9],[63,0],[116,-4],[602,-16],[5,220]],[[7918,11644],[161,75],[52,13],[76,36]],[[8207,11768],[-2,-141],[144,-2],[13,-18],[-11,-34],[-41,-63],[-10,-26],[-19,-73],[9,-41],[0,-72],[-46,2],[-1,-100],[-15,2],[22,-41],[47,-115],[-18,3],[-158,5],[-18,-22],[-19,-4]],[[8508,12279],[9,-42],[37,-27],[16,-64],[30,-22],[37,-75],[-43,7],[-55,-73],[-1,-8]],[[8538,11975],[-68,-61],[-133,-95],[-130,-51]],[[9227,11032],[-51,-44],[-19,-26],[-74,10],[-55,23],[-80,20],[-19,16],[-8,18],[-4,59],[-20,23],[-38,17],[-18,18],[-16,34],[-15,12],[-83,40],[-105,-346],[-12,-14]],[[8610,10892],[-110,27]],[[8500,10919],[9,26],[23,15],[0,18],[-36,17],[-13,41],[4,18],[36,2],[22,-11],[8,12],[-30,23],[-3,16],[16,21],[-15,38],[24,33],[1,13],[-37,14],[-30,20],[-7,20],[10,12],[33,2],[6,35],[-5,27],[-26,21],[-23,36],[-34,10],[-29,15],[16,18],[20,-5],[33,3],[20,13],[31,39],[7,16],[-11,31],[15,29],[-11,40],[4,53],[-2,64],[22,27],[-20,53],[20,19],[-34,51],[-3,24],[20,3],[-17,50],[14,14],[17,-30],[15,-9],[31,25],[-21,20],[-32,14]],[[19034,20749],[70,62],[52,43],[188,144],[26,13],[28,41],[67,43],[19,-4],[41,16],[51,34],[38,15],[62,39],[98,46],[79,32],[50,17],[88,25],[26,16],[40,5],[52,14],[39,1],[86,31],[24,1],[21,-8],[54,-49],[40,-32],[29,-18],[36,-12],[49,-10],[34,-14],[4,42],[24,25],[92,25],[92,49],[42,9],[135,1],[41,-2],[36,-13],[62,19],[40,7],[27,-3],[96,-21],[33,3],[19,10],[54,57],[26,17],[52,20],[35,19],[38,32],[48,21],[64,11],[31,-3],[39,-26],[16,-32],[4,-194],[-5,-87],[94,-1],[61,5],[53,18],[76,37],[398,202],[56,28],[42,17],[77,18],[50,5],[368,30],[48,4]],[[22989,21589],[-58,-75],[-46,-53],[-15,-24],[-18,-52],[-31,-109],[-46,-120],[-63,-109],[-19,-52],[-10,-164],[-15,-96],[1,-128],[-4,-24],[-22,-56],[-7,-99],[-16,-52],[10,-118],[9,-39],[-26,-20],[2,-14],[-19,-12],[-11,24],[-23,-17],[-26,-6],[-22,-14],[-13,18],[18,9],[-35,32],[1,-28],[-26,5],[3,16],[-33,-6],[-31,4],[-34,25],[45,17],[-24,23],[-16,-17],[-22,9],[13,17],[-1,25],[-24,-5],[-7,25],[-17,20],[-28,2],[-3,17],[-18,20],[-31,-22],[2,29],[-19,5],[-26,-17],[-12,31],[-32,-2],[-8,-34],[-33,-3],[-52,-18],[-35,-4],[3,-34],[-10,-11],[-23,14],[2,30],[-17,7],[-30,-21],[-57,44],[-31,2],[-27,-10],[9,-31],[-24,-11],[-10,-21],[12,-17],[-42,3],[-8,-30],[-37,14],[-10,19],[-20,-17],[-32,-14],[-24,-1],[12,-23],[-30,0],[-99,9],[-37,18],[-61,13],[-33,-15],[-14,-12],[15,-15],[-56,-74],[-23,3],[-5,-14],[-39,-19],[-27,-34],[-10,-42],[13,-16],[-7,-31],[30,-1],[16,-34],[-7,-29],[31,-25],[-7,-34],[16,-15],[-13,-24],[-14,-6],[-7,-21],[-35,-13],[10,-46],[34,8],[20,-11],[-6,-17],[-24,-5],[-5,-29],[-22,-19],[-39,9],[-29,-28],[-30,9],[-32,-34],[-3,-24],[-40,-18],[-5,-21],[-16,-7],[-21,21],[-7,-36],[-16,2],[-12,-31],[-33,-14],[-17,13],[-25,3],[-2,-71],[-9,-16],[-34,-8],[-67,-43],[-24,-3],[-30,-21],[-53,-18],[-57,-36],[-25,-5],[-39,2],[-20,-24],[-5,-41],[-27,11],[-10,-28],[-14,-9],[-24,1],[-22,-11],[10,-19],[-23,-11],[-15,-21],[-27,-14],[6,-14],[-45,3],[-30,-41],[-26,-2],[-11,10],[-77,-59],[-8,-34],[-34,6],[-75,-45],[-16,4],[-14,-21],[-28,-15],[118,-334]],[[20174,18612],[-21,-25],[-33,-2],[-30,-37],[-18,-3],[-68,-50],[-66,-41],[-45,-34],[-13,-22],[-27,-16],[-8,-29],[-50,-12],[-2,-52],[4,-17],[-13,-16],[-46,-10],[-17,-22],[-1,-19],[-12,-26],[-13,-9],[-36,1],[-18,-7],[-9,-17],[-44,-17],[-31,14],[-13,-28],[-31,-28],[-30,-8],[-22,-17],[-49,-19],[-23,-40],[-12,3],[-24,-36],[-104,492],[-57,258],[3,11],[-86,368],[-2,129],[-8,140]],[[26767,12498],[-291,-105],[-76,-14],[-36,-21],[-40,-12],[-114,-55],[-42,-31],[-79,-67],[-52,-64],[-30,-19],[-216,-158],[-75,-62],[-94,-95],[-55,-27],[-60,-20],[-92,-9],[-83,-26],[-162,-41],[-125,-8],[-109,17],[-85,23],[-119,37],[-102,35],[-88,41],[-70,49],[-43,42],[-81,88],[-62,64],[-89,71],[-46,21],[-62,12],[-57,-17],[-36,-21],[-29,-44],[-14,-39],[-11,-62],[7,-82],[24,-100],[38,-81],[58,-88],[89,-117],[95,-116],[50,-78],[29,-70],[20,-66],[15,-71],[-6,-63],[-23,-80],[-28,-82],[-110,-255],[-48,-87],[-116,-178],[-121,-108],[-147,-49],[-119,13],[-198,64]],[[23451,10287],[4,48],[-10,58],[-21,20],[-73,31],[-44,9],[-75,0],[-25,-5],[-37,-19],[-55,-16],[-37,12],[-38,39]],[[23040,10464],[-8,14],[-1,29],[7,17],[23,20],[42,22],[44,8],[43,16],[37,6],[75,36],[69,79],[39,56],[21,39],[-6,30],[-78,33],[-25,30],[-10,29],[-6,58],[-16,94],[-12,40],[-36,55],[-42,30],[-56,13],[-41,2],[-24,23],[-3,24],[16,76],[15,57],[-24,13],[-103,-3],[-69,6],[-46,-3],[-27,-9],[-27,-19],[-22,-52],[-18,-21],[-19,19],[-2,24],[5,37],[14,38],[14,20],[33,29],[2,27],[-23,73],[-2,58],[5,57],[29,61],[83,78],[62,39],[99,80],[80,49],[51,61],[-14,16],[-94,0],[-34,-13],[-27,3],[-87,53],[-13,14],[3,25],[-33,24],[-37,62],[12,35],[26,14],[-4,18],[-53,35],[-27,-3],[-21,18],[-3,38],[-34,14],[-62,-34],[-22,14],[-2,28],[29,24],[-27,53],[-28,23],[-9,21],[1,60],[-7,26],[-34,43],[-18,31],[-30,40],[-38,36],[-21,36],[-35,17],[-22,-10],[-61,23],[-26,16],[-30,35],[-28,59],[-18,31],[-22,63],[-13,152],[2,55],[12,39],[17,23],[28,26],[10,20],[-36,74],[-31,44],[-45,30],[-15,1],[-82,-35],[-54,-32],[-41,-33],[-46,-45],[-22,-39],[-8,-67],[-15,-9],[-100,0],[-54,-9],[-68,-25],[-38,-22],[-10,0],[-36,23],[-16,21],[-39,70],[1,50],[-11,50],[-35,64],[-36,89],[1,30],[22,39],[5,26],[-9,27],[-25,32],[18,20],[23,-42],[77,-23],[12,-9],[21,11],[13,22],[3,31],[-9,18],[-37,51],[-42,42],[-71,40],[-67,21],[-53,5],[-40,35],[-36,18],[-51,2],[-52,26],[-57,36],[-19,21],[-32,18],[25,20],[15,31],[-27,17],[-19,44],[15,7],[5,20],[-18,8],[-3,30],[-32,29],[6,21],[-25,15],[-11,-14],[-35,-10],[-21,19],[-24,8],[-44,-6],[-72,12],[-28,25],[1,23],[-34,33],[-34,18],[-37,31],[-31,11],[-17,-4],[-16,21],[-9,52],[12,28],[-49,8],[-65,19],[-49,4],[-42,-10],[-91,-36],[-26,-8],[-124,-16],[-38,-16],[-39,-27],[-89,-71],[-41,-19],[-35,-5],[-41,6],[-109,34],[-41,23],[-26,35],[-39,68],[-24,22],[-22,9],[-40,5],[-178,-32]],[[5672,4415],[-116,8],[-19,11],[-9,49],[-11,23],[22,27],[8,90],[17,44],[8,35],[-8,29],[-14,20],[116,4],[9,51],[166,708],[108,440],[84,381],[2,61],[-29,541],[-16,345],[32,248],[19,142],[36,372],[-10,11],[-392,494],[-177,223],[-269,325],[-63,81],[22,37]],[[23587,22219],[-87,-40],[-50,-36],[-26,-38],[-29,-63],[-6,-36],[-1,-94],[-5,-25],[-16,-30],[-72,-104],[-31,-36],[-37,-33],[-56,-31],[-38,-17],[-96,-35],[-48,-12]],[[18159,21934],[-9,154],[165,3],[-2,25],[-3,145],[182,5],[5,333],[355,1],[4,316],[365,-3],[149,-2],[185,-5],[3,214],[5,121],[1049,-21],[3,361],[15,309],[-4,180],[3,156],[99,-3],[143,0],[105,4],[333,4],[26,1],[719,-4],[-9,-1095],[-2,-204],[-5,-700],[269,-2],[753,0],[371,-5],[156,-3]],[[26234,19642],[0,-1447],[-14,-663],[-5,-428],[-11,-41]],[[23330,18965],[7,28],[-22,22],[41,17],[26,33],[13,5],[17,25],[24,13],[46,65],[55,32],[36,13],[27,50],[43,33],[24,9],[24,18],[11,37],[-4,16],[5,31],[-8,28],[12,31],[-6,25],[36,37],[8,26],[35,39],[21,39],[14,47],[19,-1],[37,36],[28,9],[19,-7],[17,-25],[17,1],[32,-15],[11,11],[35,-19],[46,-12],[92,-46],[15,-26],[49,1],[35,9],[63,35],[22,31],[9,34],[14,2],[15,32],[-2,18],[20,15],[8,32],[-28,30],[6,20],[40,33],[15,35],[30,15],[34,9],[15,-6],[36,43],[16,5],[43,38],[63,47],[44,41],[38,10],[16,24],[12,-1],[27,21],[4,16],[43,16],[25,40],[43,41],[21,-10],[56,10],[12,36],[29,-6],[60,2],[25,-4],[21,25],[34,7],[32,35],[22,11],[4,19],[33,44],[7,42],[20,1],[17,17],[24,0],[10,12],[27,-5],[27,-22],[-8,-32],[-16,-10],[-14,-49],[16,-16],[1,-26],[-23,-21],[-28,-49],[-4,-31],[10,-36],[22,-17],[42,-54],[35,-59],[17,-38],[10,-63],[-7,-62],[4,-40],[28,-72],[22,-22],[28,-15],[32,-4],[47,15],[8,-28],[-31,-17],[-1,-23],[17,-14],[32,-3],[8,-41],[20,-11],[57,-3],[34,22],[34,-18],[18,8],[24,39],[22,1],[44,-24],[49,-19],[28,-27],[27,-13],[31,-2],[72,-18],[30,51],[23,17],[18,-1],[37,-23]],[[8500,10919],[-69,16],[-32,3],[-252,7],[-56,0]],[[4318,2097],[-562,-12],[-12,348],[11,329],[-714,-2],[32,911],[-745,-8],[-1,245],[4,981],[-14,1518],[-199,5],[4,159],[-947,10],[-89,4],[-157,0],[2,174],[-880,0],[-1,602]],[[14035,2335],[-640,-3],[-1000,-7],[-389,0]],[[20174,18612],[164,-452],[145,-399],[117,-328],[21,-61],[104,-290]],[[23587,22219],[71,-2],[1009,4],[286,1],[727,-1],[553,1],[0,-152],[1,-786],[0,-663],[0,-979]],[[9081,2305],[-41,-2],[-178,-1],[-364,-8],[-63,3],[-74,-1],[-16,-9],[-175,4],[-1,63],[-185,7],[-537,40]],[[19199,13225],[-28,-59],[-26,-36],[-79,-93],[-30,-45],[-10,-37],[-11,-59],[3,-41],[10,-50],[9,-104],[11,-32],[50,-74],[51,-59],[14,-21],[10,-41],[17,-132],[6,-28],[25,-74],[18,-111],[-2,-35],[-18,-69],[-15,-92],[-42,-116],[-7,-30],[-4,-295],[0,-76],[-2,-98],[2,-94],[-2,-217],[0,-222],[3,-96],[3,-26],[19,-56],[27,-135],[-4,-46],[-27,-58],[-9,-52],[-3,-74],[-12,-32],[-24,-37],[-121,-137],[-41,-66],[-24,-33],[-35,-25],[-84,-23],[-74,-16],[-36,-16],[-43,-35],[-20,-25],[-13,-34],[2,-55],[-9,-91],[-3,-98],[-34,-6]],[[16370,10426],[-35,35],[-15,21],[-15,50],[-4,212],[4,51],[19,47],[43,66],[22,46],[5,27],[2,46],[-1,330],[10,68]],[[23040,10464],[-98,-3],[-77,-11],[-55,-24],[-51,-39],[-23,-27],[-90,-142],[-27,-36],[-26,-26],[-33,-24],[-37,-18],[-194,-84],[-366,-155],[-114,-50],[-55,-20],[-334,-114],[-87,-25],[-383,-79],[-69,-11],[-49,-5],[-335,-23],[-1302,-93],[-342,-26],[-237,-18],[-12,-2]],[[8610,10892],[-12,-53],[-26,-176],[-44,-264]],[[20335,7234],[23,6],[36,29],[51,37],[64,13],[84,-6],[93,-1],[113,12],[76,-13],[30,6],[19,12],[15,31],[24,14],[51,1],[65,7],[102,-10]],[[21181,7372],[-11,-57],[-7,-88],[12,-51],[23,-39],[66,-57],[45,-21],[65,-12],[82,-19],[121,-39],[79,-39],[91,-69],[59,-69],[136,-261],[34,-80],[27,-171],[-1,-183],[-6,-163],[6,-47],[41,-79],[63,-83],[85,-86],[95,-69],[104,-62],[121,-54],[145,-71],[115,-113],[81,-129],[55,-168],[22,-103],[-20,-87],[-37,-56],[-92,-79],[-101,-60],[-124,-46],[-157,-49],[-126,-24],[-167,-49],[-156,-98],[-80,-85],[-87,-131],[-58,-117],[-46,-121],[-27,-59],[-35,-65],[-45,-66],[-178,-120],[-310,-159],[-141,-101],[-85,-113],[-39,-117],[6,-128],[20,-136],[3,-10]],[[23451,10287],[-96,30],[-141,29],[-133,-42],[-76,-70],[-265,-481],[-51,-119],[-23,-100],[-3,-79],[24,-208],[44,-151],[73,-153],[52,-123],[3,-26],[24,-113],[10,-138],[-7,-78],[-42,-134],[-110,-133],[-114,-55],[-104,-1],[-75,24],[-138,103],[-45,32],[-83,50],[-93,52],[-93,21],[-121,-8],[-128,-52],[-90,-67],[-73,-103],[-84,-179],[-68,-157],[-116,-225],[-65,-118],[-63,-143]]],"transform":{"scale":[0.0000247254605097152,0.000021768405414328257],"translate":[-87.026846,33.018664]},"objects":{"Geometry\\01-117":{"type":"GeometryCollection","geometries":[{"arcs":[[0,1,2,3,4,5]],"type":"Polygon","properties":{"GEOID":"011170302191"}},{"arcs":[[6,7,8,9,10]],"type":"Polygon","properties":{"GEOID":"011170306111"}},{"arcs":[[11,12,13,14,15,-9,16]],"type":"Polygon","properties":{"GEOID":"011170306131"}},{"arcs":[[17,18,19,-13]],"type":"Polygon","properties":{"GEOID":"011170306132"}},{"arcs":[[20,21,-19,22]],"type":"Polygon","properties":{"GEOID":"011170306133"}},{"arcs":[[23,24,25,26,27,28,-21,29,30]],"type":"Polygon","properties":{"GEOID":"011170306142"}},{"arcs":[[31,-28]],"type":"Polygon","properties":{"GEOID":"011170306141"}},{"arcs":[[32,33,34,35]],"type":"Polygon","properties":{"GEOID":"011170306073"}},{"arcs":[[36,-35,37,38,39,40,41]],"type":"Polygon","properties":{"GEOID":"011170306102"}},{"arcs":[[42,43,44,45,46,47,-24,48]],"type":"Polygon","properties":{"GEOID":"011170306162"}},{"arcs":[[49,-10,-16,50,51,52,53]],"type":"Polygon","properties":{"GEOID":"011170304072"}},{"arcs":[[54,55]],"type":"Polygon","properties":{"GEOID":"011170305032"}},{"arcs":[[56,57,58,-25,-48]],"type":"Polygon","properties":{"GEOID":"011170306152"}},{"arcs":[[59,60,61,62,63,64,65,66,67]],"type":"Polygon","properties":{"GEOID":"011170303482"}},{"arcs":[[68,-66,69,70,71,72,73,74]],"type":"Polygon","properties":{"GEOID":"011170303491"}},{"arcs":[[75,-30,-23,-18,-12,-39]],"type":"Polygon","properties":{"GEOID":"011170306121"}},{"arcs":[[76,77,78]],"type":"Polygon","properties":{"GEOID":"011170302152"}},{"arcs":[[79,80,81,82,83]],"type":"Polygon","properties":{"GEOID":"011170303473"}},{"arcs":[[84,85,86,87,88,-82,89]],"type":"Polygon","properties":{"GEOID":"011170302123"}},{"arcs":[[90,91,-6,92,93]],"type":"Polygon","properties":{"GEOID":"011170302182"}},{"arcs":[[94,-54,95,-52,96,97,98]],"type":"Polygon","properties":{"GEOID":"011170304083"}},{"arcs":[[99,100,101,102,103,104,105,106]],"type":"Polygon","properties":{"GEOID":"011170303364"}},{"arcs":[[107,108,109,110,111,112,-88,113,114]],"type":"Polygon","properties":{"GEOID":"011170302213"}},{"arcs":[[115,-40,-17,-8]],"type":"Polygon","properties":{"GEOID":"011170306101"}},{"arcs":[[116,-80,117]],"type":"Polygon","properties":{"GEOID":"011170303472"}},{"arcs":[[118,-110,119,120,121,122]],"type":"Polygon","properties":{"GEOID":"011170302202"}},{"arcs":[[123,124,125]],"type":"Polygon","properties":{"GEOID":"011170303501"}},{"arcs":[[126,127,128]],"type":"Polygon","properties":{"GEOID":"011170303461"}},{"arcs":[[129,-105,130,131,132]],"type":"Polygon","properties":{"GEOID":"011170303363"}},{"arcs":[[133,134,-100,135]],"type":"Polygon","properties":{"GEOID":"011170303511"}},{"arcs":[[-41,-116,-7,136]],"type":"Polygon","properties":{"GEOID":"011170306103"}},{"arcs":[[137,138,-60,139,140,141]],"type":"Polygon","properties":{"GEOID":"011170303313"}},{"arcs":[[-122,142,143,144,145]],"type":"Polygon","properties":{"GEOID":"011170302203"}},{"arcs":[[146,147,148,149]],"type":"Polygon","properties":{"GEOID":"011170303524"}},{"arcs":[[150]],"type":"Polygon","properties":{"GEOID":"011170307013"}},{"arcs":[[151]],"type":"Polygon","properties":{"GEOID":"011170307015"}},{"arcs":[[152,153,154]],"type":"Polygon","properties":{"GEOID":"011170305041"}},{"arcs":[[155,156,157,158,159,-79,-72]],"type":"Polygon","properties":{"GEOID":"011170302112"}},{"arcs":[[-74,160,161,162,163,164]],"type":"Polygon","properties":{"GEOID":"011170306151"}},{"arcs":[[-73,-78,165,166,-91,-161]],"type":"Polygon","properties":{"GEOID":"011170302181"}},{"arcs":[[167,-55,168,169,170,-155,171,172]],"type":"Polygon","properties":{"GEOID":"011170305042"}},{"arcs":[[-125,173,174,-133,175,176,177]],"type":"Polygon","properties":{"GEOID":"011170303502"}},{"arcs":[[178,-120,-109]],"type":"Polygon","properties":{"GEOID":"011179801001"}},{"arcs":[[-29,-32,-27,179,180,181,182,183,-170,184]],"type":"Polygon","properties":{"GEOID":"011170305022"}},{"arcs":[[-144,185,186,187,188]],"type":"Polygon","properties":{"GEOID":"011170302204"}},{"arcs":[[189,-149,190,191,192,193,194]],"type":"Polygon","properties":{"GEOID":"011170303522"}},{"arcs":[[195,-194,196,197,-101,-135]],"type":"Polygon","properties":{"GEOID":"011170303521"}},{"arcs":[[-197,-193,198,199,200,201]],"type":"Polygon","properties":{"GEOID":"011170303162"}},{"arcs":[[-201,202,203,204]],"type":"Polygon","properties":{"GEOID":"011170303161"}},{"arcs":[[-59,205,206,207,208,-180,-26],[-152],[-151]],"type":"Polygon","properties":{"GEOID":"011170307014"}},{"arcs":[[209,210,-75,-165,211,-45,212,213]],"type":"Polygon","properties":{"GEOID":"011170303452"}},{"arcs":[[214,-1,-92,-167]],"type":"Polygon","properties":{"GEOID":"011170302192"}},{"arcs":[[-212,-164,215,-46]],"type":"Polygon","properties":{"GEOID":"011170306161"}},{"arcs":[[216,-62,217,218]],"type":"Polygon","properties":{"GEOID":"011170303301"}},{"arcs":[[219,220,221,222,223,-140,-68,224,225]],"type":"Polygon","properties":{"GEOID":"011170303481"}},{"arcs":[[226,227,-64,228]],"type":"Polygon","properties":{"GEOID":"011170303483"}},{"arcs":[[229,-90,-81,-117,230]],"type":"Polygon","properties":{"GEOID":"011170303471"}},{"arcs":[[231,232,233,-112]],"type":"Polygon","properties":{"GEOID":"011170302211"}},{"arcs":[[234,-128,235,-231,-118,-84,236,237,238]],"type":"Polygon","properties":{"GEOID":"011170303462"}},{"arcs":[[239,-14,-20,-22,-185,-169,-56,-168,240]],"type":"Polygon","properties":{"GEOID":"011170305031"}},{"arcs":[[-150,-190,241]],"type":"Polygon","properties":{"GEOID":"011170303523"}},{"arcs":[[242,-136,-107,-174,-124]],"type":"Polygon","properties":{"GEOID":"011170303512"}},{"arcs":[[243,244,-156,-71]],"type":"Polygon","properties":{"GEOID":"011170302164"}},{"arcs":[[-119,-232,-111]],"type":"Polygon","properties":{"GEOID":"011170302212"}},{"arcs":[[-123,-146,245,-227,-233]],"type":"Polygon","properties":{"GEOID":"011170302201"}},{"arcs":[[246,247,248]],"type":"Polygon","properties":{"GEOID":"011170307043"}},{"arcs":[[-216,-163,249,-57,-47]],"type":"Polygon","properties":{"GEOID":"011170306153"}},{"arcs":[[-176,-132,250,251,252,253,254,255]],"type":"Polygon","properties":{"GEOID":"011170303371"}},{"arcs":[[256,257,258,259,260]],"type":"Polygon","properties":{"GEOID":"011170303043"}},{"arcs":[[-129,-235,261,-257,262]],"type":"Polygon","properties":{"GEOID":"011170303042"}},{"arcs":[[-234,-229,-63,-217,263]],"type":"Polygon","properties":{"GEOID":"011170303303"}},{"arcs":[[264,265,266,267,-222,268]],"type":"Polygon","properties":{"GEOID":"011170303053"}},{"arcs":[[269,-259,270,-265,271,272]],"type":"Polygon","properties":{"GEOID":"011170303041"}},{"arcs":[[273,274,275,-36,-37,276,-254]],"type":"Polygon","properties":{"GEOID":"011170306071"}},{"arcs":[[277,278,279,280,281,-252]],"type":"Polygon","properties":{"GEOID":"011170303203"}},{"arcs":[[282,283,-33,-276]],"type":"Polygon","properties":{"GEOID":"011170303061"}},{"arcs":[[-192,284,285,286,-273,287,-220,288,289,-199]],"type":"Polygon","properties":{"GEOID":"011170303151"}},{"arcs":[[-204,290,-289,-226,291,292,-214,293,294]],"type":"Polygon","properties":{"GEOID":"011170303153"}},{"arcs":[[-208,295,296,297,298,299,300]],"type":"Polygon","properties":{"GEOID":"011170307032"}},{"arcs":[[301,-299,302,303,-247,304,-182,305]],"type":"Polygon","properties":{"GEOID":"011170307042"}},{"arcs":[[306,-141,-224,307]],"type":"Polygon","properties":{"GEOID":"011170303311"}},{"arcs":[[-301,308,-306,-181,-209]],"type":"Polygon","properties":{"GEOID":"011170307031"}},{"arcs":[[309,310,-251,-131]],"type":"Polygon","properties":{"GEOID":"011170303361"}},{"arcs":[[311,312,313,314,315,316]],"type":"Polygon","properties":{"GEOID":"011170303173"}},{"arcs":[[317,-315,318,319,320,-279]],"type":"Polygon","properties":{"GEOID":"011170303201"}},{"arcs":[[321,-316,-318,-278,-311]],"type":"Polygon","properties":{"GEOID":"011170303202"}},{"arcs":[[-198,-202,-205,-295,322,323,324,-102]],"type":"Polygon","properties":{"GEOID":"011170303163"}},{"arcs":[[-238,325,-142,-307,326,-267]],"type":"Polygon","properties":{"GEOID":"011170303312"}},{"arcs":[[-327,-308,-223,-268]],"type":"Polygon","properties":{"GEOID":"011170303052"}},{"arcs":[[-281,327,328,-283,-275,329]],"type":"Polygon","properties":{"GEOID":"011170303062"}},{"arcs":[[-103,-325,330,-312,331]],"type":"Polygon","properties":{"GEOID":"011170303172"}},{"arcs":[[-104,-332,-317,-322,-310]],"type":"Polygon","properties":{"GEOID":"011170303171"}},{"arcs":[[-272,-269,-221,-288]],"type":"Polygon","properties":{"GEOID":"011170303051"}},{"arcs":[[332,333,334,335,336]],"type":"Polygon","properties":{"GEOID":"011170301022"}},{"arcs":[[337,338,339,-335]],"type":"Polygon","properties":{"GEOID":"011170301023"}},{"arcs":[[-115,340,-86,341]],"type":"Polygon","properties":{"GEOID":"011170302122"}},{"arcs":[[-189,342,343,344]],"type":"Polygon","properties":{"GEOID":"011170302162"}},{"arcs":[[-15,-240,345,346,-51]],"type":"Polygon","properties":{"GEOID":"011170304061"}},{"arcs":[[-97,-347,347,348]],"type":"Polygon","properties":{"GEOID":"011170304051"}},{"arcs":[[349,-343,-188,350,-158]],"type":"Polygon","properties":{"GEOID":"011170302111"}},{"arcs":[[-290,-291,-203,-200]],"type":"Polygon","properties":{"GEOID":"011170303152"}},{"arcs":[[-341,-114,-87]],"type":"Polygon","properties":{"GEOID":"011170302121"}},{"arcs":[[-228,-246,-145,-345,351,-244,-70,-65]],"type":"Polygon","properties":{"GEOID":"011170302161"}},{"arcs":[[-329,352,353,-49,-31,-76,-38,-34,-284]],"type":"Polygon","properties":{"GEOID":"011170303063"}},{"arcs":[[354,-218,-61,-139]],"type":"Polygon","properties":{"GEOID":"011170303314"}},{"arcs":[[-292,-225,-67,-69,-211,355]],"type":"Polygon","properties":{"GEOID":"011179800001"}},{"arcs":[[-286,356]],"type":"Polygon","properties":{"GEOID":"011170303141"}},{"arcs":[[-260,-270,-287,-357,-285,-191,-148,357]],"type":"Polygon","properties":{"GEOID":"011170303142"}},{"arcs":[[-106,-130,-175]],"type":"Polygon","properties":{"GEOID":"011170303362"}},{"arcs":[[-314,358,359,-319]],"type":"Polygon","properties":{"GEOID":"011170303401"}},{"arcs":[[-324,360,361,-359,-313,-331]],"type":"Polygon","properties":{"GEOID":"011170303402"}},{"arcs":[[-361,-323,-294,-213,-44,362,363,364]],"type":"Polygon","properties":{"GEOID":"011170303411"}},{"arcs":[[-282,-330,-274,-253]],"type":"Polygon","properties":{"GEOID":"011170306072"}},{"arcs":[[365,366,367,-159]],"type":"Polygon","properties":{"GEOID":"011170309002"}},{"arcs":[[-336,-340,368,369,370,-3]],"type":"Polygon","properties":{"GEOID":"011170301031"}},{"arcs":[[-255,-277,-42,-137,-11,-50,-95,371]],"type":"Polygon","properties":{"GEOID":"011170304082"}},{"arcs":[[-293,-356,-210]],"type":"Polygon","properties":{"GEOID":"011170303451"}},{"arcs":[[-53,-96]],"type":"Polygon","properties":{"GEOID":"011170304071"}},{"arcs":[[372,-366,-351,-187,373]],"type":"Polygon","properties":{"GEOID":"011170309003"}},{"arcs":[[374,-338,-334,375]],"type":"Polygon","properties":{"GEOID":"011170301021"}},{"arcs":[[-344,-350,-157,-245,-352]],"type":"Polygon","properties":{"GEOID":"011170302163"}},{"arcs":[[-262,-239,-266,-271,-258]],"type":"Polygon","properties":{"GEOID":"011170303044"}},{"arcs":[[-237,-83,-89,-113,-264,-219,-355,-138,-326]],"type":"Polygon","properties":{"GEOID":"011170303302"}},{"arcs":[[-360,-362,-365,376,-320]],"type":"Polygon","properties":{"GEOID":"011170303403"}},{"arcs":[[-177,-256,-372,-99,377]],"type":"Polygon","properties":{"GEOID":"011170304081"}},{"arcs":[[-184,378,-153,-171]],"type":"Polygon","properties":{"GEOID":"011170305021"}},{"arcs":[[-300,-302,-309]],"type":"Polygon","properties":{"GEOID":"011170307033"}},{"arcs":[[-77,-160,-368,379,-337,-2,-215,-166]],"type":"Polygon","properties":{"GEOID":"011170302151"}},{"arcs":[[-373,380,-376,-333,-380,-367]],"type":"Polygon","properties":{"GEOID":"011170309001"}},{"arcs":[[-241,-173,381,-348,-346]],"type":"Polygon","properties":{"GEOID":"011170304062"}},{"arcs":[[-93,-5,382,-296,-207,383]],"type":"Polygon","properties":{"GEOID":"011170307012"}},{"arcs":[[-383,-4,-371,384,-297]],"type":"Polygon","properties":{"GEOID":"011170308001"}},{"arcs":[[-377,-364,385,-353,-328,-280,-321]],"type":"Polygon","properties":{"GEOID":"011170303192"}},{"arcs":[[-304,386,387,-248]],"type":"Polygon","properties":{"GEOID":"011170307041"}},{"arcs":[[-385,-370,388,-387,-303,-298]],"type":"Polygon","properties":{"GEOID":"011170308002"}},{"arcs":[[-386,-363,-43,-354]],"type":"Polygon","properties":{"GEOID":"011170303191"}},{"arcs":[[-250,-162,-94,-384,-206,-58]],"type":"Polygon","properties":{"GEOID":"011170307011"}}]}}}