{"type":"Topology","arcs":[[[16249,22475],[-1,-27],[-185,-136],[-278,-204],[-327,-219],[-203,-136],[-8,-4],[-61,-16],[-240,-98],[-187,-109],[-959,-558],[-446,-504],[-151,-435],[-121,-349],[-59,-170]],[[13023,19510],[-52,-149],[-174,-502]],[[12797,18859],[-96,-275],[-28,-138]],[[12673,18446],[-77,-364],[-41,-195]],[[12555,17887],[-97,-466]],[[12458,17421],[-64,-301],[-71,-217]],[[12323,16903],[-145,-440],[-69,-209],[-35,-104],[-97,-419],[-212,-416],[-160,-312],[-110,-215],[-116,-357],[-78,-238]],[[11301,14193],[-132,-403],[-48,-149],[-264,-808],[-127,-387],[-179,-550],[-151,-465]],[[10400,11431],[-92,-279],[-142,-436],[-125,-384],[-200,-613],[-66,-205]],[[9775,9514],[-233,-541],[-306,-714],[-307,-706],[-354,-819],[-520,-1212],[-437,-1027],[-43,-100],[-496,-1155]],[[7079,3240],[-7,-1],[-112,-150],[-188,-253],[-165,-221],[-202,-272],[10,-15],[-280,-455],[-229,0],[-244,0],[-210,0],[-228,0],[-226,0],[-228,0],[-229,0],[1,-535],[1,-535],[-123,0],[-395,0],[-211,0],[0,-97],[0,-706],[-235,0],[-279,0],[-403,0],[-344,0],[-124,0],[-362,0],[-202,0],[-51,0],[-361,0],[-512,0],[-239,0],[-267,0],[0,412],[0,391],[-215,0],[0,328],[0,463],[0,362],[0,509],[0,439],[0,362],[0,357],[0,391],[-220,0],[0,426],[0,356],[0,465],[0,358],[196,0],[499,0],[684,0],[0,217],[0,570],[0,381],[0,438],[342,0],[229,0],[336,0],[274,0],[0,354],[0,448],[364,1],[333,0],[0,540],[0,432],[0,385],[0,248],[260,0],[198,0],[238,0],[0,381],[0,422],[353,0],[163,0],[0,551],[0,336],[0,541],[0,363],[0,393],[0,303],[0,298],[0,425],[527,0],[0,534],[0,398],[0,399],[0,396],[0,395],[-1,395],[0,694],[368,0],[169,0],[0,428],[0,375],[0,386],[0,309],[0,354],[0,352],[0,381],[0,316],[0,309],[-178,0],[0,413],[0,461],[0,347],[0,409],[0,490],[0,314],[0,290],[0,486],[-183,0],[0,356],[0,386],[0,438],[0,425],[0,200],[0,602],[256,0],[361,0],[245,0],[422,0],[273,0],[351,0],[322,0],[272,0],[366,0],[211,0],[237,0],[376,1],[585,0],[401,0],[466,0],[439,0],[436,0],[344,0],[301,0],[268,0],[278,0],[237,0],[275,0],[264,0],[309,0],[233,0],[284,0],[0,-457],[0,-551],[0,-263],[0,-334],[255,0],[300,0],[150,0],[299,0],[299,0],[165,0],[0,-336],[0,-466],[187,-187],[245,-246],[366,-370]],[[14749,16994],[94,0],[30,25]],[[14873,17019],[5,-10],[13,-15],[10,0],[118,0]],[[15019,16994],[70,0],[6,-2],[10,-19],[14,21],[168,0],[5,-17],[19,8],[8,0],[29,-13]],[[15348,16972],[0,-13]],[[15348,16959],[0,-5],[-24,12],[-11,3],[-24,-15],[0,-60],[60,0],[0,-34],[-23,0],[-217,0],[-23,2],[-73,0],[-9,-2],[-54,0]],[[14950,16860],[-176,0],[-24,0]],[[14750,16860],[-1,134]],[[16249,22475],[145,80],[254,140],[139,77],[296,163],[396,219],[223,124],[229,-253],[262,-290],[236,-260],[71,1],[243,-1],[412,0],[173,-95],[250,-139],[188,-104]],[[19766,22137],[-16,-371],[-8,-164],[2,-4],[33,-457],[11,-20],[10,-8],[7,1],[6,-9],[15,-2],[-26,-71],[-156,-426],[-156,-428],[-60,-166],[-16,-27],[-76,-148],[-14,-52],[-35,-91],[-38,-72],[-64,-98],[-141,-292],[-29,-19],[-112,-49],[-133,-147],[-19,-28],[-53,-60],[-23,-24]],[[18675,18905],[-273,-324],[-1,-5],[-34,-24],[-59,-75],[-82,-95],[-132,-162],[-35,-25],[-29,-12],[-23,-34],[-23,-39],[-18,-21],[-27,-12],[-61,-32],[-81,-39],[-243,-150],[-212,-133],[-317,-145],[5,102],[-253,1],[-311,0],[-102,1],[-2,-2],[-49,-1],[-1,57],[20,-1],[97,1],[1,63],[28,0],[29,2],[-2,172],[-193,-3],[-70,0],[-8,39],[-11,40],[22,59],[14,19],[0,13],[-16,11],[-50,-5],[-126,-3],[-1,-41],[-52,-1],[-47,-4],[-19,2],[-4,-3],[-51,3],[-94,0],[-41,-2],[-157,-3],[-2,-435]],[[15579,17659],[-382,-4],[-55,2],[-28,-3],[-6,3]],[[15108,17657],[-1,1],[15,439],[-202,129],[-292,187]],[[14628,18413],[-3,256],[2,77],[-14,-20],[-7,-6],[-9,-1],[-12,6],[-27,-3],[-16,13],[1,14],[-5,4],[-72,71],[-29,15],[-17,2],[-9,-2],[-4,8],[6,5],[-2,9],[-8,1],[-2,11],[-5,10],[-15,16],[-4,23],[9,64],[1,60]],[[14387,19046],[0,65],[-2,21],[-9,12],[-14,5],[-11,0],[-10,5],[-10,14],[0,15],[9,21],[1,22],[-11,28],[-4,21],[0,18],[-44,-19],[-16,20],[0,19],[2,23],[-2,9],[0,56],[-48,17],[-31,3],[-208,16],[-389,30],[-328,25],[-239,18]],[[14954,17395],[4,0],[0,34],[46,0]],[[15004,17429],[14,0],[0,33],[30,0],[0,67],[-60,0],[0,2],[0,128]],[[14988,17659],[97,0],[23,-2]],[[15579,17659],[-16,-15],[-4,2],[-29,-19],[-20,-18],[-13,-4],[-7,-6],[11,-15],[12,-1],[16,-17],[20,-8],[8,-12],[0,-7],[-8,-6],[-3,-10],[3,-17],[-21,-11],[-2,-9],[-7,-10],[-4,-11],[8,-13],[3,-16],[-3,-6],[3,-15],[13,-20],[-1,-23],[-7,-24],[-8,-6],[0,-11],[-7,-29],[-16,-26],[-18,-17],[-12,-7],[-30,-4],[-20,4],[-32,-2],[-14,3],[-13,-9],[-21,2],[-9,-20],[0,-14],[9,-20],[5,-30],[-1,-21],[-8,2],[-15,-15]],[[15321,17128],[-92,0]],[[15229,17128],[-4,52],[0,12],[-120,-23],[3,29],[0,56],[-1,8],[-46,-1],[-49,-1],[0,27],[-12,-25],[-52,21]],[[14948,17283],[3,5],[5,26],[2,25],[3,14],[-3,31],[-4,11]],[[9775,9514],[318,-11],[954,-33],[318,-11],[329,-11],[181,-6],[394,-13]],[[12269,9429],[54,-91],[230,-221],[137,-63],[27,-20]],[[12717,9034],[40,-30],[118,-45],[168,-63],[105,-32]],[[13148,8864],[121,-37],[159,-47],[121,-35],[47,-1],[10,-4],[88,5],[11,12],[193,420],[4,10]],[[13902,9187],[53,132],[168,127],[269,204],[36,30],[99,94],[336,315],[144,135],[258,240],[62,79],[59,7],[8,-12],[12,-9],[36,-68],[17,-65],[5,10],[20,8],[2,9],[8,6],[7,16],[19,16],[9,10],[16,14],[21,13],[28,10],[15,14],[16,8],[8,12],[9,9],[31,-1],[15,2],[21,-5],[8,5],[17,22],[1,11],[-3,20],[5,17],[-6,5],[-17,-1],[-3,6],[14,23],[19,15],[0,-12],[5,-12],[9,3],[1,14],[16,-2],[10,2],[3,-10],[-12,3],[-4,-7],[11,-9],[12,-21],[12,4],[6,-3],[8,12],[19,2],[20,-11],[13,-3],[28,-18],[17,-8],[8,-1],[3,9],[14,7],[2,8],[-7,12],[4,13],[1,19],[8,17],[11,10],[13,-1],[17,-6],[24,-1],[17,3],[10,4],[12,-1],[13,16]],[[16068,10702],[0,-31],[8,-242],[315,-2],[1,-117],[-1,-18],[1,-145],[0,-86],[139,-3],[-1,-97],[3,-78],[-42,1],[14,-236],[2,-37],[52,-4],[-1,-62],[-6,-9],[1,-15]],[[16553,9521],[-8,4],[-12,37],[-8,34],[-144,12],[-1,-106],[-53,-266],[-234,-57],[1,-411],[1,-118],[-142,-1],[1,-114],[3,-72],[27,-316],[-106,3],[-8,-498],[-218,-42],[-281,-53],[-34,-350],[-1,-3],[324,-10],[159,-5],[213,1],[255,1],[261,5],[18,-2],[34,15],[161,-76],[235,81],[69,1],[-1,-545],[-1,-354],[7,-134],[24,-352]],[[17094,5830],[-76,-30],[-490,-267],[-240,-105],[-57,-39],[-72,-26],[-782,-472],[-81,-29],[-996,-370],[-113,-60],[-136,-55],[-240,-136],[-284,-102],[-192,-35],[-241,-21],[-530,-66],[-384,-44],[-336,-38],[-183,-27],[-731,-106],[-791,-116],[-1523,-222],[-425,-62],[-244,-36],[-669,-97],[-199,-29]],[[14586,15788],[240,2],[-6,301],[-1,216],[130,5],[1,157],[2,263]],[[14952,16732],[0,53],[-2,75]],[[15348,16959],[25,-22],[6,-14],[23,-36],[7,-15],[18,-23],[20,-20],[10,-13],[22,-16],[33,-18],[11,-10],[13,-5],[20,-25],[14,-8],[16,1],[14,10],[6,9],[9,38],[22,30],[20,42],[0,5],[16,19],[17,1],[18,-5],[21,-3],[9,1],[15,14],[27,19],[20,22],[20,11],[9,9],[26,41],[8,5],[29,38],[8,9],[3,9],[0,21],[6,28],[12,13],[13,19],[12,45],[13,19],[21,18],[25,11],[10,-2],[16,-9],[12,-15],[10,-7],[40,1],[29,-2],[22,3],[24,5],[19,7],[14,9],[9,8],[26,37],[5,11],[7,31],[6,13],[11,16],[19,14],[22,11],[13,13],[2,26],[7,22],[18,22]],[[16346,17447],[45,-15],[9,-4],[16,-14],[41,-52],[14,-11],[16,-5],[35,-6],[19,1],[78,16],[12,1],[57,-4],[68,2],[16,0],[14,-4],[0,-287],[-2,-20],[13,-12],[2,-9],[6,-3],[27,-1],[26,-4],[30,-1],[11,-14],[3,-14],[-18,-9],[-14,-12],[-1,-20],[12,-15],[14,-5],[12,1],[24,11],[14,0],[7,-4],[18,-15],[20,-20],[26,-11],[5,-12],[-8,-25],[-11,-16],[-8,-19],[-14,-8],[-8,5],[-1,-14],[5,-13],[10,-5],[6,3],[17,19],[12,4],[21,-3],[23,-13],[16,-6],[-2,-32],[-4,-8],[-1,-13],[13,-5],[12,14],[16,14],[15,3],[24,-1],[22,3],[25,2],[12,8],[18,4],[18,10],[21,30],[6,13],[19,-13],[18,14],[18,4],[-10,9],[6,6],[17,-6],[7,-5],[3,-14],[9,-9],[16,0],[12,6],[27,18],[19,8],[11,7],[20,3],[4,-5],[32,-7],[23,-11],[22,-8],[9,-10],[6,-17],[4,-20],[20,-6],[12,1],[17,-3],[13,-22],[22,-6],[12,1],[13,-13],[9,-4],[20,6],[8,7],[15,-2],[10,4],[22,-6],[26,12],[14,-4],[8,-10],[24,-14],[9,-2],[29,-16],[25,-8],[6,-6],[28,-15],[11,5],[8,-1],[8,-11],[-3,-17],[13,-4],[18,-7],[15,-11],[7,0],[22,-13],[19,-16],[12,-4],[13,-11],[6,-14],[10,-9],[45,-29],[4,-16],[-5,-30],[8,-53],[5,-10],[6,-1],[9,-10],[-5,-14],[9,-8],[5,-10],[11,1],[7,-4],[6,-26],[6,-7],[12,-7],[17,-1],[11,6],[0,9],[10,5],[5,-12],[-7,-12],[9,-5],[8,-15],[17,1],[12,-9],[12,1],[-1,17],[18,-14],[4,-12],[20,-9],[17,-10],[15,5],[8,-1],[6,7],[8,0],[5,7],[15,6],[4,11],[15,9],[11,21],[0,12],[7,14],[12,1],[-3,14],[7,6],[15,-13],[8,13],[-1,14],[6,13],[-10,12],[-8,3],[2,13],[9,3],[19,46],[14,23],[14,15],[10,5],[8,-1],[24,-13],[21,-2],[9,2],[21,1],[8,-5],[6,13],[-2,20],[-4,6],[7,13],[24,-4],[7,10],[21,9],[21,14],[15,4],[8,8],[-6,19],[1,15],[18,47],[6,29],[20,25],[11,8],[14,3],[9,-3],[10,-9],[20,5],[9,13],[-13,20],[1,15],[8,7],[30,-1],[11,-5],[6,8],[7,27],[16,32],[6,16],[8,13],[2,11],[-3,13],[5,7],[19,5],[15,7],[16,14],[18,6],[46,-1],[17,-7],[13,8],[9,-2],[21,-10],[6,9],[15,4],[9,-6],[11,1],[13,-6],[7,-11],[18,-10],[13,-2],[23,13],[9,14],[19,12],[13,-1],[9,-11],[10,-1],[26,13],[17,0],[7,6],[10,19],[12,6],[11,-3],[13,-22],[11,-7],[9,1],[12,6],[4,7],[14,9],[5,1]],[[19442,16984],[15,-19],[6,0],[18,-9],[18,-2],[30,4],[9,-16],[9,-7],[3,-12],[-9,-17],[0,-30],[-11,-45],[-8,-17],[-7,-30],[-6,-10],[-10,-46],[1,-11],[-11,-28],[5,-4],[-3,-17],[3,-8],[-3,-8],[8,-33],[10,-4],[9,-11],[-1,-26],[6,-7],[-7,-26],[-14,-4],[-14,-14],[-6,-9],[0,-9],[-6,-17],[1,-27],[-8,-2],[-2,-11],[-13,-16],[-2,-17],[1,-11],[-7,-7],[8,-8],[-4,-8],[14,-6],[-1,-24],[8,-14],[-14,-23],[-5,-15],[-15,-21],[-3,-15],[-7,-15],[-7,-7],[-3,-11],[9,-13],[-5,-14],[0,-14],[-11,0],[1,-13],[-11,-16],[1,-17],[13,-6],[12,-13],[21,-2],[7,4],[11,-7],[9,-20],[-7,-4],[1,-11],[16,-44],[13,-4],[6,-12],[11,-6],[2,-9],[8,-2],[12,-26],[2,-21],[11,-14],[6,-13],[-21,-7],[-1,-24],[5,-2],[4,-19],[5,-9],[22,-1],[4,-4],[18,4],[5,-8],[13,12],[12,-2],[26,-14],[21,6],[12,9],[10,2],[6,6],[11,2],[23,-17],[6,1],[9,-12],[20,-11],[8,2],[5,-5],[8,4],[10,-6],[18,-5],[2,-4],[28,-17],[8,-7],[3,-18],[5,-7],[14,-7],[12,0],[15,-26],[16,-15],[2,-11],[5,-11],[6,-1],[10,-10],[6,-18],[16,-21],[1,-10],[7,-19],[11,6],[5,-2],[8,-13],[4,-26],[3,-7],[-9,-42],[19,-7],[-4,-17],[0,-19],[-3,-15],[6,-23],[-4,-8],[0,-13],[218,-8],[34,-26],[8,-18],[6,-1],[12,-13],[2,-8],[11,-9],[0,-27],[7,-9],[5,-13],[18,-19]],[[20327,15300],[-62,-40],[-1,-272],[-1,-326],[-2,-416],[3,-82],[-97,-52],[-351,-177],[-146,-74],[-255,-129],[-210,-96],[-356,-186],[-32,-13],[11,-32],[122,-416],[87,-292],[66,-225],[62,-212],[-208,-207],[-183,-227],[-148,-171],[-201,-232],[-179,-182],[38,-118],[-46,-181],[-90,-353],[-89,-354],[-2,-10],[-11,-350],[-10,-215],[-72,-5],[-79,-1],[0,-4],[-164,0],[-197,-1],[-179,-1],[-306,0],[-410,-1],[-1,-128],[-41,0],[-34,2]],[[16068,10702],[24,567],[1,80],[-5,4],[-23,8],[-9,0],[-39,141],[-14,36],[-23,80],[5,24],[-2,18],[-9,18],[-13,12],[-14,37],[-11,2],[16,352],[-78,-2],[-703,-18],[-222,-6],[-1,29]],[[14948,12084],[-15,409],[-14,357],[-2,157],[-9,589],[-213,4],[-211,3],[-9,516]],[[14475,14119],[-1,23],[190,8],[7,54],[104,20],[0,280],[-21,8],[-24,19],[-21,13],[-17,19],[-3,8],[-12,7],[-14,25],[5,27],[7,6],[-5,11],[-13,49],[-7,21],[-16,21],[-7,19],[14,23],[2,16],[9,30],[2,15],[-6,15],[-14,-1],[-17,-8],[-10,4],[-10,24],[-7,8],[-19,11],[-6,10],[5,29],[-1,6],[-10,19],[-22,11],[-9,19],[-2,20],[-8,12],[-16,10],[-11,-4],[-24,14],[-17,0],[0,7],[11,8],[21,29],[9,5],[1,12],[-13,6],[-7,14],[-11,10],[-9,-2],[-12,-8],[-10,5],[0,10],[15,12],[15,18],[7,3],[4,14],[-2,14],[-8,21],[13,36],[115,0],[-3,534]],[[15349,17113],[14,2],[78,10],[12,2],[124,31],[75,19],[26,10],[76,43],[15,12],[106,115],[16,29],[9,11],[34,37],[16,11],[25,5],[12,1],[139,1],[13,-1],[40,-9],[30,-1],[53,11],[18,2],[38,0],[28,-7]],[[15348,16972],[0,89],[1,12],[0,40]],[[19766,22137],[159,-87],[254,-141],[309,-171],[400,-221],[184,-102],[263,-145],[255,-141],[248,-136],[222,-123],[337,0],[317,0],[73,0],[334,-185],[149,-83],[122,-267],[0,-268],[-16,0],[1,-275],[0,-527],[77,0],[279,0],[469,0],[67,0],[304,0],[362,0],[-1,-246],[1,-41],[0,-377],[0,-457],[0,-300],[0,-304],[0,-304],[0,-379],[-30,0],[0,-462]],[[24905,16395],[-191,-1],[-197,1],[-332,0],[1,-127],[-8,-225],[-348,41],[-324,-16],[-34,-199],[0,-16],[14,-587],[-217,-5],[-84,-1],[-131,-4],[-161,-4],[-328,4],[-69,0],[-57,-1],[-263,4],[-56,-3],[-31,-5],[-276,6],[-260,-3],[-208,-2],[2,-262],[4,-530],[-347,-3],[-18,0],[-308,-62],[-2,15],[-9,11],[-9,-1],[2,-18],[-16,6],[-12,-4],[4,14],[-9,15],[-1,8],[-8,9],[-1,7],[-10,14],[-14,-5],[-17,-27],[-16,-2],[-22,3],[-29,12],[-9,0],[-23,22],[-14,21],[-9,19],[-18,65],[-9,23],[-2,40],[-5,24],[3,18],[8,23],[11,12],[8,17],[-2,13],[9,0],[23,18],[9,0],[21,15],[7,13],[11,7],[9,14],[27,14],[19,4],[53,34],[13,6],[12,12],[3,12],[-5,17],[9,9],[2,11],[8,-2],[7,9],[28,17],[26,10],[-2,18],[-11,6],[-5,14],[-11,-4],[-7,10],[2,13],[-4,3],[-1,25],[-18,27],[-19,14],[-17,-3],[-17,23],[-8,-3],[-13,12],[0,8],[-15,5],[-5,-4],[-9,4],[-11,-1],[-16,-7],[-15,11],[-10,15],[-18,7],[-6,-3],[-12,10],[-5,14],[-7,4],[-4,16],[-5,4],[-10,27],[-8,6],[-7,-7],[-8,12],[0,7],[-11,15],[-4,13],[-10,-2],[-6,9],[-19,12],[-12,-5],[-6,3],[-13,-6],[-29,9]],[[19442,16984],[-4,10],[6,232],[3,318],[1,170],[-3,202],[9,614],[3,127],[-403,6],[-157,5],[-26,16],[-8,0],[-28,25],[-26,-2],[-13,9],[-2,9],[-15,19],[-8,4],[-9,20],[1,20],[-13,5],[-12,15],[-11,0],[-5,8],[-25,-3],[-8,4],[-13,14],[3,11],[-1,17],[-4,6],[-3,18],[5,4],[-1,18]],[[24905,16395],[0,-73],[412,0],[1,-634],[1,-660],[0,-723],[1,-658],[-37,0],[1,-590],[-1,-12],[-59,0],[1,-560],[0,-577],[-235,-134],[-247,-57],[-211,-50],[-230,-54],[-499,-116],[-62,-14],[-129,10],[-308,-117],[-876,-331],[-315,-401],[-158,-202],[-337,-431],[-94,-285],[-109,-330],[-170,-515],[-41,-125],[-216,-655],[-429,-255],[-330,-196],[-627,-372],[-173,-103],[-1102,-647],[-604,-361],[-153,-92],[-126,-54],[-100,-54],[-83,-39],[-77,-52],[-90,-46]],[[21586,13905],[1,-254],[1,-406],[161,0],[342,0],[318,0],[0,268],[-348,-1],[0,134],[-119,0],[-237,268],[-119,0],[0,-9]],[[14387,19046],[-18,-3],[-11,-13],[-25,-2],[-17,-6],[-16,-14],[-6,-7],[-54,-42],[-79,-11],[-30,-21],[-12,-21],[-4,-5],[-77,0],[-11,-4],[-24,-12],[-18,0],[-76,1],[0,-15],[-28,-9],[4,-10],[-12,-4],[-17,-2],[-7,-12],[-53,-1],[-24,-2],[-2,10],[3,27],[-58,-1],[5,-13],[-9,-7],[12,-29],[-175,-2],[-125,-1],[-140,-3],[-139,-1],[-53,1],[1,6],[-124,15],[-171,26]],[[10400,11431],[1243,-156],[399,-45],[29,-5],[1,-13],[26,-107],[15,-3],[7,-19],[13,12],[12,-1],[5,-8],[16,-2],[10,7],[1,16],[7,7],[6,29],[0,16],[23,30],[5,15],[10,7],[15,28],[16,1],[44,-1],[32,1],[104,-2],[71,2],[29,1],[16,-3],[59,1],[6,-1],[19,-12],[1,-3],[-17,-65],[-11,-40]],[[12612,11118],[-5,1],[-10,10],[-25,-25],[-7,-1],[-19,-10],[-16,-18],[-1,-10],[-14,-13],[-8,4],[-21,-35],[7,-11],[1,-13],[-6,-10],[2,-9],[-19,-25],[-15,-20],[-6,1],[-11,-8],[-1,-28],[3,-19],[-4,-11],[-10,-16],[-8,-21],[3,-11],[-2,-8],[3,-31],[-13,-1],[-14,6],[-1,-23],[-3,-16],[3,-4],[-4,-17],[-9,-3],[-5,-10],[-10,-6],[-15,-22],[-5,-20],[7,-11],[-8,-4],[-8,-30],[-16,-10],[-13,-23],[20,-5],[2,-9],[10,-4],[12,6],[1,-10],[8,-5],[39,-95],[-6,-12],[1,-23],[-14,-30],[-24,-3],[-6,6],[-25,7],[-14,-18],[-15,-6],[-12,0],[-5,-11],[3,-17],[-7,-11],[-11,1],[-16,9],[-7,-2],[-10,-12],[-18,-16],[-3,-10],[-9,-11],[-7,-19],[-8,0],[-4,-11],[-10,-11],[0,-7],[-21,-17],[-6,-13],[-10,-4],[1,-11],[9,0],[7,-7],[1,-11],[10,-4],[3,-9],[11,8],[12,-9],[1,-9],[9,-2],[8,9],[5,-5],[7,-28],[7,-5],[8,4],[7,-10],[10,-3],[11,4],[8,-12],[7,-4],[6,-13],[12,-11],[-6,-12],[12,-21],[6,-1],[3,10],[10,-1],[15,-14],[-5,-11],[3,-23],[4,-7],[20,-15],[6,-1],[10,-20],[12,-3],[8,-8],[10,4],[13,-5],[1,-19],[13,4],[9,-20],[-1,-16],[6,-14],[10,-13],[5,-16],[10,-2],[-2,-11],[-8,-4],[1,-11],[11,-12],[9,-20],[-4,-11],[10,1]],[[12488,9804],[1,-15],[-15,4],[1,-11],[16,-25],[4,-13],[1,-21],[5,-21],[8,-12],[17,-17],[4,-13],[9,-59],[8,-28],[5,-30],[10,-33],[4,-29],[8,-27],[9,-19],[-20,1],[-25,5],[-34,0],[-7,-4],[-11,1],[-14,-7],[-17,-6],[-186,4]],[[12488,9804],[21,6],[9,-5],[14,8],[1,14],[6,13],[10,-3],[15,6],[1,8],[14,7],[12,-9],[26,9],[7,15],[5,-11],[7,9],[13,-8],[13,7],[2,-15],[13,1],[6,-7],[12,7],[10,1],[14,16],[8,-1],[11,-9],[9,16],[6,-7],[17,7],[21,-4],[16,3],[9,17],[-4,6],[7,12],[5,-10],[10,3],[8,9],[5,13],[26,16],[9,16],[5,0],[10,-13],[10,2],[7,11],[-5,11],[7,3],[6,11],[7,-6],[13,20],[10,-9],[11,8],[-11,10],[13,14],[7,-8],[20,0],[6,9],[-5,6],[5,12],[9,1],[16,31],[15,6],[8,10],[9,6],[11,-4],[3,13],[8,4],[4,-5],[11,4],[7,-6],[14,-1],[8,21],[15,0],[6,25],[20,6],[7,-3],[19,12],[1,16],[11,4],[10,-7],[20,-5],[6,9],[11,5],[7,-1]],[[13254,10182],[7,-8],[10,4],[14,0],[4,-8],[11,6],[7,-2],[9,11],[5,-4],[13,6],[8,-11],[8,0],[9,-8],[16,-7],[10,-1],[16,-18],[8,0],[11,-8],[28,-8],[10,-5],[22,-18],[5,1],[9,-15],[12,-10],[9,2],[14,-21],[12,-3],[6,-7],[4,-13],[-1,-12],[-9,-10],[-24,-19],[-24,-28],[-5,-25],[2,-35],[13,-21],[7,-28],[1,-13],[-6,-19],[110,190],[3,-18],[-3,-12],[-9,-20],[-14,-27],[13,-32],[14,-3],[7,-13],[-7,-25],[4,-13],[-1,-24],[19,-22],[14,-20],[-4,-55],[-5,-12],[-33,-51],[-46,-42],[12,-26],[1,-11],[19,-31],[22,-14],[11,-11],[-34,1],[-14,-5],[0,-32],[-116,0],[0,-67],[-59,0],[0,-67]],[[13409,9365],[-23,4],[-8,-2],[-14,-7],[-33,8],[-35,1],[-43,-1],[-23,-6],[-16,0]],[[13214,9362],[-9,2],[-29,-9],[-11,10],[-20,2],[-22,0],[-6,3],[-10,-3],[13,-17],[-2,-44],[-2,-11],[-10,4],[-101,-1]],[[13005,9298],[-21,5],[-19,-5],[-77,0],[-89,-2],[-35,9],[-2,-9],[0,-73],[9,-4],[-34,-110],[-20,-75]],[[13214,9362],[-3,-6],[15,-3],[13,8],[4,-12],[-9,-12],[-14,-10],[-4,-8],[6,-34],[39,-7],[7,-10]],[[13268,9268],[-28,-20],[-51,-22],[-20,-12],[-23,-11],[-27,-9],[-22,-16],[-9,-19],[-25,7],[-16,0],[-20,-7],[-44,9],[0,24],[-9,29],[-28,7],[-4,9],[27,5],[24,14],[9,12],[-1,18],[4,12]],[[14355,17641],[22,22],[15,8],[35,2],[13,3],[73,34],[9,6],[25,30],[19,12],[14,0],[73,-13],[22,-10],[19,-5],[9,0],[69,-2],[20,-3],[46,-23]],[[14838,17702],[-29,-39],[-138,-154],[-13,-7],[-43,-7],[-11,-1],[-31,4],[-21,-3],[-14,1],[-31,14],[-35,20]],[[14472,17530],[-11,16],[-28,32],[-22,17],[-25,10],[-9,8],[-22,28]],[[11301,14193],[344,-56],[54,-1],[399,-26],[249,-17],[432,-30],[314,-22],[249,-17],[10,-1],[27,17],[20,-1],[10,8],[46,14],[16,14],[27,-14],[10,1],[71,134],[-4,-12],[19,-1],[46,-1],[12,-18],[0,-6],[11,-8],[14,-16],[1,-6],[-15,-23],[-19,-17],[-5,-15],[2,-18],[14,-33],[27,2],[22,20],[20,10],[12,-2],[14,6],[16,-14],[18,6],[20,0],[268,276],[46,16],[333,-230],[24,7]],[[14948,12084],[-28,-15],[-15,-11],[-9,0],[-4,-6],[-13,1],[-21,-2],[-10,-7],[-15,-15],[-6,-1],[-10,-8],[-1,-6],[-18,-6],[-4,-6],[-18,-7],[-11,0],[-16,11],[-13,-3],[-8,-17],[-34,-39],[-19,1],[-13,8],[-17,-1],[-2,3],[-22,3],[-8,-3],[-8,4],[-10,-7],[-5,5],[-12,-2],[-4,4],[-11,-5],[-31,14],[-9,1],[-31,11],[-22,2],[-5,-6],[-17,3],[-5,12],[-6,-7],[-3,-14],[9,-11],[4,-14],[8,-9],[27,-3],[12,-15],[3,-14],[13,2],[16,-10],[16,-3],[0,-8],[12,0],[7,-7],[7,2],[30,-15],[6,-10],[14,-5],[6,-8],[6,4],[7,-6],[9,5],[10,-10],[11,-6],[12,-13],[19,-18],[1,-13],[-2,-17],[11,-12],[19,-24],[0,-4],[15,-16],[18,-27],[4,-29],[-1,-20],[3,-10],[8,-35],[8,-5],[0,-34],[-2,-28],[6,-22],[4,-21],[6,-6],[1,-13],[-5,-8],[-8,-36],[0,-26],[-11,-7],[-10,-12],[4,-11],[5,-36],[-6,-22],[-3,-16],[9,-16],[8,-9],[7,-14],[-96,-172],[-7,-9],[-2,-17],[4,-12],[18,-25],[3,-22],[-199,-125],[8,-14],[6,-22],[8,-2],[23,-25],[1,-34],[-3,-7],[-15,-5],[-24,-1],[-12,-7],[-9,4],[-9,-4],[-2,-9],[3,-14],[-1,-25],[-4,-20],[-9,-6],[-20,1],[-20,-14],[-12,-3],[-27,-35],[-18,-4],[-23,-19],[-24,-5],[-9,5],[-17,-8],[-10,-12],[-7,6],[-11,-1],[-9,15],[-11,-3],[-10,1],[-11,11],[-12,-3],[-16,2],[-12,4],[-8,9],[-13,4],[-5,5],[-15,-1],[-13,6],[-20,1],[-5,-4],[-12,0],[-10,6],[-8,-2],[-19,1],[-8,6],[2,7],[-5,15],[-13,5],[-8,-10],[-18,4],[-11,12],[-10,0],[-12,8],[-10,-2],[-7,3],[-10,17],[-10,2],[-6,6],[-11,-3],[-10,-14],[-13,-3],[-15,5],[-13,-7],[-9,4],[-4,9],[-13,-7],[-15,3],[-19,0],[-7,4],[-9,-5],[-10,2],[-3,5],[-34,-3],[-6,3],[-11,-7],[-5,7],[-9,-3],[-11,3],[-7,-10],[-14,0],[-10,-5],[6,-9],[-7,-8],[-8,-17],[-8,-1],[-8,12],[-9,-8],[-15,3],[-8,-6],[-8,0],[-9,-20],[-8,1],[-5,-10],[-8,2],[-2,14],[-17,-12],[-8,-24],[-11,3],[-5,-19],[-13,-8],[-9,1],[-3,-11],[-23,-10],[5,-10],[-8,-6],[-7,-23],[-19,-6]],[[13463,10521],[-10,12],[-16,27],[-7,9],[-9,17],[-15,15],[-19,12],[-29,13],[-3,-1],[-14,17],[-11,1],[-32,7],[-15,-6],[-8,0],[-31,-27],[-14,-7],[-18,0],[-11,-5],[-12,0],[-32,-16],[4,12],[12,10],[6,9],[7,21],[11,13],[6,16],[14,9],[4,9],[25,13],[13,12],[14,7],[9,15],[9,7],[16,31],[25,34],[2,8],[9,9],[22,12],[8,16],[0,7],[13,10],[13,15],[19,44],[24,26],[29,30],[24,-2],[25,9],[10,0],[16,6],[6,18],[-300,110],[-16,-2],[-17,2],[-9,4],[-17,16],[-19,10],[-20,5],[-29,1],[-22,12],[-20,4],[-6,5],[-8,13],[-31,20],[-11,13],[-10,8],[-22,27],[-14,10],[-13,17],[-24,13],[-12,16],[-6,18],[-7,8],[-21,-1],[-3,-17],[-4,-8],[-17,-7],[-8,1],[-23,10],[-5,0],[-10,-14],[-8,-17],[-7,-3],[-12,3],[-19,-7],[-10,-14],[-15,-16],[-4,-18],[-8,-10],[-23,-7],[-16,-13],[-31,2],[-15,-9],[-8,-18],[2,-16],[8,-8],[0,-17],[5,-5],[-4,-17],[-8,-11],[-10,-7],[-21,2],[-10,6],[-2,9]],[[14838,17702],[27,-14],[13,-15],[42,-104],[14,-24],[41,-43],[7,-10],[7,-15],[15,-48]],[[14954,17395],[-19,0],[-5,22],[-12,29],[-6,39],[-7,15],[-16,10],[-8,18],[-12,9],[-13,1],[-13,-7],[-18,-18],[-9,-19],[-12,-13],[-12,-4],[-16,-1],[-16,3],[-5,-12],[11,-30],[16,-21],[1,-12],[-32,-29],[-10,-6],[-12,-2],[-7,-6],[-8,-20],[5,-30],[-1,-11],[-10,-17],[-18,-10],[0,-4],[-21,-2],[-24,15],[-18,23],[-12,24],[-105,0],[0,-58]],[[14510,17271],[0,-9],[-240,0],[0,133],[-38,0]],[[14232,17395],[0,11],[8,38],[15,54],[-10,66],[19,0],[14,3],[13,15],[20,10],[25,9],[3,-3],[20,0],[14,-8],[25,-11],[17,-12],[15,-20],[9,-23],[-1,-14],[8,-3],[7,-11],[27,0],[-3,21],[-5,13]],[[12673,18446],[344,-9],[353,20],[93,3],[161,-8],[256,14],[188,0],[7,-4],[1,-25],[14,-15],[0,-8],[10,2],[13,12],[4,23],[29,20],[2,5],[367,-8],[114,-78],[-1,23]],[[14988,17659],[0,37],[-119,0],[0,301],[-60,0],[0,67],[-169,0],[-312,0],[1,-200],[-89,0]],[[14240,17864],[-157,0],[0,67],[-77,0],[-15,-1]],[[13991,17930],[-89,-7],[-54,-3],[-368,-13],[-619,-12],[-80,-2],[-226,-6]],[[13902,9187],[-102,76],[-214,153],[-1,32],[-22,-25],[-8,-5],[-17,-4],[-72,-39],[-29,-11],[-28,1]],[[13254,10182],[1,9],[17,33],[2,18],[9,-2],[13,14],[2,8],[27,6],[6,9],[-5,10],[12,-1],[3,6],[-1,20],[10,12],[10,20],[13,8],[3,16],[-1,24],[10,6],[7,-2],[11,5],[-1,6],[12,3],[9,9],[3,12],[9,6],[-3,12],[13,13],[-4,8],[10,20],[5,17],[7,14]],[[13991,17930],[7,-17],[80,-138],[55,-94],[10,-9],[15,-4],[51,-3]],[[14209,17665],[20,-2],[17,-10],[18,-23],[12,-11],[22,-6],[24,2],[14,7],[19,19]],[[14232,17395],[-87,5],[-337,3],[-438,4],[-534,-7],[-378,21]],[[15229,17128],[0,-33],[-3,-1],[-186,1],[-21,-1]],[[15019,17094],[-101,1]],[[14918,17095],[-2,19],[-7,24],[-7,13],[-9,9],[-17,10],[-28,0],[-26,-4],[-10,4],[-8,18],[7,22],[13,9],[17,6],[29,-6],[8,-13],[4,-11],[43,-11],[22,4],[30,1],[3,19],[-5,8],[-20,18],[-9,18],[-3,23],[5,8]],[[14240,17864],[13,-67],[-45,0],[1,-132]],[[14345,16419],[50,-20],[81,-1],[16,14],[4,15],[-4,12],[6,14],[1,10],[15,24],[13,14],[3,8],[-4,18],[5,13],[12,28],[17,21],[-2,18],[7,11],[42,7],[12,9],[5,14],[28,30],[10,-3],[7,11],[16,16],[22,8],[-1,-42],[35,1],[1,-16],[7,-8],[0,-7],[7,-13],[11,-12],[-2,-5],[9,-19],[10,-19],[12,-12],[7,-15],[15,-11],[12,-12],[8,-1],[53,101],[40,64],[8,15],[13,33]],[[14586,15788],[0,29],[-9,0],[-38,-8],[-9,-8],[-9,-19],[-10,-8],[-1,-10],[-5,-6],[-1,-11],[-21,-27],[-15,3],[-12,-2],[-7,11],[-11,6],[-12,-9],[-64,89],[-15,424],[-2,177]],[[12323,16903],[184,-17],[298,-12],[278,-11],[731,-26],[373,-14],[12,1]],[[14199,16824],[13,-33],[7,-14],[30,-37],[0,-56],[32,-88],[64,-177]],[[15349,17113],[-1,15],[-27,0]],[[14510,17271],[23,-10],[104,-56],[10,-9],[6,-12],[57,-190],[39,0]],[[14750,16860],[-43,1],[-137,0],[0,83],[-37,0],[0,50],[-22,0],[-1,55],[-8,-12],[-23,-16],[-15,-16],[-11,0],[-11,-15],[-13,-32],[-13,-16],[-25,-25],[-11,-6],[-45,-13],[-14,-1],[-48,15],[-16,1],[-36,-34],[-4,-10],[-15,4],[-3,-49]],[[13268,9268],[15,-62],[-14,-7],[-13,-8],[-7,0],[-15,-5],[-11,-13],[-6,-14],[-5,-3],[6,-14],[-10,-1],[-6,-17],[-8,3],[-12,-6],[-13,19],[-10,0],[-14,-16],[9,-14],[-9,-5],[20,-34],[-2,-49],[0,-25],[-15,-133]],[[15019,16994],[0,100]],[[14918,17095],[-7,0],[0,-34],[-5,-11],[-16,-18],[-17,-13]]],"transform":{"scale":[0.00024430627962085296,0.00010798127311660506],"translate":[-154.748861,58.652739999999994]},"objects":{"Geometry\\02-122":{"type":"GeometryCollection","geometries":[{"arcs":[[0,1,2,3,4,5,6,7,8,9,10]],"type":"Polygon","properties":{"GEOID":"021220001001"}},{"arcs":[[11,12,13,14,15,16,17]],"type":"Polygon","properties":{"GEOID":"021220005003"}},{"arcs":[[18,19,20,21,22,23,24,-1]],"type":"Polygon","properties":{"GEOID":"021220002002"}},{"arcs":[[25,26,27,-22,28,29,30,31]],"type":"Polygon","properties":{"GEOID":"021220005001"}},{"arcs":[[-10,32,33,34,35,36,37,38,39]],"type":"Polygon","properties":{"GEOID":"021220012001"}},{"arcs":[[40,41,-16,42,43,44,45,-38,46,47,48]],"type":"Polygon","properties":{"GEOID":"021220004001"}},{"arcs":[[49,-43,-15,50]],"type":"Polygon","properties":{"GEOID":"021220004002"}},{"arcs":[[-20,51,52,-45,53]],"type":"Polygon","properties":{"GEOID":"021220003001"}},{"arcs":[[-46,-53,54,-39],[55]],"type":"Polygon","properties":{"GEOID":"021220013001"}},{"arcs":[[-25,56,-2]],"type":"Polygon","properties":{"GEOID":"021220002001"}},{"arcs":[[57,58,59,-33,-9]],"type":"Polygon","properties":{"GEOID":"021220008003"}},{"arcs":[[-60,60,61,62,63,64,-34]],"type":"Polygon","properties":{"GEOID":"021220009001"}},{"arcs":[[-64,65,66]],"type":"Polygon","properties":{"GEOID":"021220010002"}},{"arcs":[[67,68,69]],"type":"Polygon","properties":{"GEOID":"021220006003"}},{"arcs":[[70,-48,71,72,-58,-8]],"type":"Polygon","properties":{"GEOID":"021220008001"}},{"arcs":[[-69,73,-26,74,75,76]],"type":"Polygon","properties":{"GEOID":"021220006004"}},{"arcs":[[77,-23,-28,78,79,80,-4]],"type":"Polygon","properties":{"GEOID":"021220002003"}},{"arcs":[[-56]],"type":"Polygon","properties":{"GEOID":"021220013002"}},{"arcs":[[-72,-47,-37,81,-62,82]],"type":"Polygon","properties":{"GEOID":"021220011001"}},{"arcs":[[-81,83,84,-70,-77,85,-5]],"type":"Polygon","properties":{"GEOID":"021220006001"}},{"arcs":[[-31,86,87,88]],"type":"Polygon","properties":{"GEOID":"021220005002"}},{"arcs":[[-80,89,-84]],"type":"Polygon","properties":{"GEOID":"021220006002"}},{"arcs":[[-73,-83,-61,-59]],"type":"Polygon","properties":{"GEOID":"021220008002"}},{"arcs":[[90,-41,91]],"type":"Polygon","properties":{"GEOID":"021220007012"}},{"arcs":[[92,93,-92,-49,-71,-7]],"type":"Polygon","properties":{"GEOID":"021220007013"}},{"arcs":[[-21,-54,-44,-50,94,-29]],"type":"Polygon","properties":{"GEOID":"021220004003"}},{"arcs":[[-86,-76,95,-18,96,-93,-6]],"type":"Polygon","properties":{"GEOID":"021220007021"}},{"arcs":[[-67,97,-35,-65]],"type":"Polygon","properties":{"GEOID":"021220010003"}},{"arcs":[[-66,-63,-82,-36,-98]],"type":"Polygon","properties":{"GEOID":"021220010001"}},{"arcs":[[-17,-42,-91,-94,-97]],"type":"Polygon","properties":{"GEOID":"021220007011"}},{"arcs":[[-87,-30,-95,-51,-14,98]],"type":"Polygon","properties":{"GEOID":"021220005005"}},{"arcs":[[-57,-24,-78,-3]],"type":"Polygon","properties":{"GEOID":"021220002004"}},{"arcs":[[-32,-89,99,-12,-96,-75]],"type":"Polygon","properties":{"GEOID":"021220007022"}},{"arcs":[[-79,-27,-74,-68,-85,-90]],"type":"Polygon","properties":{"GEOID":"021220006005"}},{"arcs":[[-100,-88,-99,-13]],"type":"Polygon","properties":{"GEOID":"021220005004"}}]}}}