{"type":"Topology","arcs":[[[19477,7587],[4,25],[38,-6],[23,8],[42,27],[16,-34],[39,27],[18,-16],[21,56],[48,-13],[30,-51],[49,0],[34,-18],[14,18],[25,-38],[22,14],[13,26],[24,11],[15,-9],[28,7],[6,18],[39,-11],[29,-29],[21,-59],[19,-22],[48,-5],[18,3],[1,-328]],[[20161,7188],[-69,1],[-65,32],[-53,-1],[-28,11],[-44,-24],[-20,0],[-55,20],[-63,-14],[-70,-4],[-19,-10],[-36,-73],[-50,-46],[-39,-20],[-84,-33]],[[19466,7027],[-2,87],[7,20],[21,19],[22,8],[24,31],[-5,69],[-33,20],[0,46],[-9,17],[11,40],[40,86],[6,29],[-5,26],[7,48],[-85,0],[12,14]],[[22079,6360],[65,69],[19,25],[89,153]],[[22252,6607],[7,-5],[176,0],[-1,194],[219,1],[0,48],[38,2]],[[22691,6847],[43,-67],[-6,-46],[20,-39],[-24,-35],[-11,-54]],[[22713,6606],[-8,-42],[-37,-67],[-49,13],[-28,2],[-41,-11],[-50,-21],[-20,-27],[-34,-6],[-44,-16],[-71,-55],[-80,-68],[-18,-26],[-30,-10],[-31,-26],[-18,-27],[-33,-12],[-1,-27]],[[22120,6180],[-4,42],[-10,22],[-38,43],[-15,24],[26,49]],[[22079,6072],[40,69],[1,39]],[[22713,6606],[75,-8],[18,-16],[61,0],[-1,-76],[17,-44],[2,-55],[204,1],[102,8],[36,16],[74,-30],[23,-28],[22,9],[11,-13],[29,7],[12,-16],[4,-35],[39,11],[3,32],[22,18]],[[23466,6387],[-2,-22],[44,-35],[23,-37],[22,8],[54,-13],[24,-13],[-21,-30],[12,-7],[-3,-59],[-23,-29],[-45,-1],[-36,-27],[-41,-8],[-21,-25],[1,-22],[36,-31],[-39,-35],[-10,-16],[-33,-6],[-42,15],[-25,-5],[-24,-19],[-24,-36],[-12,-45],[-12,-6]],[[23269,5883],[-71,-16],[-91,-35],[-44,-34],[-63,-35],[-58,-26],[-26,-4],[-51,7],[-17,17],[-34,-1],[-34,7],[-81,5],[-41,-2],[-135,-32],[-74,-34],[-29,-18],[-41,4],[-12,21],[-30,7],[-50,-9],[-100,-10],[-23,4],[-22,38],[-12,53],[12,6],[35,-12],[50,9],[24,-15],[34,3],[-3,48],[34,15],[23,-21],[21,13],[-7,39],[-94,69],[-180,128]],[[21559,7586],[21,1],[36,24],[52,-3],[22,13],[40,-1],[5,51],[153,-1]],[[21888,7670],[23,-37],[44,-37],[17,-19]],[[21972,7577],[22,-41],[34,-109],[9,-22],[29,-22],[-2,-17],[-1,-95],[-18,-30],[6,-57],[25,0]],[[22076,7184],[-15,-58]],[[22061,7126],[-100,6],[-104,1],[-38,7],[-57,22],[-56,27],[-58,5]],[[21648,7194],[-2,76],[-18,39],[-23,31],[5,30],[-5,35],[26,58],[-6,11],[-66,4],[0,108]],[[17896,7717],[27,-3],[55,-31],[58,-58],[65,-35],[22,-17],[60,-67],[62,-47],[82,-52],[30,-9],[92,9],[20,-5],[18,-27],[34,-158],[21,-32],[153,-65],[14,-12],[12,-32],[2,-128],[4,-16],[53,-100],[121,-123],[41,-55]],[[18942,6654],[1,-52],[-88,0],[0,-49],[44,0],[0,-97],[-131,1],[0,102],[-84,-32]],[[18684,6527],[-4,54]],[[18680,6581],[0,21],[-87,0],[-1,194],[-175,0],[0,194],[-175,0]],[[18242,6990],[-1,292],[-87,0],[0,12]],[[18154,7294],[-1,85],[-87,0],[0,194],[-170,0],[0,144]],[[19465,6764],[321,-34],[29,7],[37,26],[27,9],[74,15],[43,-5],[35,-23]],[[20031,6759],[0,-11],[44,0],[0,-24]],[[20075,6724],[0,-25],[-85,0],[-34,22],[-10,-22],[0,-71],[-32,-25],[-25,-35],[-30,-14],[7,-49]],[[19866,6505],[-23,-13],[-31,-7],[-57,-24],[-35,3],[-30,14],[-13,15],[-37,6]],[[19640,6499],[-23,-10],[-19,-25],[-14,-32],[-25,-25],[-93,-9]],[[19466,6398],[-1,177],[0,189]],[[19518,5884],[72,136],[27,46],[26,24]],[[19643,6090],[25,16],[111,32],[21,10],[45,42],[73,38],[14,11],[37,60],[46,43],[23,13]],[[20038,6355],[-18,-44],[-20,-97],[-23,-74],[-17,-20],[-13,-52],[12,-48],[111,0]],[[20070,6020],[-17,-38],[-30,-12],[-20,-21],[-8,-27],[-27,-23],[-5,-34]],[[19963,5865],[-7,-14],[-28,-11],[-18,-17],[-39,-50],[26,-14],[-5,-22],[8,-27],[-17,-13],[-1,-18],[-25,-1],[-11,-17],[-23,28],[-17,5],[-31,-18],[-3,-45],[-16,5],[1,38],[-24,10],[-12,-9],[-35,-52],[-37,-32]],[[19649,5591],[-16,3],[-17,-22],[-51,3],[13,26],[-4,45],[-11,18],[-54,11],[-44,15],[-18,21],[-5,32],[12,51],[28,28],[16,24],[24,15],[-4,23]],[[20070,6020],[81,-1],[24,7],[152,89],[31,38],[47,29],[42,5],[23,10]],[[20470,6197],[0,-118],[7,-28],[-77,-5],[-84,-60],[-42,-23],[-47,1],[-63,-9],[-201,-90]],[[19029,6585],[49,-15],[79,4],[171,75],[22,15],[71,87],[15,11],[29,2]],[[19466,6398],[-24,-1],[-83,25],[-21,-12],[-3,-22],[-52,-70],[-25,-26],[-69,-25],[-63,10],[-89,60],[-9,30]],[[19028,6367],[1,218]],[[20859,8724],[78,8],[34,18],[39,55],[34,65],[26,26],[37,16],[77,46],[71,51],[65,139],[17,56],[9,48],[-17,40],[-9,43],[56,141],[-14,90],[-35,86],[22,60],[7,79],[94,53],[38,97],[5,43],[41,74],[-9,55],[7,71],[79,95],[39,54],[100,-2],[63,67],[43,26],[65,24],[72,8]],[[21993,10456],[36,-10],[156,-82],[276,28],[137,99],[82,159],[98,92],[135,60],[55,43],[15,19],[59,1],[32,-189],[36,-68],[80,-6]],[[23190,10602],[24,-55],[-6,-72],[-20,-23],[-11,-71],[4,-18],[-18,-40],[2,-22],[-11,-21],[6,-58],[-10,-35],[12,-18],[-9,-20],[-2,-55],[5,-17],[-12,-56],[4,-19],[-6,-45],[-22,-72],[4,-32],[-16,-67],[-1,-56],[-18,-38],[-3,-48],[-17,-24],[-5,-54],[1,-36],[-15,-61],[5,-53],[11,-34],[-1,-54],[-12,-37],[4,-30]],[[23057,9261],[-67,56],[-19,21],[-71,12],[-46,-11],[-31,16],[-56,1],[-37,16],[-22,-23],[-6,-25],[28,-42],[-19,-29],[-24,-14],[-50,-9],[-9,-28],[-42,-17],[-28,-23],[-28,-9],[-16,10],[-68,-17],[-1,-18],[-23,-15],[-38,-2],[2,-77],[11,-21],[-4,-69],[7,-18],[-1,-42],[13,-18],[-15,-45],[-17,-20],[-21,-45],[-22,-26],[-20,-45],[-9,-44],[-2,-38],[4,-68],[-10,-52],[-19,-39],[-28,-36],[-24,-54],[4,-21],[-7,-32],[-30,-46],[-3,-39],[-10,-17],[3,-25],[-37,-5],[13,-21],[-4,-34],[-16,-12],[-28,1],[-12,-9],[-6,-47],[-18,-24],[-19,-7],[7,-39],[-9,-18],[2,-26],[-20,-64],[-10,-10],[-4,-67],[-41,-24],[-13,-18],[-34,-25],[-10,-18],[0,-41],[14,-24],[33,-27],[-2,-38]],[[21888,7670],[-54,137],[-11,35],[-2,28],[9,47],[-1,33],[-10,24],[-70,113],[-15,39],[-13,70],[-28,-32],[-2,-28],[-27,-36],[-5,-25],[-19,-17],[-29,-39],[-38,-12],[-52,-4],[-48,-15],[-23,-44],[-32,-13],[-20,-18],[-46,-86],[0,-23],[-31,-39],[-5,-34],[-20,-57],[-20,-20],[-26,-13],[-23,-24],[-23,-43]],[[21204,7574],[-146,0]],[[21058,7574],[-27,196],[24,7],[2,31],[-12,40],[25,17],[-1,38],[13,14],[-16,30],[7,14],[-10,35],[5,29],[-18,44],[-13,8],[-43,93],[0,44],[-20,35],[-23,13],[-27,38],[-21,19],[-28,41],[-7,86],[9,40],[-12,22],[16,50],[18,40],[-40,126]],[[19161,5514],[74,88],[35,58],[24,23],[81,35],[23,19],[50,85]],[[19448,5822],[70,62]],[[19649,5591],[13,-27],[-13,-29],[-10,-52],[-5,-176],[2,-65],[102,-479]],[[19738,4763],[-340,-176]],[[19398,4587],[-243,541],[-35,60],[-33,36],[5,39],[14,31],[19,23],[12,63],[34,59],[1,56],[-11,19]],[[15586,7967],[15,-9],[40,-1],[24,13],[26,47],[35,34],[13,-17],[18,-2],[31,17],[-7,-52],[18,-16],[11,17],[43,-38],[31,2],[33,-9],[20,-74],[19,-18],[33,-19],[19,-3],[-7,-54],[-24,-73],[-1,-77],[-12,-41],[14,-28],[-5,-44],[-12,-26],[9,-41],[22,-40],[12,-49],[16,-103],[-3,-63],[-35,-80],[-24,-72],[-44,-64],[-24,-46],[-3,-37],[55,-64],[17,19],[30,8],[16,18],[11,32],[28,-31],[49,2],[37,19],[-4,33],[38,18],[32,26],[12,-2],[76,34],[26,-3],[14,48],[-27,55],[7,9],[21,87],[31,4],[19,-36],[22,19],[-13,27],[19,7],[17,63],[-25,20],[9,14],[57,-1],[10,-13],[6,-43],[22,-27],[13,12],[39,-19],[4,-36],[24,1],[6,20],[21,12],[35,-16],[56,-5],[10,8],[7,71],[27,15],[33,3],[30,-14],[17,-20],[29,1],[88,-114],[-3,-27],[-22,-12],[-2,-32],[35,-25],[27,37],[64,-142],[-5,-20],[69,-95],[14,18],[20,8],[10,31],[12,1],[30,-26],[15,-1],[31,32],[0,15],[-38,9],[16,20],[24,1],[12,-17],[40,31],[37,-7],[21,23],[-14,26],[-7,45],[16,10],[17,-7],[40,9],[16,29],[19,16],[23,38],[-3,18],[49,-10],[38,14],[44,-6],[7,28],[-14,32],[14,47],[46,11],[30,60],[31,-2],[15,-20],[17,19],[24,14],[18,-18],[52,19],[8,-16],[22,4],[14,-25],[20,21],[6,-30],[31,-6],[20,16],[19,-3],[18,14],[18,-29],[20,2],[7,-19],[17,-8],[6,26],[26,-13],[1,-26],[58,15],[20,15]],[[18242,6990],[-175,0],[0,-67],[18,-30],[26,0],[0,-48],[-25,0],[6,-24],[-16,-31],[14,-22],[53,-1],[13,-17],[-41,-36],[-24,-8],[-14,-29],[9,-16],[-21,-34],[-13,-35],[-22,-27],[-70,-20],[46,-63],[51,-19],[9,-15]],[[18066,6448],[-15,-18],[1,-34],[17,-29],[-2,-36],[-40,-25],[1,-15],[52,-46],[1,-13],[35,-45],[0,-33]],[[18116,6154],[-5,4],[-97,-4],[-27,-29],[-23,-14],[-69,-82],[-10,-15],[-61,-2],[-19,36],[-15,-1],[-31,32],[-49,5],[-62,60],[-43,-4],[-24,-20],[-24,-1],[-26,15],[-70,-4],[-25,-22],[-45,-3],[2,-34],[18,-17],[15,-75],[17,-10],[-27,-20],[-29,-38],[1,-96],[15,-47],[2,-31],[0,-259],[-20,-44],[0,-35],[22,-43],[-10,-27],[14,-23],[-22,-28],[-12,-59],[-23,-47],[-3,-37],[-9,-24],[28,-15],[16,-31],[-21,-38],[-7,-51],[-48,-25],[-23,-25],[-20,-56],[-17,-27],[-4,-29],[12,-8],[8,-43],[-5,-22],[-31,-24],[-1,-55]],[[17229,4662],[-90,0],[-359,0],[-43,22],[-21,29],[-53,113],[-35,28],[-23,-30],[-22,-4],[-55,19],[-39,8],[-41,-3],[-70,-19],[-11,-22],[-23,-4],[-10,12],[-9,-57],[-14,32],[-24,-39],[-27,1],[-20,-30],[-18,-50],[-48,-33],[-2,-44],[-13,-27],[17,-23],[-7,-17],[-24,-5],[-21,-18],[-10,-24],[-26,-31],[1,-27],[-43,-87],[11,-27],[-34,-56],[-26,5],[-31,-36],[-5,-63],[-13,-4],[5,-45],[-29,5],[-14,-50],[-26,5],[-12,-22],[0,-44],[-6,-70],[-26,4],[3,-30],[-7,-32],[0,-38],[-30,-9],[-28,0],[1,-21],[-13,-27],[12,-15],[-14,-19],[-51,59],[-1,-37],[13,-24],[26,-25],[-44,-58],[16,-49],[-17,-18],[-53,23],[-1,-31],[34,-15],[8,-51],[23,-42],[-17,-19],[-30,35],[-24,-28],[-6,-21],[10,-22],[47,-55],[22,12],[17,26],[14,-2],[10,-22],[-15,-24],[-29,-18],[-5,-29],[7,-45],[-31,-89],[27,-66],[19,-76],[29,-58],[34,-22],[16,-39],[-8,-28],[-12,-7],[-24,11],[-37,49],[-24,0],[-6,-34],[53,-46],[-3,-22],[-27,-26],[-35,-16],[-14,-25],[8,-11],[64,41],[35,2],[32,-37],[-5,-40],[-54,-102],[-49,-14],[-40,23],[-63,42],[-40,7],[-15,-14],[-1,-38],[37,-57],[42,-73],[38,-93],[12,-19],[34,-32],[24,-7],[40,11],[206,-803],[12,-50]],[[15992,1505],[-1102,-340],[-315,-179]],[[14575,986],[-108,369],[-250,861],[-162,661],[-25,26],[-15,32],[-6,124],[-17,68],[-15,318],[3,5],[-6,117],[9,30],[18,22],[-4,67],[7,14],[25,-26],[71,5],[59,76],[13,1],[74,63],[15,72],[60,90],[43,51],[13,30],[-21,57],[20,41],[-6,89],[26,31],[58,-5],[40,-27],[45,4],[34,23],[35,43],[53,77],[6,17],[1,53],[-21,47],[-17,24],[-34,66],[-17,52],[-29,58],[-3,56],[9,28],[5,44],[-3,39],[-15,67],[-14,25],[1,56],[15,36],[-8,85],[-17,34],[-41,46],[-30,27],[-11,-1],[-31,25],[-30,5],[-20,13],[-51,3],[-48,18],[-35,43],[-13,56],[37,52],[14,63],[16,22],[-6,64],[-14,28],[-20,13],[-59,-2],[-31,20],[-8,69],[24,83],[1,41],[-14,53],[6,75],[-2,42],[11,0],[60,75],[40,58],[48,56],[29,46],[55,18],[34,42],[41,25],[24,26],[13,3],[29,34],[17,39],[4,26],[61,68],[79,8],[43,50],[34,19],[46,2],[50,15],[63,48],[35,14],[27,30],[68,37],[49,72],[54,50],[6,17],[29,31],[20,39],[-5,47],[-10,15],[-1,26],[18,24],[4,59],[-45,47],[-28,4],[-20,21],[-8,24],[-8,59],[3,26],[22,38],[11,33],[24,8],[12,21],[7,51],[17,24],[16,6],[35,43],[6,42],[55,104],[36,36],[114,142],[34,26],[47,26],[27,27]],[[18942,6841],[56,-21],[24,-5],[63,18],[56,-5],[249,-47],[75,-4]],[[19465,6777],[0,-13]],[[19029,6585],[-34,11],[-24,18],[-29,40]],[[18942,6654],[0,187]],[[18655,5826],[288,0],[238,-2],[47,1],[185,0],[35,-3]],[[19161,5514],[-16,-16],[-89,-63],[-90,1],[-301,0],[-5,2]],[[18660,5438],[0,92],[17,102],[-7,30],[-16,6],[-17,28],[-20,14],[24,29],[-11,41],[12,34],[13,12]],[[20783,6668],[20,20],[16,35]],[[20819,6723],[18,47],[62,28],[374,-2],[60,7],[19,10],[30,31]],[[21382,6844],[4,-62],[-5,-50],[21,-16],[12,-28],[1,-28]],[[21415,6660],[-20,-17],[-16,3],[-22,-16],[-15,11],[-22,-17],[-23,-42],[-85,-8]],[[21212,6574],[-26,2],[-106,30],[-42,3]],[[21038,6609],[-1,101],[-64,-1],[-23,8],[0,-66],[-131,-1],[-36,18]],[[20464,8528],[79,56],[121,108],[34,21],[21,4],[140,7]],[[21058,7574],[-67,0],[-47,-10],[-15,-19],[0,-19],[-64,5]],[[20865,7531],[-179,-3],[1,-51],[-132,-1]],[[20555,7476],[0,163],[-15,18],[-29,0],[-46,-17],[-10,34],[-9,63],[-17,20],[-29,-2],[-3,34],[33,49],[15,32],[25,21],[5,24],[-10,31],[10,131],[5,44],[-9,28],[0,165],[-10,24],[17,50],[-14,140]],[[20566,6742],[68,-5],[98,-37],[51,-32]],[[21038,6609],[-3,-39],[2,-65],[-349,0],[0,-48],[-174,0]],[[20514,6457],[0,45],[-16,10]],[[20498,6512],[33,49],[35,104],[0,77]],[[23269,5883],[9,-5],[173,98],[7,20],[30,-18],[59,-26],[143,-78],[36,-22],[30,-27],[97,-67],[130,-95],[16,-1],[21,-26],[27,-13],[85,-62],[80,-35],[22,-30],[17,6],[39,-20],[38,-36],[93,-32],[-100,-136],[77,-31],[31,-19],[28,-29],[32,0],[42,-16],[286,9],[21,12],[47,6],[20,-12],[24,1],[32,14],[25,-2],[41,-17],[26,3],[18,12],[78,-15],[25,6],[25,-22],[36,0],[67,-35],[47,-9],[19,-18],[50,-22],[23,-29],[8,-20],[36,-40],[81,-18],[19,-10],[35,-44],[-2,-47],[-47,-55],[-70,-2],[33,-16],[69,-72],[94,4],[32,38],[1,43],[25,26],[40,-5],[23,-31],[73,-5],[8,24],[29,8],[2,-30],[10,-12],[33,15],[22,-5],[15,-24],[1,-24],[21,-38],[62,-8],[11,-19],[-3,-36]],[[26102,4662],[-578,0],[-552,0],[-833,0],[-462,0],[-858,0],[-743,0],[0,388],[-348,0],[-1,389],[-54,0]],[[21673,5439],[23,45],[6,25],[7,111],[-11,46],[-32,56]],[[21666,5722],[25,33],[32,21],[25,29],[41,14],[103,19],[18,38],[-23,19],[-5,31],[25,11],[54,0],[13,38],[30,-8],[26,32],[21,9],[8,33],[20,31]],[[20337,6990],[176,0]],[[20513,6990],[0,-244]],[[20513,6746],[-46,12],[-25,-1],[-105,-28]],[[20337,6729],[0,261]],[[22441,7378],[14,0],[-7,44],[9,65],[19,43],[23,20],[12,41],[46,57],[29,82],[3,23],[31,48],[18,7],[20,41],[29,16],[10,20],[77,77],[47,8],[68,5],[9,7]],[[22898,7982],[45,28],[18,-3],[46,10],[61,-31],[27,0],[40,19],[35,9],[147,113],[54,-2],[24,15],[26,33],[-3,34],[-13,57],[-2,33],[6,36],[28,31],[60,25],[72,15],[15,-3],[37,-29],[65,-7]],[[23686,8365],[53,6],[11,-29],[1,-39],[-13,-92],[5,-20],[33,-43],[13,-31],[1,-25],[-12,-99],[6,-25],[23,-48],[49,-51],[32,-18],[57,-53],[55,-24],[39,-5],[-264,-270],[-17,-38],[-6,-71],[-33,-68],[-45,-21],[-14,-15],[-4,-53],[88,-148],[2,-100],[15,-33]],[[23761,6952],[-37,-29],[-19,-4],[-36,6],[-18,-11],[-52,10],[-40,98],[-39,78],[-25,19],[-37,3],[-48,-17],[-55,-32],[-40,-30],[-48,-8],[-32,-13],[-20,-30],[-103,-2],[-254,1],[-10,23],[-64,72],[-54,31],[-36,-8]],[[22694,7109],[-36,-8],[-17,13],[-33,46],[-62,25],[-61,67],[-39,95],[-5,31]],[[21559,7586],[-28,13],[-49,-16],[-13,-34],[-35,1],[-8,22],[-72,1],[-6,18],[-33,-18],[-111,1]],[[18941,7471],[-1,-91],[2,-195],[-2,-194],[2,-150]],[[17896,7717],[0,50],[169,0],[526,-1],[1,-192],[350,0],[-1,-103]],[[16147,9252],[34,-14],[58,-35],[47,-9],[72,66],[10,50],[-7,61],[17,21],[21,-4],[9,-20],[25,2],[28,38],[50,3],[31,-11],[54,19],[17,-25],[21,-17],[50,6],[25,-34],[18,22],[9,-36],[24,-11],[4,-20],[21,7],[13,-14],[32,10],[30,-23],[16,-27],[27,1],[29,-9],[44,4],[15,-12],[29,18],[18,-14],[-1,-37],[45,13],[26,1],[22,-16],[0,-32],[29,-9],[28,-37],[22,-12],[14,8],[42,-14],[15,12],[67,-2],[-1,12],[68,12],[21,-12],[45,-12],[11,14],[58,-14],[13,-14],[33,-50],[9,-22],[37,2],[60,-61],[19,11],[11,-16],[28,9],[32,2],[21,-25],[23,4],[20,-63],[21,-25],[13,-36],[16,-6],[23,-26],[30,-13],[34,-33],[7,-34],[27,-38],[45,-31],[18,-30],[35,-44],[7,-44],[40,-32],[1,-36],[48,-27],[14,-42],[19,-19],[29,-9],[8,15],[37,-9],[6,-45],[48,-9],[37,-34],[17,-1],[24,-31],[70,-9],[53,27],[35,-13],[45,-4],[2,-34],[23,-16],[31,-1],[31,-14],[75,3],[79,-19],[14,-16],[67,-11],[37,6],[46,-6],[30,33],[22,3],[22,19],[-7,30],[14,36],[34,19],[36,7],[7,11],[42,5],[20,-7],[286,84]],[[19573,8391],[-45,-88],[-32,-21],[-8,-19],[-19,-8],[-36,-31],[-33,-61],[-12,-39],[-10,-53],[12,-90],[-4,-40],[14,-68],[-9,-28],[31,-140],[13,-48],[32,-27],[-9,-21]],[[19458,7609],[-15,-2],[-30,-36],[-7,-25],[-24,-6],[-8,-14],[-53,-13],[8,18],[-32,33],[-28,-7],[-11,-16],[-26,0],[-5,-26],[-40,12],[-14,-24],[-34,5],[0,-24],[-28,6],[-15,-26],[-32,-17],[-27,24],[-28,-11],[-11,27],[-16,6],[-16,-22],[-25,0]],[[15586,7967],[9,31],[-3,46],[3,18],[-8,92],[-5,11],[-6,60],[-25,43],[0,17],[60,55],[22,13],[28,34],[34,24],[7,18],[10,72],[21,26],[21,0],[48,30],[18,21],[23,3],[55,76],[-4,33],[10,31],[26,20],[51,7],[30,18],[16,31],[-1,34],[-26,31],[0,23],[25,46],[-10,34],[-43,19],[-24,17],[-1,23],[15,18],[24,11],[58,-24],[25,2],[20,12],[22,29],[4,41],[14,-4],[16,50],[2,93]],[[21415,6660],[43,25],[24,-5],[16,20],[44,4],[16,37],[12,3],[35,63],[11,-4],[46,46],[10,19],[-1,24]],[[21671,6892],[25,0],[4,-30],[-29,-72],[-4,-53],[22,-17],[29,-3],[-3,-17],[94,-1],[52,42],[6,28],[17,34],[30,-7],[77,-2],[22,38],[-6,31]],[[22007,6863],[13,-16],[18,-41],[-33,-43],[1,-56],[-33,-36],[6,-41],[-8,-13],[-70,-22],[-61,-7],[-2,-21],[23,-11],[-2,-21],[65,-6],[10,11],[43,5],[2,-27],[50,-10],[23,-10],[3,-40],[10,-12],[-1,-62],[15,-24]],[[21666,5722],[-19,57],[13,350],[-12,29],[-46,-14],[-48,-26],[-30,35],[11,42],[26,14],[2,18],[27,35],[-5,32],[19,37],[-49,12],[-38,-2],[-46,-11],[-23,3],[-35,27],[-8,-22],[-41,10],[-32,-29],[-60,-18],[-59,-9],[-44,8],[-12,34],[-32,-7],[-2,57],[87,-1],[3,49],[-1,142]],[[19866,6505],[37,0],[42,35],[40,3],[26,46],[64,58],[2,-282]],[[20077,6365],[-39,-10]],[[19643,6090],[-3,6],[0,403]],[[21641,7195],[7,-1]],[[22061,7126],[-8,-23],[-30,-31],[-11,-82],[62,1]],[[22074,6991],[-61,-48],[-9,-57],[3,-23]],[[21671,6892],[-12,17],[6,40],[-8,41],[-49,-5]],[[21608,6985],[-3,32],[32,36],[3,39],[-4,59],[5,44]],[[18339,6115],[43,21],[8,11],[10,49],[-10,77],[-6,85],[19,16],[90,28],[73,36],[53,38],[65,51]],[[19028,6367],[1,-251],[-51,-7],[-10,-11],[-32,-5],[-7,-14],[-33,-28],[-41,-19],[-37,-40],[-5,-22],[-43,-32]],[[18770,5938],[0,83],[-258,0],[-2,28],[-37,9],[-50,1],[-45,10],[-37,15],[-2,31]],[[21101,7185],[336,0]],[[21437,7185],[148,1]],[[21585,7186],[12,-25],[-12,-22],[11,-19],[-6,-19],[-31,-23],[-58,-26],[-58,-3],[-13,-10],[-10,-47],[-20,-37],[-20,35],[-45,4],[-28,-30],[-64,-1],[-10,-11],[-33,-1],[-34,-20],[-24,12],[-18,-1],[-24,23],[-40,-7],[-23,-15]],[[21037,6943],[-2,39],[52,78],[14,10],[0,115]],[[20512,7185],[315,0]],[[20827,7185],[38,0]],[[20865,7185],[-2,-195],[-175,1]],[[20688,6991],[-175,-1]],[[20513,6990],[-1,195]],[[18116,6154],[27,-24],[33,11],[46,9],[39,50],[20,4],[17,-15],[26,-41],[15,-33]],[[18770,5938],[-35,-41],[-35,-11],[-14,-34],[-32,-6],[1,-20]],[[18660,5438],[-27,-1],[-20,-22],[-35,-3],[-14,-19],[-36,-14],[-23,7],[-30,34],[-17,-7],[-34,-33],[-12,-27],[-18,-16],[-10,-24],[17,-41],[-10,-10],[1,-31],[-13,-28],[23,-32],[-6,-22],[-218,-236],[42,-35],[2,-20],[-18,-24],[-31,-5],[-13,-13],[6,-22],[-11,-14],[-23,-63],[-30,-24],[-14,-25],[-24,-9],[-126,0],[-49,17],[-148,0],[-49,22],[-109,0],[-47,-10],[-82,5],[-49,0],[-17,-9],[-25,-34],[-17,-11],[-116,-12],[-1,35]],[[20161,7188],[71,0],[40,9],[57,-13],[183,1]],[[20337,6990],[-175,1]],[[20162,6991],[-1,197]],[[16696,11150],[40,12],[13,128],[29,65],[4,78],[14,18],[-1,22],[23,20],[65,80],[2,27],[13,16],[8,44],[18,9],[14,-12],[34,12],[9,20],[23,-15],[26,2],[18,22],[4,51],[-28,48],[4,31],[21,33],[20,-5],[-9,-144],[-20,-140],[-5,-105],[50,23],[6,46],[-7,17],[-30,-4],[-8,20],[33,30],[-10,32],[34,49],[15,-5],[-11,-31],[47,-12],[41,19],[14,-28],[15,-1],[12,31],[-12,15],[-5,33],[11,16],[53,-38],[35,7],[6,54],[28,-10],[16,10],[-4,39],[28,7],[17,25],[25,-16],[23,8],[4,20],[-32,47],[6,18],[42,-8],[16,12],[32,-9],[-6,-29],[13,-9],[46,4],[-13,33],[14,48],[16,-2],[31,-38],[7,-46],[17,-37],[20,-20],[21,4],[12,38],[49,2],[33,20],[29,-8],[34,9],[22,-6],[10,39],[26,7],[36,-15],[14,-33],[18,10],[73,7],[23,-43],[62,41],[33,9],[-5,62],[-18,48],[43,40],[-34,39],[15,22],[26,15],[-22,36],[49,47],[17,-1],[36,18],[6,27],[-8,19],[16,25],[34,3],[-1,23],[40,28],[11,2],[22,-23],[40,-2],[-3,37],[11,9],[25,-12],[29,5],[32,38],[32,45],[-20,17],[3,32],[23,4],[28,21],[-1,-39],[29,-18],[6,-38],[34,-3],[12,11],[6,61],[11,17],[38,21],[43,-28],[34,15],[27,-16],[15,-22],[16,7],[11,30],[30,-18],[20,26],[27,6],[12,-28],[31,15],[-6,18],[57,31],[45,-24],[14,0],[21,20],[-5,36],[18,20],[37,4],[-2,40],[19,9],[12,-23],[-4,-33],[22,-10],[38,71],[11,0],[20,-40],[30,38],[35,14],[23,-9],[33,-2],[13,28],[15,9],[40,4],[12,-23],[-42,-27],[13,-19],[39,-15],[28,-33],[59,12],[27,-14],[14,3],[30,33],[45,7],[3,34],[27,-8],[24,2],[6,-22],[-16,-18],[-1,-18],[25,-2],[4,28],[20,4],[18,-26],[18,3],[19,20],[-9,36],[15,12],[28,0],[4,-22],[-21,-17],[15,-21],[17,29],[50,-18],[18,-16],[27,11],[38,-25],[47,33],[49,11],[4,-24],[44,-37],[27,12],[-1,28],[21,9],[41,-14],[-3,-26],[19,-10],[24,20],[25,-34],[21,12],[30,-15],[17,5],[28,29],[50,-14],[23,8],[36,-18],[59,18],[44,-37],[49,-7],[28,17],[20,3],[45,19],[45,-17],[15,-17],[36,-12],[14,-13],[24,5],[10,19],[34,18],[36,-11],[17,-18],[24,-5],[33,-35],[22,-15],[25,-3],[32,7],[70,-38],[33,-4],[21,-16],[38,0],[19,-32],[24,-7],[13,-24],[27,-23],[53,-37],[31,-30],[47,-80],[32,-23],[56,-64],[48,-15],[27,-29],[35,-6],[18,-14],[-3,-47],[30,-25],[45,-25],[74,-76],[19,-2],[63,-35],[29,-21],[5,-16],[32,-40],[32,-17],[18,2],[23,-28],[50,-16],[-18,-46],[12,-22],[-6,-16],[10,-46],[-5,-40],[-27,-95],[-6,-33],[-12,-19],[7,-60],[-11,-15],[0,-33],[8,-24],[-2,-39],[-10,-24],[0,-45],[-23,-24],[2,-17],[-16,-36],[-8,-72],[5,-39],[15,-32],[-9,-15],[6,-39],[-37,-32],[6,-25],[-1,-43],[10,-42],[-16,-42],[6,-38],[-29,-11],[-19,-28],[5,-31],[-12,-29],[10,-39],[2,-38]],[[20464,8528],[-24,-11],[-41,-3],[-28,4],[-62,20],[-30,15],[-58,40],[-63,58],[-14,8],[-76,20],[-69,12],[-31,1],[-18,-9],[-104,-96],[-45,-38],[-228,-158]],[[16147,9252],[34,29],[17,-7],[48,20],[0,31],[13,28],[-11,21],[20,37],[3,50],[13,52],[-1,21],[16,19],[6,28],[-7,47],[-15,26],[-8,94],[3,49],[-41,48],[-26,5],[-4,64],[35,50],[-2,43],[-16,58],[-12,20],[-2,86],[-23,50],[0,27],[10,28],[22,30],[4,38],[-4,41],[11,28],[38,43],[43,2],[28,8],[18,24],[2,18],[37,51],[4,18],[-10,27],[-24,28],[-11,32],[-2,40],[10,23],[38,45],[23,3],[37,19],[65,-2],[34,33],[21,72],[28,58],[-2,34],[20,49],[36,20],[33,92]],[[21382,6844],[114,107],[112,34]],[[22076,7184],[177,1],[5,-48],[87,-1],[0,-48],[87,-1]],[[22432,7087],[48,2]],[[22480,7089],[-18,-98],[-5,0]],[[22457,6991],[-276,1],[-107,-1]],[[20688,6991],[0,-200],[26,-18]],[[20714,6773],[48,-34],[16,-24],[27,18],[14,-10]],[[20566,6742],[-53,4]],[[20470,6197],[22,14],[22,3],[0,243]],[[21673,5439],[-633,0],[-450,-234],[-365,-189],[-487,-253]],[[20865,7185],[236,0]],[[21037,6943],[-59,-26],[-35,-38],[-121,-68],[-41,-19],[-67,-19]],[[23057,9261],[-35,-29],[-1,-14],[-41,-26],[-7,-39],[15,-26],[-10,-49],[-28,-80],[-1,-80],[17,-33],[-8,-39],[-4,-46],[-25,-25],[-19,2],[-20,-27],[-21,-7],[-81,-92],[-19,-35],[-30,-16],[-6,-18],[-34,-21],[-5,-31],[-80,-42],[-20,-28],[-22,-11],[-21,-63],[13,-26],[8,-45],[10,-21],[-10,-15],[38,-15],[26,6],[22,-8],[-2,-44],[14,-8],[17,-50],[17,-23],[29,-5],[11,-11],[49,6],[13,-12],[39,-6],[23,-16],[26,-44],[4,-67]],[[22441,7378],[-21,1],[11,-49],[-86,1],[0,-98],[87,1],[0,-147]],[[19398,4587],[-605,-314],[-412,-835],[-450,-913],[-519,-583],[-144,-44],[-1060,-326],[-216,-67]],[[23761,6952],[36,-37],[23,-50],[31,-45],[-54,-92],[-45,-83],[-21,-13],[-19,-27],[-38,-39],[-18,-42],[-15,-54],[-41,-42],[-37,-21],[-17,26],[-78,-12],[12,-10],[-14,-24]],[[22691,6847],[-29,46],[-17,38],[1,41],[-7,19],[1,57],[10,14],[44,25],[0,22]],[[20077,6365],[101,22],[56,2],[47,15],[88,63],[28,13],[84,23],[17,9]],[[20162,6991],[0,-147],[-11,0],[0,49],[-76,0],[0,-97],[-44,0],[0,-37]],[[19465,6777],[0,206],[1,44]],[[20555,7476],[-2,-97],[15,-20],[0,-37],[25,-41],[-31,-16],[-35,-35],[-15,-45]],[[19477,7587],[-19,22]],[[23190,10602],[-13,12],[-10,35],[-48,33],[3,42],[-29,34],[-9,38],[9,36],[-3,37],[-38,57],[618,181],[430,125],[390,114],[-25,-40],[-1,-54],[16,-32],[1,-20],[-15,-42],[-12,-17],[-14,-40],[31,-41],[-1,-26],[38,-74],[22,-30],[37,-35],[29,-40],[6,-30],[-17,-90]],[[24585,10735],[-10,-61],[-31,-52],[-55,-37],[-64,-34],[-24,-30],[-24,-57],[-40,-48],[-42,-18],[-9,-27],[-18,-25],[-19,-2],[-16,-19],[-9,-28],[-13,-6],[-39,-38],[-25,-47],[0,-16],[-27,-36],[2,-47],[-7,-20],[-6,-53],[-26,-42],[-8,-46],[1,-38],[-11,-107],[1,-43],[13,-24],[-12,-22],[0,-24],[14,-26],[1,-33],[8,-20],[4,-77],[-6,-30],[6,-23],[-36,-63],[-26,-32],[7,-37],[-11,-44],[0,-30],[19,-49],[-11,-66],[-3,-38],[-28,-27],[18,-41],[-3,-45],[7,-37],[-10,-27],[-18,-9],[-11,-22],[1,-30],[-28,-20],[-2,-25],[-14,-18],[4,-30],[22,-43],[3,-32],[-6,-23],[20,-87],[-10,-47],[5,-50],[-14,-51],[-17,4],[-30,-12],[-33,11],[-31,1],[-22,-12],[-67,-3],[-38,-19],[-45,-61]],[[24585,10735],[38,-13],[53,-30],[45,-1],[14,10],[51,-5],[27,-20],[34,11],[27,-20],[15,-25],[125,-32],[20,-74],[13,-33],[7,-41],[-8,-59],[-1,-92],[32,-52],[24,-20],[33,-55],[7,-43],[21,-57],[18,-35],[18,-19],[38,-22],[40,5],[42,-14],[45,4],[38,19],[31,2],[30,28],[-16,31],[-22,59],[-2,21],[-18,18],[11,41],[8,83],[-8,29],[-18,22],[0,45],[6,37],[-18,18],[-5,55],[-8,33],[32,36],[-32,49],[-6,42],[15,43],[-5,85],[-23,36],[1,25],[116,152],[15,29],[29,-25],[82,-45],[9,62],[27,63],[36,48],[82,63],[55,71],[18,40],[83,55],[123,140],[64,24],[36,55],[77,47],[315,93],[36,0],[30,34],[8,39],[27,24],[36,7],[45,39],[43,46],[164,-40],[72,0],[55,-16],[101,-9],[6,40],[2,60],[-30,65],[13,40],[-4,56],[9,33],[-3,102],[-6,68],[9,22],[46,51],[6,154],[90,196],[111,170],[25,19],[34,-1],[158,157],[65,-77],[88,-15],[44,8],[43,23],[27,-8],[213,-151],[95,-31],[88,-7],[96,39],[81,1],[61,-54],[107,-14],[61,-39],[88,-22],[70,-7],[96,62],[61,8],[44,-15],[195,-37],[105,-60],[82,-21],[11,45],[-43,98],[-24,39],[-18,44],[-27,83],[-28,135],[-19,56],[10,56],[-9,94],[20,39],[7,50],[25,90],[47,96],[14,50],[0,52],[-18,56],[-55,89],[-93,116],[-23,25],[-41,71],[-28,35],[-63,98],[-10,146],[44,61],[26,78],[71,114],[8,69],[35,70],[-1,91],[26,100],[17,160],[35,61],[9,61],[-1,61],[35,93],[44,84],[35,30],[8,61],[97,129],[44,7],[53,14],[25,67],[-19,33],[32,55],[0,42],[10,30],[23,38],[0,28],[34,31],[28,46],[64,60],[88,45],[49,39],[31,13],[40,45],[10,16],[53,63],[18,44],[12,47],[43,54],[72,44],[40,38],[24,18],[40,57],[49,16],[116,100],[117,62],[120,32],[91,-12],[49,-18],[42,15],[33,19],[56,51],[46,-4],[47,-26],[35,7],[37,59],[65,74],[23,-11],[12,16],[34,13],[61,49],[57,22],[7,17],[-8,23],[78,48],[53,-3],[15,10],[44,50],[38,33],[18,44],[20,24],[54,1],[22,9],[24,30],[16,43],[29,25],[3,13],[48,38],[46,9],[31,49],[23,-1],[36,9],[6,30],[36,41],[14,58],[14,44],[-18,68],[10,37],[22,20],[3,29],[-25,113],[-11,20],[2,41],[-15,52],[-6,42],[3,85],[-18,40],[-52,64],[-2,20],[7,53],[21,26],[-5,33],[-11,23],[0,41],[-10,31],[34,41],[-2,28],[-15,21],[-19,10],[-6,31],[11,40],[-17,76],[19,61],[0,15],[-24,53],[-34,34],[-8,19],[8,23],[0,38],[-39,70],[7,33],[-3,48],[20,33],[-2,35],[11,31],[35,31],[39,22],[7,38],[-20,44],[0,25],[14,29],[12,62],[4,65],[-8,29],[14,34],[14,72],[-11,38],[11,19],[4,30],[14,17],[34,-2],[9,29],[-9,12],[-28,6],[-15,13],[-3,31],[30,40],[-12,27],[2,20],[-22,17],[-7,37],[19,17],[-11,21],[16,29],[-9,34],[40,15],[-5,31],[8,26],[-3,48],[14,50],[19,22],[14,28],[24,20],[29,3],[-7,24],[11,12],[36,14],[34,-7],[28,21],[15,-16],[20,5],[6,34],[11,16],[28,16],[-1,42],[41,18],[32,31],[25,59],[-5,39],[31,23],[19,46],[-18,47],[5,44],[-11,12],[-28,1],[-3,28],[-20,31],[3,10]],[[32459,20996],[28,15],[59,13],[19,21],[5,35],[13,16],[20,4],[22,-15],[10,-45],[16,-20],[22,-8],[16,-21],[19,-42],[5,-47],[29,-34],[38,9],[16,23],[-4,54],[-15,23],[-72,76],[-11,25],[2,35],[21,21],[27,5],[38,-21],[49,9],[19,30],[4,45],[11,26],[16,14],[43,-3],[45,-14],[31,-22],[23,-25],[54,-25],[30,6],[12,32],[-20,30],[-44,36],[-39,68],[18,63],[22,15],[70,30],[27,36],[25,73],[23,25],[64,2],[21,10],[15,25],[0,58],[15,37],[81,108],[17,81],[11,17],[49,26],[6,27],[-37,25],[-18,24],[-7,33],[8,71],[-9,57],[7,40],[43,143],[21,104],[-8,91],[-52,126],[0,104],[25,88],[11,91],[-6,38],[39,91],[-11,60],[-5,85],[5,28],[66,49],[27,6],[19,-17],[9,-30],[22,-38],[53,-51],[72,-15],[42,4],[29,14],[33,31],[47,62],[23,15],[39,10],[23,20],[4,29],[-19,10],[-51,61],[-6,53],[17,19],[-5,35],[-30,27],[0,36],[20,46],[33,-3],[19,-17],[30,-3],[20,8],[50,-7],[12,30],[17,17],[67,20],[12,9],[51,4],[18,-5],[46,-53],[10,0],[55,68],[41,27],[2,20],[21,18],[13,39],[19,13],[27,4],[47,29],[47,41],[50,15],[22,-7],[40,19],[35,78],[22,26],[5,19],[24,18],[56,11],[58,-8],[35,66],[35,19],[2,14],[-25,63],[1,33],[12,26],[37,29],[28,-8],[26,-53],[18,-15],[33,-11],[40,16],[19,52],[11,12],[27,0],[31,-15],[11,-16],[47,-21],[49,17],[47,-12],[33,-24],[21,17],[11,28],[24,6],[28,-5],[34,26],[39,62],[52,41],[28,11],[15,21],[-1,23],[14,9],[31,-7],[26,3],[22,33],[42,8],[43,-7],[38,7],[23,-13],[58,28],[46,7],[16,-13],[38,4],[22,-15],[29,-8],[32,17],[27,93],[25,18],[37,54],[21,6],[17,17],[10,28],[21,24],[23,54],[0,33],[19,11],[55,-43],[21,-35],[27,1],[42,44],[48,-12],[14,2],[40,35],[43,15],[16,20],[64,-14],[57,0],[32,35],[36,19],[75,85],[31,22],[38,36],[16,26],[75,21],[12,9],[56,-15],[59,37],[11,17],[18,0],[93,-27],[13,-12],[60,8],[20,30],[-1,24],[22,36],[4,25],[17,21],[-6,24],[-22,23],[-29,17],[-4,28],[10,38],[-7,33],[-26,25],[-1,14],[17,32],[27,31],[86,42],[45,12],[15,12],[14,32],[20,12]],[[37590,25641],[0,-381],[255,0],[0,-568],[0,-788],[76,0],[0,-802],[0,-1011],[0,-592],[0,-621],[0,-1029],[0,-606],[75,0],[0,-739],[0,-769],[0,-703],[0,-883],[0,-402],[-369,0],[-697,0],[-343,0],[-618,0],[-462,0],[-547,0],[-175,0],[0,-1165],[109,0],[0,-854],[0,-1038],[0,-1158],[0,-899],[0,-713],[106,0],[0,-980],[0,-725],[0,-1090],[0,-905],[1,-961],[-931,0],[-595,0],[0,-597],[-655,0],[-350,0],[-673,0],[-437,0],[-629,0],[-675,0],[-788,0],[-667,0],[-1092,0],[-389,0],[-509,0],[-509,0]],[[21585,7186],[56,9]],[[20865,7531],[0,-55],[17,-208],[-20,-36],[-35,-47]],[[18066,6448],[20,-10],[30,32],[25,-19],[43,14],[22,17],[31,-19],[50,6],[7,10],[42,-16],[10,34],[49,-12],[22,25],[16,0],[60,37],[19,-10],[25,15],[49,15],[3,-16],[20,-21],[28,4],[43,47]],[[22457,6991],[-12,-56],[-76,-131],[-26,-41],[-91,-156]],[[16328,14741],[23,34],[37,16],[77,91],[18,8],[47,57],[36,35],[30,8],[41,47],[23,59],[-2,43],[-10,25],[-1,35],[-30,72],[-88,158],[-39,64],[-38,163],[-16,89],[8,82],[38,30],[113,113],[6,44],[22,98],[-12,31],[-6,95],[19,23],[21,51],[-9,113],[-17,68],[-34,78],[-2,42],[-9,22],[10,54],[-1,27]],[[16583,16716],[53,32],[32,34],[23,11],[32,-2],[26,25],[10,24],[1,70],[53,75],[67,-8],[20,-7],[33,28],[13,42],[28,10],[43,-21],[54,-19],[34,-17],[13,6],[45,2],[34,21],[42,15],[5,-18],[-54,-100],[-31,-43],[-6,-38],[-12,-38],[-15,-21],[-9,-68],[-19,-42],[-52,-72],[-9,-87],[-22,-28],[-46,16],[-29,-22],[-29,-85],[-26,-26],[9,-24],[3,-53],[-17,-312],[-6,-136],[-7,-30],[-29,-67],[-11,-35],[11,-157],[4,-78],[-9,-127],[10,-43],[39,-74],[42,-95],[16,-25],[54,-49],[19,-31],[25,-70],[25,-35],[88,-90],[13,-29],[5,-36],[-10,-493],[-6,-45],[-21,-30],[-21,-15],[-20,38],[-32,19],[-41,4],[-38,43],[-73,54],[-55,28],[-25,21],[-34,49],[-38,42],[-37,76],[-60,87],[-29,19],[-252,47],[-49,28]],[[32459,20996],[-35,-20],[-24,17],[2,47],[-16,20],[-56,3],[-54,-3],[-20,-6],[-48,-45],[-23,-4],[-18,13],[-3,27],[11,23],[33,31],[12,35],[35,37],[9,21],[7,53],[-32,64],[-31,31],[-8,29],[-7,55],[0,44],[-13,37],[-42,47],[-44,79],[-39,36],[-35,39],[-20,9],[-82,11],[-55,24],[-37,26],[-34,14],[-51,1],[-39,27],[1,42],[-27,22],[-38,-13],[-17,-34],[-37,23],[-17,2],[-20,-17],[-19,-40],[-39,-56],[-53,-2],[-41,4],[-46,-16],[-51,7],[-39,-13],[-30,12],[-98,9],[-53,59],[-61,17],[-53,2],[-38,6],[-44,20],[-28,42],[-39,38],[-17,41],[1,36],[23,74],[1,52],[-15,67],[-39,26],[-18,20],[-13,30],[-44,59],[-32,55],[-27,30],[-31,47],[-45,26],[-78,17],[-69,9],[-45,25],[-91,17],[-80,12],[-101,38],[-73,16],[-20,13],[-20,27],[-52,48],[-42,1],[-51,39],[-28,10],[-28,25],[-43,18],[-79,7],[-49,-19],[-36,-2],[-29,14],[-67,53],[-23,43],[-28,8],[-56,-20],[-104,-1],[-38,26],[-9,35],[-20,43],[-22,15],[-30,-4],[-34,-22],[-23,0],[-30,-14],[-24,-3],[-22,25],[-21,3],[-18,-18],[-16,-28],[-29,-23],[-59,-19],[-49,-4],[-40,18],[-28,26],[-18,2],[-83,-39],[-39,1],[-18,9],[-29,34],[-11,22],[-39,44],[-15,8],[-43,46],[-14,58],[-52,45],[-14,27],[-20,6],[-57,4],[-24,-25],[-37,3],[-20,11],[-27,35],[-25,5],[-32,18],[-26,27],[-34,4],[-38,34],[-31,18],[-109,-3],[-53,13],[-176,85],[-60,50],[-76,48],[-28,3],[-70,-19],[-21,0],[-55,16],[-18,1],[-47,46],[-23,12],[-45,-6],[-44,18],[-40,-11],[-78,-8],[-25,-11],[-63,5],[-17,18],[-26,1],[-36,-20],[-31,-31],[-33,-6],[-50,-27],[-56,7],[-50,-8],[-41,-31],[-47,-27],[-92,10],[-51,20],[-38,-3],[-12,-8],[-70,-5],[-49,21],[-17,18],[-28,10],[-28,-13],[-34,23],[-36,-11],[-53,11],[-26,-6],[-83,-5],[-28,-16],[-56,2],[-23,-18],[0,-17],[-36,-27],[-64,-14],[-27,4],[-25,14],[-29,2],[-38,-16],[-58,0],[-89,-14],[-58,16],[-55,-1],[-64,4],[-44,-1],[-47,-21],[-58,-51],[-66,-21],[-89,-1],[-19,-26],[-11,-39],[-21,-36],[5,-36],[3,-58],[-7,-38],[-18,-26],[-29,-24],[-7,-19],[-28,-28],[-25,-46],[-4,-21],[-37,-52],[-9,-31],[-64,-46],[-10,-20],[-13,-69],[-24,-55],[0,-62],[-13,-33],[-40,-1],[-51,16],[-42,7],[-59,23],[-15,-1],[-51,17],[-56,33],[-48,12],[-122,-18],[-60,-2],[-100,19],[-63,0],[-44,-4],[-136,22],[-74,-17],[-96,-2],[-36,-6],[-87,35],[-99,-2],[-37,13],[-66,-2],[-42,6],[-25,18],[-25,31],[-49,30],[-4,63],[-10,12],[-11,58],[2,75],[-14,58],[-8,85],[-52,176],[-15,31],[-20,22],[-25,12],[-78,-4],[-44,7],[-58,56],[-28,6],[-25,-21],[-37,-1],[-26,11],[-44,-14],[-33,-63],[-7,-29],[-32,-46],[-30,-4],[-26,-25],[-51,-17],[-44,3],[-19,15],[-46,9],[-39,15],[-62,-19],[-41,-37],[-9,-18],[-50,-55],[-27,-7],[-46,42],[-21,-12],[-41,3],[-58,-26],[-37,32],[-86,-9],[-22,-8],[-60,14],[-29,0],[-66,28],[-44,39],[-28,13],[-61,15],[-75,37],[-16,0],[-31,22],[-25,42],[-27,13],[-64,-72],[-153,-7],[-77,19],[-42,52],[-43,79],[-90,53],[-60,-2],[-45,9],[-57,37],[-43,7],[-51,-15],[-125,-7],[-51,-24],[-88,-62],[-196,-52],[-78,21],[-59,-17],[-46,-7],[-161,-11],[-40,-15],[-108,-126],[-88,-154],[-71,-74],[-86,-66],[-79,-11],[-66,-33],[-91,-52],[-40,0],[-59,-61],[-9,-35],[22,-38],[-10,-33],[-32,-13],[-37,1],[-25,-7],[-19,-17],[-6,-21],[1,-43],[-14,-26],[-15,-63],[-37,-75],[-17,-77],[2,-23],[-29,-36],[-53,-31],[-39,-48],[-14,-55],[-22,-64],[-31,-19],[-34,-5],[-120,-48],[-81,-55],[-64,-3],[-22,-10],[-34,-88],[-21,-20],[-29,-9],[-55,-3],[-34,-30],[-40,-19],[-11,-12],[-5,-36],[-1,-70],[-27,-41],[-31,-62],[-21,-53],[-12,-16],[-33,-22],[-36,-14],[-48,-7],[-87,-63],[-61,-33],[-10,-55],[-20,-36],[-22,-24],[-71,-6],[-39,-31],[-31,-42],[-36,-31],[-21,-12],[-39,-52],[-16,-53],[-14,-19],[9,-18],[-40,-38],[-43,-62],[-25,-47],[-95,-152],[-50,-11],[-48,-52],[-2,-79],[-10,-43],[-39,-49],[-32,-73],[5,-28],[-32,-60],[-17,-53],[-9,-57],[-42,-45],[-15,-10],[-24,-38],[0,-63],[-46,-75],[-30,-34],[-44,-13],[-41,-27],[-38,-36],[1,-73],[-8,-90],[-24,-42],[-4,-29],[-47,-88],[-24,-30],[-20,-95],[-26,-44],[-8,-58],[21,-47],[21,-25],[11,-35],[6,-66],[16,-40],[26,-33],[33,-56],[12,-37],[-15,-101],[-32,-50],[-17,-41],[-5,-53],[-32,-74],[-28,-53],[-27,-69],[-23,-46],[-41,-95],[-11,-55],[3,-68],[12,-42],[8,-115],[12,-68],[-18,-35],[10,-48],[25,-43],[10,-31],[-3,-30],[-40,-41],[-14,-29],[-7,-42],[6,-79],[-4,-55],[-25,-27],[-97,-81],[-12,-21],[-16,-56],[-6,-37],[7,-42],[26,-41],[30,-73],[11,-62],[41,-45],[9,-49],[-18,-51],[-24,-44],[-5,-39],[4,-22],[35,-63],[16,-19],[32,-60],[15,-52]],[[16328,14741],[-15,-21],[-7,-30],[-13,-16],[2,-43],[39,-84],[78,-76],[44,-10],[44,-23],[32,-28],[32,-5],[10,-44],[2,-48],[39,-46],[2,-96],[14,-51],[4,-63],[70,-66],[77,-76],[12,-42],[3,-53],[7,-24],[40,-39],[39,-59],[1,-27],[-12,-62],[-14,-36],[-34,-62],[-59,-40],[-56,-25],[-40,-35],[-15,-30],[-15,-94],[-30,-112],[1,-26],[12,-38],[-4,-32],[2,-44],[9,-31],[3,-66],[11,-47],[-11,-25],[2,-53],[-5,-29],[4,-49],[-22,-39],[-27,-63],[-21,-26],[9,-164],[9,-21],[-36,-47],[-7,-30],[6,-36],[17,-17],[-8,-19],[-37,-22],[0,-57],[-11,-42],[-16,-22],[-16,-39],[3,-135],[12,-40],[26,-41],[3,-49],[25,-46],[28,2],[20,-13],[61,-63],[3,-65],[-17,-36],[2,-31],[25,-49],[30,-42],[-6,-66],[3,-59],[6,-16],[6,-57],[4,-122],[-11,-13]],[[14575,986],[-559,-318],[-417,-236],[-555,-316],[-204,-116],[-518,537],[-608,628],[0,1166],[-655,0],[-423,0],[-634,0],[-361,0],[0,866],[0,800],[0,664],[-729,0],[-437,0],[-760,0],[-727,0],[-802,0],[-486,0],[-615,0],[-619,0],[-658,0],[-566,0],[-825,0],[-531,0],[-632,0],[-517,0],[-736,0],[0,582],[0,584],[0,599],[0,1087],[1,631],[0,598],[0,649],[0,307],[0,557],[0,1005],[0,428],[0,790],[0,608],[-1,1018],[0,824],[0,1134],[0,813],[0,657],[0,328],[0,625],[0,692],[0,1111],[-1,909],[0,943],[611,0],[863,0],[670,0],[539,0],[762,0],[768,0],[677,0],[1121,0],[390,0],[-2,971],[101,0],[446,246],[901,494],[719,391],[956,517],[548,296],[801,428],[738,392],[551,291],[922,485],[793,414],[681,353],[921,475],[736,377],[920,468],[735,372],[453,228],[837,418],[556,276],[558,276],[720,1],[442,-1],[794,1],[450,0],[449,0],[536,0],[779,0],[679,0],[528,0],[608,0],[834,0],[733,0],[478,0],[442,0],[0,747],[0,745],[0,449],[569,0],[363,0],[819,0],[560,0],[500,0],[626,0],[543,0],[690,1],[585,0],[782,0],[464,0],[332,0],[308,-1],[666,1],[638,0],[401,0],[1,-156],[-1,-172],[0,-805],[0,-792],[0,-886],[0,-626],[0,-714],[0,-854],[0,-1015],[0,-590]],[[21204,7574],[-25,-24],[-35,-15],[-28,-44],[22,-2],[12,-31],[32,-10],[17,-61],[0,-44],[41,-26],[11,-16],[22,25],[8,-10],[33,-4],[15,7],[30,-11],[9,13],[42,-19],[36,36],[24,-24],[-4,-35],[6,-31],[-35,-63]],[[20337,6729],[-42,-10],[-45,3],[-148,-8],[-27,10]],[[22694,7109],[-41,-23],[-173,3]]],"transform":{"scale":[0.0001731207758711445,0.0000743547176831725],"translate":[-153.001881,61.079639]},"objects":{"Geometry\\02-170":{"type":"GeometryCollection","geometries":[{"arcs":[[0,1,2]],"type":"Polygon","properties":{"GEOID":"021700007033"}},{"arcs":[[3,4,5,6,7]],"type":"Polygon","properties":{"GEOID":"021700012013"}},{"arcs":[[8,-7,9,10,11]],"type":"Polygon","properties":{"GEOID":"021700013002"}},{"arcs":[[12,13,14,15,16,17]],"type":"Polygon","properties":{"GEOID":"021700011003"}},{"arcs":[[18,19,20,21,22,23]],"type":"Polygon","properties":{"GEOID":"021700004012"}},{"arcs":[[24,25,26,27,28,29]],"type":"Polygon","properties":{"GEOID":"021700007032"}},{"arcs":[[30,31,32,33,34,35]],"type":"Polygon","properties":{"GEOID":"021700006043"}},{"arcs":[[36,37,-34]],"type":"Polygon","properties":{"GEOID":"021700006013"}},{"arcs":[[38,-30,39,40]],"type":"Polygon","properties":{"GEOID":"021700007013"}},{"arcs":[[41,42,43,44,-14,45,46,47]],"type":"Polygon","properties":{"GEOID":"021700003003"}},{"arcs":[[48,49,-36,50,51,52]],"type":"Polygon","properties":{"GEOID":"021700006042"}},{"arcs":[[53,-23,54,55,56,57,58,59]],"type":"Polygon","properties":{"GEOID":"021700005023"}},{"arcs":[[60,61,-39,62,63]],"type":"Polygon","properties":{"GEOID":"021700007012"}},{"arcs":[[64,-49,65,66]],"type":"Polygon","properties":{"GEOID":"021700006033"}},{"arcs":[[67,68,69,70,71,72]],"type":"Polygon","properties":{"GEOID":"021700010043"}},{"arcs":[[73,-48,74,75,76]],"type":"Polygon","properties":{"GEOID":"021700007063"}},{"arcs":[[77,-73,78,79,80]],"type":"Polygon","properties":{"GEOID":"021700009002"}},{"arcs":[[-12,81,82,83,84]],"type":"Polygon","properties":{"GEOID":"021700013001"}},{"arcs":[[85,86,87,88]],"type":"Polygon","properties":{"GEOID":"021700008002"}},{"arcs":[[89,90,91,92,93]],"type":"Polygon","properties":{"GEOID":"021700013004"}},{"arcs":[[-13,94,-46]],"type":"Polygon","properties":{"GEOID":"021700003002"}},{"arcs":[[95,-64,-19,96]],"type":"Polygon","properties":{"GEOID":"021700004011"}},{"arcs":[[97,98,99,-97,-24,-54,100]],"type":"Polygon","properties":{"GEOID":"021700004022"}},{"arcs":[[-71,101,102,103,-8,-9,-85,104]],"type":"Polygon","properties":{"GEOID":"021700011001"}},{"arcs":[[-28,105,106,-32,107]],"type":"Polygon","properties":{"GEOID":"021700006031"}},{"arcs":[[108,-17,109,110,-103,111,112]],"type":"Polygon","properties":{"GEOID":"021700011002"}},{"arcs":[[113,-20,-63,-41,114,115]],"type":"Polygon","properties":{"GEOID":"021700005011"}},{"arcs":[[116,117,118,119]],"type":"Polygon","properties":{"GEOID":"021700010032"}},{"arcs":[[120,121,122,123,124]],"type":"Polygon","properties":{"GEOID":"021700007051"}},{"arcs":[[125,-116,126,-67,127,-57]],"type":"Polygon","properties":{"GEOID":"021700005012"}},{"arcs":[[128,-125,-86,129,130]],"type":"Polygon","properties":{"GEOID":"021700007052"}},{"arcs":[[131,-42,-74,132,-98,133]],"type":"Polygon","properties":{"GEOID":"021700004021"}},{"arcs":[[134,-112,-102,-70]],"type":"Polygon","properties":{"GEOID":"021700010042"}},{"arcs":[[-16,135,136,137,138,-110]],"type":"Polygon","properties":{"GEOID":"021700012021"}},{"arcs":[[-124,139,140,-68,-78,141,-87]],"type":"Polygon","properties":{"GEOID":"021700008003"}},{"arcs":[[-35,-38,142,-79,-72,-105,-84,143,-51]],"type":"Polygon","properties":{"GEOID":"021700006011"}},{"arcs":[[-123,144,-120,145,-140]],"type":"Polygon","properties":{"GEOID":"021700010031"}},{"arcs":[[146,-90,147,-136,-15,-45]],"type":"Polygon","properties":{"GEOID":"021700003001"}},{"arcs":[[-128,-66,-53,148,-58]],"type":"Polygon","properties":{"GEOID":"021700006041"}},{"arcs":[[-93,149,-10,-6,150]],"type":"Polygon","properties":{"GEOID":"021700013003"}},{"arcs":[[-107,151,-80,-143,-37,-33]],"type":"Polygon","properties":{"GEOID":"021700006012"}},{"arcs":[[-2,-131,152,-25,-62,153]],"type":"Polygon","properties":{"GEOID":"021700007031"}},{"arcs":[[-133,-77,154,-129,-1,155,-99]],"type":"Polygon","properties":{"GEOID":"021700007061"}},{"arcs":[[-44,156,157,-91,-147]],"type":"Polygon","properties":{"GEOID":"021700002001"}},{"arcs":[[-11,-150,-92,-158,158,159,160,-82]],"type":"Polygon","properties":{"GEOID":"021700002002"}},{"arcs":[[-100,-156,-3,-154,-61,-96]],"type":"Polygon","properties":{"GEOID":"021700007011"}},{"arcs":[[-119,161,-113,-135,-69,-141,-146]],"type":"Polygon","properties":{"GEOID":"021700010041"}},{"arcs":[[-76,162,-121,-155]],"type":"Polygon","properties":{"GEOID":"021700007062"}},{"arcs":[[163,-21,-114,-126,-56]],"type":"Polygon","properties":{"GEOID":"021700005021"}},{"arcs":[[-111,-139,164,-4,-104]],"type":"Polygon","properties":{"GEOID":"021700012022"}},{"arcs":[[165,166]],"type":"Polygon","properties":{"GEOID":"021700001021"}},{"arcs":[[-160,167,-166,168,-134,-101,-60,169]],"type":"Polygon","properties":{"GEOID":"021700001011"}},{"arcs":[[-22,-164,-55]],"type":"Polygon","properties":{"GEOID":"021700005022"}},{"arcs":[[-167,-168,-159,-157,-43,-132,-169]],"type":"Polygon","properties":{"GEOID":"021700001022"}},{"arcs":[[-115,-40,-29,-108,-31,-50,-65,-127]],"type":"Polygon","properties":{"GEOID":"021700006032"}},{"arcs":[[-163,-75,-47,170,-117,-145,-122]],"type":"Polygon","properties":{"GEOID":"021700010011"}},{"arcs":[[-95,-18,-109,-162,-118,-171]],"type":"Polygon","properties":{"GEOID":"021700010012"}},{"arcs":[[-153,-130,-89,171,-26]],"type":"Polygon","properties":{"GEOID":"021700008001"}},{"arcs":[[-94,172,-137,-148]],"type":"Polygon","properties":{"GEOID":"021700012011"}},{"arcs":[[-138,-173,-151,-5,-165]],"type":"Polygon","properties":{"GEOID":"021700012012"}},{"arcs":[[-172,-88,-142,-81,-152,-106,-27]],"type":"Polygon","properties":{"GEOID":"021700009001"}}]}}}