{"type":"Topology","arcs":[[[3802,5859],[20,7],[47,8],[57,2],[29,-3],[45,-24],[45,-39],[62,-12],[78,5],[76,15],[31,1],[22,13],[4,18],[16,12],[191,-8],[83,3],[85,48],[58,37],[64,32],[23,-3],[73,0],[116,-11],[54,-2],[55,-35],[23,-23],[25,-17],[75,-36],[29,-11],[33,-5],[83,0],[47,2],[60,19],[60,33],[117,39],[43,19],[54,35],[60,48],[51,28],[26,19],[45,56],[73,48],[50,26]],[[6090,6203],[24,-93],[13,-46],[30,-84],[10,-48],[37,-205],[12,-34],[34,-64],[24,-105],[34,-114],[-1,-37],[-26,-115],[-1,-198],[15,-108],[10,-25],[15,-18],[116,-96],[31,-14],[98,-30],[28,-22],[11,-18],[48,-127],[15,-26],[108,-146],[14,-14],[158,-106],[41,-18],[81,-9],[23,-9],[27,-33],[18,-45],[3,-41],[-6,-110],[1,-34],[27,-43],[49,-37],[72,-47],[39,-52],[58,-72],[39,-38],[114,-60],[71,-44],[46,-33]],[[7650,3585],[-388,13],[-216,4],[-335,13],[-453,18],[-455,13],[-29,2],[-417,12],[1,72],[12,474],[1,6],[17,535],[-446,11],[-283,9],[-36,2],[-287,10],[-105,1],[-197,8]],[[4034,4788],[-2,86],[-8,39],[-19,40],[-30,47],[-39,37],[-40,20],[-45,7],[-85,2],[-28,21],[-23,54],[-10,44],[-13,109],[15,51],[32,36],[60,19],[59,26],[32,40],[30,46],[25,55],[11,67],[-4,53],[-21,34],[-18,15],[-28,35],[-51,32],[-25,34],[-7,22]],[[17276,12059],[-83,-90],[-179,-210],[-24,-28],[-221,-258],[-201,-244],[-85,-104],[-60,-70],[-131,-151],[-216,-244],[-222,-255],[-39,-48],[-65,-97],[-187,-309],[-45,-77],[-56,-90],[-96,-137],[-72,-90],[-33,-38],[-87,-93],[-47,-45]],[[15127,9381],[-106,-94],[-117,-97]],[[14904,9190],[45,116],[37,101],[11,73],[8,34],[40,93],[7,7],[54,133],[53,178],[29,81],[59,94],[13,42],[6,269],[-2,48],[-8,88],[-14,86],[-26,123],[-18,42],[-23,23],[-72,37],[-139,69],[-54,32],[-284,246],[-83,73],[-47,27],[-152,55],[-37,0],[-45,-12],[-23,-22],[-8,-16],[-11,-51],[-23,-29],[-22,-1],[-180,19],[-143,22],[-31,28],[-28,47],[-30,22],[-196,129],[-12,11],[-10,31],[4,28],[-6,16],[-24,9],[-37,-38],[-72,-15],[-47,-35],[-23,-5],[-27,16],[-79,0],[-20,-9],[-21,9],[-25,31],[-96,62],[-17,4],[-22,16],[-78,18],[-32,12],[-139,71],[-36,16],[-75,19]],[[12673,11763],[-26,957],[11,537],[441,-13],[463,-8],[120,-8],[315,-24],[1149,-27],[640,-15],[44,1],[409,7],[232,-4],[25,-1],[281,-6],[419,-10],[-7,-490],[-7,-599],[94,-1]],[[14904,9190],[-58,-48],[-254,-211]],[[14592,8931],[-26,59],[-29,51],[-29,33],[-66,117],[-20,26],[-20,66],[-10,26],[-56,174],[-18,85],[-17,96],[-33,127],[-22,50],[-21,38],[-22,27],[-42,43],[-63,30],[-69,9],[-70,-2],[-24,7],[-24,31],[-8,38],[4,55],[32,49],[27,32],[50,43],[56,34],[18,30],[0,41],[-8,21],[-32,57],[-47,31],[-73,4],[-172,0],[-98,7],[-54,-16],[-42,-30],[-115,-52],[-41,-30],[-41,-24],[-49,-16],[-73,-4],[-87,10],[-57,2],[-76,8],[-45,20],[-35,27],[-38,43],[-27,38],[-48,93],[-29,102],[-26,124],[-46,131],[-18,41],[-54,60],[-145,44],[-140,80]],[[12374,11117],[325,-8],[-5,88],[-16,419],[-5,19],[3,32],[-3,96]],[[15524,8831],[7,33],[18,47],[4,25],[17,17],[26,13],[18,21],[15,40],[6,37],[11,26]],[[15646,9090],[12,22],[34,95],[11,17],[52,56],[22,14],[67,24],[19,38],[29,31],[39,15],[16,22],[36,15],[34,25],[13,56],[23,40],[58,31],[57,38],[39,57],[19,47],[53,50],[36,20],[12,42],[173,-8],[27,-13],[12,-50],[19,-1],[13,-20],[1,-22],[10,-25],[11,-45],[16,-26],[50,-8],[29,28],[25,-4],[21,-15],[19,-3],[33,6],[54,-16],[9,-20],[25,4],[11,17],[23,-11],[31,3],[25,-10],[47,12],[27,-10],[14,15],[26,-7],[16,-24],[25,13],[11,-3],[13,-30],[36,-29],[52,-4],[12,-6],[40,1],[19,19],[40,6],[-2,-31],[33,-43],[35,-16],[10,9],[3,27],[32,-10],[64,-49],[2,-47],[20,-21],[-4,-15],[18,-22],[-11,-21],[15,-27],[4,-56],[-6,-28],[19,-14],[26,4],[4,16],[35,14],[34,5],[10,-7],[15,-34],[22,-16],[17,15],[25,-25],[16,18],[19,-5],[447,583],[20,22],[97,128],[49,61],[17,28],[110,144]],[[18537,10146],[-4,-289],[144,0],[306,-7],[-1,-10],[-7,-363],[-2,-38],[-3,-252],[-2,-16],[-4,-209],[-5,-187],[0,-554],[-19,-536],[-11,-537]],[[18929,7148],[-201,132],[-19,9],[-124,41],[-151,51],[-214,70],[-50,12],[-33,14],[-195,111],[-59,22],[-60,17],[-53,24],[-54,30],[-79,28]],[[17637,7709],[-67,23],[-92,45],[-33,5],[-75,-5],[-45,10],[-41,19],[-71,39],[-133,79],[-34,11],[-40,4],[-81,4],[-227,-34],[-48,-8],[-31,0],[-34,8],[-42,20],[-27,22],[-38,48],[2,15],[61,16],[36,29],[17,45],[-4,68],[-53,-13],[-46,3],[-72,15],[-19,0],[-65,11],[-93,-2],[-155,-13]],[[16087,8173],[2,36],[-19,7],[-32,29],[-21,35],[4,86],[15,74],[-3,25],[-17,31],[-15,41],[3,47],[-1,52],[-6,23],[-13,14],[-22,6],[-174,-1],[-182,9]],[[15606,8687],[-93,5],[11,139]],[[4310,9111],[-16,-28],[-9,-52],[-18,-71],[-17,-33],[-12,-33],[-29,-67],[-15,-69],[-34,-55],[-43,-50],[-18,-33],[-24,-25],[-20,-10],[-61,-4],[-26,-13],[-35,-76],[-27,-29],[-45,-17],[-43,0],[-45,-19],[-59,-13],[-30,-15],[34,-18],[38,-40],[8,-26],[39,-104],[10,-31],[11,-57],[41,-59],[8,-28],[15,-28],[24,-24],[44,-9],[12,-30],[7,-45],[-1,-27],[-14,-53],[-2,-30],[-13,-54],[46,-134],[22,-35],[7,-36],[-9,-44],[-2,-34],[11,-57],[15,-18],[17,-89],[0,-28],[-13,-46],[-19,-43],[-27,-74],[-13,-46],[2,-15],[-10,-20],[-6,-34],[-12,-28],[-28,-30],[-8,-17],[-8,-62],[11,-37],[0,-21],[14,-36],[-24,-80],[3,-41],[16,-41],[4,-52],[-5,-90],[-32,-22],[-11,-32],[0,-32],[-23,-84],[11,-31],[-18,-30],[-40,-31],[-46,-6],[-60,-38],[-15,-23],[7,-34],[28,-65],[17,-49],[26,-26],[29,-86]],[[4034,4788],[-174,2],[-255,1],[-144,4],[-182,8],[-179,5],[-333,12],[-98,4],[-1,-5],[-290,8],[-85,0],[-528,18],[-448,14],[6,539],[2,537],[16,541],[4,554],[-229,5],[-219,6],[-444,6],[-453,12],[3,238],[7,459],[4,541],[0,100],[10,796],[1,22],[449,-13],[263,-6],[737,-14],[368,-7],[443,-4],[444,-13],[385,-5],[108,-1],[833,-29],[255,-12]],[[4310,9111],[729,-34],[453,-30],[554,-4],[94,-3],[1124,-37],[260,-4]],[[7524,8999],[-36,-11],[-18,-11],[-73,-61],[-18,-23],[-37,-60],[-23,-24],[-94,-54],[-23,-5],[-37,0],[-55,-23],[-64,-53],[-11,-13],[-21,-46],[-82,-92],[-19,-12],[-178,-44],[-25,3],[-93,23],[-39,1],[-186,-36],[-40,-5],[-118,-3],[-21,-4],[-30,-17],[-28,-37],[-19,-51],[-36,-50],[-15,-26],[-5,-27],[9,-45],[17,-26],[38,-17],[123,-9],[30,-16],[20,-24],[11,-31],[-3,-53],[-12,-26],[-44,-59],[-28,-21],[-148,-63],[-24,-6],[-90,-16],[-42,-24],[-21,-28],[-39,-71],[-15,-18],[-67,-67],[-36,-59],[-9,-42],[0,-84],[-4,-77],[6,-110],[7,-46],[-2,-48],[5,-23],[23,-53],[49,-56],[39,-72],[123,-236],[9,-35],[29,-154],[6,-158],[28,-79],[22,-83]],[[7524,8999],[872,-14],[265,-3],[395,-13]],[[9056,8969],[1,-13],[-10,-92],[20,-89],[-4,-24],[-30,-20],[-11,-20],[4,-59],[-9,-31],[-26,-11],[-19,-24],[-6,-34],[8,-25],[20,-114],[9,-13],[36,-13],[68,-37],[41,-9],[71,-39],[43,1],[50,-5],[9,-33],[-52,-43],[4,-22],[12,-7],[41,-6],[230,-53],[96,-47],[14,-24],[-4,-79],[7,-42],[-2,-25],[-39,-114],[-17,-73],[-59,-188],[-5,-46],[16,-69],[3,-47],[14,-43],[-1,-37],[-55,-126],[-50,-98],[-12,-20],[-38,-38],[-17,-36],[-17,-105],[-18,-7],[-52,-34],[-23,-36],[-13,-42],[-27,-33],[-98,-66],[-77,-32],[-52,0],[-5,-182],[-4,-106],[-7,-48],[-66,-147],[-19,-46],[-23,-69],[-38,-158],[-11,-21],[-45,-46]],[[8812,5804],[-10,-26],[-3,-54],[-9,-50],[-21,-61],[-23,-48],[-54,-79],[-17,-35],[-10,-33],[-11,-65],[22,-264],[21,-35],[81,-71],[11,-18],[50,-119],[12,-67],[23,-79],[12,-90],[-8,-31],[-169,-278],[-19,-20],[-65,-30],[-54,-50],[-17,-36],[-5,-66],[-11,-46],[-18,-182],[-5,-40],[2,-29],[26,-130],[2,-32],[-28,-197],[2,-27],[30,-121],[-7,-48],[-15,-32]],[[8527,3215],[-24,6],[-32,-19],[5,-22],[-64,-2],[-6,13],[11,71],[20,40],[4,24],[-21,1],[-26,11],[-22,24],[-14,-1],[-37,-49],[-8,-17],[0,-81],[-4,-17],[-20,3],[-25,22],[-34,5],[-84,31],[-9,73],[11,78],[13,15],[48,21],[-1,13],[-20,5],[-9,25],[8,19],[-8,37],[-12,27],[-374,10]],[[7793,3581],[12,15],[8,53],[24,31],[46,49],[64,35],[15,30],[7,58],[-16,82],[2,48],[-13,33],[-17,67],[-1,19],[9,112],[6,44],[-1,36],[-9,36],[-2,49],[7,56],[0,39],[-40,129],[-4,38],[0,46],[-5,49],[0,59],[13,53],[0,55],[-9,69],[-2,54],[-10,106],[-1,41],[9,65],[31,95],[6,36],[15,170],[1,57],[-6,89],[-2,84],[10,87],[-1,208],[7,33],[13,26],[10,50],[1,40],[18,164],[0,42],[-6,48],[0,47],[-5,50],[-196,3],[-55,13],[-108,8],[-70,1],[-62,6],[-54,9],[-58,-6],[-78,7],[-126,1],[-74,-8],[-112,25],[-17,2],[-110,-16],[-107,-22],[-71,-25],[-41,-17],[-76,-9],[-23,-8],[-73,-49],[-16,-16],[-33,-42],[-38,-16],[-31,-44],[-26,-17],[-136,-1],[-12,-9],[-43,-84],[-41,-46]],[[7793,3581],[-143,4]],[[17276,12059],[372,-1],[456,-5],[102,-5],[51,-1],[133,-6],[127,-10],[45,-2],[-3,-120],[2,-114],[-3,-93],[-2,-212],[-2,-4],[-3,-136],[2,-44],[-6,-361],[-6,-518],[-4,-281]],[[15646,9090],[-120,8],[-106,2],[-79,4],[3,104],[-2,172],[-215,1]],[[9056,8969],[507,-16],[895,-20],[452,4],[449,-15]],[[11359,8922],[-2,-72],[27,-70],[4,-44],[15,-43],[16,-32],[26,-16],[48,19],[28,4],[41,-3],[16,-7],[39,-35],[25,-10],[16,2],[31,17],[34,1],[58,-22],[21,-14],[41,5],[48,27],[35,-23],[31,9],[19,25],[28,-4],[19,-40],[9,-62],[9,-12],[47,-27],[13,-1],[57,14],[24,0],[14,-25],[28,-17],[64,3],[65,-13],[49,-24],[61,-20],[15,-78],[11,-20],[13,-57],[10,-58],[12,-101],[15,-66],[26,-164],[12,-45],[31,-59],[47,-35],[-16,-31],[-5,-55],[-11,-42],[-36,-55],[-23,-15],[12,-18],[47,-36],[21,-37],[2,-52],[10,-24],[21,1],[25,26],[29,8],[13,-14],[-14,-57],[8,-40],[-2,-68],[-11,-59],[23,-32],[62,-72],[7,-45],[27,-28],[34,0],[45,-23],[-5,-31],[9,-13],[25,9],[20,18],[33,10]],[[13005,6954],[-4,-29],[2,-49],[8,-88],[13,-62],[23,-67],[-1,-57],[-43,-128],[-15,-39],[-11,-44],[-13,-112],[-11,-63],[-9,-101],[3,-26],[14,-60],[1,-18],[-10,-60],[-10,-29],[-24,-29],[-47,-24],[-31,-6],[-24,4],[-96,50],[-43,0],[-22,-27],[-33,-121],[-37,-96],[-8,-55],[-6,-231],[4,-51],[-3,-121],[-44,-59],[-3,-15],[-52,-38],[-47,-56],[-30,-47]],[[12396,5000],[-8,13],[-34,10],[-32,-25],[-60,-7],[-40,8],[-57,5],[-27,0],[-13,18],[-30,-2],[-38,14],[-17,18],[-13,-23],[-3,-61],[-18,-49],[-66,-150],[-35,-88],[-41,-96],[-29,-56],[-33,6],[9,217],[-10,12],[-50,7],[-7,5],[-17,73],[-8,22],[-21,29],[-11,24],[-2,54],[3,75],[-3,26],[-11,23],[-73,52],[-50,58],[-36,54],[-31,20],[-16,21],[-18,38],[-28,35],[-28,131],[-9,25],[-22,13],[-78,14],[-26,20],[-19,7],[-25,28],[-35,14],[-9,12],[-12,40],[1,31],[11,91],[-3,82],[-14,35],[-50,58],[-16,54],[-13,32],[-6,31],[-64,-25],[-25,-13],[-54,-12],[-52,-5],[-30,-9],[-71,-14],[-44,1],[-95,27],[-36,1],[-20,10],[-44,31],[-49,-5],[-39,11],[-26,1],[-75,-14],[-42,8],[-43,0],[-40,-10],[-56,0],[-49,-8],[-53,-14],[-14,-8],[-60,-58],[-50,-37],[-52,-31],[-30,-29],[-30,-47],[-23,-20],[-22,-4],[-58,-35],[-49,-6],[-57,-1],[-80,-8],[-29,-9],[-48,-26],[-40,-9],[-60,-7],[-130,3],[-94,-2],[-46,-6],[-22,3],[-29,15],[-30,22],[-70,17],[-26,16],[-32,11],[-69,1]],[[16087,8173],[-566,-47],[-50,-6],[-139,-46]],[[15332,8074],[9,8],[0,35],[14,8],[40,5],[1,36],[9,45],[-3,87],[8,30],[-3,43],[9,68],[11,16],[9,42],[20,13],[75,70],[30,23],[33,53],[12,31]],[[15524,8831],[-168,3],[-185,5],[4,-118],[-7,-59],[4,-34],[19,-7],[42,-5],[0,-174],[-3,-143],[-15,-7],[0,-36],[4,-82],[9,-20],[38,-67],[17,-37]],[[15283,8050],[-49,-38]],[[15234,8012],[-54,92],[-40,63],[-30,35],[-88,70],[-21,20],[-18,26],[-69,160],[-14,63],[-1,86],[-3,86],[-6,53],[-203,1]],[[14687,8767],[-80,-5]],[[14607,8762],[11,24],[3,29],[-6,53],[-23,63]],[[15332,8074],[-24,-5],[-25,-19]],[[12396,5000],[-11,-18],[-28,-95],[-26,-65],[-57,-164],[-3,-15],[25,-37],[7,-46],[15,-48]],[[12318,4512],[11,-36],[-8,-131],[2,-67],[-3,-55],[-14,-62],[-41,-121],[-31,-62],[-68,-103],[-53,-66],[-82,-74],[-36,-45],[-10,-18],[-14,-54],[-57,-94],[-17,-20],[-22,-9],[-22,2],[-31,44],[-36,25],[-66,-14],[-47,-34],[-34,-6],[-18,14],[-18,72],[-20,18],[-24,-10],[-18,-30],[-3,-35],[10,-39],[-3,-37],[-12,-73],[2,-106],[-9,-61],[-11,-42],[-28,-96],[-35,-131],[-1,-115],[3,-21],[-4,-68],[-10,-28],[-21,-23],[-15,-1],[-5,23],[-13,5],[-34,-6],[-46,14],[-20,18],[-36,47],[-27,5],[-35,-3],[-55,-18],[-35,-18],[-34,-27],[-36,-39],[-24,-31],[-8,-23],[14,-61],[3,-41],[-13,-45],[-11,-22],[-1,-23],[-23,-50],[-23,-25],[-28,-2],[-34,35],[-27,-6],[-54,1],[-48,8],[-39,23],[-47,36],[-29,4],[-31,-3],[-36,-20],[-37,-41],[-32,-29],[6,-71],[-10,-31],[-26,-26],[-24,-40],[-24,-71],[-36,-60],[-49,-45],[-88,-57],[-62,-28],[-43,-3],[-77,-20],[-119,-19],[-37,-18],[-31,-45],[-36,-34],[-38,-23],[-58,-23],[-55,-16],[-50,-5]],[[9643,1751],[10,38],[25,18],[21,31],[25,61],[15,5],[13,-17],[14,0],[40,37],[9,31],[-35,140],[-2,29],[-13,29],[11,37],[20,4],[2,36],[-20,58],[-16,18],[-45,24],[-43,58],[-61,56],[-16,49],[12,42],[18,21],[46,18],[31,35],[4,17],[-7,24],[-32,22],[-67,3],[-40,-18],[-48,-2],[-29,20],[-20,46],[2,29],[23,82],[20,18],[28,36],[56,43],[15,38],[18,114],[-4,69],[-27,70],[-16,14],[-116,22],[-95,-33],[-16,1],[-13,16],[-41,4],[-24,-13],[-11,-35],[-16,-9],[-29,-2],[-81,6],[-41,54],[-53,30],[-17,-11],[-11,-24],[-18,6],[-48,-8],[-87,-37],[-17,-3],[-41,24],[-25,8],[-22,-18],[-78,-8],[-33,-16],[-120,27]],[[11359,8922],[451,-14],[15,541],[19,553],[-27,1130],[218,-4],[339,-11]],[[14607,8762],[-14,-62],[-7,-45],[-10,-34],[-24,-58],[-81,-90],[-35,-43],[-32,-16],[-76,29],[-14,-17],[-22,-5],[-59,-46],[-18,-19],[-11,1],[-18,-27],[-3,-40],[17,-55],[-3,-29],[-26,-76],[-42,-55],[-14,-30],[-9,-96],[-15,-33],[-26,-22],[-24,-29],[-16,-3],[-28,-26],[-49,-72],[-56,-98],[-39,-47],[-76,-61],[-31,-15],[-38,-4],[-26,5],[-89,8],[-33,-15],[-21,-34],[-16,-37],[-11,-51],[-8,-59],[3,-72],[18,-49],[-8,-45],[-8,-80],[-7,-36],[-21,-31],[-40,-5],[-22,12],[-30,35],[-25,20],[-32,15],[-94,33],[-45,27],[-24,1],[-47,-20],[-27,-27],[-55,-103],[-21,-35],[-14,-42]],[[16794,4133],[65,101],[-34,13],[-18,16],[-66,74],[-17,35],[-18,128],[-14,64],[-10,105],[0,35],[12,55],[7,111],[-1,23],[-23,95],[-35,94],[-4,20],[-11,131],[-8,50],[-18,51],[-108,203],[-25,39],[-51,54],[-15,13],[-108,48],[-25,14]],[[16269,5705],[151,39],[24,-1],[25,-13],[56,-36],[4,126],[31,69],[19,145],[4,48],[55,-2],[6,12],[2,134],[-38,116],[-2,29],[7,35],[19,55],[13,59],[0,27],[14,70],[12,31],[-2,40],[-7,37],[1,91],[3,29],[58,90]],[[16724,6935],[143,-127],[15,-30],[9,-51],[16,-13],[108,12],[14,-1],[106,-27],[42,-1],[45,2],[34,-6],[78,-36],[29,29],[14,52],[13,14],[43,13],[47,4],[25,-4],[51,6],[38,11],[12,12],[32,49],[21,24],[-26,36],[-4,21],[6,66],[-1,47],[-18,101],[22,62],[-4,79],[-11,59],[2,76],[11,80],[-2,50],[-19,67],[22,98]],[[18929,7148],[-17,-548],[-6,-543],[-1,-10],[-4,-523],[-13,-549],[-7,-548],[-9,-547],[-3,-142],[-5,-400],[-69,1],[-12,-654],[-16,-578],[-8,-490],[0,-34],[-14,-491],[2,-35],[0,-547],[-14,-510],[-885,29],[-488,11],[-176,1],[-121,2],[-77,-1],[-23,3],[-55,-2],[-381,6],[-8,0],[-474,14],[-150,1]],[[15895,64],[-5,101],[-6,28],[-27,49],[-50,53],[-9,26],[1,32],[10,23],[36,39],[26,33],[44,77],[19,52],[11,52],[27,9],[26,30],[38,34],[32,46],[30,22],[-32,85],[5,269],[7,110],[16,144],[13,17],[105,-2],[18,10],[1,72],[-4,44],[-7,11],[0,82],[-3,31],[3,26],[32,67],[38,48],[94,91],[4,82],[50,180],[51,97],[22,52],[14,25],[60,119],[23,63],[41,71],[17,55],[-4,109],[12,48],[1,43],[-7,123],[-7,40],[-25,72],[6,56],[23,31],[30,117],[37,119],[4,71],[0,58],[3,51],[8,39],[5,67],[10,79],[9,46],[16,35],[9,71],[8,195],[-10,44]],[[14915,7523],[75,129]],[[14990,7652],[12,-23],[24,4],[24,-8],[35,-23],[14,-25],[11,2],[0,43],[335,-8]],[[15445,7614],[31,-77],[10,-15]],[[15486,7522],[20,-27],[5,-15],[7,-82],[15,-62],[10,-25],[59,-85],[11,-30],[13,-97],[16,-173],[9,-32],[101,-225],[9,-10]],[[15761,6659],[-40,-2],[-129,6],[-85,2],[-187,3],[-239,5],[-77,4],[-36,-2],[-128,7],[-60,-1],[-58,2],[21,199],[41,290],[11,25],[-45,40],[61,108],[41,69],[52,82],[11,27]],[[15787,7449],[4,287],[111,-6],[1,137],[89,-5],[20,5],[5,15],[-1,102],[3,12]],[[16019,7996],[33,-2],[4,66],[9,94],[18,4],[4,15]],[[16724,6935],[-33,27],[-27,3],[-69,-12],[-64,11],[-44,23],[-21,26],[-29,61],[-21,15],[-27,6],[-37,1],[-22,8],[-31,25],[-25,2],[-22,30],[-32,3],[-48,35],[-37,52],[-27,10],[-25,19],[-35,-17],[-28,-1],[-44,27],[-30,5],[-39,18],[-65,16],[-59,1],[4,120]],[[15673,7493],[1,-25],[51,-3],[6,-12],[56,-4]],[[16269,5705],[-12,21],[-64,250],[-45,165],[-10,25],[-89,147],[-17,39],[-62,150],[-14,25],[-40,44],[-32,29],[-106,49],[-17,10]],[[15486,7522],[17,22],[45,-12],[19,-23],[29,-13],[34,-10],[43,7]],[[14687,8767],[-4,-62],[-39,-64],[-20,-26],[-4,-50],[-3,-125],[-19,0],[-6,-88],[5,-14],[77,-510],[3,-14],[94,-165],[115,-82],[6,-33],[23,-11]],[[16794,4133],[-69,-2],[-36,-7],[-28,-16],[-30,-1],[-24,20],[-29,4],[-23,-10],[-49,11],[-25,-18],[-29,-9],[-20,-19],[-42,0],[-19,-7],[-18,3],[-52,30],[-35,36],[-10,24],[-47,16],[-6,32],[-18,13],[-24,51],[-19,7],[-65,8],[-40,21],[-23,45],[-43,30],[-9,19],[-29,-21],[-25,4],[-21,-13],[-18,8],[-19,32],[-38,32],[-29,-1],[-31,-10],[-18,-14],[-60,-4],[-27,-10],[-23,4],[-32,-28],[-19,-7],[-38,-3],[-59,1],[-44,20],[-46,4],[-15,-3],[-51,-66],[-5,-34],[15,-17],[2,-16],[-22,-29],[-68,-64],[-90,-88],[-20,-8],[-57,8],[-99,9],[-49,6],[4,43],[-23,31],[-65,63],[-10,20],[-41,-3],[-33,18],[-24,37],[-55,12],[-12,8],[-145,17],[-12,-1],[-36,-24],[-19,-6],[-33,6],[-57,31],[-20,3],[-43,-15],[-30,-44],[-15,-13],[7,70],[-7,6],[-26,-21],[-21,-10],[-26,-27],[-22,-10],[-36,-36],[-46,-9],[-19,2],[-42,-16],[-22,-28],[-19,7],[-19,-20],[-9,4],[-24,-74],[-44,13],[-8,13],[-40,2],[-13,38],[4,14],[-19,23],[-26,11],[-18,-20],[-17,-7],[-27,0],[-24,-18],[-10,-18],[-16,-8],[-26,30],[-19,9],[-35,-11],[-16,12],[-6,19],[-30,9],[-30,-33],[-16,-7],[-4,-18],[-29,-45],[-10,9],[-32,-15],[-16,5],[-56,2],[-24,10],[-17,20],[-8,36],[-39,9],[0,-15],[-27,-17],[-19,26],[-54,44],[3,17],[-10,29],[-31,13],[-18,24],[-28,6],[-21,12],[-14,32],[-37,38],[-14,53],[-14,-6],[-30,44],[-32,5],[-6,31],[-18,-5],[-21,16],[-30,-7],[-39,-3],[-35,3],[-12,14],[-25,5],[-25,44],[-19,4],[-22,21],[-44,-9],[-24,-18],[-17,0],[-23,-19],[4,-14],[-28,-37],[1,-31],[-28,-29],[-37,34],[-39,-2],[-2,14],[-29,-6],[-11,5],[-32,-19],[-19,-30],[-12,34]],[[15234,8012],[-40,-34],[-41,-54],[-63,-101],[-46,-81],[-7,-7],[-47,-83]],[[15234,8012],[72,-121],[47,-76],[33,-65]],[[15386,7750],[59,-136]],[[16019,7996],[-111,6],[-147,5],[-18,-2],[-65,-25],[-2,-238]],[[15676,7742],[-141,7],[-149,1]],[[15673,7493],[3,249]],[[15895,64],[-306,2],[-439,18],[-427,66],[-187,11],[-53,2],[-604,39],[-66,5],[-100,3],[-313,15],[-451,11],[-441,21],[-33,4],[-420,19],[-192,11],[-50,0],[-92,8],[-251,15],[-87,4],[-49,6],[-267,12],[-79,1],[-91,5],[-142,4],[-111,6],[-123,3],[-28,5],[-56,0],[-365,15],[-226,11],[-22,-2],[-3,35],[-28,28],[-46,1],[-23,-14],[-31,-44],[-27,-77],[-5,-31],[-11,-35],[-17,-31],[-43,-25],[-14,-15],[-62,19],[-34,16],[-18,37],[-30,39],[-28,54],[-5,40],[10,31],[15,30],[10,61],[1,49],[-8,22],[-38,26],[-18,35],[-6,30],[-2,58],[-12,90],[1,98],[14,111],[6,95],[6,50],[20,35],[34,35],[11,45],[0,58],[11,28],[21,33],[13,37],[20,33],[16,61],[6,40],[-2,32],[4,66],[16,26],[50,30],[27,8],[18,17]]],"transform":{"scale":[0.00003895727756413622,0.000026890472957682836],"translate":[-93.40818,34.149645]},"objects":{"Geometry\\05-059":{"type":"GeometryCollection","geometries":[{"arcs":[[0,1,2,3]],"type":"Polygon","properties":{"GEOID":"050590207021"}},{"arcs":[[4,5,6,7]],"type":"Polygon","properties":{"GEOID":"050590201011"}},{"arcs":[[-7,8,9,10]],"type":"Polygon","properties":{"GEOID":"050590201012"}},{"arcs":[[11,12,13,14,15,16,17]],"type":"Polygon","properties":{"GEOID":"050590201022"}},{"arcs":[[18,-4,19]],"type":"Polygon","properties":{"GEOID":"050590207011"}},{"arcs":[[20,21,-1,-19]],"type":"Polygon","properties":{"GEOID":"050590207012"}},{"arcs":[[22,23,24,25,26,-22]],"type":"Polygon","properties":{"GEOID":"050590207023"}},{"arcs":[[-27,27,-2]],"type":"Polygon","properties":{"GEOID":"050590207022"}},{"arcs":[[28,-13,29,-5]],"type":"Polygon","properties":{"GEOID":"050590201021"}},{"arcs":[[30,31,32,33,-24]],"type":"Polygon","properties":{"GEOID":"050590206002"}},{"arcs":[[-17,34,35]],"type":"Polygon","properties":{"GEOID":"050590202001"}},{"arcs":[[-9,-6,-30,-12,36,37,38,39,40]],"type":"Polygon","properties":{"GEOID":"050590202003"}},{"arcs":[[-18,-36,41,-37]],"type":"Polygon","properties":{"GEOID":"050590202002"}},{"arcs":[[-34,42,43,44,-25]],"type":"Polygon","properties":{"GEOID":"050590206003"}},{"arcs":[[45,-10,-41,46,-32]],"type":"Polygon","properties":{"GEOID":"050590206001"}},{"arcs":[[47,48,49,-15,50,51]],"type":"Polygon","properties":{"GEOID":"050590205001"}},{"arcs":[[52,53,54,55,56]],"type":"Polygon","properties":{"GEOID":"050590203002"}},{"arcs":[[57,58,-16,-50,59]],"type":"Polygon","properties":{"GEOID":"050590204005"}},{"arcs":[[60,-60,-49,61,-56,62]],"type":"Polygon","properties":{"GEOID":"050590204004"}},{"arcs":[[-33,-47,-40,63,-57,-62,-48,64,-43]],"type":"Polygon","properties":{"GEOID":"050590205002"}},{"arcs":[[-39,65,-53,-64]],"type":"Polygon","properties":{"GEOID":"050590202004"}},{"arcs":[[-66,66,67,-54]],"type":"Polygon","properties":{"GEOID":"050590203001"}},{"arcs":[[-38,-42,-35,-59,68,69,-67]],"type":"Polygon","properties":{"GEOID":"050590204001"}},{"arcs":[[70,-69,-58,-61]],"type":"Polygon","properties":{"GEOID":"050590204002"}},{"arcs":[[-70,-71,-63,-55,-68]],"type":"Polygon","properties":{"GEOID":"050590204003"}},{"arcs":[[-44,-65,-52,71]],"type":"Polygon","properties":{"GEOID":"050590205003"}}]}}}