{"type":"Topology","arcs":[[[11774,10131],[36,46],[-18,45],[108,77],[25,14],[55,-9],[81,64],[53,25]],[[12114,10393],[29,11],[26,25],[69,19],[24,52],[30,24],[27,41],[35,28],[47,98],[31,98],[47,51]],[[12479,10840],[54,-33],[15,10],[78,-9],[26,-25],[31,-7],[75,47],[41,41],[49,7],[23,24],[43,14],[39,47],[8,66],[43,23],[85,21],[57,42],[86,54]],[[13232,11162],[-1,-59],[-14,-70],[-39,-106],[-10,-52],[0,-57],[14,-32],[34,30],[24,47],[54,40],[18,33],[30,81],[84,49],[16,-13],[-26,-55],[6,-57],[21,-18],[-23,-113],[19,-33],[47,-29],[47,-1],[19,-25],[-18,-29],[-21,0],[-24,-25],[-34,-92],[-32,-43],[5,-40],[-15,-86],[40,28],[-18,-79],[68,-67],[29,-15],[18,-43],[37,-6],[54,47],[59,20],[62,-2]],[[13762,10290],[-43,-53],[-26,-8],[15,-33],[-26,-17],[-10,-106],[-23,7],[-25,-27],[-4,-30],[-26,-56],[-17,-57],[-22,-39],[-13,-83],[-20,-31],[-1,-41]],[[13521,9716],[-80,-46],[-175,-49],[-50,-33],[-35,-13],[-115,-98],[-77,-28],[-53,-35],[-38,-2],[-51,19],[-69,-59],[-65,-117],[-8,-43],[-74,-28],[-54,-3],[-21,-15],[-29,-50],[-53,-42],[-25,-34]],[[12449,9040],[-13,-1],[-70,-58],[-36,19],[-12,78],[42,81],[18,47],[-23,26],[-47,12],[-30,22],[-37,8],[-16,52],[11,114],[-5,85],[-45,79],[-39,51],[-41,101],[-21,11],[-73,-5],[-21,24],[-56,106],[-67,39]],[[11868,9931],[-8,29],[-79,135],[-7,36]],[[13232,11162],[70,2],[49,37],[67,103],[45,10],[47,-4],[46,-14],[80,68],[46,-12],[46,5],[65,58],[29,7],[41,38],[57,9],[52,55],[163,69],[55,34],[29,4],[45,44],[77,63],[39,65],[57,44],[65,13],[43,-6],[50,35],[37,45],[23,41],[31,27],[41,77],[34,-105],[-40,-5],[37,-55],[14,-77],[-45,-7],[-36,-32],[-63,-33],[-2,-37],[44,-20],[73,6],[31,-18],[57,12],[110,-1]],[[14941,11707],[-18,-77],[-23,-70],[5,-63],[-26,-61],[-3,-46],[19,-82],[-29,-106],[0,-43],[26,-127],[-15,-34],[-24,-14],[-52,6],[-18,-19],[-21,-53],[-1,-42],[15,-53]],[[14776,10823],[-26,3],[-42,-29],[-158,30],[-24,-12],[54,-74],[-1,-32],[-32,-18],[-29,9],[-27,-12],[-99,-5],[22,54],[-57,-4],[-51,-16],[-24,-18],[-31,-88],[-49,-93],[-57,-57],[-33,-15],[-87,-11],[-73,-31],[-127,-109],[-63,-5]],[[13521,9716],[120,24],[103,35],[64,13],[43,16],[63,64],[63,38],[78,14],[72,2],[116,-8],[38,6],[44,22],[62,54],[20,26],[25,104],[21,53],[45,50],[59,19],[78,4],[62,26],[60,52],[42,50],[75,139],[10,53],[-8,39],[-23,46]],[[14853,10657],[27,51],[18,17],[91,-19],[29,-33],[49,-87],[50,2],[25,-34],[-31,-24],[13,-19],[20,-115],[14,-25],[57,-63],[33,-27],[156,84],[28,23],[244,131],[217,123],[36,-125],[-37,-20],[-8,-34],[24,-33],[63,-40]],[[15971,10390],[-63,24],[-26,19],[-1,59],[-27,46],[-44,-22],[-98,-62],[-7,-56],[59,-54],[-11,-42],[-95,-2],[-72,18],[-50,-46],[3,-67],[17,-40],[8,-90],[-17,-26],[-48,-23],[-45,-52],[-134,-251],[-74,-106],[-17,-18],[-103,-56],[-43,-56],[-20,-75],[-40,-78],[-22,-20],[-98,17],[-30,-27],[-45,-81],[-22,-80],[-134,-7],[-77,-14],[-29,20],[-21,47],[-37,144],[-35,-7]],[[14473,9326],[-30,29],[-61,-62],[-74,-27],[-52,-6],[-50,24],[-31,-19],[-33,0],[-46,-30],[-48,-44],[-50,-61],[-21,-3],[-57,19],[-32,-38],[-100,10],[-41,23],[-46,-6],[-14,10],[-24,51],[-44,13],[-41,-24],[-43,14],[-46,44],[-28,-3],[-50,22],[-28,-7],[-85,-75],[-28,-53],[-19,-103],[-42,-39],[-128,-28],[-41,-19],[-116,-66],[-11,26],[-61,30],[-1,104],[-16,38],[-31,13],[-30,36],[-24,6],[-66,-73],[-38,-22],[-52,-7],[-48,-25],[-61,7],[-43,-17],[7,52]],[[13,11962],[100,1],[41,7],[455,138],[88,12],[66,-17],[46,-28],[190,-147],[43,-38],[124,-162],[43,-42],[133,-102],[144,-127],[136,-142],[43,-29],[62,-22],[172,-32],[2,-429],[-7,-320],[113,-35],[167,-58],[159,6],[76,-9],[268,-44],[47,-6],[119,-1],[291,41],[94,7],[159,69],[38,-1],[104,-20],[79,0],[109,-21],[107,-5]],[[3824,10406],[-11,-86],[0,-184],[9,-171],[-10,-138],[-6,-147],[-6,-44],[-20,-37],[-41,-42],[-2,-19],[25,-123],[15,-134],[22,-60],[-20,-128],[-25,-106],[-30,-52],[-61,-169],[-34,-71],[-33,-48],[-29,-64],[-13,-56],[-4,-54]],[[3550,8473],[-9,-153],[6,-113],[38,-129],[11,-88],[-3,-104],[27,-46],[-32,-67],[-11,-39],[-62,-278],[-42,-101],[-46,-64],[-90,-92],[-34,-39],[-35,-57],[-24,-59],[-32,-130],[-35,-73],[-108,-129],[-39,-57],[-100,-179],[-181,-264],[-13,-16]],[[2736,6196],[-114,220],[-59,119],[-40,53],[-46,34],[-129,67]],[[2348,6689],[-351,189],[-26,21],[-222,211],[-63,43],[-48,15],[-157,19],[-78,26],[-51,34],[-104,85],[-88,58],[-470,228],[-57,26],[-85,18],[-409,10],[-125,-5]],[[14,7667],[2,33],[-2,478],[0,973],[1,781],[-2,347],[-1,1084],[1,43],[1,505],[-1,51]],[[5300,15137],[27,-69],[24,-104],[-3,-70],[-21,-88],[4,-35],[36,-99],[-5,-136],[3,-161],[6,-38],[-3,-115],[9,-125],[-19,-80],[5,-129],[-18,-91],[-5,-104],[-17,-247],[2,-89],[-3,-89],[3,-105],[19,-97],[-6,-78],[14,-89],[-22,-408],[1,-52],[36,-154],[71,-204],[4,-75]],[[5442,12006],[-90,-32],[-69,-17],[-129,-20],[-44,-1],[-64,15],[-71,-16],[-48,2],[-45,17],[-48,7],[-46,-37],[-77,36],[-93,67],[-104,11],[-71,38],[-86,25],[-28,44],[-28,-12],[-13,-38],[-89,-81],[-27,-17],[-67,-18],[-69,-7],[-40,5],[-135,58],[-33,24],[-83,86],[-96,25],[-109,17],[-115,-13],[-309,-69],[-146,-54],[-114,-83],[23,-97],[68,-74],[72,-171],[14,-21],[106,-113],[111,-94],[18,-46],[-2,-248],[3,-195],[-1,-207],[116,-35],[355,-99],[114,-21],[-29,-141]],[[13,11962],[0,383],[-13,492],[9,158],[0,209],[56,29],[70,3],[61,16],[54,-11],[30,22],[37,46],[61,34],[56,89],[25,-33],[22,-3],[61,102],[-6,71],[1,63],[23,36],[40,37],[67,20],[106,-28],[53,-40],[77,-141],[36,-42],[41,-19],[79,42],[42,61],[18,11],[91,17],[56,-8],[65,-41],[59,-4],[27,-9],[72,26],[35,-1],[63,13],[30,30],[32,72],[60,117],[58,8],[112,-32],[51,22],[53,42],[103,49],[61,-23],[41,-59],[49,3],[50,27],[89,60],[33,10],[30,23],[41,80],[19,88],[20,23],[52,33],[28,-4],[42,-29],[25,-46],[19,-95],[-7,-57],[18,-32],[23,-86],[-11,-42],[9,-27],[43,-30],[48,-12],[48,2],[33,-11],[23,-22],[81,-129],[43,6],[33,44],[22,3],[3,77],[11,39],[38,32],[86,14],[60,34],[51,8],[107,-11],[26,5],[42,83],[6,35],[35,45],[62,-3],[21,14],[53,197],[6,58],[17,48],[43,9],[41,-19],[56,-39],[89,-75],[28,-7],[41,41],[56,-40],[29,-53],[2,-71],[9,-27],[56,-16],[79,29],[43,38],[28,41],[53,107],[8,77],[-25,76],[-67,120],[-3,49],[42,60],[107,72],[30,35],[13,82],[20,57],[20,19],[50,-13],[23,-29],[9,-86],[-17,-64],[7,-41],[84,-95],[31,-15],[138,-26],[50,4],[13,28],[4,90],[-5,100],[12,125],[7,19],[44,20],[73,-46],[43,-7],[32,31],[11,71],[-29,77],[4,69],[37,58],[82,54],[84,5]],[[3550,8473],[66,42],[41,45],[41,18],[45,8],[60,-13],[30,-18],[34,17],[85,-10],[84,19],[71,3],[34,-5],[73,4],[55,-4],[48,-32],[27,9],[26,51],[26,17],[59,-18],[96,20],[47,-17],[38,-41],[97,-85],[53,21],[142,36],[38,5],[74,-32],[58,12],[64,-6],[37,6],[61,56],[40,-3],[132,13],[23,-31],[46,2],[90,-8],[86,36],[79,6],[59,-18],[17,3],[61,-22],[102,-27],[77,-44],[62,-62],[41,-59],[59,-121],[26,10],[54,-9],[70,27],[95,-16],[14,28]],[[6493,8286],[47,-59],[99,-159],[37,-16]],[[6676,8052],[20,-148],[12,-39],[41,-57],[-5,-48],[-23,-1],[-40,35],[-44,12],[-38,-38],[-5,-29],[5,-283],[59,-42],[31,-53],[15,-60]],[[6704,7301],[42,-184],[36,-98],[116,-228]],[[6898,6791],[27,-52],[9,-37]],[[6934,6702],[-53,6],[-41,-4],[-60,-31],[-163,-132],[-45,-27],[-61,-17],[-315,-36],[-57,-14],[-44,-21],[-76,-58],[-236,-200],[-101,-60],[-240,-92],[-71,-36],[-146,-95],[-280,-130],[-63,-15],[-92,-6],[-41,-12],[-108,-45],[-44,-7],[-90,13],[-101,43],[-36,10],[-63,-7],[-42,-25],[-129,-92],[-116,-73],[-129,-120],[-18,-29],[-26,-120],[-25,-45],[-37,-27],[-161,-83],[-33,-13]],[[3591,5102],[-14,55],[-70,128],[-56,87],[-59,72],[-148,156],[-48,68],[-20,43],[-55,156],[-21,40],[-35,41],[-56,33],[-97,25],[-57,46],[-21,89],[-61,-19],[-8,15]],[[2765,6137],[-29,59]],[[14941,11707],[101,198],[45,72],[64,130],[13,75],[34,87],[98,144],[93,84],[72,98],[64,116],[71,81],[37,32],[46,93],[215,153],[71,57],[20,33],[9,99],[21,34],[77,66],[56,61]],[[16148,13420],[68,65],[59,6],[67,-17],[44,8],[133,58],[62,2],[134,-71],[50,2],[45,31],[43,61],[50,37],[59,19],[34,68],[173,134],[33,12],[38,-3],[28,19],[47,71],[40,95],[42,47],[26,45],[61,35]],[[17484,14144],[37,5],[42,-53],[74,-47],[38,0],[50,29],[27,42],[58,36],[67,-10],[43,50],[25,18],[70,0],[40,14],[43,-3],[89,23],[47,-9],[53,12],[68,66],[63,37],[109,121],[58,44],[50,17],[39,-11],[39,5],[66,75],[25,11],[114,10],[30,10],[32,33],[26,11],[62,-25],[45,-60],[16,-9],[48,19],[38,70],[33,109],[22,26],[78,52],[67,15],[56,6],[105,-32],[59,-9],[118,10],[24,10],[163,107],[18,29],[43,21],[31,2],[99,-40],[63,10],[42,-7],[63,11],[44,-18],[98,6],[62,-13],[38,4],[116,25],[65,5],[32,-22],[28,-64],[28,-30],[82,44],[18,3],[118,-34],[42,-24],[74,9],[80,53],[40,0],[188,90],[44,0],[106,39],[49,61],[36,76],[-8,25],[-4,91],[3,66],[47,30],[33,-20],[205,-9],[6,18],[44,23],[110,13],[10,-12],[57,63],[43,27],[55,11],[31,22],[93,-14],[29,44],[35,35],[45,65],[36,94],[36,41],[56,94],[18,107],[-19,92],[7,66],[36,88],[77,147],[20,26],[33,18],[53,11],[30,15],[87,66],[36,17],[29,29],[55,79],[19,5],[214,88],[46,6],[72,-27],[50,58],[64,19],[46,30],[62,179],[-30,66],[-3,84],[-10,41],[17,164],[58,26],[60,8],[100,86],[49,73],[-28,74],[-26,41],[-42,83],[-11,53],[4,35],[24,51],[10,61],[48,106],[26,85],[64,73],[16,49],[3,67],[87,21],[46,28],[48,51],[-4,53],[-29,95],[12,53],[21,40],[55,22],[73,-18],[47,-21],[104,-28],[28,-18],[26,-105],[17,-22],[31,-1],[59,40],[64,11],[8,25],[-14,73],[23,57],[38,12],[26,21],[108,55],[86,4],[81,16],[75,35],[49,31],[87,33],[46,-11],[85,-39],[73,-11],[47,1],[146,30],[69,2],[80,-5],[65,9],[35,35],[92,69],[28,94],[14,15],[37,-20],[33,-1],[65,34],[33,53],[59,12],[37,-36],[55,-35],[48,14],[29,61],[63,68],[22,57],[16,96],[24,54],[32,32],[9,31],[54,87],[10,56],[-16,55],[-76,68],[-19,70],[53,141],[33,122],[49,65],[29,54],[22,78],[28,26],[52,-2],[92,70],[16,60],[24,46],[-6,66],[18,55],[66,134],[22,59],[50,175],[-11,38],[-93,96],[-38,98],[-57,94],[-28,125],[2,49],[40,86],[2,86],[9,37],[23,33],[123,116],[13,52],[36,70],[77,65],[16,22],[25,81],[35,32],[102,18],[44,3],[87,-10],[60,-31],[78,-60],[2,231],[615,-6],[-1,-308],[-141,-4],[-2,-65],[26,-15],[47,1],[99,37],[69,38],[38,35],[21,2],[1,-68],[-29,-8],[1,-32],[28,-47],[1,-290],[-2,-152],[-2,-1393],[-2,-1553],[0,-2199],[3,-70],[-1,-1066],[0,-1899],[-44,-7],[-84,-32],[-51,-13],[-24,-44],[-33,-15],[-70,39],[-50,-20],[-19,-29],[-46,-8],[-83,-29],[-51,46],[-33,4],[-90,-39],[-35,-25],[-50,-79],[-65,-16],[-33,48],[-41,20],[-58,-27],[-39,-45],[-58,-3],[-46,-115],[-38,-39],[-11,-75],[-10,-14],[-78,-43],[-37,-7],[-53,3],[-21,-37],[-57,-6],[-109,-26],[-52,-5],[-52,21],[-56,41],[-40,-3],[-195,12],[-6,25],[-73,17],[-27,-16],[-65,2],[-38,-56],[-42,-38],[-46,-29],[-55,8],[-42,-11],[-64,4],[-42,-42],[-35,-16],[-33,1],[-43,30],[-43,6],[-58,-17],[-109,-13],[-47,27],[-39,38],[-60,29],[-107,4],[-61,-12],[-62,16],[-28,-2],[-33,-25],[-48,-12],[-42,36],[-41,19],[-87,6],[-67,39],[-151,45],[-136,18],[-105,33],[-51,30],[-67,21],[-60,0],[-50,-13],[-143,-99],[-38,-9],[-57,-31],[-54,-77],[-39,-72],[-57,-48],[-95,-101],[-11,-18],[-48,-13],[-82,-8],[-97,2],[-57,-20],[-40,-83],[-43,-35],[-42,-59],[-33,-30],[-24,-7],[-88,25],[-79,51],[-44,-8],[-66,7],[-41,-2],[-26,30],[-42,12],[-73,-36],[-84,-10],[-44,-38],[-60,-148],[-44,4],[-33,-62],[-34,-38],[-59,-125],[-82,-8],[-28,8],[-70,-74],[-73,-24],[-183,-7],[-44,36],[-101,38],[-96,12],[-55,0],[-64,-30],[-62,-56],[-94,-52],[-44,-54],[-58,-46],[-60,15],[-107,-11],[-103,-22],[-106,-17],[-57,-15],[-37,-24],[-57,-85],[-43,-32],[-129,-63],[-89,-61],[-64,10],[-41,22],[-60,50],[-46,20],[-134,-13],[-266,-43],[-62,-33],[-65,19],[-84,8],[-102,27],[-84,-4],[-151,-63],[-55,-40],[-37,-46],[-36,-26],[-52,-7],[-34,-31],[-63,-38],[-42,-1],[-104,38],[-18,18],[-22,83],[-7,45],[-27,52],[-90,44],[-77,8],[-96,-8],[-110,-22],[-31,3],[-97,32],[-96,65],[-47,10],[-57,-5],[-65,-16],[-25,23],[13,75],[-25,60],[-29,43],[-59,23],[-47,-18],[-44,-3],[-105,9],[-19,-8],[-15,-51],[-63,-65],[-49,-59],[-103,-97],[-54,-37],[-88,-77],[-20,-13],[-134,-58],[-36,-26],[-37,-48],[-46,-159],[-58,-57],[-11,-28],[4,-117],[-28,-50],[-54,-41],[-32,-51],[-18,-14],[-99,-16],[-53,-32],[-58,-75],[-65,-57],[-50,18],[-51,69],[-70,35],[-37,-11],[-54,-50],[-32,-6],[-45,34],[-59,8],[-28,-9],[-89,-55],[-59,-9],[-40,14],[-35,-9],[-34,-43],[-48,-9],[-149,29]],[[14853,10657],[-40,77],[-37,89]],[[1486,4058],[62,28],[363,85],[34,15],[108,60],[71,21],[219,35],[58,23],[35,32],[254,295],[25,24],[50,23],[275,77],[93,30],[26,15],[382,256],[50,25]],[[6934,6702],[67,-6],[94,26],[20,0],[46,-28],[23,-39],[39,-112],[78,-207],[48,-64],[75,-65],[21,-26],[46,-95]],[[7491,6086],[-155,-14],[-80,-11],[-122,36],[-33,20],[-84,63],[-118,29],[-31,1],[-20,-23],[-16,-81],[-46,-121],[-16,-64],[-48,-50],[-20,-52],[-37,-61],[-46,-53],[-17,-59],[-17,-21],[-37,-14],[-53,1],[-56,-31],[-48,31],[-38,-3],[-48,-41],[-43,0],[-34,-35],[-23,-47],[-59,-74],[-66,-46],[-15,-21],[-24,-74],[-57,-76],[-20,-65],[-3,-70],[-57,-97],[-47,-40],[-15,-55],[-2,-108],[23,-113],[26,-33],[2,-29],[-22,-56],[-8,-49],[-41,-28],[-11,-50]],[[5809,4402],[-77,-64],[-54,-11],[-21,-66],[-31,-36],[-54,11],[-21,-47],[-53,-60],[-61,-20],[-84,-62],[-64,-25],[-69,-1],[-65,28],[-108,39],[-31,29],[-64,-17],[-21,27],[-91,48],[-88,4],[-128,-37],[-111,-69],[-105,-32],[-50,-30],[-50,-50],[-54,-39],[-37,-14],[-81,-8],[-52,-15],[-86,14],[-39,-1],[-41,-38],[-13,-79],[8,-24],[-8,-54],[-52,-33],[-27,-69],[-2,-39],[-34,1],[-79,-129],[-22,-91],[-56,-57],[-25,-14],[-47,-73],[-85,-35],[-93,59],[-49,9],[-50,43],[-69,-12],[-62,-41],[-27,23],[-61,6],[-28,28],[-66,20],[-88,66],[-68,3],[-48,45],[-45,1],[-59,27],[-90,-22],[-54,-29],[-40,-31],[-47,-4],[-98,28],[-9,20],[-42,10],[-42,77],[-62,30],[-21,27],[-68,37],[-85,59],[-32,76],[-30,33],[-20,40],[-15,60],[-31,52],[-122,52],[-96,11],[-45,19],[-128,72]],[[5809,4402],[-16,-80],[17,-40],[4,-50],[25,-77],[55,-141],[-12,-144],[-13,-68],[4,-186],[-4,-77],[-24,-42],[-70,32],[-116,-10],[-20,-9],[-55,-51],[-119,-65],[-72,-54],[-33,-14],[-42,-2],[-44,15],[-57,-4],[-46,22],[-30,-4],[-26,-32],[-61,6],[-94,-4],[-42,-74],[-39,-13],[-44,52],[-67,-34],[-28,-22],[-31,-6],[-33,12],[-35,-33],[-2,-25],[7,-146],[40,-135],[6,-73],[-15,-118],[50,-103],[14,-40],[68,-117],[21,-85],[24,-50],[50,-53],[77,-68],[59,-5],[26,-12],[22,-35],[33,-133],[48,-69],[52,-113],[65,-37]],[[5286,1788],[-73,-73],[-38,-86],[-12,-40],[0,-102],[-27,-83],[-41,-47],[-27,-19],[-116,-52],[-70,-7],[-96,-39],[-43,-4],[-49,-32],[-70,-90],[-40,-3],[-24,-18],[-28,-100],[-49,-4],[-57,52],[-33,-10],[-26,-79],[-4,-95],[9,-144],[-40,-40],[-24,-93],[-56,-76],[-30,-17],[-56,-14],[-32,-35],[-53,-116],[-31,-87],[-38,-70],[-27,-14],[-58,12],[-11,-15],[-80,22],[-28,14],[-54,0],[-45,26],[-20,45],[-30,44],[-31,23],[-38,6],[-32,61],[-35,44],[-102,91],[-65,26],[-83,-2],[-40,-14],[-73,-39],[-79,-31],[-40,-23],[-81,-83],[-53,-37],[-100,-139],[-63,-47],[-49,-7],[-38,28],[-19,27],[-94,62],[-148,61],[-49,37],[-44,22],[-63,17],[-29,-1],[-42,-36],[-41,-71],[-48,-51],[-107,-37],[-32,-34],[-26,-63],[-41,-11],[-28,11],[-20,27],[-34,-1],[-78,-39],[-48,-74],[-11,-2],[-141,97],[-55,41],[-71,37],[-36,1],[-45,-29],[-58,11],[-71,51],[-42,61],[-62,15],[-9,36],[-50,26],[-56,-8],[-237,801],[-30,105],[-49,210],[-139,504],[-167,610]],[[337,2569],[525,810],[25,36],[66,74],[502,542],[31,27]],[[7730,6070],[39,24],[142,134],[24,29],[47,94],[55,63],[37,25],[49,20],[141,40],[50,0],[52,-31],[46,-5],[64,36],[47,10],[34,17],[37,37],[51,15],[159,-18],[38,2],[201,56],[39,1],[30,16],[109,109],[44,55],[84,71],[54,67],[90,44],[48,37],[107,37],[25,17],[66,139],[85,80],[61,106],[35,34],[33,68],[116,74],[57,48],[36,20],[72,20],[66,-14],[70,51],[48,-7],[43,7],[24,23],[15,52]],[[10500,7773],[17,-12],[1,-56],[62,-80],[26,-64],[6,-48],[45,-201],[38,-110],[38,-14],[90,-52],[33,-43],[72,-34],[26,-56]],[[10954,7003],[19,-18],[48,-12],[10,-75],[24,-50],[37,-42],[33,-58],[56,-58],[56,-40],[20,-3],[24,-35],[3,-29],[-23,-44],[-6,-44],[-35,-74],[22,-110],[89,-22],[26,33],[21,47],[17,-40],[25,-13],[15,-31],[34,14],[27,-30],[40,26],[30,-43],[8,-78],[43,-10],[34,-71],[-9,-81],[-45,-59],[-35,-85],[-32,-31],[-15,-48],[67,-10],[21,10],[45,-8],[74,-54],[10,-37],[-18,-10],[-41,50],[-63,-9],[-85,-43],[27,-20],[39,15],[61,-27],[8,-34],[83,-39],[43,13],[20,18]],[[11806,5604],[-10,-39],[-29,-20],[-33,1],[-99,39],[-54,6],[-28,-18],[-38,-65],[-46,-23],[-46,-40],[-23,-30],[-50,-98],[-10,-10],[-57,4],[-90,-31],[-72,-64],[-57,-67],[-45,-12],[-47,32],[-35,9],[-94,4],[-107,-16],[-71,-33]],[[10665,5133],[2,13],[157,532],[-18,2],[-44,38],[-20,36],[-42,19],[-41,37],[-93,-24],[-17,-10],[-88,5],[-27,-16],[-29,15],[-46,-5],[-28,17],[-46,45],[-31,22],[-16,73],[-47,23],[-66,58],[-18,88],[4,32],[22,29],[29,17],[-16,32],[-19,146],[-42,34],[-40,-14],[-88,6],[-66,-36],[-57,-63],[-40,-10],[-18,22],[-33,-8],[-25,-59],[-19,-109],[-67,-14],[-32,-19],[-28,-32],[-40,15],[-37,27],[-73,88],[-56,7],[-40,-11],[-36,-31],[-54,-21],[-31,1],[-48,27],[-63,0],[-40,42],[-34,10],[-57,-27],[-19,27],[-42,9],[-25,43],[-24,17],[-67,-8],[-14,-18],[-62,-12],[-15,-49],[-53,8],[-30,24],[-51,11],[-57,-48],[-54,4],[-51,-21],[-40,-49],[-40,-103],[-22,-20],[-65,-31],[-75,-14],[-45,-36],[-61,-61],[-16,-53],[-53,-23],[-56,-35],[-104,-140]],[[7822,5604],[-83,90],[44,57],[-7,69],[-30,28],[-93,10],[-54,42]],[[7599,5900],[22,38],[45,97],[64,35]],[[7786,6454],[-13,-22],[-22,-115],[-10,-86],[-14,-72],[3,-89]],[[7599,5900],[-21,-35],[-43,45],[-20,35],[-9,93],[-15,48]],[[6898,6791],[28,26],[95,104],[17,10],[57,-8],[137,103],[51,24],[19,-5],[78,-77],[35,-22],[96,-129],[18,-71],[-8,-88],[-16,-30],[-37,-13],[318,-161]],[[8784,8301],[2,-82],[-24,-53],[-34,-112],[-7,-139],[-27,-106],[-47,-97],[-64,-103],[-24,-23],[-56,-15],[-31,-39],[-29,-129],[-53,-53],[-82,-30],[-39,-34],[-45,-54],[-24,-5],[-60,4],[-48,-16],[-21,-43],[-56,-66],[-61,-81],[-12,-42],[-44,-50],[-22,-83],[-13,-85],[12,-68],[-17,-61],[-11,-83],[-10,-28],[-51,-71]],[[6704,7301],[54,43],[326,151],[127,115],[56,32],[83,31],[77,14],[53,20],[131,83],[53,63],[67,68],[45,31],[62,28],[102,71],[91,94],[99,90],[50,79],[42,28],[46,-5],[128,-56],[78,-68],[56,-22],[29,6],[123,54],[102,50]],[[10654,8658],[24,136],[14,38],[32,34]],[[10724,8866],[90,37],[97,4],[93,-27],[81,0],[58,-51],[18,-37],[41,-57],[25,-91],[22,-25],[54,-32],[57,-50]],[[11360,8537],[-3,-88],[13,-72],[43,-121],[8,-71],[-2,-99],[-33,-28],[-26,-46],[-8,-94],[31,-104],[-8,-111],[19,-65],[54,-134],[-10,-64],[-54,-86],[-84,-62],[-30,-13],[-64,-51],[-25,-28],[-75,-125],[-25,-23],[-49,-11],[-37,-33],[-41,-5]],[[10500,7773],[-7,44],[-38,89],[-41,63],[-17,61],[6,115],[13,39],[121,200],[91,155],[26,119]],[[2348,6689],[-24,-54],[-18,-19],[-66,-37],[-24,-52],[4,-45],[-14,-102],[14,-66],[-9,-134],[28,-1],[-17,-93],[39,-14],[67,-3],[42,-44],[31,-9],[55,-56],[38,-10],[22,8],[38,66],[-4,40],[15,39],[86,-16],[41,-2],[39,14],[34,38]],[[337,2569],[-285,1052],[-33,124],[-1,966],[-3,1140],[1,1113],[-2,703]],[[12479,10840],[22,32],[7,58],[39,52],[-1,36],[17,63],[8,71],[-3,54],[51,59],[84,37],[38,1],[39,20],[25,30],[46,0],[48,27],[48,139],[40,63],[27,9],[76,-3],[78,23],[85,51],[53,45],[85,24],[27,38],[50,24],[50,36],[53,92],[35,7],[162,101],[37,32],[60,33],[59,55],[39,68],[45,63],[73,68],[93,52],[61,49],[62,94],[24,52],[45,54],[33,26],[85,122],[85,-8],[32,29],[5,34],[35,4],[45,28],[28,29],[83,46],[34,-27],[-4,-98],[15,3],[74,71],[14,27]],[[14930,12935],[26,-7],[52,24],[63,55],[48,89],[31,26],[22,-8],[33,-50],[21,-3],[112,70],[29,32],[42,28],[36,13],[37,-8],[50,10],[43,-13],[82,1],[38,43],[46,22],[78,10],[79,82],[21,10],[92,13],[38,21],[30,32],[69,-7]],[[7822,5604],[115,-125],[49,-59],[117,-123],[48,-85],[52,-42],[57,-17],[27,-20],[79,-144],[33,-42],[35,-21],[48,-8],[300,-30],[32,-13],[35,-46],[19,-51],[31,-35],[52,-12],[50,-48],[6,-31],[-2,-70],[17,-33],[49,-53],[43,-93],[32,-93]],[[9146,4310],[-23,-13],[-37,-50],[-43,-13],[-214,-139],[-56,-11],[-52,29],[-85,-16],[-24,-10],[-31,-43],[-47,-42],[-37,-52],[-112,-189],[-132,-138],[-40,-74],[-30,-150],[-16,-107],[-36,-83],[-36,-13],[-20,9],[-42,54],[-57,21],[-66,-9],[-132,23],[-29,-1],[-76,-48],[-49,-22],[-59,2],[-41,-8],[-83,-43],[-40,-4],[-188,59],[-156,-15],[-60,-26],[-91,-52],[-85,-58],[-43,20],[-23,50],[-43,51],[-36,28],[-39,-32],[-33,-6],[-30,37],[-29,-6],[-17,-47],[-2,-82],[-23,-58],[0,-33],[-29,-85],[-34,-26],[-48,15],[-42,79],[-42,23],[-59,-21],[-25,-62],[-20,-6],[-23,-89],[-28,-68],[1,-26],[-34,-118],[-84,-41],[-45,-42],[-17,-36],[-33,-43],[-49,-45],[-70,-79],[-98,-78],[-38,1],[-23,-11],[-98,-84],[-74,-43],[-38,-8],[-70,1],[-25,-44],[9,-41],[-39,-59],[-9,-106],[-33,-70]],[[6676,8052],[67,61],[57,66],[44,20],[46,-2],[36,28],[18,35],[68,62],[30,14],[62,64],[148,113],[55,15],[44,22],[73,51],[67,81],[3,58],[18,16],[81,15],[7,41],[36,43],[25,7],[47,92],[7,-53],[16,-58],[8,-78],[36,-98],[10,-50],[46,-13],[58,-36],[36,2],[55,62],[57,-13],[49,3],[31,12],[47,39],[77,-15],[52,69],[45,5],[42,-11],[21,16],[18,57],[49,23],[44,-12],[81,-32]],[[8593,8773],[4,-94],[12,-66],[34,-47],[27,-55],[40,-15],[106,42],[19,-3],[11,87],[26,-19],[0,-51],[37,-43],[33,-18],[-16,-55],[8,-43],[-20,-31]],[[8914,8362],[-130,-61]],[[10553,9977],[16,15],[77,-28],[52,18],[110,-66],[29,7],[21,43],[21,5],[71,-50],[36,8],[32,-6],[43,38],[45,23],[53,16],[35,72],[61,-4],[27,-20],[43,-14],[12,28],[54,25],[43,-1],[28,-12],[58,-62],[27,2],[16,28],[74,54],[35,-6],[19,38],[38,10],[45,-7]],[[11868,9931],[4,-58],[-42,-56],[-8,-94],[-24,-114],[-43,-64],[-54,-17],[-68,-32],[-96,-70],[-42,-51],[-23,-64],[-13,-62],[5,-42],[21,-86],[9,-86],[55,-4],[25,-29],[58,-2],[57,29],[98,-3],[34,6],[2,-27],[38,-57],[-2,-52],[16,-26],[12,-103],[51,-12],[32,-24],[18,-77],[36,0],[28,38],[22,-3],[50,-36],[-72,-204],[-40,-67],[-27,-25],[-69,-38],[-176,-70],[-44,26],[-88,123],[-27,31],[-76,20],[-42,54],[-35,26],[-68,8]],[[10724,8866],[-7,10],[-106,38],[-30,0],[-73,-18],[-13,30],[8,30],[6,141],[-34,44],[-16,63],[-17,26],[0,76],[35,57],[31,-9],[43,105],[-15,37],[-1,54],[16,57],[-8,39],[-22,24],[-42,14],[-11,32],[29,53],[45,29],[-1,48],[-22,41],[1,20],[38,40],[-5,30]],[[8914,8362],[130,40],[164,78],[37,8],[134,1],[129,-21],[102,-66],[42,14],[87,62],[27,24],[37,12],[58,-1],[52,10],[77,-18],[72,-28],[30,-22],[24,-45],[34,-35],[36,2],[47,-10],[22,9],[42,46],[17,-8],[22,-62],[21,-9],[49,30],[31,60],[48,9],[44,47],[68,9],[33,67],[0,24],[24,69]],[[8593,8773],[74,18],[16,20],[-5,37],[11,82],[24,29],[52,4],[51,-21],[32,13],[16,35],[28,22],[35,9],[45,28],[87,119],[24,13],[5,28],[-15,32],[-3,47],[21,56],[60,58],[66,2],[24,30],[13,50],[20,17],[5,45],[-13,50],[39,26],[57,65],[110,118],[44,70],[45,30],[25,5],[43,-27],[16,39],[19,12],[50,-7],[20,7],[41,43],[71,22],[14,13],[6,57],[21,16],[69,-11],[58,51],[42,-2],[35,-25],[42,-49],[22,-68],[110,-2],[19,30],[-2,32],[16,25],[42,-15],[54,-9],[69,-54],[45,-48],[27,2],[18,35]],[[10665,5133],[-32,-32],[-17,-34],[-37,-8],[-29,23],[-13,43],[-40,5],[-35,-39],[-10,-58],[-46,-41],[-41,-50],[-66,-30],[-59,-56],[-25,-60],[-43,-139],[-18,-26],[-51,-38],[-125,-43],[-53,-5],[-124,13],[-53,-16],[-39,-36],[-48,-30],[-111,-27],[-122,-13],[-81,-25],[-34,-69],[-73,1],[-94,-33]],[[14473,9326],[-43,-49],[-86,-31],[-60,-13],[-80,-26],[-31,-27],[-28,-65],[-46,3],[-24,-26],[-17,-45],[-86,-22],[-55,-56],[-53,1],[-180,-4],[-88,-31],[-36,-34],[-8,-49],[32,-112],[18,-88],[-9,-69],[-56,-108],[-24,-74],[-22,-33],[-37,-21],[-27,-2],[-98,12],[-47,-1],[-70,-32],[-96,-17],[-52,-39],[-42,-18],[-60,-1],[-110,18],[-166,4],[-85,-16],[-46,-17],[-68,-46],[-20,-20],[-12,-38],[-26,-189],[-13,-42],[-39,-43],[-59,-28],[-34,-30],[-6,-33],[18,-73],[13,-75],[-1,-133],[-20,-87],[-62,-69],[-8,-39],[24,-93],[37,-58],[7,-71],[21,-39],[106,-23],[15,-29],[-12,-61],[-46,-58],[-38,-22],[-86,-12],[-63,-51],[-14,-37],[3,-45],[30,-65],[6,-49],[-11,-70],[-31,-105],[-25,-45],[-24,-13],[-41,-3],[-75,7],[-95,-63],[-20,-34],[-13,-154],[-14,-75],[-43,-118],[-35,-79],[0,-21],[36,-84],[0,-67],[-11,-52]],[[5442,12006],[-14,-37],[-134,-259],[-125,-316],[-65,-147],[-13,-46],[-49,-237],[-17,-50],[-20,-34],[-45,-43],[-68,-31],[-129,-25],[10,-33],[58,-90],[26,-74],[47,-99],[31,-52],[46,-92],[26,-76],[23,-35],[32,-25],[62,-24],[15,-38]],[[5139,10143],[12,-54],[-6,-40],[-27,-41],[-7,-61],[15,-37],[48,-54],[32,-77],[35,-144],[20,-47],[30,-38],[61,-54],[26,-37],[45,-104],[22,-36],[77,-72],[66,-85],[46,-29],[33,-8],[50,3],[121,40],[50,30],[57,-40],[48,6],[48,-10],[13,-21],[6,-56],[29,-69],[56,-83],[43,-50],[56,-102],[56,-147],[26,-36],[62,-54],[32,-56],[20,-115],[27,-52],[26,-27]],[[5300,15137],[21,30],[11,44],[39,70],[44,18],[75,61],[34,19],[36,4],[78,-67],[28,-118],[21,-22],[38,11],[31,53],[12,91],[28,45],[55,25],[47,-4],[84,-23],[37,2],[20,17],[20,41],[-1,76],[25,40],[27,1],[44,-19],[48,-43],[25,-13],[36,0],[38,35],[9,88],[27,48],[35,17],[78,-13],[23,-11],[6,-34],[-54,-15],[-23,-45],[63,-84],[14,-2],[140,19],[18,23],[-12,47],[13,7],[43,-23],[40,-10],[24,-37],[4,-91],[42,-3],[28,-14],[23,8],[19,57],[73,12],[30,-9],[16,-39],[-6,-50],[30,-38],[56,-2],[58,-19],[34,-36],[34,-64],[30,-34],[61,-14],[37,45],[14,38],[34,23],[36,52],[13,1],[88,-28],[34,11],[75,-35],[46,1],[31,-27],[32,3],[29,37],[27,7],[46,-16],[56,16],[23,29],[50,26],[34,-7],[42,-41],[81,-112],[17,-11],[78,14],[19,13],[26,49],[52,25],[57,-19],[8,-36],[-59,-56],[2,-48],[26,-24],[14,-42],[55,-19],[87,22],[38,-14],[67,5],[15,-51],[34,-29],[23,-41],[55,12],[22,57],[52,15],[21,-5],[35,31],[87,-59],[43,19],[39,5],[64,-6],[28,-66],[43,-75],[29,-68],[24,-37],[46,-35],[15,-32],[35,-19],[21,-26],[25,-5],[55,-47],[30,-37],[86,-67],[26,-30],[29,-2],[5,33],[39,15],[18,-42],[41,-39],[20,-6],[55,-90],[46,-35],[21,12],[33,-17],[47,-56],[48,-17],[50,-66],[23,25],[21,-55],[28,9],[68,4],[28,-14]],[[10165,14095],[-42,-44],[-105,1],[-37,25],[-78,-1],[-119,-57],[-78,7],[-65,-4],[-35,-21],[-46,-44],[-32,-52],[-67,-14],[-114,0],[-56,-15],[-94,5],[-37,-3],[-45,-31],[-54,-11],[-58,20],[-71,-48],[-60,-6],[-22,-11],[-42,-64],[-32,-18],[-39,16],[-27,-31],[-14,-59],[-14,5],[-14,53],[-40,-2],[-49,51],[-31,-5],[-21,-60],[-43,-10],[-34,14],[-20,-9],[-15,-50],[3,-38],[-39,-106],[-19,-91],[-7,-71],[-22,-67],[-29,-37],[-19,-42],[-38,-54],[-99,-75],[-66,-6],[-10,-26]],[[8070,13009],[-61,24],[-71,12],[-85,5],[-29,24],[-42,-6],[-34,38],[-24,93],[-52,36],[-41,9],[-56,-33],[-30,-5],[-52,38],[-51,-21],[-83,-74],[-18,-63],[-55,-57],[-44,-76],[-77,-62],[-30,-82],[-6,-45],[-34,-138],[-5,-54],[-22,-35],[-77,-74],[-83,-64],[-76,-29],[-39,-60],[-29,-21],[-50,4],[-18,-10],[-93,-77],[-79,-96],[-101,-39],[-69,-41],[-58,-7],[-24,6],[-113,10],[-52,-10],[-98,7],[-170,1],[-97,9],[-126,-11],[-174,-29]],[[8070,13009],[71,-25],[88,-39],[38,-34],[56,13],[95,-37],[178,-111],[82,-20],[58,-39],[79,-23],[44,25],[70,1],[52,-32],[66,6],[87,-5],[19,-24],[7,-67],[15,-42],[40,-50],[48,-22],[20,-43],[56,-10],[22,-56],[85,-72],[16,-50],[99,-46],[2,-109],[18,-56],[43,-67],[14,-98],[-53,-43],[-5,-72],[14,-31],[47,-57],[32,-73],[51,24],[70,3],[1,-27],[-31,-22],[-52,-20],[-38,-59],[-30,-64],[-28,-33],[-3,-62],[20,-70],[63,14],[83,66],[54,24],[52,7],[26,19],[35,4],[88,-86],[45,14],[31,-39],[47,-4],[56,-31],[86,-18],[22,-15],[109,-5],[79,-52],[36,-41],[41,-71],[17,-14],[43,-1],[106,20],[79,-29],[42,2],[37,25],[23,2],[42,-28]],[[10975,11034],[-21,-19],[-37,-101],[-80,-94],[-64,-40],[-36,-42],[-58,-19],[-58,-5],[-174,-132],[-26,-41],[-39,-40],[-30,-50],[-28,6],[-67,-13],[-85,-43],[-29,-39],[-47,-27],[-286,-72],[-44,-49],[-26,-17],[-42,-5],[-35,17],[-54,-24],[-26,0],[-60,24],[-49,-35],[-57,-9],[-75,28],[-35,29],[-51,8],[-79,-43],[-28,1],[-35,25],[-58,80],[-29,11],[-99,-21],[-73,8],[-87,-37],[-61,-5],[-35,-25],[-38,30],[-20,-8],[-76,3],[-36,-14],[-42,-2],[-81,25],[-25,-29],[-20,-4],[-51,41],[-21,1],[-70,-23],[-106,19],[-16,20],[4,67],[-13,72],[-26,34],[-52,39],[-25,53],[0,26],[22,56],[-1,34],[-39,16],[-80,56],[-63,26],[-65,51],[-99,49],[-33,35],[-52,74],[-51,52],[-44,8],[-28,-18],[-16,-44],[-45,-34],[-63,5],[-23,11],[-40,-13],[-13,-39],[-67,-68],[-29,-38],[-33,-22],[-34,-42],[-36,-6],[-68,16],[-75,49],[-29,34],[-64,-2],[-35,21],[-30,-1],[-67,-90],[-15,-64],[-39,-42],[-6,-51],[-23,-19],[19,-121],[-22,-34],[-3,-55],[-25,-50],[-48,-18],[-38,-57],[-42,11],[-38,-17],[-63,-83],[-58,-48],[-12,-28],[-47,-50],[-29,-11],[-78,22],[-80,4],[-46,-12],[-31,3],[-48,-33],[-38,2],[-64,-23],[-42,29],[-62,-28],[-79,10],[-60,14],[-51,-34],[-53,24],[-50,41],[-110,48],[-64,9],[-74,54]],[[12114,10393],[21,10],[27,49],[12,49],[1,53],[-13,16],[23,34],[-7,49],[9,37],[-39,27],[-26,7],[40,47],[-20,30],[12,31],[-18,58],[18,29],[-14,31],[-49,37],[-9,43],[-53,3],[-14,48],[5,45],[28,20],[-10,31],[4,41],[-18,56],[26,38],[-2,38],[-40,101],[-21,30],[-34,135]],[[11953,11616],[-46,104],[3,30],[35,50],[86,44],[123,97],[103,68],[157,57],[108,64],[104,40],[123,58],[106,3],[65,36],[50,64],[86,8],[33,10],[48,38],[42,70],[87,93],[104,37],[109,19],[48,2],[34,11],[62,49],[101,38],[80,15],[156,74],[40,12],[40,25],[67,20],[91,33],[69,-2],[98,-25],[89,63],[41,8],[60,-2],[38,27],[171,48],[68,-3],[98,-64]],[[10165,14095],[24,-8],[32,-35],[33,-17],[72,-91],[10,-31],[50,-70],[30,-95],[7,-89],[26,-22],[77,5],[68,-34],[66,16],[44,-16],[58,2],[79,-26],[59,-32],[43,-3],[30,-15],[13,-55],[23,-34],[62,-52],[65,-32],[24,-30],[57,-41],[80,8],[82,-34],[83,-51],[51,-17],[54,-9],[79,-67],[81,-21],[46,-49],[38,-17],[19,-27],[51,-26],[24,-3],[31,18],[49,2],[54,16],[31,21],[24,-5],[29,-29],[33,4],[25,-18],[123,-7],[37,57],[42,2],[42,-60],[29,-15],[40,-3],[50,-19],[25,28],[49,31],[43,12],[49,-18],[61,0],[35,27],[20,1],[42,-27],[24,2],[46,41],[23,5],[29,-34],[34,-6],[23,-18],[54,28],[30,-13],[52,12],[40,-13],[58,3],[44,-14],[87,74],[24,-1],[39,-25],[41,60],[73,2],[57,46],[102,50],[45,31],[47,5],[65,36],[109,75],[53,12],[40,20],[99,-21],[32,-33],[53,8],[40,-29],[34,0],[67,-20],[31,9],[96,3],[35,-21],[59,19],[48,-4],[79,7],[40,-18],[33,2],[59,40],[82,18],[87,11],[57,2],[57,-14],[53,11],[49,-2],[90,15],[72,36],[57,-2],[44,14],[88,62],[54,21],[54,89],[30,19],[89,23],[73,2],[46,30],[49,54],[34,49],[49,48],[77,12],[103,-9],[67,8],[49,20],[63,-13],[80,26],[103,23],[45,-4],[62,16],[56,26],[87,15],[93,41],[34,21],[45,52],[49,41],[50,54],[271,16],[24,-2]],[[11953,11616],[-15,-20],[-34,-91],[-32,-40],[-158,-124],[-45,-19],[-142,-39],[-223,-2],[-71,13],[-51,3],[-33,-23],[-65,-104],[-109,-136]]],"transform":{"scale":[0.0000336069016462642,0.000021977086596554112],"translate":[-121.02771,38.217951]},"objects":{"Geometry\\06-005":{"type":"GeometryCollection","geometries":[{"arcs":[[0,1,2,3,4,5,6,7]],"type":"Polygon","properties":{"GEOID":"060050001014"}},{"arcs":[[8,9,10,-4]],"type":"Polygon","properties":{"GEOID":"060050001012"}},{"arcs":[[-6,11,12,13,14]],"type":"Polygon","properties":{"GEOID":"060050001022"}},{"arcs":[[15,16,17,18,19,20]],"type":"Polygon","properties":{"GEOID":"060050003012"}},{"arcs":[[21,22,-16,23]],"type":"Polygon","properties":{"GEOID":"060050003011"}},{"arcs":[[-18,24,25,26,27,28,29,30,31]],"type":"Polygon","properties":{"GEOID":"060050003031"}},{"arcs":[[32,33,34,-13,35,-10]],"type":"Polygon","properties":{"GEOID":"060050001021"}},{"arcs":[[36,-30,37,38,39]],"type":"Polygon","properties":{"GEOID":"060050003041"}},{"arcs":[[-40,40,41,42]],"type":"Polygon","properties":{"GEOID":"060050003042"}},{"arcs":[[43,44,45,46,47,48,49]],"type":"Polygon","properties":{"GEOID":"060050005001"}},{"arcs":[[50,-50,51,-38,-29,52]],"type":"Polygon","properties":{"GEOID":"060050004012"}},{"arcs":[[53,-53,-28,54]],"type":"Polygon","properties":{"GEOID":"060050004014"}},{"arcs":[[55,56,57,-45,58]],"type":"Polygon","properties":{"GEOID":"060050004024"}},{"arcs":[[-20,59,-31,-37,-43,60]],"type":"Polygon","properties":{"GEOID":"060050003032"}},{"arcs":[[61,62,-33,-9,-3]],"type":"Polygon","properties":{"GEOID":"060050001011"}},{"arcs":[[-39,-52,-49,63,64,-41]],"type":"Polygon","properties":{"GEOID":"060050005003"}},{"arcs":[[65,66,67,-55,-27]],"type":"Polygon","properties":{"GEOID":"060050004013"}},{"arcs":[[68,-8,69,-57,70]],"type":"Polygon","properties":{"GEOID":"060050004022"}},{"arcs":[[-54,-68,71,-59,-44,-51]],"type":"Polygon","properties":{"GEOID":"060050004023"}},{"arcs":[[72,-71,-56,-72,-67]],"type":"Polygon","properties":{"GEOID":"060050004011"}},{"arcs":[[-48,73,-64]],"type":"Polygon","properties":{"GEOID":"060050005002"}},{"arcs":[[-58,-70,-7,-15,74,-46]],"type":"Polygon","properties":{"GEOID":"060050004021"}},{"arcs":[[-11,-36,-12,-5]],"type":"Polygon","properties":{"GEOID":"060050001013"}},{"arcs":[[75,76,-25,-17,-23]],"type":"Polygon","properties":{"GEOID":"060050002011"}},{"arcs":[[77,78,79,-22]],"type":"Polygon","properties":{"GEOID":"060050002021"}},{"arcs":[[-80,80,81,-76]],"type":"Polygon","properties":{"GEOID":"060050002013"}},{"arcs":[[-62,-2,82,83]],"type":"Polygon","properties":{"GEOID":"060050001015"}},{"arcs":[[84,-34,-63,-84,85,-81,-79]],"type":"Polygon","properties":{"GEOID":"060050002022"}},{"arcs":[[-19,-32,-60]],"type":"Polygon","properties":{"GEOID":"060050003033"}},{"arcs":[[-82,-86,-83,-1,-69,-73,-66,-26,-77]],"type":"Polygon","properties":{"GEOID":"060050002012"}}]}}}