{"type":"Topology","arcs":[[[9710,12270],[43,-19],[38,-104],[99,8],[34,-29],[4,-50],[45,-57],[-19,-45],[9,-16],[51,-9],[27,-23],[23,-44],[70,7],[28,-19],[46,-4],[29,-38],[127,-9],[48,-43],[20,0],[69,46],[64,77],[85,66],[49,25],[86,-23],[6,51],[51,10],[24,31],[77,42],[31,30],[0,42],[93,-66],[95,-38],[33,22],[62,-4],[45,-40],[17,42],[57,13],[28,-5],[34,18],[29,51],[0,95],[79,47],[63,-15],[72,47],[65,-2],[29,44],[23,5],[26,35],[35,11],[39,45],[51,-8],[92,-39],[65,-12],[103,2],[26,20],[23,56]],[[12258,12497],[14,-18],[56,-20],[76,-57],[37,-5],[195,74],[119,23],[195,100],[69,23],[21,-26],[-28,-55],[8,-56],[-48,-14],[-60,-52],[-16,-41],[5,-28],[71,-157],[-38,-45],[-23,-9],[-62,17],[-40,-33],[-3,-21],[-71,-67],[-52,-19],[-54,-62],[-89,-38],[-38,-5],[-3,-27],[-55,-29],[-31,-111],[-86,-98],[-2,-32],[-76,1],[-60,-29],[6,-31],[40,-18],[46,-129],[30,-35],[37,-14],[69,-52],[13,-83],[-6,-23],[-51,-25],[-19,-22],[7,-126],[53,-122],[19,-60],[25,-43],[37,-37],[44,-89],[18,-64],[26,-27],[63,-38],[55,-50],[-2,80],[21,-9],[72,-71],[47,6],[94,-35],[12,-61],[36,-54],[37,10],[36,-26],[41,-12],[34,-30],[54,16],[54,6],[39,23],[9,28],[53,3],[-35,-85],[-46,-198],[0,-29]],[[13257,10055],[110,-92],[19,-34],[0,-36],[23,-65],[126,-54],[96,-5],[227,63],[58,30],[394,366]],[[14310,10228],[-21,-61],[-33,-50],[-6,-45],[-29,-25],[-27,-101],[-8,-83],[-150,-79],[-58,-66],[-23,-43],[-100,-46],[-52,-52],[-21,-66],[9,-32],[-91,-99],[-86,-70],[-110,-66],[-26,-29],[-18,-103],[-59,-49],[-32,-40],[3,-42],[-25,-83],[-26,-32],[9,-38],[-27,-6],[-46,52],[-48,18],[-36,35],[2,64],[27,29],[-8,48],[16,32]],[[13210,9100],[39,103],[50,14],[-16,62],[2,43],[-64,95],[-61,120],[-59,62],[-138,85],[-130,93],[-96,84],[-33,37],[-35,-41],[-45,-89],[-61,-75],[-27,-21]],[[12536,9672],[-231,-114],[-88,-37],[-66,-22]],[[12151,9499],[-125,-29],[-123,6],[-80,-26],[-59,-40],[-88,-27],[-69,-69],[-39,-24],[-70,-3],[-64,-22],[-161,76],[-66,13],[-64,-2],[-111,-52],[-71,-10],[-19,-31],[11,-76],[-14,-57],[5,-68],[-12,-45],[-15,-122],[-14,-78],[-51,-103],[-91,-35],[-163,-83],[-112,-29],[-62,-49],[-64,-10],[-71,38],[-64,4],[-33,-16],[-50,-65],[-4,-66]],[[10138,8399],[-77,114],[-7,25],[-2,104],[-34,84],[-12,85],[1,60],[-29,103],[-43,73],[-8,86],[-12,30],[-85,103],[-27,52],[-87,91],[-88,151],[-15,45],[-29,137],[9,56],[91,61],[25,61],[-28,183],[9,93],[-13,43],[-37,16],[8,47],[78,-6],[20,14],[-1,68],[25,72],[-6,56],[2,123],[-41,81],[-29,102],[14,61],[81,65],[60,6],[13,25],[-29,92],[-24,101],[13,85],[2,76],[-8,88],[-16,85],[-19,35],[-42,35],[-27,41],[-28,124],[-35,66],[-10,111],[44,140],[-2,55],[8,90],[19,77]],[[13257,10055],[60,71],[110,161],[75,139],[57,85],[124,109],[71,71],[35,24],[93,100],[44,15],[57,52],[24,48],[59,27],[94,58],[47,39],[62,30],[44,64],[86,71],[61,78],[54,129],[43,56],[33,59],[42,29],[50,58],[29,77],[57,67],[39,30],[87,29],[30,20],[28,-2],[64,40],[114,44],[16,34],[63,17]],[[15209,11984],[21,-16],[97,84],[129,-14],[12,-29],[51,-71],[51,61],[12,40],[104,-37],[50,-165],[41,8],[-15,69],[34,11],[5,41],[41,39],[0,37],[44,39],[-7,34],[18,35],[-50,70],[4,38],[22,12],[23,42],[25,17],[-8,35],[37,54],[21,49],[69,84],[83,37],[46,62]],[[16169,12650],[135,-90],[39,-10],[25,20],[41,-43],[65,8],[53,-46],[-6,-30],[79,4],[14,54],[84,9],[36,-32],[44,5],[31,-38],[68,0],[-13,90],[25,31],[63,-66],[18,9],[37,56],[17,-42],[43,18],[24,-10],[41,16],[40,52],[41,37],[-1,50],[56,24],[-7,41],[-44,15],[16,46],[37,15],[-16,45],[33,24],[35,121],[76,27],[17,-14],[7,-56],[43,-9],[8,53],[34,43],[28,-14],[3,-122],[-54,-70],[-11,-31],[75,-90],[12,-81],[-26,-53],[42,-63],[48,-88],[51,-61],[29,4],[121,-63],[44,-11],[82,-48],[65,-12]],[[18016,12274],[20,-37],[60,-10],[64,-39],[6,-63],[-11,-40],[-37,-44],[-65,-29],[-91,-18],[-18,-29],[-1,-36],[18,-73],[-4,-48],[-17,-43],[-42,-42],[-66,-45],[-25,-28],[-19,-47],[-12,-81],[-39,-106],[-13,-106],[-29,-88],[-71,-83],[-102,-81],[-79,-78],[-119,-49],[-57,-32],[-111,-87],[-111,-105],[-28,-70],[0,-50],[16,-55],[16,-132],[-21,-50],[-7,-59],[-6,-180],[-38,-73],[-78,-82],[-1,-81],[-45,-50],[-72,-2],[-52,-40],[-53,-60],[-58,-93],[5,-76],[-17,-34],[-43,-12],[-91,34],[-45,-3],[-12,-47],[17,-29],[2,-70],[-16,-228],[2,-105],[-23,-56],[-44,-17],[-51,13],[-86,45],[-70,-16],[-60,-69],[-23,-75],[-5,-44],[11,-86],[-10,-75],[-25,-38],[-57,-115],[-56,-50],[-84,-95],[-83,-109],[6,-116],[-7,-8]],[[15753,8149],[-87,81],[-32,38],[-59,37],[-84,93],[-48,28],[-129,93],[-21,28],[-23,109],[-33,101],[-10,58],[-25,72],[19,50],[115,98],[69,27],[53,66],[62,215],[28,53],[35,132],[41,88],[30,47],[-9,48],[-35,30],[-19,36],[7,70],[-5,36],[-43,76],[-47,34],[-145,-14],[-129,14],[-60,48],[-49,-54],[-5,-56],[-40,-2],[-55,-22],[-44,-5],[-38,-27],[-21,50],[-46,37],[-20,51],[-2,315],[-172,6],[-56,-6],[-237,-57],[-74,-43]],[[3532,11783],[113,-19],[49,-30],[78,38],[86,19],[217,-21],[72,-14],[203,125],[32,-60],[40,59],[97,-2],[21,-25]],[[4540,11853],[2,-89],[-10,-71],[44,-119],[44,-51],[86,-44],[4,-22],[-14,-86],[-36,-132],[4,-131],[-16,-14],[-115,-21],[-35,4],[-92,33],[-22,-40],[-11,-53],[-54,-78],[-34,-19],[-14,-29],[2,-59],[-20,-108],[-29,-33],[-50,90],[-26,24],[-141,13],[-6,30],[42,49],[-65,22],[-261,-6],[29,81],[-132,-3],[-53,5],[-178,34]],[[3383,11030],[0,64],[-9,173],[7,48],[59,130],[-9,41],[29,31],[40,86],[10,106],[22,74]],[[18879,17256],[24,-77],[32,-31],[-3,-44],[11,-50],[-18,-103],[-21,-43],[-61,-37],[-42,-72],[0,-40]],[[18801,16759],[-120,-68],[-115,-123],[-41,-59],[-15,-43],[-55,-251]],[[18455,16215],[-51,-139],[-51,-85],[-11,-35]],[[18342,15956],[-29,-2],[-93,-75],[-26,-38],[-66,-49],[-44,-49],[-32,-114],[-72,-19],[-25,-94],[13,-85],[-1,-60],[-18,-122],[-4,-82],[-22,-71],[-41,-52],[-68,-46],[-31,-46],[-33,-22],[-68,-66],[-45,-24],[-47,-48],[-28,-53],[-12,-104],[-16,-16],[-4,-47],[-44,9],[-49,-13],[-64,-78],[-26,-52],[-33,-31],[-47,-10],[-63,-68]],[[17204,14329],[-56,-20],[-76,3],[-58,-45],[-46,-9],[-21,15],[-44,63],[-11,32],[-65,43],[-36,49],[-46,13],[-17,-32],[-34,14],[-39,-14],[-29,18],[-49,-23],[-95,13],[-58,-40],[-63,-22],[-24,-21],[-67,-35],[-4,-30],[-103,-54],[-28,15],[-11,50],[53,-5],[19,54],[-32,0],[-18,25],[-113,38],[-7,28],[-29,23],[-37,66],[-24,6],[-39,48],[-53,51]],[[15844,14646],[51,52],[37,-11],[45,6],[15,29],[-18,48],[12,18],[55,14],[19,19],[17,51],[65,35],[35,48],[75,66],[50,27],[49,0],[31,16],[114,9],[44,22],[28,-13],[43,9],[47,38],[34,46],[36,67],[85,54],[60,70],[124,59],[35,65],[71,33],[122,167],[42,36],[35,66],[7,62],[1,149],[50,52],[26,72],[0,57],[-15,43],[-2,47],[19,57],[20,28],[37,119],[-4,69],[47,59],[-13,68],[30,73],[100,95],[30,6],[66,-22],[44,6],[38,-56],[80,-22],[42,24],[60,-2],[41,57],[151,50],[70,-12],[23,19],[28,-8],[33,43],[71,29],[98,-8],[41,13],[39,49],[35,12],[52,36],[4,64],[78,56],[45,-3],[25,15],[56,75],[24,-7]],[[20041,25298],[59,-13],[57,40],[42,47],[92,45],[61,48],[62,27],[55,0],[93,-11],[99,-33],[43,-31],[179,6],[71,21],[69,64],[27,-7],[80,7],[58,109],[33,32],[33,54],[42,-3],[59,128],[43,34],[82,8],[72,31],[40,-10],[26,-26],[105,-4],[43,6],[77,-44],[86,-22],[56,33],[41,51],[41,30],[40,72],[55,18],[95,-2],[127,18],[104,104],[56,41],[38,62],[53,68],[93,34],[140,86],[49,11],[58,0],[66,-18],[49,-26],[103,-28],[133,-17],[147,-38],[66,-34],[85,-5],[81,-48],[47,10],[32,22],[89,-12],[59,10],[105,-3],[58,-26],[38,-32],[46,-23],[107,11],[57,14],[42,-5],[41,-26],[67,13],[41,37],[63,-4],[41,10],[54,-8],[85,59],[38,48],[63,-1],[26,14],[72,-16],[6,-21],[190,-11],[39,3],[56,-36],[51,-18],[50,5],[107,23],[56,5],[20,31],[88,4],[77,38],[20,77],[37,34],[45,99],[57,3],[38,39],[56,24],[40,-18],[33,-42],[63,14],[49,69],[35,21],[88,35],[32,-4],[49,-40],[127,33],[19,24],[48,18],[68,-34],[33,13],[23,38],[132,39],[43,6],[-1,-393],[1,-342],[-3,-1745],[56,33],[116,9],[38,39],[18,53],[51,8],[29,34],[60,33],[38,10],[66,32],[35,64],[44,22],[502,-456],[396,-349],[82,-67],[-33,-67],[-59,-38],[-22,-61],[-119,-116],[-57,-67],[-190,-3],[-60,54],[-60,-2],[-64,-116],[-91,-28],[-27,-34],[-43,-31],[-21,-50],[-60,-8],[-77,2],[-58,-25],[-15,-40],[-24,-18],[-80,2],[-81,-26],[-38,-62],[-43,-7],[-29,25],[-19,-18],[-38,11],[-40,-69],[-60,-9],[-52,13],[-8,-23],[17,-38],[-42,-25],[-22,29],[-57,-57],[-52,-2],[-60,-34],[-26,-52],[-53,-66],[-2,-23],[-38,-11],[-74,-100],[-66,14],[-59,-12],[-96,-5],[-12,-15],[-54,-2],[-48,-57],[-167,-23],[-23,16],[-43,-4],[-22,35],[-127,-50],[-59,-6],[-29,22],[-52,-14],[-95,-54],[-29,0],[-24,-24],[-80,-52],[-51,-45],[-55,-26],[-113,43],[-33,-1],[-55,-27],[-25,-50],[-5,-54],[-16,-13],[-54,23],[-52,11],[-83,-60],[-57,-34],[-22,-50],[-70,-60],[-95,-46],[-25,-30],[-65,-1],[-77,-45],[-17,-19],[-52,-107],[-25,-66],[-43,1],[-119,-46],[-49,-76],[-60,-76],[-65,-3],[-25,-13],[-12,-75],[-63,16],[-12,-20],[4,-89],[-58,-41],[-72,-84],[-38,-77],[-8,-95],[-49,-114],[-17,-80],[-100,-49],[-38,-33],[-10,-31],[-8,-127],[-19,-48],[-13,-66],[-60,-19],[-34,-71],[-9,-49],[-40,-69],[0,-69],[-42,-27],[-22,-63],[-44,-53],[-32,-95],[-16,-86],[-36,-31],[-28,-52],[-42,-114],[-110,-115],[-62,-86],[-86,-66],[-55,-27],[-30,-30],[-120,-56],[-46,-8],[-54,-65],[-24,-94],[-47,-37],[-46,-8],[-31,-75],[-4,-46],[-22,-54],[-31,-109],[-16,-23],[-50,-18],[-16,-27],[2,-54]],[[22143,18661],[-47,-17],[-26,28],[-38,4],[-30,-18],[-3,-79],[-33,-26],[-18,-84],[-40,-53],[-70,32],[36,36],[4,37],[-27,50],[-46,-81],[-47,-33],[-14,43],[-27,-34],[-50,-84],[-45,-16],[-35,14],[-51,-9],[-29,-40],[-109,-70],[-37,24],[-8,92],[-16,16],[-51,-1],[-15,45],[9,52],[53,33],[-4,76],[-73,-49],[-45,-2],[-41,-17],[-39,6],[-24,33],[-11,45],[0,61],[79,94],[-38,5],[-44,-13],[-74,0],[-24,-10],[-64,-1],[-47,-18],[-61,4],[-25,-17],[-35,3],[-104,-25],[-43,22],[-66,-10],[-42,126],[1,76],[-32,-27],[-1,-120],[-34,22],[-22,35],[-32,-1],[-12,41],[-61,-31],[-44,29],[-23,-3],[-27,-43],[-46,10],[-30,-53],[-48,25],[-51,-31],[-27,11],[-13,-50],[-34,0],[-41,-44],[42,-36],[16,-59],[-45,-34],[-14,72],[-52,48],[-22,35],[35,41],[19,78]],[[19910,18826],[80,61],[88,22],[67,-6],[66,22],[54,8],[17,48],[-8,45],[9,41],[31,38],[50,36],[27,43],[90,104],[36,2],[58,19],[44,-9],[60,49],[87,43],[52,50],[12,41],[-43,38],[-59,24],[-62,103],[-56,13],[-14,86],[-36,40],[-81,22],[0,12],[78,32],[60,0],[38,-15],[27,-36],[32,-12],[35,38],[9,58],[-64,69],[0,47],[32,61],[-4,21],[-40,13],[-40,-14],[-37,79],[-55,40],[2,56],[116,9],[112,49],[39,28],[11,57],[30,25],[49,18],[33,75],[39,28],[12,31],[32,7],[16,48],[-4,57],[-15,39],[21,65],[61,57],[-41,11],[-22,25],[-27,-15],[-30,-48],[-46,1],[-21,-14],[-82,-1],[-34,13],[-83,-55],[-43,-45],[-21,2],[-49,38],[-107,-29],[-91,82],[-116,42],[-46,-14],[-74,-3],[-52,39],[-78,-6],[-11,53],[16,34],[0,50],[43,43],[-35,97],[-12,53],[-36,13],[-61,-10],[-75,46],[-60,-3],[-136,51],[-32,44],[-44,32],[-76,90],[8,84],[-36,31],[-53,-6],[-113,-54],[-53,28],[-24,27],[78,27],[43,42],[20,-25],[19,84],[2,63],[65,-34],[63,6],[57,39],[94,8],[27,-18],[46,27],[36,39],[9,-68],[30,31],[6,53],[22,61],[33,25],[20,37]],[[19921,21974],[29,15],[28,43],[-30,43],[-19,6],[-15,-47],[-53,14],[-11,56],[-58,0],[13,30],[68,80],[17,36],[36,35],[26,50],[26,85],[7,49],[36,125],[-19,64],[-18,29],[-51,32],[-22,36],[-28,-14],[-46,71],[-36,19],[-8,27],[-30,28],[-34,11],[-113,4],[-36,43],[-38,73],[-69,73],[-21,44],[163,-136],[79,5],[-14,76],[-30,57],[-1,59],[-67,-19],[-62,35],[-15,41],[29,99],[-43,2],[-34,51],[-64,-17],[-18,14],[-2,51],[23,63],[-7,15],[-83,22],[-41,-16],[-37,21],[-10,58],[-34,44],[38,22],[29,39],[25,-5],[37,-52],[85,98],[-6,30],[26,75],[38,31],[91,21],[14,-7],[15,72],[50,10],[-110,61],[-97,10],[-45,43],[-8,43],[52,19],[12,18],[-15,66],[68,27],[48,-42],[39,4],[33,-28],[51,13],[56,27],[37,6],[19,60],[44,46],[8,47],[-43,20],[9,74],[17,56],[-76,32],[-13,31],[68,42],[-21,78],[22,50],[35,0],[39,35],[1,22],[-53,52],[81,-3],[17,43],[-34,52],[-8,40],[39,0],[8,25],[57,-22],[39,33],[-69,28],[-19,66],[49,-15],[29,25],[49,121]],[[12258,12497],[35,32],[42,8],[16,19],[8,53],[-11,45],[67,37],[68,63],[111,53],[80,48],[45,41],[50,-31],[69,28],[41,69]],[[12879,12962],[22,10],[66,-4],[30,-11],[60,17],[85,-33],[62,13],[18,48],[96,40],[28,37],[15,47],[49,48],[47,16],[52,-12],[9,30],[61,38],[33,94],[60,19],[34,77],[44,37],[36,-13],[19,-28],[40,13],[32,50],[17,80],[70,-23],[62,42],[48,-13],[67,12],[1,33],[39,24],[66,12],[98,59],[17,60],[68,-7],[38,22],[18,60],[22,24],[46,-29],[49,-3],[32,14],[37,46],[26,12],[98,-20],[72,24],[48,38],[72,40],[105,83],[80,49],[50,39],[67,-1],[132,90],[83,98],[51,49],[52,28],[60,2],[54,38],[33,51],[57,36],[20,76],[12,6]],[[17204,14329],[-41,-84],[-56,-48],[-19,-49],[-58,-110],[-25,-67],[57,-11],[20,49],[31,-15],[17,-31],[48,-25],[17,9],[-3,80],[24,5],[9,-48],[55,-58],[-2,-33],[-43,-37],[-61,-10],[-38,-17],[-33,-55],[-140,-48]],[[16963,13726],[-53,-1],[-43,-19],[-55,-45],[-96,-58],[-80,-66],[-93,-45],[-127,-34],[-35,-18],[-52,-46],[-103,-56],[-32,-23],[-85,-15],[-38,-21],[-111,11],[-224,-70],[-36,-38],[-41,-9],[-38,32],[-29,7],[-65,-17],[-38,24],[-50,-33],[-79,-26],[-105,-9],[-33,-29],[-35,-66],[-73,-101],[36,-35],[16,-39],[23,-123],[-10,-34],[-39,17],[-2,-42],[27,-61],[-4,-21],[-41,-24],[49,-25],[1,-50],[17,-21],[33,-106],[-6,-41],[-36,-1],[-17,29],[-37,-8],[-31,11],[-34,-12],[-48,8],[-61,-8],[-95,13],[-31,-24],[-69,-26],[-20,-54],[20,-20],[32,-82],[0,-20],[100,3],[93,49],[44,-5],[37,-36],[12,-70],[65,-56],[48,-30],[23,-27]],[[18879,17256],[50,-52],[32,31],[56,3],[18,22],[25,67],[7,75],[26,25],[28,62],[-19,18],[25,47],[39,-6],[50,34],[13,75],[-24,35],[-32,116],[-50,47],[-28,44],[14,62],[-19,72],[-3,58],[35,29],[14,34],[1,60],[-18,60],[17,18],[50,18],[32,59]],[[19218,18369],[38,41],[57,34],[34,1],[72,60],[-21,28],[8,41],[91,-36],[115,5],[21,-23],[32,15],[32,60],[55,44],[14,56],[22,46],[27,29],[95,56]],[[22143,18661],[-7,-29],[-59,-48],[-20,-35],[5,-122],[-26,-2],[-55,-104],[-84,-103],[-76,-63],[-46,-54],[-84,-60],[-59,-66],[-77,-9],[-54,-41],[-49,-99],[-29,-105],[-41,-99],[-46,-66],[-82,-85],[-33,-66],[-36,-28],[-85,-30],[-24,-33]],[[21076,17314],[-31,-10],[-28,-58],[-81,-34],[-82,-79],[-101,-6],[-61,30],[41,44],[-9,32],[-50,26],[-38,49],[-46,24],[-20,56],[19,31],[29,94],[-4,43],[-42,102],[-19,15],[-69,-36],[-63,9],[-56,-28],[-21,-38],[-38,-22],[-14,-61],[-30,-40],[-45,8],[-46,-14],[-63,-56],[-95,-28],[-31,1],[-41,-21],[-56,-45],[-28,-40],[-53,-36],[-40,9],[-49,-18],[-60,-3],[-64,-50],[-55,1],[-79,25],[-125,27],[-20,-17],[-30,-70],[-30,-24]],[[19252,17106],[-47,-32],[-65,-100],[-161,-160],[-42,-19],[-136,-36]],[[16169,12650],[48,55],[0,73],[27,46],[11,79],[4,90],[-9,59],[20,48],[96,44],[33,47],[-2,24],[53,48],[19,29],[-34,18],[-2,51],[67,-6],[37,25],[18,33],[29,19],[77,-2],[31,23],[29,56],[0,37],[35,13],[83,104],[50,45],[74,18]],[[18342,15956],[-31,-55],[-44,-39],[-11,-24],[-50,-296],[21,-105],[-20,-113],[-40,-78],[-1,-45],[81,-269],[1,-31],[-29,-136]],[[18219,14765],[-18,-77],[20,-63],[80,-74],[30,-34],[9,-37],[58,-7],[4,-43],[46,-30],[-1,-40],[16,-63],[32,-14],[30,-39],[25,-7],[46,-36],[62,7],[33,-45],[39,-22],[17,-43],[-3,-40],[27,-75],[45,-47],[31,3],[-2,53],[29,27],[41,1],[35,49],[-26,47],[20,45],[77,0],[16,18],[-13,57],[-20,43],[2,62],[65,-41],[51,0],[38,-37],[56,-76],[58,-25],[35,-6]],[[19309,14156],[-3,-56],[-40,-35],[-42,13],[-35,-42],[11,-43],[-1,-48],[-21,-23],[-57,-2],[-38,-17],[-6,-31],[62,-91],[-2,-68],[12,-41],[-79,5],[-15,-22],[-14,-110],[22,-75],[-21,-52],[-56,-35],[-57,-24],[-103,23],[-63,-35],[-26,-52],[-63,-187],[-49,-8],[-45,-23],[-74,-64],[-29,-40],[4,-33],[66,-56],[1,-91],[10,-76],[-39,3],[-86,-22],[-77,-4],[-89,-19],[-37,-23],[-78,-91],[-19,-51],[-14,-79],[-39,-71],[-49,-55],[-15,-31]],[[19921,21974],[-112,27],[-95,11],[-83,19],[-44,49],[-44,10],[-102,101],[-15,25],[-93,75],[-25,-14],[-72,120],[-21,11],[-4,50],[-23,18],[-39,0],[-21,29],[-37,-10],[-45,-30],[-31,20],[-85,-51],[-80,5],[-91,-14],[-40,11],[-38,-29],[-52,19],[-99,13],[-55,-20],[-54,-65],[-68,-25],[-95,-57],[-23,-45],[-37,-42],[-39,-12],[-166,-76],[-22,-32],[-38,5],[-31,-14],[-36,21],[-16,-13],[-59,4],[-44,-69],[-23,12],[-103,-16],[-54,7],[-75,-19],[-30,24],[-90,-23],[-36,-43],[-55,34],[-39,-42],[-77,-22],[-43,23],[-87,28],[-61,-13],[-50,6],[-22,-35],[-70,28],[-73,-47],[-12,36],[-55,-17],[-61,29],[-1,-33],[-37,-30],[-91,4],[-31,-26],[-54,11],[-16,-15],[-107,-30],[-72,6],[-72,16],[-41,36],[-56,16],[-28,19],[-13,31],[-50,20],[-41,-12],[-64,16],[-44,-11],[-38,-46],[36,-14],[5,-60],[-15,-62],[17,-29],[32,-4],[22,-36],[-23,-36],[3,-57],[-37,-93],[-32,-50],[-43,-37],[-167,-18],[-103,-33],[-205,14],[-60,18],[-81,-39],[-32,8],[-35,55],[-41,31],[-102,39],[-146,-20],[-66,26],[-59,-14],[-37,19],[-38,35],[-58,-11],[-191,-131],[-62,-55],[-41,-18],[-23,7]],[[14193,21356],[-26,47],[-36,36],[-8,35],[-55,87],[-38,32],[-47,-4],[-61,50],[-80,1],[-71,45],[-63,27],[-24,27],[-28,75],[5,32],[45,89],[-25,12],[-25,45],[7,32]],[[13663,22024],[18,-13],[46,90],[47,40],[19,57],[106,198],[59,-1],[32,-17],[27,40],[47,18],[54,38],[-42,24],[-24,-10],[-28,32],[13,21],[-11,48],[-34,-2],[-17,23],[-1,56],[-56,8],[-27,43],[77,43],[52,1],[36,49],[82,17],[3,19],[-96,-22],[-40,-30],[-55,6],[-69,31],[-18,-1],[-121,-40],[-49,76],[-47,52],[-37,64],[-71,201]],[[13538,23183],[22,69],[43,71],[30,23],[95,-14],[22,17],[39,67],[20,66],[41,48],[101,49],[89,107],[131,218],[44,45],[48,20],[16,23],[-8,78],[-16,35],[-4,58],[50,40],[70,-16],[93,2],[10,36],[-57,47],[7,49],[139,73],[25,-41],[2,-51],[86,-37],[147,-25],[46,8],[33,37],[35,8],[39,-12],[57,8],[88,48],[27,7],[57,-7],[44,-29],[32,5],[53,43],[36,10],[68,-31],[50,-59],[49,-16],[63,49],[57,65],[53,28],[96,14],[49,57],[52,35],[28,44],[-4,102],[11,23],[56,50],[46,138],[35,42],[36,22],[131,51],[105,78],[53,32],[101,84],[110,107],[14,45],[19,7],[102,-8],[89,18],[58,-20],[28,-37],[25,-52],[-13,-65],[25,-20],[119,18],[45,-8],[94,-57],[96,-28],[30,-2],[108,19],[93,7],[75,-7],[88,-38],[26,-45],[29,-111],[18,-17],[102,-32],[41,1],[95,59],[51,7],[70,62],[54,34],[148,55],[82,4],[99,-24],[82,-7],[65,-16],[60,29],[260,37],[131,11],[46,-17],[58,-44],[40,-19],[62,-8],[88,53],[126,54],[41,28],[57,74],[35,21],[261,47],[104,9]],[[13832,19817],[64,121],[35,30],[44,69],[24,72],[65,65],[-53,184],[13,52],[32,69],[49,50],[42,26],[53,75],[32,58],[54,37],[20,37],[-1,86],[42,5],[34,33],[6,60],[-15,50],[7,39],[-22,78],[-13,11]],[[14344,21124],[-38,-40],[-52,-24],[-38,-37],[-39,56],[-36,25],[58,47],[5,26],[-41,20],[19,69],[31,66],[-20,24]],[[19218,18369],[-63,-40],[-94,-2],[-56,-46],[-61,-11],[-67,-23],[-44,-34],[-34,15],[-73,-9],[-70,0],[-54,-25],[-83,-1],[-66,-43],[-40,-35],[-106,-8],[-55,-23],[-52,15],[-163,-5],[-98,48],[-102,9],[-21,30],[77,77],[-53,6],[-46,76],[-43,24],[-53,82],[-45,13],[-11,33],[11,58],[-14,47],[-40,-28],[-40,9],[-38,-11],[19,-41],[-64,3],[-81,60],[-16,31],[10,58],[-20,11],[-52,-20],[-50,19],[-55,2],[-45,33],[-21,-42],[-10,-63],[-87,-106],[-2,-49],[-14,-33],[-113,-94],[-111,7],[-68,-51],[-78,-41],[-44,-34],[-51,-20],[-32,-27],[-8,-63],[-19,-44],[-76,-55],[-43,-38],[-28,-11],[-65,25],[-31,-5],[-83,-43],[-71,-69],[-51,-32],[-12,-25],[-37,-29],[-33,-50],[-57,-30],[-81,-17],[-54,-31],[-12,-33],[1,-50],[-98,-13],[-29,22],[-83,-13],[-41,-14],[-10,-58],[-48,-57],[-47,-121],[2,-47],[-36,-50],[-30,-23],[-63,-72],[-112,-16],[-107,-1],[-84,-61],[-177,-17],[-26,13],[-117,33],[-29,39],[-4,28],[20,24],[8,60],[-34,76],[-63,35],[-39,-39],[-46,-73],[-19,-14],[-56,-10],[-101,-41]],[[14307,17160],[15,41],[-10,41],[-37,49],[9,57],[-16,95],[-55,132],[1,71],[61,65],[-14,67],[37,104]],[[14298,17882],[23,18],[94,34],[39,34],[39,1],[60,34],[34,36],[24,56],[4,98],[-8,48],[-35,46],[-92,52],[-89,-1],[-80,30],[-9,24],[8,69],[17,57],[-40,82],[-39,34],[-20,68],[-31,39],[-18,58],[-1,41],[-26,27],[-153,-7],[-50,6],[-45,40],[-44,18],[-40,76],[1,81],[-14,193],[13,74],[-6,82],[19,36],[51,201],[0,28],[-21,80],[-31,42]],[[4334,12925],[67,-44],[88,1],[41,-13],[30,-35],[30,-85],[22,-24],[144,-98],[23,-21],[49,-79],[48,-29],[58,9],[8,-17]],[[4942,12490],[-39,-7],[-59,7],[-86,62],[-56,17],[-82,6],[-37,-36],[41,-89],[21,-62],[1,-167],[10,-21],[56,-43],[29,-66],[-1,-30],[-31,-40],[-67,-54],[-49,-4],[-29,-23],[-24,-87]],[[3532,11783],[37,61],[51,31],[49,45],[51,105],[75,139],[71,156],[150,287],[66,79],[72,68],[21,48],[53,81],[39,23],[67,19]],[[13213,23342],[33,6],[36,-125],[21,-41],[28,-17],[76,12],[131,6]],[[13663,22024],[58,91],[-15,74],[-54,33],[-10,37],[-45,85],[-50,3],[-20,18],[0,37],[36,60],[-44,33],[-59,4],[-65,-60],[-199,-8],[-44,-49],[-24,1],[-53,27],[-44,-1],[-63,38],[-81,1],[-24,-34],[-42,16],[-70,6],[-13,149],[-36,63],[9,54],[66,47],[16,93],[-18,92],[25,45],[29,24],[52,13],[52,31],[25,104],[55,51],[38,2],[60,45],[70,29],[32,64]],[[14298,17882],[-103,-16],[-112,-9],[-103,0],[-92,8],[-28,-23],[-78,-5],[-64,-43],[-127,18],[-120,-19],[-68,-31],[-93,-17],[-59,6],[-51,-7],[-42,37],[-59,18],[-95,6],[-72,12],[-40,21],[-137,-11],[-60,8],[-64,-26],[-48,11],[-85,-3],[-37,12],[-44,-11],[-54,12],[-14,22],[-6,81],[-33,19],[-30,45],[-25,3],[-84,-21],[-59,-23],[-86,-10],[-57,24]],[[11969,17970],[-49,50],[-41,-13],[-70,4],[-60,28],[-31,66],[-34,8],[-12,79],[20,78],[-12,55],[15,25],[-7,68],[-24,90],[-54,35],[-29,33],[22,71],[-4,83],[12,17],[-36,74],[-20,-19],[-78,-6],[-31,8],[-13,65],[-54,144],[12,10],[43,-46],[13,51],[44,50],[34,-44],[48,37],[-19,46],[32,24],[-133,-5],[12,22],[87,20],[-6,104],[27,69],[31,23],[56,76],[-70,22],[-23,40],[-62,-1],[-27,23],[-8,45],[26,66],[-8,36],[-34,40],[-50,-27],[-26,-2],[-46,-34],[-30,5],[-31,71],[-58,1],[-29,73],[-8,51],[-18,23],[-29,95]],[[11129,19977],[50,59],[27,18],[58,16],[51,27],[74,-33],[41,1],[65,-59],[111,23],[21,-36],[24,-2],[70,39],[29,73],[55,-4],[51,8],[73,63],[42,27],[26,33],[30,68],[19,-39],[69,-52],[92,-19],[64,9],[67,-64],[50,-94],[54,-64],[39,-15],[59,11],[97,30],[52,-39],[74,5],[88,46],[63,40],[54,-20],[38,5],[68,-15],[123,-60],[28,-52],[40,-16],[127,13],[68,-8],[61,13],[100,-7],[69,-24],[72,-35],[23,-41],[47,11]],[[11198,21331],[40,41],[48,0],[58,25],[72,-15],[92,-57],[33,4],[135,42],[73,6],[62,29],[97,34],[93,-28],[51,-35],[74,33],[133,40],[152,-77],[58,-11],[35,-25],[-3,-37],[50,-18],[56,-34],[37,-1],[55,14],[20,-10],[69,6],[26,-12],[11,-41],[32,-4],[82,16],[58,-12],[44,17],[44,-43],[157,44],[31,-5],[48,-60],[59,-38],[96,-41],[68,-8],[105,28],[41,-30],[65,-16],[5,40],[23,9],[32,-36],[59,-17],[104,-9],[44,34],[35,-35],[96,-27],[44,-46],[41,-14],[40,2],[28,17],[16,42],[22,112]],[[11129,19977],[-31,-12],[-63,-5],[-75,-72],[-72,-89],[-128,-91],[-61,10],[-50,-29],[-47,-14],[7,86],[26,16],[24,47],[39,-11],[13,45],[-19,68],[14,31],[-75,-6],[-2,34],[41,7],[49,39],[-48,34],[-25,-10],[-41,56]],[[10605,20111],[11,46],[0,58],[-36,72],[0,19],[34,68],[42,103],[15,65],[12,134],[20,29],[93,55],[73,-7],[64,15],[24,39],[31,91],[10,60],[-6,43],[-29,57],[-3,39],[13,31],[62,44],[85,11],[37,19],[45,51],[11,52],[-15,26]],[[11198,21331],[-103,19],[-21,34],[-7,62],[-36,51],[-23,81],[7,33],[61,60],[20,75],[0,116],[-30,129],[6,28],[34,26],[57,25],[38,37],[13,37],[25,163],[31,51],[67,40],[45,14],[84,14],[161,-4],[108,-15],[58,1],[92,49],[94,15],[69,28],[142,-10],[62,20],[22,29],[23,65],[55,93],[9,60],[-18,76],[-31,98],[8,42],[35,30],[86,26],[227,3],[55,48],[83,19],[41,63],[45,-4],[27,57],[31,23],[136,35],[84,26],[43,43]],[[12536,9672],[48,-51],[33,-9],[37,-28],[33,-61],[43,-35],[94,-29],[66,-47],[36,-75],[18,-212],[11,-38],[44,-37],[70,10],[48,-2],[48,9],[45,33]],[[15753,8149],[-27,-27],[-41,-99],[-25,-98],[-17,-39],[-54,-76],[-41,-70],[-13,-37],[-8,-91],[3,-48],[-36,-64],[-48,-27],[-52,-14],[-73,-43],[-19,-41],[-6,-85],[37,-84],[31,-29],[102,-9],[30,-57],[-27,-60],[-37,-32],[-56,-7],[-46,9],[-73,45],[-57,55],[-23,11],[-121,-27],[-110,25],[-57,-12],[-93,-104],[-38,-15],[-45,12],[-41,56],[-27,16],[-39,-20],[-51,-65],[-45,-34],[-91,-10],[-18,-52],[17,-208],[17,-57],[4,-67],[-7,-80],[-12,-30],[-137,-169],[-71,-7],[-65,21],[-23,18],[-23,56],[-81,88],[-13,40],[125,61],[12,69],[-52,105],[-22,27],[-49,31],[-77,3],[-43,-29],[-35,-46],[-32,-90],[-13,-63],[-4,-79],[-33,-47],[-44,-32],[-59,-27],[-138,-44],[-82,-15],[-46,-24],[-18,-25],[20,-59],[126,-126],[64,-91],[5,-39],[-16,-28],[-41,-32],[-66,-30],[-132,-20],[-74,-26],[-66,-41]],[[13217,5790],[-29,46],[-32,9],[-54,83],[1,29],[-25,15],[-36,57],[-5,33],[-42,62],[-53,61],[78,81],[10,49],[58,40],[-24,29],[-42,83],[-57,28],[-12,85],[-24,34],[-18,63],[-33,33],[2,91],[44,73],[7,76],[22,46],[44,42],[-10,36],[-32,29],[22,30],[22,-2],[39,37],[-11,70],[-14,15],[-56,-9],[-14,28],[12,56],[-31,111],[-52,75],[10,47],[-18,29],[-55,21],[-12,23],[5,75],[-11,26],[-50,15],[-32,38],[19,29],[53,33],[9,33],[-60,98],[14,70],[-47,27],[-38,44],[-17,54],[20,54],[31,49],[-5,75],[-69,86],[-34,18],[-70,88],[-145,155],[10,39],[27,41],[-6,49],[23,42],[36,37],[12,46],[24,35],[6,47],[37,59],[-55,45],[12,38],[28,16],[35,49],[25,81],[-41,1],[-30,35],[7,36],[-132,33],[-237,69]],[[11346,4273],[-30,-12],[-109,-115],[-45,-26],[-127,8],[-71,-2],[-71,-23],[-35,-3]],[[10858,4100],[-40,-7],[-42,-38],[-57,-7],[-74,41],[-45,34],[-59,30],[-35,33],[-34,9],[-18,-26],[-6,-70],[-112,-81],[-84,-72],[-55,-24],[-34,-65],[-60,-24],[-49,-5],[-22,-34],[17,-26],[-4,-45],[-29,7],[-50,-11],[-36,36],[-53,1],[-46,-40],[-22,-45],[25,-56],[6,-54],[35,-6],[2,-36],[-36,-51],[38,-39],[-1,-30],[-28,-75],[8,-31],[62,-43],[54,-23],[-7,-37],[-43,-54],[22,-25],[96,18],[21,-17],[12,-60],[-34,-48],[-1,-41],[36,9],[73,-22],[17,-21],[-2,-61],[23,-11],[79,0],[45,-40],[81,-88],[29,-23],[35,18],[41,3],[17,-38],[-65,-81],[21,-52],[35,-13],[50,6],[55,42],[15,-31],[-7,-78],[14,-19],[70,-27],[89,-19],[46,-26],[2,-30],[-48,-94],[14,-38],[36,-15],[30,-30],[10,-54],[-12,-22],[-71,-44],[-36,-50],[-8,-53],[5,-52],[-25,-32],[547,29],[267,186],[40,5]],[[11588,2097],[25,-63],[-4,-18],[-108,-130],[-115,-115],[-39,-33],[27,-81],[-7,-23],[-125,-20],[-231,-106],[-167,-102],[-31,-50],[-63,-44],[-50,-70],[-122,-80],[-56,-27],[-49,-106],[-7,-81],[-34,-44],[-31,-94],[7,-53],[-5,-44],[15,-48],[-15,-35],[-37,-43],[-68,-27],[-64,-78],[29,-71],[-22,-71],[-91,-86],[-60,-29],[-89,-115],[-44,-72],[-2,-38],[-56,55],[-137,197],[-27,27],[-404,490],[-512,608],[-64,68],[-44,59],[-679,804],[-270,291],[-461,583],[-188,327],[-50,104],[-250,305],[-178,199],[-86,107]],[[6549,4224],[222,10],[157,18],[413,60],[108,22],[217,65],[73,9],[84,-1],[372,-45],[118,-5],[83,13],[109,39],[88,56],[43,50],[25,45],[78,201],[37,60],[39,37],[47,26],[78,16],[73,-1],[91,11],[70,23],[58,32],[47,36],[92,90],[134,124],[175,153],[69,65],[365,359],[40,49],[24,61],[6,82],[38,-17],[33,-41],[55,-49],[149,-187],[76,-48],[51,-43],[124,-127],[172,-111],[39,-43],[47,-94],[114,-159],[33,-69],[4,-82],[-24,-108],[7,-57],[98,-135],[135,-297],[11,-44]],[[6957,18029],[-64,-46],[35,-44],[-4,-124],[7,-135],[-33,-113],[-1,-74],[-30,-109],[-42,-70],[14,-80],[-15,-181],[-11,-48],[-29,-40],[-30,-66],[11,-15],[84,-48],[64,14],[135,89],[25,12],[151,-36],[88,-8],[4,-11],[-21,-94],[-22,-39],[-76,-15],[-75,-40],[-94,-96],[-25,-40],[-26,-149],[-9,-20],[-108,-165],[-22,-85],[8,-150],[-7,-147],[-6,-20],[-45,-33],[-21,-42],[12,-83],[1,-92],[31,-122],[-16,-46],[-5,-66],[7,-73],[-3,-48],[-51,-122],[-20,-101],[81,9],[362,14],[43,-7],[35,-21],[41,-46],[56,-38],[196,-62],[115,-65],[143,-44],[41,-33],[9,-26],[71,-91],[82,-146],[-47,-42]],[[7951,14410],[-24,-18],[-38,10],[-45,28],[-52,-13],[-37,-25],[-40,-8],[-99,56],[-33,0],[-179,-73],[-126,-57],[-153,-82],[-72,-57],[-23,-64],[46,-143],[2,-82],[-31,-75],[-79,-37],[-78,-24],[-73,0],[-74,17],[-87,-4],[-19,-27],[-9,-77],[-35,-87],[-97,-29],[-124,44],[-232,-106],[-202,-162],[-51,-69],[-31,-89],[10,-100],[30,-84],[-42,-60],[-204,-106],[-184,-115],[-86,-77],[-74,-32]],[[5306,12583],[-2,58],[-52,104],[-3,165],[4,45],[-12,63],[-23,36],[-4,70],[50,54],[12,55],[27,64],[-28,106],[-26,51],[-10,43],[-35,24],[-4,-101],[-57,-81],[-72,-56],[-66,-37],[-84,-30],[-40,23],[-104,-30],[-44,9],[-25,-25],[-57,17],[-102,91]],[[4549,13301],[84,133],[65,59],[71,92],[38,139],[21,35],[95,106],[11,23],[11,102],[-4,25],[-72,164],[-27,26]],[[4842,14205],[-27,19],[104,168],[-8,115],[-26,125],[3,80],[18,59],[31,50],[21,58],[1,36],[-11,304],[7,23],[49,68],[29,136],[44,60],[11,81],[-143,-23],[-41,7],[-23,23],[-13,64],[-77,47],[-57,5],[-53,-8],[-1,44],[-15,26],[-50,30],[-41,98],[-38,71],[-19,64],[-9,63],[-29,62],[-32,47],[-25,88],[-57,85],[-26,90],[-1,113],[-30,86],[-51,35],[3,61],[-29,35]],[[4231,16800],[32,60],[9,92],[38,52],[-9,35],[25,38],[105,6],[72,38],[97,72],[59,9],[96,67],[69,69],[47,40],[49,68],[44,37],[82,35],[34,102],[-2,23],[28,59],[22,78],[20,4],[24,54],[57,19],[42,-20],[42,-69],[46,-13],[34,22],[50,153],[2,72],[17,41],[28,4],[29,-31],[32,5],[38,27],[78,-68],[22,-43],[42,-18],[83,50],[89,46],[59,22],[152,13],[184,-51],[39,3],[82,38],[97,5],[48,19],[75,41],[28,1],[130,-19],[63,7],[56,-17],[41,-48]],[[6957,18029],[55,3],[36,72],[15,94],[29,130],[40,64],[128,120],[110,164],[36,45],[46,36],[30,38],[107,22],[51,-25],[54,10],[210,121],[42,11],[58,54]],[[8004,18988],[-8,-55],[-73,-83],[-33,12],[-28,-18],[1,-55],[-12,-23],[-46,-23],[-1,-40],[-67,7],[-10,-56],[-40,-28],[7,-67],[-23,-46],[-41,13],[-12,-49],[58,-39],[62,-21],[179,-13],[96,-20],[68,9],[211,98],[40,3],[46,-20],[79,-67],[32,-66],[5,-46],[-11,-57],[-85,-197],[-39,-130],[-10,-72],[-11,-193],[-36,-94],[-101,-158],[-27,-57],[-41,-114],[1,-57],[51,-197],[6,-40],[-19,-59],[-57,-62],[-27,-64],[-64,-365],[7,-72],[33,-46],[122,-56],[54,-47],[31,-54],[13,-54],[9,-133],[22,-88],[33,-49],[111,-98],[49,-27],[107,-102],[53,-45],[114,-129],[45,-74],[40,-83],[54,-67],[66,-108],[43,-50],[14,-34]],[[9044,14963],[39,-169],[64,-76],[82,-120],[15,-45],[-5,-34],[-31,-41],[-32,-17],[-16,-38],[-25,-105],[5,-60],[-49,-263],[50,-113],[16,-52],[-12,-58],[-22,-19],[22,-46],[52,-78],[77,-160],[71,-63],[35,-41],[43,-96],[-7,-87],[3,-39],[-36,-60]],[[9383,13083],[-52,-36],[-37,-91]],[[9294,12956],[-92,-42],[-58,-17],[-45,4],[-52,41],[-36,74],[-91,90],[-28,37],[-28,75],[-60,78],[5,40],[-11,32],[-70,84],[-16,56],[-2,121],[-10,43],[-45,72],[-47,29],[-49,86],[-41,50],[-45,11],[-68,44],[-56,96],[-62,54],[-23,64],[-19,19],[-17,53],[-27,47],[-52,23],[-85,92],[-57,25],[-56,-27]],[[12879,12962],[-25,12],[-34,-27],[-11,35],[-32,26],[-44,16],[-11,-33],[-51,-10],[-57,48],[57,57],[-83,90],[4,42],[69,35],[41,-9],[72,4],[29,38],[-17,61],[18,15],[-8,72],[21,57],[30,-45],[47,6],[17,60],[42,35],[24,34],[43,25],[39,42],[53,4],[81,57],[67,61],[8,65],[19,44],[77,88],[-38,26],[-21,39],[7,35],[-11,37],[10,61],[53,66],[8,82],[-6,30],[-29,37],[49,57],[-3,48],[16,27],[-29,64],[-61,42],[-31,45],[-52,43],[-37,49],[-51,87],[-73,102],[-56,18],[-9,26],[71,64],[77,86],[24,16],[5,74],[-18,65],[-37,72],[-38,16],[-28,38],[-6,99],[23,46],[78,54],[31,39],[54,45],[61,36],[67,53],[74,0],[54,38],[60,57],[115,30],[74,47],[79,24],[25,43],[106,94],[3,47],[-24,93],[-20,44],[-15,65],[-71,142],[1,73],[-28,80],[-5,44],[55,180],[55,30],[15,36],[41,11],[15,26],[45,6],[28,-33],[29,57],[0,39],[34,66],[46,-5],[34,30],[33,-12],[32,-35],[53,52]],[[2256,13712],[-9,-81],[-1,-232],[8,-455],[3,-436],[254,1],[279,4],[11,-49],[-31,-65],[28,-44],[3,-132],[94,-1],[17,-18],[100,-31],[175,-61],[104,-23],[43,-42],[30,-65],[62,-71],[13,-42],[50,-72],[43,-14]],[[3383,11030],[-19,-257],[28,-107],[9,-93],[48,-64],[121,-64],[18,-26],[1,-84],[-16,-89],[-73,14],[-53,34],[-42,-4],[-37,-24],[-22,-31],[-36,-10],[-15,-37],[-8,-75],[48,-27],[23,-39],[48,-43],[28,-120],[-15,-64],[-32,-12],[-71,-4],[-76,-194],[-50,-24],[-10,-73],[-58,-11],[-79,-25],[-141,-70],[-77,7],[-81,53],[-25,0],[-59,-66],[-154,-51],[-51,10],[-38,25],[-67,9],[-115,41]],[[2235,9435],[-292,340],[-202,247],[-93,106],[-95,316],[-413,1381],[-281,940],[-442,1478],[-17,63],[-137,416]],[[263,14722],[53,-35],[33,-48],[127,-289],[14,-20],[141,-108],[32,-41],[6,-32],[3,-121],[27,-74],[65,-62],[181,-98],[205,-110],[96,-28],[230,0],[525,26],[106,1],[149,29]],[[2256,13712],[228,53],[212,68],[93,35],[64,8],[88,-17],[34,1],[71,27],[46,5],[170,-1],[141,16],[127,4],[78,12],[133,35],[77,29],[37,2],[81,-26],[107,-17],[33,4],[204,46],[32,4],[53,-12],[75,-54],[79,-2],[110,41],[77,62],[66,44],[70,126]],[[4549,13301],[-94,-163],[-40,-130],[-32,-50],[-49,-33]],[[263,14722],[-38,125],[-225,694],[55,8],[49,-23],[9,-31],[61,-13],[41,-53],[69,-45],[57,-8],[43,24],[36,-1],[70,-31],[191,-120],[58,66],[76,33],[33,1],[47,-32],[40,9],[26,55],[31,29],[104,32],[48,45],[39,61],[42,31],[89,-14],[91,-51],[145,-52],[92,-55],[55,-47],[48,6],[62,41],[98,120],[52,32],[79,72],[226,93],[82,2],[64,-23],[99,-78],[35,-39],[30,-53],[68,-25],[49,-78],[44,-22],[53,0],[105,-31],[11,13],[57,-10],[27,12],[37,60],[29,76],[53,100],[31,31],[83,27],[55,66],[24,81],[40,34],[-9,125],[3,83],[26,68],[32,9],[55,-45],[48,3],[28,87],[63,19],[68,77],[47,28],[43,4],[94,33],[68,7],[114,45],[66,57],[26,73],[0,88],[49,109],[72,64]],[[5306,12583],[-85,-19],[-82,22],[-61,-5],[-73,-42],[-63,-49]],[[9383,13083],[100,21],[31,25],[96,43],[54,-9],[26,-34],[36,-21],[24,-31],[78,39],[29,3],[42,-20],[81,-89],[31,-13],[83,32],[-50,112],[-22,36],[-41,107],[-1,88],[27,61],[-16,95],[22,30],[31,83],[-12,22],[-47,30],[-24,53],[-72,96],[-46,87],[-76,72],[-59,11],[-79,33],[-35,57],[-44,30],[-93,110],[30,81],[27,49],[111,38],[121,17],[93,28],[49,58],[16,93],[46,5],[43,-12],[18,24],[49,18],[18,-9],[36,29],[43,8]],[[10157,14669],[46,11],[18,20],[-17,104],[-26,16],[-7,-47],[-26,-17],[-19,25],[24,32],[-12,40],[82,59],[23,30],[51,7],[6,24],[34,4],[5,-27],[34,-21],[41,11],[25,29],[-2,65],[58,-4],[36,12],[-14,38],[4,40],[35,18],[-14,51],[-39,31],[11,36],[-10,41],[17,24],[48,-38],[25,5],[59,57],[75,37],[37,38],[25,8],[31,40],[60,14],[-31,-77],[8,-75],[44,41],[71,27],[46,47],[-15,57],[12,83],[92,6],[37,24],[3,69],[-34,23],[-18,58],[-78,46],[11,44],[57,26],[45,67],[0,75],[-22,44],[-8,101],[-30,82],[-23,20],[27,38],[-11,52],[-2,99],[-11,58],[37,116],[-26,29],[12,24],[35,-3],[43,26],[77,-74],[-28,76],[27,90],[27,-44],[26,16],[87,26],[-10,32],[33,21],[48,-15],[65,-32],[-46,67],[-70,134],[-22,63],[73,12],[40,15],[26,-7],[66,19],[41,-5],[78,24],[23,46],[-16,42],[-4,100],[-9,39],[60,54],[67,73],[84,37],[20,34],[44,15],[68,36],[42,75],[-39,49],[-23,103],[-6,50],[-18,31],[-14,59]],[[9710,12270],[-96,89],[0,27],[24,98],[-9,60],[-31,28],[-53,22],[-22,47],[-33,45],[-10,67],[-15,37],[-45,37],[-67,99],[-59,30]],[[19252,17106],[16,-51],[15,-86],[-10,-46],[24,-74],[23,-36],[14,-72],[-2,-92],[-61,-91],[-57,-59],[-14,-30],[-2,-94],[-42,-52]],[[19156,16323],[-43,19],[-72,-72],[-49,-13],[-34,24],[-8,27],[-42,31],[-40,-57],[5,-30],[34,-19],[-40,-27],[-78,34],[-4,-71],[-40,5],[-9,-57],[-19,-13],[-43,11],[-65,1],[-50,29],[-8,61],[-66,-10],[-30,19]],[[10138,8399],[-10,-61],[0,-66],[-14,-36],[11,-93],[-43,-57],[-26,-59],[-38,-3],[-24,-49],[-57,-49],[-33,-6],[-32,33],[-45,72],[-64,87],[-112,112],[-77,116],[-32,63],[-59,156],[-26,35],[-106,92],[-60,73],[-134,-1],[-57,-21],[-43,38],[-45,-19],[-11,-19],[28,-53],[-8,-46],[-24,-56],[-84,0],[-41,18],[-7,-83],[-15,-7],[-56,41],[-88,15],[-491,16],[-80,-1],[-53,28],[-56,-19],[-56,16],[-41,64],[-33,91],[-132,185],[-10,2],[-192,-104],[15,-73],[-11,-10],[-428,1],[-14,13],[-4,123],[-18,12],[-615,-8],[-51,-3],[-162,-83],[-8,-17],[11,-66],[-73,-93],[-56,-47],[-55,-19],[-94,16],[-75,7],[-61,34],[-30,-3],[-38,-40],[-85,-8],[-46,52],[-36,66],[1,68],[-10,20],[-42,22],[-50,-14],[-76,-103],[-30,-26],[-56,-20],[-110,-12],[-19,-15],[-54,-7],[-74,-42],[-37,22],[-22,-19],[0,-56],[-18,-13],[-94,-17],[-190,-25],[-33,5],[-32,-22],[-104,-129],[-82,-52],[-27,-54],[-65,-22],[-62,18],[-26,-11],[-86,-65],[-54,-97],[2,-68],[-20,-64],[-5,-141],[-58,-190],[6,-114],[35,-121],[18,-94],[0,-154],[6,-77]],[[4160,7009],[-685,772],[-606,807],[-634,847]],[[19156,16323],[-41,-32],[-99,-97],[-39,-81],[-4,-76],[13,-47],[-5,-38],[-27,-27],[-117,-80],[-31,-7],[-40,14],[-58,-11],[-23,-42],[-36,-27],[-16,-54],[-29,-36],[-19,-57],[-29,-34],[14,-68],[-8,-27],[-41,-41],[2,-112],[27,-23],[-18,-107],[-38,-37],[-11,-43],[-51,-65],[-55,-152],[-74,-98],[-14,-69],[-16,-30],[-54,46]],[[8004,18988],[93,29],[71,-1],[33,60],[80,22],[118,11],[109,23],[85,58],[52,13],[121,-11],[51,4],[123,38],[50,33],[18,23],[42,120],[24,52],[58,49],[64,26],[85,79],[10,50],[35,34],[38,-4],[13,-37],[28,-21],[36,7],[48,58],[69,29],[105,14],[126,-12],[47,-28],[43,11],[57,58],[69,55],[89,27],[55,-3],[59,94],[68,61],[44,19],[37,56],[28,17],[53,-6],[96,-34],[61,17],[10,33]],[[10157,14669],[-91,14],[-50,22],[-79,11],[-46,79],[-85,38],[-22,20],[-63,14],[20,55],[-80,27],[-24,73],[-57,-10],[-17,8],[-8,67],[-24,8],[-71,-34],[-13,-41],[-54,-91],[-31,15],[-20,37],[-70,30],[-60,-38],[-109,12],[-59,-22]],[[21076,17314],[-26,-104],[-55,-88],[0,-66],[39,-62],[0,-95],[-33,-29],[-56,-2],[-32,-36],[-21,-55],[-70,-69],[-72,-111],[-59,-21],[-56,-72],[-11,-77],[-17,-22],[-61,-28],[-16,-27],[-17,-78],[4,-94],[-10,-79],[9,-58],[-10,-109],[-19,-50],[-85,-63],[-101,-47],[-114,-59],[-12,-12],[-48,-96],[-59,-62],[-56,-40],[-18,-93],[-58,-144],[-33,-36],[-23,-67],[-111,-146],[3,-54],[-41,-76],[-1,-62],[-36,-54],[-34,-25],[-25,-40],[-40,-115],[-74,-57],[-35,-46],[-10,-85],[-11,-25],[-67,-11],[-47,-19],[5,-51],[-35,-63],[-12,-78]],[[13217,5790],[-49,-48],[-12,-32],[5,-48],[22,-27],[40,-8],[66,4],[137,41],[83,33],[30,2],[52,-19],[21,-53],[-11,-83],[8,-60],[37,-64],[48,-42],[106,-63],[39,-14],[63,-39],[53,-77],[20,-48],[51,-166],[-3,-59],[-44,-120],[-52,-56],[-44,-28],[-115,-53],[-79,-59],[-175,-116],[-88,-18],[-37,-25],[-39,-99],[-5,-74],[-78,-104],[-17,-63],[17,-101],[63,-124],[7,-50],[-7,-53],[-33,-63],[-42,-58],[-46,-102],[-35,-66],[-40,-7],[-36,14],[-59,52],[-49,12],[-63,-12],[-39,-37],[-26,-40],[-52,-114],[-43,-37],[-130,-46],[-32,-26],[-20,-65],[10,-75],[-13,-129],[-40,-167],[-64,-74],[-13,-56]],[[12465,2681],[-81,-37],[-46,20],[-20,-77],[-38,-41],[-41,-8],[-64,36],[-87,127],[-33,105],[-17,36],[-98,83],[-60,59],[-49,62],[-68,126],[-18,45],[-4,47],[3,156],[-25,100],[-39,68],[-52,65],[-17,36],[-13,68],[-15,27],[-156,210],[-28,52],[-37,119],[-16,108]],[[6549,4224],[-45,55],[-112,112],[-136,185],[-103,128],[-146,150],[-227,281],[-271,325],[-82,104],[-339,405],[-40,46],[-314,382],[-244,274],[-104,95],[-151,156],[-75,87]],[[12465,2681],[-33,-86],[-55,-70],[-21,-38],[-65,-28],[-123,29],[-62,31],[-88,18],[-79,-6],[-71,-29],[-30,-66],[-42,-62]],[[11796,2374],[-22,52],[36,34],[32,166],[-22,32],[-2,43],[-18,12],[-37,-13],[-20,32],[-27,-4],[-11,75],[-32,23],[-42,-10],[-14,78],[-53,42],[-24,67],[-64,51],[-36,52],[-7,55],[-24,32],[21,27],[-65,63],[21,45],[57,17],[-3,51],[-19,2],[-15,84],[66,0],[44,-21],[-2,36],[-58,28],[-24,28],[10,71],[-86,46],[-3,52],[-49,45],[-79,-48],[-29,19],[-29,39],[-36,-34],[-6,-37],[-28,-15],[-30,14],[-26,-24],[19,-65],[-35,0],[-54,52],[10,32],[-14,28],[-41,19],[-29,36],[-47,30],[21,19],[79,-22],[32,3],[8,26],[-40,35],[-27,41],[-5,30],[-52,-1],[-6,30],[43,45],[-34,43],[-11,38]],[[11796,2374],[-34,-36],[-67,-47],[-70,-39],[-23,-29],[-20,-86],[6,-40]]],"transform":{"scale":[0.000034375735579125445,0.000025321593964744736],"translate":[-120.9955,37.831858]},"objects":{"Geometry\\06-009":{"type":"GeometryCollection","geometries":[{"arcs":[[0,1,2,3,4,5,6,7]],"type":"Polygon","properties":{"GEOID":"060090001211"}},{"arcs":[[8,9,10,11,12,-3]],"type":"Polygon","properties":{"GEOID":"060090001223"}},{"arcs":[[13,14,15]],"type":"Polygon","properties":{"GEOID":"060090002202"}},{"arcs":[[16,17,18,19,20,21]],"type":"Polygon","properties":{"GEOID":"060090005011"}},{"arcs":[[22,23,24,25]],"type":"Polygon","properties":{"GEOID":"060090005042"}},{"arcs":[[26,27,-21,28,29,-9,-2]],"type":"Polygon","properties":{"GEOID":"060090001222"}},{"arcs":[[30,31,-24,32,33,34,-17]],"type":"Polygon","properties":{"GEOID":"060090005041"}},{"arcs":[[35,-29,-20,36,37,38,-11]],"type":"Polygon","properties":{"GEOID":"060090005012"}},{"arcs":[[-26,39,40,41,42]],"type":"Polygon","properties":{"GEOID":"060090004003"}},{"arcs":[[43,44,-40,-25,-32,45,46,47]],"type":"Polygon","properties":{"GEOID":"060090004004"}},{"arcs":[[48,49,-14,50]],"type":"Polygon","properties":{"GEOID":"060090002201"}},{"arcs":[[51,-42,52]],"type":"Polygon","properties":{"GEOID":"060090004002"}},{"arcs":[[-48,53,54,55]],"type":"Polygon","properties":{"GEOID":"060090004005"}},{"arcs":[[-36,-10,-30]],"type":"Polygon","properties":{"GEOID":"060090001221"}},{"arcs":[[56,-44,-56,57,58]],"type":"Polygon","properties":{"GEOID":"060090004006"}},{"arcs":[[-53,-41,-45,-57,59]],"type":"Polygon","properties":{"GEOID":"060090004001"}},{"arcs":[[60,-4,-13,61,62,-6]],"type":"Polygon","properties":{"GEOID":"060090001213"}},{"arcs":[[63,64,65,66]],"type":"Polygon","properties":{"GEOID":"060090001241"}},{"arcs":[[67,68,69,70,71,72]],"type":"Polygon","properties":{"GEOID":"060090002213"}},{"arcs":[[73,74,75,76,77,-68]],"type":"Polygon","properties":{"GEOID":"060090003012"}},{"arcs":[[-46,-31,-22,-28,78]],"type":"Polygon","properties":{"GEOID":"060090003022"}},{"arcs":[[79,-16,80,81,82]],"type":"Polygon","properties":{"GEOID":"060090002222"}},{"arcs":[[83,-71,84,-51,-80]],"type":"Polygon","properties":{"GEOID":"060090002221"}},{"arcs":[[-72,-84,-83,85]],"type":"Polygon","properties":{"GEOID":"060090002211"}},{"arcs":[[-85,-70,86,-49]],"type":"Polygon","properties":{"GEOID":"060090002212"}},{"arcs":[[-61,-5]],"type":"Polygon","properties":{"GEOID":"060090001212"}},{"arcs":[[-77,87,88,-54,-47,-79,-27,-1,89]],"type":"Polygon","properties":{"GEOID":"060090003021"}},{"arcs":[[-35,90,91,-18]],"type":"Polygon","properties":{"GEOID":"060090005051"}},{"arcs":[[-81,-15,-50,-87,-69,-78,-90,-8,92,93]],"type":"Polygon","properties":{"GEOID":"060090002203"}},{"arcs":[[-19,-92,94,-37]],"type":"Polygon","properties":{"GEOID":"060090005052"}},{"arcs":[[95,-58,-55,-89,96,-75]],"type":"Polygon","properties":{"GEOID":"060090003011"}},{"arcs":[[-95,-91,-34,97,-38]],"type":"Polygon","properties":{"GEOID":"060090005061"}},{"arcs":[[-97,-88,-76]],"type":"Polygon","properties":{"GEOID":"060090003013"}},{"arcs":[[-7,-63,98,99,-67,100,-93]],"type":"Polygon","properties":{"GEOID":"060090001242"}},{"arcs":[[-64,-100,101,102]],"type":"Polygon","properties":{"GEOID":"060090001232"}},{"arcs":[[-103,103,-65]],"type":"Polygon","properties":{"GEOID":"060090001231"}}]}}}