{"type":"Topology","arcs":[[[11579,10716],[-12,-45],[-30,-53],[-32,-14],[-41,-37],[8,-17],[-47,-61],[36,-24],[2,-22],[-67,-88],[-66,-30],[-27,-108],[22,-79],[7,-69],[-10,-110],[31,-47]],[[11353,9912],[-58,-45]],[[11295,9867],[-44,63],[-33,30],[-43,29],[-92,53],[-30,9],[-60,7],[-34,17],[-48,48],[-46,32],[-30,30]],[[10835,10185],[11,16],[-12,36],[-1,48],[19,46],[17,10],[46,-1],[24,16],[22,32],[36,25],[77,21],[20,24],[106,65],[26,2],[1,-58],[43,1],[61,28],[16,24],[36,28],[59,71],[31,24],[36,8],[32,25],[15,33],[23,7]],[[11353,9912],[193,121],[46,35],[38,44],[108,167],[112,238],[26,45],[52,67],[39,39],[75,61],[21,100],[-11,59],[13,155],[22,63],[7,71],[21,41],[-3,102],[-15,27],[4,20],[27,24],[-20,38]],[[12108,11429],[11,24],[113,15],[11,-63],[20,-43],[77,-5],[73,28],[43,44],[197,-56],[-55,-77],[-47,-54],[-38,-35],[-24,-59],[-6,-36],[-17,-50],[-33,-54],[-38,-50],[2,-27]],[[12397,10931],[-96,-65],[-99,-53],[-36,-29],[-39,-52],[-34,-74]],[[12093,10658],[-84,-176],[-67,-144],[-32,-56],[-191,-297],[-23,-44],[-115,-293],[-36,-52],[-72,-45],[-24,-20]],[[11449,9531],[-31,57],[-123,279]],[[11579,10716],[6,24],[-6,45],[12,45],[32,42],[23,72],[5,43],[-9,30],[3,27],[-22,34],[4,40],[23,28],[19,47],[13,57],[35,84],[32,35],[34,58],[0,44],[21,24],[22,42],[31,0],[23,29],[-12,55],[16,24],[5,40],[68,23],[-13,38],[-2,45],[19,13],[59,3],[29,-31],[1,-24],[-17,-62],[0,-29],[-29,-3],[-25,-25],[32,-40],[32,-2],[26,-20],[38,-99],[1,-43]],[[13104,6351],[196,-3]],[[13300,6348],[1,-337],[35,0],[45,-243]],[[13381,5768],[-163,-19],[-150,37],[-143,105],[-118,100],[-137,5]],[[12670,5996],[192,218],[18,16],[107,33],[57,35],[22,31],[38,22]],[[18403,10831],[11,44],[-52,66],[33,14],[-15,127],[67,-53],[85,-20],[68,-72],[36,-21],[21,3],[41,-33],[37,-1],[57,-27],[34,-23],[15,3],[-1,37],[-19,37],[63,5],[27,-10],[9,19],[33,17],[20,-13],[31,24],[36,-3],[22,-13],[16,-50],[30,15],[36,1],[44,-28],[13,14],[54,-6],[13,-32],[43,-13],[16,-19],[54,6],[4,27],[54,-30],[12,13],[41,-5],[16,38],[31,22],[-5,34],[42,7],[-9,42],[50,19],[19,25]],[[19636,11018],[56,-28],[32,1],[33,-18],[61,13],[31,-9],[21,-22],[26,5],[32,-21],[6,-27],[20,-37],[26,-28],[24,-2],[69,-36],[39,-33],[36,-11],[56,9],[32,24],[26,-14],[56,-5],[49,-11],[71,-38],[7,-22],[28,-9],[36,4],[26,-16],[19,-31],[31,-19],[22,-28],[33,-25],[41,-48],[18,-61],[92,-41],[35,0],[23,-32],[62,-21],[12,-66],[22,-18],[43,0],[43,-15],[55,7],[57,23],[44,-10],[75,10],[45,-26],[51,-12],[49,-29],[-3,-46],[-58,-61],[38,-36],[40,-8],[30,-23],[51,-10],[96,52],[23,37],[31,-19],[45,-4],[27,-29],[12,-54],[19,-22],[5,-32],[24,-22],[15,-39],[202,-303],[54,-132],[78,-48],[75,-151],[101,-113],[25,-22],[381,-170],[55,-26],[34,-23],[34,-42],[12,-27],[-99,12],[-14,-44],[-82,17],[14,84],[-33,9],[-189,-313],[324,-241],[48,96],[151,-138],[150,-60],[-419,-427],[49,-47],[-25,-65],[-26,-35],[-5,-44],[-59,-37],[-110,2],[-33,-43],[7,-32],[-52,-20],[-96,-27]],[[22354,7519],[-18,-4],[-21,-34],[38,-78],[25,-36],[13,-56],[-17,-110],[-36,-58],[-15,-40],[-73,-143],[-31,-70]],[[22219,6890],[-17,21],[-300,-23],[-16,-3],[-151,-102],[-24,-11],[-84,-12],[-165,-16],[-46,-2],[-42,9],[-27,-8],[-9,-21],[-9,-65]],[[21329,6657],[-25,-46]],[[21304,6611],[-89,6],[-21,7],[-125,70],[-11,-5],[-465,0],[-37,3],[-97,20],[-77,0],[-84,-18],[-125,-3]],[[20173,6691],[-56,82],[-23,45],[-53,151],[-13,32],[-75,105],[-9,67],[-16,30],[-3,74],[-16,49],[46,115],[-1,37],[19,75],[95,311],[-59,16],[-24,-27],[-43,-20],[-10,10],[19,32],[-5,67],[-67,46],[-25,41],[-22,171],[-25,94],[-39,13],[-51,44],[-31,-21],[-33,-1],[-41,-22],[-29,25],[-32,46],[-35,19],[-23,32],[-7,51],[-26,34],[-15,54],[-66,104],[-96,-26],[-98,16],[-49,41]],[[19136,8703],[39,-17],[57,-3],[17,8],[-59,31],[-31,61],[-41,35],[-45,53],[-98,31],[-47,46],[24,43],[-20,40],[-13,44],[-30,23],[15,37],[-8,41],[-35,35],[-8,59],[-27,9],[-18,36],[-11,62],[36,15],[-12,53],[-14,-3],[-79,30],[-38,36],[-39,21],[-73,29],[-41,29],[-39,6],[-71,38],[-36,27],[-7,26],[-33,34],[-45,32],[-22,42],[28,26],[-3,31],[-25,12],[-6,48],[21,22],[30,-6],[20,56],[28,35],[2,41],[16,56],[1,37],[60,10],[21,32],[26,13],[23,45],[20,20],[-1,30],[31,28],[6,22],[-22,43],[-8,39],[-36,18],[-4,52],[-25,44],[-49,5],[-6,37],[18,28],[-28,103],[14,32],[-26,24],[-12,34],[5,22]],[[13104,6351],[71,70],[17,34],[21,80]],[[13213,6535],[75,-12],[88,5],[244,26]],[[13620,6554],[0,-204]],[[13620,6350],[-51,-4],[-269,2]],[[10483,6615],[31,-25],[93,-37],[102,-65]],[[10709,6488],[-136,-180]],[[10573,6308],[-21,-10],[-150,-60]],[[10402,6238],[-22,44],[1,21],[-26,33],[33,18],[88,106],[15,38],[-29,39],[9,60],[12,18]],[[21095,4778],[121,105]],[[21216,4883],[11,-13]],[[21227,4870],[178,-219]],[[21405,4651],[25,-34]],[[21430,4617],[-85,-58]],[[21345,4559],[-43,-29],[-71,-72],[-19,28],[-68,53],[-67,114],[-8,23],[9,38],[42,39],[-25,25]],[[20937,4734],[7,-71],[-9,-64],[26,-54]],[[20961,4545],[49,-66],[42,-37],[44,-93],[-14,-70]],[[21082,4279],[-5,3],[-183,36],[-18,0]],[[20876,4318],[-35,7]],[[20841,4325],[11,44],[-18,44],[7,36],[43,116],[14,70],[39,99]],[[21227,4870],[71,59],[74,66],[91,75]],[[21463,5070],[28,-42],[94,25],[63,-11],[41,4],[36,18],[23,33],[68,41],[28,10],[74,-2],[30,-16],[36,-32],[46,-21],[55,9],[92,9]],[[22177,5095],[-1,-25],[-20,-104],[-68,-241]],[[22088,4725],[-401,93],[20,-76]],[[21707,4742],[-51,-11],[-140,-47],[-111,-33]],[[21345,4559],[62,-65],[19,-57],[-7,-34],[-46,-56],[-48,-50],[-20,-59]],[[21305,4238],[-223,41]],[[20961,4545],[19,15],[14,65],[24,36],[5,45],[11,18],[61,54]],[[21430,4617],[30,-36],[100,-99]],[[21560,4482],[51,-68],[67,-77]],[[21678,4337],[-139,-89]],[[21539,4248],[-27,35],[-36,-68],[-64,4],[-107,19]],[[21707,4742],[18,-67],[29,-40],[40,-12],[-8,-28]],[[21786,4595],[-40,-3],[-108,-61],[-78,-49]],[[22088,4725],[-52,-189]],[[22036,4536],[-250,59]],[[22036,4536],[-37,-132],[-53,-50]],[[21946,4354],[-173,-144]],[[21773,4210],[-95,127]],[[21539,4248],[109,-141]],[[21648,4107],[-123,-103]],[[21525,4004],[-270,207]],[[21255,4211],[43,2],[7,25]],[[21773,4210],[-125,-103]],[[21773,4210],[134,-136]],[[21907,4074],[-64,-48],[-86,-72],[110,-111],[-33,-27]],[[21834,3816],[-41,-49],[-186,196]],[[21607,3963],[-58,18],[-24,23]],[[20884,3477],[180,152],[211,180],[191,84],[79,31],[62,39]],[[21834,3816],[33,-33]],[[21867,3783],[-77,-71],[-48,-64],[-31,-15],[-78,-76],[-32,-59],[-40,-101],[-51,-98],[-94,-79],[-37,-35],[-24,-52],[-8,-68],[-11,-35],[-40,-23],[-98,-82],[-28,-31],[-48,-17],[-74,-46]],[[21048,2831],[-56,409],[-21,76],[-20,42],[-67,119]],[[21000,3768],[120,91],[40,231],[40,71],[55,50]],[[20884,3477],[-103,182]],[[20781,3659],[61,45],[49,24],[109,40]],[[20871,4885],[58,116],[23,30],[64,62]],[[21016,5093],[113,-113],[87,-97]],[[20937,4734],[-30,116],[-36,35]],[[13620,6801],[319,1],[90,-1]],[[14029,6801],[25,-31]],[[14054,6770],[-40,-78],[-60,-76],[-29,-23],[-47,-12],[-258,-27]],[[13620,6554],[0,247]],[[12190,12246],[67,-1],[78,37],[32,6],[55,-20],[49,5],[64,14],[50,-6],[51,17],[19,26],[55,146],[15,24],[57,13],[49,-25],[35,-9],[40,1],[48,-25],[33,2],[78,-31],[53,-30],[7,-20],[43,0]],[[13168,12370],[49,-75],[8,-26],[-7,-30],[-112,-158],[-13,-56],[10,-41],[27,-48],[1,-39],[-11,-28],[-25,-29],[-18,-53],[7,-38],[17,-31],[47,-63],[16,-36],[2,-25]],[[13166,11594],[-8,-43],[-26,-37],[-71,-72]],[[13061,11442],[-49,-44],[-41,-26],[-40,-16],[-93,-17],[-37,-13],[-66,-49],[-147,-176],[-74,-77],[-117,-93]],[[10835,10185],[-57,106],[-43,41]],[[10735,10332],[-101,94],[-34,22],[-32,8],[-67,-10]],[[10501,10446],[24,71],[12,80],[38,84],[-66,159],[20,123],[-43,133],[105,229],[3,44],[12,27],[0,101],[-19,31],[27,40],[-4,39],[66,49],[15,48],[62,36],[49,-2],[85,133],[33,67],[68,230],[93,57],[41,8],[29,-24],[4,-39],[18,2],[36,24],[51,-23],[26,12],[32,-17],[42,16],[75,-67],[31,-16],[3,36],[-7,33],[27,31],[43,2],[-5,-31],[39,-46],[16,-7],[-6,-28],[-23,-12],[48,-31],[47,-48],[32,10],[24,-18],[26,28],[26,-5],[-3,47],[18,4],[39,-15],[52,-54],[19,27],[63,-4],[5,35],[44,-22],[12,3],[38,50],[36,19],[1,20],[33,36],[33,13],[23,19],[5,38],[16,15]],[[13620,6350],[1,-142],[50,-198]],[[13671,6010],[-46,-34],[-151,-85],[-93,-123]],[[13382,7221],[58,-12]],[[13440,7209],[56,-5],[144,-8]],[[13640,7196],[0,-19],[-21,-77],[0,-95]],[[13619,7005],[1,-204]],[[13620,6801],[-320,-1],[-33,4],[-32,17]],[[13235,6821],[2,59],[34,91],[14,103],[13,23],[47,41],[4,29],[36,31],[-3,23]],[[21907,4074],[58,-58],[71,58]],[[22036,4074],[66,27]],[[22102,4101],[-3,-37],[-30,-47],[5,-42],[22,-17]],[[22096,3958],[-56,-44],[-39,-46],[-134,-85]],[[22036,4536],[57,-7],[130,-30],[67,1],[147,-44],[35,-1],[30,-11],[9,21],[85,-32]],[[22596,4433],[-26,-59],[-26,-34],[-57,-27],[-38,-9],[-52,2],[-69,-12],[-65,-22],[-58,-8],[-61,-87],[-42,-76]],[[22036,4074],[67,64],[23,35],[-180,181]],[[20628,5059],[98,-132]],[[20726,4927],[-151,-22],[-38,-25],[44,-55],[0,-90],[10,-18],[-10,-44],[-99,14],[-1,-129],[-5,-21],[-23,-33],[-52,-43],[-8,-33],[85,-33]],[[20478,4395],[-123,23]],[[20355,4418],[-57,69],[-48,37],[-147,103]],[[20103,4627],[56,119],[81,116],[37,33],[31,11],[78,13],[36,12],[206,128]],[[15878,6617],[76,-35],[87,-20],[50,-5]],[[16091,6557],[161,-64],[110,-78],[26,-28],[61,-46],[68,-84],[20,-9],[46,-2],[31,17],[15,30],[-22,48]],[[16607,6341],[25,-23],[12,-71],[10,-16],[236,-272],[53,-40],[33,-52],[31,-34]],[[17007,5833],[179,-191],[55,-76],[7,-21],[55,-75],[72,-112],[13,-46],[6,-54],[13,-35],[31,-32]],[[17438,5191],[-22,-12],[-130,-136]],[[17286,5043],[-178,231],[-261,297],[-325,290],[-203,200],[-232,168],[-263,175]],[[15824,6404],[25,110],[27,76],[2,27]],[[11314,7000],[52,33],[115,41]],[[11481,7074],[73,30],[153,34],[39,3],[100,-1]],[[11846,7140],[8,-73]],[[11854,7067],[-111,-66],[-113,-70],[-13,-12],[35,-89]],[[11652,6830],[-42,-20],[-175,-95],[-19,-25],[-10,-46],[-21,-19]],[[11385,6625],[-12,39],[-7,93],[7,36]],[[11373,6793],[7,26],[-10,51],[-56,130]],[[11082,6752],[180,40],[6,-23],[105,24]],[[11385,6625],[-38,-19],[-214,-26]],[[11133,6580],[-43,136],[-8,36]],[[11385,6625],[16,-40],[28,-23],[40,-11],[69,0]],[[11538,6551],[-183,-73],[28,-66],[-95,-34],[-53,53],[-5,38],[-48,-15]],[[11182,6454],[-42,117],[-7,9]],[[14117,7238],[123,11],[73,2],[383,-1]],[[14696,7250],[-26,-71]],[[14670,7179],[-202,1],[-46,-16],[-151,-121],[-84,-125]],[[14187,6918],[-113,102],[43,218]],[[17455,7791],[14,37],[33,25],[24,34],[55,39],[34,37],[13,58],[32,96],[46,84],[27,9],[55,52],[50,-6],[35,9],[7,14],[40,-8],[-22,-57],[-21,-36],[-19,-16],[-76,-259],[1,-51],[25,-69],[17,-18],[50,-77],[81,31],[50,27],[37,11],[48,2],[33,-10],[156,-68],[95,-64],[95,-122],[39,-73]],[[18509,7422],[-173,-10],[-47,-13],[-167,-36],[-65,-8],[-217,6],[-109,9],[-62,-10],[-75,-53],[-55,-64],[-39,-98]],[[17500,7145],[-10,9],[-12,52],[-21,45],[-1,32],[17,43],[-6,40],[-19,55],[17,19],[45,11],[-7,29],[6,40],[31,27],[11,37],[-74,135],[-8,54],[-14,18]],[[11935,6871],[21,-66],[-1,-97]],[[11955,6708],[-1,-52],[8,-135]],[[11962,6521],[-118,-30],[-48,-22]],[[11796,6469],[-16,26]],[[11780,6495],[-14,48],[68,108],[39,35],[-70,79],[-38,54],[-4,36],[174,16]],[[12407,6607],[73,13]],[[12480,6620],[257,-3],[106,-14]],[[12843,6603],[6,-38],[-6,-28],[-94,-184],[-23,-34]],[[12726,6319],[-24,2],[-100,35],[-58,27],[-47,-1],[-34,-22],[-43,-81]],[[12420,6279],[-29,0],[-30,40],[15,24],[9,75],[43,8],[2,43],[-38,4],[15,52],[0,82]],[[20840,5240],[37,58],[25,24],[62,40],[47,14]],[[21011,5376],[30,-13],[45,-49],[45,-40]],[[21131,5274],[-24,-46],[-91,-135]],[[20871,4885],[-48,-94]],[[20823,4791],[-97,136]],[[20628,5059],[65,40],[58,22],[40,33],[49,86]],[[11955,6708],[158,-18],[-8,14],[63,16],[-31,163],[-57,261]],[[12080,7144],[115,-3],[117,10],[43,9],[79,41],[31,30]],[[12465,7231],[6,-7]],[[12471,7224],[12,-17],[-68,-74],[23,-44],[28,-21]],[[12466,7068],[4,-21],[-32,-48],[20,-8],[-21,-29],[-19,-57],[-21,10],[-48,-112],[3,-12],[-26,-57],[-31,-31],[-40,-103],[-30,-42]],[[12225,6558],[-27,-3]],[[12198,6555],[-116,-7],[-120,-27]],[[20173,6691],[-51,1],[0,-41],[-24,-65],[-29,-43],[-29,-5],[-23,-29],[-10,-53],[-16,-35],[15,-37],[48,-16],[12,-71],[-18,-64],[-20,-25],[-5,-51],[30,-33],[-6,-41],[129,-43],[25,-17],[19,-47],[-1,-73],[-11,-43],[50,-4],[28,-37],[39,9],[19,-8],[15,-48]],[[20359,5772],[-42,0],[-46,-48]],[[20271,5724],[-106,90],[-20,20],[-152,180],[-92,90],[-38,32],[-163,122],[-73,78],[-59,96],[-30,27],[-97,52],[-74,64],[-74,44],[-21,17],[-76,125],[-67,52],[-73,46],[-84,102],[-27,45],[-83,166],[-40,35],[-49,61],[-43,61],[-46,26],[-40,34],[-67,30]],[[18577,7419],[37,-3],[63,-18],[57,1],[22,38],[-6,48],[36,29],[50,6],[72,19],[4,-31],[48,2],[66,34],[109,40],[44,3],[37,13],[59,45],[51,57],[46,8],[-10,49],[6,53],[-13,93],[-31,49],[-48,23],[-25,33],[23,20],[54,70],[33,19],[-11,27],[18,14],[-4,21],[-73,47],[-40,21],[-11,36],[22,31],[-60,48],[1,31],[-11,19],[-101,12],[-31,37],[-43,15],[12,14],[-73,36],[-31,-18],[-14,18],[-49,-3],[-39,45],[-27,22],[-37,-26],[-21,13],[-27,-15],[-8,31],[-34,50],[15,23],[-11,13],[0,39],[-20,5],[-18,43],[-61,-31],[-48,62],[-1,20],[36,19],[18,22],[-72,38],[-45,35],[-40,-12],[-43,-27],[-66,38],[-17,18],[13,25],[-2,33],[53,36],[-25,27],[-26,5],[11,56],[-10,16],[-40,23],[9,28],[-2,46],[52,19],[18,16],[60,-1],[11,-11],[2,-45],[-32,-19],[29,-26],[21,7],[41,35],[-10,-45],[18,-27],[29,-9],[30,-51],[4,-48],[43,-30],[64,-12],[81,-38],[23,-47],[144,-125],[24,-8],[53,-3],[59,-45],[63,-10],[32,-19]],[[21340,6180],[219,-1]],[[21559,6179],[0,-4],[167,1],[66,-1],[1,-184],[-229,10],[-3,-155],[3,-41],[-70,3],[-1,-50],[-15,-87],[-153,11]],[[21325,5682],[18,48],[-1,125],[-2,325]],[[20841,4325],[-114,19],[-117,25]],[[20610,4369],[29,58],[184,364]],[[21131,5274],[41,-36],[87,-28],[28,-20],[-3,-27],[14,-13],[54,-13],[52,-1],[19,-29],[40,-37]],[[20610,4369],[-9,-2],[-123,28]],[[12225,6558],[33,6],[149,43]],[[12420,6279],[-20,-36],[-84,-215]],[[12316,6028],[-73,-8]],[[12243,6020],[1,259],[8,49],[-1,55],[8,14],[-25,52],[-4,50],[-32,56]],[[12843,6603],[370,-68]],[[13104,6351],[-176,-45],[-51,-7],[-56,3],[-95,17]],[[12920,6893],[234,-21],[27,-8],[54,-43]],[[13235,6821],[-17,-41],[-18,-162],[22,-38],[-9,-45]],[[12843,6603],[77,290]],[[12670,5996],[-160,-39],[-118,78],[-76,-7]],[[13640,7196],[64,-1],[126,12]],[[13830,7207],[31,-75],[48,-54],[22,-72]],[[13931,7006],[-312,-1]],[[13440,7413],[1,0]],[[13441,7413],[72,-18],[35,-2],[69,11],[114,24],[72,-10],[57,-2],[51,21]],[[13911,7437],[75,28],[41,1],[33,-12],[33,-38]],[[14093,7416],[57,-21]],[[14150,7395],[-33,-157]],[[14117,7238],[-287,-31]],[[13440,7209],[2,95],[-2,109]],[[14150,7395],[168,22],[152,7],[116,-3],[74,15],[94,48],[44,18],[120,37],[33,3],[30,-11]],[[14981,7531],[63,-47],[68,-24],[178,-48]],[[15290,7412],[-46,-24],[-10,-25],[-2,-63],[18,-76],[-3,-34]],[[15247,7190],[-343,54],[-43,4],[-165,2]],[[13931,7006],[17,-73],[15,-31],[66,-101]],[[14183,6877],[152,39],[187,52],[63,42]],[[14585,7010],[17,-18],[18,-202]],[[14620,6790],[-181,-145],[-187,-106]],[[14252,6539],[-60,66],[-107,124],[-31,41]],[[14054,6770],[28,57],[31,27],[70,23]],[[16046,6860],[113,-12],[50,3]],[[16209,6851],[273,20],[50,2],[83,-9],[37,-8]],[[16652,6856],[-62,-39]],[[16590,6817],[-58,-51],[-80,-64],[-36,-13],[-83,-9],[-65,9]],[[16268,6689],[-61,-30],[-38,-33],[-55,-59],[-23,-10]],[[15878,6617],[32,92],[13,52],[21,23],[53,36],[31,15],[18,25]],[[17500,7145],[-22,-49],[-80,-104],[-48,-37],[-24,-26],[-74,-142],[-25,-59],[-29,-44],[-40,-35]],[[17158,6649],[-74,37],[-370,148],[-62,22]],[[16209,6851],[-37,49],[-24,11],[-31,28]],[[16117,6939],[28,38],[11,41],[50,28],[54,-4],[57,-11],[60,23],[58,-8],[52,36],[31,5],[38,21],[27,3],[39,21],[61,15],[61,36],[76,7],[57,31],[47,9],[67,-8],[56,54],[16,34],[75,65],[18,35],[44,44],[75,0],[37,20],[80,73],[2,28],[-19,57],[1,16],[25,65],[-5,43],[-35,32],[-25,9],[-9,70],[27,-5],[3,-34],[17,-21],[54,-17],[27,1]],[[18509,7422],[68,-3]],[[20271,5724],[3,-2],[-197,-173],[-31,17],[-249,-106],[-178,19],[19,-72],[42,-183],[27,-70],[37,-59],[51,-32],[75,-66],[24,-34],[27,-107],[11,-87],[33,-28]],[[19965,4741],[-8,-18]],[[19957,4723],[-159,110],[-41,25],[-93,44],[-564,193]],[[19100,5095],[-379,128],[-69,24],[-45,23],[-79,48],[-296,223],[-59,47],[-107,92],[-126,123],[-71,78],[-303,340]],[[17566,6221],[-328,361],[-32,31],[-48,36]],[[14187,6918],[-4,-41]],[[14670,7179],[-29,-91],[-56,-78]],[[20841,4325],[-4,-30],[-57,-33],[-19,-30],[-65,-197],[-14,-122],[-18,-45]],[[20664,3868],[-245,439],[-64,111]],[[21000,3768],[-13,52],[-28,86],[-10,123],[-26,39],[-73,39],[-25,42],[-6,62],[13,29],[33,43],[11,35]],[[15290,7412],[15,36],[3,40],[-11,32],[0,32],[36,96],[52,41],[17,-9],[124,8],[16,171],[-9,29],[19,16],[49,-16],[43,25],[11,26],[-12,27],[33,26],[-14,25],[21,28],[17,54],[44,0],[20,-12],[-3,-29],[89,-12],[49,5]],[[15899,8051],[18,-49],[4,-40],[-7,-55],[-21,-44],[18,-66],[-3,-53],[-31,-52],[-3,-57],[-20,-46],[28,-57],[53,-162],[8,-32],[19,-19],[30,-63],[3,-38],[28,-63],[5,-101],[-13,-35],[17,-40],[3,-31]],[[16035,6948],[-34,-27],[-45,-4],[-59,38],[-79,91],[-59,87],[-47,42],[-292,167],[-130,70]],[[13061,11442],[-4,-49],[-47,-32],[-17,-28],[-51,-48],[-56,-28],[-35,-49],[16,-60],[-9,-68],[11,-37],[23,-42],[55,-25],[-44,-8],[-3,-18],[-26,-15],[-17,-61],[6,-22],[-25,-15],[25,-42],[59,6],[44,-11],[-18,-67],[19,-24],[9,-36],[-2,-45],[17,-27],[3,-32],[32,-52],[77,-68],[16,-22],[8,-71]],[[13127,10346],[-16,-26],[-20,-63],[-36,-47],[-83,-60],[-19,-58],[-38,-44],[-31,-79],[-8,-48],[2,-137],[-17,-44],[-5,-33],[-21,-39],[-1,-24],[15,-43],[-9,-92],[-20,-34],[-44,-26],[-26,-91],[-7,-58],[5,-31],[-6,-33],[10,-43],[-1,-47],[12,-39],[-2,-51],[-99,-74],[-117,-165],[-74,-64],[-104,-3]],[[12367,8750],[-1,59],[19,85],[9,64],[3,63],[28,46],[-4,51],[13,38],[-1,85],[-11,50],[-20,57],[6,31],[-19,41],[13,46],[-12,68],[1,127],[-17,52],[-26,56],[2,62],[-35,89],[1,67],[11,40],[-16,41],[25,95],[23,57],[-14,37],[1,36],[-20,71],[39,54],[-1,15],[-35,46],[-11,35],[-44,46],[-120,88],[-25,-14],[-36,24]],[[7155,14786],[32,0],[16,20],[41,23],[45,69],[70,67],[10,40],[15,18],[48,34],[7,31],[31,63],[26,22],[5,36],[19,34],[20,93],[48,36],[15,22],[5,52],[35,55],[-2,24],[25,37],[19,52],[-10,69],[-25,51],[40,5],[35,17],[-17,24],[-31,18],[-48,42],[8,20],[-40,54],[-26,7],[1,63],[-25,11],[-24,52],[-1,54],[-13,10],[-17,40],[-8,42],[-18,20],[-53,116],[-1,71],[26,70],[24,34],[9,136],[21,53],[81,102],[115,102],[17,53],[19,34],[-12,46],[-30,37],[-65,55],[-31,20],[-35,50],[-42,78],[-27,59],[-2,47],[8,38],[24,64],[53,51],[33,1],[36,-10],[84,-11],[71,-34],[1,46],[-17,38],[20,47],[40,35],[51,31],[18,25],[13,60],[13,13],[61,21],[62,35],[23,34],[50,53],[43,33],[60,1],[47,24],[22,38],[41,37],[27,52],[159,82]],[[8523,18180],[137,-104],[27,-168],[111,-95],[152,-29],[59,-7],[58,12],[87,28],[62,-12],[33,-30],[31,-67],[27,-31],[47,-24],[52,-10],[35,-23],[37,-56],[18,-17],[66,-26],[53,-69],[27,-46],[1,-36],[17,-43],[51,-63],[9,-19],[59,-12],[34,-1],[28,11],[34,29],[69,73],[28,14],[38,4],[46,-7],[30,-15],[52,-4],[12,-98],[32,-38],[145,-111],[102,-86],[47,-54],[36,-78],[23,-35],[33,-5],[-6,-24],[21,-50],[108,-185],[24,-19],[112,-60],[32,-32],[48,-27],[121,-50],[50,-41],[-5,-32],[-43,-38],[19,-66],[-44,-34],[19,-51],[11,-69],[-3,-49],[40,-28],[-1,-31],[59,-67],[14,-41],[-9,-22],[13,-48],[93,-36],[-40,-43],[-3,-47],[23,-17],[49,7],[10,-30],[-6,-25],[-77,-78],[28,-44],[52,-34],[-26,-32],[12,-25],[-6,-43],[42,-2],[37,-19],[50,-8],[24,26],[28,2],[35,-15],[30,-25],[58,2],[39,-18],[17,-19],[34,24],[85,-105],[-2,-21]],[[11734,15143],[-21,-1],[-34,21],[-15,-6],[25,-46],[55,-25],[-22,-14],[-29,2],[-29,15],[-11,-14],[56,-41],[21,-22],[-3,-58],[-47,-43],[-5,-32],[23,-33],[40,-36],[28,-5],[-2,-26],[23,-24],[-36,-14],[-30,3],[-37,-64],[-24,-85],[-21,-53],[-19,-18],[-32,3],[-54,-35],[-28,-36],[-8,-50],[-13,-39],[-25,-39],[-28,-70],[-23,-75],[-33,-6],[11,-19],[-8,-32],[11,-100],[-33,0],[28,-54],[30,1],[34,-26],[-1,-41],[29,-5],[6,-34],[21,0],[21,-21],[11,-39],[32,-15],[17,-44]],[[11585,13748],[-42,39],[-27,-5],[-40,26],[-33,9],[-48,28],[-63,51],[-53,-6],[-26,22],[-49,5],[-24,23],[33,27],[10,37],[-8,16],[-50,5],[-7,15],[19,27],[-13,13],[-25,-30],[-27,0],[-14,39],[-19,20],[-26,-28],[-43,-25],[-6,-26],[19,-88],[-162,70],[-23,-39],[-35,-5],[-73,-123],[-132,66],[-65,-53],[7,-31],[-27,-31],[39,-44],[-19,-22],[-85,13],[-23,-18],[0,-57],[-54,-31],[11,-44],[-28,-27],[-58,-15],[-23,-39],[-54,-30],[-64,75],[27,36],[-99,-40],[-4,-27],[-64,-40],[-82,-9],[-40,-25]],[[9893,13452],[-2,43],[41,28],[50,15],[35,31],[29,3],[44,38],[-14,25],[6,57],[-14,24],[10,105],[-32,47],[-2,46],[10,47],[36,39],[36,68],[10,66],[28,29],[-48,48],[-21,39],[-34,35],[-49,35],[-78,45],[-87,78],[-39,9],[-33,45],[-40,84],[0,39],[-27,34],[5,26],[-11,37],[50,42],[2,38],[82,54],[34,105],[58,220],[-51,-5],[-20,-43],[-42,26],[6,28],[-67,33],[2,39],[-55,-36],[-13,-21],[-60,-40],[-73,0],[-59,-17],[-73,2],[-72,27],[-23,-1],[-31,24],[-25,-39],[-30,-18],[-32,-35],[-35,-5],[-36,11],[-30,-4],[-22,-19],[-13,-42],[35,-70],[10,-93],[-41,-85],[2,-43],[13,-45],[-20,-42],[-55,-24],[-35,-37],[-63,-47],[-39,-52],[-17,-45],[3,-33],[14,-48],[-20,-29],[-39,-18],[-38,-27],[-16,-20],[-2,-48],[-34,-34],[-72,-17],[-36,-49],[-12,-36],[-31,-40],[-32,-18],[-111,-11],[-42,-25]],[[8396,14005],[-15,13],[-7,63],[-27,65],[-23,121],[-15,28],[-6,42],[-21,38],[-21,62],[-22,31],[-13,106],[4,46],[13,30],[25,29],[-26,17],[-20,-14],[-22,5],[-22,-28],[-96,-22],[-33,7],[-29,-8],[-33,24],[-32,-2],[-30,22],[-29,-37],[-43,13],[-33,-40],[-73,22],[-32,-22],[-46,22],[-9,-26],[-37,3],[-39,13],[-36,-9],[-43,4],[-26,-27],[-18,2],[-44,-53],[-52,-11],[-29,-27],[-6,-52],[-11,-29],[-37,-50],[-52,-45],[-34,-60],[-22,-15]],[[7174,14256],[-7,74],[-33,69],[-108,119],[-18,30],[-18,50],[14,38],[50,25],[34,39],[15,32],[12,61],[40,-7]],[[4610,8196],[156,177],[80,29],[20,-2],[48,46],[3,17],[-22,36],[7,28],[47,37],[8,44],[25,73],[32,32],[36,49],[-4,43],[12,69],[18,51],[5,101],[21,42],[24,76],[17,37],[45,47],[1,19],[-17,32],[63,68],[32,45],[50,81],[26,13],[8,37],[21,51],[35,31],[39,52],[80,53],[24,36],[-8,43],[24,82],[-103,155],[-136,24],[-35,37],[-17,36],[-33,127],[-15,27],[-3,71],[27,65],[45,45],[35,49],[-17,47],[30,13],[29,42],[-13,52],[9,28],[25,10],[37,-32],[23,0],[14,19],[27,0],[15,-23],[34,-29],[55,-13],[57,15],[64,-7],[55,11],[22,37],[87,37],[53,12],[15,22],[-32,62],[-1,32],[11,44],[19,40],[30,23],[23,43],[40,19],[27,29],[33,10],[30,62],[44,42],[33,19],[34,33],[26,39],[9,41],[-2,42],[10,36],[20,31],[5,47],[-13,115],[39,33],[30,40],[9,24],[9,73],[-23,36],[-11,37],[-9,76],[3,24],[28,47],[31,29],[3,31],[43,47],[27,20],[58,28],[11,33],[-5,34],[14,46],[19,13],[25,63],[57,106],[58,54],[46,58],[10,49],[-53,102],[-10,29],[-22,17],[-40,9],[-1,28]],[[6644,12743],[51,-9],[42,-42],[27,-65],[55,-62]],[[6819,12565],[-2,-48],[-58,-101],[-42,-44],[2,-28],[34,-36],[18,35],[24,21],[27,0],[30,-15],[37,-6],[24,-88],[3,-70],[-8,-36],[25,-51],[5,-24],[-3,-96],[-40,7],[-22,-14],[18,-25],[92,-96],[22,-43],[-1,-65],[31,-68],[39,-129],[37,-115]],[[7111,11430],[-16,-2],[-42,19],[-68,-26],[-32,10],[-58,30],[-22,30],[1,44],[-10,15],[-42,-21],[-3,-67],[-44,-24],[4,-44],[-16,-77],[-49,-165],[-5,-26],[9,-22],[74,-104],[23,-75],[-13,-43],[-75,-32],[-32,-19],[-39,-39],[-30,45],[-53,25],[-88,2],[-251,0],[-67,-2],[-20,-27],[-8,-63],[3,-91],[-44,-139],[-14,-87],[-26,-75],[1,-85],[-3,-224],[30,-21],[109,4],[-3,-63],[-11,-92],[39,-4],[175,4],[32,-17],[6,-54],[21,-18],[-11,-24],[-32,-31],[-11,-25],[-1,-152],[168,2],[23,-4],[54,-31],[17,-16],[16,-43],[43,-47],[17,-56],[43,-24],[16,1],[50,32],[24,45],[24,12],[26,-11],[31,-28],[22,-42],[36,-47],[-3,-36],[30,-39],[55,-94],[1,-92],[16,-22],[46,-34],[34,-8],[21,-34],[12,-42],[22,-34],[38,-28],[19,-33],[69,-79],[27,-14],[30,-3],[4,-43],[15,-33],[-2,-24],[38,-59],[-23,-46],[58,-82],[17,-3],[35,48],[30,11],[99,48],[73,25],[28,15],[29,41],[52,39],[3,17],[-32,40],[17,16],[24,-18],[21,-30],[9,-43],[68,44],[49,54],[51,47],[46,33],[72,24],[8,19],[-23,56],[-23,19],[2,17],[25,25],[-1,57],[7,59],[45,22],[52,-36],[34,-8],[37,29],[89,11]],[[8459,9120],[50,-7],[50,12],[43,-8],[64,-48],[32,-13],[89,-25],[55,-37]],[[8842,8994],[83,-41],[79,-53],[70,-54],[100,-83],[105,-76],[50,-57],[19,-35],[15,-55],[4,-37],[-27,-105],[30,-129],[43,-61],[24,-69],[6,-35]],[[9443,8104],[23,-45],[23,-28],[76,-14],[10,-12],[37,-90],[3,-27],[-18,-48],[7,-56]],[[9604,7784],[-28,-57],[-32,-46],[3,-55],[14,-37],[-10,-76],[2,-110],[7,-50],[-16,-27],[-34,-14],[-32,-44],[-6,-68],[10,-55],[-1,-63],[-39,-98],[-7,-51],[-28,-34],[-19,-67],[-68,-76],[-77,-112],[-128,-118],[-32,-123],[-38,-34],[-35,-55],[10,-23]],[[9020,6291],[42,-17],[27,-42],[30,-13],[9,-23],[-7,-45],[-48,-26],[6,-39],[61,-49],[41,12],[89,-65],[-13,-92],[-125,-231]],[[9132,5661],[-196,42],[-326,52],[-244,44],[-277,60],[-187,97],[-114,141],[-195,22],[-106,112],[-179,-8],[-155,89],[-211,52],[-98,97],[-24,171],[-147,119],[-187,-8],[-244,15],[-49,134],[-114,164],[-114,118],[-163,67],[-179,89],[-49,127],[-154,104],[-179,82],[-179,67],[-49,118],[-76,123],[-183,145],[-144,100]],[[10897,6743],[98,-26],[33,23],[54,12]],[[11133,6580],[-119,-15],[-51,4],[-44,20],[-21,-246]],[[10898,6343],[-189,145]],[[10709,6488],[63,46],[37,55],[88,154]],[[22177,5095],[10,-1],[47,-42],[53,-29],[110,-3],[25,-33],[86,-65],[-2,-36],[-22,-57],[3,-29],[27,-31],[9,-29]],[[22523,4740],[29,-41],[26,-54],[-2,-84],[34,-60],[8,-35],[-22,-33]],[[9112,11659],[55,13],[19,12],[49,82],[23,111],[-14,44],[13,42],[74,71],[29,47],[24,64],[42,32],[21,41]],[[9447,12218],[51,51],[107,-6],[120,48],[48,15],[19,-26],[-22,-12],[-4,-43],[8,-15],[42,-33],[66,-12],[46,3],[43,11],[-8,20],[20,61],[-6,39],[61,-4],[5,-344],[-383,0],[-8,-231],[36,7],[48,-20],[29,-20],[9,-20],[10,-58],[18,-48],[30,-38],[14,-30],[23,-22],[51,-25],[78,-61],[116,-156],[-37,-32],[-19,-60],[3,-71],[-11,-41],[-34,-67],[-9,-64],[69,-172],[11,-40],[-19,-35],[-56,-34],[-14,-18],[1,-37],[-75,-136],[4,-21]],[[9928,10421],[-19,-61],[-48,-54],[-40,-75],[-55,-119],[-18,24],[-121,88],[-154,58],[-37,20]],[[9436,10302],[-9,28],[-99,155],[-27,30],[-63,33],[-25,21]],[[9213,10569],[29,15],[-32,75],[-8,37],[0,44],[12,86]],[[9214,10826],[12,42],[79,53],[-42,41],[-49,30],[-25,59],[-5,26],[-19,20],[-4,51],[4,232],[11,22],[48,19],[35,29],[9,22],[-1,39],[-20,80],[-23,36],[-28,16],[-84,16]],[[11200,7299],[120,38]],[[11320,7337],[52,35],[19,75],[31,59]],[[11422,7506],[30,-12],[118,-20]],[[11570,7474],[-23,-94],[-6,-69],[-36,4],[3,-41],[-56,-6],[29,-194]],[[11314,7000],[-114,287],[0,12]],[[11182,6454],[24,-52],[35,-49],[20,-16],[35,-6],[-4,-33],[-21,-95]],[[11271,6203],[-14,10],[-50,3],[2,34],[-78,-34],[-52,0],[-34,15],[-66,50]],[[10979,6281],[-62,48]],[[10917,6329],[-19,14]],[[11538,6551],[11,3],[132,-12],[50,-15],[31,-56],[16,-12]],[[11778,6459],[2,-93],[-7,-17],[-12,-201]],[[11761,6148],[-11,-187],[-135,-78],[-148,34]],[[11467,5917],[-108,246],[-87,13],[-1,27]],[[14252,6539],[-74,-17],[-101,-44],[-53,-127],[-114,-70],[-77,-89],[-68,-114],[-94,-68]],[[16035,6948],[47,6],[35,-15]],[[16046,6860],[-88,13],[-52,12],[-55,24],[-328,196],[-41,23]],[[15482,7128],[-77,31],[-70,16],[-88,15]],[[11854,7067],[11,6],[70,-202]],[[11780,6495],[-21,31],[-33,75],[18,33],[-11,17],[-81,179]],[[11796,6469],[-18,-10]],[[16268,6689],[11,-29],[42,-51],[30,-18],[39,-39],[36,-45],[18,-35],[69,-76],[43,-34],[51,-21]],[[20781,3659],[-117,209]],[[13009,7755],[233,0],[9,17],[52,17],[28,-45],[77,-2]],[[13408,7742],[-11,-39],[-10,-81],[37,-51],[-7,-35],[24,-123]],[[13440,7413],[-51,10],[-77,6],[-180,23],[-102,23],[-54,2],[-35,-11],[31,138],[37,151]],[[11449,9531],[-23,-28],[-18,-39],[-33,-199],[-12,-31],[-24,-35],[-83,-93],[-22,-46],[-3,-34],[6,-87],[-2,-27],[-36,-100],[-1,-38],[12,-37],[20,-28]],[[11230,8709],[-50,-41],[-68,-99],[-76,-81],[-20,-8],[-70,-1]],[[10946,8479],[0,84],[-14,83],[-54,143],[-17,57],[-19,95],[-14,45],[-141,373],[-14,47],[-19,122],[-20,55]],[[10634,9583],[36,72],[19,-21],[2,-23],[52,-43],[56,42],[55,21],[58,-7],[36,17],[2,24],[-27,29],[-10,31],[27,23],[124,-56],[21,6],[26,25],[85,99],[52,36],[47,9]],[[19965,4741],[30,13],[13,19],[14,44],[53,75],[5,50],[10,31],[21,27],[-5,27],[12,26],[-5,41],[17,28],[15,87],[2,100],[9,-5],[42,185],[161,-80],[-36,-58],[0,-55],[77,0],[16,7],[44,55],[119,28],[16,-3],[117,-63],[128,-80]],[[20103,4627],[-146,96]],[[9714,8112],[204,7],[149,-8],[163,-47],[66,-34]],[[10296,8030],[12,-27],[8,-50],[2,-58],[11,-52],[-23,-72],[18,-110],[8,-33],[33,-82],[38,-219],[-4,-61],[-21,-36],[-25,-22],[-143,-97],[-33,-39]],[[10177,7072],[16,46],[25,42],[-12,59],[-57,48],[-28,42],[-39,26],[-12,21],[-7,60],[-16,32],[-60,62],[-28,73],[-17,20],[-5,26],[-80,45],[-23,29],[-20,4],[6,47],[-16,41],[3,54],[-27,40],[-6,22],[13,67],[-12,29],[-54,64],[-7,41]],[[9443,8104],[271,8]],[[10177,7072],[-2,-58],[20,-60]],[[10195,6954],[-5,1]],[[10190,6955],[-60,5],[-40,17],[-69,51],[-53,62],[-65,60],[-48,38],[-112,65],[-41,34],[-42,46],[-25,38],[-36,88],[-9,45],[-5,84],[-18,33],[-5,56],[28,40],[14,67]],[[15482,7128],[-12,-195],[55,-37],[80,-24],[66,-1],[-23,-45],[3,-26],[50,2],[4,-32],[32,-8],[34,-37],[-15,-25],[-32,-3],[112,-61],[42,-19]],[[15824,6404],[-132,51],[-150,-37],[-114,49],[-21,133],[-219,101],[-162,65],[-161,39],[-123,22],[-122,-37]],[[880,12556],[117,-119],[163,-186],[139,-104],[130,-156],[25,-156],[154,-164],[139,-141],[8,-134],[82,-171],[130,-67],[171,-290],[131,-156],[56,-163],[98,-112],[122,-104],[155,-104],[74,-134],[175,-152],[118,-152],[179,-142],[41,-193],[90,-245],[203,-290],[204,-59],[187,-127],[147,-134],[98,-178],[204,-74],[130,-112],[60,-41]],[[9132,5661],[93,-14],[130,-82],[139,-41],[199,-29],[149,23]],[[9842,5518],[160,10],[199,4],[114,-25],[163,40],[183,35]],[[10661,5582],[102,99],[211,-38],[155,-22],[140,-38],[58,24],[87,126],[53,184]],[[11761,6148],[123,6],[127,-23],[88,-92],[144,-19]],[[17286,5043],[159,-204],[106,-175],[150,-264],[159,-304],[146,-268],[159,-253],[142,-238]],[[18307,3337],[185,-308],[134,-227],[211,-341],[150,-294],[175,-338],[163,-331],[95,-177]],[[19420,1321],[-1366,-269],[-971,-191],[-33,-6],[-886,-119],[-1328,-179],[-1328,-178],[-1284,-173],[0,-3],[-885,-92],[-1077,-111],[-317,1221],[-317,1222],[-313,1555],[-205,33],[-823,234],[-1063,401],[-1097,534],[-503,231],[-618,334],[-822,501],[-858,568],[-755,501],[-385,336],[-177,295],[-166,410],[-124,400],[-124,280],[-538,320],[-497,521],[-414,480],[559,1835],[175,344]],[[14093,7416],[31,85],[5,30],[18,37],[3,36],[-2,121],[18,63],[-6,34],[6,30],[40,13],[124,75],[174,98],[96,33],[61,116],[11,14],[83,175],[61,46],[226,204],[91,-80],[-26,-23],[-18,-34],[-31,-35],[76,-8],[-25,-51],[-11,-73],[13,-25],[-6,-54],[-55,-97],[5,-33],[20,-57],[36,-73],[21,-24],[4,-38],[22,-58],[49,-76],[15,-10],[2,-42],[-24,-36],[-11,-31],[-22,-24],[-156,-76],[-30,-37]],[[21304,6611],[34,-17],[2,-273],[0,-141]],[[21325,5682],[-5,-11]],[[21320,5671],[-34,38],[-72,56],[-14,19],[-11,69],[-36,90],[-47,47],[-52,32],[-187,88],[-48,43],[-26,44],[-8,89],[-50,50],[-45,-35],[-160,-149],[-100,70],[-1,5],[-99,77],[-54,65],[-93,304],[-10,18]],[[14280,9341],[33,45],[36,21],[81,120],[0,18],[-21,41],[-5,49],[14,22],[33,25],[34,64],[5,60],[56,128],[8,12],[74,36]],[[14628,9982],[28,-54],[29,-8],[41,1],[27,25],[2,22],[21,28],[37,15],[30,-1],[41,17],[32,23],[27,46],[49,45],[31,42],[48,21],[32,59],[54,37],[43,61],[0,21],[30,21],[71,70],[37,44],[49,37],[12,28],[38,17],[20,47],[36,10],[18,31],[66,31],[17,20],[39,-7],[27,-27],[34,-20],[24,-26],[46,-8],[26,-12],[46,6],[133,-53],[30,-28],[34,-17],[74,-60],[28,-64],[46,-43],[43,5],[43,56],[51,-17],[102,-63],[27,-1],[98,56],[11,-28],[47,-17],[60,21]],[[16663,10391],[19,1],[55,-24],[35,14],[-6,-44],[46,-9],[15,-29],[-27,-23],[32,-17],[-24,-20],[-44,8],[-17,-23],[19,-45],[4,-36],[-13,-27],[-31,-17],[-53,4],[-13,23],[-29,15],[-15,30],[-25,-20],[-4,-59],[-26,-31],[-6,-37],[4,-76],[11,-43],[-11,-8],[-42,12],[-40,27],[-51,48],[-17,-15],[-4,-63],[-82,-45],[0,-24],[-33,-17],[27,-70],[6,-37],[-27,-45],[-39,-15],[7,-24],[-23,-72],[-3,-30],[49,14],[85,-2],[24,49],[15,-24],[-35,-132],[-22,-25],[-27,-15],[-48,-4],[-9,-19],[40,-46],[48,-16],[-112,-63],[-143,-61],[-34,-77],[33,-8],[-10,-26],[-31,-13],[-66,-101],[-25,-61],[-21,-129],[-31,-102],[8,-60],[-12,-17],[5,-44],[-1,-106],[-10,-117],[-41,-50],[7,-18],[35,-37],[-2,-31],[34,-44],[2,-24],[-33,-27],[-11,-41]],[[13911,7437],[3,22],[3,191],[7,49],[35,151],[7,103],[13,40],[22,45],[10,53],[80,150],[1,32],[-30,55],[-5,28],[14,64],[5,46],[34,126],[14,64],[-4,32],[-19,44],[2,23],[29,58],[3,26],[-6,62],[25,145],[-11,56],[12,35],[23,19],[55,19],[20,14],[18,51],[-3,77],[12,24]],[[12715,6968],[28,-14],[177,-61]],[[12480,6620],[43,54],[3,78],[59,10],[37,15],[1,26],[27,54],[34,40],[31,71]],[[18307,3337],[157,64],[126,41],[466,195],[-51,62],[-42,61],[-31,57],[-26,60],[-141,376],[-40,47],[-52,41],[-8,19]],[[18665,4360],[44,-5],[72,4],[89,-11],[68,-27],[78,-3],[44,-36],[59,-8],[116,20],[30,15],[34,29],[25,-3],[56,-32],[22,-29],[36,-5],[86,91],[5,13],[-6,91],[8,86],[-11,46],[-57,48],[-29,49],[1,28],[16,68],[-78,-67],[-73,62],[-112,67],[-68,12],[-26,39],[-1,22],[25,29],[9,34],[-62,51],[35,57]],[[21048,2831],[-53,-15],[-121,-4],[-17,-5],[-99,24],[-70,57],[-55,11],[-43,21],[-49,-10],[-53,-25],[-62,-71],[-28,-43],[-29,-32],[-120,-73],[-43,-51],[-47,-117],[-36,-62],[-34,-49],[-66,-73],[-95,-79],[-43,-41],[-26,-35],[-7,-48],[23,-81],[38,-96],[42,-93],[12,-41],[1,-69],[-17,-64],[-30,-37],[-44,-30],[-59,-34],[-105,-82],[-33,-23],[-30,-34],[-38,-29],[-11,-21],[-181,-56]],[[7111,11430],[21,-24],[40,-13],[18,-23],[-6,-54],[16,-29],[59,-87],[17,-14],[79,-39],[74,-48],[24,-24],[71,-138],[6,-53],[-19,-76],[-1,-28],[14,-23],[51,-54],[4,-30],[-10,-20],[-49,-44],[-38,-4],[-21,-31],[14,-23],[41,-34]],[[7516,10517],[11,-31],[40,-48],[25,-17],[40,-10],[72,-54],[81,-32],[27,-14],[6,-37],[-15,-41],[2,-75],[33,-63],[65,-38],[52,-52],[79,-35],[29,-27],[24,-57],[70,-71],[-11,-105],[-32,-28],[5,-28],[52,-26],[-1,-30],[-28,-49],[-16,-15],[-43,-12],[-25,-23],[-42,-85],[2,-35],[13,-31],[29,-29],[4,-32],[28,-30],[23,-10],[88,25],[24,51],[28,10],[23,-8]],[[8278,9325],[47,-25],[33,-29],[28,-41],[55,-95],[18,-15]],[[21320,5671],[-157,-322],[-32,-75]],[[21011,5376],[-47,11],[-52,-25],[-53,1],[-93,33],[-35,20],[-43,43],[-67,39],[-27,33],[-2,62],[-9,30],[-32,37],[-51,48],[-42,22],[-99,42]],[[6819,12565],[29,-27],[14,-25],[66,-40],[58,-16],[31,5],[28,-21],[106,7],[12,-6],[27,-161],[-4,-24],[-25,-16],[-2,-42],[17,-18],[4,-85],[13,-20],[39,-12],[36,45],[28,21],[34,64],[27,-6],[16,31],[50,28],[53,-26],[23,3],[47,30],[27,39],[67,38],[31,12],[97,19],[99,9],[46,-9],[27,-13],[87,-14],[43,3],[35,22],[70,80],[28,44],[57,11],[1,88],[-7,79],[-21,81],[-36,49],[-44,15],[-55,6],[-67,27],[-26,-3],[-14,-26],[-21,-63],[-41,-15],[-48,23],[-20,28],[6,35],[81,89],[-2,23],[-24,23]],[[7922,12954],[3,17],[-29,10],[-54,71],[-3,33],[7,37],[19,14],[41,10],[54,33],[45,-2],[109,60],[35,-6],[1,52]],[[8150,13283],[41,3],[15,-13],[1,-36],[43,13],[40,-76],[-4,-50],[11,-41],[8,-65],[25,6],[34,47],[0,29],[-15,82],[23,31],[30,-7],[10,-24],[31,-19],[58,3],[52,-66],[49,-50],[48,-39],[12,-27],[72,-80],[65,-48],[101,-95],[55,-92],[4,-66],[-13,-80],[14,-31],[-18,-62],[7,-45],[-3,-81],[14,-47],[5,-62],[-8,-34]],[[8957,12161],[-48,-55],[-1,-30],[-19,-70],[-19,11],[-127,18],[-15,-7],[-9,-41],[24,-19],[-9,-59],[-54,-1],[-31,22]],[[8649,11930],[-42,45],[-2,-27],[10,-57],[15,-26],[25,-10],[38,-2],[-18,-26],[-175,-62],[-66,-34],[-11,-24],[-2,-44],[-52,-19],[-40,-30],[-9,-71],[-14,-20],[-42,-28],[103,-140],[27,-23],[-251,-259],[94,-9],[94,-33],[38,-37],[121,-97],[23,-50],[31,-48],[52,-70],[49,-104],[22,-83],[34,-101]],[[8701,10441],[-73,56],[-72,43],[-59,13],[-63,-46],[-37,-13],[-44,-2],[-55,32],[-41,11],[-92,-17],[-23,-12],[-48,12],[-35,64],[-27,16],[-68,9],[-39,41],[-22,13],[-10,-24],[9,-52],[-36,-20],[-121,-5],[-38,-8],[-106,-39],[-85,4]],[[3899,17457],[364,1],[1000,0],[110,0],[118,2],[77,-5],[77,4],[513,8],[209,0],[-4,36],[0,167],[-4,106],[27,119],[23,119],[9,93],[-27,434],[-7,49],[-12,139],[-1,141],[7,1086],[0,446],[4,128],[7,33],[24,-11],[2,-33],[16,-48],[28,-40],[35,-22],[28,-40],[3,-37],[-31,-67],[4,-61],[-44,-44],[-1,-26],[53,-1],[41,-28],[26,-38],[52,-93],[75,-90],[36,-17],[92,-27],[59,-36],[47,-62],[23,-20],[49,-25],[26,-25],[42,-102],[18,-19],[43,-24],[22,-32],[55,-41],[102,-57],[61,9],[39,-2],[66,17],[27,-13],[67,-55],[54,-53],[74,-102],[68,-99],[37,-29],[97,-96],[100,-179],[77,-84],[108,-128],[47,-210],[5,-75],[54,-18],[89,-12],[49,-23],[90,-65]],[[7155,14786],[15,52],[24,31],[-10,26],[-45,0],[-51,11],[2,34],[-7,61],[-17,77],[1,82],[-38,-4],[-8,-53],[21,-23],[-8,-17],[-33,-12],[19,-23],[3,-26],[-86,5],[-37,30],[-31,10],[-14,-29],[21,-13],[15,-35],[6,-45],[-51,26],[-30,-13],[-40,-6],[-37,57],[-188,-521],[29,-39],[31,-55],[28,-28],[-17,-42],[0,-55],[-11,-18],[0,-55],[-27,-30],[2,-30],[56,-35]],[[6642,14081],[-63,7],[-30,36],[-60,10],[-27,11],[-55,8],[-48,83],[-117,89],[-6,52],[-35,35],[-30,0]],[[6171,14412],[-3,30],[28,90],[-45,33],[-32,33],[-33,58],[-33,40],[-38,103],[2,116],[-41,104],[1,56],[19,57],[7,80],[-51,63],[-6,44],[8,31],[-3,32],[14,53],[-17,19],[-49,33],[-27,40],[-11,37],[-20,16],[-37,-8],[-28,26],[-30,-4],[-35,12],[-3,13],[-101,82],[-9,74],[-15,-20],[-51,11],[-45,22],[-7,23],[-42,11],[-19,28],[-30,24],[-41,61],[-30,86],[-21,37],[-116,62],[-100,28],[-22,23],[-47,-1],[-18,11],[-59,72],[-44,34],[48,35],[-5,25],[-51,41],[-26,61],[1,36],[-65,-14],[-5,70],[-14,8],[-12,60],[-38,32],[-13,22],[-80,51],[-73,18],[-72,43],[-17,35],[19,22],[29,13],[-11,43],[-21,0],[-30,20],[-5,20],[-47,22],[-46,68],[-16,4],[-32,55],[-45,30],[-45,23],[-11,24],[-44,32],[-12,36],[-25,32],[-19,46],[-99,47],[-17,13],[-30,47],[-36,16],[-27,34]],[[7516,13630],[68,1],[37,10],[38,1],[77,-15],[31,-1],[28,11],[110,34],[19,13],[119,98],[42,24],[43,12],[62,-14],[60,8],[49,29],[33,37],[13,36],[30,39],[21,52]],[[9893,13452],[-22,-38],[-12,-46],[10,-74],[-5,-34],[5,-99],[22,-21],[4,-26],[-13,-55],[-45,-24],[-58,-14],[-14,-33],[11,-37],[-7,-19],[-38,-47],[-15,-48],[-15,-23],[-12,-49],[-38,-37],[-59,-36],[-68,-22],[-11,-23],[5,-56],[-24,-40],[-24,-23],[-46,-3],[1,-18],[-34,-100],[-37,-73],[10,-32],[83,-84]],[[9112,11659],[-31,14],[-30,54],[30,10],[16,-36],[37,10],[-1,63],[-59,6],[-13,44],[-55,149],[-1,28],[-46,-1],[8,69],[-11,44],[1,48]],[[8150,13283],[-34,8],[-44,-24],[-26,13],[-39,-19],[-12,43],[14,26],[-18,34],[4,36],[-9,14],[-50,7],[-65,-37],[-42,12],[-34,37],[-46,21],[-10,-33],[-26,-15],[-24,44],[-8,60],[-38,-9],[-6,21],[-32,22],[-33,-20],[-38,0],[-3,14]],[[7531,13538],[-10,37],[-5,55]],[[22788,6024],[254,-247],[11,-26],[-7,-42],[16,-29],[110,-91],[-311,-337],[-245,-264],[-14,-28],[-52,-173],[-11,-44],[-16,-3]],[[22177,5095],[-2,41],[17,79],[34,64],[98,145],[66,92],[79,116],[74,96],[115,142],[130,154]],[[8649,11930],[-6,-17],[14,-22],[57,-15],[133,-19],[-10,-60],[-27,-40],[-3,-24],[15,-37],[28,-26],[15,-33],[53,-50],[37,-12],[43,-27],[20,-24],[36,-89],[-9,-35],[-25,-18],[-11,-31],[-6,-126],[12,-96],[-3,-61],[14,-51],[55,-58],[91,-40],[15,-29],[7,-67],[20,3]],[[9213,10569],[-34,-22],[1,-44],[23,-55],[5,-32],[-21,-45],[-6,-62],[-25,-22],[-55,-23],[-70,-39],[-39,-4],[-42,24],[-45,15],[-45,5],[-45,20],[-33,49],[-55,51],[-26,56]],[[10917,6329],[-58,-63],[-55,-73],[11,-15],[-22,-28],[13,-86],[-196,-30]],[[10610,6034],[-18,137]],[[10592,6171],[-19,137]],[[10979,6281],[-25,-288],[2,-68],[11,-74],[-33,1],[-94,33],[-60,4],[-43,10],[-62,-3],[-34,-38]],[[10641,5858],[-31,176]],[[10641,5858],[-6,-49],[26,-227]],[[9842,5518],[1,191],[9,255],[55,-12],[63,1],[173,21],[11,-55],[75,10],[26,-20],[62,-12],[6,-37],[72,9],[16,12],[-30,207],[-7,37],[122,23],[-2,7],[98,16]],[[9020,6291],[81,2],[334,-5],[85,-4],[274,-24],[71,-8],[212,-17],[164,-16]],[[10241,6219],[64,-5],[49,7],[48,17]],[[9928,10421],[81,0],[42,-5],[88,-34],[41,-4],[173,25],[148,43]],[[10735,10332],[-43,8],[-40,0],[-43,-16],[-62,-6],[-88,-4],[-53,5],[-30,-16],[-74,-20],[12,-69],[6,-259],[-73,-80],[52,-29]],[[10299,9846],[-284,-322],[-30,-36]],[[9985,9488],[-60,5],[-25,8],[-41,28],[-70,33],[-28,-1],[-49,37],[-61,54],[-52,18],[-100,74],[-37,63],[-13,98]],[[9449,9905],[-20,66],[9,285],[-2,46]],[[14310,13598],[52,-12],[93,-30],[100,-38],[276,-127],[58,-47],[78,57],[46,-1],[37,-38],[78,-21],[61,-29],[338,-232],[90,-55],[96,-65],[30,-3],[64,8],[98,-11],[43,-81],[30,-15],[36,25],[23,-21],[45,19],[25,-27],[25,8],[34,-15],[31,-1],[52,-23],[78,-43],[-2,-27],[40,-11],[18,-16],[41,18],[-4,-38],[15,-21],[72,-19],[-26,-46],[3,-16],[75,7],[57,-21],[96,128],[179,-76],[391,-170],[221,42],[167,43],[-34,-100],[1,-25],[-39,-88],[56,1],[45,-9],[60,-2],[39,11],[42,-10],[29,-27],[45,-5],[55,18],[34,0],[38,-18],[5,33],[46,-7],[33,-26],[33,-52],[42,-9],[39,-27],[24,12],[24,-36],[-11,-36],[36,-23],[69,3],[39,-18],[12,-32],[38,2],[25,-13],[-5,-50],[33,-23],[45,10],[40,-10],[16,-22],[37,7],[35,-33],[49,-34],[24,-49],[44,-22],[43,5],[9,-13],[39,33],[25,-30],[65,-13],[48,5],[17,-10],[14,-67],[54,-16],[68,-38],[19,-21],[35,-19],[34,-8],[30,-49],[0,-48],[37,-52],[-8,-45],[-22,-20],[3,-45],[68,-39],[14,-20],[48,-17],[51,-44],[26,-73],[18,-28],[10,-51],[22,-46],[56,-61]],[[18403,10831],[-13,25],[-62,33],[-33,49],[7,18],[-48,17],[-47,-14],[-54,28],[-24,-9],[-10,-21],[-54,-17],[-25,79],[29,4],[0,49],[-54,6],[-14,-13],[-33,-4],[-1,21],[-31,34],[-28,-14],[-37,18],[-29,-34],[-33,17],[-19,66],[-63,54],[-26,40],[-9,28],[-20,24],[-40,18],[-46,-15],[-62,7],[-57,38],[-29,-22],[-38,5],[-55,-9],[-22,-10],[17,-47],[-26,-54],[13,-60],[-61,-16],[-25,-13],[-12,-23],[15,-21],[-24,-19],[-13,-60],[-30,-7],[-26,-26],[-4,-61],[4,-46],[-17,-13],[-46,-6],[-24,-32],[25,-98],[-6,-31],[-23,-23],[19,-28],[-54,-40],[-29,-38],[-59,-1],[-22,34],[-29,-7],[-17,-20],[-33,14],[-26,-10],[-8,-17],[-34,-6],[-30,18],[-33,-33],[-38,24],[-23,24],[-15,-2],[-4,-66],[-9,-36],[2,-45],[22,-33],[23,-12]],[[14628,9982],[25,25],[4,178],[-9,33],[-35,65],[-19,95],[-26,30],[-54,27],[-3,48]],[[14511,10483],[25,92],[7,53],[-12,58],[15,58],[16,23],[2,27],[-17,42],[2,28],[42,100],[33,35],[20,76],[-7,67],[12,47],[-2,28],[-16,40],[-43,73],[-15,14],[-75,41],[-31,24],[-89,85],[-31,52],[-26,12],[-60,53],[-41,13],[-56,77],[-13,65],[10,67],[-28,63],[14,32],[40,19],[28,35],[-2,68],[-24,41],[-6,27],[14,25],[37,17],[17,21],[3,48],[29,60],[11,55],[-13,97],[8,62],[-24,32],[-1,20],[18,25],[52,37],[49,44],[1,23],[-27,75],[-12,14],[-53,20],[-45,68],[12,45],[31,33],[92,24],[57,-5],[14,36],[40,5],[-15,25],[40,29],[35,49],[15,78],[-2,42],[31,62],[34,9],[5,15],[-45,11],[-51,-10],[-15,-27],[-39,4],[-25,20],[-25,0],[-109,35],[-18,33],[-34,8],[-6,74],[32,31],[-2,26],[15,60],[-4,25]],[[13408,7742],[1,21],[-21,68],[20,63],[-3,23],[12,38],[-2,27],[28,84],[-13,43],[-3,53],[22,64],[13,20]],[[13462,8246],[44,37],[66,47],[67,82],[73,172],[35,95],[5,44],[-11,22],[14,52],[-5,46],[3,55],[-7,61],[3,46],[-10,56],[-43,85],[-56,53],[-23,30],[-51,97],[-21,67],[-15,26],[-20,71],[23,12],[1,64],[15,23],[5,64],[38,0],[16,23],[-13,27],[-3,69],[15,20],[-11,45],[32,62],[-28,28],[24,52],[-27,31],[14,38],[-1,39],[19,57],[-6,22],[10,32],[-16,13],[-10,37],[25,-3],[28,22],[5,30],[-12,30],[12,17],[-2,43],[10,23],[25,6]],[[13698,10416],[27,-3],[-5,-34],[35,-22],[58,88],[36,20],[31,-13],[9,-35],[31,-39],[39,-35],[22,-43],[72,-67],[33,-82],[6,-85],[-6,-93],[17,-22],[14,-67],[0,-30],[53,-56],[60,-164],[30,-40],[3,-46],[21,-41],[-2,-47],[11,-50],[-4,-31],[-20,-21],[11,-17]],[[12750,7742],[50,-47],[73,-16],[13,25],[50,53],[73,-2]],[[13382,7221],[-298,84]],[[13084,7305],[-315,90],[-97,16]],[[12672,7411],[81,105],[4,62],[20,18],[1,20],[-22,40],[-38,88],[32,-2]],[[12750,7753],[6,49],[17,64],[2,38],[41,58],[13,29],[7,52],[11,40],[20,36],[52,65],[20,38],[40,16],[36,31],[43,56],[13,41],[23,34],[104,45],[18,34],[38,-5],[38,30],[0,45],[23,-9],[44,-45],[23,-2],[34,-22],[0,-39],[10,-45],[-4,-45],[-17,-55],[28,-43],[29,2]],[[12750,7742],[0,11]],[[12465,7231],[56,43],[41,17],[67,44],[29,30],[14,46]],[[13084,7305],[-7,-28],[-10,-115],[-90,16]],[[12977,7178],[-41,5],[-181,-32],[-89,-6],[-131,0],[-16,103],[-48,-24]],[[12977,7178],[6,-41],[-5,-27],[-58,-217]],[[12715,6968],[-119,71],[-41,14],[-39,2],[-50,13]],[[21329,6657],[196,-4],[4,-286],[30,0],[0,-188]],[[9985,9488],[-160,-164],[-253,-317],[-384,4],[-346,-17]],[[8278,9325],[34,72],[3,35],[37,15],[38,3],[-17,58],[-23,24],[-19,39],[9,20],[62,-40],[73,-65],[24,-44],[13,-4],[45,13],[9,17],[-2,48],[64,19],[47,-20],[58,-32],[32,11],[20,22],[66,3],[35,-4],[82,10],[27,15],[43,1],[7,25],[22,26],[22,48],[5,45],[43,38],[30,13],[3,15],[72,30],[37,36],[53,27],[23,54],[49,10],[45,-3]],[[17566,6221],[-61,-172],[4,-167],[5,-81],[-11,-2]],[[17503,5799],[-28,-14],[-60,-8],[-35,11],[-43,34],[-29,8]],[[17308,5830],[0,42],[-73,59],[-49,54],[-55,18],[-45,-12],[-40,46],[-10,45],[-36,48],[-10,79],[-71,33],[28,49],[0,15],[-48,46],[18,31],[-85,33],[-28,35],[17,41],[-7,16],[-34,18],[-131,161],[-47,31],[-12,99]],[[10299,9846],[154,-36],[61,-41],[64,-93],[56,-93]],[[10946,8479],[4,-265],[91,-173],[41,-82],[61,-82],[12,-30],[-4,-43],[18,-71],[-3,-48],[11,-29],[4,-48],[39,-49],[13,-30],[-7,-57]],[[11226,7472],[-10,6],[-76,123],[-100,-33],[-20,19],[-40,95],[-24,76],[-11,11],[-70,32],[-25,25],[0,20],[26,104],[-3,42],[-13,42],[-43,-5],[-14,28],[-50,41],[-54,54],[-42,35],[-28,9],[-26,51],[-35,14],[-59,37],[-24,8],[-72,6],[-32,21],[-31,57],[-7,46],[-103,-42],[56,-364]],[[18665,4360],[-28,22],[-91,120],[-55,33],[-74,27],[-66,17],[-33,17],[-198,132],[-111,76],[-43,40],[-109,71],[-39,17],[-88,18],[-68,24],[-124,68],[-43,65],[-18,49],[-39,35]],[[17438,5191],[-30,131],[3,28],[29,41],[10,34],[59,38],[17,20],[15,91],[-9,28],[-6,54],[-1,65],[-13,27],[-9,51]],[[10190,6955],[6,-34],[31,-48]],[[10227,6873],[-18,-9],[-105,-11],[16,-51],[-31,-56],[-9,-35],[-1,-70],[48,-112],[36,-39],[15,-27],[0,-69],[6,-33],[33,-19],[21,-23],[-8,-24],[11,-76]],[[12367,8750],[-38,-58],[-26,-91],[-25,-50],[-48,-51],[-23,-59],[-5,-85],[-15,-48],[6,-35]],[[12193,8273],[11,-121],[-12,-27],[-7,-46],[-34,-79],[-18,-24],[-37,-28],[-29,-48],[-38,-15],[-49,12],[-38,1],[-31,-13],[-48,-84],[-43,-51],[-8,-30],[13,-42],[1,-53],[-8,-32],[-40,-77],[-25,-61]],[[11753,7455],[-80,5],[-103,14]],[[11422,7506],[97,139],[15,45],[-1,40],[-20,50],[-50,67],[-14,28],[-13,60],[4,47],[27,79],[7,51],[-15,139],[-9,43],[-72,188],[-19,36],[-99,149],[-30,42]],[[11734,15143],[52,-32],[32,-1],[23,-47],[30,-5],[12,-22],[33,-24],[37,0],[10,-14],[43,-10],[34,-43],[49,16],[27,-12],[36,4],[62,-50],[13,-54],[36,-71],[27,-14],[17,-32],[33,-12],[5,-26],[53,-46],[39,-24],[51,-48],[34,-65],[0,-24],[58,-102],[29,-58],[75,-22],[44,11],[33,35],[49,-9],[11,-56],[22,-5]],[[12843,14281],[-10,-53],[4,-36],[35,-94],[-8,-107],[6,-25],[26,-39],[136,-141],[115,-128],[70,-85],[52,-39],[15,-22],[29,-111],[-6,-29],[-33,-31],[-46,-19],[-29,-25],[-12,-36],[4,-24],[32,-60],[-2,-22],[-19,-37],[-3,-32],[9,-23],[30,-34],[9,-30],[-6,-25],[-38,-49],[-19,-40],[-38,-139],[3,-42],[10,-16],[53,-41],[20,-25],[3,-25],[-17,-35],[-66,-47],[-24,-50],[2,-33],[38,-62]],[[12190,12246],[9,9],[56,1],[34,14],[14,24],[48,25],[19,2],[47,39],[35,5],[27,-11],[70,16],[39,-13],[10,12],[-25,29],[45,55],[-12,50],[2,30],[47,7],[2,16],[-80,44],[-9,23],[13,25],[-35,26],[10,44],[23,47],[-6,26],[-54,-3],[-21,33],[-66,-5],[0,40],[-27,27],[54,57],[-27,40],[-90,256],[-8,-45],[15,-58],[10,-65],[27,-40],[3,-67],[-19,-29],[-54,-52],[-16,-38],[12,-66],[-22,-86],[-47,-7],[-19,-22],[-49,-4],[-22,-31],[-31,-130],[-32,9],[-63,-3],[-17,10],[-45,6],[-40,22],[-60,-4],[-111,3],[-24,11],[-126,35],[-66,29],[-43,3],[-58,15],[-15,10],[15,31],[-5,49],[31,87],[-7,50],[21,84],[-13,106],[43,53],[4,44],[-13,50],[14,22],[-7,31],[26,46],[6,62],[-6,29],[15,15],[-29,81],[20,19],[-6,21],[38,44],[-11,53],[38,38],[-30,25],[25,37],[-6,29]],[[7516,13630],[-2,31],[-17,41],[-40,38],[-19,71],[-81,106],[-26,59],[-62,92],[-67,81],[-19,38],[-9,69]],[[11226,7472],[39,-68],[55,-67]],[[11200,7299],[-57,-17],[-48,-24],[-59,-61],[-17,-45],[1,-49],[17,-67],[3,-41],[-4,-55]],[[11036,6940],[-32,-27]],[[11004,6913],[-30,72]],[[10974,6985],[-3,34],[-36,10],[-48,36],[-324,-4],[-9,28],[-37,-10],[21,-65],[-2,-20],[-63,4],[-166,-42],[-63,-6],[-49,4]],[[12843,14281],[37,22],[32,-24],[93,-40],[39,3],[21,-11],[68,-16],[23,12],[32,-12],[41,-1],[1,26],[106,-34],[51,-54],[41,-73],[41,-44],[64,-48],[105,-107],[46,-41],[32,-19],[120,-48],[55,-40],[41,-20],[25,-1],[40,-32],[51,-25],[262,-56]],[[14511,10483],[-17,22],[-35,74],[-15,44],[-26,45],[-42,33],[-11,26],[-16,76],[-38,29],[-76,30],[-11,34],[-44,95],[-38,-7],[-70,38],[-20,50],[-49,-41],[-25,-11],[-56,22],[-47,28],[-26,-1],[14,34],[-20,27],[-15,53],[9,35],[-40,38],[34,39],[-23,42],[-9,34],[-18,9],[-1,32],[-49,55],[-65,25],[-29,-2],[-18,12],[-31,50],[-6,54],[-11,33],[-22,18],[-51,18],[-21,44],[-48,24],[-34,3],[-64,-10],[-31,-12],[-53,-76],[-65,-30],[-16,-24]],[[22219,6890],[-24,-47],[3,-28],[-22,-48],[-105,-122],[-120,-131],[3,-24],[30,-35],[33,-56],[104,-90],[13,-27],[-18,-28],[-4,-30],[-39,-41],[-18,-79],[26,-87],[3,-37],[101,-4],[36,-12],[43,5],[37,-8],[16,7],[112,134],[19,17],[192,141],[28,-46],[17,-80],[8,-16],[95,-94]],[[7177,13586],[16,-24],[56,-36],[67,-31],[65,-23],[2,31],[46,4],[24,16],[53,16],[25,-1]],[[7922,12954],[-63,-8],[-28,-20],[-26,15],[-78,11],[-33,17],[-20,46],[-44,36],[-10,23],[-51,0],[-6,68],[-65,4],[-4,34],[41,4],[-5,43],[-28,31],[-5,69],[-65,-4],[-115,44],[0,63],[-76,8],[22,16],[-5,43],[-76,46],[-15,26],[10,17]],[[12193,8273],[31,-8],[133,2],[-1,67],[32,-17],[-2,74],[90,0],[17,-18],[-70,-112],[-8,-26],[148,1],[2,-100],[15,-103],[-7,-16],[8,-58],[14,-53],[20,-44],[-4,-35],[59,-33],[31,-41],[49,0]],[[12672,7411],[-153,19],[-47,3],[-345,7],[-138,5]],[[11989,7445],[-236,10]],[[12080,7144],[-132,-6]],[[11948,7138],[-17,165],[-3,78],[5,35],[52,-6],[4,35]],[[13127,10346],[46,19],[51,10],[54,27],[76,22],[21,-3],[68,13],[35,-10],[35,3],[185,-11]],[[6642,14081],[62,-8],[49,-14],[26,-35],[23,-58],[44,-66],[52,-38],[29,-45],[46,-36],[90,-59],[29,-26],[22,-51],[43,-34],[20,-25]],[[6644,12743],[-30,16],[-52,73],[-76,31],[-27,20],[-68,77],[-69,48],[-17,18],[-37,60],[-76,137],[-69,104],[-9,18],[-4,65],[-52,50],[-57,34],[-21,23],[-45,83],[-16,19],[-68,44],[-26,22],[-66,95],[-33,59],[-84,90],[-37,70],[-27,85],[-36,16],[-98,-30],[-52,1],[-22,17],[-28,43],[-72,17],[-80,-11],[-16,6],[-28,46],[-17,12],[-80,18],[-4,9],[54,35],[43,-3],[17,-19],[31,9],[33,-7],[34,4],[-11,33],[57,-1],[9,40],[-23,59],[27,59],[36,18],[19,-27],[32,20],[3,17],[25,15],[25,0],[34,21],[45,-11],[-30,50],[-92,-1],[21,56],[24,23],[51,-17],[40,2],[28,-23],[30,-4],[25,-20],[67,-12],[27,8],[63,34],[30,0],[52,-16],[57,-9],[45,-51],[61,-33],[43,-32],[72,-32],[22,-1]],[[11948,7138],[-102,2]],[[17308,5830],[-99,7],[-66,34],[-107,-20],[-29,-18]],[[880,12556],[75,142],[46,76],[92,194],[-64,116],[-252,436],[-65,111],[-129,227],[-127,216],[-228,397],[-135,996],[-4,19],[-62,516],[-27,208],[444,-5],[166,0],[514,-4],[166,31],[594,106],[815,0],[197,8],[4,122],[-3,332],[-4,199],[6,126],[-3,135],[4,59],[0,135],[302,-1],[50,5],[83,-3],[211,7],[67,-9],[32,5],[70,-6],[59,0],[45,6],[80,-1]],[[22354,7519],[89,-28],[27,12],[60,-12],[35,20],[35,-7],[71,51],[485,209],[12,-42],[20,-23],[94,-42],[144,-3],[20,-32],[-23,-23],[-15,-54],[26,-38],[33,2],[2,37],[51,-25],[115,-30],[10,-138],[158,-4],[58,5],[166,-49],[4,-106],[-54,-62],[16,-34],[1,-35],[-28,-30],[-29,-60],[-29,-121],[12,-105],[11,-23],[48,-43],[127,-127],[116,-33],[98,-24],[43,22],[38,-9],[78,-8],[57,17],[151,18],[42,-62],[-3,-40],[45,19],[51,-28],[81,5],[16,-49],[19,5],[71,-36],[146,31],[52,-28],[21,-25],[11,-110],[43,-66],[-16,-84],[-41,-93],[39,-72],[2,-73],[66,-5],[100,-48],[23,-5],[125,22],[42,-20],[14,-127],[54,-4],[-22,-82],[-47,-45],[39,-132],[162,-198],[79,-149],[39,-69],[184,-4],[-36,119],[-11,63],[73,53],[27,13],[31,-9],[70,62],[200,9],[54,57],[170,-33],[78,-58],[-27,87],[679,-636],[649,5],[8,-305],[347,0],[-12,-838],[4,-49],[-177,80],[-112,13],[-77,-5],[-151,-2],[-106,-28],[-381,-44],[-322,244],[-157,173],[-61,-13],[-90,62],[-51,11],[-41,24],[-9,26],[-56,3],[-26,15],[-41,-6],[-48,-88],[-93,-134],[-127,-237],[-54,-78],[-11,-52],[-19,-15],[-162,-148],[-46,-27],[-27,-6],[-36,16],[-14,58],[-3,40],[15,24],[9,41],[-20,135],[-1,49],[-22,32],[-32,1],[-33,-21],[-39,-63],[-31,-33],[-29,4],[-31,16],[-50,47],[-22,44],[-9,47],[24,54],[8,45],[28,89],[-2,51],[-26,58],[-39,58],[-52,45],[-103,42],[-39,2],[-90,14],[-31,-4],[-55,-27],[-41,-8],[-45,-33],[-54,-11],[-48,-40],[-55,-71],[-30,-26],[-82,-23],[-27,-19],[-92,-90],[-63,-67],[-85,-47],[-40,-14],[-219,201],[-300,90],[-25,5],[-106,71],[-64,-22],[-124,-129],[-124,58],[-49,75],[225,109],[97,135],[-1,80],[-57,50],[-104,-67],[-160,-134],[-123,8],[-98,-200],[-31,-32],[-18,-35],[-34,-19],[-29,2],[-45,29],[-59,29],[-26,28],[-56,34],[-61,64],[-65,24],[-34,23],[-47,11],[-32,-3],[-32,-31],[-16,-67],[-27,-29],[-154,-69],[-96,-48],[-37,-10],[-76,-5],[-85,4],[-80,17],[-89,25],[-39,-7]],[[10974,6985],[-75,-17],[14,-46],[-129,-32],[-55,12],[-46,-12],[-24,-18],[-7,-26],[-32,-59],[-66,-95],[-71,-77]],[[10483,6615],[-35,20],[-35,52],[-29,72],[-34,33],[-94,59],[-29,22]],[[11004,6913],[-53,-71],[-54,-99]],[[11314,7000],[-83,-56],[-72,2],[-51,18],[-72,-24]]],"transform":{"scale":[0.000025901251934168204,0.00002266206292856106],"translate":[-122.31768199999999,36.8196]},"objects":{"Geometry\\06-087":{"type":"GeometryCollection","geometries":[{"arcs":[[0,1,2,3]],"type":"Polygon","properties":{"GEOID":"060871209012"}},{"arcs":[[-2,4,5,6,7,8]],"type":"Polygon","properties":{"GEOID":"060871209021"}},{"arcs":[[9,-5,-1]],"type":"Polygon","properties":{"GEOID":"060871209022"}},{"arcs":[[10,11,12,13]],"type":"Polygon","properties":{"GEOID":"060871216012"}},{"arcs":[[14,15,16,17,18,19,20,21]],"type":"Polygon","properties":{"GEOID":"060871224011"}},{"arcs":[[22,23,24,25,-11]],"type":"Polygon","properties":{"GEOID":"060871216022"}},{"arcs":[[26,27,28,29]],"type":"Polygon","properties":{"GEOID":"060871006001"}},{"arcs":[[30,31,32,33,34,35]],"type":"Polygon","properties":{"GEOID":"060871105032"}},{"arcs":[[36,37,38,39,40]],"type":"Polygon","properties":{"GEOID":"060871105062"}},{"arcs":[[41,42,43,44,45,-33]],"type":"Polygon","properties":{"GEOID":"060871102023"}},{"arcs":[[-36,46,47,-38,48]],"type":"Polygon","properties":{"GEOID":"060871105051"}},{"arcs":[[-35,49,50,51,52,-47]],"type":"Polygon","properties":{"GEOID":"060871105052"}},{"arcs":[[-46,53,54,-50,-34]],"type":"Polygon","properties":{"GEOID":"060871102021"}},{"arcs":[[55,56,-54,-45]],"type":"Polygon","properties":{"GEOID":"060871102022"}},{"arcs":[[-55,-57,57,58,59,-51]],"type":"Polygon","properties":{"GEOID":"060871102011"}},{"arcs":[[-53,60,61,62,63]],"type":"Polygon","properties":{"GEOID":"060871103022"}},{"arcs":[[-60,64,-61,-52]],"type":"Polygon","properties":{"GEOID":"060871103021"}},{"arcs":[[-65,65,66,67,68,-62]],"type":"Polygon","properties":{"GEOID":"060871103011"}},{"arcs":[[69,-68,70,71,72]],"type":"Polygon","properties":{"GEOID":"060871104012"}},{"arcs":[[73,-63,-69,-70,74,75]],"type":"Polygon","properties":{"GEOID":"060871104011"}},{"arcs":[[76,77,-31,-49,-37,78]],"type":"Polygon","properties":{"GEOID":"060871105031"}},{"arcs":[[79,80,81,82]],"type":"Polygon","properties":{"GEOID":"060871217011"}},{"arcs":[[83,84,85,86,-6,-10,-4,87,88,89]],"type":"Polygon","properties":{"GEOID":"060871209011"}},{"arcs":[[-26,90,91,-12]],"type":"Polygon","properties":{"GEOID":"060871216011"}},{"arcs":[[92,93,94,95,96,97]],"type":"Polygon","properties":{"GEOID":"060871217021"}},{"arcs":[[98,99,100,101,-71,-67]],"type":"Polygon","properties":{"GEOID":"060871103012"}},{"arcs":[[-58,102,103,-100,104]],"type":"Polygon","properties":{"GEOID":"060871101022"}},{"arcs":[[105,106,107,108,109]],"type":"Polygon","properties":{"GEOID":"060871106011"}},{"arcs":[[110,111,112,113,114,115,116]],"type":"Polygon","properties":{"GEOID":"060871222051"}},{"arcs":[[117,118,119,120,121,122,123]],"type":"Polygon","properties":{"GEOID":"060871008011"}},{"arcs":[[124,-123,125,126]],"type":"Polygon","properties":{"GEOID":"060871010021"}},{"arcs":[[-126,127,128,129]],"type":"Polygon","properties":{"GEOID":"060871010023"}},{"arcs":[[130,131,132,133]],"type":"Polygon","properties":{"GEOID":"060871218021"}},{"arcs":[[134,135,136]],"type":"Polygon","properties":{"GEOID":"060871222041"}},{"arcs":[[137,138,139,140,141]],"type":"Polygon","properties":{"GEOID":"060871008022"}},{"arcs":[[142,143,144,145,146]],"type":"Polygon","properties":{"GEOID":"060871215012"}},{"arcs":[[147,148,149,-77,150,151,-106,152]],"type":"Polygon","properties":{"GEOID":"060871106012"}},{"arcs":[[153,154,155,156,157,158,159,-139]],"type":"Polygon","properties":{"GEOID":"060871009002"}},{"arcs":[[-21,160,161,162,163]],"type":"Polygon","properties":{"GEOID":"060871224021"}},{"arcs":[[164,165,166]],"type":"Polygon","properties":{"GEOID":"060871225004"}},{"arcs":[[-151,-79,-41,167,168]],"type":"Polygon","properties":{"GEOID":"060871105061"}},{"arcs":[[169,-42,-32,-78,-150]],"type":"Polygon","properties":{"GEOID":"060871105041"}},{"arcs":[[-152,-169,170,-107]],"type":"Polygon","properties":{"GEOID":"060871106021"}},{"arcs":[[-159,171,-147,172,173,174]],"type":"Polygon","properties":{"GEOID":"060871215013"}},{"arcs":[[175,-23,176,-145]],"type":"Polygon","properties":{"GEOID":"060871215021"}},{"arcs":[[177,178,-176,179]],"type":"Polygon","properties":{"GEOID":"060871214021"}},{"arcs":[[-173,-146,-177,-14,180]],"type":"Polygon","properties":{"GEOID":"060871215011"}},{"arcs":[[181,182,183,-95]],"type":"Polygon","properties":{"GEOID":"060871217013"}},{"arcs":[[184,185,186,187,188,189,-182,-94,190]],"type":"Polygon","properties":{"GEOID":"060871220052"}},{"arcs":[[191,192,193,194,-131,-189]],"type":"Polygon","properties":{"GEOID":"060871220051"}},{"arcs":[[-97,-83,-24,-179]],"type":"Polygon","properties":{"GEOID":"060871217022"}},{"arcs":[[-184,195,-80,-96]],"type":"Polygon","properties":{"GEOID":"060871217012"}},{"arcs":[[196,197,198,199,200]],"type":"Polygon","properties":{"GEOID":"060871218012"}},{"arcs":[[201,202,203,204,205,-111,206]],"type":"Polygon","properties":{"GEOID":"060871222053"}},{"arcs":[[-137,207,208,-203,209,210]],"type":"Polygon","properties":{"GEOID":"060871222042"}},{"arcs":[[-136,211,-163,212,213,214,215,216,-208]],"type":"Polygon","properties":{"GEOID":"060871224022"}},{"arcs":[[-190,-134,217,-201,-81,-196,-183]],"type":"Polygon","properties":{"GEOID":"060871218022"}},{"arcs":[[-133,218,-197,-218]],"type":"Polygon","properties":{"GEOID":"060871218011"}},{"arcs":[[-108,-171,-168,219,220]],"type":"Polygon","properties":{"GEOID":"060871104021"}},{"arcs":[[-39,-48,-64,-74,221]],"type":"Polygon","properties":{"GEOID":"060871104023"}},{"arcs":[[222,223,224]],"type":"Polygon","properties":{"GEOID":"060871220041"}},{"arcs":[[-7,-87,225,226,227]],"type":"Polygon","properties":{"GEOID":"060871212003"}},{"arcs":[[228,229,230,231,232,233,234]],"type":"Polygon","properties":{"GEOID":"060871205003"}},{"arcs":[[235,236,237,238,239,240,241,242,243,244]],"type":"Polygon","properties":{"GEOID":"060871202003"}},{"arcs":[[245,-127,246,247,248]],"type":"Polygon","properties":{"GEOID":"060871010011"}},{"arcs":[[-59,-105,-99,-66]],"type":"Polygon","properties":{"GEOID":"060871101021"}},{"arcs":[[-44,249,250,-103,-56]],"type":"Polygon","properties":{"GEOID":"060871101011"}},{"arcs":[[251,252,253,254,255,256]],"type":"Polygon","properties":{"GEOID":"060871206001"}},{"arcs":[[257,258,259,260,-118,261]],"type":"Polygon","properties":{"GEOID":"060871002001"}},{"arcs":[[-130,262,263,264,265,-247]],"type":"Polygon","properties":{"GEOID":"060871010012"}},{"arcs":[[-129,266,267,268,269,-263]],"type":"Polygon","properties":{"GEOID":"060871010022"}},{"arcs":[[-82,-200,270,-91,-25]],"type":"Polygon","properties":{"GEOID":"060871216021"}},{"arcs":[[-225,271,-210,-202,272,273,-194]],"type":"Polygon","properties":{"GEOID":"060871220042"}},{"arcs":[[274,-142,275,-121]],"type":"Polygon","properties":{"GEOID":"060871008021"}},{"arcs":[[-122,-276,-141,276,-267,-128]],"type":"Polygon","properties":{"GEOID":"060871008012"}},{"arcs":[[277,-112,-206]],"type":"Polygon","properties":{"GEOID":"060871222052"}},{"arcs":[[-40,-222,-76,278,-220]],"type":"Polygon","properties":{"GEOID":"060871104022"}},{"arcs":[[279,280,-185,281]],"type":"Polygon","properties":{"GEOID":"060871213002"}},{"arcs":[[-9,282,283,284,285]],"type":"Polygon","properties":{"GEOID":"060871208002"}},{"arcs":[[286,-153,-110,287,-214]],"type":"Polygon","properties":{"GEOID":"060871107002"}},{"arcs":[[288,289,290]],"type":"Polygon","properties":{"GEOID":"060871004002"}},{"arcs":[[291,-291,292,293,294,-242]],"type":"Polygon","properties":{"GEOID":"060871004001"}},{"arcs":[[-132,-195,-274,295,-117,296,-198,-219]],"type":"Polygon","properties":{"GEOID":"060871221001"}},{"arcs":[[297,-245,298,299,300,-269,301,-174,-181,-13,-92,-271,-199,-297,-116,302,303,304]],"type":"Polygon","properties":{"GEOID":"060879901000"}},{"arcs":[[305,-192,-188]],"type":"Polygon","properties":{"GEOID":"060871220012"}},{"arcs":[[-20,306,-167,307,308]],"type":"Polygon","properties":{"GEOID":"060871231002"}},{"arcs":[[309,310,311,-223,-193,-306,-187,312]],"type":"Polygon","properties":{"GEOID":"060871220011"}},{"arcs":[[313,-180,-144,314]],"type":"Polygon","properties":{"GEOID":"060871214031"}},{"arcs":[[315,316,-215,-288,-109,-221,-279,-75,-73,317,-304]],"type":"Polygon","properties":{"GEOID":"060871223001"}},{"arcs":[[318,319,320,-239]],"type":"Polygon","properties":{"GEOID":"060871202001"}},{"arcs":[[-309,321,-149,322,-161]],"type":"Polygon","properties":{"GEOID":"060871231001"}},{"arcs":[[323,324,325,326,327,328,-319,-238]],"type":"Polygon","properties":{"GEOID":"060871203011"}},{"arcs":[[329,-229,330,331,332]],"type":"Polygon","properties":{"GEOID":"060871205001"}},{"arcs":[[333,-233,334,-252,335,-326,336,337]],"type":"Polygon","properties":{"GEOID":"060871203013"}},{"arcs":[[338,-250,339]],"type":"Polygon","properties":{"GEOID":"060871225001"}},{"arcs":[[340,-256,341,-328]],"type":"Polygon","properties":{"GEOID":"060871203021"}},{"arcs":[[-28,-248,-266,342,343,344]],"type":"Polygon","properties":{"GEOID":"060871011003"}},{"arcs":[[-343,-265,345,346]],"type":"Polygon","properties":{"GEOID":"060871011001"}},{"arcs":[[-344,-347,347,-300,348]],"type":"Polygon","properties":{"GEOID":"060871012001"}},{"arcs":[[349,350,-29,-345,-349,-299,-244]],"type":"Polygon","properties":{"GEOID":"060871012002"}},{"arcs":[[-162,-323,-148,-287,-213]],"type":"Polygon","properties":{"GEOID":"060871107001"}},{"arcs":[[-254,351,-89,352,353,354,355]],"type":"Polygon","properties":{"GEOID":"060871207001"}},{"arcs":[[356,-15,357,-311,358,359]],"type":"Polygon","properties":{"GEOID":"060871210002"}},{"arcs":[[360,361,362,-313,-186,-281]],"type":"Polygon","properties":{"GEOID":"060871211002"}},{"arcs":[[363,-282,-191,-93,364,365,366]],"type":"Polygon","properties":{"GEOID":"060871213001"}},{"arcs":[[367,-361,-280,-364,368]],"type":"Polygon","properties":{"GEOID":"060871213003"}},{"arcs":[[369,-366,370,371,-156]],"type":"Polygon","properties":{"GEOID":"060871214011"}},{"arcs":[[-372,372,-314,373,-157]],"type":"Polygon","properties":{"GEOID":"060871214012"}},{"arcs":[[-371,-365,-98,-178,-373]],"type":"Polygon","properties":{"GEOID":"060871214022"}},{"arcs":[[-374,-315,-143,-172,-158]],"type":"Polygon","properties":{"GEOID":"060871214032"}},{"arcs":[[374,-165,-307,-19]],"type":"Polygon","properties":{"GEOID":"060871225003"}},{"arcs":[[-355,375,-240,-321,376]],"type":"Polygon","properties":{"GEOID":"060871207002"}},{"arcs":[[-204,-209,-217,377,378,379]],"type":"Polygon","properties":{"GEOID":"060871222021"}},{"arcs":[[-376,-354,380,-285,381,382,-289,-292,-241]],"type":"Polygon","properties":{"GEOID":"060871207003"}},{"arcs":[[-88,-3,-286,-381,-353]],"type":"Polygon","properties":{"GEOID":"060871208001"}},{"arcs":[[-378,-216,-317,383,384]],"type":"Polygon","properties":{"GEOID":"060871223003"}},{"arcs":[[-295,385,386,-350,-243]],"type":"Polygon","properties":{"GEOID":"060871005002"}},{"arcs":[[-8,-228,387,388,389,-260,390,-283]],"type":"Polygon","properties":{"GEOID":"060871212002"}},{"arcs":[[391,392,-84,393,-231]],"type":"Polygon","properties":{"GEOID":"060871205002"}},{"arcs":[[-234,-334,394]],"type":"Polygon","properties":{"GEOID":"060871204002"}},{"arcs":[[-290,-383,395,-258,396,397,398,399,-293]],"type":"Polygon","properties":{"GEOID":"060871003001"}},{"arcs":[[-329,-342,-255,-356,-377,-320]],"type":"Polygon","properties":{"GEOID":"060871203012"}},{"arcs":[[400,-360,401,-85,-393]],"type":"Polygon","properties":{"GEOID":"060871210001"}},{"arcs":[[-308,-166,-375,-18,402,-340,-43,-170,-322]],"type":"Polygon","properties":{"GEOID":"060871225002"}},{"arcs":[[403,-337,-325,404]],"type":"Polygon","properties":{"GEOID":"060871204004"}},{"arcs":[[405,-369,-367,406,407,-389]],"type":"Polygon","properties":{"GEOID":"060871001001"}},{"arcs":[[-407,-370,-155,408,409]],"type":"Polygon","properties":{"GEOID":"060871002003"}},{"arcs":[[-227,410,-362,-368,-406,-388]],"type":"Polygon","properties":{"GEOID":"060871212001"}},{"arcs":[[-232,-394,-90,-352,-253,-335]],"type":"Polygon","properties":{"GEOID":"060871206002"}},{"arcs":[[-332,411,-405,-324,-237,412]],"type":"Polygon","properties":{"GEOID":"060871204003"}},{"arcs":[[-327,-336,-257,-341]],"type":"Polygon","properties":{"GEOID":"060871203022"}},{"arcs":[[-390,-408,-410,413,-119,-261]],"type":"Polygon","properties":{"GEOID":"060871002002"}},{"arcs":[[-346,-264,-270,-301,-348]],"type":"Polygon","properties":{"GEOID":"060871011002"}},{"arcs":[[-205,-380,414,-113,-278]],"type":"Polygon","properties":{"GEOID":"060871222031"}},{"arcs":[[-333,-413,-236,-298,415]],"type":"Polygon","properties":{"GEOID":"060871202002"}},{"arcs":[[-235,-395,-338,-404,-412,-331]],"type":"Polygon","properties":{"GEOID":"060871204001"}},{"arcs":[[-17,416,-101,-104,-251,-339,-403]],"type":"Polygon","properties":{"GEOID":"060871233001"}},{"arcs":[[-312,-358,-22,-164,-212,-135,-211,-272,-224]],"type":"Polygon","properties":{"GEOID":"060871220021"}},{"arcs":[[-294,-400,417,418,-386]],"type":"Polygon","properties":{"GEOID":"060871003002"}},{"arcs":[[-273,-207,-296]],"type":"Polygon","properties":{"GEOID":"060871221002"}},{"arcs":[[-419,-30,-351,-387]],"type":"Polygon","properties":{"GEOID":"060871005001"}},{"arcs":[[-418,-399,419,-249,-27]],"type":"Polygon","properties":{"GEOID":"060871006002"}},{"arcs":[[-262,420,-397]],"type":"Polygon","properties":{"GEOID":"060871007001"}},{"arcs":[[-384,-316,-303,-115]],"type":"Polygon","properties":{"GEOID":"060871223002"}},{"arcs":[[-284,-391,-259,-396,-382]],"type":"Polygon","properties":{"GEOID":"060871208003"}},{"arcs":[[-86,-402,-359,-310,-363,-411,-226]],"type":"Polygon","properties":{"GEOID":"060871211001"}},{"arcs":[[-420,-398,-421,-124,-125,-246]],"type":"Polygon","properties":{"GEOID":"060871007002"}},{"arcs":[[-414,-409,-154,-138,-275,-120]],"type":"Polygon","properties":{"GEOID":"060871009001"}},{"arcs":[[-277,-140,-160,-175,-302,-268]],"type":"Polygon","properties":{"GEOID":"060871009003"}},{"arcs":[[-379,-385,-114,-415]],"type":"Polygon","properties":{"GEOID":"060871222032"}}]}}}