{"type":"Topology","arcs":[[[1095,3285],[151,-127],[27,2],[112,78],[78,78],[56,77],[29,105],[38,45],[48,-25],[98,-13],[36,5],[54,-13],[55,8],[43,-25],[100,-6],[132,4],[58,-27],[54,-119],[-13,-88],[34,-57],[60,-34],[142,22]],[[2487,3175],[-36,-44],[-42,-287],[3,-56],[16,-41],[91,-16],[47,-278],[10,-30],[154,-270],[22,-48],[28,41],[5,269],[123,105],[33,135],[359,255],[17,97],[-64,361]],[[3253,3368],[70,-33],[53,-1],[12,16],[81,-27],[111,-3],[44,-14],[205,28],[68,6],[-8,47],[17,39],[43,38],[68,31],[71,17],[89,8],[56,171],[9,13]],[[4242,3704],[-5,-14],[12,-108],[16,-73],[28,-57],[11,-71],[-12,-67],[7,-75],[-2,-71],[-42,-90],[24,-51],[31,-3],[74,-43],[36,-51],[13,-50],[-17,-43],[-3,-84],[-85,-64],[11,-16],[-13,-85],[-39,-50],[-29,-11],[14,-43],[23,-32],[19,-78],[2,-108],[-31,-63],[-35,-51],[29,-102],[47,-96],[3,-94],[-14,-63],[27,-78],[16,-66],[-2,-56],[13,-58],[-5,-23],[14,-53],[-14,-55],[20,-44],[-10,-28],[-48,-38],[-42,-74],[-37,-17],[0,-40],[-19,-37],[-7,-52],[-34,-9],[-85,-89],[-42,-23],[-5,-46],[-25,-14],[-41,-108],[72,-20],[37,27],[44,2],[56,-28],[27,16],[92,-4],[41,-77],[41,-60],[17,-73],[2,-72],[-33,-40],[-31,-17],[-49,-94],[-61,-37],[-4,-55],[-50,-53],[8,-74],[-14,-78],[8,-52],[-431,6],[-157,-1],[-533,1],[-127,-5],[-408,5],[-227,1],[-217,-3],[-1124,15],[-59,4],[-820,7],[11,90],[-7,155],[-21,47],[1,32],[25,31],[-32,38],[-33,20],[-33,79],[2,104],[25,64],[37,70],[39,30],[35,7],[47,-6],[52,33],[-11,131],[12,29],[61,74],[-2,66],[-22,70],[-44,65],[3,30],[40,59],[19,100],[-16,24],[-9,76],[-17,33],[15,62],[43,17],[59,78],[70,-43],[69,-16],[26,26],[3,52],[33,-2],[15,-21],[41,-3],[68,-61],[22,39],[27,10],[56,53],[26,52],[-12,135],[32,65],[43,27],[33,56],[13,135],[27,39],[23,65],[-10,30],[8,103],[-11,61],[20,95],[-9,47],[27,68],[-10,39],[26,42],[-31,28],[-64,91],[11,117],[100,119],[22,77],[33,22]],[[3253,3368],[-116,93]],[[3137,3461],[-62,53],[-42,78],[-55,-17],[-49,-26],[-22,8],[-47,-25],[-57,-16],[-19,-28],[-49,-10],[-35,-54],[-58,-36],[-33,-32],[-30,-9],[-13,-72],[-13,-19],[-11,-76]],[[2542,3180],[-55,-5]],[[1095,3285],[1,45],[19,19],[-31,103],[9,120],[-70,8],[-36,74],[-56,28],[-15,39],[-43,50],[-6,43],[18,44],[-8,59],[10,74],[30,56],[78,42],[7,43],[39,39],[32,59],[95,36],[0,-37],[35,-67],[44,-9],[34,61],[23,-2],[45,26],[52,-13],[19,56],[42,17],[28,-20],[35,-3],[29,33],[56,-3],[22,-13],[58,116],[-18,80],[0,72],[-8,30],[-44,51],[-14,60],[-2,101],[15,64],[2,50],[43,64],[13,47],[70,48],[46,58],[26,3],[18,42],[52,60],[32,86],[48,34],[32,-18],[63,-8],[15,-21],[45,-26],[57,-6],[26,-112],[19,-14],[18,-47],[29,-33],[4,-32],[21,-24],[30,6],[39,-23],[5,-34],[49,-34],[67,-24],[80,67],[52,22],[67,-14],[52,17],[79,2],[87,48],[104,-19],[66,-63],[11,-72],[32,-18],[61,6],[35,-29],[38,31],[92,95],[76,11],[66,45],[54,-39],[79,82],[59,26],[32,77],[27,43],[46,3],[28,17],[14,90],[363,1],[583,0],[-22,-78],[0,-45],[-30,-22],[-32,-46],[-47,4],[-44,-92],[24,-50],[23,-19],[14,-82],[-1,-61],[28,-51],[13,-61],[37,-59],[-24,-44],[-53,-138],[-35,-69],[-8,-60],[-25,-4],[-93,19],[-58,1],[-18,9],[-50,-65],[-9,-63],[-14,-39],[-58,-14],[-22,-31],[9,-136],[23,-38],[-18,-95],[8,-51],[-38,-69],[5,-39],[-14,-45]],[[2542,3180],[38,-12],[30,6],[87,36],[74,6],[180,-51],[11,-10]],[[2962,3155],[1,-32]],[[2963,3123],[7,-49],[40,-38],[63,21],[68,39]],[[3141,3096],[42,14],[0,62],[-24,103],[-32,-11]],[[3127,3264],[-12,85]],[[3115,3349],[24,88],[-2,24]],[[3115,3349],[-85,-20],[0,-117],[-12,-7]],[[3018,3205],[-30,-15],[-26,-35]],[[3018,3205],[4,-22],[105,81]],[[3127,3264],[9,-39],[-23,-8],[9,-40]],[[3122,3177],[-159,-54]],[[3122,3177],[19,-81]]],"transform":{"scale":[0.00009430433871305611,0.00006063624486748766],"translate":[-106.586338,39.056073]},"objects":{"Geometry\\08-065":{"type":"GeometryCollection","geometries":[{"arcs":[[0,1,2,3]],"type":"Polygon","properties":{"GEOID":"080659619001"}},{"arcs":[[-3,4,5,6,-1,7]],"type":"Polygon","properties":{"GEOID":"080659619002"}},{"arcs":[[-7,8,9,10,11,12,13,-5,-2]],"type":"Polygon","properties":{"GEOID":"080659617021"}},{"arcs":[[-14,14,15,-9,-6]],"type":"Polygon","properties":{"GEOID":"080659617011"}},{"arcs":[[-16,16,17,18,-10]],"type":"Polygon","properties":{"GEOID":"080659617023"}},{"arcs":[[-19,19,-11]],"type":"Polygon","properties":{"GEOID":"080659617024"}},{"arcs":[[-12,-20,-18]],"type":"Polygon","properties":{"GEOID":"080659617022"}},{"arcs":[[-15,-13,-17]],"type":"Polygon","properties":{"GEOID":"080659617012"}}]}}}