{"type":"Topology","arcs":[[[1132,1888],[31,-6]],[[1163,1882],[0,-9]],[[1163,1873],[-30,-7]],[[1133,1866],[-1,22]],[[848,1973],[62,0]],[[910,1973],[-31,-71]],[[879,1902],[-31,0]],[[848,1902],[0,71]],[[1228,1989],[27,0]],[[1255,1989],[6,-53]],[[1261,1936],[-21,17]],[[1240,1953],[-12,36]],[[1132,1937],[31,0]],[[1163,1937],[0,-10]],[[1163,1927],[0,-26]],[[1163,1901],[-31,1]],[[1132,1902],[0,35]],[[1040,1866],[0,-35]],[[1040,1831],[-32,2]],[[1008,1833],[-6,35]],[[1002,1868],[38,-2]],[[1165,1795],[9,35]],[[1174,1830],[51,0]],[[1225,1830],[10,0]],[[1235,1830],[1,0]],[[1236,1830],[-46,-59],[-26,0]],[[1164,1771],[1,24]],[[187,495],[59,0]],[[246,495],[0,-73]],[[246,422],[-90,1]],[[156,423],[0,71],[31,1]],[[796,423],[31,0]],[[827,423],[-1,-52],[31,-18]],[[857,353],[-61,0]],[[796,353],[0,35]],[[796,388],[0,35]],[[1009,2083],[31,3]],[[1040,2086],[-1,-35]],[[1039,2051],[-24,-3]],[[1015,2048],[-6,35]],[[910,1902],[61,0]],[[971,1902],[0,-16]],[[971,1886],[-61,5]],[[910,1891],[0,11]],[[429,733],[0,-27],[-51,0]],[[378,706],[5,28],[46,-1]],[[1085,2194],[90,-3]],[[1175,2191],[5,-13]],[[1180,2178],[9,-86]],[[1189,2092],[-25,9]],[[1164,2101],[-16,5]],[[1148,2106],[-46,16]],[[1102,2122],[-16,17],[-1,55]],[[1180,2178],[35,-49],[6,-77]],[[1221,2052],[-29,-3]],[[1192,2049],[-3,43]],[[1040,1972],[25,-1]],[[1065,1971],[2,-55]],[[1067,1916],[-8,-13]],[[1059,1903],[-19,0]],[[1040,1903],[0,69]],[[1101,1942],[30,21]],[[1131,1963],[1,-26]],[[1132,1902],[-30,0]],[[1102,1902],[0,22]],[[1102,1924],[-1,18]],[[910,2043],[61,2]],[[971,2045],[0,-50]],[[971,1995],[0,-22]],[[971,1973],[-61,0]],[[910,1973],[0,70]],[[244,1693],[3,-66]],[[247,1627],[-1,-71],[126,1]],[[372,1557],[0,-283]],[[372,1274],[-124,-1]],[[248,1273],[-60,0]],[[188,1273],[-147,-4],[-36,-27]],[[5,1242],[0,384],[-5,68],[244,-1]],[[486,1693],[1,-70]],[[487,1623],[-57,1]],[[430,1624],[-1,69],[57,0]],[[482,2315],[60,-10]],[[542,2305],[0,-13]],[[542,2292],[-60,-12]],[[482,2280],[0,35]],[[188,1201],[60,1]],[[248,1202],[3,-70]],[[251,1132],[-63,-1]],[[188,1131],[0,70]],[[796,458],[0,-35]],[[796,388],[-32,0]],[[764,388],[32,70]],[[1104,2616],[20,-72]],[[1124,2544],[-22,1]],[[1102,2545],[0,35]],[[1102,2580],[2,36]],[[786,2044],[62,0]],[[848,2044],[0,-71]],[[848,1973],[-61,0]],[[787,1973],[-1,71]],[[371,426],[2,0]],[[373,426],[25,0]],[[398,426],[0,-29]],[[398,397],[-27,29]],[[1163,1901],[31,1]],[[1194,1902],[-20,-72]],[[1174,1830],[-11,0]],[[1163,1830],[0,43]],[[1163,1882],[0,19]],[[1073,2029],[28,1]],[[1101,2030],[0,-23]],[[1101,2007],[-28,5]],[[1073,2012],[0,17]],[[1221,2052],[-4,-63]],[[1217,1989],[1,-37]],[[1218,1952],[-5,-43]],[[1213,1909],[-5,-1]],[[1208,1908],[0,39]],[[1208,1947],[0,22]],[[1208,1969],[-8,38]],[[1200,2007],[-4,18]],[[1196,2025],[-4,24]],[[1040,2086],[31,0]],[[1071,2086],[0,-35]],[[1071,2051],[-32,0]],[[1148,2106],[0,-10]],[[1148,2096],[-47,1]],[[1101,2097],[1,25]],[[1102,2052],[46,-2]],[[1148,2050],[-1,-20]],[[1147,2030],[-46,0]],[[1101,2030],[1,22]],[[1132,1902],[0,-14]],[[1133,1866],[-31,1]],[[1102,1867],[0,35]],[[1165,2050],[27,-1]],[[1196,2025],[-31,-2]],[[1165,2023],[0,27]],[[1163,1927],[31,-25]],[[500,2259],[33,-3]],[[533,2256],[-33,3]],[[1165,2050],[-1,51]],[[452,2327],[30,1]],[[482,2328],[0,-13]],[[482,2280],[0,-23]],[[482,2257],[0,-12]],[[482,2245],[-15,-6]],[[467,2239],[-8,28]],[[459,2267],[-7,60]],[[398,426],[30,-1]],[[428,425],[-30,-28]],[[1040,1780],[31,16]],[[1071,1796],[31,0]],[[1102,1796],[63,-1]],[[1164,1771],[-78,-52],[-11,23],[-44,1]],[[1031,1743],[9,37]],[[913,2082],[32,1]],[[945,2083],[29,-3]],[[974,2080],[-3,-35]],[[910,2043],[3,39]],[[309,637],[62,0]],[[371,637],[0,-71]],[[371,566],[-61,0]],[[310,566],[-1,71]],[[371,778],[59,-1]],[[430,777],[-1,-44]],[[378,706],[-7,0]],[[371,706],[0,72]],[[372,495],[57,0]],[[429,495],[0,-70]],[[429,425],[-1,0]],[[373,426],[-1,69]],[[1008,2115],[0,24]],[[1008,2139],[32,1]],[[1040,2140],[0,-54]],[[1009,2083],[-2,0]],[[1007,2083],[1,32]],[[673,1583],[0,18]],[[673,1601],[61,0],[0,-53]],[[734,1548],[-61,0]],[[673,1548],[0,35]],[[1102,1831],[31,0]],[[1133,1831],[30,-1]],[[1102,1796],[0,35]],[[1147,2030],[0,-23]],[[1147,2007],[-20,0]],[[1127,2007],[-26,0]],[[1040,1831],[14,0]],[[1054,1831],[17,0]],[[1071,1831],[0,-35]],[[1071,1796],[-31,17]],[[1040,1813],[0,18]],[[1102,2080],[46,-1]],[[1148,2079],[0,-29]],[[1102,2052],[0,28]],[[4,304],[36,-53],[-36,-27]],[[4,224],[0,80]],[[971,2045],[44,3]],[[1039,2051],[0,-20]],[[1039,2031],[-26,-29],[-42,-7]],[[848,2044],[62,-1]],[[482,2328],[60,-1],[0,-22]],[[371,566],[0,-71]],[[371,495],[-62,0]],[[309,495],[1,71]],[[364,2449],[118,-109]],[[482,2340],[0,-12]],[[452,2327],[-88,-2]],[[364,2325],[0,124]],[[1071,2051],[2,-22]],[[1073,2012],[-34,-1]],[[1039,2011],[0,20]],[[1147,1987],[0,20]],[[1147,2007],[18,0]],[[1165,2007],[-1,-37]],[[1164,1970],[-17,1]],[[1147,1971],[0,16]],[[827,423],[38,0]],[[865,423],[22,-35],[-30,-35]],[[372,1557],[58,-3]],[[430,1554],[57,-2],[0,35],[63,-1]],[[550,1586],[2,-315]],[[552,1271],[-180,3]],[[1164,1970],[18,0]],[[1182,1970],[6,-1]],[[1188,1969],[5,-17]],[[1193,1952],[-30,-6]],[[1163,1946],[1,24]],[[1016,2967],[19,-69],[67,0],[0,-142],[-37,0]],[[1065,2756],[-87,4],[1,206],[37,1]],[[371,495],[1,0]],[[371,426],[-62,-4]],[[309,422],[0,73]],[[247,708],[34,3],[28,34]],[[309,745],[40,-21],[-14,-52]],[[335,672],[-88,0]],[[247,672],[0,36]],[[1200,2007],[-18,0]],[[1182,2007],[-17,0]],[[1165,2007],[0,16]],[[796,353],[-29,16]],[[767,369],[-3,19]],[[1147,1987],[-22,-5]],[[1125,1982],[2,25]],[[1653,1868],[-66,-1]],[[1587,1867],[-26,34],[70,1],[22,-34]],[[673,1583],[-62,2]],[[611,1585],[0,17]],[[611,1602],[46,17],[16,-18]],[[913,2613],[126,2],[0,70],[44,1]],[[1083,2686],[21,-70]],[[1102,2580],[-65,-1],[-2,-35],[67,1]],[[1124,2544],[14,-70]],[[1138,2474],[-223,0]],[[915,2474],[-2,139]],[[1133,1831],[0,35]],[[792,2190],[78,3]],[[870,2193],[0,-53],[-16,-18],[-6,-78]],[[786,2044],[6,146]],[[1163,1937],[0,9]],[[1193,1952],[15,-5]],[[1208,1908],[-14,-6]],[[1131,1963],[16,8]],[[971,1973],[0,-35]],[[971,1938],[0,-36]],[[910,1902],[-31,0]],[[974,2080],[33,3]],[[459,2267],[-31,-18],[-21,29],[-43,19]],[[364,2297],[0,28]],[[365,3099],[180,5],[311,2]],[[856,3106],[0,-71],[142,1]],[[998,3036],[18,-69]],[[1065,2756],[18,-70]],[[913,2613],[3,71],[-126,-2]],[[790,2682],[0,211],[-369,-1],[-1,-34],[32,-37]],[[452,2821],[-88,-3]],[[364,2818],[1,281]],[[4,737],[81,-12],[40,22],[94,93],[29,9]],[[248,849],[-1,-141]],[[247,672],[-60,0],[0,-177]],[[156,423],[-152,0]],[[4,423],[0,314]],[[246,495],[1,142]],[[247,637],[62,0]],[[309,422],[-46,1]],[[263,423],[-17,-1]],[[4,45],[9,96],[36,0],[14,70]],[[63,211],[-6,-61],[7,-80]],[[64,70],[0,-49]],[[64,21],[0,-20]],[[64,1],[-60,-1],[0,45]],[[1217,1989],[11,0]],[[1240,1953],[0,-17]],[[1240,1936],[-22,16]],[[1102,1866],[0,-35]],[[1102,1831],[-31,0]],[[1054,1831],[0,35],[48,0]],[[725,2045],[61,-1]],[[787,1973],[0,-31]],[[787,1942],[-62,29],[0,74]],[[263,423],[-15,-70]],[[248,353],[2,-142]],[[250,211],[-2,-69],[-61,-18],[30,-53],[0,-35],[-59,-9]],[[158,27],[-3,43],[-30,0]],[[125,70],[-61,0]],[[63,211],[-1,106],[-58,1]],[[4,318],[0,105]],[[971,1832],[37,1]],[[1040,1813],[0,-33]],[[1031,1743],[-56,-19]],[[975,1724],[-4,108]],[[362,1974],[121,-1]],[[483,1973],[-1,-140]],[[482,1833],[4,-140]],[[430,1624],[-59,4]],[[371,1628],[-12,65]],[[359,1693],[3,281]],[[371,637],[180,-2]],[[551,635],[0,-71]],[[551,564],[0,-70]],[[551,494],[-122,1]],[[429,495],[1,70],[-59,1]],[[551,635],[1,70]],[[552,705],[121,-1],[0,35],[116,1],[7,-36],[170,0]],[[966,704],[0,-210]],[[966,494],[-89,-1]],[[877,493],[-74,0]],[[803,493],[-1,70],[-251,1]],[[1040,2140],[31,-8],[8,-46]],[[1079,2086],[-8,0]],[[796,458],[7,35]],[[877,493],[17,-21],[-29,-49]],[[482,2245],[9,-38],[43,-13],[7,-23]],[[541,2171],[42,-30],[44,16],[37,-5],[-2,102],[-14,73]],[[648,2327],[77,1]],[[725,2328],[52,2]],[[777,2330],[0,-105],[15,-35]],[[725,2045],[-79,-17],[-60,-50],[-103,-5]],[[483,1973],[6,142],[-18,41],[-4,83]],[[966,704],[500,1]],[[1466,705],[1,-140]],[[1467,565],[1,-70],[-74,-77],[-57,-45],[-22,0],[-4,-53],[-64,-105]],[[1247,215],[-146,-2],[0,70],[-135,0]],[[966,283],[0,211]],[[1208,1969],[-20,0]],[[1182,1970],[0,37]],[[960,1718],[15,6]],[[1164,1771],[-6,-42],[-42,-76]],[[1116,1653],[-13,-4],[-220,-15]],[[883,1634],[7,25],[56,1],[14,58]],[[1148,2050],[17,0]],[[335,672],[36,-1]],[[371,671],[0,-34]],[[247,637],[0,35]],[[482,1833],[306,-1]],[[788,1832],[0,-70],[30,0],[5,-119],[38,46],[99,29]],[[883,1634],[-8,-31],[-45,-1],[-36,-52]],[[794,1550],[-60,-2]],[[611,1602],[-15,-17],[-46,1]],[[550,1586],[-1,34],[-62,3]],[[1148,2096],[0,-17]],[[1102,2080],[-1,17]],[[848,1902],[-61,40]],[[971,1886],[0,-19]],[[971,1867],[-30,1]],[[941,1868],[-31,0]],[[910,1868],[0,23]],[[2089,808],[80,5],[42,13],[111,11],[537,281],[71,6]],[[2930,1124],[1,-247],[-2,-874],[-854,-1]],[[2075,2],[1,353],[-59,-1]],[[2017,354],[0,211],[-31,0],[-2,73],[-39,94],[26,50],[25,15],[93,11]],[[1472,2633],[1,181],[36,15],[188,253],[21,16]],[[1718,3098],[3,492]],[[1721,3590],[197,-1],[175,5],[-1,-139],[242,-5],[467,6],[88,0]],[[2889,3456],[-2,-350],[-61,-1],[-11,-562],[123,1]],[[2938,2544],[4,-421],[-4,-420],[-9,-4],[1,-215]],[[2930,1484],[-47,14],[-52,-20],[-12,-22],[-79,15],[-52,21],[-102,-4],[-18,-14],[-61,12],[-51,-21],[-31,8],[-58,36],[-55,-1],[-91,16],[-53,42],[-23,82],[-39,5],[-30,40]],[[2076,1693],[-26,51],[-37,15],[-39,57],[-96,29],[-43,-5],[0,61],[-32,0],[-30,35],[1,599],[-303,-2]],[[1471,2533],[1,100]],[[5,987],[247,3]],[[252,990],[232,-1]],[[484,989],[-43,-30],[7,-39],[-77,-37]],[[371,883],[-123,-34]],[[4,737],[1,250]],[[550,387],[62,0],[0,-175],[153,0]],[[765,212],[7,-79],[-2,-87],[-11,-45]],[[759,1],[-207,0]],[[552,1],[-2,386]],[[767,369],[-2,-157]],[[550,387],[1,107]],[[247,1627],[124,1]],[[430,1624],[0,-70]],[[188,1273],[0,-72]],[[188,1131],[-183,-2]],[[5,1129],[0,113]],[[248,1273],[0,-71]],[[787,1942],[1,-110]],[[910,1868],[-61,-36]],[[849,1832],[-61,0]],[[1587,565],[61,0],[-1,71],[188,-1],[125,149],[33,19],[96,5]],[[2017,354],[-122,0],[0,-71],[-246,-1]],[[1649,282],[-1,212],[-60,1],[-1,70]],[[1904,4859],[-10,-18],[-81,-23],[-49,-109],[-42,-61],[7,-144],[-2,-142],[-62,0],[-2,-207],[124,1],[-4,-352],[2,-145],[-65,1],[1,-70]],[[1718,3098],[-306,-1],[-372,11]],[[1040,3108],[-184,-2]],[[365,3099],[1,701],[1,493],[-1,550],[285,0],[83,5],[496,9],[578,4],[96,-2]],[[609,3421],[2,-42],[62,1],[1,-64],[305,-5],[2,66],[1,352],[-184,0],[-1,-142],[-62,3],[0,-71],[-63,1],[0,-70],[-62,0],[-1,-29]],[[362,1974],[2,323]],[[371,671],[0,35]],[[430,777],[1,73]],[[431,850],[122,-3],[-1,-142]],[[248,353],[122,0]],[[370,353],[0,-314],[4,-39]],[[374,0],[-66,0],[1,213],[-59,-2]],[[974,2080],[2,34],[32,1]],[[941,1868],[0,-35]],[[941,1833],[-92,-1]],[[4,304],[0,14]],[[4,45],[0,179]],[[309,745],[0,33],[62,0]],[[64,21],[21,5]],[[85,26],[26,-25]],[[111,1],[-47,0]],[[158,27],[0,-14]],[[158,13],[-30,1],[-20,33]],[[108,47],[17,23]],[[363,2536],[118,1]],[[481,2537],[1,-68]],[[482,2469],[0,-129]],[[364,2449],[-1,87]],[[668,2645],[-2,35],[124,2]],[[915,2474],[1,-140],[-139,-4]],[[725,2328],[1,211],[-70,0]],[[656,2539],[12,106]],[[481,2537],[175,2]],[[648,2327],[-45,1],[0,69],[-61,0],[1,72],[-61,0]],[[370,353],[119,-1],[2,47]],[[491,399],[59,-12]],[[552,1],[-178,-1]],[[971,1902],[69,1]],[[1040,1903],[0,-37]],[[1002,1868],[-31,-1]],[[491,399],[-16,25],[-46,1]],[[1071,2051],[31,1]],[[1077,1928],[24,14]],[[1102,1924],[-25,4]],[[1471,2392],[0,141]],[[2076,1693],[-10,-13]],[[2066,1680],[-77,72],[-49,37],[-59,15],[-131,54],[-97,10]],[[1587,1867],[-57,-9]],[[1530,1858],[0,109],[61,5],[-12,57],[-66,30]],[[1513,2059],[17,18],[-1,105],[-59,-1]],[[1470,2181],[1,211]],[[1467,565],[120,0]],[[1649,282],[-123,2],[1,-71],[-120,0],[0,25],[-59,20],[-3,-45],[-98,2]],[[2889,3456],[241,5],[1,142],[186,3],[306,1],[-2,212],[245,2],[-6,492],[-51,-1],[-4,278],[4,74],[0,196]],[[3809,4860],[413,2],[571,-2],[1,-814],[-3,-640],[-20,0],[-3,-443],[-1,-425],[-369,-6],[-717,9],[-743,3]],[[1041,1547],[75,106]],[[1236,1830],[49,1],[2,-210]],[[1287,1621],[0,-36]],[[1287,1585],[0,-35],[-186,1],[-60,-4]],[[484,989],[11,88],[52,158],[24,16]],[[571,1251],[21,64]],[[592,1315],[39,-44],[102,-7],[96,1]],[[829,1265],[457,3],[0,71],[182,-1]],[[1468,1338],[-2,-633]],[[431,850],[-60,0]],[[371,850],[0,33]],[[704,1062],[3,-20],[59,-40],[-1,122],[-32,-1],[0,-35],[-29,-26]],[[971,1973],[34,0]],[[1005,1973],[0,-45],[-34,10]],[[1102,1972],[23,10]],[[1101,1942],[1,30]],[[1079,2086],[23,-6]],[[452,2821],[86,-1],[5,-140],[61,0],[0,-35],[64,0]],[[363,2536],[1,282]],[[966,283],[-170,0],[0,-71],[-31,0]],[[1904,4859],[817,1],[522,-1],[475,0],[91,1]],[[1471,2392],[-186,2],[1,73],[-148,7]],[[1083,2686],[142,-4],[123,4],[48,8],[48,-11],[28,-50]],[[244,1693],[115,0]],[[941,1833],[30,-1]],[[1235,1830],[37,63],[37,16]],[[1309,1909],[41,17]],[[1350,1926],[25,-3],[54,34],[-11,31],[95,71]],[[1530,1858],[1,-168],[-62,0],[1,-71],[-183,2]],[[251,1132],[1,-142]],[[5,987],[0,142]],[[1039,2011],[1,-39]],[[1040,1972],[-35,1]],[[1065,1971],[37,1]],[[1077,1928],[-10,-12]],[[1468,1338],[242,0],[1,70],[38,8],[28,60],[-9,74],[65,0],[76,147],[163,-118],[-6,101]],[[2930,1484],[0,-360]],[[1240,1936],[21,0]],[[1255,1989],[43,-6],[52,-57]],[[1309,1909],[-85,-5]],[[1224,1904],[-11,5]],[[1225,1830],[-1,74]],[[1041,2204],[44,-10]],[[1040,2140],[1,64]],[[673,1548],[-62,1],[0,36]],[[1119,19],[128,196]],[[2075,2],[-605,-1],[-370,0]],[[1100,1],[19,18]],[[1041,1547],[-212,-282]],[[592,1315],[52,63],[22,1],[31,42],[20,2],[77,127]],[[1102,1902],[-43,1]],[[371,850],[0,-72]],[[541,2171],[1,85]],[[542,2256],[0,36]],[[571,1251],[-19,20]],[[1102,1867],[0,-1]],[[966,283],[1,-194],[12,-88]],[[979,1],[-220,0]],[[870,2193],[116,0],[55,11]],[[1008,2139],[-46,0],[-43,-17]],[[919,2122],[-6,-40]],[[919,2122],[26,-39]],[[1468,1338],[1,193],[-51,-15],[-3,-36],[-66,-1],[-1,72],[-30,34],[-31,0]],[[1040,3108],[1,-70],[-43,-2]],[[482,2257],[18,2]],[[533,2256],[9,0]],[[1470,2181],[-187,1],[-108,9]],[[1102,1972],[-1,35]],[[158,13],[-47,-12]],[[85,26],[23,21]],[[1119,19],[-2,52],[-47,1],[-16,-71]],[[1054,1],[-75,0]],[[1073,2012],[-8,-41]],[[1100,1],[-46,0]]],"transform":{"scale":[0.0003094144764288698,0.0002060475113122177],"translate":[-105.05672,40.000251]},"objects":{"Geometry\\08-123":{"type":"GeometryCollection","geometries":[{"arcs":[[0,1,2,3]],"type":"Polygon","properties":{"GEOID":"081230010032"}},{"arcs":[[4,5,6,7]],"type":"Polygon","properties":{"GEOID":"081230014071"}},{"arcs":[[8,9,10,11]],"type":"Polygon","properties":{"GEOID":"081230007034"}},{"arcs":[[12,13,14,15,16]],"type":"Polygon","properties":{"GEOID":"081230009001"}},{"arcs":[[17,18,19,20]],"type":"Polygon","properties":{"GEOID":"081230014053"}},{"arcs":[[21,22,23,24,25,26]],"type":"Polygon","properties":{"GEOID":"081230010043"}},{"arcs":[[27,28,29,30]],"type":"Polygon","properties":{"GEOID":"081230020111"}},{"arcs":[[31,32,33,34,35]],"type":"Polygon","properties":{"GEOID":"081230019052"}},{"arcs":[[36,37,38,39]],"type":"Polygon","properties":{"GEOID":"081230014131"}},{"arcs":[[40,41,42,43]],"type":"Polygon","properties":{"GEOID":"081230014064"}},{"arcs":[[44,45]],"type":"Polygon","properties":{"GEOID":"081230020203"}},{"arcs":[[46,47,48,49,50,51,52]],"type":"Polygon","properties":{"GEOID":"081230006001"}},{"arcs":[[53,54,55,-49]],"type":"Polygon","properties":{"GEOID":"081230007012"}},{"arcs":[[56,57,58,59,60]],"type":"Polygon","properties":{"GEOID":"081230011002"}},{"arcs":[[61,62,-17,63,64,65]],"type":"Polygon","properties":{"GEOID":"081230009002"}},{"arcs":[[66,67,68,69,70]],"type":"Polygon","properties":{"GEOID":"081230014111"}},{"arcs":[[71,72,73,74,75,76,77]],"type":"Polygon","properties":{"GEOID":"081230021041"}},{"arcs":[[78,79,80]],"type":"Polygon","properties":{"GEOID":"081230021083"}},{"arcs":[[81,82,83,84]],"type":"Polygon","properties":{"GEOID":"081230022053"}},{"arcs":[[85,86,87,88]],"type":"Polygon","properties":{"GEOID":"081230021063"}},{"arcs":[[89,-36,90,91]],"type":"Polygon","properties":{"GEOID":"081230019102"}},{"arcs":[[92,93,94,95]],"type":"Polygon","properties":{"GEOID":"081230015001"}},{"arcs":[[96,97,98,99]],"type":"Polygon","properties":{"GEOID":"081230014122"}},{"arcs":[[100,101,102,103]],"type":"Polygon","properties":{"GEOID":"081230020043"}},{"arcs":[[104,105,106,107,-2,108]],"type":"Polygon","properties":{"GEOID":"081230010042"}},{"arcs":[[109,110,111,112]],"type":"Polygon","properties":{"GEOID":"081230012013"}},{"arcs":[[-55,113,114,115,116,117,118,119,120,121]],"type":"Polygon","properties":{"GEOID":"081230007011"}},{"arcs":[[122,123,124,-38]],"type":"Polygon","properties":{"GEOID":"081230013003"}},{"arcs":[[-52,125,126,127]],"type":"Polygon","properties":{"GEOID":"081230005011"}},{"arcs":[[128,129,130,131]],"type":"Polygon","properties":{"GEOID":"081230004022"}},{"arcs":[[-64,132,-4,133,134]],"type":"Polygon","properties":{"GEOID":"081230010031"}},{"arcs":[[135,-122,136,137]],"type":"Polygon","properties":{"GEOID":"081230001003"}},{"arcs":[[138,-105,-15]],"type":"Polygon","properties":{"GEOID":"081230008003"}},{"arcs":[[139,140]],"type":"Polygon","properties":{"GEOID":"081230022042"}},{"arcs":[[-50,-56,-136,141]],"type":"Polygon","properties":{"GEOID":"081230001001"}},{"arcs":[[142,143,-85,144,145,146,147,148]],"type":"Polygon","properties":{"GEOID":"081230022062"}},{"arcs":[[149,150,-103]],"type":"Polygon","properties":{"GEOID":"081230020042"}},{"arcs":[[151,152,153,-27,154,155]],"type":"Polygon","properties":{"GEOID":"081230010051"}},{"arcs":[[156,157,158,-67,159]],"type":"Polygon","properties":{"GEOID":"081230014141"}},{"arcs":[[160,161,162,163]],"type":"Polygon","properties":{"GEOID":"081230020133"}},{"arcs":[[164,165,-46,166,167]],"type":"Polygon","properties":{"GEOID":"081230020202"}},{"arcs":[[168,169,170,-150,-102,171]],"type":"Polygon","properties":{"GEOID":"081230020141"}},{"arcs":[[172,173,174,-37,175,176]],"type":"Polygon","properties":{"GEOID":"081230014172"}},{"arcs":[[177,178,179,180]],"type":"Polygon","properties":{"GEOID":"081230021012"}},{"arcs":[[181,182,-107,-22,-154,183]],"type":"Polygon","properties":{"GEOID":"081230010061"}},{"arcs":[[-131,184,185,186,-111]],"type":"Polygon","properties":{"GEOID":"081230004023"}},{"arcs":[[187,188,189,190,191]],"type":"Polygon","properties":{"GEOID":"081230010054"}},{"arcs":[[192,193,-129,194]],"type":"Polygon","properties":{"GEOID":"081230005022"}},{"arcs":[[195,196]],"type":"Polygon","properties":{"GEOID":"081230020071"}},{"arcs":[[197,-39,198,199,-68]],"type":"Polygon","properties":{"GEOID":"081230014101"}},{"arcs":[[200,-71,-5,-98]],"type":"Polygon","properties":{"GEOID":"081230014121"}},{"arcs":[[201,-82,-144]],"type":"Polygon","properties":{"GEOID":"081230022051"}},{"arcs":[[-163,202,203,204]],"type":"Polygon","properties":{"GEOID":"081230020131"}},{"arcs":[[205,206,-143,207,208]],"type":"Polygon","properties":{"GEOID":"081230022071"}},{"arcs":[[-125,209,-113,210,211,-199]],"type":"Polygon","properties":{"GEOID":"081230012012"}},{"arcs":[[212,213,214,215,216]],"type":"Polygon","properties":{"GEOID":"081230004011"}},{"arcs":[[217,218,-33]],"type":"Polygon","properties":{"GEOID":"081230019051"}},{"arcs":[[219,220,221,222,-74]],"type":"Polygon","properties":{"GEOID":"081230021081"}},{"arcs":[[223,224,225,226,227]],"type":"Polygon","properties":{"GEOID":"081230008001"}},{"arcs":[[228,229]],"type":"Polygon","properties":{"GEOID":"081230023005"}},{"arcs":[[-204,230,-172,-101,231,232]],"type":"Polygon","properties":{"GEOID":"081230020132"}},{"arcs":[[233,234,235,236]],"type":"Polygon","properties":{"GEOID":"081230020192"}},{"arcs":[[-137,-121,237,238,239]],"type":"Polygon","properties":{"GEOID":"081230001002"}},{"arcs":[[-91,-35,240,241]],"type":"Polygon","properties":{"GEOID":"081230019122"}},{"arcs":[[-186,-213,242,243]],"type":"Polygon","properties":{"GEOID":"081230004012"}},{"arcs":[[244,245]],"type":"Polygon","properties":{"GEOID":"081230016001"}},{"arcs":[[-178,246,247,248]],"type":"Polygon","properties":{"GEOID":"081230021011"}},{"arcs":[[249,250,-96,251,-94,252,253,254]],"type":"Polygon","properties":{"GEOID":"081230015005"}},{"arcs":[[-3,-108,-183,255]],"type":"Polygon","properties":{"GEOID":"081230010063"}},{"arcs":[[256,257,-97,258]],"type":"Polygon","properties":{"GEOID":"081230014161"}},{"arcs":[[259,-227,260,-118,261,-139,-14]],"type":"Polygon","properties":{"GEOID":"081230008002"}},{"arcs":[[262,-216,-228,-260,-13,-63]],"type":"Polygon","properties":{"GEOID":"081230003001"}},{"arcs":[[-70,263,264,-41,265,-6]],"type":"Polygon","properties":{"GEOID":"081230014081"}},{"arcs":[[266,-176,-40,-198,-159]],"type":"Polygon","properties":{"GEOID":"081230014132"}},{"arcs":[[-208,-149,267,268]],"type":"Polygon","properties":{"GEOID":"081230022061"}},{"arcs":[[269,270,271,-230,272,-250,273,274,275,276]],"type":"Polygon","properties":{"GEOID":"081230023003"}},{"arcs":[[277,278,-237,279,-31,280,281]],"type":"Polygon","properties":{"GEOID":"081230020101"}},{"arcs":[[282,283,-164,-205,-233,284,285,-29]],"type":"Polygon","properties":{"GEOID":"081230020121"}},{"arcs":[[286,287,288,289,290]],"type":"Polygon","properties":{"GEOID":"081230020073"}},{"arcs":[[291,-12,292,293,-115]],"type":"Polygon","properties":{"GEOID":"081230007032"}},{"arcs":[[294,295,-189,296]],"type":"Polygon","properties":{"GEOID":"081230010055"}},{"arcs":[[297,-100,298,299]],"type":"Polygon","properties":{"GEOID":"081230021014"}},{"arcs":[[-281,-30,-286,300,301,302,303,304,-288,305,306]],"type":"Polygon","properties":{"GEOID":"081230020091"}},{"arcs":[[307,-19,-192,308,-156,309,310]],"type":"Polygon","properties":{"GEOID":"081230014041"}},{"arcs":[[311,312,313,-81,314,315,316]],"type":"Polygon","properties":{"GEOID":"081230021073"}},{"arcs":[[317,318,319,320,321,-162]],"type":"Polygon","properties":{"GEOID":"081230020162"}},{"arcs":[[322,323,324,325,326,327,-319]],"type":"Polygon","properties":{"GEOID":"081230019061"}},{"arcs":[[328,329,-123,-175]],"type":"Polygon","properties":{"GEOID":"081230013004"}},{"arcs":[[330,-327,331,-218,-32,-90]],"type":"Polygon","properties":{"GEOID":"081230019053"}},{"arcs":[[-147,332,333,334,335,336,-259,-298,337,338]],"type":"Polygon","properties":{"GEOID":"081230022091"}},{"arcs":[[339,340,341,342,343,-325]],"type":"Polygon","properties":{"GEOID":"081230019141"}},{"arcs":[[-238,-120,344,-225,345]],"type":"Polygon","properties":{"GEOID":"081230002001"}},{"arcs":[[346,-310,-155,347,348,349]],"type":"Polygon","properties":{"GEOID":"081230017002"}},{"arcs":[[-130,350,-138,-240,-214,-185]],"type":"Polygon","properties":{"GEOID":"081230004021"}},{"arcs":[[-236,351,352,-161,-284,353]],"type":"Polygon","properties":{"GEOID":"081230020181"}},{"arcs":[[354,355,-350,356,357,-179,-249,358,359,-79,-314]],"type":"Polygon","properties":{"GEOID":"081230021016"}},{"arcs":[[-127,360,-193,361]],"type":"Polygon","properties":{"GEOID":"081230005012"}},{"arcs":[[-99,-8,362,-299]],"type":"Polygon","properties":{"GEOID":"081230014072"}},{"arcs":[[-43,363,364,365,366]],"type":"Polygon","properties":{"GEOID":"081230014063"}},{"arcs":[[367,368,369,370]],"type":"Polygon","properties":{"GEOID":"081230025024"}},{"arcs":[[371,372,373,374,375,376,377,378]],"type":"Polygon","properties":{"GEOID":"081230025013"}},{"arcs":[[379,380,381,382,-278,383]],"type":"Polygon","properties":{"GEOID":"081230021051"}},{"arcs":[[384,385,386,387]],"type":"Polygon","properties":{"GEOID":"081230019091"}},{"arcs":[[-320,-328,-331,-92,-242,388,-385,389]],"type":"Polygon","properties":{"GEOID":"081230019101"}},{"arcs":[[390,-315,391,-220,-73]],"type":"Polygon","properties":{"GEOID":"081230021072"}},{"arcs":[[-77,392,-89,393,394]],"type":"Polygon","properties":{"GEOID":"081230021065"}},{"arcs":[[-76,395,-86,-393]],"type":"Polygon","properties":{"GEOID":"081230021062"}},{"arcs":[[-338,-300,396,-355,-313]],"type":"Polygon","properties":{"GEOID":"081230021017"}},{"arcs":[[-363,-7,-266,-44,-367,397,398,-397]],"type":"Polygon","properties":{"GEOID":"081230014062"}},{"arcs":[[399,-371,400,401]],"type":"Polygon","properties":{"GEOID":"081230025021"}},{"arcs":[[402,-373,403,404,-270,405],[406]],"type":"Polygon","properties":{"GEOID":"081230025014"}},{"arcs":[[-268,-148,-339,-312,407]],"type":"Polygon","properties":{"GEOID":"081230022101"}},{"arcs":[[408,-167,-45,-166,409,410,-323,-318,-353]],"type":"Polygon","properties":{"GEOID":"081230020211"}},{"arcs":[[411,412,413,-302]],"type":"Polygon","properties":{"GEOID":"081230020051"}},{"arcs":[[-177,-267,414]],"type":"Polygon","properties":{"GEOID":"081230014171"}},{"arcs":[[-296,-184,-153,-190]],"type":"Polygon","properties":{"GEOID":"081230010056"}},{"arcs":[[-366,415,416,-398]],"type":"Polygon","properties":{"GEOID":"081230014051"}},{"arcs":[[-196,417,-306,-287,418]],"type":"Polygon","properties":{"GEOID":"081230020072"}},{"arcs":[[-168,-409,-352,-235,419]],"type":"Polygon","properties":{"GEOID":"081230020193"}},{"arcs":[[420,421,422,-290]],"type":"Polygon","properties":{"GEOID":"081230020083"}},{"arcs":[[-304,423,424,425]],"type":"Polygon","properties":{"GEOID":"081230020084"}},{"arcs":[[426,427,428,-206,429]],"type":"Polygon","properties":{"GEOID":"081230022072"}},{"arcs":[[430,-274,-255,431,-336,432,433]],"type":"Polygon","properties":{"GEOID":"081230022083"}},{"arcs":[[434,-433,-335,435,-428]],"type":"Polygon","properties":{"GEOID":"081230022082"}},{"arcs":[[436,437,-388,438,-413]],"type":"Polygon","properties":{"GEOID":"081230020061"}},{"arcs":[[-42,439,440,-21,441,-364]],"type":"Polygon","properties":{"GEOID":"081230014061"}},{"arcs":[[-321,-390,-438,442,-170]],"type":"Polygon","properties":{"GEOID":"081230020151"}},{"arcs":[[443,-132,-110,-210]],"type":"Polygon","properties":{"GEOID":"081230012011"}},{"arcs":[[444,-66,445]],"type":"Polygon","properties":{"GEOID":"081230011004"}},{"arcs":[[-16,-109,-1,-133]],"type":"Polygon","properties":{"GEOID":"081230010033"}},{"arcs":[[-239,-346,-224,-215]],"type":"Polygon","properties":{"GEOID":"081230002002"}},{"arcs":[[-345,-119,-261,-226]],"type":"Polygon","properties":{"GEOID":"081230008004"}},{"arcs":[[446,-378,447,448,-246,449,450,451,452]],"type":"Polygon","properties":{"GEOID":"081230016002"}},{"arcs":[[-407]],"type":"Polygon","properties":{"GEOID":"081230025011"}},{"arcs":[[-342,453,-402,454]],"type":"Polygon","properties":{"GEOID":"081230025022"}},{"arcs":[[455,456,-375]],"type":"Polygon","properties":{"GEOID":"081230025012"}},{"arcs":[[457,-348,-26,458,459,460]],"type":"Polygon","properties":{"GEOID":"081230017001"}},{"arcs":[[-382,461,462,463,464,465,-340,-324,-411,466,467],[468]],"type":"Polygon","properties":{"GEOID":"081230018001"}},{"arcs":[[469,470,-264]],"type":"Polygon","properties":{"GEOID":"081230014091"}},{"arcs":[[471,-243,-217,-263,-62,472]],"type":"Polygon","properties":{"GEOID":"081230004013"}},{"arcs":[[-330,473,-195,-444,-124]],"type":"Polygon","properties":{"GEOID":"081230013002"}},{"arcs":[[-276,474,-434,-435,-427,475]],"type":"Polygon","properties":{"GEOID":"081230022081"}},{"arcs":[[-241,-34,-219,-332,-326,-344,476,-389]],"type":"Polygon","properties":{"GEOID":"081230019121"}},{"arcs":[[477,-456,-374,-403]],"type":"Polygon","properties":{"GEOID":"081230025015"}},{"arcs":[[-379,-447,478,-253,-93,-251,479]],"type":"Polygon","properties":{"GEOID":"081230015004"}},{"arcs":[[480,-316,-391,-72]],"type":"Polygon","properties":{"GEOID":"081230021071"}},{"arcs":[[-399,-417,481,-311,-347,-356]],"type":"Polygon","properties":{"GEOID":"081230014042"}},{"arcs":[[482,483,484,-451,485,-459,-25]],"type":"Polygon","properties":{"GEOID":"081230007051"}},{"arcs":[[-394,-88,486,-380,487]],"type":"Polygon","properties":{"GEOID":"081230021061"}},{"arcs":[[-200,-212,488,489,-470,-69]],"type":"Polygon","properties":{"GEOID":"081230014102"}},{"arcs":[[-361,-126,-51,-142,-351,-194]],"type":"Polygon","properties":{"GEOID":"081230005021"}},{"arcs":[[490,-473,-445,491,-58]],"type":"Polygon","properties":{"GEOID":"081230011001"}},{"arcs":[[-466,492,-448,-377,493,-368,-400,-454,-341]],"type":"Polygon","properties":{"GEOID":"081230025025"}},{"arcs":[[-322,-169,-231,-203]],"type":"Polygon","properties":{"GEOID":"081230020161"}},{"arcs":[[-294,494,-10,495,-484,496,497,-116]],"type":"Polygon","properties":{"GEOID":"081230007031"}},{"arcs":[[-497,-483,-24,498]],"type":"Polygon","properties":{"GEOID":"081230007041"}},{"arcs":[[-431,-475,-275]],"type":"Polygon","properties":{"GEOID":"081230023004"}},{"arcs":[[499,-53,-128,-362,-474,-329,500]],"type":"Polygon","properties":{"GEOID":"081230013001"}},{"arcs":[[-262,-117,-498,-499,-23,-106]],"type":"Polygon","properties":{"GEOID":"081230010041"}},{"arcs":[[-247,-181,501]],"type":"Polygon","properties":{"GEOID":"081230021015"}},{"arcs":[[-471,-490,-61,-440,-265]],"type":"Polygon","properties":{"GEOID":"081230014092"}},{"arcs":[[502,-455,-401,-370,503,504]],"type":"Polygon","properties":{"GEOID":"081230025023"}},{"arcs":[[-357,-349,-458,505,-464,506]],"type":"Polygon","properties":{"GEOID":"081230017003"}},{"arcs":[[-492,-446,-65,507,-59]],"type":"Polygon","properties":{"GEOID":"081230011003"}},{"arcs":[[-80,-360,-221,-392]],"type":"Polygon","properties":{"GEOID":"081230021082"}},{"arcs":[[-279,-383,-468,508,-420,-234]],"type":"Polygon","properties":{"GEOID":"081230020191"}},{"arcs":[[-469]],"type":"Polygon","properties":{"GEOID":"081230018002"}},{"arcs":[[-436,-334,509,510,-83,-202,-207,-429]],"type":"Polygon","properties":{"GEOID":"081230022031"}},{"arcs":[[-359,-248,-502,-180,-358,-507,-463,511,-222]],"type":"Polygon","properties":{"GEOID":"081230021013"}},{"arcs":[[-60,-508,-135,512,-297,-188,-18,-441]],"type":"Polygon","properties":{"GEOID":"081230010053"}},{"arcs":[[-301,-285,-232,-104,-151,-171,-443,-437,-412]],"type":"Polygon","properties":{"GEOID":"081230020041"}},{"arcs":[[-386,-477,513,514]],"type":"Polygon","properties":{"GEOID":"081230019111"}},{"arcs":[[515,-501,-174,516,517,-160,-201,-258]],"type":"Polygon","properties":{"GEOID":"081230014162"}},{"arcs":[[518,-157,-518]],"type":"Polygon","properties":{"GEOID":"081230014151"}},{"arcs":[[-11,-495,-293]],"type":"Polygon","properties":{"GEOID":"081230007033"}},{"arcs":[[-486,-450,-245,-449,-493,519,-460]],"type":"Polygon","properties":{"GEOID":"081230016003"}},{"arcs":[[-461,-520,-465,-506]],"type":"Polygon","properties":{"GEOID":"081230017004"}},{"arcs":[[-405,520,-271]],"type":"Polygon","properties":{"GEOID":"081230023001"}},{"arcs":[[521,-141,522,-510,-333,-146]],"type":"Polygon","properties":{"GEOID":"081230022041"}},{"arcs":[[-75,-223,-512,-462,-381,-487,-87,-396]],"type":"Polygon","properties":{"GEOID":"081230021064"}},{"arcs":[[-432,-254,-479,-453,523,-47,-500,-516,-257,-337]],"type":"Polygon","properties":{"GEOID":"081230015003"}},{"arcs":[[-187,-244,-472,524]],"type":"Polygon","properties":{"GEOID":"081230004014"}},{"arcs":[[-425,525,-422,526]],"type":"Polygon","properties":{"GEOID":"081230020081"}},{"arcs":[[-305,-426,-527,-421,-289]],"type":"Polygon","properties":{"GEOID":"081230020082"}},{"arcs":[[-134,-256,-182,-295,-513]],"type":"Polygon","properties":{"GEOID":"081230010062"}},{"arcs":[[-365,-442,-20,-308,-482,-416]],"type":"Polygon","properties":{"GEOID":"081230014052"}},{"arcs":[[-191,-152,-309]],"type":"Polygon","properties":{"GEOID":"081230010052"}},{"arcs":[[-467,-410,-165,-509]],"type":"Polygon","properties":{"GEOID":"081230020201"}},{"arcs":[[-84,-511,-523,-140,-522,-145]],"type":"Polygon","properties":{"GEOID":"081230022052"}},{"arcs":[[-354,-283,-28,-280]],"type":"Polygon","properties":{"GEOID":"081230020171"}},{"arcs":[[-95,-252]],"type":"Polygon","properties":{"GEOID":"081230015002"}},{"arcs":[[-343,-503,527,528,-514]],"type":"Polygon","properties":{"GEOID":"081230019132"}},{"arcs":[[-173,-415,-158,-519,-517]],"type":"Polygon","properties":{"GEOID":"081230014152"}},{"arcs":[[-211,529,-57,-489]],"type":"Polygon","properties":{"GEOID":"081230012022"}},{"arcs":[[-505,530,-528]],"type":"Polygon","properties":{"GEOID":"081230019131"}},{"arcs":[[-521,-404,-372,-480,-273,-229,-272]],"type":"Polygon","properties":{"GEOID":"081230023002"}},{"arcs":[[-452,-485,-496,-9,-292,-114,-54,-48,-524]],"type":"Polygon","properties":{"GEOID":"081230007052"}},{"arcs":[[-112,-525,-491,-530]],"type":"Polygon","properties":{"GEOID":"081230012021"}}]}}}