{"type":"Topology","arcs":[[[2104,8519],[-91,24],[-42,6],[-87,1],[0,-94],[2,-79],[-1,-158],[3,-105],[1,-142],[-1,-84],[-146,0],[-102,-7],[-101,3],[-108,2],[-34,-140],[-8,-35],[-8,-63],[-2,-66],[3,-612],[1,-83],[-3,-42],[-10,-59],[-5,-15],[-10,-62],[-1,-29],[4,-487]],[[1358,6193],[-323,-1],[-116,4],[-206,1],[-229,-5],[-69,-10],[-80,-27],[-30,-5],[-45,5],[-62,26],[-46,11],[-54,0],[-56,-10]],[[42,6182],[2,35],[-3,212],[-3,124],[-1,107],[-2,5],[1,74],[3,449],[1,175],[11,149],[4,49],[16,82],[0,36],[1,249],[-8,343],[-1,297],[0,67],[-1,202],[1,3],[98,1],[112,0],[68,2],[350,1],[462,1],[205,-3],[63,-4],[100,-2],[53,-2],[61,1],[364,3],[99,0],[-32,-32],[-16,-39],[-10,-64],[2,-51],[24,-56],[21,-17],[18,3],[21,18],[35,18],[21,5],[36,-2],[8,-27],[-9,-24],[-26,-23],[-39,-6],[-23,1],[-25,-23]],[[2104,8519],[-26,-28],[-35,-89],[-1,-16],[7,-46],[12,-31],[29,-42],[53,-38],[77,-26],[47,-27],[8,-16],[-3,-27],[-17,-26],[-31,-60],[-18,-40],[-7,-27],[2,-75],[-15,-58],[-42,-78],[-17,-54],[-11,-49],[-21,-32],[0,-82],[7,-12],[9,-51],[-6,-35],[-9,-25],[7,-55],[13,-77],[30,-85],[38,-56],[89,-82],[63,-42],[18,-16],[37,-26],[24,-38],[6,-37],[-9,-63],[-8,-25],[-17,-31],[-29,-38],[-46,-52],[-20,-38],[2,-15],[62,-62],[38,-52],[98,-106],[35,-63],[10,-55],[-4,-52],[-5,-38],[2,-113],[-5,-8],[-12,-111],[-7,-94],[22,-39],[25,-18],[57,-28],[21,-16],[21,-28],[31,-59],[21,-26],[19,-12],[29,-4],[47,12],[38,16],[28,8],[80,16],[43,0],[57,-24],[49,-36],[17,-19],[24,-34],[32,-54],[36,-45],[22,-22],[37,-2],[12,8],[17,38],[12,49],[20,12],[32,10],[23,2],[75,-15]],[[3453,5589],[-10,-132]],[[3443,5457],[-11,-141]],[[3432,5316],[-90,1],[-73,-1],[-225,1],[-345,2],[-135,-2],[-19,17],[-296,291],[-82,80],[-325,320],[-63,51],[-67,42],[-48,23],[-51,20],[-68,18],[-72,11],[-38,3],[-77,0]],[[3453,5589],[33,7],[38,24],[20,26],[11,23],[19,72],[17,41],[23,24],[33,-4],[22,-10],[66,-39],[64,-50],[26,-14],[21,-6],[47,-2],[29,8],[32,2],[40,-16],[26,-16],[15,-19],[16,-28],[36,-54],[18,-14],[31,0],[15,8],[38,28],[63,54],[14,25],[47,44],[11,4],[40,-3],[47,-18],[39,-33],[5,-18],[-2,-38],[0,-122],[8,-19],[29,-31],[13,-4],[58,1],[53,8],[42,3],[45,-5],[52,-23],[15,-12],[18,-35],[18,-19],[39,-33],[54,-37],[18,-9],[39,-7],[65,3],[73,-4],[33,1],[64,-9],[36,-19],[9,-11],[3,-19],[-3,-32],[-17,-59],[-7,-54],[5,-40],[11,-37],[31,-48],[20,-20],[51,-29],[60,-19],[69,-27],[36,-18],[21,-15],[55,-44],[39,-26],[103,-40],[24,-21],[36,-49],[27,-64],[19,-31],[12,-12],[78,-16],[34,-16],[62,-48],[21,-20],[32,-46],[30,-39],[67,-47],[47,-44],[41,-63],[47,-98],[37,-95],[29,-112],[21,-62],[10,-17],[23,-23],[25,-16],[27,-7],[28,-13],[14,-15],[22,-5],[23,1],[110,23],[57,7],[54,1],[19,-5],[32,-25],[16,-44],[27,-127],[17,-21],[80,-10]],[[6959,3508],[-6,-22],[-36,-24],[-8,-13],[-17,1],[-37,-12],[-39,4],[-6,37],[-12,21],[-38,28],[-20,9],[-34,1],[-50,-23],[-19,-4],[-92,-2],[-43,-10],[2,-9],[-1,-219],[-287,-1],[-206,-2],[-73,-2],[-65,97],[-10,26],[-2,68],[-13,23],[-25,10],[-302,1],[-23,4],[-12,9],[-34,39],[-25,18],[-34,6],[-36,1],[-244,-2],[-28,4],[-14,15]],[[5070,3585],[-7,27],[0,115],[-3,83],[-7,13],[-49,64],[-12,29],[-2,74],[-8,21],[-17,17],[-21,53],[-14,13],[-42,24],[-12,12],[-29,69],[-4,17],[-1,34],[-2,171],[-8,19],[-10,5],[-239,-3],[-68,-2],[-92,1],[-25,4],[-44,-4],[-8,-7],[-19,9],[-120,100],[-21,21],[-2,23],[-3,275],[-3,301],[12,22],[-12,28],[-1,75],[-10,19],[-15,9],[-462,112],[-75,27],[-21,4],[-151,-2]],[[7,3708],[68,39],[31,8],[22,-1],[235,-46],[204,-39],[42,2],[27,11],[121,71],[17,6],[401,89],[69,7],[318,23],[66,26],[82,2],[49,14],[96,37],[20,-5],[51,-2],[60,13],[21,7],[34,23],[10,25],[20,37],[37,24],[31,43],[27,18],[12,23],[14,11],[19,31],[30,17],[19,3],[17,29],[25,54],[43,22],[40,36],[29,30],[2,9],[-4,250],[73,1],[4,-53],[10,-13],[21,-10],[165,3],[63,-1],[311,7],[83,5],[12,2],[132,60],[0,-79],[106,-5],[0,13]],[[3392,4585],[112,-4],[33,-14],[14,-18],[47,-93],[12,-36],[71,-245],[36,-222],[13,-36],[59,-103],[17,-35],[8,-34],[9,-158],[76,-4],[41,11],[100,57],[23,6],[18,-1],[22,-9],[72,-61],[31,-11],[65,-9],[25,-15],[18,-21],[34,-76],[46,-45],[21,-31],[15,-46],[17,-24],[106,-100]],[[4553,3208],[44,-34],[22,-25],[44,-34],[102,-139],[10,-19],[58,-175],[45,-63],[43,-35],[22,-29],[35,-76],[9,-37],[-4,-52],[5,-22],[25,-70],[8,-14],[37,-44],[19,-42],[45,-72],[4,-10],[38,-146],[-3,-33],[-20,-33],[-3,-18],[5,-35],[10,-16],[23,-23],[11,-35],[0,-287],[16,-69],[0,-21],[-21,-96],[0,-51],[-12,-77],[-16,-85],[8,-77],[0,-36],[12,-27],[26,-30],[8,-23],[4,-31],[-9,-49],[-6,-52],[-29,-41],[-19,-64],[6,-20],[-35,-36],[-35,-4],[-9,-10],[-40,-55],[-17,-15],[-40,-67],[-3,-20],[6,-22],[34,-32],[28,-47],[1,-30],[7,-12],[22,-12],[34,-44],[62,-131],[7,-44],[21,-46],[5,-17],[-17,-51]],[[5186,46],[-241,-4],[-679,-9],[-763,-3],[-647,-6],[-758,-11],[-832,-3],[-364,-2],[-589,-8],[0,574],[0,495],[-3,255],[-310,2],[6,153],[1,520],[2,891],[1,701],[-3,117]],[[5070,3585],[-4,-8],[-6,-70],[-14,-28],[-17,-14],[-44,-12],[-20,-11],[-85,-62],[-26,-14],[-135,-29],[-17,-5],[-24,-16],[-125,-108]],[[3392,4585],[-2,172],[4,65],[38,494]],[[6959,3508],[59,-7],[39,-25],[13,-30],[8,-124],[18,-100],[22,-137],[53,-122],[53,-55],[7,-101],[25,-40],[32,-22],[147,-18],[109,-11],[69,19],[18,-8],[45,-96],[35,-56],[18,-70],[28,-65],[-8,-134],[21,-33],[38,-97],[-3,-23],[-80,-86],[-9,-68],[19,-21],[29,-3],[25,-16],[53,-86],[-11,-123],[4,-14],[64,-23],[41,-24],[15,-22],[-1,-31],[-10,-18],[-31,-16],[-44,-17],[-13,-17],[-12,-36],[-2,-36],[53,-93],[44,-40],[40,-13],[29,7],[28,74],[3,33],[-10,51],[3,16],[34,40],[33,17],[55,12],[47,-2],[49,-24],[18,-33],[34,-38],[66,-42],[54,-62],[6,-47],[-19,-25],[-25,2],[-28,43],[-33,14],[-27,-10],[-12,-17],[4,-30],[27,-44],[21,-20],[48,-27],[54,-25],[26,15],[39,67],[29,15],[35,-20],[13,-36],[2,-42],[11,-32],[1,-70],[-21,-64],[-9,-51],[11,-42],[12,-38],[0,-21],[-28,-69],[-12,-20],[-77,-82],[-55,-67],[-34,-56],[-16,-37],[-32,-101],[-12,-54],[-3,-55],[-5,-49],[-16,-81],[-1,-68],[-8,-49],[-21,-24],[-17,-10],[-19,-3],[-57,-3],[-49,-6],[-29,-18],[-256,-4],[-15,1],[-322,1],[-79,-2],[-139,0],[-145,-2],[-2,28],[-54,1],[-36,-3],[-74,1],[-212,-2],[-76,-3],[-45,1],[-153,-1],[-72,4],[-602,-5],[-628,-11]],[[7,3708],[-3,127],[19,579],[7,605],[8,964],[2,129],[2,70]]],"transform":{"scale":[0.00005767628578077775,0.00004957083097795366],"translate":[-83.37089,29.822222]},"objects":{"Geometry\\12-067":{"type":"GeometryCollection","geometries":[{"arcs":[[0,1,2]],"type":"Polygon","properties":{"GEOID":"120679601001"}},{"arcs":[[3,4,5,6,-1]],"type":"Polygon","properties":{"GEOID":"120679601002"}},{"arcs":[[7,8,9,-5]],"type":"Polygon","properties":{"GEOID":"120679602022"}},{"arcs":[[10,11,12,13]],"type":"Polygon","properties":{"GEOID":"120679602012"}},{"arcs":[[-6,-10,14,-12,15]],"type":"Polygon","properties":{"GEOID":"120679602021"}},{"arcs":[[-15,-9,16,-13]],"type":"Polygon","properties":{"GEOID":"120679602013"}},{"arcs":[[-2,-7,-16,-11,17]],"type":"Polygon","properties":{"GEOID":"120679602011"}}]}}}