{"type":"Topology","arcs":[[[11040,3614],[123,51],[79,-8],[13,41],[6,-6],[-2,-63],[-48,-71],[-33,-95],[-23,-20],[11,-94],[2,-61],[222,214],[245,-126],[99,-69],[195,-35],[344,211],[171,-67],[255,-1],[-5,-362],[465,0],[1,-142],[-3,-83]],[[13157,2828],[-8,-176]],[[13149,2652],[-5,-101]],[[13144,2551],[-111,40],[-107,-129],[-250,-131],[-232,-86],[0,53],[-223,-101],[-14,-11],[-224,-73]],[[11983,2113],[-13,26],[-90,254],[-5,9]],[[11875,2402],[-4,6]],[[11871,2408],[1,28],[-4,48],[-31,81],[-42,82],[-49,69],[-27,-28],[0,-21],[11,-20],[5,-28],[-18,-13],[-6,-18],[5,-50],[-116,0],[0,-75],[-39,-6],[-11,-9]],[[11550,2448],[-9,45],[-9,23],[-24,34],[-36,23],[-18,19]],[[11454,2592],[-11,12],[-20,53],[-9,64],[2,44],[-2,37],[-7,54],[28,97],[5,57],[-6,51],[-17,39],[-107,75],[-67,27],[-56,34],[-23,1],[-17,47],[-14,86],[-19,85],[-29,74],[-45,85]],[[16466,4791],[94,116],[181,102]],[[16741,5009],[15,-32],[36,-64],[28,-39],[18,-9],[27,-37],[11,-35]],[[16876,4793],[18,-80]],[[16894,4713],[-252,-209]],[[16642,4504],[-33,39],[-19,-21],[-7,6],[22,24],[-14,5],[-24,62],[-26,54],[-75,118]],[[13157,2828],[251,-8]],[[13408,2820],[9,-98],[-4,-28],[1,-56],[-36,-3],[-33,-13],[-5,-11],[-44,36],[-15,30],[-132,-25]],[[8741,1377],[25,-43]],[[8766,1334],[-28,-22]],[[8738,1312],[-14,24],[13,10],[-11,18],[15,13]],[[8898,1931],[4,-2],[110,-124],[41,-64],[28,-36]],[[9081,1705],[-25,-20],[-24,-30],[-15,-33]],[[9017,1622],[-15,13],[-21,4],[-43,-7],[-8,-5],[-47,-59],[-2,-16],[16,-27],[15,-11],[13,4],[18,-10],[23,-28]],[[8966,1480],[-47,-42]],[[8919,1438],[-25,-22]],[[8894,1416],[-23,-7]],[[8871,1409],[-30,-15]],[[8841,1394],[-13,25],[-20,-21]],[[8808,1398],[-17,30],[-15,-12]],[[8776,1416],[-10,17]],[[8766,1433],[-3,13],[-19,0],[4,35],[14,9],[-7,14],[9,37],[-5,14],[5,45],[-15,24],[4,38],[-1,35],[-6,27],[3,29],[19,23],[65,62],[65,93]],[[9830,1798],[48,27],[163,99],[156,123],[158,124],[17,10],[130,49],[45,16],[102,39]],[[10649,2285],[70,-113]],[[10719,2172],[12,-9],[11,-142],[4,-80]],[[10746,1941],[7,-143],[-140,-35],[-92,-21],[-77,-20],[-51,-10],[-89,-43],[-71,-65],[-42,-60],[-57,-39],[-97,-29],[-45,-11],[-58,2],[-37,60]],[[9897,1527],[-9,27],[-21,13],[-5,18],[15,41],[-13,25],[-16,15],[-17,29],[6,56],[-7,47]],[[11550,2448],[7,-39],[27,-88],[-32,-162],[-53,-58],[-37,-24],[-27,-24],[-23,-33],[-23,-51],[-4,-67],[-19,-27]],[[11366,1875],[-149,77]],[[11217,1952],[12,218],[-24,287],[13,36],[19,1],[46,-31],[46,-50],[37,-47],[39,-41],[23,-35],[10,-67],[11,-21],[13,62],[3,40],[-9,51],[-2,44],[-8,49],[-18,67],[1,17],[13,42],[12,18]],[[10719,2172],[8,45],[23,28],[2,78],[33,5],[111,-24],[107,-8]],[[11003,2296],[43,-298]],[[11046,1998],[-41,-233],[-259,176]],[[13683,2667],[4,90],[-2,28]],[[13685,2785],[144,70],[92,25]],[[13921,2880],[-2,-29],[-33,-49],[-5,-54],[3,-79]],[[13884,2669],[-50,-9],[-152,-18]],[[13682,2642],[1,25]],[[16876,4793],[46,25],[82,41],[19,17],[50,72],[-22,-11],[-16,8],[-60,196]],[[16975,5141],[50,28],[31,30]],[[17056,5199],[40,-41],[22,-40],[45,0],[1,-40],[24,40],[28,91],[4,8]],[[17220,5217],[21,12],[21,-2]],[[17262,5227],[-5,-17],[10,-52],[8,-21],[22,-37],[37,-49]],[[17334,5051],[-125,-71],[-145,-187],[-170,-80]],[[9097,1504],[9,-17],[51,0]],[[9157,1487],[0,-32],[-60,-2],[1,-9]],[[9098,1444],[-3,-2]],[[9095,1442],[-6,20]],[[9089,1462],[-4,14]],[[9085,1476],[-6,21],[18,7]],[[9081,1705],[19,-33],[4,-20],[29,-25],[26,-27],[0,-10],[40,-31],[0,-19],[-20,-4]],[[9179,1536],[-82,-32]],[[9085,1476],[-26,-10],[-5,19]],[[9054,1485],[0,16],[-34,-3],[-34,-22]],[[8986,1476],[-4,15]],[[8982,1491],[-5,18],[10,36],[30,77]],[[9054,1485],[-26,-10],[-10,-10],[3,-15],[-24,-10]],[[8997,1440],[-11,36]],[[8966,1480],[16,11]],[[8997,1440],[4,-14]],[[9001,1426],[-64,-27]],[[8937,1399],[-3,-1]],[[8934,1398],[-15,40]],[[8820,1378],[21,16]],[[8841,1394],[22,-38]],[[8863,1356],[-21,-17]],[[8842,1339],[-3,6]],[[8839,1345],[-19,33]],[[8871,1409],[5,-25],[12,-21]],[[8888,1363],[-13,-11],[-12,4]],[[17931,6108],[8,13]],[[17939,6121],[111,170]],[[18050,6291],[17,1],[-1,-77],[-3,-18],[-12,-2],[-1,-17],[-15,-13],[-10,-43],[-15,0],[-16,-19],[-52,-75]],[[17942,6028],[-8,-4]],[[17934,6024],[6,54],[-9,30]],[[18040,6398],[32,-6],[15,8],[28,-9]],[[18115,6391],[-65,-100]],[[18050,6291],[-10,1],[0,106]],[[17818,6249],[68,-90],[13,3],[22,-13],[18,-28]],[[17931,6108],[-28,-38],[-77,-89],[0,15],[-24,226]],[[17802,6222],[16,27]],[[17386,5744],[14,-14],[25,-13],[28,-4],[33,2],[32,-5],[13,-13],[18,-44],[-6,-9],[30,-30],[15,21],[89,-114]],[[17677,5521],[-166,-7],[-13,3],[-14,-18],[-27,-1]],[[17457,5498],[35,50],[-43,2],[-44,18],[-69,12]],[[17336,5580],[-18,126],[68,38]],[[17965,6439],[23,-12],[26,-2],[26,-27]],[[17818,6249],[8,36],[18,27],[16,1],[93,-17],[25,12],[2,27],[-13,1],[-8,73],[6,30]],[[17151,5360],[9,-31],[16,-20],[2,-17],[41,-15],[1,-60]],[[17056,5199],[-8,16],[26,53],[15,22],[48,59],[14,11]],[[9179,1536],[11,-1],[5,-36]],[[9195,1499],[-11,-15],[-27,3]],[[8894,1416],[-1,-11],[15,-26]],[[8908,1379],[-5,-4]],[[8903,1375],[-15,-12]],[[8934,1398],[-26,-19]],[[9467,2572],[50,29]],[[9517,2601],[29,-66],[5,-35],[11,-28],[26,-25],[36,-91],[16,-51],[16,-40],[34,-111],[12,-50],[41,-129],[77,-64],[11,-28],[-1,-85]],[[9897,1527],[2,-6],[-253,-126]],[[9646,1395],[-12,88],[1,22],[22,28],[15,33],[25,19],[13,23],[5,58],[28,22],[36,14],[-26,48],[-23,-13],[0,47],[-12,55]],[[9718,1839],[4,25],[-16,27],[-10,50],[-18,34],[-182,531],[-25,53],[-4,13]],[[9041,2366],[426,206]],[[9718,1839],[-22,-49],[-2,-64],[-11,-17],[-35,-21],[-10,37],[-34,19],[-5,9],[-29,20],[-50,26],[-38,2],[-32,-8],[-9,7],[-53,21],[-76,16],[-63,5],[-38,-5]],[[9211,1837],[-39,56],[-17,34],[7,9],[52,34],[22,24],[8,26],[0,25],[-86,134],[-46,80],[-24,34],[-17,37],[-30,36]],[[8779,2126],[262,240]],[[9211,1837],[20,-28],[35,-56],[24,-50],[9,-44],[0,-54],[12,-55],[-26,-60],[-8,-54],[4,-121]],[[9281,1315],[-28,-3],[-51,70],[4,63],[5,35],[-16,19]],[[8898,1931],[-13,7],[-90,36],[-16,152]],[[8776,1416],[4,-8]],[[8780,1408],[-39,-31]],[[8741,1377],[-15,26],[40,30]],[[18115,6391],[40,-1],[86,-58],[20,-22],[69,-42]],[[18330,6268],[-29,-35],[-41,-17],[-174,-212],[-96,-54]],[[17990,5950],[-48,78]],[[17151,5360],[57,41],[21,6],[30,27],[41,28],[32,15],[10,19],[2,29],[-8,55]],[[17457,5498],[-56,-77],[-11,-28],[-9,-58],[-9,-18],[-61,-78],[-20,-12],[-29,0]],[[17677,5521],[-191,-319],[-23,-59],[-129,-92]],[[13569,2907],[94,41]],[[13663,2948],[4,-37],[-8,-63],[5,-15],[16,-22],[5,-26]],[[13683,2667],[-29,-8],[-42,-2],[-16,-38],[-9,-31],[2,-17],[23,-25],[-26,-19],[-18,11],[-2,10],[-30,-6],[-11,19],[5,30],[-20,11],[5,22],[-18,23],[43,45],[25,14],[-2,105],[6,96]],[[13408,2820],[161,87]],[[13682,2642],[-143,-231],[-395,138],[0,2]],[[8766,1334],[14,-24],[9,7],[40,-69]],[[8829,1248],[-39,-5]],[[8790,1243],[-12,47],[-8,18],[-24,-8],[-8,12]],[[13663,2948],[182,118],[99,-23]],[[13944,3043],[8,-78],[-1,-24],[-31,-51],[1,-10]],[[14269,3215],[324,192]],[[14593,3407],[13,-133]],[[14606,3274],[-31,-15],[-3,7],[-32,0],[-8,-20],[-22,1],[-8,-18],[4,-14],[-18,-17],[5,-17],[25,7],[9,12],[50,-26],[2,-7],[34,16]],[[14613,3183],[7,-130]],[[14620,3053],[-182,0],[-114,-85]],[[14324,2968],[-4,37],[-13,15]],[[14307,3020],[-17,11],[1,22],[8,13],[-20,58],[-10,91]],[[14593,3407],[112,94],[227,28],[22,23],[116,45],[395,324],[-41,124]],[[15424,4045],[134,85],[233,153],[100,64]],[[15891,4347],[-100,-221],[-4,-3],[-65,-129],[35,-60],[35,-100],[0,-76]],[[15792,3758],[-2,41],[-66,-32],[-134,-62],[-78,-150],[-221,-5],[-234,-128],[-103,-55],[0,-179],[-58,-37],[-25,-13],[-48,-34],[-44,-51],[-159,0]],[[14613,3183],[16,7],[43,2],[25,-6],[13,3],[24,21],[7,19],[-15,58],[-23,-5],[-21,26],[-76,-34]],[[1,2010],[11,113],[24,133],[29,108],[37,105],[35,80],[65,121],[80,119],[96,111],[76,71],[64,50],[73,70],[52,43],[54,40],[94,59],[78,41],[121,48],[104,28],[84,16],[85,8],[60,17],[119,41],[165,32],[124,5],[83,-4],[90,10],[96,9],[58,0],[77,-5],[96,-15],[131,-37],[108,-47],[120,-71],[82,-61],[90,-83],[109,-129],[92,-145],[75,-158],[65,-213],[26,-155],[10,-136],[-1,-113],[-9,-113],[-18,-111],[-20,-87],[-33,-107],[-31,-82],[-918,0],[-230,0],[-61,-80],[-75,-59],[-101,-40],[-57,-7],[-87,10],[-72,29],[-60,36],[-62,44],[-60,-32],[-64,-21],[-71,-8],[-114,22],[-71,38],[-42,34],[-33,34],[-118,1],[-1,-922],[-95,46],[-102,64],[-95,77],[-60,57],[-83,94],[-63,86],[-56,93],[-48,97],[-26,61],[-30,84],[-19,64],[-17,65],[-17,89],[-10,67],[-9,113],[1,158]],[[13921,2880],[57,16],[19,-99],[13,0],[29,17],[23,28],[56,39],[32,11],[55,43],[28,27],[44,20],[-1,15],[17,18],[14,5]],[[14324,2968],[-42,-27],[-398,-272]],[[10612,3136],[92,219],[90,126],[246,133]],[[11217,1952],[-171,46]],[[11003,2296],[-3,17],[-56,101],[-45,89],[-3,29],[-101,114],[-38,39],[-19,65],[0,50],[-4,51],[-43,136],[-9,66],[-70,83]],[[9089,1462],[-88,-36]],[[8903,1375],[7,-30],[-48,-39]],[[8862,1306],[-20,33]],[[9646,1395],[-90,-42],[-169,-50],[-106,-14]],[[9281,1289],[0,26]],[[17386,5744],[78,43],[170,121],[44,83],[1,19],[42,73]],[[17721,6083],[28,-41],[-2,-41],[-1,-89],[19,-2],[-13,-23],[16,-23],[4,-57],[26,-20],[45,23],[-2,27],[11,8],[-6,24],[25,27],[11,24],[19,23],[8,21],[21,17],[4,43]],[[17990,5950],[-145,-189],[-22,-21],[190,-190],[-129,-20],[-207,-9]],[[11871,2408],[-22,14],[-24,23],[-37,22],[-19,8],[-36,0],[-2,-119],[119,-1],[3,25],[22,22]],[[11983,2113],[-61,-23],[-256,-151],[-300,-66],[0,2]],[[17721,6083],[81,139]],[[13944,3043],[173,133],[88,12],[64,27]],[[15891,4347],[62,102],[284,179]],[[16237,4628],[130,-260],[23,-40],[32,-66]],[[16422,4262],[26,-69],[-10,-9],[-6,-21],[-11,-6],[-6,-27],[-52,0],[-26,-46],[-193,1],[-75,-80],[-125,-66],[-45,-71],[-84,-47],[0,-27],[-13,-33],[-10,-3]],[[9095,1442],[7,-23],[-43,-10],[-14,-19],[-77,-3],[-13,-3]],[[8955,1384],[-18,15]],[[8955,1384],[2,-15],[21,-6],[1,-16],[-59,-18],[30,-46]],[[8950,1283],[-58,-33]],[[8892,1250],[-30,56]],[[17908,7242],[16,-98],[4,-13],[86,-213],[18,-21],[143,-70],[33,-29]],[[18208,6798],[-11,-45],[-22,-25],[-164,-251],[-46,-38]],[[16975,5141],[-234,-132]],[[16466,4791],[-65,-79],[-87,-36],[-77,-48]],[[15424,4045],[-28,86],[-71,228],[-148,230],[-347,271],[-442,344],[-331,258],[-57,-50],[-245,407],[-218,362],[-28,-26],[-130,175],[-199,165],[-65,75],[2,202],[-193,281],[2,310],[50,325],[69,214],[9,156],[31,69],[-4,310],[-25,245],[-168,451],[-65,87],[-390,994],[-328,468],[-141,468],[-221,-135],[-85,122],[-51,69],[0,296],[-72,171],[-45,205],[-276,86],[-294,167]],[[10920,12131],[164,1],[81,-3],[218,0],[64,1],[52,-2],[108,1],[163,0],[171,2],[24,2],[133,2],[77,-2],[151,1],[53,3],[164,-2],[329,-1],[408,-1],[166,-4],[671,6],[123,0],[162,3],[403,6],[160,3],[0,-296],[1,-178],[-1,-133],[0,-601],[-1,-344],[1,-16],[-2,-549],[2,-512],[-2,-141],[0,-209],[0,-361],[2,-304],[0,-161],[73,2],[1,-544],[1,-501],[26,0],[-1,-437],[0,-135],[44,6],[35,-2],[31,-7],[50,-31],[28,-40],[9,-17],[11,-45],[9,-3],[30,20],[48,22],[25,21],[8,38],[-8,20],[-18,13],[-4,49],[-6,7],[43,14],[43,-21],[17,-2],[20,-9],[15,-36],[-26,-84],[-15,-29],[-7,-57],[-10,-37],[10,-19],[4,-24],[-4,-32],[8,-2],[13,29],[-4,44],[1,39],[10,36],[22,29],[23,7],[20,-2],[34,7],[13,-5],[22,-34],[7,-35],[20,-46],[2,-26],[-6,-35],[-31,-44],[10,-15],[34,26],[17,55],[1,28],[-9,12],[-2,21],[-11,18],[-2,22],[9,21],[34,11],[27,-4],[30,-12],[14,-11],[3,-23],[-9,-30],[12,-14],[20,0],[26,-37],[13,-9],[10,-21],[18,-10],[44,11],[34,-3],[14,13],[38,4],[4,12],[-33,27],[-11,2],[-22,25],[-54,-16],[-31,28],[-3,13],[-18,24],[-1,53],[13,4],[20,-11],[9,-14],[19,-12],[8,-16],[19,16],[23,-12],[8,5],[2,25],[-16,38],[19,-4],[26,-15],[14,-46],[-21,-28],[-9,-26],[11,-8],[27,18],[25,7],[27,-32],[20,-5],[12,-34],[7,-53],[11,-13],[21,15],[0,20],[-9,11],[-5,34],[12,32],[39,13],[-6,41],[0,24],[29,34],[8,13],[27,11],[27,19],[27,31],[17,2],[6,-22],[-4,-26],[-12,-21],[-3,-16],[16,-7],[22,27],[9,35],[-1,20],[17,6],[20,-28],[-13,-31],[25,-5],[29,6],[20,14],[10,-1],[7,-17],[22,-27],[-1,-12],[-15,-39],[-13,-18],[-30,-15],[-38,-54],[-12,-10],[-14,-24],[-21,-14],[0,-29],[14,1],[15,22],[17,7],[24,-8],[37,14],[13,17],[26,9],[2,11],[-19,13],[-6,12],[-1,35],[7,13],[27,9],[-3,32],[3,30],[9,29],[27,57],[10,10],[27,13],[33,-6],[-1,21],[-50,-2],[-10,-8],[-43,-16],[-32,4],[-15,14],[-12,-26],[-18,5],[-12,21],[2,18],[21,21],[6,21],[38,3],[-1,30],[11,12],[10,25],[20,-3],[8,-23],[19,10],[36,2],[16,14],[16,0],[6,18],[15,8],[10,19],[28,-24],[8,24],[17,14],[10,-14],[39,27],[29,-5],[9,21],[24,0],[5,-26],[-11,-31],[17,-48],[-5,-15],[-23,-9],[-15,-16],[1,-27],[-23,-7],[-8,5],[-36,-5],[12,-12],[-8,-28],[30,-14],[29,40],[6,19],[19,33],[52,24],[19,4],[12,16],[-1,32],[17,35],[27,12],[25,-1],[4,40],[-6,13],[12,33],[35,13],[15,-16],[30,2],[20,7],[26,-35],[-10,-26],[-26,0],[-7,-38],[-8,-10],[-23,1],[-9,38],[-8,-20],[15,-24],[15,-7],[26,-35],[23,-4],[-1,21],[11,17],[35,18],[-4,43],[-20,67],[28,-2],[24,18],[35,2],[7,-16],[-9,-25],[11,-26],[15,-11],[23,11],[15,-14],[4,24],[-9,11],[1,28],[15,20],[38,-3],[12,8],[40,41],[6,15],[34,9],[28,-24],[5,-14],[24,-21],[6,-28],[15,-18],[-1,-24],[24,-15],[5,-22],[17,-7],[17,-20],[16,1],[1,41],[-22,28],[-17,13],[5,15],[14,-5],[4,-16],[14,-5],[6,-15],[46,14],[-1,17],[7,18],[-13,9],[-19,1],[-20,22],[3,44],[-11,14],[3,23],[13,17],[20,-1],[10,14],[12,-1],[15,-26],[15,-8],[17,30],[39,20],[12,-18],[13,16],[16,-1],[1,29],[7,10],[43,18],[23,-4],[5,21],[21,-4],[19,16],[33,11],[8,22],[21,-1],[15,-16],[-4,-24],[28,12],[0,-29],[14,-8]],[[10649,2285],[-96,156],[-159,251],[-126,210],[-45,71]],[[10223,2973],[-27,44],[256,306],[160,-187]],[[8780,1408],[11,-18],[-9,-18],[10,-17]],[[8792,1355],[-26,-21]],[[10223,2973],[-145,-60],[-62,-50],[-61,39],[-438,-301]],[[8779,2126],[-69,-9],[-128,-38],[-15,-138],[153,-15],[5,-78],[26,2],[-12,-34],[-20,-22],[-17,-55],[-9,-62],[4,-39],[15,-41],[7,-50],[-480,200],[-60,54],[-88,74],[-46,54],[-621,-539],[-837,397],[-38,-4],[-75,-14],[-84,-43],[-81,-89],[-85,-117],[-81,-110],[-80,-94],[24,-18],[133,-79],[63,-27],[103,-5],[98,16],[103,2],[42,4],[173,204],[538,-365],[84,-1],[0,65],[75,-40],[61,-23],[229,-4],[138,14],[168,61],[131,72],[34,40],[409,14],[121,-3]],[[8829,1248],[63,2]],[[8950,1283],[147,-26],[36,12]],[[9133,1269],[148,20]],[[16422,4262],[205,222],[15,20]],[[18330,6268],[172,395]],[[18502,6663],[63,249],[227,474],[285,542],[159,187],[37,38]],[[19273,8153],[284,49],[21,4],[-4,-55],[-16,-72],[-16,-46],[-22,-46],[-33,-51],[-34,-71],[-28,-40],[-35,-40],[-24,-42],[-34,-51],[-29,-37],[-12,-47],[-26,-65],[-19,-38],[-19,-61],[-12,-26],[-26,-50],[-56,-83],[-33,-39],[-36,-70],[-32,-95],[-25,-54],[-20,-34],[-30,-43],[-11,-33],[-26,-57],[-25,-41],[-13,-33],[-19,-40],[-27,-62],[0,-37],[-3,-45],[-13,0],[-19,-98],[-19,-51],[-16,-26],[-50,-101],[-24,-41],[-4,-20],[-23,-34],[-87,-172],[-57,-93],[-73,-100],[-34,-33],[-26,-17],[-31,-27],[-56,-42],[-63,-36],[-42,-14],[1,-34],[-4,-86],[-13,-67],[-25,-63],[-40,-73],[-24,-35],[-22,-26],[-38,-34],[-61,-43],[-100,-49],[1,-21],[-8,-85],[-36,-106],[-52,-84],[-64,-67],[-44,-36],[-58,-28],[-147,-48],[-96,-20],[-26,-62],[-47,-85],[-86,-93],[-78,-56],[-62,-34],[-52,-15],[-21,-27],[-32,-31],[-45,-31],[-26,-8],[-14,-24],[-39,-58],[-23,-41],[-10,0],[-53,-58],[-34,-27],[-22,-44],[-36,-47],[-57,-58],[-26,-19],[-54,-63],[-80,-60],[-115,-47],[-36,-3],[-40,-42],[-54,-44],[-50,-26],[-83,-69],[-71,-43],[-58,-21],[-21,-20],[-57,-36],[-36,-16],[-19,-34],[-12,-14],[-45,-62],[-98,-87],[-82,-41],[-64,-13],[-57,-4],[-45,8],[-29,9],[-52,-38],[-62,-34],[-50,-25],[-56,-13],[-46,4],[-13,-20],[-48,-60],[-48,-32],[-67,-93],[-57,-47],[-42,-28],[-82,-26],[-50,-4],[-39,1],[-33,-36],[-68,-58],[-76,-51],[-79,-30],[-13,-16],[-56,-43],[-61,-31],[-33,-31],[-52,-43],[-71,-42],[-23,0],[-57,-18],[-72,-13],[-18,-43],[-33,-50],[-57,-69],[-60,-54],[-81,-38],[-112,-21],[-72,-4],[-67,0],[-91,12],[-66,12],[-28,8],[-62,28],[-45,27],[-32,32],[-14,20],[-28,-36],[-43,-40],[-51,-37],[-45,-21],[-40,-14],[-36,-6],[-65,-5],[-42,0],[-28,5],[-9,-11],[-73,-58],[-59,-29],[-59,-20],[-39,-4],[-36,-56],[-30,-35],[-32,-25],[-67,-38],[-48,-18],[-42,-6],[-63,-5],[-40,8],[-31,-18],[-42,-18],[-39,-10],[-56,-21],[-128,-36],[-4,-9],[-32,-18],[-21,-9],[-39,-7],[-26,-1],[-58,-45],[-69,-26],[-71,-13],[-42,-3],[-48,1],[-85,-1],[-61,8],[-110,-83],[-97,-46],[-90,-23],[-65,5],[-58,18],[-36,20],[-39,40],[-35,-8],[-62,14],[-37,13],[-12,-20],[-76,-79],[26,-68],[23,-83],[11,-79],[-2,-80],[-5,-41],[-13,-44],[-26,-60],[-19,0],[-13,-34],[-63,-91],[-77,-68],[-91,-46],[-69,-15],[-70,1],[-24,-37],[-50,-50],[-90,-58],[-65,-19],[-35,-7],[-48,-1],[-33,-26],[-44,-21],[-79,-20],[-29,-18],[-42,-11],[-74,-8],[-30,-18],[-52,-22],[-51,-19],[-37,-5],[-61,-17],[-122,8],[-71,29],[-54,33],[-46,43],[-48,59],[-49,117],[-24,82],[-5,56],[5,64],[8,51],[0,31],[-45,-12],[-88,7],[27,-37],[34,-109],[10,-153],[-48,-185],[-79,-106],[-85,-82],[-80,-44],[-105,-43],[-58,-15],[-64,-9],[-19,3],[-32,-13],[-53,-4],[-52,5],[-44,7],[-34,10],[-58,-42],[-55,-26],[-63,-13],[-95,5],[-78,21],[-80,51],[-60,58],[-48,76],[-35,94],[-15,119],[7,99],[28,95],[16,28],[-54,17],[-27,1],[-48,11],[-37,17],[-13,-9],[-85,5],[-65,15],[-72,40],[-69,63],[-43,61],[-5,27],[-16,31],[-27,93],[-60,80],[-35,-52],[-47,-52],[-55,-47],[-85,-53],[-31,3],[-37,-14],[-48,-10],[-83,-4],[-42,3],[-27,5],[-26,-8],[-44,-7],[-43,-2],[-59,8],[-84,25],[-45,19],[-56,36],[-28,24],[-36,37],[-26,34],[-28,46],[-19,41],[-21,58],[-15,54],[-8,42],[-9,74],[-1,79],[9,68],[17,64],[19,47],[-743,0],[22,119],[30,126],[29,96],[42,118],[25,59],[54,116],[60,110],[67,105],[36,51],[62,93],[60,75],[66,69],[41,38],[74,57],[45,31],[48,28],[81,40],[50,20],[51,17],[69,17],[108,18],[83,9],[110,4],[55,-2],[83,-6],[82,-11],[81,-17],[81,-21],[53,-18],[79,-29],[52,-23],[76,-38],[50,-27],[53,43],[82,58],[85,51],[43,23],[67,31],[68,27],[46,16],[92,25],[95,18],[67,16],[38,7],[76,9],[76,3],[54,35],[0,12],[41,33],[38,27],[120,79],[57,39],[78,47],[43,29],[105,67],[71,27],[84,36],[86,15],[109,115],[103,75],[127,83],[86,39],[93,54],[62,44],[98,81],[79,71],[114,77],[95,41],[82,25],[89,84],[59,50],[122,95],[99,63],[73,52],[45,22],[89,54],[66,46],[68,43],[53,30],[128,57],[199,46],[105,14],[57,17],[53,12],[88,13],[89,3],[90,-5],[35,-5],[71,-14],[35,-9],[69,-23],[34,-13],[69,14],[47,7],[64,4],[83,40],[70,27],[88,24],[72,14],[73,7],[73,2],[55,-3],[90,-13],[72,-16],[70,-22],[86,-36],[50,-26],[65,-39],[78,-56],[-4,46],[-6,29],[-20,48],[-40,53],[-31,55],[-21,50],[-37,32],[-54,56],[-53,73],[-28,50],[-55,32],[-49,33],[-62,49],[-31,26],[-57,56],[-55,61],[-64,85],[-54,84],[-41,75],[-27,57],[-32,80],[-21,61],[-24,83],[-10,43],[-16,86],[-8,65],[-26,47],[-48,98],[-32,77],[-19,51],[-34,106],[-30,114],[-21,71],[-11,44],[-18,91],[-7,45],[-7,74],[-3,106],[4,84],[6,64],[8,62],[16,83],[21,81],[26,80],[107,511],[-22,86],[-24,106],[-12,72],[-11,73],[-35,37],[-61,76],[-35,48],[-42,68],[-29,53],[-34,73],[-31,75],[-31,98],[-88,326],[-13,63],[-66,88],[-66,103],[-32,54],[-57,110],[-51,115],[-53,25],[-76,45],[-59,40],[-42,34],[-54,49],[-51,53],[-36,43],[-34,45],[-32,46],[-39,65],[-44,86],[-23,54],[-33,92],[-21,75],[-21,97],[-8,59],[-100,51],[-50,28],[-72,47],[-94,69],[-67,56],[-69,-36],[-47,-21],[-64,-22],[-65,-18],[-33,-7],[-83,-11],[-50,-3],[-50,1],[-50,3],[-81,-5],[-81,2],[-100,11],[-99,21],[-59,17],[-57,21],[-57,25],[-56,28],[-71,42],[-70,49],[-66,53],[-32,29],[-75,78],[-57,67],[-64,91],[-46,77],[-32,60],[-47,104],[-32,86],[-86,193],[-19,20],[-23,34],[839,9],[656,6],[356,3],[462,5],[169,1]],[[18304,6703],[10,-10],[15,23],[30,-28],[24,-9],[21,1],[42,10],[18,-4],[38,-23]],[[18115,6391],[186,285],[3,27]],[[8820,1378],[-12,20]],[[8792,1355],[28,23]],[[8839,1345],[-28,-23],[-19,33]],[[9098,1444],[10,-49],[13,-25],[0,-44],[12,-57]],[[18208,6798],[88,-79],[8,-16]],[[17908,7242],[28,-6],[16,6],[54,-1],[1,73],[35,49],[16,26],[108,1],[-1,167],[106,129],[-1,77],[2,78],[47,0],[-1,37],[65,35],[140,71],[306,165],[176,94],[27,15],[21,-2],[39,-29],[19,-52],[14,-20],[9,-25],[139,23]]],"transform":{"scale":[0.00014940111349473918,0.00011600139952251575],"translate":[-83.108914,24.396308]},"objects":{"Geometry\\12-087":{"type":"GeometryCollection","geometries":[{"arcs":[[0,1,2,3,4,5,6,7,8]],"type":"Polygon","properties":{"GEOID":"120879714021"}},{"arcs":[[9,10,11,12,13]],"type":"Polygon","properties":{"GEOID":"120879709002"}},{"arcs":[[14,15,-2]],"type":"Polygon","properties":{"GEOID":"120879713001"}},{"arcs":[[16,17,18]],"type":"Polygon","properties":{"GEOID":"120879724001"}},{"arcs":[[19,20,21,22,23,24,25,26,27,28,29]],"type":"Polygon","properties":{"GEOID":"120879721001"}},{"arcs":[[30,31,32,33,34]],"type":"Polygon","properties":{"GEOID":"120879716001"}},{"arcs":[[-8,35,36,37]],"type":"Polygon","properties":{"GEOID":"120879715022"}},{"arcs":[[38,39,40,-33]],"type":"Polygon","properties":{"GEOID":"120879715011"}},{"arcs":[[41,42,43,44,45]],"type":"Polygon","properties":{"GEOID":"120879711001"}},{"arcs":[[46,47,48,49,50,51,-12]],"type":"Polygon","properties":{"GEOID":"120879708003"}},{"arcs":[[52,53,54,55,56,57]],"type":"Polygon","properties":{"GEOID":"120879718004"}},{"arcs":[[-21,58,59,-58,60,61,62,63]],"type":"Polygon","properties":{"GEOID":"120879719001"}},{"arcs":[[-62,64,65]],"type":"Polygon","properties":{"GEOID":"120879719002"}},{"arcs":[[66,-63,-66,67,68,69,70,-23]],"type":"Polygon","properties":{"GEOID":"120879721002"}},{"arcs":[[71,72,73,74,75]],"type":"Polygon","properties":{"GEOID":"120879722001"}},{"arcs":[[-26,76,77,-73]],"type":"Polygon","properties":{"GEOID":"120879722002"}},{"arcs":[[78,79,80,81,82]],"type":"Polygon","properties":{"GEOID":"120879704002"}},{"arcs":[[83,84,85]],"type":"Polygon","properties":{"GEOID":"120879704003"}},{"arcs":[[86,-79,87,88]],"type":"Polygon","properties":{"GEOID":"120879705001"}},{"arcs":[[89,90,91,92]],"type":"Polygon","properties":{"GEOID":"120879706001"}},{"arcs":[[93,-86,-80,-87,94]],"type":"Polygon","properties":{"GEOID":"120879704001"}},{"arcs":[[95,-49,96]],"type":"Polygon","properties":{"GEOID":"120879708001"}},{"arcs":[[-60,97,98,-53]],"type":"Polygon","properties":{"GEOID":"120879718002"}},{"arcs":[[-25,99,100,101,-77]],"type":"Polygon","properties":{"GEOID":"120879722003"}},{"arcs":[[-24,-71,102,-100]],"type":"Polygon","properties":{"GEOID":"120879722004"}},{"arcs":[[103,104,-35,105,106,107]],"type":"Polygon","properties":{"GEOID":"120879717001"}},{"arcs":[[108,-108,109,110]],"type":"Polygon","properties":{"GEOID":"120879717003"}},{"arcs":[[111,-111,112,113,-98,-59,-20,114]],"type":"Polygon","properties":{"GEOID":"120879718001"}},{"arcs":[[-29,115,116,117]],"type":"Polygon","properties":{"GEOID":"120879725001"}},{"arcs":[[-85,118,119,120,-81]],"type":"Polygon","properties":{"GEOID":"120879704004"}},{"arcs":[[121,-92,122,-50,-96]],"type":"Polygon","properties":{"GEOID":"120879707001"}},{"arcs":[[-123,-91,123,-51]],"type":"Polygon","properties":{"GEOID":"120879707002"}},{"arcs":[[124,125,-42,126]],"type":"Polygon","properties":{"GEOID":"120879712001"}},{"arcs":[[-3,-16,127,-127,-46,128]],"type":"Polygon","properties":{"GEOID":"120879713002"}},{"arcs":[[-18,129,130,131]],"type":"Polygon","properties":{"GEOID":"120879724002"}},{"arcs":[[132,133,-43,-126]],"type":"Polygon","properties":{"GEOID":"120879711002"}},{"arcs":[[134,135,136,137,138,139,140]],"type":"Polygon","properties":{"GEOID":"120879710021"}},{"arcs":[[141,142,143,144,-138,145,-136]],"type":"Polygon","properties":{"GEOID":"120879710023"}},{"arcs":[[146]],"type":"Polygon","properties":{"GEOID":"120879801001"}},{"arcs":[[147,-140,148,-44]],"type":"Polygon","properties":{"GEOID":"120879710011"}},{"arcs":[[149,-9,-38,150,-40,151]],"type":"Polygon","properties":{"GEOID":"120879715021"}},{"arcs":[[-65,-61,-57,152,-68]],"type":"Polygon","properties":{"GEOID":"120879719003"}},{"arcs":[[-64,-67,-22]],"type":"Polygon","properties":{"GEOID":"120879721003"}},{"arcs":[[-74,-78,-102,153,154]],"type":"Polygon","properties":{"GEOID":"120879720001"}},{"arcs":[[-110,-107,155,156,-113]],"type":"Polygon","properties":{"GEOID":"120879717002"}},{"arcs":[[157,158,-82,-121,159,-90]],"type":"Polygon","properties":{"GEOID":"120879706002"}},{"arcs":[[-36,-7,160,-5,161]],"type":"Polygon","properties":{"GEOID":"120879714012"}},{"arcs":[[162,-88,-83,-159]],"type":"Polygon","properties":{"GEOID":"120879705002"}},{"arcs":[[163,-141,-148,-134]],"type":"Polygon","properties":{"GEOID":"120879710012"}},{"arcs":[[164,165,166,-144]],"type":"Polygon","properties":{"GEOID":"120879709001"}},{"arcs":[[-153,-56,167,168,-69]],"type":"Polygon","properties":{"GEOID":"120879720002"}},{"arcs":[[-101,-103,-70,-169,169,170,171,-154]],"type":"Polygon","properties":{"GEOID":"120879720003"}},{"arcs":[[-146,-137]],"type":"Polygon","properties":{"GEOID":"120879710022"}},{"arcs":[[172,173,-95,-89,-163,-158,-93,-122,-97,-48,174,-10,175,-165,-143,176,177]],"type":"Polygon","properties":{"GEOID":"120879800001"}},{"arcs":[[-152,-39,-32,178,179]],"type":"Polygon","properties":{"GEOID":"120879715012"}},{"arcs":[[-117,180,181,-17]],"type":"Polygon","properties":{"GEOID":"120879724003"}},{"arcs":[[-177,-142,-135,-164,-133,-125,-128,-15,-1,-150,-180,182,-104,-109,-112,183,-131,184,-171,185,186,-156,-106,-34,-41,-151,-37,-162,-4,-129,-45,-149,-139,-145,-167,187,-13,-52,-124,-160,-120,188,189,190]],"type":"Polygon","properties":{"GEOID":"120879900000"}},{"arcs":[[-6,-161]],"type":"Polygon","properties":{"GEOID":"120879714011"}},{"arcs":[[191,-189,-119,192]],"type":"Polygon","properties":{"GEOID":"120879727001"}},{"arcs":[[-27,-72,193]],"type":"Polygon","properties":{"GEOID":"120879728001"}},{"arcs":[[194,-76,195]],"type":"Polygon","properties":{"GEOID":"120879728002"}},{"arcs":[[-28,-194,-195,-181,-116]],"type":"Polygon","properties":{"GEOID":"120879728003"}},{"arcs":[[-182,-196,-75,-155,-172,-185,-130]],"type":"Polygon","properties":{"GEOID":"120879728004"}},{"arcs":[[-168,-55,196,-186,-170]],"type":"Polygon","properties":{"GEOID":"120879720004"}},{"arcs":[[-99,-114,-157,-187,-197,-54]],"type":"Polygon","properties":{"GEOID":"120879718003"}},{"arcs":[[-176,-14,-188,-166]],"type":"Polygon","properties":{"GEOID":"120879709003"}},{"arcs":[[-175,-47,-11]],"type":"Polygon","properties":{"GEOID":"120879708002"}},{"arcs":[[-174,197,-193,-84,-94]],"type":"Polygon","properties":{"GEOID":"120879727002"}},{"arcs":[[-190,-192,-198,-173,198]],"type":"Polygon","properties":{"GEOID":"120879727003"}},{"arcs":[[-183,-179,-31,-105]],"type":"Polygon","properties":{"GEOID":"120879716002"}},{"arcs":[[-115,-30,-118,-19,-132,-184]],"type":"Polygon","properties":{"GEOID":"120879725002"}}]}}}