{"type":"Topology","arcs":[[[11191,848],[60,0],[82,-3],[103,1]],[[11436,846],[12,-64],[17,-80],[19,-69],[63,-199]],[[11547,434],[-115,1],[-4,-1],[-74,1],[-21,7]],[[11333,442],[-26,60],[-9,19],[-33,73],[-17,35],[-6,15]],[[11242,644],[-8,37],[-29,116],[-8,33],[-6,18]],[[9494,1078],[133,-2],[46,0],[119,-2],[65,0],[200,-3],[111,-1],[70,-1]],[[10238,1069],[-1,-110],[-1,-40],[-1,-57]],[[10235,862],[-64,0],[-64,1],[-140,2],[-110,2]],[[9857,867],[-39,0],[-83,1],[-122,2],[-120,2],[1,163],[0,43]],[[10238,1069],[1,102]],[[10239,1171],[192,-1],[182,-1]],[[10613,1169],[0,-88],[-3,-200],[0,-24]],[[10610,857],[-86,2],[-43,-1],[-93,1],[-126,3],[-27,0]],[[10610,857],[0,-31],[0,-109],[-1,-67]],[[10609,650],[-2,-210]],[[10607,440],[-101,9],[-158,2],[0,-5],[-114,1],[-8,1],[-165,2],[-17,0],[-183,3],[-4,0]],[[9857,453],[1,64],[0,74],[2,166],[-1,59],[-2,21],[0,30]],[[10609,650],[40,0],[20,-1],[62,-1],[102,0],[85,-1],[62,-1],[27,-1],[88,-1],[3,-2],[141,1],[3,1]],[[11333,442],[-1,-7],[-63,1],[-106,1],[-74,0],[-114,2]],[[10975,439],[-64,1],[-168,2],[-127,1],[-9,-3]],[[10607,440],[-4,-293],[-1,-118]],[[10602,29],[-186,1],[-186,2],[-280,4],[-97,2]],[[9853,38],[3,205],[2,200],[-1,10]],[[9133,2630],[90,0],[-1,-103],[94,0],[-2,-200],[-1,-6]],[[9313,2321],[-118,1],[-68,0]],[[9127,2322],[2,211],[4,39],[0,58]],[[11009,151],[7,-12],[14,-6],[123,-1],[79,-1],[37,-1],[139,85],[50,32],[77,0],[0,-2],[64,1],[8,3]],[[11607,249],[8,-29],[15,-33],[24,-35],[11,-24],[3,-17],[0,-21],[-6,-23],[-22,-49]],[[11640,18],[-107,1],[-18,1],[-351,5],[-90,2],[-96,-1]],[[10978,26],[-2,10],[1,71],[1,17],[9,13],[22,14]],[[11547,434],[60,-185]],[[11009,151],[-30,60],[-1,37],[1,180],[-4,11]],[[12116,1645],[5,-17],[8,-38],[6,-23],[20,-52],[16,7],[31,-1],[56,1],[7,-7],[15,-1],[4,-7],[31,0],[-15,25],[142,-1]],[[12442,1531],[141,-223],[30,-119]],[[12613,1189],[-141,-21],[-81,1],[10,-31],[32,-110],[13,-44],[5,-49]],[[12451,935],[-17,-1],[-8,4],[-12,16],[-6,-1],[-25,10],[-2,10],[-18,2],[-32,-3],[-31,48],[-11,15],[-96,-13],[-38,-5],[-34,0],[-98,-5],[-104,-7]],[[11919,1005],[-64,345],[-40,110]],[[11815,1460],[-51,140]],[[11764,1600],[8,1],[115,7],[147,2],[0,5],[15,23],[11,0],[51,5],[5,2]],[[11911,2130],[98,0],[47,-7],[28,-3],[58,4],[16,0]],[[12158,2124],[112,-315],[36,-74],[136,-204]],[[12116,1645],[-5,12],[-27,52],[-71,165],[-74,177],[-19,48],[-9,31]],[[12613,1189],[201,-1172]],[[12814,17],[-88,1],[-6,-10],[-40,-1],[-5,16]],[[12675,23],[-22,81],[-13,32],[-12,40],[-27,79],[-10,37],[-53,224],[-19,99],[-9,59],[-9,43],[-10,41],[-17,55],[-16,75],[-7,47]],[[9888,4373],[29,1],[124,0],[24,1],[173,1],[63,-3],[129,-2],[77,-1]],[[10507,4370],[21,-100],[22,-93],[35,-147],[5,-24],[40,-171]],[[10630,3835],[-14,-7],[-18,-3],[19,-77]],[[10617,3748],[-46,4],[-102,2],[-7,67],[1,7],[13,8],[-213,19],[-29,1],[-139,1],[-170,0],[-39,0]],[[9886,3857],[-1,52],[1,72],[2,392]],[[11032,4771],[20,25],[8,15],[13,16],[19,60]],[[11092,4887],[128,0],[22,5],[86,39],[-18,67],[32,0],[21,8],[20,3],[24,-73],[17,1],[26,7],[35,4]],[[11485,4948],[34,-170],[7,-30],[131,-451],[127,-479]],[[11784,3818],[-187,3],[-42,-16],[-28,-13],[-54,-30],[9,-12],[6,-25],[0,-27],[-4,-27],[-16,-33],[-16,-21],[-16,-12],[-15,-8],[-29,-2],[-118,-19]],[[11274,3576],[-48,172],[-15,79],[-19,68]],[[11192,3895],[-16,58],[-63,253],[-5,0],[-7,27],[-10,109],[-2,77],[-8,33],[-39,59],[-70,113],[-6,23],[2,20],[9,41],[25,23],[28,30],[2,10]],[[8462,6499],[13,-13],[13,-31],[10,-5],[60,-1],[43,-2],[0,25],[0,66],[1,11],[84,0],[-19,103],[22,5],[93,-1]],[[8782,6656],[64,0],[123,-1]],[[8969,6655],[20,-18]],[[8989,6637],[-25,-32],[-94,-132],[-45,-62]],[[8825,6411],[-67,-93],[-23,-30],[-47,-68],[-98,-134],[-26,-40],[-31,-45]],[[8533,6001],[-16,14],[-16,-1],[-4,10],[2,12],[7,7],[-6,9],[-6,22],[-15,4],[13,18],[10,1],[10,41],[6,2],[-2,14],[8,24],[0,9],[7,16],[-5,17],[-21,6],[-4,7],[13,11],[5,12],[0,10],[-6,12],[-18,8],[6,6],[11,-2],[4,20],[-5,6],[-15,-3],[-12,-7],[-5,2],[-11,18],[-11,6],[-3,12],[16,8],[33,-1],[2,4],[-7,15],[-27,27],[-1,12],[18,12],[-3,23],[-6,5],[-27,2],[9,14],[4,13],[-3,21]],[[8596,5899],[7,7],[49,20],[-1,24],[11,1],[0,14],[121,-1],[0,30],[24,-1],[0,-49],[42,1]],[[8849,5945],[44,-72],[5,-14],[0,-32],[16,-4],[11,-9],[67,-109],[9,-12]],[[9001,5693],[-11,-11],[-33,-21],[-52,-8],[-12,-6],[-11,-10],[-21,-28],[-19,-1],[-28,0],[-27,8],[-10,0],[-14,25],[0,11],[-18,11],[2,7],[-20,12],[-4,7],[-18,6],[-4,-9],[-23,12],[-11,12],[2,9],[-8,8],[-8,18],[-14,46],[-11,20],[-21,19],[-5,11],[1,40],[-7,18]],[[7426,7489],[150,-1],[154,-1],[727,-2]],[[8457,7485],[0,-97],[19,-94],[17,-62],[12,-27],[18,-47],[0,-9],[-7,-14],[-9,-11],[-20,-17],[-11,-16],[-8,-18],[-1,-19],[-2,-63],[5,-20],[16,-1],[5,13],[5,29],[6,5],[9,-2],[7,-9]],[[8518,7006],[-3,-27],[8,-19],[14,-18],[2,-10],[-4,-7],[-8,-2],[-28,9],[-12,0],[-6,-7],[-2,-18],[8,-12],[14,-9],[6,-16],[-3,-15],[-13,-9],[-9,-11],[-5,-11],[1,-19],[14,-51],[2,-22],[-5,-15],[-26,-26],[2,-10],[15,-22],[15,-12],[-3,-17],[-8,-1],[-24,11],[-12,-4],[-10,-19],[-10,-33],[-7,-14],[10,-8],[14,18],[12,-5],[-9,-32],[2,-8],[15,-4],[17,6],[13,-3],[-2,-8],[-23,-9],[-8,-18]],[[8533,6001],[-26,-30],[-9,-9],[-18,-11],[-30,-13],[-39,-7],[-1,-51],[0,-115],[-2,-65],[0,-75]],[[8408,5625],[-4,-1],[-201,2],[-103,2],[-52,2],[-92,2],[-52,0],[-93,1],[-122,2],[-29,-1],[-94,1],[-70,3]],[[7496,5638],[0,28],[2,67],[3,84],[7,131]],[[7508,5948],[3,51],[2,91],[9,179],[16,342],[13,234],[8,163],[18,110],[3,20],[2,39],[-2,30],[-4,23],[-10,41],[-7,22],[-9,20],[-19,33],[-12,17],[-93,126]],[[6059,5769],[91,97],[38,38],[15,11]],[[6203,5915],[12,8],[26,14],[16,5],[25,6],[38,3],[91,-2],[45,0],[92,-1]],[[6548,5948],[-1,-45],[-2,-244],[-160,3],[-78,1],[-16,1],[-65,0],[-41,1],[-2,-4],[-41,1],[-84,1],[2,83],[-1,23]],[[8782,4588],[13,1],[57,-1],[134,0],[99,1],[11,1],[66,1],[284,-5],[67,-1],[-1,-208],[78,-1],[88,0],[154,-2],[56,-1]],[[9886,3857],[-2,-306]],[[9884,3551],[-175,0],[-121,0],[-75,1],[-32,-1],[-86,0],[-57,1],[-182,1],[-15,-3],[-1,-208],[-1,-202],[-1,-205]],[[9138,2935],[-3,0]],[[9135,2935],[-18,3],[-216,2],[-136,2]],[[8765,2942],[2,187],[1,189],[3,313],[0,117],[2,142],[1,196],[0,73],[2,201],[1,80],[-1,143],[6,5]],[[9882,3345],[124,-2],[55,0],[136,-1],[63,-1]],[[10260,3341],[138,-3]],[[10398,3338],[-2,-206]],[[10396,3132],[-139,3],[-234,2],[-142,1]],[[9881,3138],[0,51],[1,156]],[[9879,2927],[1,106],[1,105]],[[10396,3132],[-1,-171],[-69,1],[0,65],[-70,0],[-2,-21],[-8,-38],[-34,-97],[-7,-26],[-2,-20],[1,-20],[4,-20],[18,5],[8,-5],[38,-92],[6,-27],[0,-17],[0,-81],[31,-26],[48,0],[0,-11],[42,22],[15,4],[20,-1],[26,80],[53,-22],[-18,-51],[-8,-27],[83,-2],[41,0],[25,-10],[-14,-8],[0,-27]],[[10622,2489],[-88,-37],[-52,-20],[-234,-97]],[[10248,2335],[-1,31],[1,152],[-63,0],[-198,3],[-111,0]],[[9876,2521],[1,70],[0,54],[1,132],[0,13],[1,137]],[[9884,3551],[197,-1],[181,-2]],[[10262,3548],[-1,-186],[-1,-21]],[[9882,3345],[1,73],[1,133]],[[10927,3335],[13,-29],[11,-22],[26,-45],[39,-53],[52,-58]],[[11068,3128],[-9,0],[-170,2],[-120,-1]],[[10769,3129],[-5,18],[-44,188]],[[10720,3335],[-10,41],[-25,104],[-17,62]],[[10668,3542],[-16,59],[-24,102],[-11,45]],[[10617,3748],[57,1],[82,-2],[1,-48],[3,-16],[7,-27],[16,-31],[41,-62],[24,-39],[11,-24],[27,-72],[15,-35],[26,-58]],[[10620,2300],[59,-2],[27,1],[29,-2],[61,-1],[5,-3]],[[10801,2293],[-1,-132],[1,-70]],[[10801,2091],[-60,1],[-121,5]],[[10620,2097],[0,203]],[[10801,2091],[98,-1],[37,3],[75,20],[39,14]],[[11050,2127],[5,-16],[22,-64],[8,-36],[19,-63],[19,-69]],[[11123,1879],[-165,3],[-44,1],[-22,2],[-90,0]],[[10802,1885],[-170,5],[-13,0]],[[10619,1890],[0,19],[1,147],[0,41]],[[10262,3548],[122,-1],[149,-2],[14,-3],[121,0]],[[10720,3335],[-64,1],[-48,0],[-84,1],[-114,2],[-12,-1]],[[11068,3128],[34,-39],[73,-81],[79,-88],[17,-24],[8,-20],[4,-15],[4,-37],[7,-114],[3,-13],[22,-76]],[[11319,2621],[-96,0],[-69,1],[-88,1],[-102,2],[-46,-15]],[[10918,2610],[-13,62],[-10,29],[-63,221],[-45,138],[-18,69]],[[10422,2098],[115,-1],[83,0]],[[10619,1890],[-105,1],[-94,1]],[[10420,1892],[1,46],[0,106],[1,54]],[[9135,2935],[0,-15],[-1,-186]],[[9134,2734],[-1,-104]],[[9127,2322],[-48,1],[-101,0],[-221,0]],[[8757,2323],[1,142],[1,45],[2,25],[3,176],[-1,49],[2,182]],[[8756,2113],[1,210]],[[9127,2322],[-1,-208]],[[9126,2114],[0,-63],[0,-92],[-1,-51]],[[9125,1908],[-138,1],[-232,3]],[[8755,1912],[1,150],[0,51]],[[9875,2314],[1,4],[1,108],[-2,4],[1,91]],[[10248,2335],[0,-30]],[[10248,2305],[-68,1],[-107,-47],[-76,-30],[-126,-51]],[[9871,2178],[4,38],[1,66],[-1,32]],[[6231,7493],[528,-2],[538,-2],[129,0]],[[7508,5948],[-79,1],[-41,-1],[-54,0],[-120,2],[-210,3],[-50,0],[-96,-4],[-92,-4],[-81,1],[-41,0],[-96,2]],[[6203,5915],[1,189],[1,29],[11,0],[0,10],[1,109],[1,93],[2,139],[0,27],[1,73],[1,105],[1,55],[1,123],[0,27],[2,185],[2,118],[1,164],[1,43],[1,89]],[[8755,1912],[-34,-1],[-259,0],[-82,0]],[[8380,1911],[1,203],[35,0],[167,-1],[16,-2],[50,2],[107,0]],[[10423,2302],[47,0],[150,-2]],[[10422,2098],[0,103],[1,101]],[[10801,2293],[0,10],[14,9],[86,-2],[23,1],[66,-2],[9,2]],[[10999,2311],[51,-184]],[[10245,1895],[113,-2],[62,-1]],[[10619,1890],[-1,-207]],[[10618,1683],[-50,0],[-94,1],[-111,1],[-120,2],[-2,39],[2,15],[2,154]],[[9138,2935],[288,-3],[153,-2],[300,-3]],[[9875,2314],[-19,0],[-46,4],[-180,2],[-132,0]],[[9498,2320],[0,54],[0,134],[2,110],[1,110],[-93,2],[-85,0],[-182,2],[-7,2]],[[9126,2114],[125,-1],[127,0],[-1,9],[-12,18],[0,58],[-2,31],[1,61],[11,0],[-2,30]],[[9373,2320],[125,0]],[[9871,2178],[-1,-17],[-2,-221],[-1,-37]],[[9867,1903],[-1,-16],[-2,-195]],[[9864,1692],[-106,1],[-27,0],[-234,3]],[[9497,1696],[-38,0],[-240,2],[-100,2],[2,96],[4,15],[27,50],[-7,11],[-10,0],[-8,6],[-2,30]],[[9373,2320],[-60,1]],[[10622,2489],[227,93],[55,26],[14,2]],[[10918,2610],[14,-68],[10,-37]],[[10942,2505],[18,-69],[10,-29],[19,-65]],[[10989,2342],[10,-31]],[[10620,2300],[1,52],[0,96],[1,41]],[[10248,2305],[130,-1],[45,-2]],[[10422,2098],[-176,2]],[[10246,2100],[1,152],[1,22],[0,31]],[[7587,4973],[50,24],[18,18],[11,6]],[[7666,5021],[110,0],[12,-1],[127,-2],[186,-1],[164,-3],[46,0],[1,99],[-47,0],[1,137],[-44,1],[-3,5],[0,61]],[[8219,5317],[0,6],[94,1],[0,123],[94,-1]],[[8407,5446],[3,-20],[10,-6],[77,-1],[199,-1],[92,-1]],[[8788,5417],[-1,-104],[-2,-98],[1,-106],[-2,-410],[-2,-111]],[[8757,2323],[-127,1],[-140,2],[-62,-1],[-46,1],[-41,0],[-79,2]],[[8262,2328],[-68,226],[-23,78],[-38,125],[-46,157],[-20,63],[-10,28],[-17,41],[-48,109],[-20,60],[-9,30],[-54,216],[-28,114],[-104,413],[-33,131],[-18,78],[-26,142],[-31,173],[-52,292],[-30,169]],[[8380,1911],[-22,0],[-3,-15],[-5,-4],[-37,1]],[[8313,1893],[2,183],[-1,41],[-5,36],[-5,28],[-15,57],[-27,90]],[[10610,857],[68,-1],[116,0]],[[10794,856],[15,-1],[201,-3],[64,-2],[117,-2]],[[7496,5638],[1,-37],[5,-62],[5,-27],[7,-51],[0,-8],[35,-257],[9,-62],[29,-161]],[[8262,2328],[-78,1],[-90,-1],[-84,-2],[-97,1],[-211,2],[-267,3],[-298,3],[-54,1],[-465,6],[-108,2],[-89,1],[-165,2],[-317,3],[-118,2],[-68,1],[-167,2],[-124,1],[-57,1],[2,246],[1,54],[2,232],[1,166],[2,159],[0,60],[1,69],[1,170],[2,226],[2,184],[1,79],[3,270],[2,229],[3,271],[1,140],[3,252],[37,0],[21,8],[24,21],[52,55],[27,28],[118,126],[61,64],[287,303]],[[8788,5417],[30,1],[153,-2],[136,-2],[193,-2],[81,1],[54,-1],[93,0]],[[9528,5412],[154,-3],[116,-1],[105,-2]],[[9903,5406],[0,-60],[-3,-33],[-1,-61],[23,-50],[4,-13],[60,-194],[91,0],[54,-1],[123,-1],[70,1],[48,-120],[20,-58],[10,-33],[53,-196],[8,-32],[17,-59],[14,-60],[13,-66]],[[10968,5827],[45,0],[98,-2]],[[11111,5825],[188,-365],[74,-176],[42,-123],[18,-61],[52,-152]],[[11092,4887],[-19,15],[-5,13],[8,28],[2,31],[3,27],[0,37],[7,30],[7,16],[-3,15],[-18,31],[-8,18],[-6,7],[-28,23],[-16,20],[-13,22],[-17,16],[-22,34],[-20,39],[-11,32],[-10,49],[80,0],[4,1],[133,1],[16,12],[11,5],[-22,54],[-33,79],[-16,29],[-33,62],[-12,21],[-39,73],[-19,37],[-25,63]],[[12675,23],[-120,-1],[10,-11],[-77,2],[-124,0],[-220,1],[-34,0]],[[12110,14],[-83,420],[-79,414]],[[11948,848],[-29,157]],[[11784,3818],[110,-431],[101,-413]],[[11995,2974],[-19,3],[-85,-1],[-13,3],[-139,0],[-76,0],[-52,0],[0,-7],[-15,3],[-40,-1],[-4,28],[2,16],[-60,-34],[-29,-15],[-37,-21]],[[11428,2948],[-60,173],[-1,6]],[[11367,3127],[-1,2],[-25,108],[-17,93],[-25,150],[-7,31],[-18,65]],[[11586,2134],[190,-3],[2,-1],[133,0]],[[11764,1600],[-72,196],[-63,139],[-8,42]],[[11621,1977],[-15,80],[-17,59],[-3,18]],[[10630,3835],[65,34],[130,77],[116,-1],[0,-36],[8,-1],[110,-2],[24,-4],[109,-7]],[[11367,3127],[-50,0],[-11,17],[-10,50],[-30,65],[-13,43],[6,29],[-10,21],[-8,11],[-10,36],[-6,6],[-35,-22],[-6,-9],[0,-37],[-6,-4],[-91,0],[-105,1],[-10,1],[-45,0]],[[10978,26],[-95,1],[-253,2],[-28,0]],[[9497,1696],[-1,-34],[0,-107],[0,-65]],[[9496,1490],[-1,-178],[0,-95],[-1,-139]],[[9853,38],[-370,4],[-380,5]],[[9103,47],[-169,254],[-58,88],[-15,26],[-16,32],[-65,156],[-57,135],[-57,134],[-28,68],[-66,156],[-36,87],[-47,112],[-78,185],[-25,60],[-42,102],[-14,41],[-10,46],[-6,46],[-1,30],[0,88]],[[9496,1490],[132,-2],[105,-1],[63,-1],[67,0]],[[9863,1486],[44,-2],[66,0],[162,-3],[106,-1]],[[10241,1480],[0,-75],[-1,-90],[-1,-144]],[[10241,1480],[105,0],[174,-3],[96,-1]],[[10616,1476],[-2,-155],[-1,-152]],[[8407,5446],[2,101],[-1,78]],[[8533,6001],[9,-23],[19,-29],[14,-4],[10,-10],[-3,-10],[6,-7],[8,-19]],[[9001,5693],[17,-23],[11,-10],[12,-3],[17,7],[45,42],[53,53],[12,-15],[16,-5],[89,-1],[12,3],[136,-2],[62,0],[20,8],[13,11]],[[9516,5758],[7,-17],[-1,-77],[1,-36],[2,-18],[3,-198]],[[8518,7006],[28,9],[21,0],[28,-17],[22,-9],[13,-2],[154,168],[40,-43],[51,-60],[13,11],[24,25],[8,6],[52,58],[12,-14]],[[8984,7138],[-10,-12]],[[8974,7126],[-13,-14],[-163,-178],[14,-25],[6,-23],[2,-23],[-22,-1],[-14,-14],[-1,-7],[-1,-185]],[[9984,8579],[2,-17],[321,-819],[220,-518],[341,-787],[39,-95],[204,-518]],[[10968,5827],[-16,42],[-100,246],[-17,-9],[3,15],[-1,12],[-12,23],[-14,4],[-21,-15],[-19,0],[-27,-7],[-16,-1],[-20,2],[-6,6],[0,16],[0,167],[-8,17],[-121,0],[-73,1],[7,-44],[2,-31],[-7,-20],[-8,-11],[4,-14],[15,-9],[-11,-10],[14,-34],[-1,-12],[4,-25],[23,-13],[10,-10],[25,-31],[2,-7],[-11,-16],[-6,-14],[-15,-14],[-22,11],[14,10],[-12,37],[-17,-6],[0,-7],[-9,-30],[3,-38],[-3,-18],[0,-29],[9,-26],[11,-21],[9,-12],[12,-21],[17,-19],[28,-23],[15,-7],[3,-10],[11,-16]],[[10616,5806],[-44,-36]],[[10572,5770],[-8,9],[-83,97]],[[10481,5876],[-180,120],[-53,37],[-177,314],[11,0],[-63,116]],[[10019,6463],[-330,600],[-10,2],[-65,129]],[[9614,7194],[-50,98],[-65,184],[-75,225],[0,2],[-171,459],[-110,242]],[[9143,8404],[544,0],[19,5],[14,8],[20,19],[26,29],[43,66],[22,24],[18,14],[15,8],[120,2]],[[8984,7138],[105,115],[9,12],[9,19],[19,22],[14,9],[18,7]],[[9158,7322],[2,-13],[-1,-141],[-1,-104],[1,-133],[3,-9],[17,-15]],[[9179,6907],[-30,-45],[-77,-108],[-34,-47]],[[9038,6707],[-16,-25],[-33,-45]],[[8969,6655],[1,111],[1,182],[0,70],[0,97],[3,11]],[[9038,6707],[5,-8],[27,-17],[23,-17],[13,-6],[24,-5],[16,2],[6,-5],[194,1],[5,2],[55,0],[32,3],[46,0],[1,-4],[-1,-103],[47,0],[0,-10],[77,0],[6,-16]],[[9614,6524],[-17,-3],[-60,0],[-9,-2],[-13,-10],[-6,-17],[-1,-134],[-5,-23],[-7,-14],[-18,-18],[-26,-16],[-9,-9],[-5,-11],[0,-29]],[[9438,6238],[-57,0],[-31,-4],[-106,1],[-21,4],[-44,0],[-24,-1]],[[9155,6238],[-25,-1],[-17,-11],[-90,-67]],[[9023,6159],[-97,161],[-12,14],[-31,28],[-58,49]],[[9001,5693],[68,63],[72,72],[78,58],[31,21],[62,23],[-1,10],[-1,39],[-12,16],[-15,4],[-16,-4],[-18,26],[-10,6],[-16,1],[-58,-1],[-12,4],[0,16],[1,80],[1,111]],[[9438,6238],[-2,-207],[0,-154],[2,-11],[57,-80],[21,-28]],[[8849,5945],[6,3],[204,152],[-36,59]],[[10616,5806],[20,15],[13,5],[26,3],[76,-1],[99,0],[118,-1]],[[11032,4771],[1,13],[-2,78],[2,65],[9,47],[9,33],[5,-4],[-1,33],[-26,64],[-21,28],[-25,47],[-22,34],[-34,77],[-21,56],[-10,33],[-14,62],[-14,30],[1,61],[1,74],[-2,7],[-32,54],[-43,26],[-23,5],[-73,7],[-22,4],[-59,22],[-12,7],[-32,36]],[[9903,5406],[174,2],[31,-1],[15,2],[20,15],[36,41],[37,36],[131,95],[87,64],[70,51],[68,59]],[[10245,1895],[1,87],[0,118]],[[10769,3129],[-373,3]],[[11428,2948],[25,-54],[81,-180]],[[11534,2714],[7,-15]],[[11541,2699],[-35,-33],[-15,-7],[0,-9],[-7,-8],[-37,-29],[-25,4],[-58,0],[-16,5],[-25,-1]],[[11323,2621],[-4,0]],[[9103,47],[-10,1],[-816,3],[-99,1],[-99,4],[-84,-11],[-292,2],[-455,2],[-358,2],[-11,-1],[-565,3],[-484,2],[-171,-5],[-359,-1],[-181,5],[-535,2],[-167,1],[-954,3],[-338,1],[-407,2],[-88,-3],[-260,-4],[-3,649],[0,78],[-2,550],[-2,463],[-4,139],[-3,55],[-6,449],[-282,-3],[-357,-4],[-478,-6],[-297,-3],[-102,0],[-71,-2],[-64,-2],[-21,-2],[-41,-3],[-111,-1],[-7,2],[-66,-2],[-49,-4],[-74,7],[-52,-3],[-87,1],[-4,43],[4,58],[-1,68],[-3,36],[2,30],[-1,150],[-4,730],[-5,833],[0,58],[-3,494],[0,83],[-21,-3],[-121,-2],[-3,410],[0,59],[-2,118],[-7,180],[-5,396],[1,102],[-5,678],[-4,187],[-7,361],[-2,15],[127,3],[27,-3],[134,0],[371,-2],[374,3],[194,10],[191,2],[349,1],[573,3],[191,2],[-1,14],[93,-1],[367,-10],[146,-5],[41,-3],[19,1],[763,-3],[379,0],[189,-2],[187,0],[371,-2],[311,-4],[434,-5],[24,-1],[377,-3]],[[10802,1474],[139,-2],[40,0]],[[10981,1472],[88,-1],[76,-2],[36,1],[106,-1],[15,1]],[[11302,1470],[1,-3]],[[11303,1467],[12,-30],[20,-69]],[[11335,1368],[-32,-9],[-110,-34],[-115,-36],[-95,-25],[-16,-5],[-168,-59]],[[10799,1200],[2,220],[1,54]],[[11303,1467],[17,1],[18,8],[8,8],[8,22],[1,15],[1,71],[1,45],[9,61],[2,24],[0,86],[6,21],[21,39]],[[11395,1868],[20,36],[4,12],[3,24],[-1,41],[200,-4]],[[11815,1460],[-58,-16],[-22,-7],[-69,-18],[-29,39],[-7,2],[-9,-7],[-87,-1],[-28,-31],[-34,-13],[-37,-10]],[[11435,1398],[-19,-4],[-11,-5],[-31,-8],[-8,-6],[-31,-7]],[[11123,1879],[53,0]],[[11176,1879],[-1,-51],[3,-51],[5,-29],[12,-46],[10,-28]],[[11205,1674],[-42,0],[-109,2],[-91,1]],[[10963,1677],[-147,2],[-15,1]],[[10801,1680],[0,107],[1,71],[0,27]],[[10801,1680],[1,-40],[-1,-94],[1,-72]],[[10802,1474],[-147,2],[-39,0]],[[10616,1476],[2,207]],[[10963,1677],[-1,-104],[20,0],[-1,-101]],[[11205,1674],[8,-19],[26,-54],[2,-1],[42,-87],[19,-43]],[[10799,1200],[0,-84],[-2,-212],[-2,-20],[-1,-28]],[[11335,1368],[5,-19],[22,-113],[14,-73],[20,-102],[5,-36]],[[11401,1025],[15,-79],[20,-100]],[[11401,1025],[28,1],[15,28],[-6,14],[-4,19],[0,19],[16,6],[0,37],[-4,40],[0,54],[2,9],[11,17],[15,10],[13,0],[2,28],[-9,21],[-21,6],[-19,20],[-5,44]],[[11948,848],[-17,-2],[-59,1],[-33,-2],[-44,-1],[-67,-2],[-10,4],[-192,-1],[-49,1],[-41,0]],[[9867,1903],[79,-2],[206,-4],[93,-2]],[[9863,1486],[1,206]],[[9360,7353],[2,-10],[39,-140],[12,-42],[17,-47]],[[9430,7114],[-16,-7],[-65,-37],[-12,-8],[-47,-43],[-13,-10],[-30,-18],[-17,-14],[-51,-70]],[[9158,7322],[40,23],[14,2],[94,0],[54,6]],[[11272,2342],[72,-1],[18,7],[17,4]],[[11379,2352],[9,-79],[10,-56],[5,-31],[13,-53],[27,2],[66,0],[77,-1]],[[11395,1868],[-21,10],[-104,1]],[[11270,1879],[-1,103],[1,101],[2,55],[-1,37],[1,167]],[[11323,2621],[19,-67],[16,-69],[11,-59],[10,-74]],[[11272,2342],[-42,0],[-4,1],[-45,1]],[[11181,2344],[0,64],[2,7],[24,-1],[13,32],[-3,14],[-27,31],[-12,11],[-9,1],[-20,17],[-16,4],[-27,-14],[-14,-2],[-87,1],[-21,-5],[-42,1]],[[11541,2699],[15,-33],[6,1],[4,-61],[1,-155],[6,-233],[13,-84]],[[11534,2714],[44,6],[40,4],[52,3],[67,0],[156,0],[45,1],[18,4],[97,2]],[[12053,2734],[58,-247],[47,-363]],[[11995,2974],[58,-240]],[[11176,1879],[18,0],[76,0]],[[10481,5876],[-9,-1],[-124,-41],[-68,-41],[-100,164],[-95,-35],[-6,3],[-35,1],[-52,-1],[-48,1],[-20,43],[-12,29],[-35,-20],[-26,-1],[-13,-6]],[[9838,5971],[-72,170],[-61,144],[-87,241]],[[9618,6526],[17,5],[10,-2],[20,-12],[14,2],[8,-21],[7,0],[11,-26],[92,-2],[91,-3],[127,-3],[4,-1]],[[9614,6524],[4,2]],[[9838,5971],[-14,-8],[-8,-8],[-3,-12],[0,-35],[-2,-8],[-8,-10],[-70,-34],[-21,-3],[-101,0],[-6,-16],[-18,-19],[-53,-46],[-18,-14]],[[9430,7114],[92,39],[92,41]],[[9984,8579],[159,2],[601,8],[528,5],[234,-586],[163,-380],[409,-985],[175,-428],[156,-342],[56,-106],[100,-306],[195,-718],[108,-411],[122,-464],[138,-566],[49,-188],[52,-142],[55,-245],[28,-254],[6,-144],[228,-394],[68,-93],[13,-24],[11,-45],[32,-137],[106,-465],[62,-325],[26,-141],[53,-249],[109,-437],[5,-18],[-6,-1],[-692,10],[-519,7]],[[12110,14],[-201,2],[-112,1],[-157,1]],[[10989,2342],[3,-3],[27,0],[40,2],[29,-1],[93,4]],[[9360,7353],[-9,23],[-11,20],[-112,167],[-30,46],[-29,42],[-32,50],[-65,96],[-37,60],[-18,33],[-28,58],[-13,35],[-15,39],[-15,51],[-16,62],[-38,159],[-27,109]],[[8865,8403],[278,1]],[[8457,7485],[3,26],[8,37],[28,104],[45,24],[78,99],[49,65],[61,97],[6,13],[55,209],[3,20],[-1,20],[-11,76],[0,25],[8,27],[19,30],[19,18],[38,28]],[[7666,5021],[-4,4],[0,101],[1,92],[-1,0],[0,107],[185,-2],[24,-2],[46,-2],[46,0],[187,-2],[69,0]]],"transform":{"scale":[0.00004404696742926434,0.00003544624156388195],"translate":[-80.881566,27.556737]},"objects":{"Geometry\\12-061":{"type":"GeometryCollection","geometries":[{"arcs":[[0,1,2,3,4]],"type":"Polygon","properties":{"GEOID":"120610506083"}},{"arcs":[[5,6,7,8]],"type":"Polygon","properties":{"GEOID":"120610507064"}},{"arcs":[[9,10,11,12,-7]],"type":"Polygon","properties":{"GEOID":"120610507062"}},{"arcs":[[-8,-13,13,14,15,16]],"type":"Polygon","properties":{"GEOID":"120610507071"}},{"arcs":[[17,-4,18,19,-15]],"type":"Polygon","properties":{"GEOID":"120610506072"}},{"arcs":[[-16,20,21,22]],"type":"Polygon","properties":{"GEOID":"120610507072"}},{"arcs":[[23,24,25]],"type":"Polygon","properties":{"GEOID":"120610507091"}},{"arcs":[[26,27,28,29]],"type":"Polygon","properties":{"GEOID":"120610506082"}},{"arcs":[[-19,-3,30,-27,31]],"type":"Polygon","properties":{"GEOID":"120610506081"}},{"arcs":[[32,33,34,35,36,37,38]],"type":"Polygon","properties":{"GEOID":"120610505081"}},{"arcs":[[39,40,-33,41]],"type":"Polygon","properties":{"GEOID":"120610505082"}},{"arcs":[[42,43,44,-35]],"type":"Polygon","properties":{"GEOID":"120610505091"}},{"arcs":[[45,46,47,48,49]],"type":"Polygon","properties":{"GEOID":"120610508111"}},{"arcs":[[50,51,52,53,54,55]],"type":"Polygon","properties":{"GEOID":"120610505071"}},{"arcs":[[56,57,58,59,60,61]],"type":"Polygon","properties":{"GEOID":"120610508071"}},{"arcs":[[62,63,64]],"type":"Polygon","properties":{"GEOID":"120610508101"}},{"arcs":[[65,66,67,-62,68,69,70,71]],"type":"Polygon","properties":{"GEOID":"120610509033"}},{"arcs":[[72,73,74]],"type":"Polygon","properties":{"GEOID":"120610509092"}},{"arcs":[[75,-50,76,77,78,79,80]],"type":"Polygon","properties":{"GEOID":"120610508112"}},{"arcs":[[81,82,83,84,85]],"type":"Polygon","properties":{"GEOID":"120610503042"}},{"arcs":[[86,-85,87,88,89,90]],"type":"Polygon","properties":{"GEOID":"120610502021"}},{"arcs":[[91,92,-82,93]],"type":"Polygon","properties":{"GEOID":"120610503041"}},{"arcs":[[94,95,96,97,98,99]],"type":"Polygon","properties":{"GEOID":"120610503051"}},{"arcs":[[100,101,102,103]],"type":"Polygon","properties":{"GEOID":"120610501012"}},{"arcs":[[-103,104,105,106,107,108]],"type":"Polygon","properties":{"GEOID":"120610501023"}},{"arcs":[[109,-98,110,-83,-93]],"type":"Polygon","properties":{"GEOID":"120610503031"}},{"arcs":[[111,112,113,-96]],"type":"Polygon","properties":{"GEOID":"120610503052"}},{"arcs":[[114,-109,115,116]],"type":"Polygon","properties":{"GEOID":"120610501022"}},{"arcs":[[-80,117,118,-26,119,120]],"type":"Polygon","properties":{"GEOID":"120610507092"}},{"arcs":[[121,-120,122,123,124,125]],"type":"Polygon","properties":{"GEOID":"120610509051"}},{"arcs":[[-49,-99,-110,-92,-77]],"type":"Polygon","properties":{"GEOID":"120610508113"}},{"arcs":[[126,-90,127,128,129]],"type":"Polygon","properties":{"GEOID":"120610502022"}},{"arcs":[[130,-72,131,-74,132]],"type":"Polygon","properties":{"GEOID":"120610509081"}},{"arcs":[[-126,133,134]],"type":"Polygon","properties":{"GEOID":"120610509062"}},{"arcs":[[135,-104,-115,136]],"type":"Polygon","properties":{"GEOID":"120610501013"}},{"arcs":[[137,138,-105,-102]],"type":"Polygon","properties":{"GEOID":"120610501011"}},{"arcs":[[139,-116,140,141]],"type":"Polygon","properties":{"GEOID":"120610507022"}},{"arcs":[[-79,142,-91,-127,143,144,-118]],"type":"Polygon","properties":{"GEOID":"120610507081"}},{"arcs":[[-124,145,146,-144,-130,147,148,149,150]],"type":"Polygon","properties":{"GEOID":"120610507043"}},{"arcs":[[-145,-147,151,-24,-119]],"type":"Polygon","properties":{"GEOID":"120610507082"}},{"arcs":[[-94,-86,-87,-143,-78]],"type":"Polygon","properties":{"GEOID":"120610508114"}},{"arcs":[[152,153,154,155,-138,-101,156]],"type":"Polygon","properties":{"GEOID":"120610502012"}},{"arcs":[[157,-137,158,159]],"type":"Polygon","properties":{"GEOID":"120610501014"}},{"arcs":[[-25,-152,-146,-123]],"type":"Polygon","properties":{"GEOID":"120610507042"}},{"arcs":[[160,161,162,163,164,-81,-121,165,166]],"type":"Polygon","properties":{"GEOID":"120610509071"}},{"arcs":[[-122,-135,167,168,-166]],"type":"Polygon","properties":{"GEOID":"120610509061"}},{"arcs":[[169,170,-5,-18,-14]],"type":"Polygon","properties":{"GEOID":"120610506073"}},{"arcs":[[-75,-132,-71,171,-167,172]],"type":"Polygon","properties":{"GEOID":"120610509091"}},{"arcs":[[173,174,175,-46,-76,-165]],"type":"Polygon","properties":{"GEOID":"120610508122"}},{"arcs":[[176,177,-52,178]],"type":"Polygon","properties":{"GEOID":"120610505062"}},{"arcs":[[-89,-157,-136,-158,-128]],"type":"Polygon","properties":{"GEOID":"120610502011"}},{"arcs":[[-36,-45,179,180,181]],"type":"Polygon","properties":{"GEOID":"120610505092"}},{"arcs":[[-54,182,183,184,185]],"type":"Polygon","properties":{"GEOID":"120610505052"}},{"arcs":[[186,-42,-39,187,188]],"type":"Polygon","properties":{"GEOID":"120610505083"}},{"arcs":[[189,-55,-186,190,-100,-48]],"type":"Polygon","properties":{"GEOID":"120610503062"}},{"arcs":[[-20,-32,-30,191,-21]],"type":"Polygon","properties":{"GEOID":"120610506071"}},{"arcs":[[-168,-134,-125,-151,192,193,-9,-17,-23,194,195]],"type":"Polygon","properties":{"GEOID":"120610509052"}},{"arcs":[[196,197,198,-10,-6,-194]],"type":"Polygon","properties":{"GEOID":"120610507061"}},{"arcs":[[199,200,-11,-199]],"type":"Polygon","properties":{"GEOID":"120610507063"}},{"arcs":[[201,-69,202,-65,203,204,-174,-164]],"type":"Polygon","properties":{"GEOID":"120610508102"}},{"arcs":[[205,206,207,-57,-68]],"type":"Polygon","properties":{"GEOID":"120610508073"}},{"arcs":[[208,-177,209,210,211,212,213,214,215]],"type":"Polygon","properties":{"GEOID":"120610505063"}},{"arcs":[[-207,216,217,218,219,-59,220]],"type":"Polygon","properties":{"GEOID":"120610508084"}},{"arcs":[[-60,-220,221,222,223,224,225]],"type":"Polygon","properties":{"GEOID":"120610508061"}},{"arcs":[[226,-224,227,-204]],"type":"Polygon","properties":{"GEOID":"120610508091"}},{"arcs":[[-225,-227,-64,228]],"type":"Polygon","properties":{"GEOID":"120610508093"}},{"arcs":[[229,-179,-51,230,-211]],"type":"Polygon","properties":{"GEOID":"120610505064"}},{"arcs":[[231,-231,-56,-190,-47,-176]],"type":"Polygon","properties":{"GEOID":"120610508121"}},{"arcs":[[-159,-117,-140,232]],"type":"Polygon","properties":{"GEOID":"120610501021"}},{"arcs":[[-230,-210]],"type":"Polygon","properties":{"GEOID":"120610505061"}},{"arcs":[[-111,-97,233,-84]],"type":"Polygon","properties":{"GEOID":"120610503032"}},{"arcs":[[-226,-229,-63,-203,-61]],"type":"Polygon","properties":{"GEOID":"120610508092"}},{"arcs":[[-191,-185,234,235,236,237,-112,-95]],"type":"Polygon","properties":{"GEOID":"120610503061"}},{"arcs":[[-133,-73,-173,-169,-196,238]],"type":"Polygon","properties":{"GEOID":"120610509082"}},{"arcs":[[239,240,241,242,243,244]],"type":"Polygon","properties":{"GEOID":"120610506031"}},{"arcs":[[245,246,-188,-38,247,248,-243]],"type":"Polygon","properties":{"GEOID":"120610506011"}},{"arcs":[[-107,249,250,251,252,253]],"type":"Polygon","properties":{"GEOID":"120610506021"}},{"arcs":[[-141,-108,-254,254,255,256]],"type":"Polygon","properties":{"GEOID":"120610506022"}},{"arcs":[[-253,257,-240,-255]],"type":"Polygon","properties":{"GEOID":"120610506023"}},{"arcs":[[-252,258,-241,-258]],"type":"Polygon","properties":{"GEOID":"120610506024"}},{"arcs":[[-201,-256,-245,259,-170,-12]],"type":"Polygon","properties":{"GEOID":"120610506032"}},{"arcs":[[-244,260,261,-1,-171,-260]],"type":"Polygon","properties":{"GEOID":"120610506033"}},{"arcs":[[262,-248,-37,-182,263,-262]],"type":"Polygon","properties":{"GEOID":"120610506041"}},{"arcs":[[-249,-263,-261]],"type":"Polygon","properties":{"GEOID":"120610506042"}},{"arcs":[[-149,264,-142,-257,-200,-198,265]],"type":"Polygon","properties":{"GEOID":"120610507023"}},{"arcs":[[-129,-160,-233,-265,-148]],"type":"Polygon","properties":{"GEOID":"120610507021"}},{"arcs":[[266,267,-218,268]],"type":"Polygon","properties":{"GEOID":"120610508083"}},{"arcs":[[269,270,-189,-247,271,272]],"type":"Polygon","properties":{"GEOID":"120610504012"}},{"arcs":[[-113,-238,273,-270,274,275,-154]],"type":"Polygon","properties":{"GEOID":"120610504021"}},{"arcs":[[-237,276,-271,-274]],"type":"Polygon","properties":{"GEOID":"120610504022"}},{"arcs":[[277,278,-40,-187,-277,-236]],"type":"Polygon","properties":{"GEOID":"120610505041"}},{"arcs":[[-184,279,-278,-235]],"type":"Polygon","properties":{"GEOID":"120610505051"}},{"arcs":[[280,-272,-246,-242,-259,-251]],"type":"Polygon","properties":{"GEOID":"120610506012"}},{"arcs":[[-213,281,282,283]],"type":"Polygon","properties":{"GEOID":"120610508051"}},{"arcs":[[-223,284,-283,285,-228]],"type":"Polygon","properties":{"GEOID":"120610508052"}},{"arcs":[[-282,-212,-232,-175,-205,-286]],"type":"Polygon","properties":{"GEOID":"120610508053"}},{"arcs":[[-268,286,-214,-284,-285,-222,-219]],"type":"Polygon","properties":{"GEOID":"120610508062"}},{"arcs":[[-234,-114,-153,-88]],"type":"Polygon","properties":{"GEOID":"120619800001"}},{"arcs":[[287,-43,-34,-41,-279,-280,-183,-53,-178,-209]],"type":"Polygon","properties":{"GEOID":"120619900000"}},{"arcs":[[-181,288,-28,-31,-2,-264]],"type":"Polygon","properties":{"GEOID":"120610506051"}},{"arcs":[[289,-275,-273,-281,-250,-106,-139,-156]],"type":"Polygon","properties":{"GEOID":"120610504011"}},{"arcs":[[-290,-155,-276]],"type":"Polygon","properties":{"GEOID":"120610504023"}},{"arcs":[[-150,-266,-197,-193]],"type":"Polygon","properties":{"GEOID":"120610507041"}},{"arcs":[[-215,-287,-267,290,291]],"type":"Polygon","properties":{"GEOID":"120610508081"}},{"arcs":[[-221,-58,-208]],"type":"Polygon","properties":{"GEOID":"120610508072"}},{"arcs":[[292,-291,-269,-217,-206,-67]],"type":"Polygon","properties":{"GEOID":"120610508082"}},{"arcs":[[-162,293]],"type":"Polygon","properties":{"GEOID":"120610509031"}},{"arcs":[[-70,-202,-163,-294,-161,-172]],"type":"Polygon","properties":{"GEOID":"120610509032"}}]}}}