{"type":"Topology","arcs":[[[13187,8287],[0,115],[34,53],[19,7],[14,16],[3,26],[10,7],[31,61],[25,22],[8,45],[28,21],[-27,50],[-46,108],[2,8],[-35,3],[-1,33],[-5,5],[-62,-1],[-4,5],[-1,145]],[[13180,9016],[25,32],[36,29],[478,289],[140,79],[111,61],[42,26],[42,32],[243,208],[45,34],[178,120],[85,59],[51,33],[154,93],[70,38],[94,47],[46,27]],[[15020,10223],[-1,-99],[2,-140],[-27,0],[7,-998],[2,-305],[10,-173],[-1,-66],[-1,-143],[3,-230],[3,-799],[1,-561],[4,-764]],[[15022,5945],[-125,87],[-99,72],[-127,86],[-822,582],[-185,129],[-355,254],[-197,138]],[[13112,7293],[9,7],[72,38],[68,49],[57,42],[15,27],[4,33],[22,40],[37,42],[17,28],[31,60],[18,30],[32,20],[43,20],[49,38],[46,62],[30,33],[-22,33],[-38,67],[1,74],[-6,37],[-19,25],[-34,20],[-131,54],[-74,33],[-74,39],[-26,20],[-27,27],[-25,-4]],[[6487,8340],[281,128],[53,11],[725,1],[713,0],[621,0]],[[8880,8480],[3,-11],[31,-53],[12,-30],[23,-28],[6,-23],[15,-25],[3,-19],[18,-30],[41,-2],[363,3],[1,-213],[347,-2],[1,-137],[27,-44],[82,-23],[30,0],[1,-122],[231,-1]],[[10115,7720],[229,-2],[-3,-104]],[[10341,7614],[0,-107],[4,0],[1,-323],[0,-94],[2,-31],[11,-53]],[[10359,7006],[-27,-2],[-25,-7],[-24,-12],[-28,-27],[-68,-88],[-17,-28],[-11,-29],[-19,-7],[-18,16],[-41,11],[-16,16],[-9,32],[-52,25],[-30,22],[-11,17],[1,33],[8,25],[-9,20],[-34,23],[-36,5],[-36,-4],[-49,4],[-63,19],[-19,30],[-29,26],[-8,0],[-36,-20],[-18,5],[-35,20],[-35,2],[-31,12],[-35,7],[-38,-3],[-27,15],[-38,-27],[1,34],[-6,5],[-193,1],[-23,1],[-304,1],[-254,3],[-29,8],[49,-63],[85,-117],[18,-22],[189,-259],[17,-25],[85,-112],[59,-81],[48,-61],[92,-149],[50,-78]],[[9280,6223],[-119,-48],[-7,-7],[-91,-52],[-14,19],[-17,44],[-11,4],[-14,-11],[-39,-9],[-19,-12],[-7,11],[7,20],[-16,5],[-52,-21],[-29,5],[-6,26],[32,46],[6,45],[-21,16],[-41,-4],[-12,-14],[-46,-4],[-35,-18],[-16,12],[32,19],[-6,15],[-32,-8],[-17,0],[-11,31],[-22,8],[-27,-1],[-29,35],[-34,1],[-13,15],[9,25],[-26,11],[-13,-4],[-11,12],[2,37],[26,2],[10,-9],[15,8],[-5,44],[11,15],[42,11],[9,31],[1,19],[-24,-4],[-12,-21],[-10,12],[-4,35],[-17,38],[7,18],[20,9],[2,17],[-22,8],[-13,12],[5,45],[12,9],[15,-8],[14,7],[-1,20],[26,60],[-14,8],[-31,-1],[-11,-33],[-19,-1],[-7,13],[-22,12],[-19,-5],[-10,15],[3,68],[-31,-7],[-21,4],[-15,-13],[13,-27],[-8,-18],[-22,-4],[-22,9],[-34,25],[-20,3],[-23,-15],[-18,7],[-8,14],[-29,28],[-10,31],[-3,29],[-18,-1],[-31,-24],[-25,0],[-42,48],[-23,12],[-13,21],[10,38],[-5,19],[-73,-26],[-20,-12],[-21,3],[-10,12],[9,18],[16,8],[37,6],[20,12],[3,13],[-71,20],[-48,30],[-20,-4],[1,-29],[-16,-25],[-40,-48],[-21,-14],[-21,5],[-4,13],[23,36],[0,13],[-15,9],[-55,-6],[-19,17],[-14,70],[-1,19],[17,42],[-8,31],[-16,9],[-47,4],[-14,11],[-10,26],[-13,12],[-35,10],[-24,28],[-7,28],[19,23],[-15,29],[8,9],[30,14],[-9,13],[-19,5],[-14,17],[-14,44],[-16,6],[-16,25],[-14,50],[-9,15],[-93,78],[-4,21],[10,14],[36,19],[-10,19],[-33,8],[-23,-8],[-15,-13],[-16,-24],[-27,-1],[-7,16],[16,36],[25,32],[-2,22],[-27,3],[-18,-16],[-10,-32],[-10,-10],[-23,2],[-36,15],[-8,-9],[-8,-32],[-19,-25],[-4,-19],[7,-29],[-20,-13],[-55,3],[-19,-5],[-30,-21],[-39,-10],[-30,6],[-16,-21],[18,-29],[31,-7],[29,3],[20,-6],[3,-14],[-10,-11],[-25,-4],[-80,21],[-45,22],[-33,13],[-60,5],[-42,17],[-28,32],[-31,46],[-41,71],[-36,70],[-21,24],[-51,52],[-24,19],[-27,45],[-39,51],[-30,10],[-36,-30],[-20,7],[-13,17],[13,37],[17,12],[33,3],[17,25],[-2,41],[22,27],[3,22],[-25,47]],[[10757,8482],[133,2],[75,-1]],[[10965,8483],[-19,-23],[-6,-97],[-2,-71],[-14,-58],[-24,-52],[-7,-34],[-16,-46],[9,-21],[40,-51],[133,-190],[50,-30],[33,-4],[84,21],[37,7]],[[11263,7834],[-3,-8],[-1,-201],[2,-5],[78,0],[1,-229],[-41,-17]],[[11299,7374],[-165,-78],[-49,-21],[-86,-31],[-29,-13],[-90,-49],[-118,-57]],[[10762,7125],[0,218],[-1,272]],[[10761,7615],[-1,415]],[[10760,8030],[0,437],[-3,15]],[[11904,8686],[349,43],[98,20],[47,13],[41,15]],[[12439,8777],[-6,-46],[-11,-55],[-13,-14],[-23,-13],[-33,-29],[-27,-52],[-19,-45],[16,-18],[57,-19],[53,-46],[35,-25],[30,-8],[114,-11],[1,-106],[5,-5],[108,0],[456,-3],[5,5]],[[13112,7293],[-166,117]],[[12946,7410],[-423,297],[-116,84],[-90,62],[-197,141]],[[12120,7994],[-366,260],[-177,122]],[[11577,8376],[-188,132]],[[11389,8508],[152,62],[39,17],[76,40],[40,19],[62,18],[146,22]],[[12027,7725],[8,0],[1,55],[5,5],[55,26],[11,15],[9,33],[6,49],[-10,66],[8,20]],[[12946,7410],[-30,-43],[-8,-22],[-113,-188],[-49,-84],[-61,-72],[-19,-25],[-31,-57],[-49,-54]],[[12586,6865],[-125,85],[-99,57],[-220,148],[-73,45],[-132,72],[-82,23],[-31,6],[-85,-16],[-36,-9]],[[11703,7276],[-22,79],[-18,53],[-14,75]],[[11649,7483],[65,7],[52,-5],[114,-24],[0,32],[9,35],[1,82],[32,0],[0,114],[105,1]],[[10965,8483],[95,1],[111,-1]],[[11171,8483],[107,1],[52,4],[59,20]],[[11577,8376],[-8,-13],[25,-42],[-2,-13],[20,-9],[-1,-26],[-8,-11],[1,-251],[-2,-138]],[[11602,7873],[-16,-1],[-66,20],[-24,1],[-41,-5],[-84,-29],[-62,-7],[-7,-9],[-39,-9]],[[15022,5945],[6,-490],[3,-262],[-2,-346],[-177,-159]],[[14852,4688],[-16,20],[-35,72],[-11,102],[-49,13],[-76,51],[-58,43],[-23,55],[-9,52],[0,35],[9,31],[-196,310],[-44,61],[-27,57],[-99,59],[-275,271],[-48,39],[-42,15],[-11,35],[-101,83],[-170,147],[-124,125],[-84,87],[-81,77],[-78,68],[-105,69],[-136,52],[-163,57],[-97,35],[-117,56]],[[12027,7725],[0,62],[-380,1],[-31,-2]],[[11616,7786],[-2,60],[-12,27]],[[10750,12857],[399,3]],[[11149,12860],[-40,-435],[76,3],[410,4],[-15,-687],[-68,-2],[99,-40],[3,-13],[-51,-86],[0,-33],[51,-46],[5,-39],[-66,-78],[-14,-2],[-11,-27],[-103,-80],[-29,7],[-72,1],[-24,-15],[22,-41],[37,-58],[49,-82],[78,-120],[4,-30],[-4,-22],[-14,-24],[-425,-643],[-65,-98],[-34,-55],[-82,-116]],[[10866,10003],[-12,29],[-25,13]],[[10829,10045],[-25,15],[-56,123],[-21,35],[-46,60],[-9,15],[-95,199],[-42,84],[-9,32],[-39,188],[-7,63],[-8,15],[-84,115],[-57,70],[-41,71],[-19,40],[-9,29],[-5,38],[-39,69],[-35,33],[-77,49],[-253,155],[-31,37]],[[9822,11580],[-12,19],[-79,234],[-59,90],[-65,106],[-51,77],[-14,18],[-5,21],[3,25],[10,13],[84,60],[25,8],[48,0],[24,8],[214,131],[34,3],[186,-72],[25,10],[54,53],[15,11],[90,89],[40,42],[51,66],[68,62],[110,121],[21,15],[89,43],[22,24]],[[10760,8724],[-1,598],[1,23],[13,57]],[[10773,9402],[13,43],[5,32],[0,38]],[[10791,9515],[-1,106],[4,86],[35,338]],[[10866,10003],[50,-124],[7,-37],[-5,-26],[4,-12],[63,-102],[19,-21],[28,-83],[1,-26],[-30,-66]],[[11003,9506],[-30,-43],[-37,-73],[1,-21],[33,-105],[19,-129],[0,-22],[-132,-203],[1,-24],[27,-42],[39,-73],[0,-46],[91,0],[66,-12],[31,-13],[69,-44],[0,-66],[-10,0],[0,-107]],[[10757,8482],[3,65],[0,177]],[[10131,8724],[196,0],[174,-2],[73,1],[186,1]],[[10757,8482],[-62,0],[-64,4],[-64,-1]],[[10567,8485],[-179,0],[-35,-7],[-128,0]],[[10225,8478],[0,94],[-3,28],[-8,22],[-17,25],[-66,77]],[[10131,8724],[-252,291]],[[9879,9015],[13,10],[0,306],[280,4],[95,-1],[76,74],[10,8],[25,-4],[74,-72],[27,-7],[3,12],[0,56],[291,1]],[[9571,5110],[422,-59],[220,-1026],[139,-211],[270,-127],[496,91],[211,411],[-183,572],[-371,182],[125,333],[-766,173],[-4,58],[-7,55],[-31,37],[-66,33],[-20,41],[-35,62],[-4,62],[-11,33],[31,74],[50,176],[47,-22],[42,-33],[20,-33],[-17,-73],[-18,-55],[11,-56],[35,-40],[47,-15],[85,-7],[74,26],[62,51],[31,41],[121,-8],[7,-59],[59,-62],[104,-18],[77,5],[79,39],[38,66],[24,88],[4,103],[-63,33],[-93,0],[-77,-18],[-78,-37],[-54,-44],[-20,-85],[-116,8],[46,128],[66,118],[31,80],[39,67],[62,95],[59,140],[46,106],[8,52],[0,58],[-23,85],[-20,48],[-85,51],[81,88],[59,37],[124,55],[128,40],[89,23],[121,39]],[[11299,7185],[404,91]],[[14852,4688],[-273,-245],[-824,-697],[-752,-636],[-448,-362],[-937,-757],[-937,-756],[-104,-86],[-478,-400],[-595,-497],[-304,-252],[45,625],[45,609],[62,826],[61,798],[91,1203],[0,146],[4,30],[53,720],[10,153]],[[10113,8046],[74,0],[153,-1],[228,1],[2,1]],[[10570,8047],[23,-9],[103,0],[0,-8],[64,0]],[[10761,7615],[-420,-1]],[[10115,7720],[-2,326]],[[11003,9506],[-15,-25],[24,-35],[14,-13],[98,-41],[34,-16],[78,-30],[41,-20],[139,-67],[16,-10],[15,-22],[5,-232],[5,-19],[46,-27],[83,-1],[195,3],[55,0],[35,-9],[25,-25],[3,-12],[1,-129],[4,-90]],[[8887,10043],[81,33],[17,26],[240,-279],[168,-195],[41,-50],[187,-242]],[[9621,9336],[149,-193],[109,-128]],[[10131,8724],[-326,-2],[-115,7],[-49,13],[-80,28],[-676,362],[-292,160],[-269,140]],[[8324,9432],[28,52],[5,22],[16,32],[17,14],[0,28],[46,36],[29,26],[61,20],[72,-1],[46,9],[77,21],[50,16],[44,34],[49,47],[29,99],[7,47],[3,50],[-7,36],[-9,23]],[[5356,20349],[648,1],[292,8],[102,1],[481,0],[645,0],[99,-1],[1183,0],[684,0],[166,-1],[65,4],[91,-8],[142,7],[9,-3],[136,2],[76,5],[168,4],[124,0],[956,9],[441,4],[348,4],[7,-474],[4,-59],[4,-146],[6,-1071],[0,-81],[4,-685],[320,3],[108,4],[487,-2]],[[13152,17874],[0,-336],[3,0],[0,-269],[-18,-34],[2,-24],[17,-31],[-1,-33],[-6,-25],[6,-16],[2,-94],[-5,-6],[3,-424],[9,-11],[-239,1],[-233,1],[-254,2],[-26,1],[-77,11],[-464,101],[-82,33],[-123,66],[-28,12],[-17,-1],[-24,-37],[-19,-5],[-36,-19],[-8,-12],[-40,-34],[-9,-3],[-17,-24],[4,-11],[-30,-10],[-10,-12],[-4,-26],[7,-10],[-16,-28],[6,-22],[-10,-8],[-11,-35],[22,-250],[4,-76],[10,-126],[-3,-23],[-2,-70],[-82,-886]],[[11353,15071],[-919,0],[-80,1],[0,4],[-376,3],[-467,0],[-702,-2],[-223,1],[-899,-3],[-964,-5],[-928,7],[-465,4],[4,437],[4,368],[3,8],[3,195],[-1,21],[4,179],[1,218],[5,55],[5,1030],[0,892],[-7,964],[5,901]],[[9621,9336],[128,104],[38,13],[95,-2],[412,1],[14,3],[17,16],[24,39],[-1,34],[247,0],[0,-29],[196,0]],[[11649,7483],[-15,20],[-17,41],[-3,37],[8,77],[-1,58],[-5,70]],[[11299,7185],[-2,87],[2,102]],[[8880,8480],[1232,-2]],[[10112,8478],[1,-432]],[[10112,8478],[113,0]],[[10567,8485],[1,-433],[2,-5]],[[8880,8480],[-32,32],[-15,62],[0,64],[3,19],[-7,36],[-8,22],[3,14],[-27,23],[-16,5],[-20,19],[-14,2],[-20,27],[-28,23],[-56,58],[-70,107],[-10,28],[-2,57],[-14,41],[4,21],[-20,49],[-6,21],[-18,32],[-51,34],[-8,13],[-41,31],[-15,18],[-5,23],[-28,44],[-35,27]],[[8887,10043],[-24,42],[-43,31],[-79,27],[-70,19],[-38,13],[-71,56],[-37,24],[-20,31],[-25,70],[-8,46],[6,56],[-2,16],[-13,30],[12,40],[-5,32],[9,18],[-17,32],[-27,20],[-51,24],[-31,28],[-31,45],[-38,45],[-28,43],[-27,34],[23,16],[24,2],[12,27],[-4,53],[7,27],[49,66],[5,16],[-3,36],[-6,15],[3,20],[107,106],[44,35],[32,12],[149,43],[20,13],[101,27],[79,66],[36,26],[47,6],[28,7],[51,31],[68,32],[51,31],[6,27],[14,4],[53,-10],[28,0],[19,-13],[16,2],[37,22],[59,22],[16,2],[20,-16],[26,-44],[53,-29],[83,-6],[22,-20],[19,0],[72,11],[35,11],[92,39]],[[12439,8777],[309,119],[42,8],[29,-2],[68,-13],[78,-10],[40,4],[37,16],[73,47],[31,28],[34,42]],[[10762,7125],[-100,-51],[-68,-27],[-118,-32],[-37,-8],[-37,-3],[-43,2]],[[9571,5110],[34,495],[-51,65],[-9,24],[78,53],[8,13],[-5,23],[-21,57],[-58,34],[-95,72],[-49,87],[-55,102],[-20,27],[11,22],[50,29],[9,12],[1,28],[-10,15],[-109,-45]],[[11149,12860],[58,631],[65,695],[81,885]],[[13152,17874],[432,-2],[1177,-3],[206,0],[-9,-976],[3,-139],[0,-209],[6,-403],[4,-56],[4,-223],[5,-255],[4,-326],[-3,-151],[-4,-332],[16,-143],[3,-65],[-6,-595],[13,-1007],[-1,-151],[4,-95],[7,-335],[-3,-89],[1,-131],[3,-890],[4,-835],[2,-240]],[[5020,11515],[4,-40],[10,-34],[7,-45],[2,-46],[-7,-60],[-22,-73],[380,-202],[4,184],[25,43],[5,72],[14,167],[10,29],[32,40],[62,72],[47,56],[8,20],[26,106],[13,43],[10,10],[115,76],[92,59],[230,175],[73,54],[248,92],[15,11],[55,73],[-34,30],[221,-2],[100,1],[61,7],[38,12],[36,19],[293,181],[43,23],[45,20],[47,15],[1005,270],[25,6],[74,10],[51,1],[578,-16],[41,-2],[125,-12],[710,-97],[42,-5],[105,-5],[666,4]],[[6487,8340],[-15,32],[11,23],[-20,26],[-3,15],[27,1],[21,-20],[12,2],[0,17],[-32,33],[-24,48],[29,10],[17,-8],[4,-34],[21,-3],[-1,40],[9,30],[-2,12],[-22,14],[-15,1],[-31,-10],[-27,7],[-20,24],[-27,8],[-17,23],[-15,9],[-22,5],[-92,31],[-32,6],[-16,-1],[-16,16],[5,26],[-19,33],[-4,22],[13,5],[15,-8],[8,14],[-17,19],[-25,15],[-18,20],[-19,31],[-24,-3],[2,-20],[-22,4],[-6,42],[6,53],[12,18],[-17,10],[-11,-48],[-20,7],[0,24],[21,46],[-33,49],[5,16],[24,1],[12,22],[-8,14],[-5,27],[-9,12],[-9,30],[-16,5],[0,29],[-26,-24],[-24,8],[-2,21],[16,19],[13,37],[0,14],[16,20],[20,8],[3,32],[-12,43],[9,28],[15,20],[-6,21],[-11,-2],[-7,-19],[-18,7],[1,17],[35,20],[11,42],[-16,1],[-15,-19],[-11,7],[18,25],[-3,12],[5,29],[-12,8],[6,13],[31,7],[17,-3],[4,17],[-19,21],[0,31],[-6,11],[-23,4],[10,43],[25,12],[9,11],[2,53],[-22,31],[9,26],[-5,13],[-27,22],[0,12],[32,28],[4,29],[9,14],[23,16],[18,24],[23,17],[6,15],[-7,28],[-29,3],[-20,-15],[-39,-54],[-15,-3],[-24,10],[-19,20],[-5,23],[0,34],[-33,11],[-20,-10],[-32,12],[-29,46],[-6,30],[6,32],[-26,21],[-47,2],[-17,-16],[1,-31],[-22,2],[-23,-11],[-29,-1],[-18,-23],[-28,13],[-4,21],[-16,-9],[-11,-22],[-23,-9],[3,-12],[20,4],[14,10],[26,-1],[-3,-18],[-32,-3],[-12,-21],[9,-29],[-20,-7],[-24,57],[-32,43],[-2,38],[-23,-2],[9,-33],[-11,-22],[-21,4],[-20,15],[-14,22],[-36,29],[-12,18],[-26,-9],[-3,-27],[8,-32],[-21,-10],[-27,31],[-40,4],[-23,8],[-38,27],[-39,51],[-38,40],[-11,36],[-3,62],[11,13],[23,-16],[3,-23],[-6,-23],[23,-2],[18,15],[3,30],[-14,40],[-3,26],[1,42],[5,23],[-14,19],[-14,1],[-15,-61],[-7,1],[-19,44],[-7,37],[-18,41],[5,47],[-6,17],[-50,11],[-17,18],[-5,17],[11,40],[-9,23],[19,17],[21,-4],[25,-34],[17,22],[7,21],[-3,20],[-12,19],[-26,28],[-66,59],[-22,-3],[-14,7],[-16,30],[-17,6],[-27,-5],[-17,4],[-5,52],[-13,6],[-13,-8],[-10,-42],[-17,2],[1,40],[-6,16],[-13,7],[-14,-15],[-40,-54],[-21,2],[-17,11],[-15,30],[-2,27],[5,48],[-38,125],[-21,34],[11,45],[0,41],[12,28],[97,68],[9,9],[-2,26],[-28,51],[-1,20],[15,13],[17,-3],[33,-13],[24,-4],[39,23],[55,14],[20,21],[6,20],[-1,24],[21,-2],[27,-28],[4,-17],[-15,-36],[-40,-25],[-30,-5],[-5,-12],[8,-15],[37,-7]],[[5020,11515],[22,12],[39,52],[12,33],[19,38],[17,25],[9,21],[4,29],[-28,34],[-65,6],[-12,5],[-23,32],[-1,17],[17,12],[23,-10],[11,3],[3,20],[-8,15],[-22,16],[-22,9],[-4,9],[20,12],[3,18],[-19,14],[-33,0],[-14,-15],[-31,6],[-34,22],[-26,-13],[-19,13],[24,22],[3,26],[-22,26],[-31,13],[-52,8],[-48,-2],[-118,-17],[-48,12],[-6,14],[8,16],[-6,21],[-12,8],[-30,4],[6,18],[39,8],[-2,17],[-10,14],[6,14],[19,19],[12,24],[13,12],[2,25],[-7,14],[-30,4],[-38,29],[-13,15],[-48,-2],[-21,6],[-15,21],[-49,-7],[-31,4],[-13,34],[-20,15],[-14,-7],[-14,-20],[-15,43],[2,36],[-6,16],[-25,38],[-25,23],[-5,11],[7,29],[-25,4],[-18,-6],[-26,5],[-29,20],[-18,19],[-26,18],[-19,3],[-40,-8],[-30,25],[-22,12],[-17,-5],[-12,-17],[-14,1],[-29,15],[-56,22],[-20,-20],[-15,2],[-22,21],[-19,8],[-23,-13],[-11,11],[8,28],[-9,17],[-20,-5],[-7,-20],[-28,-12],[-24,1],[-44,-18],[-35,0],[-15,-4],[-16,-16],[-13,-27],[-29,-5],[-23,21],[-20,28],[-12,-7],[-1,-17],[-26,-7],[-20,18],[-11,-15],[23,-22],[-12,-16],[-26,1],[-26,-7],[-43,-37],[-44,-11],[-19,-21],[-46,41],[1,21],[-25,28],[-10,26],[-17,9],[-42,1],[-47,-9],[-21,1],[-46,20],[-66,17],[-42,0],[-20,10],[-46,6],[-3,27],[-23,20],[-21,6],[9,26],[-15,9],[-34,2],[-14,21],[-2,17],[21,21],[-16,9],[-28,1],[-24,-15],[-35,8],[-28,-5],[-3,22],[20,5],[2,13],[-45,10],[-37,28],[-11,12],[-24,10],[-12,13],[-4,26],[6,28],[9,13],[20,11],[-2,14],[-24,14],[-13,27],[0,45],[-16,32],[-16,9],[1,19],[21,-10],[18,7],[33,27],[-22,12],[-7,25],[-21,9],[-40,0],[-42,32],[-40,21],[-6,14],[20,19],[28,14],[-11,14],[-28,-15],[-26,2],[-15,12],[-14,23],[-13,-13],[-6,-56],[-14,2],[-12,18],[-1,15],[14,29],[-16,20],[-23,-11],[-3,-22],[-10,-4],[-39,15],[-10,10],[2,27],[11,24],[-8,7],[-26,-16],[-13,-22],[4,-21],[-12,-3],[-11,24],[-24,26],[8,15],[27,7],[-9,28],[-71,11],[-31,-2],[-28,-9],[-23,14],[10,23],[21,-1],[20,-16],[11,16],[-14,42],[-12,18],[-26,23],[10,27],[36,-1],[8,19],[-4,22],[16,41],[14,51],[-14,51],[2,12],[20,21],[47,-5],[8,11],[-16,23],[-26,-5],[-9,7],[6,20],[-1,34],[8,38],[-27,7],[-4,10],[18,31],[1,25],[19,39],[2,17],[17,48],[-32,6],[-3,9],[18,18],[-30,14],[-7,11],[6,45],[-19,29],[-4,38],[-44,34],[-12,25],[2,42],[-12,11],[-18,-5],[-10,7],[2,43],[-48,27],[-17,38],[-19,-30],[-14,0],[-10,33],[-13,-7],[-24,-39],[-17,12],[-19,32],[13,42],[-13,19],[-15,-20],[-16,2],[-11,25],[-23,30],[-9,33],[14,11],[42,-3],[1,14],[-44,25],[-29,27],[-17,2],[-32,-6],[-41,27],[-16,-8],[-7,-29],[-28,12],[0,14],[26,11],[3,18],[-37,53],[-19,-11],[19,-14],[1,-12],[-19,-5],[-16,5],[-33,24],[-36,16],[-47,-8],[-9,22],[-30,27],[0,28],[-14,16],[-20,-23],[-28,2],[-59,57],[-15,31],[-39,17],[-2,16],[42,11],[1,24],[-14,28],[5,23],[29,16],[-5,19],[-37,5],[-5,44],[-7,14],[-16,9],[-8,14],[8,23],[-27,6],[-33,28],[-25,16],[-7,28],[-29,29],[-1,37],[7,21],[-2,30],[-11,15],[-28,20],[-18,25],[-34,30],[-24,3],[0,20],[16,19],[-37,15],[-8,27],[-29,3],[-12,-42],[-28,10],[-31,-26],[-15,2],[-24,17],[-37,-5],[-12,9],[-23,30],[-20,16],[-11,28],[-29,1],[-15,12],[-5,21],[-23,-5],[-4,-23],[-11,-7],[-17,19],[-62,13],[-60,4],[-14,4],[-6,16],[6,26],[-14,24],[-35,25],[-18,2],[-42,-15],[-31,10],[-18,27],[-7,46],[6,23],[25,17],[5,51],[13,48],[1,15],[-13,46],[6,20],[22,1],[17,-13],[20,-4],[5,11],[-12,29],[3,16],[16,5],[32,-16],[9,14],[-5,13],[-51,53],[-11,32],[34,50],[5,37],[14,19],[0,14],[-24,-4],[-6,-16],[-16,5],[2,24],[18,30],[15,11],[21,6],[33,-8],[11,6],[6,18],[-6,14],[-29,14],[-9,27],[4,47],[13,32],[-22,30],[-23,1],[-11,-11],[-9,-22],[1,-17],[11,-23],[-15,-8],[-24,18],[-3,52],[-16,1],[-9,-14],[-19,-4],[-33,44],[-61,43],[5,14],[32,16],[1,22],[-36,19],[-24,5],[-14,10],[-44,47],[-26,38],[-15,28],[4,10],[30,1],[12,22],[0,47],[-12,31],[-32,6],[-43,-10],[-20,12],[4,24],[39,9],[17,21],[-7,31],[34,-5],[29,-19],[3,-19],[53,0],[1,16],[-21,47],[-1,15],[21,19],[6,16],[-5,15],[-41,18],[8,18],[27,10],[47,33],[30,7],[17,10],[39,36],[29,21],[-7,34],[-18,-1],[-15,9],[-9,38],[-33,23],[24,50],[-11,25],[-25,21],[-8,17],[4,20],[17,14],[19,1],[17,-8],[40,-32],[45,-10],[25,-1],[26,8],[16,17],[8,29],[13,21],[23,13],[32,31],[28,20],[-2,30],[30,33],[19,10],[16,-26],[63,28],[13,15],[-9,28],[-36,-2],[9,16],[24,-2],[11,16],[-18,14],[1,15],[15,6],[34,6],[69,31],[15,17],[22,8],[16,-30],[23,1],[30,-14],[25,2],[35,16],[32,-9],[39,-3],[33,14],[-9,14],[-24,4],[3,13],[26,13],[17,-11],[13,3],[-3,19],[15,13],[-8,16],[6,35],[35,13],[-3,18],[-28,-16],[-3,17],[18,24],[-2,8],[50,26],[20,-17],[12,8],[-1,22],[37,-2],[2,18],[-18,31],[2,18],[27,10],[16,18],[15,41],[21,10],[4,20],[-1,56],[41,22],[23,36],[14,-12],[23,-37],[14,-14],[7,25],[14,14],[33,15],[42,5],[15,-4],[26,-19],[-10,-16],[-35,5],[-6,-6],[4,-29],[-5,-16],[-14,-9],[8,-23],[17,1],[0,20],[9,24],[37,34],[22,12],[28,2],[19,14],[1,14],[-24,7],[-4,27],[-24,32],[-4,40],[9,74],[8,13],[5,62],[13,24],[52,45],[19,50],[-9,27],[-2,49],[-6,41],[21,20],[20,-3],[-6,23],[8,12],[48,15],[60,27],[9,22],[1,37],[20,15],[42,-5],[32,10],[44,2],[25,-3],[33,14],[-8,36],[21,15],[-21,12],[18,12],[22,6],[16,-6],[10,15],[2,18],[-8,25],[-2,34],[-13,17],[9,14],[23,1],[1,13],[-26,29],[-19,28],[4,21],[18,3],[10,14],[-31,51],[-29,62],[2,15],[-12,11],[13,25],[-6,22],[-15,19],[-35,11],[-10,24],[7,28],[10,11],[25,12],[8,10],[-18,49],[3,15],[27,11],[5,9],[-2,47],[8,27],[6,48],[9,17],[14,10],[-1,12],[-14,24],[20,20],[-5,23],[-19,-10],[-13,7],[-11,20],[-4,33],[2,17],[31,41],[8,32],[-15,78],[-12,20],[-17,3],[-19,-6],[-8,22],[-4,58],[20,6],[43,0],[1,17],[-23,20],[12,22],[39,35],[-13,6],[-32,-17],[-10,13],[21,20],[484,-4],[35,-1],[1065,-17],[481,-4],[77,-5],[1082,-6],[114,0]]],"transform":{"scale":[0.000035718182422992245,0.00003356808594133222],"translate":[-81.214236,26.958919]},"objects":{"Geometry\\12-093":{"type":"GeometryCollection","geometries":[{"arcs":[[0,1,2,3,4]],"type":"Polygon","properties":{"GEOID":"120939104011"}},{"arcs":[[5,6,7,8,9,10]],"type":"Polygon","properties":{"GEOID":"120939106022"}},{"arcs":[[11,12,13,14,15,16,17]],"type":"Polygon","properties":{"GEOID":"120939105003"}},{"arcs":[[18,19,-5,20,21,22,23,24]],"type":"Polygon","properties":{"GEOID":"120939104022"}},{"arcs":[[25,-22,26,27,28,29]],"type":"Polygon","properties":{"GEOID":"120939104033"}},{"arcs":[[30,31,-24,32,33,-13]],"type":"Polygon","properties":{"GEOID":"120939105001"}},{"arcs":[[-27,-21,-4,34,35]],"type":"Polygon","properties":{"GEOID":"120939104012"}},{"arcs":[[-23,-26,36,37,-33]],"type":"Polygon","properties":{"GEOID":"120939104032"}},{"arcs":[[38,39,40,41,42]],"type":"Polygon","properties":{"GEOID":"120939101013"}},{"arcs":[[43,44,45,-41,46,47,-31,-12,48]],"type":"Polygon","properties":{"GEOID":"120939103001"}},{"arcs":[[49,-49,50,51,52]],"type":"Polygon","properties":{"GEOID":"120939102023"}},{"arcs":[[-44,-50,53,54]],"type":"Polygon","properties":{"GEOID":"120939102012"}},{"arcs":[[55,56,-28,-36,57]],"type":"Polygon","properties":{"GEOID":"120939900000"}},{"arcs":[[58,59,-17,60,-8,61]],"type":"Polygon","properties":{"GEOID":"120939106015"}},{"arcs":[[62,-25,-32,-48]],"type":"Polygon","properties":{"GEOID":"120939103002"}},{"arcs":[[63,64,-54,65,66]],"type":"Polygon","properties":{"GEOID":"120939102021"}},{"arcs":[[67,68,69]],"type":"Polygon","properties":{"GEOID":"120939101021"}},{"arcs":[[-45,-55,-65,70]],"type":"Polygon","properties":{"GEOID":"120939102013"}},{"arcs":[[-37,-30,71]],"type":"Polygon","properties":{"GEOID":"120939104031"}},{"arcs":[[-34,-38,-72,-29,-57,72,-14]],"type":"Polygon","properties":{"GEOID":"120939105002"}},{"arcs":[[73,74,-62,-7]],"type":"Polygon","properties":{"GEOID":"120939106012"}},{"arcs":[[75,-52,76,-59,-75]],"type":"Polygon","properties":{"GEOID":"120939106013"}},{"arcs":[[-51,-18,-60,-77]],"type":"Polygon","properties":{"GEOID":"120939106014"}},{"arcs":[[-66,-53,-76,-74,77]],"type":"Polygon","properties":{"GEOID":"120939102022"}},{"arcs":[[-42,-46,-71,-64,78]],"type":"Polygon","properties":{"GEOID":"120939102011"}},{"arcs":[[79,-1,-20]],"type":"Polygon","properties":{"GEOID":"120939104021"}},{"arcs":[[-61,-16,80,-9]],"type":"Polygon","properties":{"GEOID":"120939106011"}},{"arcs":[[-81,-15,-73,-56,81,-10]],"type":"Polygon","properties":{"GEOID":"120939106021"}},{"arcs":[[82,-69,83,-2,-80,-19,-63,-47,-40]],"type":"Polygon","properties":{"GEOID":"120939101011"}},{"arcs":[[84,-43,-79,-67,-78,-6,85]],"type":"Polygon","properties":{"GEOID":"120939101012"}},{"arcs":[[-70,-83,-39,-85,86]],"type":"Polygon","properties":{"GEOID":"120939101022"}}]}}}