{"type":"Topology","arcs":[[[8281,10202],[21,35]],[[8302,10237],[88,149]],[[8390,10386],[140,-4],[56,6],[233,-5]],[[8819,10383],[-3,-115],[-29,-30],[-1,-48]],[[8786,10190],[-10,0]],[[8776,10190],[-466,9],[-29,3]],[[8607,10858],[37,21],[67,55],[33,45],[13,76],[17,66],[17,104]],[[8791,11225],[115,-3],[195,-107]],[[9101,11115],[7,-56],[-22,-1],[-19,39],[-31,-1],[-41,-21],[-22,-20],[-39,-54],[-72,-2],[3,-126],[-11,-12],[80,-147]],[[8934,10714],[-256,90],[-43,-129],[-105,40]],[[8530,10715],[26,53],[51,90]],[[7714,8190],[173,-10],[3,52]],[[7890,8232],[246,-15],[-2,-52],[57,-3],[10,-5]],[[8201,8157],[-5,-115]],[[8196,8042],[-1,-13],[-112,7]],[[8083,8036],[-90,8]],[[7993,8044],[3,52],[-134,8]],[[7862,8104],[-151,8]],[[7711,8112],[3,78]],[[7043,8358],[25,27],[18,-18],[32,-1],[2,24],[42,-8]],[[7162,8382],[74,-37],[92,-3],[22,7],[17,21],[5,62],[77,-40],[11,-21],[-2,-44],[-12,-19],[12,-28]],[[7458,8280],[-47,-26],[-70,-31],[-50,-7],[-115,-32]],[[7176,8184],[-133,174]],[[8381,8239],[95,22]],[[8476,8261],[3,-26]],[[8479,8235],[41,-276]],[[8520,7959],[0,-1]],[[8520,7958],[-122,-27],[-21,120],[-2,59],[8,63],[-2,66]],[[6981,8888],[187,-5]],[[7168,8883],[2,-46],[18,-29],[-37,-25],[-29,-2],[-5,19],[-40,3],[-10,17],[-19,-21],[-23,19],[-32,-36],[-15,-1]],[[6978,8781],[3,107]],[[8934,10714],[5,-20],[-6,-148],[-36,-19],[-2,-67],[52,0],[1,-67],[-87,-3],[-29,-7]],[[8832,10383],[-13,0]],[[8390,10386],[33,63],[107,266]],[[8832,10383],[26,-17],[302,9],[3,-3]],[[9163,10372],[-173,-151]],[[8990,10221],[-28,-21],[-55,-12],[-121,2]],[[8630,8166],[31,-175]],[[8661,7991],[-1,0]],[[8660,7991],[-140,-32]],[[8479,8235],[134,32],[17,-101]],[[7702,10797],[41,0]],[[7743,10797],[156,-3]],[[7899,10794],[53,-1]],[[7952,10793],[-6,-192],[-5,-265],[5,-33],[-10,-86]],[[7936,10217],[-84,5]],[[7852,10222],[-54,1]],[[7798,10223],[7,66],[-37,16],[-21,25],[-28,5],[7,64],[-36,6],[4,52],[8,340]],[[5840,10852],[61,-5],[111,-3]],[[6012,10844],[235,-213],[61,-49],[117,-82]],[[6425,10500],[2,-51]],[[6427,10449],[-170,6],[-13,-386],[-247,3]],[[5997,10072],[3,17],[-10,57],[-28,32],[-31,-2],[-11,34],[-30,14],[-11,23],[-24,14],[-9,57],[5,43],[28,73],[-4,19],[-34,40],[-2,42],[6,36],[-22,23],[4,34],[-4,55],[7,50],[-9,30],[-17,20],[7,34],[29,35]],[[4368,5285],[6,56],[10,29],[85,200],[14,26],[27,28],[122,84]],[[4632,5708],[-10,-502],[304,67]],[[4926,5273],[-3,-16],[-46,-37],[-2,-18],[-32,-18],[71,-117]],[[4914,5067],[-19,-5],[-51,-66],[-37,-118],[-59,-60],[-62,-30],[-133,-19],[-132,32],[-84,58],[-134,97],[-33,5]],[[4170,4961],[31,136],[11,29],[28,42],[24,19],[61,31],[25,22],[18,45]],[[5781,6332],[19,-53],[23,-1],[15,-13],[12,34],[33,-1],[43,38],[28,-21],[12,4],[18,35],[39,4],[25,-39],[30,1],[17,23],[80,58]],[[6175,6401],[1,-31],[-6,-171],[-117,1],[13,-83],[-176,-30],[15,-72],[-37,-9],[-41,-46],[-1,-17],[19,-113],[54,-282],[12,-35]],[[5911,5513],[-52,5],[-28,20],[-27,37],[-45,95]],[[5759,5670],[-94,184],[-22,51],[-122,326]],[[5521,6231],[147,76],[113,25]],[[8461,8440],[236,54]],[[8697,8494],[22,-126]],[[8719,8368],[30,-175]],[[8749,8193],[-119,-27]],[[8476,8261],[15,4],[-30,175]],[[7101,10432],[138,-5]],[[7239,10427],[14,-68],[25,-91],[99,-279]],[[7377,9989],[-58,17]],[[7319,10006],[-27,109],[-70,4],[-82,-56],[-20,-4],[-25,17],[-7,26],[13,330]],[[8425,7730],[49,12],[-4,24]],[[8470,7766],[190,43],[30,8],[-30,174]],[[8661,7991],[118,27]],[[8779,8018],[28,-162],[12,-38],[19,3]],[[8838,7821],[-2,-34],[13,-5],[202,-644]],[[9051,7138],[-532,-361]],[[8519,6777],[-117,594],[2,16],[-20,85],[81,19],[-40,239]],[[4926,5273],[75,22],[83,35],[44,10],[232,17],[25,4],[59,23],[102,25],[20,14],[76,97],[-20,22],[-45,12],[6,71],[64,-1],[20,13],[-3,44],[47,29],[8,-43],[-7,-15],[15,-22],[32,40]],[[5911,5513],[5,-41],[47,4],[38,13],[33,-15],[49,-3],[23,7],[57,0],[19,-7],[104,33],[32,56]],[[6318,5560],[66,-89]],[[6384,5471],[-791,-255],[-260,-7],[-144,-52],[-106,-33],[-169,-57]],[[6779,11211],[259,-9]],[[7038,11202],[10,-59],[43,-166],[63,-163]],[[7154,10814],[-46,1]],[[7108,10815],[-43,1],[-296,12]],[[6769,10828],[10,383]],[[7108,10815],[-4,-164],[-3,-219]],[[7101,10432],[-343,7]],[[6758,10439],[11,389]],[[6961,8637],[21,5],[60,-3],[47,3],[75,-58],[40,-10],[25,13]],[[7229,8587],[1,-26],[26,-45],[-1,-33],[-65,0],[-9,-58],[-19,-43]],[[7043,8358],[-109,144],[-47,59]],[[6887,8561],[48,57],[26,19]],[[8470,7766],[-11,75],[76,17],[-15,100]],[[8749,8193],[4,-25]],[[8753,8168],[26,-150]],[[6955,11590],[170,-9],[0,-61],[23,-9],[30,13],[36,-10],[24,16],[24,27],[40,7],[42,-9],[80,-37],[43,-3]],[[7467,11515],[-12,-327]],[[7455,11188],[-417,14]],[[7038,11202],[-9,97],[-60,245],[-14,46]],[[6154,8574],[53,-22],[36,-5],[130,34]],[[6373,8581],[4,-136],[-15,-26],[-149,-132]],[[6213,8287],[-24,157],[-11,54],[-24,76]],[[7936,10217],[316,-9],[29,-6]],[[8281,10202],[-12,-37],[-7,-142]],[[8262,10023],[-34,1],[-138,-7]],[[8090,10017],[-160,4]],[[7930,10021],[-1,17],[-26,48],[-1,36],[-12,52],[-27,19],[-11,29]],[[7229,8587],[24,0],[17,15],[36,10],[20,-13]],[[7326,8599],[9,-35],[15,-26],[36,-13],[41,-80],[19,-21],[38,-18],[29,-30],[0,-17]],[[7513,8359],[-39,-68],[-16,-11]],[[5980,9881],[3,-1]],[[5983,9880],[44,-13],[40,-23],[111,-72],[21,-18]],[[6199,9754],[148,-141],[23,-31]],[[6370,9582],[-76,-2],[-32,-20],[-27,-40],[-7,-34],[-11,-382]],[[6217,9104],[-6,-193]],[[6211,8911],[-169,5],[6,190],[5,63],[-3,20],[8,176],[-289,47]],[[5769,9412],[-10,10],[10,75],[12,10],[-7,31],[8,13],[-6,29],[24,64],[19,11],[22,57],[42,20],[9,26],[53,15],[19,33],[14,42],[2,33]],[[9101,11115],[239,-84],[52,-17],[118,-45],[41,-34],[64,-71],[41,-65],[79,-154],[40,-62],[60,-137]],[[9835,10446],[-198,-186],[-58,-53],[-71,-49],[-67,-56]],[[9441,10102],[-28,56],[-7,32],[-2,71]],[[9404,10261],[-7,76],[-29,44],[-43,27],[-113,55],[-26,-67],[-23,-24]],[[5710,16066],[148,-170],[103,-306],[23,-85],[55,-332],[24,-67],[248,-454]],[[6311,14652],[-5,0],[-248,47],[-42,3],[-342,10]],[[5674,14712],[-455,13],[-213,9],[-178,9],[-134,6],[-42,12],[-17,17],[-17,39],[-4,120],[-13,50],[-16,20],[-155,127],[-32,13],[-50,3],[-100,14],[-37,0],[-59,-25],[-55,-41],[-40,-16],[-64,1]],[[3993,15083],[11,464],[62,-1],[390,-14],[38,5],[42,31],[72,106],[35,32],[37,9],[195,-6],[168,-10],[211,-3],[445,-15],[11,385]],[[7298,10809],[150,-5]],[[7448,10804],[254,-7]],[[7798,10223],[-85,-9],[-33,-7],[-122,-59]],[[7558,10148],[-117,296]],[[7441,10444],[-143,365]],[[6538,8901],[140,-4]],[[6678,8897],[47,-119],[13,-20],[88,-117]],[[6826,8641],[-12,-8],[-164,-58],[-195,4]],[[6455,8579],[-82,2]],[[6373,8581],[6,278],[96,-3],[9,-13],[32,-1],[-11,-22],[-2,-27],[30,-5],[5,113]],[[6455,8579],[61,-306],[6,-56],[14,-84]],[[6536,8133],[-37,-8],[-8,21],[-37,10],[-26,-6],[-36,18],[-34,31],[-38,-14],[-29,17],[-45,-12],[-30,-15]],[[6216,8175],[5,38],[-8,74]],[[6217,9104],[389,-12]],[[6606,9092],[72,-195]],[[6538,8901],[-327,10]],[[6154,8574],[2,36],[38,130],[11,51],[6,120]],[[7930,10021],[-145,4],[-181,3]],[[7604,10028],[-46,120]],[[6971,9412],[183,27],[67,16],[47,31],[142,150]],[[7410,9636],[75,-306]],[[7485,9330],[-30,-11],[12,-58],[-47,-18],[16,-54],[-41,-15],[-18,43],[-113,-40],[-16,-36],[8,-60],[26,-67],[3,-47],[-11,-30],[2,-42]],[[7276,8895],[-38,-11]],[[7238,8884],[3,112],[-35,115],[-57,35]],[[7149,9146],[-31,33],[-8,20],[6,56],[-34,94],[-22,19],[-77,34],[-12,10]],[[6890,9052],[79,29],[35,16],[145,49]],[[7238,8884],[-70,-1]],[[6981,8888],[-95,3]],[[6886,8891],[4,161]],[[6678,8897],[208,-6]],[[6978,8781],[-68,2],[-16,-16],[-2,-80],[-29,1],[-6,-21],[23,-22],[1,-39],[-15,-16]],[[6866,8590],[-40,51]],[[7238,8884],[13,-32],[-4,-28],[-49,-73],[-27,-17],[-58,16],[-10,9],[-69,0],[-23,-17],[-24,-31],[-26,-74]],[[6887,8561],[-21,29]],[[7176,8184],[-130,-43],[-53,-24]],[[6993,8117],[-74,-2],[-58,3],[-81,-2]],[[6780,8116],[-168,4],[-54,-6],[-17,-10]],[[6541,8104],[-5,29]],[[6536,8133],[71,57],[-1,22],[24,26],[38,17],[20,17],[26,40],[12,-4],[18,44],[21,5],[65,53],[17,24],[-3,24],[25,30],[11,61],[7,12]],[[6566,9516],[169,-6],[-7,-228],[43,-2],[23,-101],[17,-94],[54,-2]],[[6865,9083],[25,0],[0,-31]],[[6606,9092],[-50,132]],[[6556,9224],[3,18],[7,274]],[[5706,12009],[176,-3],[223,-6],[23,-4]],[[6128,11996],[-13,-631],[-6,-38],[-20,-49],[-3,-43],[5,-23]],[[6091,11212],[-39,17],[-72,4],[-20,8],[-20,36],[1,111],[-13,45],[-16,27],[-108,138],[-35,61],[-52,122],[-12,50],[-2,39],[3,139]],[[4632,5708],[60,41],[48,39],[140,128],[59,41],[360,156],[222,118]],[[6541,8104],[-33,-54],[-39,-29],[-62,-15],[-26,-14],[-25,-40],[-3,-26],[-2,-86]],[[6351,7840],[-148,-7],[-80,11]],[[6123,7844],[66,166],[7,27],[20,138]],[[6535,10172],[26,-62],[18,-76],[-2,-89]],[[6577,9945],[-9,-369]],[[6568,9576],[-2,-60]],[[6556,9224],[-64,175],[-13,22],[-109,161]],[[6199,9754],[24,23],[24,56],[19,28],[23,9],[34,34],[25,34],[36,24],[44,78],[14,33],[20,26],[73,73]],[[4839,11725],[257,-106]],[[5096,11619],[102,-46],[37,-28],[647,-584],[130,-117]],[[5840,10852],[-753,20],[-11,-352],[-2,-93]],[[5074,10427],[-54,36],[-20,18],[-243,330],[-16,15]],[[4741,10826],[14,530],[-24,9],[28,45],[-41,54],[-20,12],[-6,22],[1,51],[9,58],[-2,25],[-19,30],[41,20],[28,-7],[44,16],[45,34]],[[8196,8042],[14,3],[26,-150],[101,23]],[[8337,7918],[13,-76]],[[8350,7842],[-150,-33],[-15,-2]],[[8185,7807],[4,79],[-113,6],[7,144]],[[8990,10221],[16,-51],[4,-66],[10,-70],[0,-46]],[[9020,9988],[-247,8]],[[8773,9996],[-3,14],[6,180]],[[8091,10790],[163,-7]],[[8254,10783],[18,-1]],[[8272,10782],[3,-77],[-3,-136],[13,-66],[-1,-104]],[[8284,10399],[-78,19],[-27,-4],[-5,-34],[-47,13],[-41,35],[-85,3],[-6,73],[5,33],[32,56],[33,27],[31,3],[37,26],[0,20],[-25,16],[2,21],[-20,66],[1,18]],[[8272,10782],[156,-6],[77,11],[43,19],[59,52]],[[8302,10237],[-21,32],[-2,18],[5,112]],[[7952,10793],[139,-3]],[[7251,21922],[174,365],[42,124],[89,271]],[[7556,22682],[193,-116],[41,-27],[38,-33],[44,-51],[23,-37],[25,-51],[59,-137]],[[7979,22230],[-33,-29],[-56,-27],[-20,0],[-14,-23],[16,-41],[46,-15],[13,-19],[-16,-55],[-11,-16],[-7,-58],[-25,-17],[-20,-33],[20,-59],[-27,-35],[-47,-16],[-17,-31],[-5,-90],[-28,-22],[-22,4],[-29,45],[-28,14],[-17,-27],[1,-18],[31,-70],[1,-31],[-49,-47],[-49,-143],[-37,-16],[-41,18],[-21,101],[-27,-9],[-30,-101],[-9,-15],[-23,-1],[-12,31],[8,54],[-15,24],[-35,-3]],[[7345,21454],[2,26],[-27,87],[-22,38],[3,29],[-13,50],[26,48],[0,20],[-38,31],[24,51],[3,22],[-19,27],[-13,43],[-20,-4]],[[7409,7937],[75,-35],[44,-12]],[[7528,7890],[66,-18],[121,-38],[-2,-26],[90,-5]],[[7803,7803],[-5,-105],[-77,5],[-13,-20],[-25,2]],[[7683,7685],[2,23],[-38,23],[-43,8],[-247,-46],[-43,5],[-21,17],[-20,36]],[[7273,7751],[33,-40],[23,6],[-14,56],[22,4],[13,-41],[51,12],[-8,38],[19,3],[-20,94],[17,54]],[[7531,8103],[40,-4],[139,-4],[1,17]],[[7862,8104],[-11,-225]],[[7851,7879],[-3,-79]],[[7848,7800],[-45,3]],[[7528,7890],[-1,47],[4,166]],[[7222,7255],[20,14],[14,-8],[41,17],[66,72],[43,17],[164,86]],[[7570,7453],[12,-14],[71,-58],[69,-34],[25,-17]],[[7747,7330],[-46,-71],[-15,-44],[-125,110],[-79,27],[13,-77],[29,-49],[-29,-42]],[[7495,7184],[-112,100],[-24,4],[-16,-17],[4,-37],[30,-47],[10,-32],[-53,-20]],[[7334,7135],[-100,-39],[-12,159]],[[7145,7223],[77,32]],[[7334,7135],[31,-105]],[[7365,7030],[-186,-73],[-46,-5]],[[7133,6952],[-2,98],[14,173]],[[7747,7330],[45,-50],[45,-10]],[[7837,7270],[-30,-68],[-142,-58],[-91,-33]],[[7574,7111],[-79,73]],[[2328,4137],[55,17],[285,73],[2,-37],[41,-3],[93,19],[132,40],[39,8],[108,39],[163,32],[65,20],[80,18],[81,26],[116,28],[81,12],[3,22],[-8,42],[307,415],[3,2],[171,5],[12,-2],[13,48]],[[6384,5471],[51,-67],[40,-58],[77,-122]],[[6552,5224],[10,-159]],[[6562,5065],[-5,-3],[-651,-128],[-258,-74],[-349,-108],[-288,-101],[-829,-221],[-1836,-411],[-17,-3]],[[2329,4016],[-1,121]],[[3695,4920],[73,21],[144,20],[118,18],[140,-18]],[[2328,4137],[0,62],[76,21],[54,24],[60,13],[139,51],[40,-3],[952,326],[46,289]],[[8090,10017],[5,-36],[-4,-206]],[[8091,9775],[-133,6],[-55,33],[-63,21],[-65,-1]],[[7775,9834],[-100,11],[-71,183]],[[9282,9310],[17,-10],[-8,67],[2,25],[16,87]],[[9309,9479],[128,-77],[19,-27],[328,-205],[242,-111]],[[10026,9059],[-19,-137],[-26,-138],[-72,-315],[-43,-225]],[[9866,8244],[-26,24],[-503,442],[-22,37]],[[9315,8747],[21,45],[50,69],[-32,21],[23,69],[-17,46],[-30,-12],[-43,21],[-15,-15],[-27,16],[-33,2],[-39,24],[-9,-23],[-73,46]],[[9091,9056],[2,10],[-14,89],[5,10],[50,14],[12,21],[34,-6],[17,30],[34,6],[31,34],[22,2],[-2,44]],[[6813,7727],[46,-2]],[[6859,7725],[161,-5],[51,13]],[[7071,7733],[114,19]],[[7185,7752],[-11,-151]],[[7174,7601],[-2,-29]],[[7172,7572],[-39,-7],[-40,8],[-29,-33]],[[7064,7540],[-8,11]],[[7056,7551],[-73,11],[-7,-20],[-31,-13],[-87,-26],[-9,36],[6,38],[3,107],[-45,3],[0,40]],[[8091,9775],[-3,-147]],[[8088,9628],[-3,-194]],[[8085,9434],[-29,-5],[-114,-62]],[[7942,9367],[-65,-34]],[[7877,9333],[-144,367]],[[7733,9700],[6,7],[36,127]],[[5009,7850],[166,-254],[-14,-43],[39,-68],[-2,-37],[7,-42],[-7,-19],[2,-39]],[[5200,7348],[-1,-14],[-54,-25],[-9,-21],[9,-29],[-16,-12],[-2,-43],[13,-3],[-13,-46],[23,-38],[51,-33],[8,-30],[14,-17],[-13,-16],[15,-16],[5,-61],[-28,-11],[-48,-44],[-2,-26],[-15,-50],[-54,-50],[-31,-43],[-69,1],[-261,10],[-9,-27],[-60,3],[0,-70]],[[4653,6637],[-169,3],[-74,0],[-26,10],[-58,-9],[-69,8],[-66,1],[6,66],[-3,38],[-33,84],[-40,76],[12,61],[-14,28],[-7,46],[44,-3],[18,5],[34,26],[18,30],[0,27],[-22,61],[-3,24],[-35,69],[11,29],[-5,22],[-92,68]],[[4080,7407],[27,45],[40,48],[26,21],[36,16],[56,10],[48,0],[40,-8],[72,-23],[42,-6],[74,3],[60,18],[36,22],[40,50],[14,32],[36,53],[44,45],[34,24],[80,29],[84,34],[40,30]],[[5739,23139],[191,0],[85,-11],[428,-1],[15,16],[158,-6],[50,6],[76,-1]],[[6742,23142],[12,-10],[17,-57],[-4,-27],[13,-37],[-7,-76],[-18,-39],[-19,-20],[19,-27],[105,-89],[79,-57],[22,-22],[48,-17],[30,9],[40,-10],[36,-38],[18,-9],[63,-12],[21,-17]],[[7217,22587],[-195,10],[-203,0],[-4,-84],[10,-113],[-50,1],[-1,-28],[16,-40],[5,-32],[14,-8],[81,-23],[80,-39],[51,-60],[28,-5],[56,-48],[74,-93],[30,-31],[21,-47],[21,-25]],[[7345,21454],[-40,-46],[-24,-19],[-66,-10],[-31,-24],[-7,-24],[12,-80],[-27,-31],[-48,3],[-63,-31],[-40,-2],[-42,27],[-12,-29],[70,-95],[9,-34],[-4,-26],[-43,-29],[-38,-13],[-27,-1],[-1,-38],[20,-14],[24,-2],[44,16],[21,-22],[-5,-52],[26,-56],[0,-13],[-44,-49],[-42,-16],[-33,44],[-39,-5]],[[6895,20783],[17,50],[-14,23],[-25,6],[-43,-15],[-69,10],[-26,-17],[-57,-5],[-48,57],[-45,31],[-20,-9],[-33,8],[-38,-3],[-18,31],[-23,7],[-15,41],[-14,11],[1,35],[-36,52],[-21,37],[-37,-1],[-13,44],[-28,24],[-15,36],[6,20],[-40,20],[-18,21],[-21,7],[-14,32],[-28,32],[-58,32],[-11,32],[-52,55],[-38,129],[-17,17],[-8,36],[-12,10],[-31,57],[-16,14],[-3,22],[-26,24],[-17,29],[-47,59],[-24,39],[-8,40],[-19,53],[-19,12]],[[5754,22028],[-16,33],[-18,16],[-11,37],[-32,41],[-50,39],[-18,47],[-3,69],[3,35],[23,115],[-1,38],[11,26],[25,23],[0,42],[19,47],[15,17],[8,43],[-24,74],[21,48],[-12,39],[3,19],[20,39],[-1,28],[26,43],[19,17],[15,50],[2,47],[-39,39]],[[6742,23142],[429,-2],[196,-15],[282,5],[48,-5],[169,-27],[77,-9],[159,11],[100,10],[627,28],[595,21],[13,-17],[-10,-53],[-49,-15],[-17,-14],[-47,-55],[-35,5],[-55,65],[-47,19],[-7,-8],[3,-43],[41,-92],[-5,-40],[-11,-28],[-36,-29],[-162,-113],[-46,-48],[-42,-130],[-24,-20],[-31,-7],[-67,27],[-36,-1],[-47,-70],[-50,-38],[-30,-47],[-28,-21],[-82,-31],[-80,-47],[2,-58],[7,-32],[-13,-40],[-20,-2],[-42,22],[-23,24],[-19,2],[-185,-70],[-45,39],[-27,31],[-2,37],[24,36],[3,19],[-15,25],[-30,-2],[-15,-16],[-48,-84],[-10,-9]],[[7556,22682],[30,103],[-39,-5],[-16,65],[-60,5],[-123,-232],[-50,-16],[-30,-16],[-51,1]],[[5200,7348],[15,3],[3,-45],[12,-35],[26,-38],[367,-384],[34,-42]],[[5657,6807],[-17,-11],[-59,-16],[-6,-19],[-8,-70],[-12,-27],[44,-36],[-43,-22],[26,-12],[-74,-144],[-11,-32],[-6,-63],[6,-58],[24,-66]],[[4632,5708],[17,785],[4,144]],[[6676,7346],[-1,-39],[75,0],[-1,-114],[-53,1],[-55,11],[-95,34]],[[6546,7239],[3,111],[127,-4]],[[6340,7314],[206,-75]],[[6676,7346],[1,87],[10,2]],[[6687,7435],[369,116]],[[7064,7540],[40,-173],[24,-131],[18,-1]],[[7146,7235],[-1,-12]],[[7145,7223],[-31,-14],[-29,-22],[-21,-4],[-67,-34],[-30,1],[-88,-30],[-59,-16],[-48,-6],[-76,0],[-23,8],[-106,-39],[-28,-50],[-20,-10]],[[6519,7007],[-147,178],[-22,39],[-9,33],[-1,57]],[[7611,8721],[86,31],[6,-36],[19,-69],[113,39],[-29,105],[-10,-3],[-14,50],[116,41]],[[7898,8879],[18,-52],[169,-255]],[[8085,8572],[68,-102],[-29,-4],[-246,12]],[[7878,8478],[-73,-1],[-82,-29]],[[7723,8448],[-145,-54]],[[7578,8394],[-20,-7]],[[7558,8387],[17,54],[27,130],[9,101],[0,49]],[[8067,7682],[112,-7]],[[8179,7675],[193,43]],[[8372,7718],[53,12]],[[8519,6777],[-82,-56]],[[8437,6721],[-257,621],[-15,61],[3,17],[7,154],[-113,6]],[[8062,7580],[5,102]],[[7850,9046],[193,101]],[[8043,9147],[39,19],[21,-60],[26,-51],[-6,-93],[7,-33],[45,24]],[[8175,8953],[8,-39]],[[8183,8914],[30,-145],[15,-54],[34,-62]],[[8262,8653],[-88,-76]],[[8174,8577],[-20,52],[-69,-57]],[[7898,8879],[-45,162],[-3,5]],[[7942,9367],[-9,-29],[29,-71],[22,0],[6,-24],[-22,-9],[4,-37],[32,7],[37,-39],[2,-18]],[[7850,9046],[-11,46]],[[7839,9092],[-55,193],[93,48]],[[7377,9989],[21,2],[65,26],[64,13]],[[7527,10030],[143,-368],[63,38]],[[7839,9092],[-34,-8],[-239,-85]],[[7566,8999],[-81,331]],[[7410,9636],[-52,217],[-39,153]],[[6882,6925],[26,10],[224,16]],[[7132,6951],[7,-135],[43,-190],[3,-57],[-9,-34]],[[7176,6535],[-54,1],[-113,-34],[-81,21]],[[6928,6523],[6,116],[-14,66],[-28,55],[-15,58],[-1,45],[6,62]],[[9315,8747],[-13,9],[-66,79],[-34,24],[-29,3],[-65,-9]],[[9108,8853],[-46,-25]],[[9062,8828],[5,42],[20,14],[14,36],[-9,54],[7,38],[-8,44]],[[8174,8577],[103,-263]],[[8277,8314],[36,-89]],[[8313,8225],[9,-24],[-33,-8]],[[8289,8193],[-70,-16],[-18,-20]],[[7890,8232],[-23,1],[11,245]],[[9356,9723],[23,117],[-10,51],[-21,46],[-13,70]],[[9335,10007],[32,25],[74,70]],[[9835,10446],[8,-17],[118,-192],[307,-377],[-85,-316],[-152,-447],[-5,-38]],[[9309,9479],[47,244]],[[8190,11212],[14,27],[40,33],[4,39],[14,8],[0,24],[25,22],[14,41],[-7,22],[-24,16],[-15,29],[2,18],[32,9],[24,17],[2,45],[51,48]],[[8366,11610],[53,-79],[37,-77],[47,-60],[41,-26],[91,-27],[54,-26],[64,-72],[38,-18]],[[8254,10783],[-15,40],[2,28],[12,28],[3,37],[-7,30],[-24,57],[-22,33],[-4,41],[-24,49],[15,86]],[[8949,8814],[8,12]],[[8957,8826],[39,-29],[34,2],[32,29]],[[9108,8853],[12,-49],[-5,-42],[6,-19],[74,-112],[24,5],[23,-6],[18,-17],[-28,-116],[-6,-50],[-7,-116]],[[9219,8331],[-73,-1],[-91,7]],[[9055,8337],[8,100],[-7,25],[-38,52]],[[9018,8514],[17,52],[-20,5],[-53,35],[7,26],[-23,10],[33,76],[-37,10],[7,86]],[[3351,5496],[50,-44],[71,-72],[69,-57],[90,-37],[85,-30],[60,-17],[73,-10],[55,0],[86,-5],[24,-18],[81,-2],[57,8],[39,27],[39,12],[41,-8],[7,26],[40,4],[11,23],[39,-11]],[[3695,4920],[-52,-19],[-64,-8],[-26,-21],[-48,-26],[-110,-19],[-46,6],[-36,10],[-30,-8],[-38,3],[-66,-3],[-40,-26],[-48,-3],[-26,-16],[-42,-37],[-40,8],[-50,-8],[-134,5],[-70,35],[-32,4],[-71,30],[-24,35],[-18,58],[-6,74],[-1,146],[25,123],[43,89],[52,41],[36,15],[92,29],[72,13],[198,0],[90,8],[74,11],[92,27]],[[7752,11179],[171,-3]],[[7923,11176],[-16,-76],[10,-49],[-5,-30],[-18,-58],[12,-61],[-7,-67],[0,-41]],[[7743,10797],[9,382]],[[7154,10814],[144,-5]],[[7441,10444],[-81,11],[13,-33],[-43,1],[-1,-30],[-48,3],[2,29],[-44,2]],[[8452,9221],[-28,-71],[-5,-45]],[[8419,9105],[-75,2],[-41,-14],[-95,-48],[7,-69],[-40,-23]],[[8175,8953],[-48,235]],[[8127,9188],[139,73],[31,13],[30,0],[59,-21],[66,-32]],[[9866,8244],[-63,-239]],[[9803,8005],[-205,118],[-364,202],[-15,6]],[[8243,9511],[28,-11],[7,47],[44,62],[44,-7],[87,21]],[[8453,9623],[40,-3],[254,-9]],[[8747,9611],[-159,-187]],[[8588,9424],[-34,-41]],[[8554,9383],[-47,53],[-30,16],[-34,-6],[-64,-41],[-35,-6],[-61,30],[-51,5],[11,77]],[[7923,11176],[221,-2],[46,38]],[[7455,11188],[297,-9]],[[7448,10804],[7,384]],[[8088,9628],[17,-23],[33,0],[35,-31],[18,-32],[52,-31]],[[8554,9383],[-67,-82],[-35,-80]],[[8127,9188],[-35,182],[-7,64]],[[7993,8044],[-8,-173]],[[7985,7871],[-1,-26],[-89,5],[1,26],[-45,3]],[[8396,8586],[115,99],[-17,98],[4,43],[8,21]],[[8506,8847],[16,27]],[[8522,8874],[21,-19],[48,-24],[14,-54],[74,-119],[25,-11]],[[8704,8647],[6,-47],[-29,-7],[16,-99]],[[8461,8440],[-47,-10],[2,20],[-20,136]],[[7132,6951],[1,1]],[[7365,7030],[209,81]],[[7837,7270],[61,-15],[27,-31],[33,-14],[21,-22],[314,-548]],[[8293,6640],[-84,-33],[-124,-67],[-41,-27],[-13,-23],[37,-716],[49,-12],[43,0],[118,-7],[119,-11],[151,-9],[61,-28],[39,-22],[55,-21],[65,-21],[87,-16]],[[8855,5627],[-145,-95],[-287,-76],[-263,-20],[-463,-4],[-954,111],[-32,-5],[-38,-24],[-36,-58],[-18,-67],[5,-32],[17,-48],[-89,-85]],[[6318,5560],[10,22],[44,60],[36,37],[72,48],[31,29],[26,33],[38,14],[109,6],[38,4],[93,-12],[51,0],[52,17],[18,15],[40,13],[61,2],[69,-11],[48,6],[83,-15],[25,-17],[51,7],[21,-3],[13,-23],[32,8],[31,39],[-28,29],[28,52],[38,58],[21,18],[18,41],[-5,18],[-33,50],[-14,54],[-10,80],[0,39],[-23,151],[-8,143],[-43,41],[-37,-50],[-52,-28],[-86,0]],[[10656,6035],[13,0],[197,49],[421,119],[313,87],[1098,325],[545,161],[1076,143],[2,-522]],[[14321,6397],[-1399,-334],[-999,-228],[-223,-53],[-821,-203],[-556,-139],[-492,-116],[-513,-111],[-458,-80]],[[8860,5133],[0,103],[-5,27],[195,41],[200,38],[180,21],[125,31],[64,8],[112,28],[30,30],[40,-5],[26,8],[48,58],[34,-5],[110,27],[55,5],[9,-34],[39,16],[66,16],[42,2],[1,16],[31,8],[3,-15],[98,19],[370,95],[-4,44],[-37,-9],[-5,28],[-31,301]],[[6525,6767],[74,32],[250,112]],[[6849,6911],[33,14]],[[6928,6523],[-130,34],[-68,32],[-110,-13],[-26,-10],[-138,-36]],[[6456,6530],[-38,104],[3,31],[-30,15],[14,36],[120,51]],[[8262,10023],[5,0]],[[8267,10023],[-6,-178],[-2,-20],[118,8],[52,-6],[-2,-153],[27,-4],[-1,-47]],[[6519,7007],[17,-27],[6,-55]],[[6542,6925],[-17,-158]],[[6456,6530],[-145,-85],[-24,-25],[-31,-20],[-37,5],[-44,-4]],[[5781,6332],[42,20],[-103,292]],[[5720,6644],[51,20],[37,25],[49,23],[84,48],[49,39],[76,34],[88,36],[150,44],[82,29],[133,65]],[[5657,6807],[18,-35]],[[5675,6772],[45,-128]],[[6344,7504],[153,-4],[-2,-53],[43,-1],[2,65],[25,3],[34,-11],[39,-1],[7,11],[88,-7],[3,-29],[-37,-24],[-12,-18]],[[6340,7314],[4,190]],[[7172,7572],[-26,-337]],[[6012,10844],[110,-3],[52,2]],[[6174,10843],[260,-7]],[[6434,10836],[335,-8]],[[6758,10439],[-224,7],[-36,3]],[[6498,10449],[-73,51]],[[8267,10023],[190,-17],[103,-4]],[[8560,10002],[-3,-46],[44,-3],[-4,-144],[168,-6],[-4,-175]],[[8761,9628],[-14,-17]],[[8405,8845],[41,-17],[8,17],[52,2]],[[8396,8586],[-19,-16],[-17,45],[-26,31],[-46,29],[-26,-22]],[[8183,8914],[36,18],[8,-90],[29,-3],[36,10],[113,-4]],[[8419,9105],[-14,-260]],[[7527,10030],[77,-2]],[[8998,9931],[39,-28],[27,-33],[10,-53],[-6,-20],[35,-21]],[[9103,9776],[-64,-141],[2,-20]],[[9041,9615],[-46,-22],[-45,11],[-55,2],[-1,46],[-9,30],[-38,47]],[[8847,9729],[59,69],[50,83],[42,50]],[[9020,9988],[74,-2]],[[9094,9986],[157,-5],[36,5],[48,21]],[[9356,9723],[-210,126],[-17,-15],[-26,-58]],[[8998,9931],[22,57]],[[7723,8448],[-9,-258]],[[7531,8103],[-21,1],[6,152],[31,58],[31,80]],[[8381,8239],[-68,-14]],[[8277,8314],[8,8],[81,19],[-15,105],[-14,63],[-19,49],[-56,95]],[[8855,5627],[87,-10],[115,-30],[60,-9],[68,29],[95,56],[41,46],[313,199],[107,19],[210,13],[118,14],[107,19],[243,30],[237,32]],[[8860,5133],[-864,-123],[-317,-41],[-239,-32],[-154,9],[-148,30],[-167,50],[-183,98],[-226,-59]],[[8289,8193],[48,-275]],[[8560,10002],[213,-6]],[[8847,9729],[-86,-101]],[[8588,9424],[157,-95],[-68,-147],[-15,-43],[-15,-72],[-17,-38]],[[8630,9029],[-40,-46],[-24,-38]],[[8566,8945],[-44,-71]],[[7174,7601],[41,14],[13,25],[40,5],[-4,22],[-25,-3],[34,87]],[[7683,7685],[-37,23],[-64,8],[-24,-21],[-32,-17],[-16,-19],[11,-90],[27,-82],[22,-34]],[[9309,9479],[-77,46],[-22,19],[-99,59]],[[9111,9603],[-35,16],[-35,-4]],[[6954,9420],[17,-8]],[[6865,9083],[12,57],[-6,42],[25,-3],[41,13],[-15,69],[29,134],[3,25]],[[6498,10449],[-1,-8],[428,-300]],[[6925,10141],[-5,-85],[-5,-25],[-3,-96]],[[6912,9935],[-271,10],[-26,-12],[-38,12]],[[6535,10172],[-102,250],[-6,27]],[[9404,10261],[-122,-10],[-42,-56],[-77,-66],[-26,-73],[-30,-32],[-13,-38]],[[7848,7800],[22,-1]],[[7870,7799],[-12,-311],[65,-4],[-1,-29],[40,-3],[28,28],[23,-1],[-1,-30],[44,-2],[6,133]],[[8437,6721],[-64,-44],[-80,-37]],[[7870,7799],[68,-4],[-5,-105],[134,-8]],[[8350,7842],[22,-124]],[[8179,7675],[6,132]],[[8185,7807],[-179,11],[2,52],[-23,1]],[[7319,10006],[-48,22],[-37,6],[-88,3],[-50,9],[-66,25],[-38,23],[-67,47]],[[6912,9935],[-10,-370]],[[6902,9565],[-334,11]],[[7290,8900],[276,99]],[[7566,8999],[31,-130],[9,-63],[5,-85]],[[7611,8721],[-53,-19],[-5,83],[15,5],[-18,58],[-2,34],[-205,-61]],[[7343,8821],[-32,-11],[-21,90]],[[6902,9565],[30,-2],[-22,-58],[0,-27],[16,-13],[28,-45]],[[6433,7838],[154,-9],[41,12],[147,85]],[[6775,7926],[-6,-198]],[[6769,7728],[-336,11],[0,99]],[[6775,7926],[5,190]],[[6993,8117],[-2,-141]],[[6991,7976],[-32,-3],[-98,-21],[-2,-227]],[[6813,7727],[-44,1]],[[5983,9880],[-12,48],[-17,36],[25,15],[7,20],[11,73]],[[6123,7844],[-286,67],[-24,-1],[-28,-14],[-90,-62],[-312,327],[-35,31]],[[5348,8192],[17,57],[-7,101],[-35,110],[-42,60],[-84,42],[-65,24]],[[5132,8586],[16,74],[15,45],[7,54],[-11,40],[-11,18],[-31,17],[-5,29],[26,95],[16,16],[42,-19],[12,10],[-10,36],[36,-25],[19,-2],[31,41],[40,39],[9,21],[4,44],[14,9],[21,-47],[22,3],[7,26],[-7,36],[-26,17],[17,18],[25,-8],[15,8],[10,29],[-5,38],[3,32],[46,-9],[22,17],[15,-33],[19,-3],[3,43],[26,-10],[44,22],[24,1],[29,18],[9,-44],[14,-1],[15,38],[39,24],[24,3],[7,66]],[[5980,9881],[-39,12],[-190,89],[-45,28],[-290,194],[-342,223]],[[4453,11884],[386,-159]],[[4741,10826],[-32,13],[-112,8],[-44,-2],[-80,7],[-92,-8],[-118,-16],[-29,-8],[-59,-41],[-230,-208],[-29,-23],[-37,-19],[-32,-7],[-95,-5]],[[3752,10517],[18,25],[25,19],[-3,49],[-16,18],[-19,2],[1,-34],[-26,9],[15,48],[24,-4],[23,46],[29,-21],[21,43],[-32,14],[6,32],[15,5],[24,-16],[5,-35],[55,14],[-10,23],[-16,5],[1,33],[-13,108],[-10,25],[30,14],[-15,22],[12,28],[15,-16],[14,23],[35,-1],[6,37],[-18,10],[20,26],[22,-3],[-4,29],[-17,3],[3,38],[23,28],[4,76],[60,9],[23,31],[26,21],[37,52],[11,36],[-5,18],[33,31],[-16,16],[-1,34],[48,29],[0,24],[23,17],[23,-29],[25,8],[31,22],[21,25],[-8,16],[7,26],[-10,22],[23,11],[24,24],[-27,53],[-2,21],[9,47],[18,12],[-3,21],[13,19],[24,-4],[28,13],[19,20]],[[7467,11515],[7,249]],[[7474,11764],[239,-5],[2,-71],[14,-14],[-24,-44],[34,-12],[53,57],[39,20],[14,41],[61,60],[12,2],[56,39],[32,6],[7,56],[11,16],[32,5],[15,17],[36,12],[15,-31],[-5,-19],[-27,-32],[-1,-40],[40,-57],[17,-13],[56,-7],[42,-69],[39,-10],[12,8],[36,-2]],[[8331,11677],[35,-67]],[[7481,12165],[73,68],[166,181],[101,89]],[[7821,12503],[26,-2],[18,-22],[24,-14],[43,20],[33,5],[36,-21],[15,-36],[-11,-61],[6,-16],[32,-23],[44,-20],[-5,-28],[-31,-19],[-2,-34],[31,-38],[87,-71],[25,-37],[29,-137],[6,-52],[12,-44],[32,-65],[30,-49],[30,-62]],[[7474,11764],[-1,25],[8,376]],[[6351,7840],[-7,-336]],[[5675,6772],[141,270],[16,43],[8,54],[11,332],[10,34],[32,44],[93,81],[24,25],[44,61],[56,99],[13,29]],[[5009,7850],[46,34],[74,66],[68,77],[76,58],[36,39],[39,68]],[[6849,6911],[7,68],[-210,29],[-11,-96],[-47,7],[4,48],[-22,3],[-5,-48],[-23,3]],[[6351,7840],[82,-2]],[[7176,8184],[69,-93]],[[7245,8091],[-34,-47],[-4,-69]],[[7207,7975],[-140,10],[-58,-7]],[[7009,7978],[-18,-2]],[[7207,7975],[-1,-72],[-17,-100],[-4,-51]],[[7071,7733],[-12,110],[-2,41],[-27,2],[-8,21],[-22,23],[9,48]],[[5674,14712],[-14,-737],[12,-74],[28,-54],[354,-496],[44,-73],[59,-125]],[[6157,13153],[-7,-3],[-214,6]],[[5936,13156],[2,66],[-33,13],[-31,-6],[-45,23],[-58,13],[-48,-7],[-43,15],[-19,13],[-46,78],[-21,25],[-51,13],[-41,21],[-24,20],[-64,-3],[-43,-6],[-47,4],[-40,29],[-103,59],[-6,21],[-23,32],[-24,18],[-26,34],[-45,-9],[-10,-16],[-26,-5],[-34,-16],[-19,-29],[-16,-54],[-1,-89],[12,-23],[-6,-18],[-29,-13],[-39,-37],[-50,-14],[-15,46],[5,29]],[[4829,13383],[-1,33],[-21,6],[-22,23],[3,17],[27,6],[-22,51],[-1,17],[17,39],[1,76],[6,38],[-20,25],[-14,47],[28,28],[-51,61],[0,21],[19,38],[-14,57],[2,40],[-6,28],[-32,36],[-28,-6],[-25,6],[-32,22],[-13,26],[8,41],[14,27],[-2,22],[-21,38],[14,53],[-17,28],[-45,14],[7,41],[-12,33],[3,45],[-26,17],[-4,18],[20,58],[-8,23],[-31,10],[-40,34],[-44,24],[-29,5],[-62,32],[-17,-30],[-23,11],[-4,31],[-19,32],[-36,3],[-14,36],[-45,26],[-33,-8],[-23,38],[-1,37],[-10,11],[-32,6],[2,38],[-45,-7],[-18,18],[-34,-5],[-35,6],[-26,32],[-53,19]],[[3889,14975],[45,87],[30,22],[29,-1]],[[5936,13156],[-123,3]],[[5813,13159],[-5,4],[-162,3],[-4,-169],[-20,1],[-62,74],[-4,-188],[2,-3],[-88,-98],[-46,-5],[-31,-64],[-14,-16],[-48,-37],[-22,-25],[42,-4],[35,9],[95,39],[31,8],[39,-2],[2,-25],[18,-36],[113,-114],[24,-43],[6,-72]],[[5714,12396],[-8,-387]],[[5706,12009],[-163,4],[-4,-5],[0,-93],[-4,-6],[-76,3],[-9,-11],[-3,-133],[-9,-9],[-198,-62],[-120,-72],[-24,-6]],[[4453,11884],[8,42],[-17,36],[22,11],[-5,23],[24,9],[15,37],[-24,3],[4,21],[30,36],[3,27],[23,18],[-27,58],[39,60],[-15,14],[11,20],[-5,44],[21,61],[-6,76],[33,31],[-15,25],[18,9],[-11,37],[-21,-6],[-13,11],[8,33],[30,6],[-9,20],[9,24],[33,-10],[14,21],[-4,32],[14,13],[26,1],[25,16],[27,-20],[10,30],[35,62],[4,57],[27,66],[9,46],[-6,26],[-22,1],[-8,28],[12,31],[-2,42],[14,10],[8,99],[20,41],[12,39],[-8,56],[6,26]],[[5132,8586],[-59,19],[-36,0],[-44,8],[-54,0],[-42,21],[-40,11],[-44,-5],[-54,-22],[-54,8],[-102,53],[-30,53],[-30,38],[-20,10],[-38,5],[-50,0],[-32,11],[-62,101],[-26,21],[-62,35],[-58,63],[-40,51],[-50,82],[-12,55],[0,67],[-6,31],[-22,35],[-64,42],[-16,32],[8,29],[22,22],[24,50],[-6,32],[-18,45],[18,26],[34,-2],[46,-19],[16,29],[-4,32],[-34,29],[-20,35],[-12,42],[4,32],[24,45],[-10,45],[-20,19],[-30,8],[-21,25],[-15,32],[-25,26],[-23,58],[-41,54],[-70,3],[-30,19],[-60,79],[-4,68],[-22,31],[-27,7],[12,20],[25,-5],[24,-31],[47,-3],[8,42],[-25,1],[-12,-17],[-17,8],[2,36],[34,34],[-11,54],[-23,41],[-1,25]],[[7503,13107],[18,-29],[3,-52],[30,-57],[-5,-22],[-37,-28],[-5,-20],[12,-20],[53,-4],[51,-65],[52,-24],[11,-38],[17,-12],[15,23],[21,-2],[48,-23],[14,-23],[21,-72],[-53,-55],[-9,-22],[8,-37],[30,-24],[23,2]],[[7481,12165],[4,166],[-76,-89],[-29,-24],[-181,-117],[-47,-16],[-245,23],[-44,-14]],[[6863,12094],[50,47],[-99,166],[44,40],[-9,19],[38,15],[15,12],[9,38],[41,28],[30,35],[60,16],[32,-8],[47,6],[23,9],[5,28],[22,59],[20,30],[27,18],[2,14],[32,38],[17,61],[3,70],[19,15],[4,46],[22,16],[42,2],[61,54],[9,39],[-3,48],[22,15],[35,8],[20,29]],[[6289,12883],[94,75],[35,22],[44,43],[59,21],[118,47],[42,10],[71,-17],[160,-12],[17,0],[312,60],[16,8],[47,42],[77,0],[30,17],[-2,44],[5,19],[50,33],[39,-32],[12,-36],[16,-16],[10,-33],[-17,-22],[-25,-7]],[[7499,13149],[-16,-3],[-1,-28],[21,-11]],[[6863,12094],[-85,-75]],[[6778,12019],[-279,352],[-38,71],[-89,266],[-23,56],[-60,119]],[[6275,13914],[4,5],[386,275],[50,28],[34,13],[614,208]],[[7363,14443],[9,-66],[-16,-61],[3,-16],[46,-24],[9,-29],[-3,-27],[-23,-51],[-18,-25],[8,-35],[33,-30],[10,-69],[-1,-38],[-18,-33],[-1,-43],[25,-73],[37,-23],[4,-11],[10,-98],[12,-22],[25,-82],[46,-71],[1,-29],[-32,-21],[-6,-63],[-17,-30],[52,-36],[15,-65],[17,-13],[27,6],[19,-6],[22,-37],[-6,-23],[-39,-1],[-20,10],[-21,-6],[-22,-47],[-24,-10],[-27,4]],[[6289,12883],[-34,67]],[[6255,12950],[-25,94],[-3,78],[124,621],[2,20],[-14,46],[-64,105]],[[7474,11764],[-284,3],[-70,-10],[-68,16],[-55,8],[-115,5]],[[6882,11786],[-42,140],[-23,42],[-39,51]],[[6955,11590],[-42,94],[-31,102]],[[6465,11316],[233,-7],[-3,-95],[84,-3]],[[6434,10836],[6,253],[3,44],[22,183]],[[6400,11803],[482,-17]],[[6465,11316],[37,291],[-108,4],[6,192]],[[6128,11996],[37,-21],[62,-64],[75,-54],[43,-41],[55,-13]],[[6174,10843],[2,112],[-5,71],[3,45],[-54,62],[-29,79]],[[2928,23132],[-72,-356],[2,-67],[132,-439],[8,-59],[-4,-38],[-39,-280],[-10,-130],[-8,-318],[12,-70],[15,-29],[97,-159],[25,-44],[7,-32],[19,-280],[-3,-35],[-36,-161],[-1,-23],[16,-47],[74,-109],[34,-33],[104,-58],[18,-13],[93,-88],[65,-40],[191,-78],[29,-26],[49,-70],[15,-32],[34,-121],[20,-56],[38,-75],[9,-38],[-16,-272],[3,-28],[12,-35],[129,-296],[6,-36],[-3,-195],[-8,-381],[5,-32],[20,-39],[129,-175],[22,-38],[22,-59]],[[4182,18142],[-41,4],[-17,-5],[-113,92],[-31,-4],[-7,-11],[1,-96],[-18,-50],[-7,-53],[11,-47],[-4,-36],[3,-77],[-4,-31],[11,-24],[11,-50],[-3,-81],[-12,-28],[8,-33],[1,-48],[9,-60],[4,-67],[-9,-37],[-32,-25],[-11,-51],[-44,-36],[-15,-19],[-47,-30],[-34,5],[-26,-4],[-20,-17],[-1,-24],[16,-50],[-1,-37],[-10,-38],[0,-39],[-14,-21],[0,-24],[-18,-45],[-21,-20],[-22,-42],[-3,-44],[14,-33],[-9,-24],[1,-38],[-11,-36],[11,-36],[-11,-32],[8,-29],[-19,-58],[-75,47],[-43,-1],[-24,19],[-5,38],[-45,-5],[-26,8],[-26,25],[-8,28],[-66,28],[-18,13],[-9,26],[-16,13],[-8,45],[-40,41],[-7,17],[-37,22],[-45,-21],[-32,110],[-57,45],[-25,52],[-42,28],[-46,44],[-43,-16],[-21,3],[-41,18],[-17,-46],[10,-15],[-36,-16],[-28,2],[-42,-28],[-18,10],[-44,-40],[-11,-27],[-57,-74],[-33,-32],[-17,-35],[-22,-20],[-1,-22],[-20,-43],[-28,-38],[-4,-25],[-41,-38],[-12,-44],[3,-58],[10,-75],[-4,-31],[30,-45],[-2,-52],[6,-16],[43,-32],[45,-46],[50,-26],[26,-24],[28,-70],[63,-75],[8,-25],[-1,-59],[7,-34],[-8,-49],[1,-37],[-7,-37],[2,-69]],[[2730,15789],[-15,-9],[-49,10],[-29,27],[-6,46],[-37,21],[-7,50],[-24,7],[-21,27],[-22,7],[-1,32],[-14,51],[-21,14],[-1,31],[-25,23],[-24,-16],[-36,0],[-5,30],[-33,-3],[-22,21],[-7,29],[-23,8],[-29,31],[-41,4],[-25,27],[-21,9],[-13,31],[-45,11],[-10,12],[-33,5],[14,27],[-30,26],[-30,-2],[-2,43],[20,22],[-34,47],[-4,28],[-31,26],[-4,77],[17,8],[3,32],[-17,34],[-3,77],[-13,58],[-1,25],[-17,17],[-1,24],[-52,37],[-22,52],[-24,35],[-48,83],[-3,29],[-30,3],[-4,12],[11,38],[14,126],[-13,27],[-24,11],[-11,27],[-18,-4],[-12,19],[-32,-4],[-18,41],[9,42],[-17,16],[6,19],[-39,38],[-18,-5],[-14,24],[-24,10],[-28,27],[8,24],[-43,13],[-16,38],[-23,8],[4,19],[-26,32],[-33,52],[-30,13],[-29,35],[-27,18],[-1,36],[-47,12],[-23,-10],[-17,36],[2,26],[-32,20],[-9,47],[-20,34],[-23,16],[4,24],[-14,25],[-25,10],[-22,46],[-54,49],[-26,4],[-30,22],[-29,3],[-26,29],[-30,8],[-18,18],[-51,2],[-28,40],[-30,5],[-26,16],[-34,39],[-29,20],[-14,21],[-14,107],[-26,51],[-6,64],[-24,46],[-47,-4],[-41,37],[-38,-3],[-20,25],[-14,-2],[-29,18],[-30,3],[-9,22],[13,12],[2,25],[-9,30],[-18,15],[2,20],[-16,35],[-39,29],[1,16],[-30,10],[-41,42],[-18,40],[-58,34],[-17,42],[1,35],[13,10],[8,29],[1,44],[11,11],[6,41],[-12,28],[-6,46],[-15,8],[-9,40],[-14,25],[-18,7],[-26,26],[-7,19],[-22,1],[-18,58],[-24,7],[-18,21],[-5,34],[34,55],[3,61],[18,21],[3,25],[34,90],[12,54],[-1,29],[11,28],[16,7],[41,50],[15,33],[16,15],[48,14],[23,26],[1,26],[16,14],[-3,69],[-26,66],[-9,62],[22,8],[3,16],[-18,33],[15,29],[26,32],[24,16],[25,6],[38,53],[2,38],[19,16],[-17,27],[17,27],[11,34],[-3,27],[21,26],[12,31],[1,61],[18,51],[29,44],[17,71],[13,15],[3,26],[13,27],[4,57],[32,72],[32,89],[29,49],[-6,20],[28,67],[0,17],[40,55],[25,6],[49,105],[20,70],[2,28],[20,62],[-6,49],[31,34],[21,13],[-5,24],[18,33],[-8,33],[3,55],[26,47],[-3,22],[22,43],[-4,15],[9,60],[-3,43],[-23,39],[-18,63],[-15,14],[-9,44],[-12,28],[4,28],[-20,94],[21,42],[3,29],[-11,32],[-6,44],[-9,24],[-30,27],[7,22],[-35,38],[-5,59],[7,13],[-16,22],[-19,59],[-2,34],[-15,54],[3,30],[115,1],[152,4],[415,-3],[270,2],[48,-2],[16,11],[558,-9],[403,2],[30,7],[202,2]],[[4182,18142],[28,-88],[19,-174],[14,-48],[20,-37],[26,-31],[74,-78],[145,-142],[24,-27],[448,-529],[34,-52],[173,-349],[30,-39],[312,-276],[26,-27],[155,-179]],[[3889,14975],[-46,63],[-20,48],[-52,29],[-18,0],[-30,28],[-1,33],[-17,27],[-21,-1],[-20,13],[-5,-25],[-15,-7],[-25,13],[-26,-22],[-22,-3],[-35,-36],[-13,39],[-27,11],[-21,37],[-23,14],[-40,10],[-14,-4],[-37,6],[-15,-15],[-15,64],[-27,19],[-4,48],[-28,2],[-20,15],[-28,-23],[-44,12],[-1,15],[24,13],[0,20],[-19,28],[3,30],[-34,18],[-43,-9],[-19,58],[11,23],[27,0],[7,17],[-30,33],[-48,74],[-13,-11],[-13,-36],[-28,10],[3,25],[-42,35],[-21,4],[-23,-18],[-13,27],[-44,13],[-10,33],[-23,-18],[-28,-2],[-43,16],[-24,-6],[-6,27]],[[2928,23132],[93,3]],[[3021,23135],[-10,-66],[-15,-28],[-13,-69],[-11,-26],[-1,-44],[8,-63],[-13,-64],[18,-47],[27,14],[13,-9],[-14,-55],[0,-33],[30,0],[19,-25],[48,-21],[24,-36],[25,-10],[13,-24],[7,-60],[28,-31],[27,-10],[37,-28],[20,-29],[21,-63],[31,-39],[6,-43],[12,-14],[30,-83],[32,-49],[6,-55],[39,-41],[29,-61],[0,-44],[20,-37],[-3,-40],[14,-40],[-1,-40],[-10,-65],[-14,-23],[-9,-52],[7,-24],[0,-48],[25,-86],[120,-71],[2,-21],[43,-34],[73,-16],[28,-21],[27,-9],[33,-42],[0,-22],[17,-12],[11,59],[22,38],[57,57],[50,36],[40,65],[17,41],[4,34],[11,145],[14,53],[205,-10],[-7,-30],[-5,-218],[44,-40],[79,1],[126,-4],[4,-5],[-2,-88],[7,-3],[251,-7],[254,-4],[27,-30],[9,-34],[-3,-124]],[[5081,21108],[-3,-154],[2,-29],[36,-217],[-201,8],[-36,-10],[-52,-35],[-24,-22],[-42,-49],[-30,-13],[4,-42],[31,-59],[10,-64],[-2,-29],[-24,-111],[29,-91],[0,-58],[12,-73],[21,-28],[8,-30],[-5,-75],[10,-102],[-4,-106],[-18,-74],[-24,-40],[8,-45],[22,-38],[4,-68],[16,-41],[9,-51],[-3,-48],[4,-143],[22,-26],[2,-20],[28,-45],[-2,-35],[17,-34],[38,-49],[13,-31],[11,-60],[0,-45],[13,-36],[-11,-5],[1,-67],[-9,-14],[28,-17],[28,-72],[38,-31],[5,-20],[39,-73],[-3,-14],[24,-66],[-7,-25],[10,-34],[44,-46],[-11,-16],[9,-22],[23,0],[-2,-31],[29,-23],[18,-27],[0,-28],[17,-36],[13,-47],[16,-21],[37,29],[28,-2],[26,20],[24,35],[21,16],[6,31],[20,35],[30,20],[60,83],[24,18],[49,5],[-12,78],[-11,43],[14,39],[40,7],[47,26],[22,-28],[80,-146],[44,-156],[2,-56],[35,30],[24,-12],[41,8],[7,29],[15,12],[22,-69],[20,3],[64,-40],[13,-23],[41,-20],[-8,88],[29,26],[55,-17],[41,-1],[11,7],[14,46],[52,-20],[39,-54],[-4,-25],[16,-15],[30,-4],[12,-29],[18,-14],[-7,-19],[-23,-12],[-11,-31],[-33,-13],[-19,-23],[-14,-45],[22,-27],[7,-70],[17,-40],[49,-19],[5,-22],[-8,-35],[7,-23],[25,-40],[12,-75],[-9,-36],[-20,-26],[11,-35],[37,-23]],[[6466,17444],[17,-21],[22,-2],[10,-24],[-3,-33],[-15,-52],[10,-45],[14,-22],[29,6],[19,37],[24,-9],[-7,-34],[-39,-23],[-37,-32],[-18,-25],[-7,-33],[27,-32],[34,0],[35,-9],[18,-44],[5,-49],[9,-30],[24,0],[18,42],[26,11],[27,-16],[-9,-31],[5,-43],[-42,5],[-27,-25],[-25,11],[-17,-75],[22,-20],[18,18],[23,-7],[-10,-24],[-33,-48],[-17,15],[-2,22],[-18,7],[-28,-21],[6,-68],[28,-19],[-1,-16],[-32,-34],[-27,7],[-32,-58],[-3,-27],[16,-54],[-12,-46],[16,-28],[21,4],[6,-25],[-17,-15],[-36,-15],[-7,-27],[32,-31],[-4,-28],[-17,-7],[-19,26],[-17,-20],[21,-72],[-25,-15],[12,-23],[-9,-45]],[[6448,16153],[-16,-7],[-23,15],[-7,62],[-12,61],[19,75],[-12,15],[-107,-10],[-37,11],[-48,60],[-33,-8],[-97,-93],[-27,-6],[-47,7],[-31,-2],[-34,-23],[-53,-52],[-22,-5],[-124,2],[-21,-16],[-6,-173]],[[3021,23135],[131,-7],[195,0],[9,3],[103,-2],[54,6],[21,-6],[170,-2],[100,2],[186,-1],[79,-3],[115,0],[211,8],[802,-2],[90,10],[53,-12],[133,-2],[112,1],[154,11]],[[5754,22028],[-38,-34],[-61,-72],[-67,-48],[-233,-100],[-54,-5],[-3,-106],[-39,-264],[-3,-79],[1,-38],[-23,-25],[-38,9],[-13,-12],[-102,-146]],[[6895,20783],[-8,-31],[77,-84],[24,-38],[4,-50],[-16,-178],[51,-48],[7,-12],[-3,-38],[-16,-46],[-8,-43],[-16,-14],[-70,-18],[-44,-30],[-61,-32],[-17,-30],[-55,-35],[-16,-20],[-1,-21],[35,-27],[2,-24],[-42,-20],[-1,-57],[-16,-20],[5,-36],[33,-18],[1,-44],[-24,-42],[-41,-40],[-13,-36],[0,-87],[-18,-10],[-56,-1],[-58,38],[-20,-18],[-1,-59],[-21,-41],[7,-48],[-15,-86],[-39,-93],[-27,-72],[6,-39],[43,-11],[54,9],[35,27],[25,-27],[-2,-22],[-27,-32],[-14,-33],[-1,-24],[28,-39],[81,19],[23,-19],[1,-22],[-40,-23],[-2,-36],[56,-35],[15,-55],[-9,-18],[-44,-12],[0,-34],[17,-36],[-4,-57],[6,-31],[26,3],[38,-20],[17,-38],[12,-44],[-9,-92],[0,-102],[10,-48],[41,-49],[35,-24],[6,-29],[-23,-37],[-51,-32],[-3,-43],[-16,-68],[-24,-64],[-14,-18],[-29,-3],[-18,13],[-21,-3],[-19,-59],[-22,-2],[-14,-21],[-8,-133],[17,-33],[38,-4],[11,-12],[13,-41],[-7,-19],[-42,-9],[-15,38],[-18,18],[-18,-1],[-37,-26],[-15,-23],[27,-25],[45,9],[12,-12],[-5,-26],[-34,5],[-45,-25],[-47,-1],[-16,-26],[21,-24],[2,-30]],[[6448,16153],[31,-86],[19,-42],[12,-44],[17,-37],[25,-27],[47,-64],[32,-28],[20,-2],[17,-24],[-25,-55],[34,5],[23,10],[33,-9],[4,-45],[63,-2],[11,23],[-12,25],[-17,3],[0,30],[34,6],[30,-14],[-9,-29],[3,-23],[18,-3],[14,24],[33,38],[18,0],[23,-39],[42,0],[38,11],[53,-11],[19,-50],[22,-26],[38,-5],[9,-14],[-18,-46],[19,-16],[34,15],[-8,37],[1,27],[31,27],[18,-3],[8,-30],[-18,-39],[14,-28],[45,-18],[16,-34],[4,-62],[13,-40],[2,-42],[-17,-33],[-22,-22],[-3,-24],[49,-25],[5,-34],[-27,-37],[-37,5],[-30,19],[-12,-51],[2,-23],[16,-20],[9,-33],[-16,-39],[38,-13],[9,-22],[-3,-42],[45,-49],[47,-13],[6,-28],[-35,-26],[-5,-19],[23,-6],[10,-16],[-5,-36],[-34,-94],[-16,-22],[-6,-31],[45,-12],[6,-41],[-34,-63],[-2,-22],[28,-13],[1,-69]],[[6275,13914],[-20,46],[2,175],[6,125],[21,104],[32,244],[-5,44]],[[3351,5496],[48,13],[38,18],[34,32],[40,48],[48,71],[64,85],[28,32],[24,40],[6,37],[-6,66],[0,64],[-6,79],[-8,48],[-6,138],[6,56],[0,50],[8,34],[40,77],[130,135],[21,30],[39,69],[28,61],[0,15],[-34,75],[-14,55],[-6,51],[10,77],[24,53],[52,71],[52,35],[16,37],[12,53],[41,106]],[[5813,13159],[-6,-382],[-2,-54]],[[5805,12723],[-7,-320],[-5,-10],[-79,3]],[[6061,12784],[71,15],[52,20],[105,64]],[[6128,11996],[4,209],[2,190],[4,156],[-11,45],[-52,60],[-12,20],[67,-2],[-2,32],[-26,25],[-42,20],[1,33]],[[5805,12723],[206,50],[50,11]],[[6157,13153],[41,-92],[57,-111]],[[14321,6397],[0,-124],[3,-1103],[7,-2728],[-139,-41],[-69,-16],[-368,-92],[-290,-62],[-336,-72],[-539,-128],[-139,-28],[-364,-93],[-166,-47],[-352,-90],[-1004,-247],[-269,-66],[-271,-55],[-436,-67],[-344,-69],[-148,-25],[-437,-65],[-482,-66],[-177,-19],[-195,-13],[-129,-14],[-146,-9],[-133,-5],[-119,0],[-159,9],[-136,14],[-86,12],[-165,27],[-93,19],[-256,-66],[-330,-97],[-90,-26],[-191,-68],[-206,-71],[-124,-39],[-84,-24],[-265,-68],[-64,-11],[-186,-43],[-65,-13],[-534,-102],[-244,-61],[-145,-32],[-130,-40],[-105,-30],[-97,-25],[-322,-74],[-151,-34],[-26,-14],[-194,-52],[-146,-47],[-113,-34],[-243,-63],[0,855],[0,1155],[0,747],[-2,548],[2,711]],[[7326,8599],[53,37],[29,12],[-14,42],[-27,40],[-24,91]],[[7558,8387],[-45,-28]],[[7409,7937],[-41,25],[-64,58],[-59,71]],[[8838,7821],[10,31],[23,6],[39,-11],[36,24],[-15,90]],[[8931,7961],[0,27],[-25,68],[65,55],[20,78],[-10,39],[-48,61],[-7,64]],[[8926,8353],[33,-6],[96,-10]],[[9055,8337],[-8,-100],[5,-53]],[[9052,8184],[-15,-78],[178,-17],[-11,-37],[-25,-56],[491,-360]],[[9670,7636],[-11,-25],[-186,-185],[-422,-288]],[[9052,8184],[142,-15],[24,39],[5,47],[-4,76]],[[9803,8005],[-66,-216],[-67,-153]],[[7276,8895],[14,5]],[[8704,8647],[98,-69],[62,-47],[105,-51],[-27,-74],[-16,-53]],[[8931,7961],[-30,4],[-50,-9],[-22,125],[29,12],[-16,93]],[[8842,8186],[92,-15],[-14,82],[-19,0],[-15,86],[13,40],[-5,29],[-175,-40]],[[8842,8186],[-89,-18]],[[8566,8945],[31,-30],[18,0],[29,-19],[23,15],[130,-191],[26,-48]],[[8823,8672],[29,-46],[152,-100],[14,-12]],[[9282,9310],[-96,59],[-47,20],[-32,5],[12,26],[-71,44],[63,139]],[[8957,8826],[-55,92],[-47,42],[-93,49],[-52,32],[-41,8],[-39,-20]],[[8949,8814],[-60,6],[-3,-47],[-38,4],[-3,-48],[13,-33],[-35,-24]]],"transform":{"scale":[0.000049993580350289785,0.00003771747484779131],"translate":[-87.634788,30.12553]},"objects":{"Geometry\\12-033":{"type":"GeometryCollection","geometries":[{"arcs":[[0,1,2,3,4,5]],"type":"Polygon","properties":{"GEOID":"120330035123"}},{"arcs":[[6,7,8,9,10]],"type":"Polygon","properties":{"GEOID":"120330035112"}},{"arcs":[[11,12,13,14,15,16,17,18]],"type":"Polygon","properties":{"GEOID":"120330018002"}},{"arcs":[[19,20,21,22]],"type":"Polygon","properties":{"GEOID":"120330030022"}},{"arcs":[[23,24,25,26,27]],"type":"Polygon","properties":{"GEOID":"120330006002"}},{"arcs":[[28,29,30]],"type":"Polygon","properties":{"GEOID":"120330033112"}},{"arcs":[[-10,31,32,-3,33]],"type":"Polygon","properties":{"GEOID":"120330035111"}},{"arcs":[[-33,34,35,36,-4]],"type":"Polygon","properties":{"GEOID":"120330035122"}},{"arcs":[[37,38,39,-26,40]],"type":"Polygon","properties":{"GEOID":"120330008023"}},{"arcs":[[41,42,43,44,45,46,47]],"type":"Polygon","properties":{"GEOID":"120330035091"}},{"arcs":[[48,49,50,51,52]],"type":"Polygon","properties":{"GEOID":"120330033012"}},{"arcs":[[53,54,55,56,57]],"type":"Polygon","properties":{"GEOID":"120330026061"}},{"arcs":[[58,59,60,61,62]],"type":"Polygon","properties":{"GEOID":"120330026072"}},{"arcs":[[63,64,65,66,-41,-25,67]],"type":"Polygon","properties":{"GEOID":"120330008022"}},{"arcs":[[68,69,70,71]],"type":"Polygon","properties":{"GEOID":"120330032034"}},{"arcs":[[72,73,-39,74,75,76,77,78]],"type":"Polygon","properties":{"GEOID":"120330008011"}},{"arcs":[[79,-61,80,81,82,-56]],"type":"Polygon","properties":{"GEOID":"120330026062"}},{"arcs":[[83,84,85,86,87]],"type":"Polygon","properties":{"GEOID":"120330036113"}},{"arcs":[[-87,88,89,90]],"type":"Polygon","properties":{"GEOID":"120330034004"}},{"arcs":[[91,92,-20,93,94]],"type":"Polygon","properties":{"GEOID":"120330030012"}},{"arcs":[[-27,-40,-74,95]],"type":"Polygon","properties":{"GEOID":"120330008012"}},{"arcs":[[-67,96,97,-75,-38]],"type":"Polygon","properties":{"GEOID":"120330008021"}},{"arcs":[[98,99,100,101]],"type":"Polygon","properties":{"GEOID":"120330036103"}},{"arcs":[[102,103,104]],"type":"Polygon","properties":{"GEOID":"120330033132"}},{"arcs":[[-46,105,106,107,108,109]],"type":"Polygon","properties":{"GEOID":"120330035101"}},{"arcs":[[-93,110,111,112,-21]],"type":"Polygon","properties":{"GEOID":"120330030011"}},{"arcs":[[113,114,115,116,117,118,119]],"type":"Polygon","properties":{"GEOID":"120330033082"}},{"arcs":[[-9,120,121,122,123,-35,-32]],"type":"Polygon","properties":{"GEOID":"120330035121"}},{"arcs":[[124,125,126,127]],"type":"Polygon","properties":{"GEOID":"120330038003"}},{"arcs":[[128,129,-48,130,131,132]],"type":"Polygon","properties":{"GEOID":"120330035092"}},{"arcs":[[133,134,135,136,137]],"type":"Polygon","properties":{"GEOID":"120330033131"}},{"arcs":[[-104,-137,138,139,140]],"type":"Polygon","properties":{"GEOID":"120330033122"}},{"arcs":[[141,142,-134,143,-118]],"type":"Polygon","properties":{"GEOID":"120330033083"}},{"arcs":[[-144,-138,-103,144]],"type":"Polygon","properties":{"GEOID":"120330033133"}},{"arcs":[[-47,-110,145,146,-131]],"type":"Polygon","properties":{"GEOID":"120330035102"}},{"arcs":[[147,148,149,150,151,152]],"type":"Polygon","properties":{"GEOID":"120330032013"}},{"arcs":[[153,-152,154,-29,155,156]],"type":"Polygon","properties":{"GEOID":"120330033101"}},{"arcs":[[157,-156,-31,158,159,-135]],"type":"Polygon","properties":{"GEOID":"120330033111"}},{"arcs":[[-30,-155,160,-95,161,-159]],"type":"Polygon","properties":{"GEOID":"120330033113"}},{"arcs":[[-94,-23,162,163,164,165,166]],"type":"Polygon","properties":{"GEOID":"120330030021"}},{"arcs":[[167,168,-157,-158,-143,169,170]],"type":"Polygon","properties":{"GEOID":"120330033102"}},{"arcs":[[171,172,173]],"type":"Polygon","properties":{"GEOID":"120330036123"}},{"arcs":[[174,-62,-80,-55]],"type":"Polygon","properties":{"GEOID":"120330026071"}},{"arcs":[[-140,-166,175,176,177]],"type":"Polygon","properties":{"GEOID":"120330033121"}},{"arcs":[[178,179,180,-171,181,-116,182]],"type":"Polygon","properties":{"GEOID":"120330033013"}},{"arcs":[[183,184,-49,185,186,187]],"type":"Polygon","properties":{"GEOID":"120330036034"}},{"arcs":[[-15,188,189,190,191]],"type":"Polygon","properties":{"GEOID":"120330005001"}},{"arcs":[[-5,-37,192,193,194]],"type":"Polygon","properties":{"GEOID":"120330035051"}},{"arcs":[[195,196,197,198]],"type":"Polygon","properties":{"GEOID":"120330035071"}},{"arcs":[[199,-11,-34,-2,200,-198]],"type":"Polygon","properties":{"GEOID":"120330035072"}},{"arcs":[[201,-199,-201,-1,-106,-45]],"type":"Polygon","properties":{"GEOID":"120330035073"}},{"arcs":[[202,203,204,205]],"type":"Polygon","properties":{"GEOID":"120330040002"}},{"arcs":[[206,207,208,209,210]],"type":"Polygon","properties":{"GEOID":"120330021002"}},{"arcs":[[211,-18,212,213,214,-208,215]],"type":"Polygon","properties":{"GEOID":"120330019001"}},{"arcs":[[216,217,218,219,220]],"type":"Polygon","properties":{"GEOID":"120330022002"}},{"arcs":[[221,-221,222,223,224]],"type":"Polygon","properties":{"GEOID":"120330022003"}},{"arcs":[[225,226,227,-219]],"type":"Polygon","properties":{"GEOID":"120330022004"}},{"arcs":[[228,-57,-83,229,230,231,232]],"type":"Polygon","properties":{"GEOID":"120330026021"}},{"arcs":[[233,-229,234]],"type":"Polygon","properties":{"GEOID":"120330026022"}},{"arcs":[[-146,-109,235,236,237]],"type":"Polygon","properties":{"GEOID":"120330014024"}},{"arcs":[[238,239,240,241,242,243]],"type":"Polygon","properties":{"GEOID":"120330011011"}},{"arcs":[[244,245,246,247,248,249,250,251]],"type":"Polygon","properties":{"GEOID":"120330028032"}},{"arcs":[[-237,252,253,254,255,256,257]],"type":"Polygon","properties":{"GEOID":"120330014022"}},{"arcs":[[258,259,260,261]],"type":"Polygon","properties":{"GEOID":"120330026011"}},{"arcs":[[262,263,264,-206,265,266,267]],"type":"Polygon","properties":{"GEOID":"120330040001"}},{"arcs":[[268,-204,269,-264]],"type":"Polygon","properties":{"GEOID":"120330040003"}},{"arcs":[[-260,270,271,-175,272]],"type":"Polygon","properties":{"GEOID":"120330026052"}},{"arcs":[[273,274]],"type":"Polygon","properties":{"GEOID":"120330028023"}},{"arcs":[[275,-274,276,277,-251,278,279,280,281]],"type":"Polygon","properties":{"GEOID":"120330028041"}},{"arcs":[[282,283,284,285,286,287,288]],"type":"Polygon","properties":{"GEOID":"120330017001"}},{"arcs":[[-270,-203,-265]],"type":"Polygon","properties":{"GEOID":"120330040004"}},{"arcs":[[289,290,291,-79,292,293,294]],"type":"Polygon","properties":{"GEOID":"120330001001"}},{"arcs":[[295,296,297,298,299,300,-284,301]],"type":"Polygon","properties":{"GEOID":"120330014012"}},{"arcs":[[-256,302,-296,303,304]],"type":"Polygon","properties":{"GEOID":"120330014011"}},{"arcs":[[305,306,-257,-305,307,308,-149,309,-71]],"type":"Polygon","properties":{"GEOID":"120330014021"}},{"arcs":[[310,311,312,313]],"type":"Polygon","properties":{"GEOID":"120330023003"}},{"arcs":[[-243,314,315,316]],"type":"Polygon","properties":{"GEOID":"120330011013"}},{"arcs":[[-285,-301,317,318,319,320,-13,321]],"type":"Polygon","properties":{"GEOID":"120330016001"}},{"arcs":[[322,323,-122,324,-240,325]],"type":"Polygon","properties":{"GEOID":"120330011031"}},{"arcs":[[326,327,-7,-200,-197,328]],"type":"Polygon","properties":{"GEOID":"120330036071"}},{"arcs":[[329,330,-316,331,332,333,334]],"type":"Polygon","properties":{"GEOID":"120330010013"}},{"arcs":[[335,-58,-234,336]],"type":"Polygon","properties":{"GEOID":"120330026042"}},{"arcs":[[337,338,-43,339]],"type":"Polygon","properties":{"GEOID":"120330036081"}},{"arcs":[[-86,340,-133,341,-69,-89]],"type":"Polygon","properties":{"GEOID":"120330034003"}},{"arcs":[[342,343,344,345]],"type":"Polygon","properties":{"GEOID":"120330012011"}},{"arcs":[[-315,-242,346,347,-332]],"type":"Polygon","properties":{"GEOID":"120330010011"}},{"arcs":[[348,349,350,351,352]],"type":"Polygon","properties":{"GEOID":"120330012012"}},{"arcs":[[353,-329,-196,-202,-44,-339]],"type":"Polygon","properties":{"GEOID":"120330036082"}},{"arcs":[[354,-340,-42,-130,355]],"type":"Polygon","properties":{"GEOID":"120330036091"}},{"arcs":[[356,-353,357,-346,358,-254]],"type":"Polygon","properties":{"GEOID":"120330012014"}},{"arcs":[[-17,359,360,-213]],"type":"Polygon","properties":{"GEOID":"120330004003"}},{"arcs":[[361,362,363,364,-64,365]],"type":"Polygon","properties":{"GEOID":"120330013001"}},{"arcs":[[-312,366,-224,367,-227,368,369,370,-230,-82,371]],"type":"Polygon","properties":{"GEOID":"120330023001"}},{"arcs":[[372,373,374]],"type":"Polygon","properties":{"GEOID":"120330025001"}},{"arcs":[[375,376,-314,377,378]],"type":"Polygon","properties":{"GEOID":"120330023002"}},{"arcs":[[-236,-108,379,380,-349,-357,-253]],"type":"Polygon","properties":{"GEOID":"120330012021"}},{"arcs":[[381,382,-379,383,-59,384,385]],"type":"Polygon","properties":{"GEOID":"120330027042"}},{"arcs":[[386,387,-385,-63,-272]],"type":"Polygon","properties":{"GEOID":"120330026051"}},{"arcs":[[388,-277,-275,-276,389]],"type":"Polygon","properties":{"GEOID":"120330028022"}},{"arcs":[[-250,390,-279]],"type":"Polygon","properties":{"GEOID":"120330028031"}},{"arcs":[[391,392,393,-91,394,395,-50]],"type":"Polygon","properties":{"GEOID":"120330034001"}},{"arcs":[[-220,-228,-368,-223]],"type":"Polygon","properties":{"GEOID":"120330022001"}},{"arcs":[[396,397,398,-350,-381]],"type":"Polygon","properties":{"GEOID":"120330012022"}},{"arcs":[[399,-362,400,-299,401]],"type":"Polygon","properties":{"GEOID":"120330013002"}},{"arcs":[[402,-402,-298,-344]],"type":"Polygon","properties":{"GEOID":"120330013003"}},{"arcs":[[403,-238,-258,-307]],"type":"Polygon","properties":{"GEOID":"120330014023"}},{"arcs":[[404,405,406,407]],"type":"Polygon","properties":{"GEOID":"120330011043"}},{"arcs":[[408,409,-323,410,-405,411]],"type":"Polygon","properties":{"GEOID":"120330011044"}},{"arcs":[[-287,412,-19,-212,413]],"type":"Polygon","properties":{"GEOID":"120330020001"}},{"arcs":[[-366,-68,-24,414,-319,415,-401]],"type":"Polygon","properties":{"GEOID":"120330015001"}},{"arcs":[[-371,416,-375,417,-231]],"type":"Polygon","properties":{"GEOID":"120330025002"}},{"arcs":[[-321,418,-189,-14]],"type":"Polygon","properties":{"GEOID":"120330005002"}},{"arcs":[[-416,-318,-300]],"type":"Polygon","properties":{"GEOID":"120330015002"}},{"arcs":[[419,-194,-412,-408,420,-398]],"type":"Polygon","properties":{"GEOID":"120330011041"}},{"arcs":[[-403,-343,-358,-352,421,422,423,-363,-400]],"type":"Polygon","properties":{"GEOID":"120330012013"}},{"arcs":[[-391,-249,424,-210,425,-217,-222,-280]],"type":"Polygon","properties":{"GEOID":"120330021001"}},{"arcs":[[-411,-326,426,427,-406]],"type":"Polygon","properties":{"GEOID":"120330011042"}},{"arcs":[[-286,-322,-12,-413]],"type":"Polygon","properties":{"GEOID":"120330018001"}},{"arcs":[[428,-153,-154,-169,429]],"type":"Polygon","properties":{"GEOID":"120330032042"}},{"arcs":[[-396,430,431,432,-179,433,-51]],"type":"Polygon","properties":{"GEOID":"120330032031"}},{"arcs":[[-36,-124,434,-409,-193]],"type":"Polygon","properties":{"GEOID":"120330035062"}},{"arcs":[[-123,-324,-410,-435]],"type":"Polygon","properties":{"GEOID":"120330035061"}},{"arcs":[[-209,-215,435,436,-294,437,-369,-226,-218,-426]],"type":"Polygon","properties":{"GEOID":"120330003001"}},{"arcs":[[438,-295,-437]],"type":"Polygon","properties":{"GEOID":"120330003002"}},{"arcs":[[-191,439,-291,440]],"type":"Polygon","properties":{"GEOID":"120330001002"}},{"arcs":[[-16,-192,441,-360]],"type":"Polygon","properties":{"GEOID":"120330004002"}},{"arcs":[[-395,-90,-72,442,-431]],"type":"Polygon","properties":{"GEOID":"120330032032"}},{"arcs":[[-433,443,444,-180]],"type":"Polygon","properties":{"GEOID":"120330032033"}},{"arcs":[[-361,-442,-441,-290,-439,-436,-214]],"type":"Polygon","properties":{"GEOID":"120330004001"}},{"arcs":[[445,446,447,448]],"type":"Polygon","properties":{"GEOID":"120330031002"}},{"arcs":[[-445,449,-430,-168,-181]],"type":"Polygon","properties":{"GEOID":"120330032041"}},{"arcs":[[450,451,452]],"type":"Polygon","properties":{"GEOID":"120330028011"}},{"arcs":[[453,-164,454,455,-245,456,-452]],"type":"Polygon","properties":{"GEOID":"120330029001"}},{"arcs":[[-52,-434,-183,-115,457]],"type":"Polygon","properties":{"GEOID":"120330033011"}},{"arcs":[[-119,-145,-105,-141,-178,458,459,460]],"type":"Polygon","properties":{"GEOID":"120330033051"}},{"arcs":[[-53,-458,-114,461,-186]],"type":"Polygon","properties":{"GEOID":"120330036031"}},{"arcs":[[462,-188,463,464]],"type":"Polygon","properties":{"GEOID":"120330036033"}},{"arcs":[[465,466,467,-327,-354,-338,-355,-100]],"type":"Polygon","properties":{"GEOID":"120330036083"}},{"arcs":[[468,469,-467,470]],"type":"Polygon","properties":{"GEOID":"120330036084"}},{"arcs":[[-177,471,-390,-282,-386,-388,472]],"type":"Polygon","properties":{"GEOID":"120330027041"}},{"arcs":[[-459,-473,-387,-271,-259,473]],"type":"Polygon","properties":{"GEOID":"120330027011"}},{"arcs":[[-281,-225,-367,-311,-377,474,-382]],"type":"Polygon","properties":{"GEOID":"120330027031"}},{"arcs":[[475,-453,-457,-252,-278,-389,-472]],"type":"Polygon","properties":{"GEOID":"120330028021"}},{"arcs":[[-165,-454,-451,-476,-176]],"type":"Polygon","properties":{"GEOID":"120330028012"}},{"arcs":[[-163,476,477,478,479,-455]],"type":"Polygon","properties":{"GEOID":"120330029002"}},{"arcs":[[-479,480,-247,481]],"type":"Polygon","properties":{"GEOID":"120330029003"}},{"arcs":[[-480,-482,-246,-456]],"type":"Polygon","properties":{"GEOID":"120330029004"}},{"arcs":[[-475,-376,-383]],"type":"Polygon","properties":{"GEOID":"120330027032"}},{"arcs":[[-101,-356,-129,-341,-85]],"type":"Polygon","properties":{"GEOID":"120330036092"}},{"arcs":[[-127,482,483,484,485,486]],"type":"Polygon","properties":{"GEOID":"120330036131"}},{"arcs":[[-485,487,488,489,490,-184,-463,491]],"type":"Polygon","properties":{"GEOID":"120330036132"}},{"arcs":[[-464,-187,-462,-120,-461,492]],"type":"Polygon","properties":{"GEOID":"120330036032"}},{"arcs":[[493,-469,494,495]],"type":"Polygon","properties":{"GEOID":"120330036141"}},{"arcs":[[496,497,-496,498,499]],"type":"Polygon","properties":{"GEOID":"120330036142"}},{"arcs":[[500,501,-497,502,503]],"type":"Polygon","properties":{"GEOID":"120330036143"}},{"arcs":[[-495,-471,504,505,-499]],"type":"Polygon","properties":{"GEOID":"120330036101"}},{"arcs":[[-466,-99,506,-505]],"type":"Polygon","properties":{"GEOID":"120330036102"}},{"arcs":[[507,-88,-394,508]],"type":"Polygon","properties":{"GEOID":"120330036111"}},{"arcs":[[509,-507,-102,-84,-508,510]],"type":"Polygon","properties":{"GEOID":"120330036112"}},{"arcs":[[-6,-195,-420,-397,-380,-107]],"type":"Polygon","properties":{"GEOID":"120330035052"}},{"arcs":[[511,-511,-509,-393,512,-173]],"type":"Polygon","properties":{"GEOID":"120330036122"}},{"arcs":[[513,514,515]],"type":"Polygon","properties":{"GEOID":"120330038001"}},{"arcs":[[516,-128,-487,517,-515]],"type":"Polygon","properties":{"GEOID":"120330038002"}},{"arcs":[[518,519,520,521,522,-517,-514]],"type":"Polygon","properties":{"GEOID":"120330039001"}},{"arcs":[[523,-268,524,-520]],"type":"Polygon","properties":{"GEOID":"120330039002"}},{"arcs":[[-525,-267,525,-521]],"type":"Polygon","properties":{"GEOID":"120330039003"}},{"arcs":[[526,-501,527,-125,-523]],"type":"Polygon","properties":{"GEOID":"120330039004"}},{"arcs":[[-261,-273,-54,-336,528]],"type":"Polygon","properties":{"GEOID":"120330026041"}},{"arcs":[[-384,-378,-313,-372,-81,-60]],"type":"Polygon","properties":{"GEOID":"120330024001"}},{"arcs":[[529,530,-489]],"type":"Polygon","properties":{"GEOID":"120330036133"}},{"arcs":[[531,-500,-506,-510,-512,532]],"type":"Polygon","properties":{"GEOID":"120330037001"}},{"arcs":[[-531,533,-533,-172,-490]],"type":"Polygon","properties":{"GEOID":"120330037002"}},{"arcs":[[-488,-484,534,-503,-532,-534,-530]],"type":"Polygon","properties":{"GEOID":"120330037003"}},{"arcs":[[-174,-513,-392,-185,-491]],"type":"Polygon","properties":{"GEOID":"120330036121"}},{"arcs":[[-132,-147,-404,-306,-70,-342]],"type":"Polygon","properties":{"GEOID":"120330034002"}},{"arcs":[[-126,-528,-504,-535,-483]],"type":"Polygon","properties":{"GEOID":"120330036144"}},{"arcs":[[-232,-418,-374,535]],"type":"Polygon","properties":{"GEOID":"120339900000"}},{"arcs":[[536,-448,-289,537,-112]],"type":"Polygon","properties":{"GEOID":"120330031001"}},{"arcs":[[-255,-359,-345,-297,-303]],"type":"Polygon","properties":{"GEOID":"120330014013"}},{"arcs":[[-182,-170,-142,-117]],"type":"Polygon","properties":{"GEOID":"120330033081"}},{"arcs":[[-304,-302,-283,-447,-308]],"type":"Polygon","properties":{"GEOID":"120330017002"}},{"arcs":[[-113,-538,-288,-414,-216,-207,538,-477,-22]],"type":"Polygon","properties":{"GEOID":"120330020002"}},{"arcs":[[-481,-478,-539,-211,-425,-248]],"type":"Polygon","properties":{"GEOID":"120330021003"}},{"arcs":[[-432,-443,-310,-148,-429,-450,-444]],"type":"Polygon","properties":{"GEOID":"120330032012"}},{"arcs":[[-136,-160,-162,-167,-139]],"type":"Polygon","properties":{"GEOID":"120330033071"}},{"arcs":[[539,540,541,542,543,544,-77]],"type":"Polygon","properties":{"GEOID":"120330010021"}},{"arcs":[[545,-348,546,-544]],"type":"Polygon","properties":{"GEOID":"120330010022"}},{"arcs":[[-151,547,-449,-537,-111,-92,-161]],"type":"Polygon","properties":{"GEOID":"120330031003"}},{"arcs":[[-333,-546,-543]],"type":"Polygon","properties":{"GEOID":"120330010023"}},{"arcs":[[-309,-446,-548,-150]],"type":"Polygon","properties":{"GEOID":"120330032011"}},{"arcs":[[548,-541,549,550,-65,-365]],"type":"Polygon","properties":{"GEOID":"120330009002"}},{"arcs":[[-551,551,-97,-66]],"type":"Polygon","properties":{"GEOID":"120330009003"}},{"arcs":[[552,553,-334,-542,-549,-364,-424]],"type":"Polygon","properties":{"GEOID":"120330010012"}},{"arcs":[[-552,-550,-540,-76,-98]],"type":"Polygon","properties":{"GEOID":"120330009001"}},{"arcs":[[-427,-239,554]],"type":"Polygon","properties":{"GEOID":"120330011014"}},{"arcs":[[-320,-415,-28,-96,-73,-292,-440,-190,-419]],"type":"Polygon","properties":{"GEOID":"120330006001"}},{"arcs":[[-399,-421,-407,-428,-555,-244,-317,-331,555,-422,-351]],"type":"Polygon","properties":{"GEOID":"120330011012"}},{"arcs":[[-423,-556,-330,556,-553]],"type":"Polygon","properties":{"GEOID":"120330010014"}},{"arcs":[[-557,-335,-554]],"type":"Polygon","properties":{"GEOID":"120330010015"}}]}}}