{"type":"Topology","arcs":[[[5652,6023],[4,1],[192,2]],[[5848,6026],[0,-9]],[[5848,6017],[3,-113],[3,-28],[36,-201],[13,-38],[19,-36],[24,-32],[16,-15]],[[5962,5554],[46,-36],[58,-29]],[[6066,5489],[-25,-46],[-22,-64]],[[6019,5379],[-37,7]],[[5982,5386],[-94,17],[-16,2],[-169,-7]],[[5703,5398],[-6,79],[-3,75],[15,47],[0,23],[-45,154],[-2,23],[19,142],[-7,40],[-22,42]],[[6269,6032],[151,3],[117,1],[126,10]],[[6663,6046],[112,-160],[82,-119]],[[6857,5767],[-9,-11],[31,-46],[-21,-9],[-6,10],[-60,-29],[-24,5],[-24,-42],[-27,-29],[-18,-2],[-37,30],[-36,-20],[-52,-12],[-47,-3]],[[6527,5609],[-5,34],[-9,35],[-14,37],[-16,31],[-26,37],[-35,40],[-63,52]],[[6359,5875],[-42,35],[-27,35],[-14,32],[-7,55]],[[5214,3561],[24,27],[83,128],[35,42],[428,433],[32,33]],[[5816,4224],[124,125],[18,17],[60,34],[33,10]],[[6051,4410],[-6,-33],[12,-343],[3,-71],[22,-31],[93,-93],[9,-13],[153,-212]],[[6337,3614],[0,-7],[53,-64],[16,-13],[51,-30]],[[6457,3500],[-31,14],[-33,-21],[-13,3],[-24,29],[-43,27],[-16,5],[-20,-3],[-23,-21],[-20,-8],[-23,-3],[-222,-3],[-93,-1],[-276,-6],[-205,-7],[-164,-4],[-18,36],[-19,24]],[[9017,3997],[297,-571]],[[9314,3426],[-90,-1],[-29,-2],[-99,1]],[[9096,3424],[-120,239],[-25,33],[-62,81],[-29,31],[-72,61],[-65,46]],[[8723,3915],[23,-8],[201,67],[70,23]],[[8749,4509],[91,-164],[177,-348]],[[8723,3915],[-41,29],[-15,21],[-9,21],[-46,87],[-2,28],[-40,77],[-26,63],[-17,71],[-20,36],[-21,50],[-8,32],[-15,38]],[[8463,4468],[114,39],[2,4],[87,27],[14,-25],[42,4],[0,-8],[27,0]],[[6910,5437],[105,24]],[[7015,5461],[149,-370],[19,-47],[70,-172]],[[7253,4872],[-47,-4],[-27,18],[-23,3],[-101,-1]],[[7055,4888],[0,229],[-133,-7],[-23,3],[-60,16],[-109,68],[-32,13],[-21,4],[-33,1],[-52,-11]],[[6592,5204],[-3,-1],[-43,102]],[[6546,5305],[77,23],[44,18],[122,59],[29,11],[58,16],[34,5]],[[6066,5489],[3,23],[21,38],[-20,18],[16,8],[19,-12],[30,-5],[16,6],[26,24],[30,13],[28,3]],[[6235,5605],[5,-32],[-1,-26],[24,-3],[24,3],[14,-24],[-7,-18],[3,-16],[73,-11],[49,3],[72,31],[28,2]],[[6519,5514],[-3,-49],[1,-41]],[[6517,5424],[3,-29],[14,-57],[12,-33]],[[6546,5305],[-44,-12],[-57,-10],[-33,-2],[-50,1],[-41,5],[-49,12]],[[6272,5299],[-134,50],[-62,19],[-57,11]],[[6527,5609],[-8,-95]],[[6235,5605],[-7,52],[2,44],[9,34],[26,50],[25,32],[25,23],[44,35]],[[7904,5750],[54,-106],[12,-10]],[[7970,5634],[17,-72],[-26,-10],[5,-64],[13,-29],[-8,-32],[-26,-16],[-77,-18],[-37,-25],[-33,-41]],[[7798,5327],[-31,21],[-32,35],[-13,33],[-1,46],[19,93],[-1,22],[-6,28],[-29,37],[-44,40],[-18,33],[-26,96],[-7,41],[-12,36]],[[7597,5888],[45,19],[20,1],[27,-8],[17,-20],[-4,-25],[-32,-33],[21,5],[21,-15],[1,-21],[-7,-16],[3,-14],[-8,-13],[37,-6],[17,-9],[17,-27],[23,13],[40,4],[8,12],[20,2],[41,13]],[[5848,6017],[27,-3],[30,-20],[29,-6],[68,3],[39,-4],[42,-12],[-13,-35],[-1,-34],[18,-60],[6,-30],[-6,-44],[-18,-30],[-20,-23],[-34,-23],[-16,-21],[-81,-14],[-5,-10],[10,-23],[25,-38],[25,-28],[-11,-8]],[[7055,4888],[-408,-5]],[[6647,4883],[-3,160]],[[6644,5043],[-4,47],[-48,114]],[[6272,5299],[-34,-79],[-44,-77]],[[6194,5143],[-12,5],[-32,-56],[-92,-86],[62,-46],[10,-19],[1,-64]],[[6131,4877],[-183,-3],[-46,-2]],[[5902,4872],[-3,195],[51,92],[9,11],[35,8],[-12,208]],[[8055,2944],[18,-187],[-3,-35],[8,-95],[4,-108],[7,-5],[7,-158],[6,-164],[7,-184],[6,-135]],[[8115,1873],[-339,236],[-35,30],[-296,296],[-78,80],[-33,41],[-18,44],[-129,335],[-10,29],[-16,28],[-13,15]],[[7148,3007],[8,3],[31,-7],[142,-26],[88,-28],[61,-10],[577,5]],[[6775,7070],[-6,-15],[20,-12],[18,-19],[2,-13],[35,-39],[1,-52],[-20,-39],[-2,-15],[-17,-18],[0,-36],[5,-11],[29,-26],[-3,-42],[16,-35],[-30,-8],[-7,-11],[-31,-19]],[[6785,6660],[-45,-9],[-11,6],[-17,-5],[-24,4],[-15,-6],[-42,-3],[-55,-20],[-36,-31],[-9,-14],[-12,-39],[-14,-11],[9,-27],[14,-28],[3,-16],[-6,-19],[-29,-6],[-19,1]],[[6477,6437],[-73,125],[-108,185],[49,16],[188,1],[95,29],[-21,46],[76,24],[-73,160],[37,16],[128,31]],[[6785,6660],[9,-21]],[[6794,6639],[24,-43],[40,-38],[32,-45],[34,-77]],[[6924,6436],[9,-32],[3,-113],[-26,2],[-33,8]],[[6877,6301],[-2,71],[-6,19],[-39,54],[-27,-12],[-28,-3],[-108,-52],[-6,-7],[17,-58],[-42,-10],[-77,-32],[13,-23],[-24,-7],[10,-15],[-15,-5]],[[6543,6221],[-101,143],[-66,96]],[[6376,6460],[10,12],[30,-2],[40,-33],[21,0]],[[6877,6301],[4,-97],[16,-40],[33,-55]],[[6930,6109],[14,-22]],[[6944,6087],[-18,-6],[-192,-29],[-71,-6]],[[6663,6046],[-120,175]],[[2251,2859],[12,-8],[53,-25],[6,-16],[17,-14],[25,-7],[13,-24],[11,-8],[6,-23],[28,-14],[39,-14],[24,-12],[26,1],[41,-5],[28,-7],[37,10],[20,-1],[11,6],[-6,28],[7,13],[59,-20],[17,16],[38,-1],[35,14],[42,-5],[10,14],[37,9],[7,-11],[36,-1],[20,15],[15,0],[13,-12],[39,-3],[13,9],[34,1],[45,-16],[19,-2],[48,6],[29,-2],[15,18],[23,-2],[11,-14],[12,-3],[50,6],[26,-7],[29,1],[35,-10],[17,-10],[29,-2],[15,9],[10,17],[33,43],[27,30],[-1,13],[11,25],[15,2],[31,39],[38,24],[16,16],[27,16],[32,4]],[[3706,2965],[35,7],[19,12],[72,25],[41,-8],[54,-3],[13,-4],[34,10],[20,25],[27,13],[17,14],[21,4],[57,21],[3,12],[33,32],[3,23],[-5,33],[-9,15],[3,51],[-15,27],[-17,19],[1,34],[15,22],[19,63],[-5,29],[30,23],[2,13],[31,13],[67,17],[36,29],[44,13],[36,17],[41,15],[20,14],[18,0],[30,24],[8,52],[22,28],[17,29],[-2,56],[4,24],[-3,26],[31,78],[16,16],[14,27],[14,40],[26,46],[4,24],[15,24],[7,69],[10,26],[-9,59],[-18,33],[99,-6],[6,39],[-24,83],[-11,110],[5,22],[62,75],[8,29],[13,67],[10,18],[17,11],[94,37],[96,72],[18,-13],[454,-257],[39,-11],[57,2]],[[5596,4554],[18,-173],[16,-33],[19,-17],[167,-107]],[[5214,3561],[-27,-20],[-153,-80],[-41,-27],[-42,-38],[-26,-30],[-104,-152],[-25,-41],[-7,-21],[-46,-257],[-18,-102],[-86,-486],[-4,-24],[-1,-48],[13,-411],[19,-584],[-2,-27],[-14,-38],[-357,-599],[-143,-240],[-59,-99],[-6,-18],[2,-34],[73,-162]],[[4160,23],[-264,-4],[-321,-5],[-66,-3],[-85,1],[-71,-2],[-97,0],[-185,-3],[-380,-5],[-178,-2],[-187,0],[-8,169],[-12,303],[-12,420],[-11,498],[-13,514],[-11,295],[-2,328],[-6,332]],[[6099,6286],[90,-58]],[[6189,6228],[35,-29],[14,-27],[29,-96],[2,-44]],[[6269,6032],[-134,-1],[-175,-3]],[[5960,6028],[-4,67],[1,25],[35,41],[47,61],[60,64]],[[5879,6519],[24,6],[46,27],[17,7],[88,24],[63,38],[21,19],[-53,33],[-24,65],[5,8],[68,32],[-36,51],[-10,8]],[[6088,6837],[13,19]],[[6101,6856],[175,-252]],[[6276,6604],[-71,-33],[-94,-58],[-112,-33],[-73,-42]],[[5926,6438],[-29,34],[-13,18],[-5,29]],[[6857,5767],[76,-111],[19,-39],[63,-156]],[[6910,5437],[11,60],[-5,25],[-27,66],[-28,18],[-28,-1],[-25,-22],[-26,-62],[-29,-32],[-37,-24],[-33,-12],[-104,-24],[-62,-5]],[[7253,4872],[85,-210],[48,-122],[45,-110]],[[7431,4430],[-107,-3],[-109,-1]],[[7215,4426],[-239,-4],[-183,0],[-191,5]],[[6602,4427],[19,85],[15,50],[-7,43],[-26,67],[0,26],[9,26],[30,54],[6,21],[-1,84]],[[7970,5634],[77,-59],[26,-53],[33,-96]],[[8106,5426],[1,-14],[55,-153],[25,-53],[11,-35],[30,-70],[19,-20],[40,-105],[20,-45],[26,-69],[4,-17]],[[8337,4845],[17,-64],[52,-154],[42,-119],[15,-40]],[[8463,4468],[-43,-14],[-50,-8],[-44,-1],[-128,0],[0,4],[-103,1]],[[8095,4450],[7,60],[-10,47],[-23,32],[-42,38],[-20,28],[-8,23],[-1,38],[12,71],[2,45],[-7,62],[-17,60],[-61,151],[-57,141],[-14,30],[-19,23],[-39,28]],[[6457,3500],[362,-212],[31,-22],[18,-20]],[[6868,3246],[133,-154],[34,-24],[55,-25],[39,-21],[19,-15]],[[8115,1873],[-2,-30],[27,-828],[30,-915],[-140,-3],[-127,-4],[-723,-17],[-102,-8],[-182,-3],[-25,-5],[-61,0],[-94,-4],[-177,-1],[-55,-2],[-495,-6],[-61,0],[-950,-13],[-733,-10],[-85,-1]],[[6223,4877],[424,6]],[[6602,4427],[-79,0],[-125,-3]],[[6398,4424],[-1,30],[-9,27],[-25,14],[-2,74],[-107,-3],[-66,0],[-1,76],[39,65],[-3,170]],[[5655,4870],[247,2]],[[6131,4877],[92,0]],[[6398,4424],[-111,-2],[-145,-1],[-48,-2],[-43,-9]],[[5596,4554],[7,49],[29,88],[5,-1],[13,50],[6,85],[-1,45]],[[6602,4427],[-37,-155],[2,-24],[62,-151],[52,-174],[10,-22],[68,-121],[4,-26],[-10,-35],[-11,-13],[-25,-20],[-19,-8],[-38,-5],[-182,-1],[-41,-9],[-100,-49]],[[7431,4430],[71,3],[183,6],[0,3],[152,5]],[[7837,4447],[4,-16],[21,1],[25,-25],[8,-29],[11,-10],[2,-27],[10,-20],[13,-42],[1,-18],[26,-18],[36,-17],[10,-41],[32,-54],[5,-25],[34,-6],[18,-17],[27,-35],[22,-4],[19,-12],[45,-4],[14,15],[-1,13],[17,0],[23,-17],[-4,-15],[18,-14],[15,-1],[19,15],[15,-24],[-24,-3],[-10,-8],[3,-25],[17,-7],[18,14],[12,-15],[-15,-14],[16,-19],[1,-13],[20,3],[12,20],[17,-7],[-4,-21],[13,-19],[-4,-15],[4,-26],[19,-28],[0,-18],[23,-19],[5,-23],[-11,-15],[-5,-19],[6,-29],[7,-6],[39,-6],[7,-7],[-10,-56],[-22,1],[-8,-11],[1,-20],[-6,-22],[16,-6],[20,-17],[10,-17],[21,-5],[14,18],[17,-5],[0,-43],[43,-15],[1,-24],[11,-30],[-13,-24],[14,-15],[7,-32],[27,-6],[-1,-24],[-8,-8]],[[8622,3314],[-62,-15],[-230,-56],[-131,-30],[12,-38],[1,-64],[-169,-18],[4,-70],[8,-79]],[[8055,2944],[-28,58],[-12,28],[-90,196]],[[7925,3226],[-41,89],[-25,49],[-28,50],[-22,45],[-25,62],[-19,61]],[[7765,3582],[-27,86],[-162,403],[-145,359]],[[7369,3524],[83,-22],[302,77],[11,3]],[[7925,3226],[-124,29],[-25,-10],[-40,-1],[-44,-14],[-113,-1],[-23,9],[-19,46],[-108,0],[-26,8],[-24,21],[-22,36],[-96,0],[-6,4],[-101,-1],[-19,7],[-15,19]],[[7120,3378],[178,72],[23,15],[48,59]],[[6868,3246],[166,98],[86,34]],[[5396,8078],[118,-206],[97,-167],[88,-154]],[[5699,7551],[-42,-25],[-54,38],[-5,-39],[11,-34],[21,-37],[-9,-26],[1,-35],[-21,-4],[1,-43],[34,-60],[-32,-15],[12,-14],[44,-78],[4,-20],[1,-75],[-16,-50]],[[5649,7034],[-24,4],[-171,21],[-38,0],[-54,-11],[-19,-1],[-70,10]],[[5273,7057],[39,190],[0,41],[-45,245],[-3,0],[-64,345],[4,0],[-15,76],[-7,101]],[[5182,8055],[37,1],[30,-13],[13,14],[36,-9],[32,8],[21,10],[28,-4],[17,16]],[[5649,7034],[279,-67],[30,0],[67,18]],[[6025,6985],[60,-105],[16,-24]],[[6088,6837],[-5,-5],[-62,-35],[-183,84],[-119,-81],[76,-76],[37,-40],[11,-28],[27,-74],[9,-63]],[[5926,6438],[87,-96]],[[6013,6342],[-430,-155],[-13,-4]],[[5570,6183],[-155,302],[-22,50],[-64,208],[-69,225],[-2,36],[10,54],[5,-1]],[[5699,7551],[326,-566]],[[7367,6258],[26,15]],[[7393,6273],[48,-42],[59,-23],[165,-59],[60,-52],[36,-66],[143,-281]],[[7597,5888],[-14,29],[-8,37],[-18,36],[-27,24],[-41,18],[-65,7],[-8,12],[1,31],[-25,18],[-58,53],[-31,41],[3,17],[17,22],[44,25]],[[6189,6228],[19,19],[69,130],[13,10],[39,9],[-1,11],[-13,20],[29,11],[32,22]],[[5655,4870],[23,330],[3,21],[23,110],[2,21],[-3,46]],[[6924,6436],[8,1],[110,34],[19,7],[136,42]],[[7197,6520],[16,-35],[-20,-2],[-28,9],[-22,-2],[12,-15],[-15,-24],[19,-40],[-9,-4],[-35,-29],[-17,-9],[-10,-17],[3,-13],[24,-22],[2,-24],[-15,-11],[-34,-10],[-16,3],[-17,28],[-16,19],[-41,-3],[2,-83],[7,-34],[33,-55],[-90,-38]],[[6775,7070],[33,48],[92,-36],[111,33],[19,14]],[[7030,7129],[13,-29],[15,-70],[41,-98],[39,-97]],[[7138,6835],[-25,1],[-48,-12],[2,-15],[28,-76],[22,-22],[19,-25],[38,-11],[5,-14],[-21,-13],[-5,-13],[15,-23],[23,-5],[9,-18],[-11,-7],[-40,-1],[-46,98],[-21,20],[-28,11],[-38,0],[-222,-71]],[[6013,6342],[86,-56]],[[5960,6028],[-112,-2]],[[5652,6023],[-82,160]],[[6276,6604],[100,-144]],[[5396,8078],[14,8],[22,-3],[17,5],[-37,18],[5,15],[60,7],[10,15],[-21,12],[-15,14],[10,19],[25,0],[31,-31],[26,1],[8,12],[-11,14],[-32,11],[-13,33],[1,19],[17,5],[32,-20],[21,8],[-1,19],[25,14],[-8,26],[22,17],[30,-3],[12,8],[4,22],[40,8],[18,11],[10,18],[8,33],[18,8],[17,0],[56,-33],[6,-20],[-8,-42],[31,-14],[31,-6],[34,-39],[11,0],[33,17],[25,-2],[22,-17],[25,-42],[18,-8],[51,11],[39,14],[51,29],[48,16],[23,4],[66,0],[40,7],[22,8],[17,13],[25,46],[28,29]],[[6455,8392],[13,-15],[46,-76],[43,-116],[34,-108],[28,-43],[28,-28],[25,-14],[60,-23],[21,-33],[21,-61],[42,-149],[24,-77],[30,-116],[4,-36],[22,-74],[16,-31],[22,-27],[33,-63],[63,-173]],[[6944,6087],[35,14],[31,6],[65,-7],[32,0],[47,9],[39,17],[25,18],[24,24],[21,38],[7,23],[93,34],[4,-5]],[[8095,4450],[-162,0],[-96,-3]],[[7369,3524],[53,68],[75,185],[1,24],[-55,147],[-228,478]],[[3706,2965],[-1,32],[-8,24],[-38,37],[-238,-6],[-22,2],[-33,14],[-18,17],[-10,29],[0,101],[-8,340],[-5,157],[-4,94],[-6,183],[-173,-3],[-5,4],[-178,-3],[-3,115],[-351,-3],[-461,-10],[2,-108],[-38,-1],[-48,-8],[-29,-12],[-346,-210],[-139,-83],[-24,-28],[-6,-23],[-11,-86],[0,-11],[17,-21],[-1,-21],[-30,-15],[-23,-25],[-2,-10],[-2,-116],[-17,-45],[-11,-37],[-1,-46],[-11,8],[-36,13],[-57,27],[-20,-1],[-5,-10],[-41,-24],[-27,-5],[-21,5],[-12,-14],[-22,-9],[-45,-33],[-15,-40],[5,-28],[-8,-23],[-13,-19],[26,-19],[15,-22],[5,-47],[-1,-29],[22,-18],[50,-6],[15,7],[26,2],[44,-4],[55,-15],[38,-23],[39,3],[39,10],[31,-11],[35,-1],[28,15],[34,2],[29,6],[12,9],[29,8],[21,20],[25,13],[37,8],[42,-8],[10,4],[39,-4],[25,-7],[33,-27],[32,-46],[7,2]],[[1949,2852],[12,-15],[-53,-8],[-52,-21],[-74,-45],[-83,-42],[-51,-27],[-74,-31],[-44,-8],[-57,-2],[-68,13],[-39,4],[-109,29],[-42,8],[-111,47],[-68,33],[-26,21],[-29,39],[-13,29],[-7,25],[-8,64],[-2,80],[-5,75],[0,35],[-11,51],[-9,21],[-19,31],[-20,21],[-11,18],[-39,48],[-13,20],[-9,70],[2,29],[-2,40],[0,59],[-2,44],[2,95],[-7,105],[-19,56],[-29,49],[-17,38],[-22,35],[-131,167],[-51,70],[-17,20],[-29,45],[-43,55],[-77,89],[-178,212],[-63,85],[-50,98],[-12,33],[-4,21],[1,56],[-15,404],[-10,433],[-4,167],[1,13],[-8,171],[-3,95],[-7,357],[-4,130],[-3,37],[-3,293],[-5,126],[-3,177],[-3,120],[467,5],[55,1],[115,0],[230,3],[231,4],[413,6],[130,1],[208,4],[5,0],[196,6],[143,4],[391,8],[336,7],[356,6],[254,3],[502,5],[321,3],[12,-1],[-7,300],[1,275],[48,-15],[23,-5],[37,-21],[19,-4],[21,-33],[32,-24],[7,-14],[47,-47],[18,-32],[30,-24],[32,-14],[51,0],[7,8],[31,2],[4,18],[10,7],[6,31],[15,15],[28,43],[5,21],[33,18],[24,19],[54,3],[86,-19],[50,-3],[26,-10],[9,9],[28,3],[0,21],[19,-2],[23,5]],[[2251,2859],[-32,6],[-8,12],[-26,-15],[-21,-32],[0,-19],[-48,-9],[-56,5],[-16,8],[-9,21],[-21,9],[-3,15],[-40,3],[-22,-11]],[[8749,4509],[-171,336]],[[8578,4845],[-143,281],[-157,319]],[[8278,5445],[-301,625],[-292,607]],[[7685,6677],[-201,451],[-83,206]],[[7401,7334],[-102,224]],[[7299,7558],[-85,188],[-120,245],[-190,463]],[[6904,8454],[1250,9],[36,-102],[71,-149],[37,-83],[34,-68],[57,-138],[56,-129],[61,-132],[19,-65],[34,-80],[108,-229],[46,-102],[32,-77],[87,-181],[65,-112],[61,-123],[60,-133],[56,-102],[56,-121],[54,-112],[36,-64],[99,-163],[61,-111],[65,-107],[35,-60],[109,-193],[109,-217],[43,-93],[25,-46],[45,-92],[62,-117],[11,-26],[407,-868],[244,-522],[-1103,-119],[-118,-1]],[[6644,5043],[-230,-4],[-42,5],[-22,11],[-71,53],[-14,8],[-71,27]],[[9096,3424],[-72,-2],[-251,-70],[-151,-38]],[[7197,6520],[77,26]],[[7274,6546],[77,-170],[24,-59]],[[7375,6317],[18,-44]],[[7401,7334],[-132,0],[-170,-4],[-81,-22]],[[7018,7308],[-17,41],[-38,125],[-3,26],[2,26],[101,20],[55,2],[181,10]],[[8106,5426],[106,2],[66,17]],[[8578,4845],[-45,-29],[-43,-12],[17,-33],[-63,2],[0,25],[6,11],[-46,37],[-67,-1]],[[7138,6835],[34,-90],[31,-52],[45,-90],[26,-57]],[[7018,7308],[66,-159],[51,-122],[21,-52],[58,-140],[20,-29],[40,-39],[8,-15],[30,-81]],[[7312,6671],[49,-130],[92,-202],[-78,-22]],[[6455,8392],[26,60],[312,2],[111,0]],[[7685,6677],[-91,0],[-22,-3],[-260,-3]]],"transform":{"scale":[0.00004572728998576266,0.000048440742053645165],"translate":[-81.52366,29.261132999999997]},"objects":{"Geometry\\12-035":{"type":"GeometryCollection","geometries":[{"arcs":[[0,1,2,3,4,5,6,7]],"type":"Polygon","properties":{"GEOID":"120350602101"}},{"arcs":[[8,9,10,11,12]],"type":"Polygon","properties":{"GEOID":"120350602121"}},{"arcs":[[13,14,15,16,17]],"type":"Polygon","properties":{"GEOID":"120350602072"}},{"arcs":[[18,19,20,21]],"type":"Polygon","properties":{"GEOID":"120350603022"}},{"arcs":[[22,-22,23,24]],"type":"Polygon","properties":{"GEOID":"120350603023"}},{"arcs":[[25,26,27,28,29,30]],"type":"Polygon","properties":{"GEOID":"120350602131"}},{"arcs":[[31,32,33,34,35,36,-5]],"type":"Polygon","properties":{"GEOID":"120350602113"}},{"arcs":[[-12,37,-33,38]],"type":"Polygon","properties":{"GEOID":"120350602111"}},{"arcs":[[39,40,41,42]],"type":"Polygon","properties":{"GEOID":"120350603012"}},{"arcs":[[43,-3]],"type":"Polygon","properties":{"GEOID":"120350602102"}},{"arcs":[[44,45,46,-29]],"type":"Polygon","properties":{"GEOID":"120350602132"}},{"arcs":[[-6,-37,47,48,49,50]],"type":"Polygon","properties":{"GEOID":"120350602141"}},{"arcs":[[51,52,53]],"type":"Polygon","properties":{"GEOID":"120350602073"}},{"arcs":[[54,55,56]],"type":"Polygon","properties":{"GEOID":"120350601042"}},{"arcs":[[-56,57,58,59,60,61,62]],"type":"Polygon","properties":{"GEOID":"120350601072"}},{"arcs":[[-61,63,64,65,66]],"type":"Polygon","properties":{"GEOID":"120350601071"}},{"arcs":[[67,68,69,-14,70,71]],"type":"Polygon","properties":{"GEOID":"120350602061"}},{"arcs":[[72,73,74,75]],"type":"Polygon","properties":{"GEOID":"120350602201"}},{"arcs":[[76,77,78,79,80]],"type":"Polygon","properties":{"GEOID":"120350602152"}},{"arcs":[[-38,-11,81,-26,82,-34]],"type":"Polygon","properties":{"GEOID":"120350602123"}},{"arcs":[[-45,-28,83,84,85,86]],"type":"Polygon","properties":{"GEOID":"120350602133"}},{"arcs":[[-41,87,88,89,90,91]],"type":"Polygon","properties":{"GEOID":"120350603013"}},{"arcs":[[-18,92,93,-53,94,-71]],"type":"Polygon","properties":{"GEOID":"120350602074"}},{"arcs":[[95,-87,96,97]],"type":"Polygon","properties":{"GEOID":"120350602181"}},{"arcs":[[98,-50,99,-98,100,-15,-70,101]],"type":"Polygon","properties":{"GEOID":"120350602182"}},{"arcs":[[-101,-97,102,-16]],"type":"Polygon","properties":{"GEOID":"120350602071"}},{"arcs":[[103,104,105,106,107,108]],"type":"Polygon","properties":{"GEOID":"120350603042"}},{"arcs":[[109,-108,110,111]],"type":"Polygon","properties":{"GEOID":"120350602083"}},{"arcs":[[-111,-107,-54,-94,112]],"type":"Polygon","properties":{"GEOID":"120350602084"}},{"arcs":[[113,114,115,116,117]],"type":"Polygon","properties":{"GEOID":"120350602162"}},{"arcs":[[-116,118,119,-78,120,-81,121,122,123]],"type":"Polygon","properties":{"GEOID":"120350602151"}},{"arcs":[[-77,-121]],"type":"Polygon","properties":{"GEOID":"120350602153"}},{"arcs":[[124,-119,-115]],"type":"Polygon","properties":{"GEOID":"120350602161"}},{"arcs":[[-83,-31,-35]],"type":"Polygon","properties":{"GEOID":"120350602122"}},{"arcs":[[125,126,-43,127]],"type":"Polygon","properties":{"GEOID":"120350603014"}},{"arcs":[[128,-62,-67,-9,-74]],"type":"Polygon","properties":{"GEOID":"120350602192"}},{"arcs":[[-7,-51,-99,129]],"type":"Polygon","properties":{"GEOID":"120350602171"}},{"arcs":[[-60,130,131,-64]],"type":"Polygon","properties":{"GEOID":"120350601032"}},{"arcs":[[132,133,134,-58,-55]],"type":"Polygon","properties":{"GEOID":"120350601052"}},{"arcs":[[-123,135,-76,136,-1,137]],"type":"Polygon","properties":{"GEOID":"120350602202"}},{"arcs":[[-80,138,-129,-73,-136,-122]],"type":"Polygon","properties":{"GEOID":"120350602191"}},{"arcs":[[139,140,-133,-57,-63,-139,-79,-120,-125,-114]],"type":"Polygon","properties":{"GEOID":"120350601041"}},{"arcs":[[-66,141,-128,-42,-92,142,-104,-84,-27,-82,-10]],"type":"Polygon","properties":{"GEOID":"120350603011"}},{"arcs":[[-85,-109,-110,143]],"type":"Polygon","properties":{"GEOID":"120350602081"}},{"arcs":[[-117,-124,-138,-8,-130,-102,-69,144,145]],"type":"Polygon","properties":{"GEOID":"120350602062"}},{"arcs":[[-68,146,-145]],"type":"Polygon","properties":{"GEOID":"120350602063"}},{"arcs":[[-19,-23,147,148,149,150,151,152,153]],"type":"Polygon","properties":{"GEOID":"120359900000"}},{"arcs":[[-36,-30,-47,154,-48]],"type":"Polygon","properties":{"GEOID":"120350602142"}},{"arcs":[[-143,-91,-24,-21,155,-105]],"type":"Polygon","properties":{"GEOID":"120350603041"}},{"arcs":[[-132,156,157,158,-126,-142,-65]],"type":"Polygon","properties":{"GEOID":"120350601031"}},{"arcs":[[-152,159,160]],"type":"Polygon","properties":{"GEOID":"120350601063"}},{"arcs":[[-137,-75,-13,-39,-32,-4,-44,-2]],"type":"Polygon","properties":{"GEOID":"120350602112"}},{"arcs":[[-155,-46,-96,-100,-49]],"type":"Polygon","properties":{"GEOID":"120350602143"}},{"arcs":[[161,-149,162,-89]],"type":"Polygon","properties":{"GEOID":"120350603031"}},{"arcs":[[163,-157,-131,-59,-135]],"type":"Polygon","properties":{"GEOID":"120350601051"}},{"arcs":[[-103,-86,-144,-112,-113,-93,-17]],"type":"Polygon","properties":{"GEOID":"120350602082"}},{"arcs":[[-153,-161,164,165,-158,-164,-134,-141,166]],"type":"Polygon","properties":{"GEOID":"120350601061"}},{"arcs":[[-151,167,-165,-160]],"type":"Polygon","properties":{"GEOID":"120350601062"}},{"arcs":[[-163,-148,-25,-90]],"type":"Polygon","properties":{"GEOID":"120350603021"}},{"arcs":[[-168,-150,-162,-88,-40,-127,-159,-166]],"type":"Polygon","properties":{"GEOID":"120350603032"}}]}}}