{"type":"Topology","arcs":[[[2412,8999],[75,-2],[38,-14],[83,-3]],[[2608,8980],[2,-29],[-11,-42],[16,-53],[15,-99]],[[2630,8757],[-158,-2]],[[2472,8755],[-60,244]],[[2206,5873],[106,3],[123,-6]],[[2435,5870],[46,1]],[[2481,5871],[-11,-97],[-39,-38],[13,-32],[-8,-29],[-20,-34],[15,-36],[-41,-39],[-9,-57],[-55,-37],[-19,7],[-24,-17],[2,-31],[-14,-11]],[[2271,5420],[1,40],[-9,38],[-32,41]],[[2231,5539],[-37,39],[-93,19],[2,91]],[[2103,5688],[12,24],[-18,39],[17,31],[37,20],[45,1],[10,70]],[[2545,10217],[43,-8],[110,-47],[55,-10]],[[2753,10152],[1,-36],[33,-8],[13,-35],[-16,-17],[-30,17],[-14,-32],[35,-98],[-3,-62],[-12,-17],[-26,0]],[[2734,9864],[0,52],[-135,0],[4,-82],[19,-36],[5,-29],[0,-136],[-23,-13],[5,-54]],[[2609,9566],[-110,-4],[-40,7],[-72,40],[-35,37],[-85,120],[-94,142],[25,19],[89,102],[67,58],[106,53],[54,40],[31,37]],[[14,8579],[37,2],[35,-11],[84,-2]],[[170,8568],[91,-111],[72,-63]],[[333,8394],[-18,-69],[-5,-71],[1,-328],[-6,-73],[4,-73]],[[309,7780],[-98,-44],[-58,-53],[-147,-122]],[[6,7561],[4,416],[-2,132],[4,218],[2,252]],[[479,8556],[30,22],[44,17],[85,49]],[[638,8644],[2,-7],[106,-22],[161,13],[13,7]],[[920,8635],[0,-107],[10,-34],[26,-32],[58,-53],[75,-47]],[[1089,8362],[6,-3]],[[1095,8359],[-176,4]],[[919,8363],[-78,21],[-30,3],[-187,46]],[[624,8433],[-44,0],[-60,-13],[-69,5],[-66,22]],[[385,8447],[32,67],[23,21],[39,21]],[[1313,7706],[6,45],[16,63],[21,45],[11,47],[-7,68],[-23,54]],[[1337,8028],[112,-2]],[[1449,8026],[-18,-218]],[[1431,7808],[-17,-218]],[[1414,7590],[-29,0],[-22,-66],[-69,-115],[-48,0],[-81,19],[-125,17],[-36,17],[-42,31]],[[962,7493],[32,46],[44,18],[66,74],[55,30],[154,9],[0,36]],[[1796,5880],[52,-1]],[[1848,5879],[118,-2],[131,2]],[[2097,5879],[109,-6]],[[2103,5688],[-65,38],[-35,-3],[-79,3],[-24,-3],[-21,14],[-29,-11],[-20,29],[-30,6],[10,46],[-14,73]],[[3940,4987],[323,-1],[161,-2],[54,-3],[100,2],[174,-3],[68,38],[52,15],[36,22],[101,87],[41,11],[82,5],[160,-2],[16,-3],[106,-78]],[[5414,5075],[-2,-398],[-317,-1],[-3,-352],[-2,-591],[-3,-367]],[[5087,3366],[-85,-47],[-39,-34],[-60,-36],[-67,-60],[-90,-8],[-75,-46],[-26,-23],[-87,-36],[-51,1],[-22,7],[-1,25],[15,22],[0,40],[-19,22],[13,57],[1,61],[19,98],[25,79],[35,43],[8,49],[-141,-106],[-34,-17],[-89,-32],[-54,-29]],[[4263,3396],[-31,15],[-50,6],[-41,-6]],[[4141,3411],[-61,248],[-15,47],[-50,90],[-40,50],[-97,90],[-19,21]],[[3859,3957],[-33,61],[-13,61],[-35,218]],[[3778,4297],[-66,264]],[[3712,4561],[15,36],[14,144]],[[3741,4741],[8,83],[-1,36],[-18,70],[-23,48]],[[3707,4978],[69,11],[164,-2]],[[3646,10332],[43,17],[80,-7],[20,24],[28,12],[47,-7],[45,-20],[65,9],[62,16],[39,25]],[[4075,10401],[39,-37]],[[4114,10364],[-18,-16],[-34,-56],[-31,-31],[-48,-36],[-32,-35],[-96,-127],[-58,-62]],[[3797,10001],[-21,-12],[-40,-1],[-110,33],[-66,26]],[[3560,10047],[16,64],[11,67],[-17,19],[-1,43],[10,30],[36,52],[31,10]],[[3797,10001],[25,-18],[50,-18],[78,3],[34,-3],[23,-38],[59,-3],[108,3],[42,-25],[225,-3]],[[4441,9899],[94,-139],[38,-105],[43,-109],[44,-122],[42,-94]],[[4702,9330],[-37,9],[-119,0],[-535,8],[-13,3],[-57,-38],[-74,-61],[-40,-16],[2,128],[-13,20],[-144,-75]],[[3672,9308],[37,24],[-11,26],[-146,-23],[3,206],[14,15],[55,2],[9,28],[-8,34],[-1,58],[-11,43],[-28,41],[2,77],[-15,69],[-15,129],[3,10]],[[3442,6628],[80,92],[23,53],[3,65],[-43,242],[-2,41]],[[3503,7121],[141,-11],[70,-13],[88,-3],[77,17]],[[3879,7111],[-19,-46],[-11,-76],[17,-70],[-12,-35],[-23,-22],[-28,-11],[-81,-12],[-33,-14],[0,-70],[221,-140],[47,-24],[11,-50]],[[3968,6541],[-38,-22],[-50,-52],[-25,-44],[-18,-67],[-40,-50]],[[3797,6306],[-49,-28],[-36,-8]],[[3712,6270],[-147,-39],[-43,-22],[-111,-94],[-50,-29],[-38,-9],[-88,0]],[[3235,6077],[1,208],[20,85],[51,101],[38,50],[97,107]],[[3879,7111],[61,78],[35,30],[109,46],[26,21],[48,54]],[[4158,7340],[61,67]],[[4219,7407],[23,-52],[27,-39],[41,-41],[30,-40],[35,-80],[22,-24]],[[4397,7131],[35,-37],[19,-38],[13,-54],[21,-34],[28,-20],[72,-18],[43,-23]],[[4628,6907],[-111,-19],[-39,-16],[-47,-30],[-14,-46],[-74,-105],[-52,-51],[-31,-17],[-85,-12],[-41,-17],[-43,-9],[-34,-35]],[[4057,6550],[-89,-9]],[[309,7780],[370,174]],[[679,7954],[186,88]],[[865,8042],[74,37],[24,-39]],[[963,8040],[7,-44],[-10,-29],[-1,-47],[-21,-44],[29,-29],[17,-114],[-4,-19],[-64,-114],[-7,-88]],[[909,7512],[-27,7],[-68,48],[-48,22],[-57,14],[-381,6]],[[328,7609],[7,50],[-6,58],[-20,63]],[[4702,9330],[41,-87]],[[4743,9243],[-85,-32],[-88,-56],[-72,-5],[-105,8],[-52,-7],[-160,0],[1,-6],[-51,-92],[-5,-262],[63,-28]],[[4189,8763],[-169,-3],[-124,0]],[[3896,8760],[-190,4]],[[3706,8764],[-62,167],[-23,33],[-200,246],[-18,28],[-17,49],[-9,49]],[[3377,9336],[188,-67],[41,4],[66,35]],[[703,9067],[207,0],[23,46],[22,6],[27,33],[67,8],[40,37],[43,30],[35,39],[-48,41],[-47,95],[-35,35],[-54,15],[-32,18],[-32,-4],[-43,-48],[-22,2],[-60,31]],[[794,9451],[119,73],[58,40],[10,-4],[154,100],[193,145],[77,52],[48,25],[69,27],[138,36],[94,5],[38,-4]],[[1792,9946],[19,-209],[13,-122],[12,-70],[33,-147]],[[1869,9398],[-6,-2],[48,-190],[19,-82],[35,-100],[81,-165],[53,-100],[33,-56]],[[2132,8703],[-43,-20],[15,-19],[14,-68],[-8,-61],[-15,-20],[-1,-65],[35,-34],[24,-10],[15,-49],[33,-9],[14,-54]],[[2215,8294],[-44,43],[-26,10],[-56,-6],[-49,36],[-23,80],[-51,50]],[[1966,8507],[-96,72],[-33,43],[-12,44],[-3,89],[-16,73],[-2,48],[-47,66],[-31,7],[-21,22],[-24,2],[-22,-81]],[[1659,8892],[-34,5],[-36,-10],[-144,-2]],[[1445,8885],[-41,3],[-98,22],[-47,53],[-55,20]],[[1204,8983],[-41,-10],[-97,-58],[-72,-63],[-65,-2],[-28,-18]],[[901,8832],[-31,29],[-78,45],[-27,21],[-31,40],[-20,47],[-11,53]],[[2436,10492],[451,-7]],[[2887,10485],[46,-120],[54,-119],[109,-233]],[[3096,10013],[-64,0],[-1,34],[-76,6],[-28,22],[-44,16],[-26,-16],[-39,61],[-14,31],[-51,-15]],[[2545,10217],[-62,11],[14,71],[-9,75],[-10,44],[-18,0],[-24,74]],[[3096,10013],[8,-18]],[[3104,9995],[-5,-35],[-19,-42],[-29,-38],[-7,-91],[-3,-175],[-3,-20]],[[3038,9594],[-90,2],[-58,17],[3,176],[-160,-2],[1,77]],[[2337,9323],[101,-2]],[[2438,9321],[41,-1],[21,38],[43,-39],[190,0],[55,2],[159,-3]],[[2947,9318],[4,-94],[-8,-65],[-3,-77]],[[2940,9082],[-3,-89],[-8,-83]],[[2929,8910],[-52,-8],[-67,15],[-40,37],[-42,20],[-31,7],[-89,-1]],[[2412,8999],[-41,166],[-34,158]],[[2947,9318],[15,56],[40,100]],[[3002,9474],[143,-53]],[[3145,9421],[-7,-58],[-25,-133],[35,-41],[4,-33],[-81,-4],[-24,-26],[-7,-43],[-100,-1]],[[1095,8359],[49,-43],[90,12],[61,0]],[[1295,8328],[218,-5]],[[1513,8323],[-38,-141],[-13,-63]],[[1462,8119],[-13,-93]],[[1337,8028],[-17,0]],[[1320,8028],[-162,-1],[-18,-3],[-51,-32],[-69,-14],[-26,9],[-31,53]],[[865,8042],[20,33],[0,70],[19,41],[13,59],[2,118]],[[5087,3366],[0,-209],[-7,-12],[-3,-119],[1,-74],[-298,1],[0,-75]],[[4780,2878],[-154,22],[-38,14],[-95,67],[-26,29],[-21,77],[-24,163],[-13,32],[-30,31],[-116,83]],[[4849,8438],[4,110]],[[4853,8548],[118,-65],[24,-8],[66,9],[33,-2]],[[5094,8482],[56,-207],[27,-120],[12,-34]],[[5189,8121],[-42,-1],[-56,14],[-39,3],[-149,-2],[-52,6]],[[4851,8141],[-39,6]],[[4812,8147],[33,112],[4,28],[0,151]],[[2886,8586],[69,-1],[48,-24],[44,5],[23,29],[-5,46],[45,19],[33,-42],[102,1],[27,15],[13,-15],[39,-5]],[[3324,8614],[-9,-18],[-9,-81],[28,-63],[3,-74],[-5,-107]],[[3332,8271],[-57,62],[-31,16],[-54,14],[-83,7],[-78,24],[-94,45],[-27,8]],[[2908,8447],[-35,2]],[[2873,8449],[1,111],[12,26]],[[2929,8910],[32,5],[39,-8]],[[3000,8907],[-14,-154],[-87,0],[12,-23],[-6,-92],[-19,-52]],[[2873,8449],[-184,5]],[[2689,8454],[-11,43],[3,36],[-37,48],[14,89],[-28,87]],[[4952,8798],[105,-213]],[[5057,8585],[20,-45],[17,-58]],[[4853,8548],[-76,48],[-22,9],[-199,7],[-60,15]],[[4496,8627],[60,124],[47,12],[32,28],[89,16],[228,-9]],[[3332,8271],[69,-66],[39,-16],[260,-4]],[[3700,8185],[-53,-232]],[[3647,7953],[-372,91],[-436,109]],[[2839,8153],[8,19],[53,73],[4,21],[4,181]],[[3647,7953],[-45,-192]],[[3602,7761],[-38,-1],[-245,11],[-199,25]],[[3120,7796],[-89,10],[-125,9]],[[2906,7815],[-8,28],[-49,87],[-2,68],[-11,32],[-46,33],[-11,21],[39,27],[21,42]],[[333,8394],[23,73]],[[356,8467],[29,-20]],[[624,8433],[2,-94],[-37,-57],[-33,-72],[38,-48],[18,-85],[4,-44],[20,-43],[43,-36]],[[909,7512],[4,-109],[-3,-46],[-23,-32],[-30,-21],[-72,-35],[-90,-52],[-44,-38],[-20,-32],[-36,-116]],[[595,7031],[-244,6],[-45,0]],[[306,7037],[5,58],[11,45],[36,86],[20,61],[20,126],[-4,55],[-43,64],[-21,44],[-2,33]],[[909,7512],[53,-19]],[[1414,7590],[-17,-176],[-19,-231]],[[1378,7183],[-7,5],[-13,-191]],[[1358,6997],[-37,14],[-71,4],[-419,10]],[[831,7025],[-236,6]],[[1543,5884],[230,-4]],[[1773,5880],[-16,-63],[6,-50],[13,-18],[5,-47],[-16,-15],[-23,-51],[-1,-25],[19,-32],[45,-45],[4,-66],[25,-53]],[[1834,5415],[10,-25],[51,-26],[29,-22],[35,-49],[24,-56],[20,-99],[9,-65],[1,-56],[-10,-56]],[[2003,4961],[-38,-87],[5,-78],[-11,-31]],[[1959,4765],[-12,-7]],[[1947,4758],[-31,38],[-95,65],[-25,26],[-45,85],[-30,64],[-18,190],[-76,124],[-9,32],[-27,148],[-11,32]],[[1580,5562],[-21,55],[11,149],[-12,69],[-15,49]],[[4221,5980],[32,-17],[50,-8],[116,14]],[[4419,5969],[27,6],[98,47],[62,19],[46,3],[216,-4],[64,2],[273,67],[131,23],[114,31]],[[5450,6163],[-7,-243],[-14,-487]],[[5429,5433],[-85,1],[-25,-29],[-42,-24],[-28,8],[-20,35],[-23,8],[-42,-16],[-22,-43],[-52,-10],[-36,37],[-46,11],[-43,2],[-67,-7],[-20,20],[-25,-7],[-62,24],[-51,-9],[-9,-16]],[[4731,5418],[-68,19],[-71,1],[-63,8],[-79,17],[-34,18],[-43,75],[-12,28],[-170,46]],[[4191,5630],[16,42],[13,72],[0,56],[7,63],[-6,117]],[[1897,10491],[194,2],[345,-1]],[[2609,9566],[115,2],[50,-11]],[[2774,9557],[-7,-16],[-56,9],[-44,-7],[-47,-23],[-40,-12],[-140,0],[0,-114],[-2,-73]],[[2337,9323],[-4,44],[1,113],[-153,-38],[-198,-19],[-43,-5],[-71,-20]],[[1792,9946],[-10,90],[7,89],[108,366]],[[275,9394],[191,-32],[48,-3],[106,25]],[[620,9384],[2,-63],[11,-39],[41,-72],[29,-143]],[[703,9067],[-78,1]],[[625,9068],[-152,3]],[[473,9071],[-97,-6]],[[376,9065],[-6,43],[-30,66]],[[340,9174],[-42,91]],[[298,9265],[-21,51],[-2,78]],[[2528,8458],[161,-4]],[[2906,7815],[-212,10]],[[2694,7825],[0,47],[-11,49]],[[2683,7921],[-44,84],[-20,29],[-116,149]],[[2503,8183],[-67,93],[-50,21],[-41,34],[-36,54],[-28,70],[-27,50]],[[2254,8505],[30,16],[25,2],[77,-29],[114,-36],[28,0]],[[1592,7797],[62,0],[69,36],[73,27],[121,10],[45,29]],[[1962,7899],[60,-58],[11,-30],[50,-43],[-11,-60],[-35,-72],[8,-21],[-26,-38]],[[2019,7577],[-69,4],[-45,22],[-60,50],[-69,38],[-53,20]],[[1723,7711],[-53,26],[-75,52],[-3,8]],[[4628,6907],[50,2],[50,-7],[84,34],[39,50],[53,45]],[[4904,7031],[16,40],[15,103]],[[4935,7174],[168,-63],[201,-91],[109,-47]],[[5413,6973],[-270,2],[-7,-294]],[[5136,6681],[-104,2],[-48,-9],[-127,-55],[-58,-33],[-53,-40],[-70,-40],[-145,-3],[-55,-6],[-130,10]],[[4346,6507],[-45,11],[-80,27],[-60,11],[-104,-6]],[[5789,7409],[81,61],[30,34],[4,42],[24,32],[51,24],[37,34],[31,55]],[[6047,7691],[-2,-313],[-14,-237],[6,-174],[-170,2]],[[5867,6969],[10,93],[-1,48],[-16,90],[-71,209]],[[620,9384],[99,33],[75,34]],[[17,9021],[49,-37],[11,-26],[32,-45]],[[109,8913],[23,-58],[-17,-88],[9,-72],[26,-38],[-5,-30],[25,-59]],[[14,8579],[3,442]],[[19,9448],[101,-29],[155,-25]],[[298,9265],[-47,-14],[-67,4],[-39,17],[-61,59],[-45,20],[-21,1]],[[18,9352],[1,96]],[[531,8755],[-2,49],[50,1],[30,23],[16,78],[0,162]],[[901,8832],[-46,-54],[-18,-11],[-66,-8],[-14,-8],[-41,-56],[-78,-51]],[[479,8556],[3,47],[32,118],[17,34]],[[2472,8755],[34,-128],[26,-111],[-4,-58]],[[2254,8505],[-122,198]],[[3145,9421],[232,-85]],[[3706,8764],[-181,-1]],[[3525,8763],[-26,47],[-79,40],[-68,42],[-150,3]],[[3202,8895],[-70,-12],[-98,14],[-34,10]],[[2906,7815],[5,-19],[27,-11],[44,-35],[22,-51],[3,-43],[13,-34]],[[3020,7622],[-318,-3]],[[2702,7619],[-12,97],[4,109]],[[3020,7622],[2,-57]],[[3022,7565],[-20,-19],[-4,-37],[-22,-36],[23,-97],[0,-102],[-12,-59],[12,-30],[23,-16],[1,-29]],[[3023,7140],[-48,19],[-65,34],[-34,11],[-53,2],[-94,-3]],[[2729,7203],[-18,153],[-1,75]],[[2710,7431],[2,75],[-4,61]],[[2708,7567],[-6,52]],[[3022,7565],[50,73],[-2,27],[21,6],[11,33],[18,92]],[[3602,7761],[3,-157]],[[3605,7604],[-4,-39],[-87,-373],[-11,-71]],[[3503,7121],[-43,-4],[-175,4],[-80,7],[-112,3]],[[3093,7131],[-70,9]],[[1320,8028],[0,-44],[-95,-1],[4,-257],[35,-13],[49,-7]],[[1089,8362],[16,25],[4,28],[58,0],[27,17],[-26,18],[-29,34],[-8,32],[10,36],[20,14],[42,11],[108,-1]],[[1311,8576],[28,-18],[88,-1],[-3,-49],[-25,-54],[-67,-30],[-22,-20],[3,-42],[-18,-34]],[[1962,7899],[65,52]],[[2027,7951],[22,12],[174,56],[60,17]],[[2283,8036],[48,-108],[-19,-22],[1,-34],[20,-19],[31,-56],[29,-15],[33,-50],[-4,-35],[-33,-29],[-17,-45],[-29,-25],[8,-19]],[[2351,7579],[8,-57],[-29,-76]],[[2330,7446],[1,-25],[-33,-43],[-2,-14],[-42,-55],[-3,-17]],[[2251,7292],[-64,22],[-40,44],[-86,188],[-42,31]],[[1462,8119],[64,5],[24,32],[54,21],[89,0],[143,-5],[52,-10],[42,-37],[48,-31],[16,-29],[33,-114]],[[1962,7899],[-98,65],[-25,-24],[-19,0],[-45,81],[-268,2],[-58,3]],[[1571,8563],[88,329]],[[1966,8507],[-189,-52],[-250,-80]],[[1527,8375],[50,186],[-6,2]],[[1513,8323],[14,52]],[[2215,8294],[-5,-78],[30,-60],[43,-120]],[[1431,7808],[78,-11],[83,0]],[[1723,7711],[-19,-52],[-19,-29],[-51,-29]],[[1634,7601],[-57,-40],[26,-17],[142,-218],[38,-55],[-2,-67]],[[1781,7204],[-41,-1],[-132,-32],[-94,-41],[-22,-3],[-114,56]],[[5136,6681],[-6,-279],[325,-4],[-5,-235]],[[4419,5969],[3,83],[-8,110],[-41,105],[-1,139],[-20,46],[-6,55]],[[306,7037],[-161,-1],[-145,3],[3,138],[3,384]],[[473,9071],[-4,-162],[-8,-10],[1,-126],[69,-18]],[[356,8467],[2,29],[-6,93],[19,58],[-1,74],[17,51],[-11,293]],[[1311,8576],[1,53]],[[1312,8629],[78,-35],[42,-6]],[[1432,8588],[91,-13],[48,-12]],[[4221,5980],[-262,156],[-57,32],[-48,44],[-57,94]],[[19,9448],[3,289],[3,539],[-1,236],[149,0],[-4,-42],[6,-127],[-3,-107],[149,0],[3,89],[-12,74],[6,36],[80,0],[3,74],[236,-1],[592,0],[317,-5],[0,-14],[351,2]],[[5229,7301],[11,20],[32,-19],[27,-3],[7,25],[26,46],[-32,16],[-24,-44],[-24,13],[-11,30],[11,46],[-16,40],[111,22]],[[5347,7493],[25,-16],[63,-63],[47,-24],[30,-4],[90,-36],[70,-20],[47,5]],[[5719,7335],[20,-56]],[[5739,7279],[-388,0],[-122,5]],[[5229,7284],[0,17]],[[3896,8760],[-17,-81],[-25,-57],[-61,-101],[-25,-58]],[[3768,8463],[-24,-90]],[[3744,8373],[-2,-9]],[[3742,8364],[-71,4],[-23,19],[-20,35],[-41,103],[-11,45],[-7,109],[-44,84]],[[3202,8895],[-4,-67],[6,-42],[18,-41],[69,-25],[26,-26],[21,-54],[-14,-26]],[[2787,4286],[78,49],[42,4],[51,-11]],[[2958,4328],[6,0]],[[2964,4328],[-2,-23],[19,-40],[28,-37],[61,-47],[51,0],[36,-33],[7,-48],[24,0],[17,-18]],[[3205,4082],[-134,-95]],[[3071,3987],[-48,-26],[-68,-21]],[[2955,3940],[1,108],[-48,21],[-37,24],[-37,15],[-49,37],[-31,13],[3,17],[34,42],[5,60],[-9,9]],[[1432,8588],[15,78],[-2,219]],[[3442,6628],[-108,-16],[-236,5]],[[3098,6617],[5,31],[-1,90],[3,115],[-15,124],[3,154]],[[4513,8175],[194,-5],[105,-23]],[[4812,8147],[-7,-54],[-1,-78],[14,-60],[-12,-52],[-40,-49],[-98,-63]],[[4668,7791],[-63,34],[-30,-17]],[[4575,7808],[-50,78],[-5,51],[2,163],[-9,75]],[[4466,8322],[75,19],[59,0],[3,85],[37,22],[37,-14],[41,7],[131,-3]],[[4513,8175],[-4,27],[-43,120]],[[5192,8747],[181,-166],[51,-64],[38,-74]],[[5462,8443],[-75,5],[-161,0],[-132,34]],[[5057,8585],[93,81],[42,81]],[[2503,8183],[-24,-58]],[[2479,8125],[-36,-33],[-67,-29],[-46,-14]],[[2330,8049],[-47,-13]],[[4057,3146],[123,-3],[48,-19],[25,1]],[[4253,3125],[20,-104],[14,-254],[10,-91]],[[4297,2676],[-108,4],[5,280],[-229,4]],[[3965,2964],[0,88],[4,12],[67,-7],[21,17],[0,72]],[[2937,4776],[80,36],[120,37],[61,6],[61,-6],[56,-23],[65,-51],[67,-24],[175,-8],[119,-2]],[[3712,4561],[-39,-9],[-71,-46],[-43,-10],[-44,-31],[-31,-55]],[[3484,4410],[-59,56],[-26,-24],[-41,-5],[-44,-34],[-81,3],[-32,-14],[-32,1],[-62,16],[-70,0],[-21,-34],[-52,-47]],[[2958,4328],[1,50],[-50,76],[-168,5],[7,259],[-390,7]],[[2358,4725],[-26,78],[93,-22],[105,2],[272,-50],[36,-1],[36,11],[63,33]],[[1834,5415],[44,24],[40,-8],[75,-2],[-3,29],[-24,24],[-4,71],[35,-4],[3,-50],[99,-1],[6,44],[85,0],[19,-17],[22,14]],[[2271,5420],[-50,-19],[-40,-35],[-3,-43],[23,-49],[22,-25],[18,-53],[-50,-65],[-25,-5],[-4,-25],[-34,-4],[-34,-32],[-61,-42],[-30,-62]],[[3240,5864],[15,-30],[42,-60],[35,-22],[98,-16],[56,-3],[104,9],[41,0]],[[3631,5742],[186,-7],[25,-5],[157,-52]],[[3999,5678],[-3,-294],[-15,-46],[-37,-44],[-5,-32],[1,-142]],[[3940,5120],[0,-133]],[[3707,4978],[-11,20],[-176,236],[-55,77]],[[3465,5311],[-195,361],[-24,135],[-6,57]],[[1816,6373],[17,-22],[89,-93],[73,-39],[87,-59],[13,-17]],[[2095,6143],[6,-36],[-4,-228]],[[1848,5879],[-8,21],[-32,19],[-8,38],[-26,43],[-15,49],[-2,33],[18,37],[7,47],[-26,82],[-4,30],[11,34],[26,13],[2,30],[25,18]],[[952,6652],[73,14],[57,-3],[48,-18],[69,50],[63,41],[39,-9]],[[1301,6727],[-79,-300]],[[1222,6427],[-46,27],[-31,6],[0,21],[-86,1],[-21,33],[-38,1],[-1,-53],[-46,1],[-1,188]],[[4668,7791],[40,-47],[5,-40],[28,-27],[90,-19],[25,26],[60,14],[46,1],[21,32],[46,13],[23,-11],[40,-45],[47,4],[16,-8]],[[5155,7684],[-8,-20],[0,-135],[-5,-18],[-39,-56],[-75,-77],[-46,-36],[-31,-38]],[[4951,7304],[-9,-29],[-7,-101]],[[4935,7174],[-221,83],[-65,34],[-257,174],[-100,71]],[[4292,7536],[57,77],[27,22],[121,55],[55,28],[116,73]],[[2320,3261],[-23,-24],[0,-33],[-26,-16],[-2,-33],[38,3],[25,-14],[3,-29],[20,-18],[3,-31],[-25,-15],[-3,-31],[31,-35],[-2,-19],[-43,-13],[-5,-14],[34,-24],[0,-23],[-27,-3],[-24,-19],[13,-29],[-6,-22],[-22,-12],[-40,-101],[-11,-44],[-25,-32],[-1,-28],[43,6],[37,-36],[42,-22],[2,-44],[18,-12],[25,-61],[-23,-62],[3,-45],[-25,-15],[-5,-48],[-22,-22]],[[2297,2241],[-43,48],[-128,94],[-74,41],[-48,38],[15,30],[-29,67],[8,32],[25,49],[3,40],[-29,63],[-26,20],[-52,8],[-65,-22],[-37,-1],[-69,9]],[[1748,2757],[1,219],[109,-16],[38,8],[15,14],[134,-1],[6,88],[-3,195],[272,-3]],[[3712,6270],[29,-267],[11,-62],[2,-57],[-53,1],[-30,-47],[3,-76],[-43,-20]],[[3240,5864],[-4,23],[-1,104]],[[3235,5991],[0,86]],[[1781,7204],[-9,-86],[-27,-137],[-36,-144]],[[1709,6837],[-60,36],[-118,30],[-53,22],[-120,72]],[[3098,6617],[10,-24],[-78,-56],[13,-198]],[[3043,6339],[-48,24],[-56,13]],[[2939,6376],[-24,136],[-21,76],[-75,169]],[[2819,6757],[15,35],[18,18],[29,1],[34,-17],[19,2],[28,33],[29,79],[-5,47],[22,52],[-8,48],[23,85]],[[4239,8129],[124,47],[150,-1]],[[4575,7808],[-35,-20],[-25,2],[-82,-13],[-49,11],[-82,35],[-7,12],[2,56],[-48,66],[-1,46],[8,31],[-24,64],[7,31]],[[2251,7292],[10,-74],[26,-36],[0,-30]],[[2287,7152],[-59,1]],[[2228,7153],[-59,28],[-30,54],[-31,8],[-21,35],[-62,14],[-29,18],[-28,50],[-35,46],[-40,14],[-27,-21],[-53,6],[-59,51],[-49,32],[-24,37],[-9,39],[-38,37]],[[1709,6837],[65,-60],[58,-28],[128,-24]],[[1960,6725],[-6,-264],[25,-16],[73,-16],[27,0],[17,15],[30,-29],[27,-106],[13,-31],[41,-66]],[[2207,6212],[-33,-20],[-56,3],[-3,-36],[-20,-16]],[[1816,6373],[-15,42],[3,152],[3,78],[-7,24],[-78,118],[-13,50]],[[6351,8798],[11,-63],[290,-5],[-1,-296],[-288,0],[3,-90],[0,-197],[-37,0]],[[6329,8147],[-47,54],[-71,48],[-36,34],[-73,96]],[[6102,8379],[-34,38],[19,21],[77,9],[71,34],[-16,42],[27,15],[72,56],[8,13],[1,50],[-9,48],[9,47],[-6,21],[30,25]],[[4189,8763],[70,-14]],[[4259,8749],[-5,-139],[-130,3],[-20,-41],[6,-32],[-6,-76],[-336,-1]],[[5331,9191],[33,-37],[41,-12],[99,-7],[333,39]],[[5837,9174],[91,-130],[116,-172],[17,-36],[55,-72],[41,-78],[-92,-59],[-122,-71],[-16,-23]],[[5927,8533],[-20,32],[-22,114],[-44,56],[-460,344]],[[5381,9079],[-97,76],[47,36]],[[17,9021],[1,331]],[[340,9174],[-104,-10],[3,-244],[-130,-7]],[[2251,7292],[145,-41],[173,-20],[44,-36],[42,-103],[20,-61],[20,-25],[58,-8]],[[2753,6998],[9,-71]],[[2762,6927],[-254,14]],[[2508,6941],[-29,-4],[-42,6],[-9,39],[-36,63],[-8,45],[-52,28],[-45,34]],[[2351,7579],[182,-5],[47,-7],[128,0]],[[2710,7431],[-380,15]],[[4851,8141],[2,-44],[50,-7],[-1,-58],[10,-9],[107,-3],[27,-6],[14,-18],[-1,-140],[55,-1],[1,-35],[-56,-1],[-12,-8],[4,-49],[65,-5],[14,-9],[48,-5]],[[5178,7743],[-17,-29],[-6,-30]],[[4951,7304],[278,-3]],[[5229,7284],[0,-32],[37,-33],[-17,-39],[10,-37],[-6,-32],[27,-7],[81,-5],[102,-36],[66,-8],[62,-21]],[[5591,7034],[59,-20],[33,-21],[-22,-23]],[[5661,6970],[-248,3]],[[901,8832],[18,-40],[2,-54]],[[921,8738],[-1,-61]],[[920,8677],[0,-42]],[[2479,8125],[18,-4],[0,-68],[59,-138]],[[2556,7915],[-80,-25],[-73,16],[-18,19],[-55,124]],[[3527,3209],[12,-12],[174,-46],[132,4],[212,-9]],[[3965,2964],[-38,-1],[-409,2],[-264,3],[-2,-182]],[[3252,2786],[-21,16],[-9,30],[-62,13],[-43,18],[-4,35],[-13,12]],[[3100,2910],[4,30],[22,82],[44,92],[34,46],[42,45],[37,22],[54,4],[125,-27],[65,5]],[[4073,10473],[257,-3]],[[4330,10470],[156,-177],[377,-425],[51,-72],[26,-57],[11,-40],[51,-367],[5,-25],[46,-329],[20,-73],[17,-35],[40,-61],[62,-62]],[[4952,8798],[-209,445]],[[4441,9899],[-269,400],[-58,65]],[[4075,10401],[-22,39],[20,33]],[[2641,3609],[103,-42],[65,-18],[68,-6],[108,-4],[118,10]],[[3103,3549],[95,6]],[[3198,3555],[123,-16],[91,-35],[70,-60],[65,-20],[42,-1]],[[3589,3423],[-1,-90],[-9,-70],[-25,-40],[-27,-14]],[[3100,2910],[-2,-23],[-38,-47],[-20,-15],[-90,-47]],[[2950,2778],[3,264],[-150,-8],[-69,-31],[-107,-6],[-34,7],[-70,45],[-47,11],[4,26],[42,139],[4,35],[36,53],[15,45],[2,39],[-12,46],[31,88],[19,26],[24,52]],[[2762,6927],[18,-77],[39,-93]],[[2939,6376],[-88,8],[-59,13],[-47,26],[-58,56],[-147,65]],[[2540,6544],[18,38],[27,32],[-3,38],[6,71],[-29,100],[14,39],[-5,28],[-39,40],[-21,11]],[[3254,10471],[47,-27],[68,-83],[41,-18],[32,0],[205,36],[-1,-47]],[[3560,10047],[-35,15]],[[3525,10062],[-47,23],[-63,44],[-47,13],[-45,-6],[-173,-1]],[[3150,10135],[76,86],[-40,3],[6,241],[41,-3],[21,9]],[[3742,8364],[-42,-179]],[[5927,8533],[-32,4],[-24,-9],[-120,-72],[-32,-12],[-97,1],[-160,-2]],[[5192,8747],[46,46],[59,39],[25,29],[47,95],[10,38],[2,85]],[[3145,9421],[25,63],[20,24],[5,86],[6,31],[68,-2],[56,25],[4,30],[3,101]],[[3332,9779],[1,55],[-40,13],[1,62],[97,8],[16,6],[96,106],[22,33]],[[5462,8443],[15,-61],[15,-86],[64,-19],[50,-21],[78,6],[24,-20],[22,21],[54,-4],[37,4],[55,-13],[43,-59],[26,-13],[54,19],[40,52],[32,14],[33,-37],[42,2],[58,-11],[29,-18],[50,-52]],[[6283,8147],[-242,2],[-2,-121],[11,-140],[-2,-93]],[[6048,7795],[-218,173],[-68,34],[-48,4],[-125,-16]],[[5589,7990],[-124,-20]],[[5465,7970],[-33,-1],[-71,12],[-40,14]],[[5321,7995],[-23,13],[-93,90],[-16,23]],[[5927,8533],[74,-77],[101,-77]],[[6329,8147],[-46,0]],[[3647,7953],[114,-36],[51,-24],[51,-31],[211,-160],[218,-166]],[[4292,7536],[-32,-42],[-41,-87]],[[4158,7340],[-43,17],[-38,58],[-18,38],[-18,-30],[-155,115],[1,56],[-143,10],[-139,0]],[[4330,10470],[1152,-14],[5,-118],[-2,-87]],[[5485,10251],[-24,-66],[-37,-138],[0,-37],[25,-166]],[[5449,9844],[-22,-86],[-39,-183],[-24,-195],[2,-36],[21,-73],[-26,-47],[-30,-33]],[[6048,7795],[-1,-104]],[[5789,7409],[-32,99],[-66,233],[-13,40],[-47,114],[-42,95]],[[1257,5618],[14,-3]],[[1271,5615],[-2,-32],[22,-13],[25,9],[43,-1],[56,31],[17,-36],[25,9],[24,-21],[99,1]],[[1947,4758],[-52,-32]],[[1895,4726],[-27,22],[-84,54],[-109,83],[-49,33],[-111,98]],[[1515,5016],[-40,54],[-12,36],[-46,80],[-20,51],[-20,137],[-18,33],[-25,20],[-53,60],[-60,46],[30,33],[-10,28],[16,24]],[[1271,5615],[29,-2],[19,16],[2,133],[-32,0],[7,83],[10,32],[51,-9],[59,19],[71,-3]],[[1487,5884],[56,0]],[[964,5840],[95,186]],[[1059,6026],[69,-30],[68,-35],[65,-54],[-41,-46],[-6,-45],[10,-24],[-18,-17],[-7,-37],[0,-67],[14,-39],[17,-16],[27,2]],[[1515,5016],[-246,4],[-92,0],[3,248],[4,39],[0,266],[-101,118],[-29,31],[-90,118]],[[1059,6026],[55,108]],[[1114,6134],[61,-30],[35,-28],[62,-40],[34,-12],[187,-18]],[[1493,6006],[-6,-122]],[[2681,5354],[41,48],[53,99]],[[2775,5501],[88,163],[35,56],[23,15],[0,30],[28,55],[-7,41]],[[2942,5861],[19,13],[42,114]],[[3003,5988],[146,3],[86,0]],[[3465,5311],[-147,-21],[-116,0],[-65,8],[-17,12],[-53,6],[-51,-8],[-41,3],[-38,14],[-35,-19],[-23,-22],[-40,-10],[-11,-43],[-21,-22],[-24,-43]],[[2783,5166],[-63,53],[-29,58],[-9,35],[-1,42]],[[3999,5678],[35,-12],[157,-36]],[[4731,5418],[8,-51],[-18,-51],[-54,-8],[-45,-36],[-36,0],[-36,-10],[-76,18],[-50,-3],[-22,-19],[-2,-40],[-29,-39],[-53,-40],[-35,-8],[-93,-31],[-64,0],[-28,9],[-33,25],[-60,11],[-65,-25]],[[5155,7684],[29,-33],[32,-22],[20,-27],[60,-32],[29,-24],[2,-30]],[[5327,7516],[20,-23]],[[5429,5433],[-2,-70],[-13,-195],[0,-93]],[[2939,6376],[17,-110],[5,-73],[-4,-74],[-50,-1],[-37,8],[-317,7]],[[2553,6133],[-19,128],[-15,59],[15,79],[-11,44],[-1,44],[18,57]],[[3589,3423],[113,0],[64,-8],[60,5]],[[3826,3420],[70,2],[50,-25],[44,-9],[118,15],[33,8]],[[4141,3411],[29,-85],[63,-145],[20,-56]],[[4780,2878],[5,-147],[-3,-72],[-485,17]],[[3003,5988],[9,42],[30,243],[1,66]],[[3596,4232],[63,40],[119,25]],[[3859,3957],[-68,-33],[-36,-3],[1,-87],[-28,-82],[32,-8],[37,-38],[1,-58],[-13,-53],[18,-118],[23,-57]],[[3589,3423],[-4,62],[-37,48],[-40,19],[-28,47],[-6,28],[8,90],[6,20],[78,67],[23,46],[7,382]],[[3700,8185],[67,-23],[63,-70],[32,-14],[156,2],[116,17]],[[4134,8097],[105,32]],[[3744,8373],[248,-4]],[[3992,8369],[3,-39],[-1,-100],[131,-2],[-9,-56],[18,-75]],[[2256,6649],[163,-55],[121,-50]],[[2553,6133],[19,-37],[-20,-41],[-21,-28],[-11,-56],[-38,-82],[-1,-18]],[[2435,5870],[-49,60],[-6,26],[7,32],[-2,72],[6,81],[-13,32],[-88,70],[-14,20]],[[2276,6263],[-10,22],[3,47],[-15,91],[2,226]],[[4259,8749],[88,-80]],[[4347,8669],[42,-74],[19,-50]],[[4408,8545],[-80,-89],[-55,-49],[-32,-19],[-71,-19],[-178,0]],[[1960,6725],[123,-22]],[[2083,6703],[76,-15],[97,-39]],[[2276,6263],[-33,-13],[-36,-38]],[[1301,6727],[40,160]],[[1341,6887],[220,-206],[-16,-100],[9,-34],[56,-47],[30,-66],[-10,-23],[60,-122],[8,-64]],[[1698,6225],[-204,-91]],[[1494,6134],[-6,82],[-39,145],[-30,61],[-197,5]],[[4408,8545],[31,-106],[4,-62],[23,-55]],[[1959,4765],[110,71],[116,60],[58,41],[167,129]],[[2410,5066],[96,71],[30,33],[56,87],[38,46],[51,51]],[[2783,5166],[8,-68],[11,-13],[82,-53],[17,-33],[25,-126],[11,-97]],[[2358,4725],[18,-69],[88,-99],[16,-66],[8,-57],[29,-52],[21,-103],[44,-103],[3,-28]],[[2585,4148],[30,-92],[3,-24],[-23,-63],[14,-16]],[[2609,3953],[-75,-36],[-56,-42],[-17,-45],[-54,-84]],[[2407,3746],[-22,9],[-97,13]],[[2288,3768],[85,80],[10,20],[-1,67],[-32,16],[-7,25],[-91,68],[-21,46],[4,39],[34,27],[14,58],[-37,42],[-25,83],[-1,48],[-23,34],[-61,47],[-36,5],[-35,26],[-10,41],[-21,24],[-40,26],[-45,71],[-14,37],[-40,28]],[[2083,6703],[2,99],[21,68],[-1,66],[-34,78],[-15,23]],[[2056,7037],[28,12],[144,104]],[[784,6360],[92,26],[65,-13],[31,7],[37,38],[65,8],[16,-7],[32,-41],[46,-17],[35,-4]],[[1203,6357],[-34,-109],[-55,-114]],[[964,5840],[-41,59],[-98,126],[-44,62],[-7,20],[-3,64],[16,120],[-3,69]],[[2170,2110],[-29,18],[-2,23],[25,31],[86,42],[47,17]],[[2297,2241],[6,-7]],[[2303,2234],[-15,-12],[-12,-59],[-53,-6],[-10,-9],[0,-40],[12,-13],[99,-15],[77,-56],[55,-28],[147,-60],[76,-67],[44,-19],[162,-35],[176,-108],[110,-80],[76,-37]],[[3247,1590],[-2,-416],[-9,-280],[2,-154],[-3,-151],[4,-191],[-3,-191],[-1,-175],[-6,-30],[-601,3],[-116,-4],[-305,0],[-22,-1],[-30,42],[14,28],[6,50],[-15,28],[-43,6],[-36,58],[-49,36],[-53,15],[-11,29],[10,54],[24,24],[21,64],[-4,45],[31,22],[-16,22],[-40,7],[-46,26],[-11,24],[39,18],[11,19],[-30,55],[-27,65],[8,13],[56,17],[20,-7],[80,12],[25,13],[89,28],[21,12],[6,28],[-22,27],[8,69],[-12,30],[-45,-20],[-52,85],[3,102],[13,45],[-50,38],[-36,1],[-62,56],[44,22],[16,57],[-44,13],[1,43],[-20,65],[42,55],[50,22],[22,-9],[18,18],[61,-25],[18,47],[27,32],[2,85],[19,19],[65,12],[7,36],[-33,8],[-56,63],[-7,34],[11,20],[-19,37],[24,93],[-46,69],[-12,8]],[[2170,2110],[-139,2],[3,67],[-4,121],[1,97],[-11,-2],[-275,5],[6,188],[-8,36],[5,133]],[[2303,2234],[90,25],[53,21],[37,35],[36,16],[94,73],[101,72],[18,68],[-3,48],[8,53],[49,59],[82,32],[82,42]],[[3252,2786],[0,-237],[-3,-135],[2,-61],[1,-395],[-4,-199],[-1,-169]],[[2407,3746],[71,-68],[83,-45],[80,-24]],[[2320,3261],[6,35],[-28,5],[-17,20],[-4,35],[-22,7],[-49,-44],[-13,32],[-26,30],[-4,88],[24,55],[26,5],[1,22],[19,41],[69,23],[19,25],[-6,32],[-32,18],[-4,38],[9,40]],[[2955,3940],[-74,-19],[-67,5],[-65,16],[-57,8],[-83,3]],[[2585,4148],[18,12],[41,4],[40,29],[16,37],[29,10],[58,46]],[[3484,4410],[-31,-57],[-19,-24],[-49,-30],[-48,-11],[-80,1],[-25,-4],[28,-41],[46,-43],[26,-33],[24,9],[16,-30]],[[3372,4147],[-85,-39],[-82,-26]],[[2410,5066],[-5,12],[1,142],[4,28],[35,35],[-4,27],[40,17],[15,19],[3,28],[-87,23],[9,33],[93,-1],[0,45],[-35,-6],[-86,2],[23,33],[65,2],[3,59],[143,-3],[-1,-44],[29,-1],[28,-13],[4,-32],[44,3],[15,23],[29,4]],[[2481,5871],[102,1],[226,-3],[133,-8]],[[1493,6006],[1,128]],[[1698,6225],[-1,-40],[7,-41],[-2,-43],[13,-36],[40,-86],[18,-99]],[[1796,5880],[-23,0]],[[1341,6887],[17,110]],[[5178,7743],[41,109],[73,79],[29,64]],[[5465,7970],[-1,-66],[12,-18],[27,-6],[65,7],[25,-18],[2,-24],[-13,-76],[1,-50],[-9,-60],[-81,-48],[-62,-46],[-9,31],[-34,0],[-8,-12],[23,-42],[-15,-18],[-61,-8]],[[743,6673],[115,0],[30,3],[26,43],[0,28],[-13,47],[11,23],[-42,31],[-35,39],[-9,25],[5,113]],[[952,6652],[-18,-34],[-43,-22],[-55,-19],[-70,-95]],[[766,6482],[-23,191]],[[2056,7037],[-49,63],[-59,20],[-26,18],[-57,55],[-34,10],[-50,1]],[[2753,6998],[-24,205]],[[5449,9844],[110,-91],[-3,-27],[42,-63],[72,-56],[18,-21],[28,-85],[46,-92],[23,-89],[28,-88],[24,-58]],[[5837,9174],[71,0],[153,10]],[[6061,9184],[-1,-159],[301,-1],[1,-80],[-11,-146]],[[2774,9557],[228,-83]],[[4496,8627],[-149,42]],[[3238,10481],[16,-10]],[[3150,10135],[-34,-79],[-12,-61]],[[2887,10485],[351,-4]],[[5739,7279],[-2,-120],[9,-15],[-49,-35],[-38,24],[-43,-57],[-25,-42]],[[5485,10251],[2,-76],[52,-3],[246,-2],[-6,-284],[294,-8],[-5,-70],[-7,-510],[0,-114]],[[1203,6357],[19,70]],[[2556,7915],[127,6]],[[1312,8629],[-34,7]],[[1278,8636],[-6,47],[0,76],[-51,-2],[-12,21]],[[1209,8778],[-1,187],[-4,18]],[[3479,4188],[72,21],[45,23]],[[3198,3555],[47,32],[69,18],[27,78],[-8,40],[12,70],[-11,48],[6,42],[36,57],[13,43],[28,40],[15,6],[36,46],[23,52],[-12,61]],[[3479,4188],[-107,-41]],[[920,8677],[65,0],[36,-8],[55,-25],[121,-7],[81,-1]],[[921,8738],[59,5],[62,-15],[63,3],[39,27],[1,19],[64,1]],[[3071,3987],[43,-80],[-10,-74],[-2,-190],[1,-94]],[[743,6673],[-12,45],[-57,123],[-33,89],[-40,71],[-6,30]],[[5719,7335],[18,12],[24,41],[28,21]],[[5867,6969],[-206,1]],[[3332,9779],[-90,0],[-15,14],[-40,-1],[-36,99],[-47,104]],[[3238,10481],[228,-3],[171,1],[436,-6]],[[784,6360],[-18,122]],[[3002,9474],[32,41],[4,79]],[[4904,7031],[-40,22],[-54,6],[-51,-9],[-58,3],[-67,23],[-16,32],[-64,19],[-51,35],[-34,-1],[-14,-12],[-41,-6],[-17,-12]]],"transform":{"scale":[0.00003229209260372719,0.00002819729832572246],"translate":[-84.458665,33.352465]},"objects":{"Geometry\\13-063":{"type":"GeometryCollection","geometries":[{"arcs":[[0,1,2,3]],"type":"Polygon","properties":{"GEOID":"130630403062"}},{"arcs":[[4,5,6,7,8,9]],"type":"Polygon","properties":{"GEOID":"130630405182"}},{"arcs":[[10,11,12,13]],"type":"Polygon","properties":{"GEOID":"130630403023"}},{"arcs":[[14,15,16,17,18]],"type":"Polygon","properties":{"GEOID":"130630405091"}},{"arcs":[[19,20,21,22,23,24,25,26]],"type":"Polygon","properties":{"GEOID":"130630405101"}},{"arcs":[[27,28,29,30,31,32]],"type":"Polygon","properties":{"GEOID":"130630405122"}},{"arcs":[[33,34,35,-10,36]],"type":"Polygon","properties":{"GEOID":"130630405181"}},{"arcs":[[37,38,39,40,41,42,43,44,45,46]],"type":"Polygon","properties":{"GEOID":"130630406061"}},{"arcs":[[47,48,49,50,51]],"type":"Polygon","properties":{"GEOID":"130630404101"}},{"arcs":[[-51,52,53,54,55]],"type":"Polygon","properties":{"GEOID":"130630404102"}},{"arcs":[[56,57,58,59,60,61,62]],"type":"Polygon","properties":{"GEOID":"130630406091"}},{"arcs":[[63,64,65,66,67,68,-59]],"type":"Polygon","properties":{"GEOID":"130630406092"}},{"arcs":[[69,70,71,72,73,74]],"type":"Polygon","properties":{"GEOID":"130630405123"}},{"arcs":[[-55,75,76,77,78,79,80]],"type":"Polygon","properties":{"GEOID":"130630404072"}},{"arcs":[[81,82,83,84,85,86,87,88,89,90,91]],"type":"Polygon","properties":{"GEOID":"130630402021"}},{"arcs":[[92,93,94,-11,95]],"type":"Polygon","properties":{"GEOID":"130630403021"}},{"arcs":[[-95,96,97,98,-12]],"type":"Polygon","properties":{"GEOID":"130630403022"}},{"arcs":[[99,100,101,102,103,-1,104]],"type":"Polygon","properties":{"GEOID":"130630403082"}},{"arcs":[[105,106,107,-102]],"type":"Polygon","properties":{"GEOID":"130630403083"}},{"arcs":[[-24,108,109,110,111,-29,112,113,-72,114]],"type":"Polygon","properties":{"GEOID":"130630405102"}},{"arcs":[[115,116,-40]],"type":"Polygon","properties":{"GEOID":"130630406062"}},{"arcs":[[117,118,119,120,121,122]],"type":"Polygon","properties":{"GEOID":"130630404091"}},{"arcs":[[123,124,125,126,127]],"type":"Polygon","properties":{"GEOID":"130630403072"}},{"arcs":[[-104,128,129,-128,130,131,-2]],"type":"Polygon","properties":{"GEOID":"130630403071"}},{"arcs":[[132,133,-119,134,135]],"type":"Polygon","properties":{"GEOID":"130630404092"}},{"arcs":[[-126,136,137,138,139]],"type":"Polygon","properties":{"GEOID":"130630404161"}},{"arcs":[[-139,140,141,142,143]],"type":"Polygon","properties":{"GEOID":"130630404162"}},{"arcs":[[144,145,-26,146,-70,-17]],"type":"Polygon","properties":{"GEOID":"130630405092"}},{"arcs":[[-74,147,148,149]],"type":"Polygon","properties":{"GEOID":"130630405132"}},{"arcs":[[150,-32,151,152,153,154,-148]],"type":"Polygon","properties":{"GEOID":"130630405133"}},{"arcs":[[155,156,157,158,159,160,161]],"type":"Polygon","properties":{"GEOID":"130630405251"}},{"arcs":[[162,163,164,165,166,167]],"type":"Polygon","properties":{"GEOID":"130630406142"}},{"arcs":[[168,-96,-14,169,170,-100,171,-84,172]],"type":"Polygon","properties":{"GEOID":"130630403081"}},{"arcs":[[173,174,175,176,177,178,179,180]],"type":"Polygon","properties":{"GEOID":"130630402042"}},{"arcs":[[181,-131,-127,-140,-144,182,183,184,185,186]],"type":"Polygon","properties":{"GEOID":"130630404141"}},{"arcs":[[187,188,189,190]],"type":"Polygon","properties":{"GEOID":"130630405212"}},{"arcs":[[191,192,193,194,195,196,-68]],"type":"Polygon","properties":{"GEOID":"130630406151"}},{"arcs":[[197,198,199]],"type":"Polygon","properties":{"GEOID":"130630406171"}},{"arcs":[[200,-82,-175]],"type":"Polygon","properties":{"GEOID":"130630402022"}},{"arcs":[[201,202,-15,203]],"type":"Polygon","properties":{"GEOID":"130630402031"}},{"arcs":[[204,-181,205,206]],"type":"Polygon","properties":{"GEOID":"130630402032"}},{"arcs":[[207,-176,-92,208,-20,209]],"type":"Polygon","properties":{"GEOID":"130630402041"}},{"arcs":[[-172,-105,-4,210,-187,211,-85]],"type":"Polygon","properties":{"GEOID":"130630403061"}},{"arcs":[[-108,212,-80,213,214,215,-129,-103]],"type":"Polygon","properties":{"GEOID":"130630404071"}},{"arcs":[[-183,216,217,218]],"type":"Polygon","properties":{"GEOID":"130630404171"}},{"arcs":[[-218,219,220,221,222,223,224]],"type":"Polygon","properties":{"GEOID":"130630404172"}},{"arcs":[[225,-142,226,227,228,229,-221]],"type":"Polygon","properties":{"GEOID":"130630404173"}},{"arcs":[[-114,230,-33,-151,-73]],"type":"Polygon","properties":{"GEOID":"130630405121"}},{"arcs":[[231,232,-109,-23]],"type":"Polygon","properties":{"GEOID":"130630405192"}},{"arcs":[[233,234,235,236,237,238,-189]],"type":"Polygon","properties":{"GEOID":"130630405211"}},{"arcs":[[239,-234,240,-112]],"type":"Polygon","properties":{"GEOID":"130630405221"}},{"arcs":[[241,-88,242,243]],"type":"Polygon","properties":{"GEOID":"130630405222"}},{"arcs":[[244,-243,-87,245,-235,-240,-111]],"type":"Polygon","properties":{"GEOID":"130630405223"}},{"arcs":[[-31,246,-191,247,248,249,-152]],"type":"Polygon","properties":{"GEOID":"130630405231"}},{"arcs":[[-196,250,-164,251]],"type":"Polygon","properties":{"GEOID":"130630406141"}},{"arcs":[[-18,-75,-150,252]],"type":"Polygon","properties":{"GEOID":"130630405131"}},{"arcs":[[-178,253,-210,-27,-146,254]],"type":"Polygon","properties":{"GEOID":"130630402043"}},{"arcs":[[255,256,257,-244,-245,-110,-233]],"type":"Polygon","properties":{"GEOID":"130630405191"}},{"arcs":[[-60,-69,-197,-252,-163,258]],"type":"Polygon","properties":{"GEOID":"130630406143"}},{"arcs":[[-173,-83,-201,-174,-205,259]],"type":"Polygon","properties":{"GEOID":"130639800001"}},{"arcs":[[260,261,262,263,264]],"type":"Polygon","properties":{"GEOID":"130630406324"}},{"arcs":[[-79,265,266,267,268,-214]],"type":"Polygon","properties":{"GEOID":"130630404182"}},{"arcs":[[-216,269,-124,-130]],"type":"Polygon","properties":{"GEOID":"130630403073"}},{"arcs":[[270,271,272,273,274,275]],"type":"Polygon","properties":{"GEOID":"130630406232"}},{"arcs":[[-89,-242,-258,276]],"type":"Polygon","properties":{"GEOID":"130630405322"}},{"arcs":[[-229,-57,277,278]],"type":"Polygon","properties":{"GEOID":"130630406302"}},{"arcs":[[279,280,281,282]],"type":"Polygon","properties":{"GEOID":"130630404253"}},{"arcs":[[283,-123,-280,284]],"type":"Polygon","properties":{"GEOID":"130630404093"}},{"arcs":[[285,286,-134,287]],"type":"Polygon","properties":{"GEOID":"130630404204"}},{"arcs":[[-212,-186,288,289,290,-246,-86]],"type":"Polygon","properties":{"GEOID":"130630404223"}},{"arcs":[[-143,-226,-220,-217]],"type":"Polygon","properties":{"GEOID":"130630404174"}},{"arcs":[[-113,-28,-231]],"type":"Polygon","properties":{"GEOID":"130630405124"}},{"arcs":[[291,292,293,294]],"type":"Polygon","properties":{"GEOID":"130630406371"}},{"arcs":[[295,-45,296,297,-272,298,299]],"type":"Polygon","properties":{"GEOID":"130630406241"}},{"arcs":[[300,-8,301,-158]],"type":"Polygon","properties":{"GEOID":"130630405183"}},{"arcs":[[302,303,304,305,-47,306,307]],"type":"Polygon","properties":{"GEOID":"130630406271"}},{"arcs":[[308,309,-35,310]],"type":"Polygon","properties":{"GEOID":"130630405292"}},{"arcs":[[311,312,313]],"type":"Polygon","properties":{"GEOID":"130630405282"}},{"arcs":[[314,315,316,317,318]],"type":"Polygon","properties":{"GEOID":"130630406332"}},{"arcs":[[319,320,321]],"type":"Polygon","properties":{"GEOID":"130630406382"}},{"arcs":[[-62,322,-303,323,324]],"type":"Polygon","properties":{"GEOID":"130630406273"}},{"arcs":[[-250,325,326,-153]],"type":"Polygon","properties":{"GEOID":"130630405232"}},{"arcs":[[-230,-279,327,328,329,330]],"type":"Polygon","properties":{"GEOID":"130630406303"}},{"arcs":[[331,-283,332]],"type":"Polygon","properties":{"GEOID":"130630404251"}},{"arcs":[[-190,-239,333,334,335,-248]],"type":"Polygon","properties":{"GEOID":"130630405341"}},{"arcs":[[336,337,338,-309,339]],"type":"Polygon","properties":{"GEOID":"130630405352"}},{"arcs":[[340,341,342]],"type":"Polygon","properties":{"GEOID":"130630404214"}},{"arcs":[[-177,-208,-254]],"type":"Polygon","properties":{"GEOID":"130630402044"}},{"arcs":[[-266,-78,343,344]],"type":"Polygon","properties":{"GEOID":"130630404194"}},{"arcs":[[345,346,347,348]],"type":"Polygon","properties":{"GEOID":"130630404213"}},{"arcs":[[349,-206,-180,350,-202]],"type":"Polygon","properties":{"GEOID":"130630402034"}},{"arcs":[[351,352,353,354,-334]],"type":"Polygon","properties":{"GEOID":"130630406291"}},{"arcs":[[355,-224,356,-237]],"type":"Polygon","properties":{"GEOID":"130630404233"}},{"arcs":[[-281,-122,357,358,-315]],"type":"Polygon","properties":{"GEOID":"130630404262"}},{"arcs":[[359,-265,360,361,362,-194,-317]],"type":"Polygon","properties":{"GEOID":"130630406321"}},{"arcs":[[363,364,365,-21,-209]],"type":"Polygon","properties":{"GEOID":"130630405103"}},{"arcs":[[366,367,-290]],"type":"Polygon","properties":{"GEOID":"130630404222"}},{"arcs":[[368,-295,369,370,371]],"type":"Polygon","properties":{"GEOID":"130630406363"}},{"arcs":[[372,373,-288,-133,374,-76,-54,375,-49,376]],"type":"Polygon","properties":{"GEOID":"130630404103"}},{"arcs":[[377,378,379,380,-372,381,382]],"type":"Polygon","properties":{"GEOID":"130630406391"}},{"arcs":[[-354,383,-330,384,385]],"type":"Polygon","properties":{"GEOID":"130630406292"}},{"arcs":[[386,-52,387,388,389]],"type":"Polygon","properties":{"GEOID":"130630403092"}},{"arcs":[[-215,-269,390,-137,-125,-270]],"type":"Polygon","properties":{"GEOID":"130630404181"}},{"arcs":[[-348,391,-286,392]],"type":"Polygon","properties":{"GEOID":"130630404203"}},{"arcs":[[393,394,-388,-56,-81,-213]],"type":"Polygon","properties":{"GEOID":"130630403101"}},{"arcs":[[395,396,397,398,399,400,-120,-287]],"type":"Polygon","properties":{"GEOID":"130630404201"}},{"arcs":[[-392,401,-342,402,-396]],"type":"Polygon","properties":{"GEOID":"130630404202"}},{"arcs":[[-141,403,404,-65,405,-227]],"type":"Polygon","properties":{"GEOID":"130630404241"}},{"arcs":[[406,407,408,-349,-393,-374]],"type":"Polygon","properties":{"GEOID":"130630404104"}},{"arcs":[[-398,409,-198,410]],"type":"Polygon","properties":{"GEOID":"130630404272"}},{"arcs":[[411,412,-161,413,414,415]],"type":"Polygon","properties":{"GEOID":"130630405371"}},{"arcs":[[416,417,-162,-413]],"type":"Polygon","properties":{"GEOID":"130630405381"}},{"arcs":[[418,419,-416,420]],"type":"Polygon","properties":{"GEOID":"130630405372"}},{"arcs":[[421,422,423,-417,-412,-420]],"type":"Polygon","properties":{"GEOID":"130630405382"}},{"arcs":[[424,425,426,427,-324,-308,428,429]],"type":"Polygon","properties":{"GEOID":"130630406352"}},{"arcs":[[430,-167,431,-305]],"type":"Polygon","properties":{"GEOID":"130630406281"}},{"arcs":[[432,433,-261,-360,-316]],"type":"Polygon","properties":{"GEOID":"130630406331"}},{"arcs":[[-432,-166,434,-38,-306]],"type":"Polygon","properties":{"GEOID":"130630406282"}},{"arcs":[[-385,435,436]],"type":"Polygon","properties":{"GEOID":"130630406342"}},{"arcs":[[-381,437,438,439,-292,-369]],"type":"Polygon","properties":{"GEOID":"130630406372"}},{"arcs":[[-41,-117,440,-293,-440]],"type":"Polygon","properties":{"GEOID":"130630406063"}},{"arcs":[[-328,-278,-63,-325,-428,441]],"type":"Polygon","properties":{"GEOID":"130630406351"}},{"arcs":[[442,-43,443,-438,444]],"type":"Polygon","properties":{"GEOID":"130630406251"}},{"arcs":[[445,446,-333,-282,-319,-404,-138]],"type":"Polygon","properties":{"GEOID":"130630404252"}},{"arcs":[[-391,-268,447,448,-446]],"type":"Polygon","properties":{"GEOID":"130630404192"}},{"arcs":[[449,-437,450,-6,451,452]],"type":"Polygon","properties":{"GEOID":"130630405361"}},{"arcs":[[-267,-345,453,454,455,-448]],"type":"Polygon","properties":{"GEOID":"130630404191"}},{"arcs":[[456,457,-453,458,-338]],"type":"Polygon","properties":{"GEOID":"130630405351"}},{"arcs":[[-313,459,460,461,462]],"type":"Polygon","properties":{"GEOID":"130630405303"}},{"arcs":[[-456,463,-285,-332,-447,-449]],"type":"Polygon","properties":{"GEOID":"130630404193"}},{"arcs":[[-414,-160,464,465,-430,466,-300,467,468,469,470,471]],"type":"Polygon","properties":{"GEOID":"130630406312"}},{"arcs":[[-335,-355,-386,-450,-458,472,473]],"type":"Polygon","properties":{"GEOID":"130630405332"}},{"arcs":[[474,475,-422,-419,476]],"type":"Polygon","properties":{"GEOID":"130630405281"}},{"arcs":[[-429,-307,-46,-296,-467]],"type":"Polygon","properties":{"GEOID":"130630406311"}},{"arcs":[[477,478,479,480]],"type":"Polygon","properties":{"GEOID":"130630406362"}},{"arcs":[[-321,-478,481]],"type":"Polygon","properties":{"GEOID":"130630406381"}},{"arcs":[[482,-382,-371,483,-480]],"type":"Polygon","properties":{"GEOID":"130630406361"}},{"arcs":[[-471,484,-383,-483,-479,-320,485]],"type":"Polygon","properties":{"GEOID":"130630406392"}},{"arcs":[[-276,486,-469,487]],"type":"Polygon","properties":{"GEOID":"130630406231"}},{"arcs":[[-298,488,489,-273]],"type":"Polygon","properties":{"GEOID":"130630406233"}},{"arcs":[[-425,-466,490]],"type":"Polygon","properties":{"GEOID":"130630406314"}},{"arcs":[[-302,-7,491,-426,-491,-465,-159]],"type":"Polygon","properties":{"GEOID":"130630406313"}},{"arcs":[[492,-462,493,-156,-418,-424]],"type":"Polygon","properties":{"GEOID":"130630405302"}},{"arcs":[[-339,-459,-452,-5,-36,-310]],"type":"Polygon","properties":{"GEOID":"130630405362"}},{"arcs":[[-61,-259,-168,-431,-304,-323]],"type":"Polygon","properties":{"GEOID":"130630406272"}},{"arcs":[[-327,-340,-311,-34,494,-494,-461,495]],"type":"Polygon","properties":{"GEOID":"130630405291"}},{"arcs":[[496,-400,497,-433,-359]],"type":"Polygon","properties":{"GEOID":"130630404271"}},{"arcs":[[-25,-115,-71,-147]],"type":"Polygon","properties":{"GEOID":"130630405093"}},{"arcs":[[498,-154,-496,-460,-312,499,500]],"type":"Polygon","properties":{"GEOID":"130630405272"}},{"arcs":[[-241,-188,-247,-30]],"type":"Polygon","properties":{"GEOID":"130630405224"}},{"arcs":[[-336,-474,501,-249]],"type":"Polygon","properties":{"GEOID":"130630405342"}},{"arcs":[[-331,-384,-353,502,-222]],"type":"Polygon","properties":{"GEOID":"130630406301"}},{"arcs":[[503,-346,-409]],"type":"Polygon","properties":{"GEOID":"130630404211"}},{"arcs":[[504,505,-343,-402,-347]],"type":"Polygon","properties":{"GEOID":"130630404215"}},{"arcs":[[-495,-37,-9,-301,-157]],"type":"Polygon","properties":{"GEOID":"130630405184"}},{"arcs":[[-357,-223,-503,-352,-238]],"type":"Polygon","properties":{"GEOID":"130630404231"}},{"arcs":[[-406,-64,-58,-228]],"type":"Polygon","properties":{"GEOID":"130630404242"}},{"arcs":[[506,-106,-101,-171]],"type":"Polygon","properties":{"GEOID":"130630403084"}},{"arcs":[[-3,-132,-182,-211]],"type":"Polygon","properties":{"GEOID":"130630403063"}},{"arcs":[[-375,-136,507,-454,-344,-77]],"type":"Polygon","properties":{"GEOID":"130630404073"}},{"arcs":[[-376,-53,-50]],"type":"Polygon","properties":{"GEOID":"130630404105"}},{"arcs":[[508,-390,509,-97,-94,510]],"type":"Polygon","properties":{"GEOID":"130630403091"}},{"arcs":[[-264,511,-361]],"type":"Polygon","properties":{"GEOID":"130630406323"}},{"arcs":[[-502,-473,-457,-337,-326]],"type":"Polygon","properties":{"GEOID":"130630405331"}},{"arcs":[[512,-505,-504,-408]],"type":"Polygon","properties":{"GEOID":"130630404212"}},{"arcs":[[-476,513,-463,-493,-423]],"type":"Polygon","properties":{"GEOID":"130630405301"}},{"arcs":[[-436,-329,-442,-427,-492,-451]],"type":"Polygon","properties":{"GEOID":"130630406341"}},{"arcs":[[-291,-368,514,-184,-219,-225,-356,-236]],"type":"Polygon","properties":{"GEOID":"130630404232"}},{"arcs":[[-185,-515,-367,-289]],"type":"Polygon","properties":{"GEOID":"130630404221"}},{"arcs":[[-351,-179,-255,-145,-16,-203]],"type":"Polygon","properties":{"GEOID":"130630402033"}},{"arcs":[[-90,-277,-257,515,516,517]],"type":"Polygon","properties":{"GEOID":"130630405321"}},{"arcs":[[518,-445,-380,519]],"type":"Polygon","properties":{"GEOID":"130630406262"}},{"arcs":[[-42,-439,-444]],"type":"Polygon","properties":{"GEOID":"130630406252"}},{"arcs":[[-297,-44,-443,-519,520,-489]],"type":"Polygon","properties":{"GEOID":"130630406234"}},{"arcs":[[-366,521,-516,-256,-232,-22]],"type":"Polygon","properties":{"GEOID":"130630405193"}},{"arcs":[[522,-517,-522,-365]],"type":"Polygon","properties":{"GEOID":"130630405312"}},{"arcs":[[-91,-518,-523,-364]],"type":"Polygon","properties":{"GEOID":"130630405311"}},{"arcs":[[-121,-401,-497,-358]],"type":"Polygon","properties":{"GEOID":"130630404261"}},{"arcs":[[-299,-271,-488,-468]],"type":"Polygon","properties":{"GEOID":"130630406242"}},{"arcs":[[-508,-135,-118,-284,-464,-455]],"type":"Polygon","properties":{"GEOID":"130630404094"}},{"arcs":[[-487,-275,523,-378,-485,-470]],"type":"Polygon","properties":{"GEOID":"130630406263"}},{"arcs":[[-155,-499,524]],"type":"Polygon","properties":{"GEOID":"130630405271"}},{"arcs":[[-263,525,-200,526,-362,-512]],"type":"Polygon","properties":{"GEOID":"130630406322"}},{"arcs":[[-389,-395,527,-510]],"type":"Polygon","properties":{"GEOID":"130630403103"}},{"arcs":[[-377,-48,-387,-509,528]],"type":"Polygon","properties":{"GEOID":"130630403093"}},{"arcs":[[-500,-314,-514,-475,529]],"type":"Polygon","properties":{"GEOID":"130630405283"}},{"arcs":[[530,-98,-528,-394,-107]],"type":"Polygon","properties":{"GEOID":"130630403102"}},{"arcs":[[-274,-490,-521,-520,-379,-524]],"type":"Polygon","properties":{"GEOID":"130630406261"}},{"arcs":[[-498,-399,-411,-526,-262,-434]],"type":"Polygon","properties":{"GEOID":"130630404273"}},{"arcs":[[-318,-193,531,-66,-405]],"type":"Polygon","properties":{"GEOID":"130630406094"}},{"arcs":[[-192,-67,-532]],"type":"Polygon","properties":{"GEOID":"130630406093"}},{"arcs":[[-99,-531,-507,-170,-13]],"type":"Polygon","properties":{"GEOID":"130630403024"}}]}}}