{"type":"Topology","arcs":[[[4961,5763],[-34,1],[-64,55],[-18,29],[-16,60],[-7,47],[-8,23],[-40,32],[-176,37],[-137,53],[-110,4],[-3,98],[-97,6],[-75,-12],[-111,31],[-38,-3],[-23,-10],[-28,-26],[-22,-38],[-29,-19],[-41,-2],[-253,3],[30,-98],[62,-196],[16,-38],[45,-69],[26,-57],[92,-287],[115,-330]],[[4017,5057],[-232,105],[-95,35],[-157,88],[-66,30],[-92,15],[-124,54],[-120,101],[-122,45],[-53,4],[-79,19],[-55,-2],[-346,7],[-48,11],[-24,15]],[[2404,5584],[6,225],[5,134],[7,408],[6,167],[5,333],[-6,61],[6,167],[0,70],[5,85],[-4,6],[8,217],[4,40],[4,229],[2,80],[14,0],[31,-18],[24,-55],[19,6],[6,19],[-7,36],[-26,46],[2,36],[15,30],[1,25],[24,22],[35,-19],[26,-1],[19,-15],[-2,-34],[11,-15],[22,6],[5,22],[-21,67],[11,24],[28,20],[37,38],[43,-5],[15,-26],[28,-7],[21,24],[25,8],[22,-23],[-20,-38],[6,-25],[46,-2],[19,-15],[11,-47],[20,-9],[23,10],[12,19],[30,-7],[17,-36],[26,-12],[79,17],[30,25],[24,-7],[14,-27],[17,25],[-15,38],[9,18],[30,-8],[25,-56],[32,11],[0,41],[17,8],[42,-22],[28,20],[37,-31],[25,13],[27,-8],[4,-15],[43,-1],[71,-19],[57,-1],[-4,-22],[-23,-15],[-13,-31],[7,-17],[23,-16],[35,9],[9,27],[2,48],[26,16],[40,0],[28,20],[46,-6],[21,31],[27,15],[44,37],[26,37],[39,1],[18,-26],[-10,-18],[-26,-15],[-13,-22],[11,-22],[-7,-53],[22,-1],[17,13],[65,-21],[17,-10],[19,-30],[32,1],[23,-15],[11,11],[2,26],[64,9],[20,11],[3,16],[-28,22],[4,16],[21,7],[33,-17],[27,10],[-1,23],[20,1],[32,-32],[-6,-22],[-28,-9],[-28,-22],[11,-26],[18,1],[36,19],[23,24],[24,0],[33,-18],[10,21],[-24,22],[19,23],[27,-9],[23,-33],[31,-10],[20,28],[-10,29],[3,20],[30,41],[45,20],[4,15],[-21,16],[-1,25],[41,27],[-1,58],[12,18],[23,5],[28,-10],[20,-18],[17,7],[23,53],[38,26],[13,20],[6,30],[38,-4],[18,40],[32,1],[8,23],[-24,16],[-12,22],[-20,12],[11,31],[20,-2],[31,-32],[26,5],[-2,32],[-37,30],[6,28],[36,9],[-1,-243],[-1,-112],[0,-292],[-3,-204],[-1,-327],[-2,-110],[3,-448],[2,-680],[-1,-297]],[[4961,5763],[105,-2],[82,2],[116,-2]],[[5264,5761],[10,-27],[-20,-35],[5,-13],[-43,-35],[5,-20],[-44,-77],[-15,-8],[-20,-57],[-26,-34],[-5,-52],[12,-10],[14,-84],[3,-34],[-14,-32],[-37,-17],[3,-32],[-10,-18],[-5,-34],[-57,-2],[-19,-22],[-31,-63],[-6,-25],[2,-41]],[[4966,4989],[7,-32],[-17,-13],[-17,-38],[-1,-32],[-48,-75],[-14,-48],[-11,-12],[-14,-45],[20,-24],[3,-31],[-29,-36],[-15,-36],[-33,-2],[-52,-26],[-30,-22],[-16,0],[-60,-24],[-4,-35],[9,-26],[16,-95],[-16,-44],[12,-19],[13,-60],[17,-21],[15,-55],[19,-32],[40,-2],[32,10],[40,-27],[26,3],[10,-36],[14,-22],[8,-47],[-1,-36],[11,-37],[4,-49],[42,-44],[2,-28],[20,-80],[-25,-18],[-12,-38],[-12,-14],[-11,-37],[3,-21]],[[4911,3583],[-19,3],[-24,48],[-19,16],[-8,36],[-23,25],[-12,31],[-31,44],[-33,-12]],[[4742,3774],[11,124],[0,43],[-9,42],[-11,26],[-130,214],[-193,309],[-134,218],[-10,21],[-27,85],[-28,31],[-115,45],[-29,21],[-27,37],[-23,67]],[[5264,5761],[53,3],[137,0],[32,2],[200,1],[81,-2],[157,2],[32,2],[190,0],[235,4],[482,2],[3,-1],[191,2],[153,0],[155,2],[344,7],[182,-1],[38,1],[333,2],[-1,-691],[-4,-117],[3,-121],[-2,-146],[2,-57],[-6,-465],[-2,-124],[-3,-279]],[[8249,3787],[-58,-4],[-19,4],[-61,42],[-54,21],[-146,38],[-136,100],[-22,78],[-46,-22],[-73,-44],[-28,-20],[-57,-7],[-116,6],[-82,20],[-51,25],[-64,25],[-34,8],[-75,-4],[-212,-49],[-52,-5],[-100,-45],[-34,-20]],[[6729,3934],[-32,-18],[-96,-21],[-58,-30]],[[6543,3865],[-10,26],[14,37],[-25,28],[-11,37],[7,16],[-39,13],[-22,17],[-25,-2],[-57,67],[-8,28],[-15,1],[-20,85],[44,35],[36,34],[41,62],[-5,22],[-42,61],[-25,18],[-13,53],[-21,18],[-15,35],[11,36],[-14,26],[-53,40],[-40,65],[-13,34],[-33,26],[-7,24],[-41,0],[-23,7],[-193,15],[-121,-2],[-151,-1],[-50,31],[-26,26],[-73,-13],[-51,13],[-101,45],[-53,13],[-33,24],[-50,9],[-76,-2],[-25,10],[-54,4],[-96,3]],[[6543,3865],[18,-52],[48,-90],[25,-17],[3,-29],[14,-41],[-40,-23],[5,-46],[11,-13],[-11,-49],[-18,-22],[-14,-37],[5,-30],[-10,-17],[-29,-12],[0,-29],[-22,-34],[-25,-22],[6,-30],[-20,-46],[-10,-63],[-28,-15],[-26,-1],[-41,-12],[6,-31],[-6,-25],[33,-16],[6,-25],[23,-13],[32,5],[10,-8],[-2,-35],[5,-25],[-20,-57],[5,-24],[-12,-33],[-33,-19],[1,-54],[-71,-20],[-58,-21]],[[6303,2734],[-22,36],[-93,90],[-21,43],[-9,41],[3,32],[-4,37],[-9,21],[-36,33],[-29,37],[-34,11],[-31,1],[-22,-10],[-15,-38],[-22,-25],[-47,-20],[-41,2],[-14,-8],[-43,-6],[-96,-32],[-57,-16],[-25,19]],[[5636,2982],[-47,32],[-7,23],[-6,68],[-30,67],[1,23],[-37,98],[-32,38],[-3,14],[-30,38]],[[5445,3383],[2,44],[-11,33],[-30,36],[-4,18],[-20,24],[-13,52],[-128,-37],[-56,-26],[-150,-125],[-19,12],[-21,43],[-36,13],[-24,16],[-19,27],[-15,51],[10,19]],[[2850,2910],[111,19],[93,-15],[137,-4],[84,-1],[149,-5],[127,-2]],[[3551,2902],[83,-6]],[[3634,2896],[-24,-39],[-6,-95],[-53,-9],[1,-208],[-1,-121],[-16,-2],[16,-50],[0,-197],[140,36],[94,9],[19,7],[97,64]],[[3901,2291],[70,-45],[-37,-205],[-20,-133],[-21,-118],[20,-28],[50,-1],[4,-121],[-6,-67]],[[3961,1573],[-559,-101],[-21,-8],[-27,-22],[-82,-126],[-19,-47],[-4,-26],[5,-85],[-3,-27],[-16,-36],[-193,-233]],[[3042,862],[-4,139],[-163,3],[-23,2],[-222,3],[-14,-1],[-255,4]],[[2361,1012],[-5,69],[14,109],[9,27],[82,83],[57,70],[82,152],[35,44],[16,31],[-13,72],[13,44],[40,32],[29,37],[41,62],[36,99],[29,132],[0,146],[2,74],[16,58],[6,54],[1,171],[-1,92],[-12,25],[13,53],[-1,162]],[[4742,3774],[-40,-8],[-42,19],[-53,51],[-7,19],[-53,-3],[-11,-17],[2,-65],[5,-31],[-21,-20],[-35,9],[-21,15],[-50,17],[-22,-14],[-15,10],[-19,45],[-23,-24],[-28,-2],[-53,21],[-16,48],[1,21],[-29,16],[-50,49],[-22,8],[-12,53],[-18,32],[-65,36],[-31,5],[-19,-12],[-60,0],[-7,40],[-35,28],[-43,14],[-16,-38],[-28,-40],[-113,-117]],[[3693,3939],[-105,178],[-80,133],[-35,48],[-149,148],[-43,39],[-101,98],[-203,200],[-193,186],[-63,55],[-302,224],[-98,68],[-152,102]],[[2169,5418],[3,147],[215,-9],[16,2],[1,26]],[[4740,1545],[60,6],[33,14],[30,23],[22,6],[86,2],[18,-36],[35,-4],[49,-16],[48,-8],[21,7],[71,50],[54,25],[26,2],[0,68],[113,-1],[16,-5],[12,17],[68,63]],[[5502,1758],[19,-26],[85,-144],[38,-75],[44,-68],[51,-70],[34,-79],[19,-62],[28,-137],[2,-44],[-1,-183],[65,6],[41,-15],[79,-89],[83,-81],[54,-60],[34,-28],[82,-51],[70,-50],[26,-11],[67,-21],[54,-21],[88,-40],[208,-142],[136,-63],[25,-18],[129,-119],[82,-46],[20,-16]],[[7164,5],[-30,-1],[-226,4],[-302,0],[-147,-1],[-284,3],[-32,-2],[-467,2],[-414,1],[-14,21],[1,33],[-42,14],[-18,27],[-8,30],[2,77],[-23,8],[-3,16],[-27,-2],[-56,20],[-19,31],[-31,95],[-40,51],[-28,92],[11,23],[-3,47],[13,37],[-15,12],[-18,47],[-26,19],[-22,-7],[-34,6],[-19,31],[-87,-2]],[[4756,737],[-10,57],[-1,349],[-3,138],[-1,176]],[[4741,1457],[-1,88]],[[5164,2685],[186,-66],[38,-6],[119,14],[26,7],[79,30],[29,7],[488,6],[25,5],[149,52]],[[6303,2734],[10,-37],[17,-12],[1,-18],[-25,-41],[-32,-29],[-10,-37],[13,-19],[-31,-42],[-4,-19],[7,-50],[-20,-18],[5,-13],[-41,-42],[2,-14],[-35,-46],[-37,-39],[-50,-48],[-15,-44],[-11,-84],[12,-54],[-2,-60]],[[6057,1968],[-494,249],[-31,17],[-203,102],[-36,20],[-221,112]],[[5072,2468],[20,43],[14,88],[44,-14],[26,2],[-12,98]],[[1443,4050],[59,-22],[277,-83],[152,-45],[75,-20],[76,-25],[285,-84],[4,72],[-4,54],[16,51],[4,211],[114,-87],[39,53],[15,4],[92,0],[60,-10],[32,3],[108,1],[8,-2],[51,-95],[8,-7],[49,0],[69,19],[11,21],[46,3],[-1,-182],[35,-1],[434,-4]],[[3557,3875],[-1,-232],[-4,-570],[-2,-48],[-7,-31],[8,-92]],[[2850,2910],[-99,-19],[-172,-29],[-112,7],[-187,3],[-101,20],[-134,10],[-137,-28],[-90,-29],[-91,-36],[-42,-10],[-25,0],[-81,29],[-27,19],[-94,42],[-79,52],[-50,11],[-74,-12],[-85,-33],[-61,-51],[-64,-45]],[[1045,2811],[18,26],[2,59],[13,98],[12,32],[75,82],[29,38],[33,64],[21,89],[15,30],[34,47],[10,21],[52,144],[24,94],[54,143],[6,272]],[[6057,1968],[-3,-7],[50,-33],[-5,-23],[9,-77],[10,-19],[8,-58],[2,-55],[-5,-57],[8,-27],[-2,-23],[-17,-25],[-8,-53],[26,-66],[0,-39],[14,-22],[10,-32],[-4,-15],[15,-68],[14,-28],[-2,-30],[30,-45],[35,-11],[19,-45],[18,-25],[43,-22],[17,-17],[64,-33],[20,-34],[6,-42],[28,-65],[25,-18],[33,-40],[6,-23],[27,-52],[25,-26],[20,-6],[12,-17],[32,-23],[29,-8],[43,-45],[35,6],[29,-4],[39,17],[13,21],[39,-10],[46,9],[42,-3],[52,-32],[47,-34],[23,-7],[13,-15],[-4,-29],[19,-12],[7,-28],[25,-4],[33,-15],[59,12],[52,-4],[35,-10],[8,-15],[39,-31],[-5,-25],[12,-31],[17,-4],[19,-65],[6,-42],[17,-56],[47,-47],[11,1],[20,-27],[52,-26],[12,-1],[8,-28],[48,-75]],[[7624,0],[-327,1],[-133,4]],[[5502,1758],[-49,52],[-71,58],[-66,45],[-41,36],[-85,108]],[[5190,2057],[-58,64],[-48,59],[-40,60],[-130,230]],[[4914,2470],[-63,108]],[[4851,2578],[221,-110]],[[4732,2322],[3,117]],[[4735,2439],[119,-4],[60,35]],[[5190,2057],[-7,-31],[4,-102],[-47,-4],[-54,4],[-43,20],[-37,1],[-26,-22],[-20,-7],[-69,-6],[-61,1],[-43,14],[-49,0]],[[4738,1925],[-2,158],[-6,127],[2,112]],[[4593,2859],[5,95],[7,28],[22,27],[37,16],[64,20],[11,-1]],[[4739,3044],[4,-59]],[[4743,2985],[-6,-55],[5,-132]],[[4742,2798],[2,-81]],[[4744,2717],[-157,7]],[[4587,2724],[6,135]],[[4742,3774],[-10,-150],[1,-515],[6,-65]],[[4593,2859],[-37,26],[-107,89],[-72,45],[-43,42],[-11,2],[-81,133],[-86,145],[-36,50],[-64,78],[-64,72],[-172,200],[-47,65],[-80,133]],[[3557,3875],[58,-3],[38,16],[40,51]],[[4587,2724],[-18,1]],[[4569,2725],[-56,15],[-266,128],[-178,83],[-38,-60],[-60,13],[-33,-9],[-74,3],[-117,2],[-66,-7],[-47,3]],[[4744,2717],[139,-3],[128,-8]],[[5011,2706],[92,-3],[61,-18]],[[4851,2578],[-21,1],[-90,-4]],[[4740,2575],[4,142]],[[6729,3934],[128,-126],[30,-26],[147,-104],[45,-41],[86,-125],[27,-35],[49,-44],[148,-140],[92,-77],[161,-109],[39,-30],[32,-47],[55,-158],[116,4],[257,3],[3,-165],[-6,-338],[7,-32],[17,-37],[79,-116],[8,-46],[-2,-165],[2,-4]],[[8249,1976],[-4,-510],[-2,-322],[-1,-177],[-3,-495],[0,-45],[-2,-387]],[[8237,40],[-120,148],[-96,112],[-23,25],[-61,52],[-222,158],[-27,23],[-109,121],[-199,217],[-246,272],[-42,44],[-170,170],[-233,235],[-58,49],[-63,41],[-122,64],[-112,55],[-66,35],[-211,107]],[[2361,1012],[-263,3],[-224,4],[-421,1],[-214,9],[-349,16],[-245,7],[-182,4],[-295,3],[12,90],[-4,21],[16,28],[17,2],[26,35],[3,26],[-24,43],[-1,24],[-29,32],[-5,34],[13,14],[6,47],[-11,50],[-10,22],[-26,18],[-3,42],[-12,12],[-7,33],[-29,43],[-1,26],[-72,25],[-16,15],[-11,64],[5,39],[27,21],[9,24],[42,80],[11,12],[-14,27],[8,23],[60,-7],[30,2],[126,32],[34,4],[114,-10],[42,6],[34,24],[23,43],[20,15],[52,3],[21,77],[57,76],[36,52],[43,84],[20,56],[27,90],[31,89],[15,24],[57,59],[18,13],[97,48]],[[8237,40],[-1,-39],[-137,-1],[-184,1],[-291,-1]],[[1443,4050],[4,236],[9,349],[221,-7],[6,250],[225,-9],[3,91],[9,99],[1,44],[239,-9],[3,36],[6,288]],[[3961,1573],[68,13],[4,-35],[108,4]],[[4141,1555],[10,-82],[1,-41],[10,-97],[-4,-126],[-4,-18],[-29,-44],[-37,-28],[-76,-41],[-60,-55],[-120,-88],[-131,-92],[-151,-111],[2,-4]],[[3552,728],[-506,5],[-4,129]],[[5445,3383],[-55,-97],[-181,-311],[-57,-68]],[[5152,2907],[-21,-23],[-29,-52]],[[5102,2832],[-142,32],[-26,1]],[[4934,2865],[37,49],[2,74],[-22,0],[-50,-20],[-31,1],[-51,-8],[-57,2],[0,22],[-19,0]],[[5152,2907],[16,0],[14,-40],[27,-38],[48,-42],[45,-59],[24,-12],[46,-4],[51,21],[109,33],[44,3],[18,10],[21,36],[5,57],[24,50],[-8,60]],[[5011,2706],[62,62],[29,64]],[[4141,1555],[0,29],[11,59],[98,-1],[47,-39],[44,-19],[120,-2],[-10,-39],[38,-51],[19,-4],[27,-38],[67,-7],[139,14]],[[4756,737],[-364,-13],[-125,0],[-182,-2],[-533,6]],[[3901,2291],[167,109],[27,13],[232,64],[60,27],[43,-97],[21,-31],[35,-28],[58,-18],[188,-8]],[[4738,1925],[2,-380]],[[8249,3787],[-2,-143],[389,-8],[116,0],[-1,-182],[-3,-322],[-6,-190],[-1,-138],[-4,-249],[-5,-464],[1,-116],[-115,0],[-369,1]],[[4740,2575],[-176,-7],[5,157]],[[4740,2575],[-5,-136]],[[4742,2798],[181,-8],[11,75]]],"transform":{"scale":[0.00006339785191956076,0.00005335889570552173],"translate":[-83.151141,31.363883999999995]},"objects":{"Geometry\\13-069":{"type":"GeometryCollection","geometries":[{"arcs":[[0,1,2]],"type":"Polygon","properties":{"GEOID":"130690101001"}},{"arcs":[[3,4,5,6,7,-1]],"type":"Polygon","properties":{"GEOID":"130690101002"}},{"arcs":[[8,9,10,11,-5]],"type":"Polygon","properties":{"GEOID":"130690102002"}},{"arcs":[[-12,12,13,14,15,-6]],"type":"Polygon","properties":{"GEOID":"130690102001"}},{"arcs":[[16,17,18,19,20,21,22]],"type":"Polygon","properties":{"GEOID":"130690106003"}},{"arcs":[[-2,-8,23,24,25]],"type":"Polygon","properties":{"GEOID":"130690101003"}},{"arcs":[[26,27,28,29,30]],"type":"Polygon","properties":{"GEOID":"130690108011"}},{"arcs":[[31,32,33,34]],"type":"Polygon","properties":{"GEOID":"130690108021"}},{"arcs":[[35,36,-17,37,38]],"type":"Polygon","properties":{"GEOID":"130690106002"}},{"arcs":[[-34,39,40,-28,41,42,43,44]],"type":"Polygon","properties":{"GEOID":"130690108022"}},{"arcs":[[45,46,-43,47,48]],"type":"Polygon","properties":{"GEOID":"130690108013"}},{"arcs":[[49,50,51,52,53,54]],"type":"Polygon","properties":{"GEOID":"130690105002"}},{"arcs":[[-24,55,-50,56]],"type":"Polygon","properties":{"GEOID":"130690105001"}},{"arcs":[[57,-57,-55,58,59,-18,-37]],"type":"Polygon","properties":{"GEOID":"130690105003"}},{"arcs":[[60,61,-35,-45,62,63]],"type":"Polygon","properties":{"GEOID":"130690108023"}},{"arcs":[[-13,-11,64,65,66,-33]],"type":"Polygon","properties":{"GEOID":"130690103012"}},{"arcs":[[-38,-23,67]],"type":"Polygon","properties":{"GEOID":"130690106004"}},{"arcs":[[-67,68,-40]],"type":"Polygon","properties":{"GEOID":"130690103011"}},{"arcs":[[-25,-58,-36,69]],"type":"Polygon","properties":{"GEOID":"130690106001"}},{"arcs":[[-21,70,71,72]],"type":"Polygon","properties":{"GEOID":"130690107021"}},{"arcs":[[-7,-16,73,74,75,76,-51,-56]],"type":"Polygon","properties":{"GEOID":"130690104011"}},{"arcs":[[-75,77,-14,-32,-62,78]],"type":"Polygon","properties":{"GEOID":"130690104023"}},{"arcs":[[79,-30,80,-72]],"type":"Polygon","properties":{"GEOID":"130690107022"}},{"arcs":[[81,-49,82,-31,-80,-71,-20]],"type":"Polygon","properties":{"GEOID":"130690107011"}},{"arcs":[[-48,-42,-27,-83]],"type":"Polygon","properties":{"GEOID":"130690108014"}},{"arcs":[[83,-65,-10]],"type":"Polygon","properties":{"GEOID":"130690103021"}},{"arcs":[[-59,-54,-64,84]],"type":"Polygon","properties":{"GEOID":"130690107013"}},{"arcs":[[-60,-85,85,-46,-82,-19]],"type":"Polygon","properties":{"GEOID":"130690107012"}},{"arcs":[[-15,-78,-74]],"type":"Polygon","properties":{"GEOID":"130690104021"}},{"arcs":[[86,-76,-79,-61,-53]],"type":"Polygon","properties":{"GEOID":"130690104022"}},{"arcs":[[-77,-87,-52]],"type":"Polygon","properties":{"GEOID":"130690104012"}},{"arcs":[[-63,-44,-47,-86]],"type":"Polygon","properties":{"GEOID":"130690108012"}}]}}}