{"type":"Topology","arcs":[[[6827,6132],[397,829],[12,54],[44,76],[88,153],[221,437],[79,135],[59,154],[59,143],[35,134],[108,190],[27,88],[15,59],[31,77],[-4,17],[17,27],[13,47],[30,60],[95,118],[5,22]],[[8158,8952],[17,76],[-3,40],[-21,79],[-12,167],[59,225],[56,202],[21,108]],[[8275,9849],[473,1],[541,0],[49,-2],[676,-11],[799,-14],[123,1],[711,1],[0,-18],[498,-3],[-26,-69],[-26,-55],[-6,-42],[-43,-69],[-29,-55],[-15,-19],[-43,-85],[-18,-42],[-5,-33],[3,-29],[-9,-33],[-35,-39],[-35,-84],[-3,-23],[-55,-104],[-28,-88],[-18,-68],[-32,-81],[-20,-33],[-14,-39],[0,-26],[-24,-46],[-8,-29],[-38,-49],[-32,-71],[-61,-95],[-23,-78],[-46,-68],[-20,-19],[-18,-36],[-23,-33],[-14,-39],[-38,-65],[-26,-39],[-12,-26],[-40,-55],[-58,-91],[-26,-56],[-26,-39],[-17,-39],[-32,-55],[-38,-52],[-26,-85],[-52,-78],[-9,-45],[-37,-85],[-24,-74],[-23,-124],[-17,-55],[-18,-33],[-5,-26],[-21,-42],[-75,-96],[-29,-52],[-30,-101],[-45,-103],[-22,-134],[-17,-62],[-19,-90],[-1,-28],[5,-32]],[[10603,6263],[-31,-37],[-36,-50],[-45,-41],[1,50],[27,52],[-1,34],[-18,-6],[-21,-28],[-23,-13],[-34,-32],[-52,-6],[-23,-74],[-3,-43],[-39,-50],[-30,3],[-37,-7],[-76,-1],[-51,-33],[-58,-62],[-25,-43],[-21,-51],[-5,-37],[-31,-32],[-23,-35],[-52,-68],[-24,-18],[-13,-30],[-36,-41],[-59,16],[-30,12],[-40,36],[-13,37],[5,26],[-139,29],[-51,-5],[-29,-19],[-78,-75],[-105,-106],[-12,-24],[-26,-17],[-50,-15],[-24,-25],[-49,-101],[-25,-30],[-46,-12],[-34,17],[-10,36],[-30,-9],[-30,51],[-9,41],[-20,44],[-29,27],[-22,49],[-2,24],[-66,17],[-32,22],[-34,3],[-30,32],[-41,11],[-39,25],[-28,34],[-46,42],[-43,21],[-71,63],[-30,9],[-59,1],[-16,7],[-65,-107],[-36,-68],[-44,-61],[-19,-38],[-43,-116],[-42,15],[-33,3],[-38,-21],[-43,-16],[-47,48],[-138,158],[-33,34],[-24,16],[-210,116],[-181,98],[-123,62],[-245,121],[-26,7],[-73,1],[-43,18]],[[6825,6128],[2,4]],[[4692,9712],[17,-5],[31,4],[59,-77],[38,-15],[26,5],[194,12],[15,5],[-59,93],[-1,6],[19,121],[114,0]],[[5145,9861],[29,-34],[16,-25],[1,-21],[-20,-47],[-26,-35],[-88,-84],[-13,-14],[-16,-39],[-25,-16],[-26,-3],[-5,-21],[-27,-15],[-40,4],[-17,-20],[-31,1],[-4,-19],[-25,-8],[-22,14],[-13,-27],[12,-52],[-19,-58],[-44,-43],[-24,-6],[-12,-22],[-33,-12],[-61,-66],[-23,-17],[4,-20],[40,-28],[2,-11],[-18,-65],[-14,-10],[-52,14],[-29,-15],[3,-15],[22,-22],[6,-26],[-28,-24],[16,-25],[-26,-13],[-48,10],[-21,-5],[-23,-31],[14,-35],[2,-64],[-16,-8],[-18,8],[-28,-12],[-29,-37],[-10,-23],[-43,-30],[-7,-18],[-17,-1],[-12,-15],[-20,-3],[-18,-19],[1,-18],[-17,-28],[6,-33],[-33,-29],[-9,-20],[-6,-59],[-35,-41],[-20,-32]],[[4108,8373],[-58,-69],[-18,-26],[-13,-8],[-33,24],[-23,-6],[7,-29],[0,-33],[-11,-42],[-9,-10],[-43,-22],[-59,1],[-23,-5],[-15,-18],[-13,6],[2,32],[-116,-9],[-26,-18],[-43,-22],[-41,-1],[-39,-10],[7,-46],[-4,-8],[-47,-2],[4,-22],[-17,-16],[-30,-11],[-7,-33],[-19,-15],[-9,-32],[-39,-19],[-22,-54],[10,-14],[-11,-24],[3,-19],[-26,-43],[-18,-7],[-62,-2],[-16,-8],[-6,-19],[45,-34],[9,-19],[0,-159],[-30,-118],[-56,-119],[-7,-53],[-27,0],[-16,-16],[-24,-46],[-17,-56],[-32,-55],[-28,-23],[-40,-4],[-150,-6],[-145,0],[-17,-12],[-64,-157],[-21,-75],[-5,-46],[1,-75],[24,-56],[9,-46],[12,-25],[-4,-25]],[[2642,6489],[-35,23],[-58,14],[-30,-2],[-49,-17],[-158,-100],[-28,-14],[-50,-10],[-217,12],[-120,4],[-385,4],[-41,2],[-27,8],[-46,28],[-107,89],[-77,60]],[[1214,6590],[15,54],[17,40],[11,10],[40,15],[30,21],[24,27],[101,105],[33,29],[48,34],[40,38],[47,58],[78,74],[62,69],[23,9],[22,25],[70,69],[0,-30],[12,-17],[5,-24],[-10,-20],[6,-50],[6,-12],[95,124],[107,113],[64,58],[91,59],[42,45],[128,171],[17,19],[24,15],[26,6],[46,-1],[59,18],[29,1],[56,-7],[48,16],[102,72],[23,18],[195,178],[23,16],[31,8],[152,14],[24,6],[85,51],[27,26],[38,46],[16,27],[19,52],[44,53],[22,39],[12,42],[24,36],[45,35],[15,19],[27,49],[23,52],[36,104],[19,31],[165,183],[59,72],[96,124],[48,75],[20,21],[48,30],[84,72],[11,13],[42,65],[17,12],[46,24],[54,41],[60,37],[41,34],[76,48],[41,42],[38,59],[18,35]],[[3480,6214],[66,-38],[150,-107],[46,-18],[259,-52],[17,-5],[-10,-21],[-22,-26],[-14,-36],[-28,-10],[-5,-25],[-33,-8],[-37,-37],[20,-20],[-33,-20],[-1,-21],[-18,-3],[-16,-35],[-9,-73],[-21,-32],[9,-26],[33,-25],[8,-11],[68,-78],[29,-27],[45,-7],[51,-22],[61,-46],[1,-15],[33,-7],[20,-14]],[[4149,5349],[22,5],[25,-18],[-15,-47],[-4,-34],[-22,-38],[-2,-14],[18,-56],[37,-40],[11,-21],[23,-21],[27,-10],[10,-37]],[[4279,5018],[-14,-53],[-58,-210],[-17,-48],[-17,-37],[-26,-46],[-213,-328],[-62,-86],[-34,-22],[-91,-25],[-48,-26],[-31,-38],[-92,-142],[-60,-90],[-29,-39],[-42,-41],[-102,-87],[-122,-95],[-37,-33],[-71,-74],[-24,-29],[-18,-36],[-143,-357],[-14,-30],[-22,-33],[-91,-115],[-160,-204],[-17,-30],[-84,-208],[-194,-487],[-18,-38],[-24,-31],[-37,-32],[-335,-266],[-246,-196],[-41,-38]],[[1645,1368],[-104,533],[-119,623],[-69,371],[-111,580]],[[1242,3475],[34,3],[9,13],[-3,28],[29,30],[66,78],[101,96],[21,27],[21,16],[85,17],[17,-1],[36,42],[41,62],[29,50],[70,40],[17,67],[46,8],[11,23],[39,9],[40,26],[42,21],[17,4],[25,-12],[51,12],[29,17],[115,106],[29,30],[99,-4],[18,-3],[53,-24],[84,52],[92,66],[35,21],[21,23],[49,43],[34,45],[-3,83],[22,133],[6,12],[52,82],[14,29],[28,34],[8,30],[-17,76],[-9,27],[2,23],[21,56],[13,63],[0,39],[6,30],[28,45],[75,66],[47,8],[40,48],[32,50],[55,-2],[29,-11],[25,-19],[19,41],[14,69],[5,38],[1,67],[35,127],[29,118],[34,115],[25,41],[16,38],[18,95],[7,11],[59,46]],[[650,6495],[122,-1],[18,2],[153,1],[164,3],[18,8],[44,64],[14,10],[31,8]],[[2642,6489],[175,-137],[44,-23],[32,-6],[166,3],[59,-8],[141,-56],[49,-12],[84,-4],[36,-7],[52,-25]],[[1242,3475],[-7,31],[-155,805],[-48,238],[-94,471],[-159,795],[-49,263],[-26,120],[-45,251],[-9,46]],[[4279,5018],[30,-44],[6,-34],[20,-42],[40,-24],[32,-26],[25,0],[19,-23],[34,-25],[-11,-22],[11,-37],[26,-27],[9,-33],[-13,-19],[-18,-3],[-28,14],[-15,-10],[1,-30],[24,-16],[11,-27],[60,6],[25,-14],[22,-3],[25,13],[4,13],[-4,41],[-14,41],[-30,58],[-6,22],[-15,29],[7,36],[-1,29],[-19,29],[-10,37],[-1,41],[19,38],[20,18],[37,22],[64,47],[27,25],[32,18],[26,21],[18,7],[26,-109],[8,-55],[12,-30],[99,-135],[45,-5],[29,21],[25,-26],[8,-18],[20,-21],[35,-106],[28,-28],[9,-57],[13,-10],[36,-6],[3,-17],[22,-22],[44,-16],[6,-10],[0,-39],[21,-39],[15,-39],[-2,-20],[11,-23],[27,-25],[25,-13],[21,3],[40,-21],[9,-24],[13,1],[1,27],[11,11],[33,5],[19,15],[43,21],[24,22],[86,33],[56,25],[21,-8]],[[5710,4426],[-34,-7],[-142,-144],[-132,-197],[-404,-601],[-6,-1],[-62,-95],[-215,-153],[-4,-44],[-18,-50],[232,-370],[302,-482]],[[5227,2282],[-66,-84],[-17,-29],[-55,-129],[-15,-26],[-49,-62],[-32,-23],[-93,-109],[-76,-86],[-31,-2],[-43,-10],[-3,-23],[-90,-215],[-44,-74],[-45,-61],[5,-39],[-78,-96],[-25,-26],[-11,-118],[-11,-18],[-47,-44],[-11,-44],[0,-30],[-15,-50],[-28,-58],[-33,-46],[-33,-33],[-21,-38],[-10,-30],[-41,-66],[-27,-54],[0,-60],[12,-17],[99,-69],[17,-47],[-12,-37],[-19,-30],[-37,-33],[-66,-77],[-63,-86],[-63,-103],[-257,3],[-30,-2],[-1039,5],[-59,2],[-119,-2],[-663,3],[-38,216],[-68,371],[-76,441],[-56,331]],[[5710,4426],[-11,32],[10,7],[324,480],[53,68],[242,374],[73,108],[256,400],[104,144],[22,26],[42,63]],[[10603,6263],[-12,-54],[-36,-109],[-5,-42],[-45,-94],[-27,-100],[-32,-79],[-32,-97],[-48,-115],[-26,-90],[-24,-43],[-53,-67],[-68,-114],[-43,-60],[-17,-29],[-18,-57],[-15,-24],[-18,-68],[0,-63],[-40,-38],[0,-34],[-7,-10],[-643,-145],[-16,-33],[-21,-15],[-19,-24],[-300,8],[15,-220],[-101,-5],[-44,-32],[-80,-28],[-3,-172],[-548,0],[-3,-236],[-221,-2],[-3,-211],[-46,-6],[-14,29],[-27,6],[-15,-9],[-40,-9],[-29,-16],[-49,-33],[-20,-3],[-27,-17],[-25,-31],[-26,-10],[-36,8],[-36,-1],[-29,-8],[-10,-14],[-40,-84],[-58,-24],[-29,6],[-85,-33],[-28,-23],[-14,11],[-32,3],[-88,-53],[-30,-24],[-44,-47],[-21,-14],[-35,6],[-65,-40],[-35,-12],[-50,-4],[-26,-21],[-16,11],[-60,-17],[-16,-19],[-37,-3],[-73,-37],[-36,-8],[-71,1],[-37,-15],[-35,-45],[-30,-19],[-40,-17],[-55,-4],[-27,-9],[-36,-30],[-39,-24],[-42,-7],[-36,-13],[-20,-19],[-57,-18],[-26,-24],[-36,-15],[-6,-11],[-26,-13],[-56,-17],[-28,-2],[-34,-9],[-17,6],[-25,-4],[-19,-18],[-53,-21],[-91,-49],[-53,-35],[-58,-25],[-81,-44],[-30,-27],[-34,-44],[-29,-59],[-22,-62],[-78,-90],[-18,-17],[-43,-27],[-88,-113]],[[650,6495],[-19,90],[-56,299],[-22,93],[-9,59],[-23,112],[-13,76],[-42,211],[-23,111],[-5,9],[-43,178],[-9,44],[-91,567],[-174,884],[-121,615],[790,6],[538,2],[225,1],[724,3],[761,3],[1000,4],[465,10],[9,-9],[2,-111],[128,0],[22,-15],[5,-20],[23,-5]],[[6326,8631],[15,67]],[[6341,8698],[25,118],[-4,102],[4,65],[24,143],[3,95],[4,14],[26,28],[38,63],[46,106],[30,101],[32,130],[25,90],[49,102]],[[6643,9855],[212,-1],[1173,-5],[247,0]],[[8158,8952],[-17,-12],[-62,-26],[-24,-1],[-107,-40],[-27,-7],[-18,-19],[-29,-10],[-9,-23],[-42,-27],[-31,-34],[-9,12],[13,32],[-11,22],[6,25],[-43,-18],[-6,-20],[-33,8],[-61,2],[-34,-19],[-72,-23],[-28,-19],[-54,-65],[-79,-85],[-61,-22],[-44,-20],[-75,-3],[-66,11],[-58,18],[-46,21],[-42,-2],[-101,-24],[-29,-29],[-28,-67],[-19,-16],[-33,-10],[-62,1]],[[6717,8463],[-111,1],[-54,3],[-54,8],[-32,-5],[-11,36],[-12,15],[-27,5],[7,23],[-12,52],[-9,14],[-76,16]],[[6174,7875],[39,-11],[104,-17],[34,106],[21,42],[48,54],[46,45],[30,37],[32,56],[57,111],[35,61],[22,27],[75,77]],[[6827,6132],[-117,175],[-24,32],[-10,44],[2,37],[-11,101],[3,40],[20,65],[-6,64],[2,34],[7,19],[29,21],[9,28],[-21,30],[-27,8],[-18,14],[-19,59],[-34,61],[-9,49],[17,108],[16,43],[-5,24],[17,59],[-6,32]],[[6642,7279],[-33,35],[-15,27],[-24,70],[-2,16],[10,58],[17,44],[-17,32],[-26,29],[-46,34],[-97,61],[-78,70],[-37,25],[-23,-38]],[[6271,7742],[-95,23],[-56,1],[39,63],[15,46]],[[4108,8373],[33,-32],[28,-34],[15,-31],[7,-29],[7,-67],[-15,-59],[-25,-66],[-2,-16],[11,-31],[25,-19],[25,-6],[78,8],[37,-4],[81,-27],[37,0],[81,10]],[[4531,7970],[61,-32],[18,-14],[12,-35],[10,-103],[19,-77],[7,-100],[-1,-72],[-8,-83],[-8,-119],[-1,-46],[4,-112],[1,-114],[4,-45],[12,-37],[45,-24],[33,-8],[52,1],[27,-10],[21,-15],[30,-40],[23,-22],[-6,-20],[-47,-63],[2,-17],[17,-6],[82,-47],[39,-18],[75,-44],[10,-39]],[[5064,6609],[-35,-1],[-9,-42],[-40,-45]],[[4980,6521],[-47,7],[-67,23],[-45,8],[-36,14],[-18,-3],[-28,-30],[-51,1],[-6,-10],[0,-150],[-4,-133],[3,-83],[-125,-21],[-6,-5],[13,-75],[21,4],[4,-16],[-40,-50],[-4,-35],[26,-4]],[[4570,5963],[-39,-56],[-110,-134],[-82,-103],[-82,-113],[-38,-76],[-28,-46],[-42,-86]],[[4913,6060],[89,54],[15,6],[104,61]],[[5121,6181],[21,-13],[-29,-34],[30,-27],[24,-14],[28,-6],[-1,-42],[55,1],[53,-42],[47,45],[-24,25],[53,1],[71,-62]],[[5449,6013],[119,-104]],[[5568,5909],[-45,-34],[-60,-9],[-110,8],[-29,-13],[2,-17],[22,-46],[4,-55],[-5,-32],[-24,-36],[-11,4],[-156,2],[-16,18],[-24,3],[-125,2],[-35,8],[32,61],[19,63],[2,45],[0,126],[-77,-94],[-43,-34],[-51,-30],[-40,-40],[-40,11],[39,99],[30,16],[15,17],[28,-3],[43,111]],[[5145,9861],[775,-3],[723,-3]],[[6341,8698],[-5,1],[-15,58],[-1,26],[17,37],[6,38],[-17,57],[-27,16],[-15,-28],[-26,-24],[-24,-6],[-41,-24],[-9,-31],[10,-22],[-18,-27],[-47,29],[-86,44],[-55,41],[-14,21],[-9,46],[-6,55],[-24,95],[-38,46],[-40,2],[-44,-35],[-91,-78],[-10,-11],[-15,-38],[-16,-7],[-89,3],[-39,6],[-16,-93],[4,-54],[-5,-104],[-11,-76],[2,-53],[11,-18],[28,-23],[65,-30],[31,-19],[29,-40],[22,-58],[12,-45],[-2,-87],[11,-44]],[[5734,8244],[-35,7],[-249,53],[-47,-1],[-32,-14],[-72,-44],[-29,-14],[-38,-9],[-284,0],[-27,-4],[-35,-12]],[[4886,8206],[-32,-19],[-293,-203],[-30,-14]],[[4886,8206],[4,-77],[-5,-162],[24,-94],[17,-80],[25,-142],[9,-27],[39,-77],[39,8],[106,16],[20,-1],[54,-27],[26,-2],[46,17],[123,1],[81,-14],[66,20],[44,32],[21,9],[34,-7],[16,-10],[51,-51],[-6,-33],[15,-14],[254,-3]],[[5989,7488],[-23,-67],[-28,-55],[-207,-276],[-58,-64],[-49,-52]],[[5624,6974],[-61,-95]],[[5563,6879],[-104,-171]],[[5459,6708],[-47,-28],[-45,24],[-67,29],[-24,-56],[-19,-32],[-37,20],[-74,-124],[-13,-15],[-28,15],[-12,26],[-29,42]],[[4570,5963],[59,68],[33,30],[44,21],[38,-5],[80,-37],[35,-3],[31,9],[23,14]],[[5568,5909],[40,-35],[36,-20],[52,-5],[34,10],[22,13],[175,119],[74,58],[19,11],[39,9],[47,-6],[107,-43],[28,-6],[37,0],[97,16],[39,-1],[57,-8],[52,13],[66,40],[14,17],[21,75],[27,28],[26,11],[44,4],[23,-7],[28,-20],[30,-34],[23,-20]],[[4980,6521],[2,-35],[-19,-36],[16,-32],[26,-22],[37,-8],[17,7],[56,-24],[107,-58],[28,-13]],[[5250,6300],[-40,-43],[-58,-52],[-31,-24]],[[5327,6492],[13,26],[119,190]],[[5563,6879],[34,-21],[-26,-34],[25,-22],[28,-13],[-8,-26],[102,2],[-29,-53],[-7,-29],[26,-2],[25,-11],[-76,-126],[11,-1],[-7,-58],[-5,-6],[-48,0],[1,-170],[-35,0]],[[5574,6309],[1,44],[-6,5],[-124,23],[6,27],[-50,12],[-48,23],[17,33],[-43,16]],[[5624,6974],[44,-34],[20,-26],[53,-47],[39,-41],[15,-4],[37,-40],[40,-28],[54,-64],[48,-65],[-14,-35],[7,-5],[32,38],[10,40],[15,16],[38,28],[5,21],[-10,37],[16,37],[23,15],[23,30],[-4,14],[-30,14],[-18,28],[-19,12],[-12,29],[11,17],[25,13],[48,8],[27,0],[49,-10],[39,9],[73,51],[12,33],[-11,25],[2,24],[48,40],[8,17],[-7,26],[8,30],[34,32],[59,80],[24,3],[26,-21],[33,-17],[69,-20],[29,-5]],[[5449,6013],[28,54],[19,20],[35,70],[2,127],[-2,25],[43,0]],[[5327,6492],[-14,-29],[-38,-109],[-25,-54]],[[6326,8631],[-12,-64],[-77,-373]],[[6237,8194],[-137,1],[-54,5],[-4,-150],[-5,-18],[-41,-42],[-63,-26],[-100,0],[-76,5],[-6,15],[3,257],[-20,3]],[[6174,7875],[18,86],[4,30],[41,203]],[[6271,7742],[-172,-208],[-37,-49],[-73,3]]],"transform":{"scale":[0.00003454203375874804,0.00003074220016207496],"translate":[-85.52726100000001,34.286097]},"objects":{"Geometry\\13-055":{"type":"GeometryCollection","geometries":[{"arcs":[[0,1,2,3,4]],"type":"Polygon","properties":{"GEOID":"130550101002"}},{"arcs":[[5,6,7,8,9]],"type":"Polygon","properties":{"GEOID":"130550103001"}},{"arcs":[[10,11,12,13,14]],"type":"Polygon","properties":{"GEOID":"130550106002"}},{"arcs":[[15,-9,16,-15,17]],"type":"Polygon","properties":{"GEOID":"130550103003"}},{"arcs":[[-13,18,19,20]],"type":"Polygon","properties":{"GEOID":"130550106001"}},{"arcs":[[21,-4,22,-20]],"type":"Polygon","properties":{"GEOID":"130550101001"}},{"arcs":[[-10,-16,23]],"type":"Polygon","properties":{"GEOID":"130550103002"}},{"arcs":[[24,25,26,-2,27,28]],"type":"Polygon","properties":{"GEOID":"130550102021"}},{"arcs":[[29,-28,-1,30,31,32]],"type":"Polygon","properties":{"GEOID":"130550102023"}},{"arcs":[[33,34,35,36,37,-11,-17,-8]],"type":"Polygon","properties":{"GEOID":"130550104011"}},{"arcs":[[38,39,40,41]],"type":"Polygon","properties":{"GEOID":"130550105023"}},{"arcs":[[-7,42,-26,43,44,45,-34]],"type":"Polygon","properties":{"GEOID":"130550102011"}},{"arcs":[[-46,46,47,48,49,50,-35]],"type":"Polygon","properties":{"GEOID":"130550104021"}},{"arcs":[[51,-42,52,-22,-19,-12,-38]],"type":"Polygon","properties":{"GEOID":"130550105021"}},{"arcs":[[53,54,-39,-52,-37]],"type":"Polygon","properties":{"GEOID":"130550104012"}},{"arcs":[[55,-50,56,57]],"type":"Polygon","properties":{"GEOID":"130550105024"}},{"arcs":[[-57,-49,58,-31,-5,-53,-41,59]],"type":"Polygon","properties":{"GEOID":"130550105012"}},{"arcs":[[-36,-51,-56,60,-54]],"type":"Polygon","properties":{"GEOID":"130550104022"}},{"arcs":[[-55,-61,-58,-60,-40]],"type":"Polygon","properties":{"GEOID":"130550105022"}},{"arcs":[[-25,61,62,-44]],"type":"Polygon","properties":{"GEOID":"130550102012"}},{"arcs":[[-62,-29,-30,63]],"type":"Polygon","properties":{"GEOID":"130550102022"}},{"arcs":[[-45,-63,-64,-33,64,-47]],"type":"Polygon","properties":{"GEOID":"130550102013"}},{"arcs":[[-48,-65,-32,-59]],"type":"Polygon","properties":{"GEOID":"130550105011"}}]}}}