{"type":"Topology","arcs":[[[4929,1713],[199,-23],[63,-19],[61,-28],[49,-27],[58,-18],[169,-4],[2,402],[4,244],[3,55],[29,227],[29,239],[27,196],[25,201],[26,190],[26,216],[43,318],[35,180]],[[5777,4062],[55,-55],[31,-9],[139,0],[191,-1],[282,-1],[417,-6],[172,-26],[50,-12],[131,-47],[22,-21],[60,-114],[18,-51],[-2,-34],[32,-10],[19,46],[56,1],[89,55],[14,45],[14,12],[64,-1],[36,-12],[23,3],[31,-18],[48,-64],[55,-19],[60,56],[49,-1],[33,9],[7,14],[42,6],[73,-32],[17,56],[42,44],[22,42],[1,36]],[[8170,3953],[33,27],[97,3],[28,43],[31,-13],[23,2],[27,29],[0,31],[43,21],[22,-15],[81,-14],[15,27],[33,-7],[21,-35],[51,32],[-4,57],[-45,72],[9,38],[68,17]],[[8703,4268],[2,-174],[-4,-229],[-4,-290],[1,-182],[-3,-18],[4,-111],[-5,-106],[-7,-362],[3,-38],[-2,-340],[2,-12],[-5,-250],[1,-77],[-6,-636],[-10,-1212],[-3,-12],[-3,-219],[-585,4],[-390,3],[-806,10],[-269,2],[-112,4],[-76,-7],[-53,6],[-287,6],[-129,0],[-39,5],[-376,6],[-30,-3],[-192,2],[-189,6],[-196,2]],[[4935,46],[-8,90],[-25,134],[-60,273],[-16,197]],[[4826,740],[-10,172],[-19,140],[5,49],[104,320],[5,34],[0,55],[14,-1],[4,204]],[[3437,5446],[9,-22],[61,-219],[24,-27],[70,-23],[84,1],[60,-45],[74,-35],[91,-36],[199,-132],[110,-101],[-9,-327],[-1,-251],[-4,-223],[5,-135],[-1,-93],[72,-156],[2,-28],[-5,-137]],[[4278,3457],[-39,-34],[12,-50],[-9,-38],[6,-30],[-6,-24],[-36,-14],[-2,-16],[-52,3],[-30,9],[-53,-25],[-19,-83],[-24,-54],[3,-24],[20,-13],[7,-46],[-21,-9],[-25,-52],[-25,-34],[-43,-15],[-9,-18],[-62,-66],[-10,-16],[-61,-26],[-15,0],[-63,-83],[-3,-22],[-31,-64],[-51,-37],[-40,-43],[-35,-24],[-7,-29],[-24,-15],[-31,-35],[-24,2],[-34,-11],[-4,-15],[-48,-21],[-8,-27],[-27,-14],[-26,4],[-23,-10],[-9,-35],[-33,-32],[-99,-29],[-30,-32],[-22,-7],[-83,-115],[-51,-17],[-40,-42],[-96,-67],[-86,24],[-70,-10],[-65,-29],[-12,-19],[-35,-24],[-5,-24],[-38,-23],[-22,-28],[-41,4],[-37,17],[-38,-15],[-18,10],[-19,-22],[-38,-17],[-46,-44],[-18,-1],[-6,-27],[-39,-7],[-67,-41],[-29,30],[-35,9],[-59,-31],[-34,12],[-56,42]],[[1930,1748],[-17,28],[9,35],[37,0],[34,64],[-54,106],[-22,96],[-13,22],[27,64],[22,27],[32,64],[-11,17],[1,28],[18,15],[5,42],[15,57],[23,32],[-4,41],[10,44],[38,42],[-4,63],[17,59],[12,22],[47,33],[46,55],[-14,30],[-11,50],[18,16],[41,58],[-30,47],[9,22],[-14,27],[0,35],[21,15],[27,49],[18,9],[16,50],[49,62],[-9,41],[4,41],[23,15],[6,42],[-13,32],[10,17],[-21,55],[7,22],[-4,69],[4,65],[-4,47],[14,18],[13,48],[32,28],[33,112],[37,57],[24,-1],[29,17],[12,44],[15,10],[15,66],[17,27],[36,34],[1,59],[-8,28],[2,53],[17,9],[8,26],[32,41],[31,75],[-14,26],[2,49],[31,9],[37,43],[39,32],[27,6],[9,24],[27,2],[44,51],[49,18],[22,41],[3,21],[28,7],[26,33],[69,70],[32,62],[33,10],[-1,29],[-14,51],[30,41],[60,37],[28,43],[31,25],[24,38],[34,12],[29,54],[-12,45],[-1,32],[17,19],[20,-5],[23,16],[14,34]],[[1153,931],[31,16],[24,2],[30,49],[31,21],[27,-7],[29,35],[23,37],[14,44],[18,26],[-5,68],[18,18],[28,2],[25,36],[28,6],[67,51],[43,5],[3,28],[19,27],[25,58],[5,36],[-37,11],[-8,61],[-1,47],[17,27],[21,-5],[7,24],[20,-2],[60,38],[14,19],[43,-2],[26,-12],[33,1],[48,-19],[29,13],[22,58]],[[4278,3457],[30,35],[75,28],[119,5],[19,8],[39,36],[24,12],[216,45],[35,3],[223,-4]],[[5058,3625],[-77,-38],[-43,-34],[-47,-55],[-52,-72],[-13,-30],[-26,-100],[-9,-128],[5,-28],[60,-209],[6,-79],[-41,-195],[-11,-102],[0,-276],[-9,-202],[-2,-94],[5,-54],[33,-98]],[[4837,1831],[-60,-1],[-97,5],[-121,55],[-172,-194],[-32,-28],[-86,-47],[-341,-133],[-83,-27],[-79,-31],[-125,-53],[-69,-1],[-35,-29],[-8,-426],[20,13],[49,16],[147,30],[93,-5],[254,-1],[213,-6],[-39,-62],[-20,-47],[136,-18],[152,-6],[207,-89],[85,-6]],[[4935,46],[-336,6],[-75,0],[-404,5],[-176,4],[-329,4],[-326,7],[-8,-6],[-123,5],[-299,-5],[-561,-1],[-392,4],[-38,-7],[-113,1],[-8,8],[-273,1],[-11,32],[-1,44],[8,68],[-53,14],[-93,36],[-13,26],[15,34],[22,15],[17,34],[2,25],[-16,60],[-23,32],[-35,7],[-27,-11],[-46,-45],[-47,-36],[-27,-6],[-42,20],[-21,40],[0,22],[20,90],[8,65],[21,100],[9,86],[15,91],[-3,16]],[[3075,7168],[-2,-360],[3,-223],[29,-4],[69,-33],[117,-99],[61,-101],[64,-93],[28,-100],[12,-71],[9,-103],[20,-152],[1,-72]],[[3486,5757],[-65,-34],[5,-29],[-2,-204],[13,-44]],[[1153,931],[-21,61],[-58,62],[-31,40],[-35,31],[-55,37],[-8,26],[21,47],[44,33],[18,32],[14,88],[22,76],[29,53],[33,45],[-7,50],[35,80],[39,22],[4,32],[-21,10],[-21,-9],[-17,11],[-8,56],[-30,8],[-11,-21],[-24,-7],[-29,5],[-33,-24],[-18,21],[8,38],[-6,21],[-26,12],[-52,-42],[-30,5],[-6,23],[25,77],[24,38],[-10,21],[-26,8],[-78,-8],[-37,-27],[-44,9],[-5,30],[19,25],[-22,37],[-38,16],[-12,27],[10,45],[-13,44],[12,18],[21,-20],[16,4],[17,50],[23,37],[-6,21],[-28,-2],[-22,-30],[-22,-5],[-40,16],[-24,71],[-30,21],[-31,-4],[-15,14],[10,46],[-23,20],[-58,-6],[-16,12],[-12,32],[11,54],[-11,73],[14,49],[56,92],[3,25],[-14,28],[-24,14],[-66,-24],[-33,6],[-33,30],[-50,60],[-49,40],[-18,34],[-4,27],[21,21],[-2,55],[-31,27],[-38,90],[-39,48],[-61,95],[-67,45],[-1,44],[28,-1],[12,15],[-10,54],[14,39],[-6,35],[-40,36],[6,30],[18,5],[42,-14],[11,30],[-2,25],[13,95],[26,-5],[22,28],[-32,46],[16,35],[-2,17],[29,31],[-7,38],[-26,43],[-31,14],[-17,30],[2,21],[-23,28],[23,37],[19,2],[4,33],[-11,32],[46,7],[91,55],[1,31],[30,1],[32,84],[19,4],[-6,44],[18,8],[-8,49],[29,74],[36,44],[28,22],[-9,29],[22,8],[-3,21],[18,31],[72,20],[-5,28],[22,3],[11,25],[41,1],[13,33],[19,-1],[22,19],[12,41],[39,44],[34,10],[32,61],[48,65],[4,39],[20,13],[21,-3],[17,30],[17,12],[33,-18],[16,47],[28,-1],[44,60],[19,6],[28,34],[8,52],[27,55],[71,79],[38,-11],[13,92],[23,12],[36,60],[28,28],[17,30],[-3,43],[38,24],[-6,29],[1,45],[57,27],[14,40],[2,94],[28,16],[60,63],[41,33],[57,5],[24,28],[21,8],[29,-9],[24,20],[50,12],[22,-4],[7,37],[25,53],[27,41],[48,21],[14,16],[71,16],[51,34],[19,-10],[21,8],[12,43],[32,18],[7,35],[34,-9],[21,5],[13,33],[33,12],[21,-5],[42,67],[29,7],[39,23],[35,4],[56,21],[34,22],[28,34],[1,20],[19,23],[43,9],[30,47],[3,35],[40,11],[29,-6],[59,15],[38,25],[16,-4],[31,24],[4,46],[-6,79],[10,26],[-15,78],[28,23],[19,44],[15,8],[100,-2],[141,-12]],[[3486,5757],[60,30],[65,10],[151,38],[125,43],[71,10],[150,3],[96,-4],[101,14],[129,-23],[207,-9],[111,16],[22,13],[48,47],[5,-129],[-2,-80],[-8,-114],[112,-65],[29,-7],[65,19],[63,46],[16,2],[214,-164],[169,-5],[157,-3],[16,54],[82,140],[98,-30],[86,196],[30,70],[47,156]],[[6001,6031],[14,-3],[-1,-75],[-5,-355],[144,-1],[23,-5],[78,-40],[142,-7],[24,-10],[59,-82],[61,-71],[35,-33],[165,-65],[27,-18],[20,-41],[2,-85],[34,-51],[97,-69],[52,-25],[132,-33],[51,-5],[37,-13],[42,-32],[118,-203],[136,-118],[10,-38],[1,-91],[13,-40],[44,-96],[75,-101],[49,-35],[150,-38],[24,-10],[71,-71],[43,-18],[60,6],[41,-7],[22,-18],[53,-59],[26,-22]],[[5777,4062],[-55,64],[-22,-21],[-5,-73],[-7,-5],[-90,0],[-40,-27],[-78,-67],[-22,1],[-45,-57],[-101,-87],[-221,-148],[-33,-17]],[[3075,7168],[43,-5],[665,-14],[49,-3],[357,-5],[161,0],[599,-8],[664,-1],[445,-4]],[[6058,7128],[-23,-108],[-2,-78],[-3,-283],[60,-162],[1,-64],[-43,-148],[-75,-248],[28,-6]],[[6058,7128],[382,-1],[-6,-83],[-1,-109],[286,-11],[91,-3],[-2,39],[2,163],[221,5],[42,-9],[48,1],[37,-7],[301,0],[331,-4],[264,-13],[299,-6],[44,-4],[334,-6],[4,-133],[-1,-131],[3,-6],[-8,-300],[3,-438],[-193,4],[-1,-266],[119,1],[1,-101],[62,7],[-1,-198],[-3,-181],[-2,-392],[-3,-250],[1,-43],[-5,-158],[4,-43],[10,-23],[-15,-42],[-3,-119]],[[4929,1713],[2,115],[-94,3]]],"transform":{"scale":[0.00004890065239784977,0.000036791562238930855],"translate":[-84.033358,32.027938]},"objects":{"Geometry\\13-093":{"type":"GeometryCollection","geometries":[{"arcs":[[0,1,2,3,4,5]],"type":"Polygon","properties":{"GEOID":"130939703001"}},{"arcs":[[6,7,8]],"type":"Polygon","properties":{"GEOID":"130939702001"}},{"arcs":[[9,-8,10,11,12,-5,13]],"type":"Polygon","properties":{"GEOID":"130939703003"}},{"arcs":[[14,15,-9,-10,16]],"type":"Polygon","properties":{"GEOID":"130939702002"}},{"arcs":[[17,18,-2,19,-11,-7,-16]],"type":"Polygon","properties":{"GEOID":"130939701003"}},{"arcs":[[20,21,-18,-15]],"type":"Polygon","properties":{"GEOID":"130939701002"}},{"arcs":[[22,-3,-19,-22]],"type":"Polygon","properties":{"GEOID":"130939701001"}},{"arcs":[[-20,-1,23,-12]],"type":"Polygon","properties":{"GEOID":"130939703002"}},{"arcs":[[-24,-6,-13]],"type":"Polygon","properties":{"GEOID":"130939703004"}}]}}}