{"type":"Topology","arcs":[[[3870,2181],[70,-34],[48,-43],[112,-136],[24,-18],[225,-113],[54,-26],[84,-33],[297,-123]],[[4784,1655],[-16,-34],[-13,-56],[-6,-53],[-24,-49],[-52,-69],[-56,-51],[-83,-84],[-31,-54],[-8,-53],[20,-113],[-3,-160],[-10,-62],[-25,-30],[-6,-58],[-1,-136]],[[4470,593],[-108,38],[-246,73],[-147,38],[-87,40],[-66,40],[-53,64],[-218,298],[-22,25],[-85,61],[-78,48]],[[3360,1318],[137,241],[51,92],[98,214],[79,165],[27,44],[29,30],[89,77]],[[3033,945],[236,234],[39,50],[52,89]],[[4470,593],[158,-6],[28,-6],[129,-64],[37,-16],[244,-61],[-11,-51],[3,-141]],[[5058,248],[-51,34],[1,-35],[-23,-20],[0,-14],[-18,-32],[-31,6],[-10,-26],[-14,1],[-21,23],[-28,65],[-12,19],[-63,-22],[-44,-7],[-9,-38],[-21,-8],[-76,36],[-55,-3],[-18,19],[-18,1],[-21,-32],[-40,19],[-31,29],[-13,28],[5,62],[-4,16],[-62,65],[-23,43],[-3,19],[-28,-9],[7,-53],[2,-97],[11,-31],[-18,-1],[-27,15],[-38,-37],[-6,-18],[4,-31],[18,-31],[-14,-25],[-72,-53],[-13,-20],[-40,-6],[-15,-12],[-49,16],[-20,24],[-26,-8],[-23,12],[-10,29],[-81,-31],[-27,6],[-23,-20],[-95,-58],[-20,-57],[-17,23],[-23,7],[-8,29],[-20,27],[-35,8],[-13,32],[13,21],[-23,21],[4,27],[34,33],[14,82],[-5,27],[-18,19],[-11,34],[2,27],[-8,27],[4,35],[-18,81],[-10,12],[-33,-4],[-42,33],[-11,19],[-20,3],[-30,-28],[-34,5],[-41,33],[-32,54],[-35,81],[-37,33],[-30,4],[-19,-13],[-28,-54],[-17,-13],[-10,33],[-49,23],[-39,89],[-5,48],[-7,10],[-62,17]],[[2620,9165],[-62,-37],[-60,-27],[-70,-22],[-260,-51],[-134,-25],[-62,-15],[-123,-39],[-101,-40],[-186,-78],[-306,-127]],[[1256,8704],[138,427],[44,140],[99,300],[246,763],[27,-3],[31,-24],[9,-25],[-2,-31],[-27,-71],[2,-66],[34,-48],[36,2],[60,-16],[19,-23],[3,-26],[-32,-70],[2,-52],[15,-14],[28,-9],[28,-19],[-5,-36],[-48,-24],[-66,-18],[-30,-19],[6,-25],[49,-20],[66,-13],[48,-33],[27,-67],[63,-53],[15,-1],[22,23],[20,4],[17,-26],[-10,-52],[6,-23],[50,-37],[20,-30],[78,-86],[46,-54],[33,-18],[86,-16],[76,-30],[35,-20]],[[1002,7919],[41,130],[213,655]],[[2620,9165],[45,-37],[36,-97],[8,-58],[33,-122],[3,-39],[-20,-84],[-31,-110],[6,-58],[24,-39],[46,-27],[67,-64],[35,-27],[113,-71],[61,-33],[100,-70],[26,-23],[37,-51]],[[3209,8155],[-22,-32],[-121,-152],[-44,-75],[-56,-74],[-71,-40],[-43,-2],[-64,-12],[-65,1],[-90,12],[-72,21],[-243,49],[-24,1],[-46,-9],[-95,-8],[-121,-33],[-46,-3],[-43,11],[-134,46],[-53,9],[-57,-12],[-22,2],[-77,21],[-52,21],[-76,14],[-101,45],[-52,9],[-65,-2],[-35,-12],[-79,-6],[-138,-26]],[[6200,5430],[17,11],[74,68],[70,80],[27,25],[95,71],[37,23],[123,64],[153,97],[121,75],[96,56],[53,36],[50,51],[38,66],[16,49],[7,69],[-11,82],[-29,106],[0,53],[51,237],[7,42],[-3,39],[-13,47],[-43,120]],[[7136,6997],[19,8],[76,-5],[47,15],[38,27],[41,-2],[11,-20],[2,-122],[15,-54],[34,-60],[86,-40],[68,-14],[45,2],[20,-18],[32,4],[20,23],[13,38],[8,116],[25,31],[32,9],[33,1],[18,-14],[-20,-25],[11,-33],[56,-28],[49,-2],[34,-10],[40,-4],[45,-27],[2,-27],[13,-9],[26,-41],[16,-5],[27,17]],[[8118,6728],[-92,-126],[-43,-96],[-25,-31],[-243,-189],[-22,-24],[-13,-27],[33,-28],[13,-28],[29,-135],[25,-195],[15,-154],[24,-104],[4,-49],[-20,-160]],[[7803,5382],[-207,36],[-85,18],[-69,23],[-150,61],[-44,8],[-152,-9],[-13,-58],[-35,-73],[-172,-285],[-36,-46],[-35,-24],[-66,-37]],[[6739,4996],[-37,80],[-17,23],[-42,26],[-261,116],[-61,37],[-33,33],[-88,119]],[[9690,4823],[225,43],[66,4],[52,-5],[79,-19],[12,91],[8,91],[-4,103],[0,79],[12,180],[5,28],[17,41],[100,202],[56,84],[50,44],[71,30],[54,34],[31,42],[67,167],[10,29]],[[10601,6091],[138,-417],[82,-255],[76,-229],[127,-374],[27,-134],[17,-107],[71,-235],[56,-176],[30,-104],[111,-365]],[[11336,3695],[-144,-11],[-114,13],[-140,-21],[-86,2],[-138,-4],[-171,-14],[-181,-10],[-152,-6],[-187,24],[-96,7],[-85,-10],[-64,-4],[-202,-35]],[[9576,3626],[23,274],[21,135],[39,199],[71,348],[2,76],[-8,44],[-34,121]],[[7803,5382],[40,-2],[54,5],[49,12],[43,19],[40,26],[58,46],[166,135],[94,74],[30,16],[32,6],[232,20],[120,22],[46,2],[40,-10],[42,-25],[100,-83],[53,-37],[122,-76],[40,-39],[70,-91],[30,-27],[110,-93],[133,-108],[43,-48],[29,-49],[14,-40],[57,-214]],[[9690,4823],[-172,-34],[-35,-3],[-47,3],[-139,21],[-175,22],[-58,-13],[-51,-37],[-138,-141],[88,-111],[27,-56],[-1,-48],[-11,-58],[-59,-141],[-29,-75],[-38,-68],[-14,-89],[-12,-21],[-121,-121],[30,-86],[-32,-15],[-61,-11],[-59,-38],[-42,-37],[0,-20],[18,-43],[-3,-20]],[[8556,3583],[-83,17],[-109,9],[-545,43]],[[7819,3652],[56,54],[11,18],[30,93],[43,90],[5,37],[-4,42],[-17,57],[-81,175],[-32,58],[-15,50],[7,151],[43,137],[19,23],[95,76],[-11,60],[-17,30],[-115,127],[-27,46],[-21,162],[0,35],[15,209]],[[2710,3269],[70,119],[206,341],[44,77],[148,314]],[[3178,4120],[34,-28],[50,-34],[99,-46],[157,-66],[63,-30],[64,-39],[66,-47],[52,-53],[123,-142],[16,-14],[49,-21],[28,-20],[41,-85],[17,-18],[55,-25],[68,-23],[53,-22],[53,-16],[85,-8]],[[4351,3383],[-38,-77],[-70,-203],[-18,-78],[-10,-206]],[[4215,2819],[-10,-176],[-9,-35],[-20,-36],[-73,-111],[-79,-125],[-48,-58]],[[3976,2278],[-135,108],[-141,102],[-90,53],[-87,43],[-85,30],[-113,47]],[[3325,2661],[-207,81],[-126,51],[-41,19],[-83,32],[-206,82],[-140,59]],[[2522,2985],[53,62],[135,222]],[[3870,2181],[106,97]],[[4215,2819],[91,-3],[16,-6],[52,-61],[49,-62],[93,-61],[33,-35],[35,-26],[78,63]],[[4662,2628],[67,-213],[45,-133],[30,-57],[16,-169],[40,-130],[81,-304]],[[4941,1622],[-115,18],[-42,15]],[[3360,1318],[-166,100],[-210,88],[-107,49],[-156,70],[-34,30],[-10,26],[-3,59],[4,205],[-8,124],[119,90],[71,45],[13,19],[258,140],[68,86],[42,63],[84,149]],[[1416,6337],[79,63],[95,107],[25,61],[10,65],[16,36],[41,49],[16,32],[15,77],[11,25],[42,45],[22,31]],[[1788,6928],[72,-59],[47,15],[109,-1],[40,24],[56,-29],[17,-17],[35,-9],[7,-51],[19,-22],[23,4],[30,17],[15,-2],[33,-42],[42,14],[16,14],[9,34],[-9,38],[1,47],[13,24],[37,19],[17,-39],[39,-51],[22,-45],[32,-38],[116,91],[20,10],[41,-135],[12,-25],[27,-23],[92,-52],[39,-30],[31,29],[53,69],[31,88],[10,69],[-1,40],[7,17],[62,56],[23,-25],[53,-27]],[[3126,6925],[33,-85],[11,-43],[19,-109],[19,-126],[54,-181],[24,-82],[7,-61],[3,-123],[-4,-109],[7,-66]],[[3299,5940],[-57,-21],[-52,7],[-29,18],[-51,44],[-29,10],[-30,-1],[-52,-12],[-90,-4],[-55,9],[-17,-81],[8,-29],[42,-64],[-5,-18],[-114,-110],[-33,-44]],[[2735,5644],[-54,37],[15,18],[-54,70],[-47,-44],[-20,5],[-19,-16],[-38,27],[-17,27],[-21,85],[-12,24],[-2,39],[13,56],[-23,25],[-20,38],[-60,-89],[-30,-35],[-32,-23],[-59,-28],[-71,-21],[-16,75],[-64,148],[-18,93],[-79,20],[-18,14],[-29,-6],[-49,8],[-37,-3],[-62,-16],[-64,9]],[[1748,6181],[-18,16],[-48,13],[-17,10],[-74,-22],[-38,-44],[-58,-28],[-9,-42],[-15,-31]],[[1471,6053],[-6,32],[-24,64],[4,73],[-5,43],[-24,72]],[[5953,5332],[68,29],[145,53],[34,16]],[[6739,4996],[-34,-23],[-242,-210],[-118,-101],[-23,-23],[-45,-57],[-33,-36],[-68,34],[-65,15],[-115,3],[-41,-3]],[[5955,4595],[-135,-15],[-55,-2]],[[5765,4578],[0,107],[-73,3],[-2,75],[53,65],[39,15],[51,61],[13,67],[34,28],[33,36],[-11,59],[39,37],[13,28],[39,45],[35,24],[-47,45],[-28,59]],[[1945,2598],[34,5],[128,36],[64,28],[64,38],[34,24],[48,42],[205,214]],[[3033,945],[-47,15],[-30,29],[-37,11],[-22,44],[-41,59],[-43,30],[-133,121],[-39,47],[-75,66],[-49,19],[-17,36],[-26,11],[-36,35],[-11,20],[11,32],[-16,58],[-10,7],[-31,64],[-35,-9],[-30,13],[-34,62],[-4,58],[-23,56],[-24,35],[-21,11],[-19,24],[6,44],[23,38],[21,66],[-16,67],[-35,14],[-25,31],[-21,15],[-17,49],[-14,14],[3,31],[-24,34],[-39,11],[-42,3],[-34,30],[-6,19],[-37,52],[-5,15],[22,49],[-13,45],[12,38],[-5,34]],[[5040,5092],[38,44],[24,5],[61,61],[76,-74],[44,-20],[37,-27],[19,-26],[24,-66],[35,-44],[22,36],[14,1],[53,-37],[9,-15],[84,-98],[25,-22]],[[5605,4810],[-24,-41],[-29,-32],[-82,-67],[-14,-18],[-50,-92]],[[5406,4560],[-22,-33]],[[5384,4527],[-51,-50],[-39,-29],[-83,-50],[-71,-57]],[[5140,4341],[-44,32],[46,58],[-20,40],[-4,36],[1,100],[-19,56],[-38,76],[-6,61],[11,185],[-27,62],[0,45]],[[5087,4292],[53,49]],[[5384,4527],[81,-107],[76,-94]],[[5541,4326],[-99,-65],[-144,-79],[17,-55],[-24,-27],[27,-20],[33,-39],[83,-143]],[[5434,3898],[5,-53],[-26,-191],[-7,5],[-85,113],[-59,74],[-29,45],[-30,-50],[-59,-24],[-36,-22],[-21,20],[-40,-12],[-64,0],[-28,35],[-69,9],[-48,27],[-58,97],[-32,12],[-29,-6],[-23,30]],[[4696,4007],[22,24],[84,77],[121,81],[121,69],[43,34]],[[4698,4450],[85,4],[37,-5],[58,-17],[38,-17],[63,-43],[108,-80]],[[4696,4007],[-42,-56]],[[4654,3951],[-22,51],[-1,61],[-11,26],[-30,37],[-32,-3],[13,226],[16,88],[111,3],[0,10]],[[5406,4560],[116,38],[37,3],[206,-23]],[[5955,4595],[5,-17],[49,-58],[21,-60],[53,-263],[-13,-31],[-111,-100]],[[5959,4066],[-194,47],[-27,17],[-58,65],[-58,63],[-46,43],[-35,25]],[[5959,4066],[110,-29],[106,-44],[36,-5],[87,18],[132,32],[16,2],[76,-180],[27,-40],[41,-32],[19,-24],[30,-77],[17,-66],[17,-92],[-124,-26],[-104,-29],[-55,-61],[-40,-53]],[[6350,3360],[-72,50],[-32,39],[-6,25],[-76,33],[0,6],[-232,96],[-71,33],[-161,66],[-16,1],[-91,35],[-63,46],[-74,73],[-22,35]],[[8556,3583],[244,-63]],[[8800,3520],[-63,-63],[-6,-14],[-3,-56],[-16,-38],[-4,-57],[-6,-18],[-30,-27],[-85,-33],[-94,-49],[-70,-58],[-31,-16],[-53,-35],[-48,-12],[-71,-33],[-25,-42],[201,-13],[155,-13],[96,-24],[368,-143],[464,-180],[83,-41],[47,-28],[217,-141],[40,-23],[61,-30],[85,-32],[164,-46]],[[10176,2255],[-90,-63],[-406,-283],[-640,-449],[-162,-114]],[[8878,1346],[-78,89],[-45,56],[-100,149],[-45,50],[-107,109],[-48,28],[-162,60],[-149,41],[-40,17],[-59,37],[-165,115],[-82,67],[-50,47],[-80,95],[-58,85],[-135,232],[-40,56],[-52,51],[-31,21],[-59,33],[-180,93]],[[7113,2877],[64,41],[77,30],[135,46],[32,25],[36,52],[32,40],[89,100],[46,93],[44,68],[80,116],[22,44],[46,120],[3,0]],[[1308,4395],[83,-189],[141,104],[62,-77],[11,-35],[52,-103],[28,-84],[126,47],[17,13],[35,-41],[28,10],[11,-20],[48,-7],[27,-11],[-17,-75],[-11,-82],[49,-33],[57,-98],[58,-82],[40,-49],[104,-158],[35,-5],[183,-52],[72,-18],[76,-23],[31,-16],[56,-42]],[[1945,2598],[-17,49],[-45,49],[-30,20],[-28,53],[-21,21],[-21,5],[-35,38],[-6,26],[-19,16],[-24,49],[-19,29],[-49,43],[-20,11],[-22,27],[-13,29],[-27,35],[-43,32],[-25,0],[-86,22],[-92,15],[-13,12],[-32,70],[2,48],[-10,21],[-6,42],[-14,24],[-26,79],[7,31],[-5,23],[-30,56],[12,32],[-2,21],[-26,42],[-3,31],[-37,66],[-15,65],[1,52],[-39,71],[-18,0],[-1,26],[-68,35],[-11,16],[-39,24],[-38,50],[0,19],[-62,34]],[[830,4157],[46,47],[25,13],[56,16],[80,35],[32,21],[82,42],[65,25],[92,39]],[[1308,4395],[44,20],[45,78],[14,18],[44,19],[50,5],[40,25],[67,62],[83,87],[39,-2],[352,48],[110,11],[71,4],[24,8],[116,-9]],[[2407,4769],[79,-43],[39,-26],[348,-254],[98,-71],[59,-31],[75,-16]],[[3105,4328],[172,1]],[[3277,4329],[-99,-209]],[[6148,1872],[26,26],[-5,23],[13,23],[41,7],[17,-8],[9,-30],[15,-17],[6,-27],[29,-52],[11,-51],[15,-22],[54,-58],[33,-20],[32,-36],[29,10],[68,-5],[118,-26],[66,-8],[22,-17],[101,-106],[95,-93],[13,-17],[54,-102],[11,-16],[51,-47],[77,-59],[106,-39],[21,-16],[124,-64],[62,-26],[121,-101],[13,-13],[107,-93],[35,-27],[19,-29],[23,-55],[6,-34],[-3,-36],[8,-29]],[[7791,582],[-90,-63],[-11,-3],[-27,32],[-7,21],[-23,25],[-58,-10],[-45,3],[-97,26],[-23,20],[-28,10],[-19,-34],[-37,12],[-10,32],[-54,72],[-25,58],[-40,3],[-65,-19],[-52,30],[-12,37],[-4,40],[13,45],[-14,24],[-84,6],[-25,29],[-19,11],[-34,3],[-28,-13],[-32,11],[-51,-1],[-47,16],[-38,-2],[-24,19],[-41,-24],[-47,-51],[-19,-25],[-79,-55],[-58,-59],[-121,-73],[-75,8],[-230,12],[-31,-16],[-12,-33],[-17,-16],[-49,-68],[-50,-57],[-53,-77],[-73,-16],[-71,2],[-126,-7],[-73,-24],[-44,-20],[-20,-19],[-42,-25],[-21,-23],[-28,-7]],[[5301,349],[-55,223],[-57,183]],[[5189,755],[55,143],[158,114],[82,70],[40,50],[83,120],[47,62],[40,92],[8,26],[28,31],[118,92],[7,13],[60,21],[57,40],[41,38],[107,120],[31,51],[-3,34]],[[3277,4329],[633,13],[24,3],[85,21],[-2,26],[74,122],[21,15]],[[4112,4529],[19,6],[251,61]],[[4382,4596],[130,-71],[54,-23],[63,-17],[71,-9],[-2,-26]],[[4654,3951],[-15,-24],[-137,-289],[-46,-83],[-105,-172]],[[8800,3520],[59,-19],[59,-23],[80,-46],[41,-28],[346,-267]],[[9385,3137],[45,-35],[290,-220],[38,-32],[89,-57],[255,-131],[234,-123],[146,-74]],[[10482,2465],[-306,-210]],[[4426,5842],[95,-79],[82,-55],[116,-56],[73,-28],[29,-26],[45,-82],[69,-72],[29,-41],[15,-57]],[[4979,5346],[-50,-28],[-70,-6],[-74,-16],[-29,-1],[-101,-28],[-56,-20],[-45,-27],[-42,-11],[81,-74],[-49,-24],[-48,-31],[-21,-22],[-13,-40],[-43,-155],[-34,-156],[-26,-96],[23,-15]],[[4112,4529],[-18,45],[61,35],[35,45],[31,48],[-91,72],[-78,81],[-72,53],[-23,25],[-26,49]],[[3931,4982],[20,26],[19,41],[-3,31],[38,-7],[31,43],[12,32],[-7,28],[2,66],[17,-5],[18,25],[54,24],[27,26],[25,-3],[12,-15],[0,-32],[43,-7],[59,41],[36,-23],[3,-20],[20,-5],[25,33],[30,-3],[0,43],[48,30],[-54,149],[-10,20],[-59,74],[-20,19],[-117,56],[-31,19],[-31,37],[-52,76],[47,32],[51,9],[29,-2],[104,-17],[64,4],[45,15]],[[4979,5346],[61,-254]],[[4426,5842],[53,25],[72,49],[62,29],[66,18],[38,20],[71,45],[42,17],[121,16],[24,7],[168,77],[82,83],[25,12],[73,8],[34,8]],[[5357,6256],[10,-105],[18,-68],[74,-151],[35,-119],[6,-40],[-5,-148],[5,-43],[23,-43],[59,-85],[23,-52],[0,-155],[2,-35],[19,-110],[3,-43]],[[5629,5059],[-2,-27],[2,-117],[-24,-105]],[[347,5888],[14,-37],[26,-50],[68,-84],[130,153],[49,49],[17,42],[24,79],[30,-24],[64,-8],[33,-10],[108,-48],[35,2],[36,31],[34,16],[36,29],[46,16],[35,24],[18,2],[65,-41],[13,-41],[15,-23],[30,1],[31,17],[41,-4],[17,5],[37,40],[50,10],[22,19]],[[1748,6181],[23,-62],[12,-20],[44,-17],[16,-46],[59,-65],[31,-23],[15,-23],[3,-32],[-40,-80],[16,-49],[-27,-39],[-45,-27],[-13,-45],[3,-17],[-22,-59],[12,-24],[-224,-116],[-18,-26],[-24,-85],[-44,-101]],[[1525,5225],[-74,32],[-66,11],[-57,-2],[-90,-17],[-152,-25],[-264,-44],[-89,-12],[-169,-10],[-64,-11],[-53,-22],[-64,-50],[-154,-146],[-65,-53],[-65,-37]],[[99,4839],[-19,26],[-60,-4],[-20,8],[6,21],[51,104],[58,159],[32,123],[53,157],[147,455]],[[2735,5644],[-43,-78],[-128,-61],[-26,-17],[-86,-76],[20,-37],[76,-114],[-1,-6],[-62,-17],[-5,-34],[57,1],[30,19],[22,-20],[34,2],[21,-9],[49,-58],[26,-7],[46,-38],[31,-13],[23,15],[54,11],[26,-16],[28,44],[18,47],[18,-39],[47,-51],[17,-11],[45,6],[34,-2],[53,-23],[30,-40],[22,-10],[49,-37],[36,-36],[-14,-17],[-76,-35],[-50,-11],[-23,-12],[-75,-60],[192,6],[103,-46],[-88,-51],[-34,-36],[-12,-27],[-2,-36],[8,-51],[-13,-33],[-25,-32],[-27,-13],[-21,-31],[9,-57],[-25,-26],[-18,-43]],[[2407,4769],[-334,173],[-187,98],[-332,169],[-29,16]],[[830,4157],[-69,43],[-25,23],[-29,8],[-15,23],[-41,41],[-25,0],[-64,22],[-17,15],[-80,42],[-45,63],[-2,12],[-43,21],[-80,76],[-18,47],[-36,44],[-13,41],[-35,59],[-25,31],[-35,25],[-34,46]],[[3299,5940],[16,-47],[26,-26],[44,-27],[32,-26],[50,-54],[33,-29],[107,-71],[71,-56],[36,-42],[31,-61],[57,-101],[47,-114],[27,-86],[55,-218]],[[687,6950],[246,760],[32,94]],[[965,7804],[79,-127],[93,-128],[155,112],[56,-37],[42,-50],[30,-75],[47,-56],[41,-83],[36,-48],[9,-21],[4,-94],[-66,-10],[4,-21],[30,-20],[263,-218]],[[1416,6337],[-42,-34],[-162,-95],[-45,-16],[-27,2],[-55,16],[-49,20],[-43,150],[-26,63],[-124,278],[-17,33],[-110,163],[-29,33]],[[3604,7574],[45,-27],[18,9],[17,57],[38,20],[31,3],[55,-5],[47,-11],[32,-13],[40,-38],[31,0],[101,-42],[22,-1],[101,32],[49,1],[61,15],[41,0],[29,-10],[27,5],[14,33],[-39,53],[-8,41],[12,40],[10,11],[42,15],[35,-1],[17,-19],[9,-35],[25,-48],[19,-23],[47,-13],[26,23],[23,9],[72,10],[14,-30],[-19,-45],[-17,-71],[2,-24],[24,-45],[25,-70],[19,-28],[19,-7],[51,1],[83,25],[26,27],[56,39],[27,29],[35,25],[25,1],[32,-18],[18,-18],[9,-99],[26,-12],[12,-45],[-5,-22],[-17,-18],[-3,-49],[20,-24],[-14,-47],[5,-16],[25,-11],[9,-20],[31,-40],[32,14],[10,34],[17,20]],[[5270,7121],[20,-142],[1,-41],[-23,-162],[-3,-43],[9,-57],[16,-41],[31,-64],[14,-58],[12,-152],[10,-105]],[[3126,6925],[-15,86],[-24,167],[-24,62],[-54,64],[-26,42],[-12,45],[-3,59],[23,9],[14,17],[18,4],[20,27],[26,3],[14,23],[33,23],[32,37],[27,19],[33,6],[42,28],[27,-19],[7,-18],[27,-9],[36,-34],[35,-11],[9,-21],[26,-11],[-7,-39],[4,-43],[15,-22],[29,-18],[57,4],[16,11],[17,29],[-2,52],[-13,15],[-16,37],[7,8],[37,-4],[26,4],[17,17]],[[5270,7121],[45,39],[44,16],[35,3],[16,-16],[26,-70],[-10,-66],[-20,-40],[-22,-16],[-12,-27],[-9,-47],[10,-18],[35,-21],[33,-79],[8,-39],[18,-22],[63,-34],[20,-1],[24,34],[23,8],[61,0],[50,6],[28,67],[40,40],[2,35],[-4,53],[17,48],[1,51],[26,32],[13,30],[20,-11],[23,3],[24,-52],[28,-15],[27,30],[29,20],[19,91],[15,21],[33,-1],[14,-16],[16,-43],[0,-18],[-13,-52],[5,-19],[51,-48],[24,-9],[42,8],[19,14],[10,32],[58,37],[54,3],[35,-13],[-7,-46],[-2,-62],[-7,-32],[-20,-40],[-4,-41],[30,-54],[30,-14],[44,15],[69,12],[61,-11],[16,5],[26,84],[-1,39],[-31,56],[23,39],[22,10],[48,-2],[26,48],[21,7],[30,-20],[13,-31],[22,-4],[9,24],[30,-14],[13,-21],[-3,-24],[28,-48],[15,-15],[30,-10],[18,-55],[12,-19],[25,-3],[29,-16],[42,3],[31,8],[28,26],[47,-4],[8,27],[-19,26],[6,23],[-13,42],[3,15],[24,25]],[[5953,5332],[-128,-79],[-77,-44],[-74,-65],[-27,-37],[-18,-48]],[[7113,2877],[-140,75],[-90,40],[-55,18],[-101,27],[-52,27],[-59,46],[-106,114]],[[6510,3224],[-49,49],[-45,39],[-66,48]],[[5436,2665],[46,-136],[48,-10],[31,-25],[98,-32],[17,0],[37,-55],[46,-46],[4,-28],[21,-22],[-1,-27],[-25,-27],[-17,-6],[-18,-26],[14,-32],[93,-41],[63,-13],[16,-37],[8,-38],[68,-59],[23,-73],[3,-21],[-7,-35],[12,-19],[35,-12],[32,4],[65,23]],[[5189,755],[-119,409],[-67,243],[-62,215]],[[4662,2628],[28,20],[55,24],[16,2],[77,-10],[48,-10],[78,-50],[34,-7],[100,-3],[23,10],[4,86],[40,154],[45,15],[19,-5],[97,-95],[47,-53],[41,-11],[22,-30]],[[9576,3626],[-10,-104],[-10,-73],[-30,-88],[-22,-44],[-79,-117],[-40,-63]],[[8118,6728],[23,-1],[20,-14],[34,11],[62,3],[14,-31],[8,-39],[18,9],[14,20],[50,8],[21,24],[18,-28],[45,-10],[41,19],[29,5],[11,12],[-5,23],[53,17],[22,-23],[25,3],[50,31],[12,1],[25,-23],[20,35],[22,5],[23,-19],[23,7],[32,-14],[-11,-34],[-20,4],[-9,-30],[30,-38],[52,-17],[51,5],[20,-98],[-16,-5],[-2,-38],[19,-26],[15,-35],[42,-16],[-29,-20],[6,-25],[37,-15],[56,14],[4,26],[15,-1],[37,-22],[36,6],[20,-33],[37,-10],[9,-52],[27,-11],[18,-17],[25,-1],[22,-24],[30,34],[-6,21],[29,35],[31,-33],[25,-9],[18,14],[18,-12],[28,0],[37,25],[38,-4],[44,17],[15,-8],[40,6],[40,39],[20,2],[27,-9],[22,9],[18,38],[59,-4],[13,-17],[18,2],[10,43],[-27,52],[11,12],[55,-26],[45,-11],[61,-25],[51,-7],[74,13],[42,-9],[39,-18],[8,-27],[-14,-34],[-4,-29],[5,-25],[34,-57],[44,-123],[5,-41],[18,-17],[47,-11],[25,2],[51,41],[72,19],[25,-2],[41,-21]],[[347,5888],[46,142],[72,222],[34,111],[38,117],[150,470]],[[6510,3224],[-70,-126],[-33,-83],[-20,-33],[-50,-65],[-72,-119],[-22,-29],[-91,-80],[-41,-32],[-121,-86],[-25,-3],[-97,12],[-41,22],[-33,32],[-20,34],[-10,36],[-1,29],[11,119],[-15,50],[-23,40],[-69,87],[-96,-8],[2,-20],[15,-18],[5,-23],[-15,-51],[-18,-37],[-5,-24],[14,-49],[-8,-54],[-29,-41],[-25,-17],[-36,2],[-35,-24]],[[965,7804],[37,115]],[[3209,8155],[21,-35],[72,-149],[30,-26],[71,0],[29,-12],[20,-34],[17,-150],[16,-49],[36,-74],[83,-52]],[[5301,349],[-53,-36],[-24,5],[-14,-15],[-54,-21],[-23,-22],[-38,-15],[-37,3]],[[11336,3695],[150,-495],[12,-35],[-93,-68],[-169,-114],[-556,-380],[-198,-138]],[[8878,1346],[-380,-268],[-30,-24],[-677,-472]]],"transform":{"scale":[0.000028851104539919394,0.0000225391910199342],"translate":[-83.869115,33.894573]},"objects":{"Geometry\\13-013":{"type":"GeometryCollection","geometries":[{"arcs":[[0,1,2,3]],"type":"Polygon","properties":{"GEOID":"130131805033"}},{"arcs":[[4,-3,5,6]],"type":"Polygon","properties":{"GEOID":"130131805034"}},{"arcs":[[7,8]],"type":"Polygon","properties":{"GEOID":"130131801032"}},{"arcs":[[9,-8,10,11]],"type":"Polygon","properties":{"GEOID":"130131801033"}},{"arcs":[[12,13,14,15,16]],"type":"Polygon","properties":{"GEOID":"130131803024"}},{"arcs":[[17,18,19,20]],"type":"Polygon","properties":{"GEOID":"130131804024"}},{"arcs":[[21,22,23,24]],"type":"Polygon","properties":{"GEOID":"130131804013"}},{"arcs":[[25,26,27,28,29,30,31]],"type":"Polygon","properties":{"GEOID":"130131805013"}},{"arcs":[[32,-29,33,34,35,-1]],"type":"Polygon","properties":{"GEOID":"130131805032"}},{"arcs":[[-30,-33,-4,36]],"type":"Polygon","properties":{"GEOID":"130131805012"}},{"arcs":[[37,38,39,40,41,42,43]],"type":"Polygon","properties":{"GEOID":"130131801052"}},{"arcs":[[44,-17,45,46,47]],"type":"Polygon","properties":{"GEOID":"130131803023"}},{"arcs":[[48,-31,-37,-5,49]],"type":"Polygon","properties":{"GEOID":"130131805011"}},{"arcs":[[50,51,52,53,54]],"type":"Polygon","properties":{"GEOID":"130131802062"}},{"arcs":[[55,-54,56,57,58,59]],"type":"Polygon","properties":{"GEOID":"130131802041"}},{"arcs":[[60,-60,61,62]],"type":"Polygon","properties":{"GEOID":"130131802052"}},{"arcs":[[63,-47,64,65,-57,-53]],"type":"Polygon","properties":{"GEOID":"130131802032"}},{"arcs":[[-66,66,67,-58]],"type":"Polygon","properties":{"GEOID":"130131802031"}},{"arcs":[[-24,68,69,70,71,72]],"type":"Polygon","properties":{"GEOID":"130131804011"}},{"arcs":[[73,-32,-49,74,75]],"type":"Polygon","properties":{"GEOID":"130131801081"}},{"arcs":[[76,77,78,79,-26,-74]],"type":"Polygon","properties":{"GEOID":"130131801082"}},{"arcs":[[80,81,82,83]],"type":"Polygon","properties":{"GEOID":"130131805022"}},{"arcs":[[84,85,86,-63,87,-27,-80]],"type":"Polygon","properties":{"GEOID":"130131802051"}},{"arcs":[[88,89,90,-70]],"type":"Polygon","properties":{"GEOID":"130131804021"}},{"arcs":[[91,92,-86,93,94]],"type":"Polygon","properties":{"GEOID":"130131803032"}},{"arcs":[[95,-55,-56,-61,-87,-93]],"type":"Polygon","properties":{"GEOID":"130131802053"}},{"arcs":[[96,97,98,-51,-96,-92]],"type":"Polygon","properties":{"GEOID":"130131802061"}},{"arcs":[[99,-43,100,101,102]],"type":"Polygon","properties":{"GEOID":"130131801061"}},{"arcs":[[-101,-42,103,-78,104]],"type":"Polygon","properties":{"GEOID":"130131801072"}},{"arcs":[[-102,-105,-77,-76,105]],"type":"Polygon","properties":{"GEOID":"130131801041"}},{"arcs":[[-41,106,-94,-85,-79,-104]],"type":"Polygon","properties":{"GEOID":"130131801071"}},{"arcs":[[107,108,-38,109]],"type":"Polygon","properties":{"GEOID":"130131801051"}},{"arcs":[[110,111,-97,-95,-107,-40,112]],"type":"Polygon","properties":{"GEOID":"130131803031"}},{"arcs":[[113,-13,-45,114,-98,-112]],"type":"Polygon","properties":{"GEOID":"130131803021"}},{"arcs":[[-46,-16,-25,-73,115,116,-67,-65]],"type":"Polygon","properties":{"GEOID":"130131803011"}},{"arcs":[[-52,-99,-115,-48,-64]],"type":"Polygon","properties":{"GEOID":"130131803022"}},{"arcs":[[117,-84,118,-35,119]],"type":"Polygon","properties":{"GEOID":"130131805023"}},{"arcs":[[-21,120,-89,-69,-23]],"type":"Polygon","properties":{"GEOID":"130131804022"}},{"arcs":[[121,-18,-22,-15]],"type":"Polygon","properties":{"GEOID":"130131804012"}},{"arcs":[[-110,-44,-100,122]],"type":"Polygon","properties":{"GEOID":"130131801062"}},{"arcs":[[-88,-62,-59,-68,-117,123,-120,-34,-28]],"type":"Polygon","properties":{"GEOID":"130131802042"}},{"arcs":[[124,-12,125,-113,-39,-109]],"type":"Polygon","properties":{"GEOID":"130131801031"}},{"arcs":[[-36,-119,-83,126,-6,-2]],"type":"Polygon","properties":{"GEOID":"130131805031"}},{"arcs":[[-121,-20,127,-90]],"type":"Polygon","properties":{"GEOID":"130131804023"}},{"arcs":[[-124,-116,-72,128,-81,-118]],"type":"Polygon","properties":{"GEOID":"130131805021"}}]}}}