{"type":"Topology","arcs":[[[3216,3604],[52,22],[42,48],[15,32],[37,32],[98,11],[53,-19],[37,5],[27,-13],[34,-55],[8,65],[-21,74],[27,41],[44,114],[59,-27],[29,35],[31,21],[15,22],[10,64],[26,44],[-1,35],[16,42],[40,50],[27,18],[53,57],[95,-3],[132,8],[52,90],[33,26],[68,29]],[[4354,4472],[80,36],[90,-2],[39,7],[39,27],[18,28],[35,77],[26,37],[93,86],[18,37],[9,53]],[[4801,4858],[103,-27],[64,5],[106,44],[74,48],[54,40],[92,62],[28,10],[47,4],[43,23],[39,37],[91,60],[39,39],[109,147],[54,91],[41,38],[83,27],[56,-8],[97,-36],[39,-5],[31,14],[47,52],[74,93],[29,18],[58,17],[79,29],[34,18],[49,11],[59,-2],[101,9],[107,3],[50,-2],[83,4],[35,-3],[87,-19],[168,-7],[41,-18]],[[7192,5674],[-62,-572],[-60,-567],[-34,-314]],[[7036,4221],[-61,33],[-61,4],[-17,17],[-41,17],[-68,-8],[-24,60],[-19,5],[-88,-21],[-81,-52],[-56,-45],[-41,-4],[-40,28],[-25,36],[-19,15],[-37,10],[-70,6],[-68,-2],[-31,10],[-26,32],[-58,106],[-15,-20],[-9,-39],[-36,-19],[-42,0],[-98,-35],[-28,-57],[-5,-37],[-39,-46],[-49,-29],[-121,-13],[-62,-20],[-31,-60],[-13,-54],[-18,-42],[-47,-15],[-27,-22],[-34,-44],[-24,-42],[-13,-37],[-160,-138],[-46,-49],[-30,-10],[-20,-18],[-38,-55],[-10,-28],[20,-70],[23,-42],[59,-89],[-111,1],[-54,-24],[-61,-39],[3,-15],[-16,-33],[-215,67],[-79,50],[23,-128],[15,-60],[34,-79],[-67,-35],[-51,-5],[-86,-26],[-37,-47],[-26,-76],[2,-38],[-22,-51],[-50,-5],[-37,-19],[-40,-39]],[[4317,2737],[-34,43],[-49,73],[-38,81],[-19,27],[-75,55],[-46,22],[-103,39],[-26,-1],[-115,-19],[-41,-44],[-30,-10],[-76,-12],[-116,74]],[[3549,3065],[-69,85],[-28,67],[-46,91],[-52,40],[-23,3],[-40,27],[-14,17],[-59,173],[-2,36]],[[1841,5939],[41,25],[58,21],[29,37],[22,17],[63,29],[83,-1],[65,-10],[59,5],[71,21],[71,52],[90,27],[67,34],[7,15],[-3,56],[12,37],[79,135]],[[2655,6439],[243,-100],[11,-13],[29,-60],[70,-85],[25,-52],[25,-61],[68,-137],[41,-55],[53,-31],[54,-13],[42,-15],[53,-3],[43,-14],[54,-36],[51,-26],[40,-39],[23,-46],[-3,-43],[-40,-97],[-48,-64],[-28,-90],[8,-32],[24,-32],[40,-36],[43,-26],[63,-23],[40,-35],[141,-213],[54,-108],[30,-29],[25,-8],[131,2],[35,-34],[7,-61],[19,-33],[110,-88],[59,-36],[48,-60],[16,-35]],[[3216,3604],[-4,38],[-20,48],[-4,44],[-15,38],[-63,98],[-5,20],[-25,33],[-35,62],[-40,34],[0,22],[-27,-3],[-19,-35],[-18,-60],[-2,-25],[-18,-37],[-52,-31],[-24,-22],[-55,2],[-44,17],[-45,36],[-24,56],[-36,35],[-88,27],[-60,-12],[-72,26],[-36,4],[-19,21],[-8,25],[15,44],[52,37],[-2,34]],[[2423,4180],[-12,80],[-27,35],[-46,83],[-13,59],[-22,47],[-41,21],[-19,56],[-23,48],[-29,36],[41,93],[84,102],[45,72],[48,47],[-10,62],[-21,39],[-72,85],[-120,148],[-80,94],[-44,67],[-30,62],[-49,68],[-64,57],[-67,47],[-61,90],[-7,47],[39,92],[18,22]],[[1119,3570],[85,5],[72,27],[53,11],[88,-26],[78,-18],[58,2],[30,8],[30,26],[61,87],[2,99],[19,39],[49,43],[50,54],[139,24],[32,13],[-19,89],[91,41],[47,6],[65,-12],[39,19],[62,55],[15,3],[65,-10],[93,25]],[[3549,3065],[-33,-96],[-61,-105],[-15,-45],[-19,-26],[-44,-40],[-21,-32],[-16,-73],[-5,-63],[-15,-35],[-28,-30],[-23,-15],[-54,-9],[-34,-11],[-52,-29],[-87,-86],[-20,-27],[-17,-50],[-194,-198],[-13,-23],[-3,-46],[8,-115],[-4,-27],[-26,-54],[-20,-21]],[[2753,1809],[-41,66],[-34,36],[-47,25],[-129,45],[-56,29],[-247,234],[-88,109],[-40,31],[-78,39],[-46,39],[-60,112],[-15,52],[0,54],[-20,57],[-36,36],[-82,39],[-68,64],[-64,47],[-174,103],[-60,38],[-52,57],[-142,228],[-41,52],[7,50],[17,54],[-10,36],[-28,29]],[[7036,4221],[-6,-51],[177,-256],[200,-287],[66,-94],[47,-70],[132,-190],[127,-203],[358,-489],[277,-391],[18,-34]],[[8432,2156],[-48,-31],[-27,-7],[-20,12],[-15,35],[-12,4],[-29,-35],[-19,-3],[-34,19],[-46,39],[-51,35],[-76,5],[-78,-35],[-37,-10],[-72,4],[-108,76],[-33,16],[-35,-51],[-34,-11],[-55,4],[-11,-23],[1,-36],[-27,-46],[-33,-12],[-156,24],[-116,22],[-26,-4],[-43,-26],[-50,-16],[-45,-20],[-10,-13],[-17,-79],[-20,-25],[-29,-10],[-35,6],[-154,42],[-25,13],[-46,37],[-46,23],[-93,30],[-138,33],[-51,-2],[-122,-16],[-25,0],[-32,26],[-16,34],[-3,50],[-26,47],[-54,43],[-20,10],[-108,-2],[-82,-40],[-33,6],[-26,-4],[-17,-20],[-8,-30],[-19,-26],[-27,-15],[-33,-7],[-46,-36],[-38,-10],[-21,-17],[-28,-45],[-31,-3],[-61,45],[-30,15],[-46,1],[-50,91],[-23,64],[-41,43],[-28,14],[7,-35],[-6,-24],[-45,-16],[-39,-2],[-68,25],[-56,41]],[[5132,2347],[-11,5],[-102,-13],[-81,8],[-106,71],[-53,40],[-77,72],[-55,40],[-65,23],[-74,12],[-117,55],[-47,43],[-27,34]],[[850,7147],[49,16],[164,73],[-3,11],[62,26],[19,-9],[38,3],[14,11],[44,91],[32,91],[13,74],[51,88],[38,34],[15,34],[111,94],[18,17],[22,41],[7,35],[3,116],[14,47],[27,43],[22,20],[41,23],[107,37],[41,18],[231,122]],[[2030,8303],[35,-20],[0,-34],[-19,-63],[21,-76],[81,-51],[9,-36],[17,-36],[26,-32],[17,-70],[-1,-97],[-9,-24],[39,-117],[4,-36],[18,-10],[50,4],[36,14],[39,-26],[21,-40],[38,-6],[57,14],[87,-11],[14,-27],[91,-30],[28,3],[5,-21],[35,-38],[-3,-34],[-52,-29],[-1,-15],[47,-43],[58,54],[63,8],[44,-15],[50,7],[-4,44],[37,12],[11,19],[28,21],[85,23],[34,-11],[39,3],[29,-31],[28,-3],[38,20],[20,-3],[10,-21],[5,-45],[49,18],[24,-28],[27,-17],[6,-40],[13,-19],[49,-21],[15,38],[37,4],[16,-9],[31,6],[38,-29],[18,-37],[-20,-34],[7,-50],[31,-35],[21,-6],[27,-23],[19,-32],[68,17]],[[3811,7101],[-44,-62],[-88,-6],[-16,-31],[-7,-77],[-11,-23],[-47,-63],[-44,-52],[-59,-21],[-76,-62],[-29,-14],[-48,5],[-79,-3],[-29,12],[-42,45],[-46,1],[-69,-39],[-51,-22],[-63,-10],[-30,-11],[-25,-25],[-48,-88],[-36,-28],[-116,-37],[-34,-23],[-19,-28]],[[1841,5939],[-39,51],[-65,-6],[-67,16],[-35,20],[-69,73],[-40,27],[-21,24],[-11,49],[-15,24],[-116,-11],[-13,12],[-26,72],[-41,12],[-29,27],[-20,57],[-16,61],[-44,52],[-4,14],[15,53],[-2,29],[-26,72],[-25,49],[-96,141],[-30,21],[-55,22],[-43,52],[-12,30],[-9,71],[-14,52],[-23,42]],[[3477,9617],[193,-26],[433,-67],[122,-23],[15,0],[468,-63],[285,-37],[107,-16],[250,-93],[34,92],[112,-50],[303,-138],[304,-140],[253,-119],[105,-38],[31,-15],[51,-36],[24,-42],[34,-32],[41,-26],[47,-17],[55,-1],[40,-14],[53,-45],[39,-22],[82,-28],[-31,-34],[85,-201],[110,-276],[47,-142],[14,-77],[16,-47],[5,-48],[32,-52],[33,-83],[25,-21],[34,-68],[-5,-89],[11,-18],[13,-173]],[[7347,7292],[-63,-55],[-17,-8],[-60,8],[-136,2],[-39,8],[-70,31],[-25,3],[-87,-23],[-118,3],[-30,-16],[-30,-63],[-46,-38],[-26,-1],[-56,9],[-56,-17],[-58,-56],[-23,-8],[-78,27],[-25,4],[-76,-10],[-64,8],[-108,-11],[-84,10],[-131,-22],[-31,-15],[-81,-13],[-31,-90],[-31,-81],[-41,18],[-122,41],[-42,38],[-28,13],[-22,-4],[-97,-36],[-39,-28],[-40,-15],[-98,12],[-27,-3],[-33,-26],[-62,5],[-42,40],[-33,16],[-54,-9],[-50,-23],[-62,-35],[-19,-23],[-12,-32],[-31,-1]],[[4713,6826],[12,37],[11,64],[0,83],[-15,82],[-14,40],[-36,71],[-41,55],[-30,29],[-150,121],[-174,149],[-16,17],[-29,53],[-25,62],[-57,225],[-5,0]],[[4144,7914],[-23,92],[-28,81],[-40,70],[-46,64],[-14,30],[-8,51],[11,90],[29,177],[-6,69],[-121,488],[-21,47],[-32,33],[-305,257],[-37,43],[-17,42],[-9,69]],[[3811,7101],[16,19],[13,47],[21,48],[83,-10],[18,18],[56,39],[7,-3],[58,-109],[40,-118],[51,-67],[16,-15],[31,-7],[26,6],[75,38],[32,-7],[137,-103],[173,-98],[17,-19]],[[4681,6760],[-50,-114],[-5,-25],[-13,-210],[2,-30],[24,-75],[28,-67],[35,-112],[16,-35],[108,-167],[59,-51],[20,-27],[35,-68],[7,-27],[0,-59],[-7,-130],[-31,-35],[-40,-132],[-1,-28],[10,-29],[32,-52],[13,-38],[-23,-82],[-43,-59],[-12,-28],[-19,-76],[-25,-146]],[[2745,9182],[29,39],[42,40],[65,43],[41,42],[63,100],[184,13],[37,19],[159,161],[112,-22]],[[4144,7914],[-80,3],[-54,-11],[-57,-31],[-27,-9],[-37,-1],[-126,21],[-186,35],[-36,34],[-19,48],[0,71],[-15,31],[-72,65],[-27,41],[-61,144],[-19,31],[-22,13],[-242,114],[-38,20],[-19,36],[-19,119],[-26,38],[-101,63],[-23,37],[-46,169],[-12,85],[-35,102]],[[4713,6826],[-32,-66]],[[2030,8303],[14,11],[101,57],[32,34],[26,40],[29,64],[112,216],[39,55],[215,196],[147,206]],[[7347,7292],[17,-89],[28,-219],[-7,-220],[-65,-244],[-37,-173],[-7,-56],[-21,-37],[-17,-139],[-35,-153],[1,-123],[-12,-165]],[[5132,2347],[-20,-36],[-4,-56],[10,-30],[47,-93],[26,-57],[90,-231],[72,-189],[48,-161]],[[5401,1494],[-393,413],[-155,164],[-8,-1],[-145,-99],[-90,-42],[-55,50],[-100,109],[-146,-119],[-50,-38],[-372,1],[-166,1],[-210,-3],[-416,-64],[-194,-32],[-148,-25]],[[8432,2156],[21,-41],[6,-39],[-5,-47],[-22,-69],[-6,-44],[-31,-92],[-22,-38],[9,-93],[-4,-14],[-74,-94],[-2,-12],[24,-176],[-2,-35],[-38,-27],[-22,4],[-36,-9],[-29,-28],[-65,-80],[-25,-53],[-8,-33],[-54,-139],[-31,-137],[-71,-13],[-15,-11],[-5,-36],[7,-72],[-3,-62],[-34,-22],[-37,-1],[-39,-21],[-13,-17],[-21,-73],[0,-43],[-13,-30],[-41,-30],[-10,-27],[-25,-20],[-66,-3],[-2,-10],[-46,-35],[-21,-55],[-37,-3],[-20,-15],[-93,12],[-90,-5],[-61,-38],[-58,7],[-35,-16],[-45,-1],[-26,-21],[-34,-14],[-34,-28],[-21,-6],[-74,-39],[-22,3],[-40,-16],[-58,-99],[-85,83],[-7,27],[-28,33],[-48,17],[-22,28],[-35,60],[-33,42],[-74,60],[-105,77],[-39,40],[-44,23],[-16,39],[11,61],[-21,42],[-353,325],[-338,344],[-175,193]],[[1119,3570],[-22,5],[-148,11],[-29,18],[-201,159],[-27,26],[-59,77],[1,11],[-116,149],[-12,117],[-2,88],[44,245],[-3,34],[-36,115],[-11,63],[-39,102],[-6,85],[14,41],[-8,49],[-30,42],[-50,56],[-37,35],[-20,53],[-51,38],[-52,1],[-70,42],[-45,79],[-30,102],[-50,52],[-24,62],[7,24],[61,33],[33,45],[1,48],[46,61],[16,46],[11,78],[45,62],[17,37],[4,27],[-2,88],[-11,131],[2,69],[8,63],[45,61],[-6,11],[76,215],[18,30],[35,45],[22,18],[118,63],[34,24],[32,39],[20,58],[10,87],[-15,53],[2,18],[37,34],[19,44],[39,20],[77,28],[49,-40]]],"transform":{"scale":[0.000039189738739804294,0.000030524535740222206],"translate":[-83.66941600000001,34.197499]},"objects":{"Geometry\\13-011":{"type":"GeometryCollection","geometries":[{"arcs":[[0,1,2,3,4,5,6]],"type":"Polygon","properties":{"GEOID":"130119702003"}},{"arcs":[[7,8,-1,9,10]],"type":"Polygon","properties":{"GEOID":"130119702004"}},{"arcs":[[11,-10,-7,12,13]],"type":"Polygon","properties":{"GEOID":"130119703003"}},{"arcs":[[14,15,16,-5]],"type":"Polygon","properties":{"GEOID":"130119704002"}},{"arcs":[[17,18,19,-8,20]],"type":"Polygon","properties":{"GEOID":"130119701004"}},{"arcs":[[21,22,23,24]],"type":"Polygon","properties":{"GEOID":"130119701003"}},{"arcs":[[25,26,-2,-9,-20]],"type":"Polygon","properties":{"GEOID":"130119702001"}},{"arcs":[[27,-25,28]],"type":"Polygon","properties":{"GEOID":"130119701002"}},{"arcs":[[-29,-24,29,-26,-19,30]],"type":"Polygon","properties":{"GEOID":"130119701001"}},{"arcs":[[-30,-23,31,-3,-27]],"type":"Polygon","properties":{"GEOID":"130119702002"}},{"arcs":[[-6,-17,32,33,-13]],"type":"Polygon","properties":{"GEOID":"130119703002"}},{"arcs":[[-16,34,-33]],"type":"Polygon","properties":{"GEOID":"130119704001"}},{"arcs":[[-21,-11,-12,35]],"type":"Polygon","properties":{"GEOID":"130119703001"}}]}}}