{"type":"Topology","arcs":[[[210,2093],[54,30]],[[264,2123],[56,-11]],[[320,2112],[28,-13]],[[348,2099],[-101,-74]],[[247,2025],[-31,47]],[[216,2072],[-6,21]],[[133,2127],[47,-10]],[[180,2117],[4,-58]],[[184,2059],[-49,14]],[[135,2073],[-2,54]],[[2180,2293],[102,81]],[[2282,2374],[104,35]],[[2386,2409],[62,15]],[[2448,2424],[-12,-53]],[[2436,2371],[-70,-55]],[[2366,2316],[-89,-18],[-26,-26]],[[2251,2272],[-71,21]],[[2399,2175],[37,3]],[[2436,2178],[9,1]],[[2445,2179],[37,-50]],[[2482,2129],[-41,-49]],[[2441,2080],[-46,-55]],[[2395,2025],[-19,9]],[[2376,2034],[-49,81]],[[2327,2115],[72,60]],[[3646,2085],[99,30]],[[3745,2115],[13,-45],[106,-45],[36,-68],[71,30],[15,39]],[[3986,2026],[-8,-51],[58,-81],[-144,-144],[-29,-17]],[[3863,1733],[-123,228],[-61,63],[-33,61]],[[1721,3844],[52,0]],[[1773,3844],[192,-9]],[[1965,3835],[15,0]],[[1980,3835],[35,-17]],[[2015,3818],[-120,-61]],[[1895,3757],[-104,-25]],[[1791,3732],[-48,11]],[[1743,3743],[-22,101]],[[1707,1960],[58,31],[37,46]],[[1802,2037],[21,-90]],[[1823,1947],[-8,-85]],[[1815,1862],[-23,-13]],[[1792,1849],[-20,-1]],[[1772,1848],[-32,63]],[[1740,1911],[-33,49]],[[1614,2395],[80,-9]],[[1694,2386],[3,-11]],[[1697,2375],[-45,-46]],[[1652,2329],[-59,-3],[21,69]],[[1825,1450],[125,-33]],[[1950,1417],[13,-63]],[[1963,1354],[-114,9]],[[1849,1363],[-37,69]],[[1812,1432],[13,18]],[[1526,1234],[54,-39],[52,-64],[20,-56]],[[1652,1075],[-63,-58]],[[1589,1017],[-52,31],[10,50],[-55,33]],[[1492,1131],[3,36]],[[1495,1167],[31,67]],[[2198,2825],[46,79],[11,68],[29,51]],[[2284,3023],[13,-4]],[[2297,3019],[92,-9],[35,20]],[[2424,3030],[-34,-49],[13,-70]],[[2403,2911],[-86,-39]],[[2317,2872],[-18,-53],[-53,-57]],[[2246,2762],[-48,63]],[[1514,2260],[52,-7]],[[1566,2253],[20,-52],[-69,-86]],[[1517,2115],[-73,100],[70,45]],[[1410,2030],[16,33],[88,47]],[[1514,2110],[38,-11]],[[1552,2099],[10,-23]],[[1562,2076],[-67,-40],[4,-32]],[[1499,2004],[-96,10]],[[1403,2014],[7,16]],[[3666,3855],[212,153],[-81,-243]],[[3797,3765],[-21,54],[-54,44],[-56,-8]],[[599,1944],[71,23]],[[670,1967],[27,-59]],[[697,1908],[-47,-28]],[[650,1880],[-51,64]],[[2009,1841],[67,-133]],[[2076,1708],[-46,-26]],[[2030,1682],[-97,28]],[[1933,1710],[63,50],[13,81]],[[1838,3503],[137,148],[-23,53]],[[1952,3704],[80,80],[31,-6]],[[2063,3778],[2,-2]],[[2065,3776],[22,-9]],[[2087,3767],[-41,-113],[-71,-57],[-54,-68]],[[1921,3529],[-83,-26]],[[1321,2052],[28,56]],[[1349,2108],[10,6]],[[1359,2114],[24,14]],[[1383,2128],[27,-98]],[[1403,2014],[-73,12]],[[1330,2026],[-9,26]],[[2155,3600],[53,-50],[55,40]],[[2263,3590],[34,-58],[55,67],[28,-23]],[[2380,3576],[-22,-49],[-105,-152]],[[2253,3375],[-108,213]],[[2145,3588],[10,12]],[[1480,1408],[124,66]],[[1604,1474],[-14,-82],[20,-97]],[[1610,1295],[-56,-43]],[[1554,1252],[2,29],[-76,127]],[[956,1580],[50,-42]],[[1006,1538],[-70,-8]],[[936,1530],[20,50]],[[1837,1473],[73,6]],[[1910,1479],[44,8],[64,-43]],[[2018,1444],[-68,-27]],[[1825,1450],[12,23]],[[2864,1545],[115,85]],[[2979,1630],[54,-48],[84,-45]],[[3117,1537],[-170,-102]],[[2947,1435],[-17,34],[-66,32],[0,44]],[[2833,3818],[38,143]],[[2871,3961],[181,-84]],[[3052,3877],[-26,-61],[60,-60],[-1,-48]],[[3085,3708],[-151,-103]],[[2934,3605],[-13,29],[-74,27]],[[2847,3661],[8,51],[-22,106]],[[1059,1017],[29,-3],[117,-76]],[[1205,938],[0,-2]],[[1205,936],[-27,-65]],[[1178,871],[-119,90]],[[1059,961],[0,56]],[[995,2160],[25,-17]],[[1020,2143],[28,-12]],[[1048,2131],[48,8]],[[1096,2139],[23,21],[-7,86]],[[1112,2246],[21,12]],[[1133,2258],[82,-126]],[[1215,2132],[-46,-28]],[[1169,2104],[-83,-51]],[[1086,2053],[-72,34]],[[1014,2087],[-19,40]],[[995,2127],[0,33]],[[1697,2375],[38,-80],[63,-55]],[[1798,2240],[9,-18]],[[1807,2222],[-161,21]],[[1646,2243],[6,86]],[[1942,3479],[58,40]],[[2000,3519],[64,-42]],[[2064,3477],[-23,-19],[-24,-105]],[[2017,3353],[-37,34],[-38,92]],[[2445,2235],[-9,136]],[[2436,2371],[82,18],[81,-127],[37,22]],[[2636,2284],[22,-59],[-29,-66]],[[2629,2159],[-25,2]],[[2604,2161],[-84,24],[-75,-6]],[[2436,2178],[9,57]],[[547,1477],[33,20]],[[580,1497],[33,-39]],[[613,1458],[30,-70]],[[643,1388],[1,-2]],[[644,1386],[-51,-40]],[[593,1346],[-5,78],[-41,53]],[[1673,2119],[68,10]],[[1741,2129],[31,-38]],[[1772,2091],[-102,-62]],[[1670,2029],[-37,-22]],[[1633,2007],[-16,97]],[[1617,2104],[56,15]],[[2710,2314],[58,36],[23,41]],[[2791,2391],[22,-51],[46,-7],[28,-80]],[[2887,2253],[-5,-45],[-47,-15]],[[2835,2193],[-25,33]],[[2810,2226],[-28,17]],[[2782,2243],[-72,71]],[[2313,1896],[37,-26]],[[2350,1870],[-28,-108]],[[2322,1762],[-48,26]],[[2274,1788],[-17,7]],[[2257,1795],[-21,48]],[[2236,1843],[77,53]],[[1964,2776],[-7,-30]],[[1957,2746],[-55,-4],[-37,56]],[[1865,2798],[53,60],[46,-82]],[[1829,2738],[69,-83]],[[1898,2655],[-89,5],[-24,26]],[[1785,2686],[44,52]],[[1655,1715],[76,-6]],[[1731,1709],[35,-32],[-34,-49],[-87,-27]],[[1645,1601],[22,41],[-12,73]],[[2001,2299],[49,62]],[[2050,2361],[41,-52]],[[2091,2309],[38,-12]],[[2129,2297],[51,-4]],[[2180,2293],[-68,-47],[-116,-40]],[[1996,2206],[5,93]],[[2032,342],[44,56]],[[2076,398],[60,-88]],[[2136,310],[-24,-7]],[[2112,303],[-109,-36]],[[2003,267],[29,75]],[[2946,3031],[72,-79]],[[3018,2952],[-34,-23]],[[2984,2929],[-18,-11]],[[2966,2918],[-116,119]],[[2850,3037],[96,-6]],[[2636,2284],[14,8]],[[2650,2292],[26,-21],[9,-87]],[[2685,2184],[-56,-25]],[[695,2110],[82,36]],[[777,2146],[59,-111]],[[836,2035],[-141,75]],[[1562,2076],[16,-62],[-25,-26]],[[1553,1988],[-21,6]],[[1532,1994],[-33,10]],[[902,2632],[111,-35]],[[1013,2597],[29,-11]],[[1042,2586],[-31,-99]],[[1011,2487],[-23,-38]],[[988,2449],[-51,119]],[[937,2568],[-35,64]],[[714,1338],[5,-113]],[[719,1225],[1,-8]],[[720,1217],[-79,55]],[[641,1272],[73,66]],[[1357,3482],[80,7],[84,58]],[[1521,3547],[3,-54]],[[1524,3493],[-47,-37],[22,-44],[-88,-80],[-41,-12]],[[1370,3320],[-53,37],[40,125]],[[1985,1310],[98,59]],[[2083,1369],[43,-58],[75,-29]],[[2201,1282],[-9,-34]],[[2192,1248],[-58,38],[-84,-49]],[[2050,1237],[-37,21]],[[2013,1258],[-28,52]],[[1238,1479],[92,54]],[[1330,1533],[41,-79],[-36,-60]],[[1335,1394],[-94,-85]],[[1241,1309],[-57,106]],[[1184,1415],[54,64]],[[2533,1152],[85,31]],[[2618,1183],[18,-1]],[[2636,1182],[168,-63]],[[2804,1119],[59,-22]],[[2863,1097],[-42,-25],[-108,-17]],[[2713,1055],[-9,5]],[[2704,1060],[-122,45],[-45,2]],[[2537,1107],[-4,45]],[[2146,1643],[56,-19]],[[2202,1624],[-19,-100]],[[2183,1524],[-77,51]],[[2106,1575],[40,68]],[[1352,1840],[100,59]],[[1452,1899],[12,7]],[[1464,1906],[43,-47]],[[1507,1859],[61,-75]],[[1568,1784],[-82,-59]],[[1486,1725],[-98,91],[-35,11]],[[1353,1827],[-1,13]],[[2350,1870],[96,7]],[[2446,1877],[7,-99]],[[2453,1778],[-58,-33],[-73,17]],[[546,2015],[41,40]],[[587,2055],[86,-57]],[[673,1998],[-3,-31]],[[599,1944],[-53,71]],[[2050,2361],[34,38]],[[2084,2399],[7,-90]],[[1640,2215],[29,-6]],[[1669,2209],[-18,-57],[22,-33]],[[1617,2104],[23,111]],[[1694,2386],[117,-13],[41,-20]],[[1852,2353],[-29,-99],[-25,-14]],[[1233,2482],[65,-21]],[[1298,2461],[55,-32]],[[1353,2429],[-92,-98]],[[1261,2331],[-38,14]],[[1223,2345],[10,137]],[[1498,2823],[52,-61]],[[1550,2762],[67,-91],[74,52],[9,36]],[[1700,2759],[51,65]],[[1751,2824],[4,-39]],[[1755,2785],[-62,-127]],[[1693,2658],[-86,-148]],[[1607,2510],[-34,18]],[[1573,2528],[-92,183]],[[1481,2711],[-28,39],[-69,35]],[[1384,2785],[114,38]],[[3307,2598],[-5,-40],[42,-74],[-31,-18],[95,-75],[157,-15],[12,-21]],[[3577,2355],[-110,3]],[[3467,2358],[-218,3]],[[3249,2361],[-26,159]],[[3223,2520],[84,78]],[[2029,2411],[81,51]],[[2110,2462],[-26,-63]],[[2050,2361],[-21,50]],[[2571,2914],[62,-31]],[[2633,2883],[-17,-162]],[[2616,2721],[-62,89],[-3,29]],[[2551,2839],[-22,26],[-88,-4]],[[2441,2861],[0,38],[64,28],[66,-13]],[[2380,3251],[149,-1]],[[2529,3250],[56,-68]],[[2585,3182],[-49,7],[-99,-22],[-50,-37]],[[2387,3130],[-7,121]],[[2655,3709],[78,32],[-25,42],[38,47]],[[2746,3830],[87,-12]],[[2847,3661],[-143,-19]],[[2704,3642],[-49,67]],[[1769,569],[84,-7]],[[1853,562],[48,-128]],[[1901,434],[-66,-91],[-20,47],[-51,-22]],[[1764,368],[-40,32],[-43,158]],[[1681,558],[88,11]],[[1169,2104],[60,2],[34,-63],[32,13]],[[1295,2056],[27,6]],[[1322,2062],[-1,-10]],[[1330,2026],[-50,-11]],[[1280,2015],[-91,11]],[[1189,2026],[-14,0]],[[1175,2026],[-67,8]],[[1108,2034],[-22,19]],[[533,1514],[47,-17]],[[547,1477],[-12,19]],[[535,1496],[-2,18]],[[2955,3190],[39,13],[113,-29]],[[3107,3174],[-2,-65],[32,-50]],[[3137,3059],[-49,-34]],[[3088,3025],[-75,56],[-35,56]],[[2978,3137],[-28,46]],[[2950,3183],[5,7]],[[1566,3410],[61,-9],[60,-83]],[[1687,3318],[-120,-116]],[[1567,3202],[-52,54]],[[1515,3256],[51,154]],[[1772,801],[32,-2]],[[1804,799],[74,3]],[[1878,802],[19,-15]],[[1897,787],[-23,-19],[17,-74]],[[1891,694],[-45,14]],[[1846,708],[-74,16],[-26,50]],[[1746,774],[26,27]],[[824,1261],[47,56]],[[871,1317],[58,61]],[[929,1378],[16,14]],[[945,1392],[74,-62]],[[1019,1330],[-80,-66]],[[939,1264],[-90,-31]],[[849,1233],[-25,28]],[[1604,1474],[23,-56],[69,17],[40,-16],[66,32]],[[1802,1451],[10,-19]],[[1812,1432],[-60,-91]],[[1752,1341],[-34,-27],[-108,-19]],[[1486,1725],[0,-48]],[[1486,1677],[-29,11]],[[1457,1688],[-101,55]],[[1356,1743],[-3,84]],[[1280,2015],[14,-45]],[[1294,1970],[4,-29]],[[1298,1941],[-55,-14],[-27,37]],[[1216,1964],[-27,62]],[[1772,2091],[27,-47]],[[1799,2044],[3,-7]],[[1707,1960],[-37,69]],[[1964,2776],[41,-22],[66,23]],[[2071,2777],[22,-64]],[[2093,2713],[7,-54]],[[2100,2659],[-121,20]],[[1979,2679],[-22,67]],[[2149,3968],[80,48],[62,62],[139,83]],[[2430,4161],[6,-4]],[[2436,4157],[-77,-50],[-56,-149]],[[2303,3958],[-56,-47]],[[2247,3911],[-98,57]],[[853,1690],[32,14]],[[885,1704],[61,-109]],[[946,1595],[-70,29]],[[876,1624],[-9,33]],[[867,1657],[-14,33]],[[982,2142],[13,-15]],[[1014,2087],[-18,-13]],[[996,2074],[-14,68]],[[479,1945],[67,70]],[[650,1880],[22,-32]],[[672,1848],[-17,10]],[[655,1858],[-39,17],[-98,-36]],[[518,1839],[-39,106]],[[1335,1394],[15,-20]],[[1350,1374],[59,-56]],[[1409,1318],[-44,-27],[-11,-48],[-41,-28]],[[1313,1215],[-72,94]],[[1294,1970],[55,-17],[49,26]],[[1398,1979],[28,-47]],[[1426,1932],[26,-33]],[[1352,1840],[-54,101]],[[716,1716],[46,-53]],[[762,1663],[-77,-2]],[[685,1661],[-53,-21]],[[632,1640],[-7,-4]],[[625,1636],[91,80]],[[336,2594],[68,1]],[[404,2595],[5,-83],[32,-97],[-45,3]],[[396,2418],[-26,21]],[[370,2439],[-10,52]],[[360,2491],[-24,103]],[[762,1663],[39,14]],[[801,1677],[52,13]],[[867,1657],[-66,-32]],[[801,1625],[-39,38]],[[1829,3378],[78,37],[71,-129]],[[1978,3286],[-107,-77],[-29,54],[-13,115]],[[2646,2110],[6,7]],[[2652,2117],[25,-6]],[[2677,2111],[0,-66],[32,-8]],[[2709,2037],[-4,-70]],[[2705,1967],[-31,-18]],[[2674,1949],[-69,74]],[[2605,2023],[41,87]],[[1823,1947],[61,-7]],[[1884,1940],[21,-56]],[[1905,1884],[-28,-18]],[[1877,1866],[-62,-4]],[[2310,3051],[80,64]],[[2390,3115],[34,-85]],[[2297,3019],[13,32]],[[2364,1606],[75,50]],[[2439,1656],[144,50]],[[2583,1706],[15,-38]],[[2598,1668],[8,-20]],[[2606,1648],[-97,-71],[3,-64]],[[2512,1513],[-73,28]],[[2439,1541],[-16,-4]],[[2423,1537],[-59,69]],[[1705,1826],[67,22]],[[1792,1849],[-1,-59],[36,-36],[60,16]],[[1887,1770],[20,-58]],[[1907,1712],[-74,-4],[-37,-35]],[[1796,1673],[-61,98]],[[1735,1771],[-30,55]],[[1403,2014],[-5,-35]],[[876,2542],[15,97]],[[891,2639],[9,4]],[[900,2643],[2,-11]],[[937,2568],[-61,-26]],[[3023,3446],[226,21],[44,14]],[[3293,3481],[155,61],[17,-35]],[[3465,3507],[24,-91]],[[3489,3416],[-38,16]],[[3451,3432],[-99,34],[-157,-53],[-31,-21]],[[3164,3392],[-40,-8]],[[3124,3384],[-100,34]],[[3024,3418],[-1,28]],[[1550,2762],[66,29],[-31,71],[-16,83]],[[1569,2945],[49,4],[82,-190]],[[2076,1708],[94,56],[21,31]],[[2191,1795],[-10,-92]],[[2181,1703],[-71,-18]],[[2110,1685],[-80,-3]],[[2757,2929],[122,-37],[9,-20]],[[2888,2872],[-36,-22]],[[2852,2850],[-38,-23]],[[2814,2827],[-23,62],[-59,20]],[[2732,2909],[25,20]],[[3024,3418],[21,-137],[46,-37],[16,-70]],[[2955,3190],[-8,120],[77,108]],[[1211,1690],[76,-82]],[[1287,1608],[43,-75]],[[1238,1479],[-34,31],[-72,21]],[[1132,1531],[79,159]],[[3085,3708],[8,-28]],[[3093,3680],[4,-153]],[[3097,3527],[-85,-30]],[[3012,3497],[-46,25],[-32,83]],[[195,2234],[56,89]],[[251,2323],[5,-3]],[[256,2320],[28,-49],[-64,-64]],[[220,2207],[-25,27]],[[2705,3628],[-1,14]],[[2847,3661],[-10,-84],[-63,-95]],[[2774,3482],[-61,97],[-8,49]],[[1379,1066],[71,41]],[[1450,1107],[54,-102],[18,-85]],[[1522,920],[-63,4]],[[1459,924],[-80,142]],[[1884,1940],[42,54]],[[1926,1994],[34,61]],[[1960,2055],[75,-70]],[[2035,1985],[-71,-69]],[[1964,1916],[-59,-32]],[[2297,1987],[53,-17],[-37,-74]],[[2236,1843],[-55,100]],[[2181,1943],[65,43],[51,1]],[[790,2730],[39,135],[61,87]],[[890,2952],[66,-90]],[[956,2862],[-80,-127]],[[876,2735],[-5,-43]],[[871,2692],[-81,38]],[[1215,2132],[94,57]],[[1309,2189],[-23,-37]],[[1286,2152],[-19,-23],[28,-73]],[[360,2491],[-63,-3],[-53,39]],[[244,2527],[92,67]],[[466,1430],[69,66]],[[593,1346],[-41,-8]],[[552,1338],[-86,92]],[[1383,2128],[75,0]],[[1458,2128],[56,-18]],[[1849,1363],[44,-80]],[[1893,1283],[2,-92]],[[1895,1191],[-70,-16]],[[1825,1175],[-21,72]],[[1804,1247],[-52,94]],[[1840,883],[38,-81]],[[1804,799],[-23,51],[59,33]],[[1979,2679],[2,-12]],[[1981,2667],[-77,-10]],[[1904,2657],[-6,-2]],[[1829,2738],[36,60]],[[1223,1288],[18,21]],[[1313,1215],[1,-12]],[[1314,1203],[6,-36]],[[1320,1167],[-115,-19]],[[1205,1148],[-37,31]],[[1168,1179],[55,109]],[[1893,1283],[120,-25]],[[2050,1237],[82,-55]],[[2132,1182],[-60,14],[-69,-19],[-108,14]],[[546,2227],[4,-59],[64,-33]],[[614,2135],[-100,-90],[-107,18]],[[407,2063],[-59,36]],[[348,2099],[198,128]],[[2412,2655],[13,58]],[[2425,2713],[63,3],[40,108],[23,15]],[[2616,2721],[-96,-130]],[[2520,2591],[-64,-59]],[[2456,2532],[-8,18]],[[2448,2550],[-38,53],[2,52]],[[1478,3068],[34,70],[55,64]],[[1567,3202],[63,-2],[10,-41],[-36,-34]],[[1604,3125],[-42,21],[-84,-78]],[[1011,2487],[52,-41],[57,-8]],[[1120,2438],[11,-89]],[[1131,2349],[-55,-28]],[[1076,2321],[-48,48],[-40,80]],[[3052,3877],[314,-144]],[[3366,3733],[-133,-38],[-25,-36]],[[3208,3659],[-115,21]],[[1964,1916],[39,-67]],[[2003,1849],[6,-8]],[[1933,1710],[-26,2]],[[1887,1770],[-10,96]],[[2064,3477],[58,-68]],[[2122,3409],[-54,-41],[-32,-55]],[[2036,3313],[-17,-29]],[[2019,3284],[-2,69]],[[1634,933],[81,-2],[-4,64],[-28,86]],[[1683,1081],[93,-37]],[[1776,1044],[35,-90]],[[1811,954],[-79,-47]],[[1732,907],[-63,-30]],[[1669,877],[-103,-32]],[[1566,845],[-12,61],[80,27]],[[1131,2349],[21,-35]],[[1152,2314],[-19,-56]],[[1133,2258],[-46,51]],[[1087,2309],[-11,12]],[[1115,1127],[69,-123],[21,-66]],[[1059,1017],[56,110]],[[2350,1870],[45,155]],[[2441,2080],[39,-82]],[[2480,1998],[20,-45]],[[2500,1953],[-54,-76]],[[2687,3020],[23,6]],[[2710,3026],[46,-61],[42,28],[68,-19],[35,-33],[11,-54]],[[2912,2887],[-24,-15]],[[2757,2929],[-61,52],[-9,39]],[[184,2059],[32,13]],[[247,2025],[-43,-31]],[[204,1994],[-20,65]],[[1314,1203],[71,-34]],[[1385,1169],[79,24],[31,-26]],[[1492,1131],[-42,-24]],[[1379,1066],[-5,-3]],[[1374,1063],[-54,104]],[[1457,1688],[-79,-40]],[[1378,1648],[-25,46]],[[1353,1694],[3,49]],[[2022,2600],[23,-46]],[[2045,2554],[-46,-62]],[[1999,2492],[-55,-9]],[[1944,2483],[34,103],[44,14]],[[1353,1827],[-69,-19]],[[1284,1808],[-49,82]],[[1235,1890],[-1,3]],[[1234,1893],[-18,71]],[[2233,1097],[143,7]],[[2376,1104],[2,-33]],[[2378,1071],[8,-26]],[[2386,1045],[-52,-51]],[[2334,994],[-51,17]],[[2283,1011],[-50,86]],[[2061,1582],[45,-7]],[[2183,1524],[-69,-20],[-96,-60]],[[1910,1479],[-1,13],[152,90]],[[1852,2353],[40,-5]],[[1892,2348],[109,-49]],[[1996,2206],[-189,16]],[[1092,2675],[8,-9]],[[1100,2666],[-58,-80]],[[1013,2597],[28,28],[-41,73]],[[1000,2698],[39,16],[53,-39]],[[256,2320],[17,-9]],[[273,2311],[35,-18],[96,34]],[[404,2327],[32,-5]],[[436,2322],[-38,-79],[-52,-65],[-26,-66]],[[264,2123],[-44,84]],[[93,2068],[42,5]],[[204,1994],[-50,-37],[-61,111]],[[559,1569],[-13,-17]],[[546,1552],[-31,6]],[[515,1558],[-26,36]],[[489,1594],[70,-25]],[[1309,2189],[40,22]],[[1349,2211],[73,-39],[36,-44]],[[1359,2114],[-73,38]],[[552,1703],[90,65]],[[642,1768],[136,82]],[[778,1850],[48,-61]],[[826,1789],[-17,-23]],[[809,1766],[-50,-28]],[[759,1738],[-43,-22]],[[625,1636],[-52,-38]],[[573,1598],[-21,105]],[[2018,1444],[65,-75]],[[1985,1310],[-22,44]],[[341,2666],[37,20],[134,-1],[88,-71]],[[600,2614],[-83,-121],[-5,-43]],[[512,2450],[-77,131],[-31,14]],[[404,2595],[-21,56],[-42,15]],[[2790,1432],[55,-57]],[[2845,1375],[142,-87]],[[2987,1288],[-65,-38]],[[2922,1250],[-43,-24],[-53,29]],[[2826,1255],[-39,84]],[[2787,1339],[-20,72],[23,21]],[[1507,1859],[59,21]],[[1566,1880],[37,-3]],[[1603,1877],[1,-73]],[[1604,1804],[-36,-20]],[[1807,2222],[71,-63],[82,-104]],[[1926,1994],[-50,67],[-77,-17]],[[1741,2129],[-72,80]],[[1640,2215],[6,28]],[[1552,2099],[65,5]],[[1633,2007],[-38,-23]],[[1595,1984],[-42,4]],[[965,1962],[121,91]],[[1108,2034],[51,-58]],[[1159,1976],[19,-46],[56,-37]],[[1235,1890],[-89,-48]],[[1146,1842],[-6,30],[-64,31]],[[1076,1903],[-84,31],[-27,28]],[[546,1552],[-15,-29]],[[531,1523],[-26,0]],[[505,1523],[10,35]],[[1561,2395],[53,0]],[[1646,2243],[-80,10]],[[1514,2260],[-78,-13]],[[1436,2247],[83,64],[42,84]],[[719,1225],[105,36]],[[849,1233],[42,-51],[-39,-50]],[[852,1132],[-58,60],[-74,25]],[[2674,1949],[43,-38]],[[2717,1911],[25,-69]],[[2742,1842],[-81,-66],[-89,-43]],[[2572,1733],[-14,52]],[[2558,1785],[-31,119],[-27,49]],[[2500,1953],[94,-36],[80,32]],[[809,1766],[41,1],[35,-63]],[[801,1677],[-42,61]],[[152,2495],[5,-20]],[[157,2475],[-5,-92],[33,-61]],[[185,2322],[-62,-18]],[[123,2304],[-41,59],[11,37],[-13,101],[72,-6]],[[1330,1533],[50,16],[119,-12]],[[1499,1537],[-46,-45],[-18,-56],[39,-28]],[[1474,1408],[-124,-34]],[[3012,3497],[11,-49]],[[3023,3448],[-95,-48]],[[2928,3400],[2,76],[-51,90],[55,39]],[[1740,1911],[-48,17],[-84,-41]],[[1608,1887],[34,68],[-9,52]],[[2141,2158],[61,47],[82,16]],[[2284,2221],[7,-9]],[[2291,2212],[-85,-58],[-53,-87],[-84,-80]],[[2069,1987],[-17,2]],[[2052,1989],[-7,30],[33,84],[63,55]],[[2196,995],[52,-78],[5,-52]],[[2253,865],[-41,0]],[[2212,865],[-89,-31]],[[2123,834],[-41,82],[52,7],[62,72]],[[600,2614],[-6,-80],[95,19]],[[689,2553],[-8,-78]],[[681,2475],[-52,-111]],[[629,2364],[-34,81],[-57,18]],[[538,2463],[-26,-13]],[[1287,1608],[66,11],[25,29]],[[1378,1648],[75,-92],[46,-19]],[[2303,3958],[65,-86]],[[2368,3872],[-120,-153]],[[2248,3719],[-37,-47]],[[2211,3672],[-123,95]],[[2088,3767],[32,47],[97,61],[30,36]],[[931,2393],[57,56]],[[1087,2309],[-62,-26],[-37,17],[-57,93]],[[673,1998],[72,-35]],[[745,1963],[7,-80],[-55,25]],[[2650,2292],[60,22]],[[2782,2243],[-97,-59]],[[1776,1044],[43,75],[6,56]],[[1895,1191],[27,-110],[26,-27]],[[1948,1054],[-9,-9]],[[1939,1045],[-88,-66]],[[1851,979],[-40,-25]],[[1159,1976],[16,50]],[[911,1419],[25,111]],[[1006,1538],[35,-11],[29,52]],[[1070,1579],[62,-48]],[[1132,1531],[-44,-69],[-92,-5],[-51,-65]],[[929,1378],[-18,41]],[[2583,1291],[73,-45]],[[2656,1246],[-20,-64]],[[2618,1183],[-14,33],[-57,5],[36,70]],[[1146,1842],[-8,-34]],[[1138,1808],[-74,-23]],[[1064,1785],[12,118]],[[2512,2108],[83,26],[51,-24]],[[2605,2023],[-57,45]],[[2548,2068],[-36,40]],[[2045,2554],[39,-26]],[[2084,2528],[41,-47]],[[2125,2481],[-15,-19]],[[2029,2411],[-10,18]],[[2019,2429],[-20,63]],[[2281,2667],[31,71]],[[2312,2738],[113,-25]],[[2412,2655],[-30,-8],[-93,-79]],[[2289,2568],[-20,34],[12,65]],[[2229,3100],[29,59]],[[2258,3159],[42,8],[87,-37]],[[2387,3130],[3,-15]],[[2310,3051],[-21,54],[-60,-5]],[[1281,1009],[9,4]],[[1290,1013],[50,-91]],[[1340,922],[-75,-29],[-60,43]],[[1205,936],[76,73]],[[2122,3409],[115,-50]],[[2237,3359],[-102,-100]],[[2135,3259],[-45,43],[-54,11]],[[180,2117],[10,34]],[[190,2151],[20,-58]],[[3208,3659],[-16,-72],[-95,-60]],[[142,2196],[9,-7]],[[151,2189],[39,-38]],[[133,2127],[9,69]],[[1939,917],[3,-11]],[[1942,906],[53,-61],[61,-41]],[[2056,804],[-2,-17]],[[2054,787],[-68,-35],[-89,35]],[[1897,787],[1,89],[41,41]],[[2317,2872],[24,-49],[-29,-85]],[[2281,2667],[-67,8]],[[2214,2675],[-2,50],[34,37]],[[3467,2358],[51,-97],[-18,-52],[-39,-15],[-38,34],[-44,-5]],[[3379,2223],[-46,-8],[-84,146]],[[1426,1932],[106,62]],[[1595,1984],[-42,-26]],[[1553,1958],[-89,-52]],[[1116,1659],[77,46]],[[1193,1705],[18,-15]],[[1070,1579],[10,59],[36,21]],[[876,2542],[-12,-55]],[[864,2487],[-34,31]],[[830,2518],[27,104],[34,17]],[[644,1386],[64,-24]],[[708,1362],[6,-24]],[[641,1272],[-34,1],[-55,65]],[[1750,1606],[46,67]],[[1907,1712],[-22,-115],[-77,-18],[-58,27]],[[816,2198],[51,-1],[43,45]],[[910,2242],[41,-72]],[[951,2170],[-63,-38]],[[888,2132],[-75,32]],[[813,2164],[3,34]],[[777,2146],[36,18]],[[888,2132],[53,-80],[-11,-35]],[[930,2017],[-35,-13]],[[895,2004],[-12,18]],[[883,2022],[-47,13]],[[1851,979],[88,-62]],[[1840,883],[-29,71]],[[559,1569],[14,29]],[[573,1598],[63,-58]],[[636,1540],[14,-42]],[[650,1498],[-37,-40]],[[533,1514],[-2,9]],[[2323,2512],[125,38]],[[2456,2532],[0,-28]],[[2456,2504],[-8,-80]],[[2386,2409],[-63,103]],[[2742,1842],[72,-59]],[[2814,1783],[-91,23],[-18,-85]],[[2705,1721],[-107,-53]],[[2583,1706],[-11,27]],[[643,1388],[25,60]],[[668,1448],[22,-33]],[[690,1415],[18,-53]],[[1019,1330],[44,36],[121,49]],[[1223,1288],[-75,15],[-66,-46]],[[1082,1257],[-63,73]],[[2609,660],[50,91]],[[2659,751],[62,-68],[-12,-95]],[[2709,588],[-102,-97]],[[2607,491],[2,169]],[[151,2189],[44,45]],[[220,2207],[-30,-56]],[[2667,817],[14,8]],[[2681,825],[87,-80],[108,2]],[[2876,747],[-167,-159]],[[2659,751],[8,66]],[[3129,2632],[43,83]],[[3172,2715],[76,-97],[-24,-76],[-35,-15]],[[3189,2527],[-78,18],[-93,-6],[-76,-64],[-21,16]],[[2921,2491],[77,54],[113,61],[18,26]],[[2291,2212],[108,-37]],[[2327,2115],[-167,-131]],[[2160,1984],[-91,3]],[[650,1498],[18,-50]],[[685,1661],[1,-69]],[[686,1592],[-54,48]],[[1846,708],[-48,-16],[-20,-52],[-41,11]],[[1737,651],[-1,40],[-42,72]],[[1694,763],[52,11]],[[1948,1054],[203,66]],[[2151,1120],[-5,-10]],[[2146,1110],[-30,-80],[-71,-92]],[[2045,938],[-65,33]],[[1980,971],[-41,74]],[[1204,2739],[60,-34]],[[1264,2705],[42,-130],[-8,-114]],[[1233,2482],[-4,2]],[[1229,2484],[-58,93]],[[1171,2577],[-29,43]],[[1142,2620],[-42,46]],[[1100,2666],[104,73]],[[2129,2297],[38,35],[-14,77]],[[2153,2409],[129,-35]],[[2485,933],[43,-14],[152,61]],[[2680,980],[-20,-104]],[[2660,876],[-62,-35],[-19,35],[-113,-64]],[[2466,812],[19,121]],[[3107,2277],[62,32],[70,-131]],[[3239,2178],[-135,-30],[-12,78],[15,51]],[[1062,2220],[50,26]],[[1096,2139],[-48,-8]],[[1020,2143],[42,77]],[[2057,3031],[65,-4]],[[2122,3027],[27,-80],[-15,-39]],[[2134,2908],[-79,-46]],[[2055,2862],[-31,70],[33,99]],[[1650,3091],[75,-78],[59,32],[86,12]],[[1870,3057],[43,-92]],[[1913,2965],[-107,-106],[-51,-74]],[[1751,2824],[-1,84],[-96,71],[-91,14]],[[1563,2993],[87,98]],[[2814,1783],[80,-76]],[[2894,1707],[-98,-81],[-59,-71]],[[2737,1555],[4,125],[-36,41]],[[876,2735],[92,56],[59,9]],[[1027,2800],[58,-86],[7,-39]],[[1000,2698],[-100,-55]],[[891,2639],[-20,53]],[[2863,1097],[5,-2]],[[2868,1095],[10,-40],[-30,-119],[45,-9]],[[2893,927],[55,-57]],[[2948,870],[-73,-43],[-63,35]],[[2812,862],[11,25],[-110,168]],[[708,1362],[45,3],[81,62]],[[834,1427],[37,-110]],[[2549,3757],[106,-48]],[[2705,3628],[-70,-48],[-37,-77],[-27,-10]],[[2571,3493],[8,197],[-47,24]],[[2532,3714],[17,43]],[[3366,3733],[18,-8]],[[3384,3725],[-16,-80],[-42,8],[-45,-43],[-47,-107],[61,-12]],[[3295,3491],[-2,-10]],[[3023,3446],[0,2]],[[1950,4382],[-9,-136]],[[1941,4246],[-60,-34]],[[1881,4212],[-102,-15],[-25,-97]],[[1754,4100],[-44,41],[-18,51],[38,44],[-10,71],[-49,25]],[[1671,4332],[12,59],[110,56],[157,-65]],[[1569,2945],[-28,11]],[[1541,2956],[22,37]],[[1943,393],[26,57]],[[1969,450],[34,-29],[29,-79]],[[2003,267],[-76,-50]],[[1927,217],[13,29],[-17,104],[20,43]],[[946,1595],[11,-2]],[[957,1593],[-1,-13]],[[936,1530],[-76,45]],[[860,1575],[16,49]],[[1410,2992],[53,52]],[[1463,3044],[15,24]],[[1604,3125],[46,-34]],[[1563,2993],[-153,-1]],[[911,2247],[68,42]],[[979,2289],[-10,-82]],[[969,2207],[26,-47]],[[982,2142],[-31,28]],[[910,2242],[1,5]],[[1120,2438],[37,-3],[72,49]],[[1223,2345],[-71,-31]],[[1732,907],[40,-106]],[[1694,763],[-39,56],[14,58]],[[1971,1619],[59,63]],[[2110,1685],[36,-42]],[[2061,1582],[-90,37]],[[2248,1701],[26,87]],[[2322,1762],[-52,-210]],[[2270,1552],[-1,-1]],[[2269,1551],[-67,73]],[[2202,1624],[46,77]],[[2928,3400],[-130,-68]],[[2798,3332],[10,64],[-34,86]],[[2253,3375],[-16,-16]],[[2000,3519],[145,69]],[[1589,1017],[14,-64],[31,-20]],[[1566,845],[-7,-2]],[[1559,843],[-37,77]],[[1486,1677],[-2,-2]],[[1484,1675],[62,-31],[-24,-82],[46,-18]],[[1568,1544],[-69,-7]],[[2893,927],[105,71],[39,-69],[28,-3]],[[3065,926],[-63,-60]],[[3002,866],[-54,4]],[[2223,321],[119,62]],[[2342,383],[-7,-80],[42,-44]],[[2377,259],[-135,-138]],[[2242,121],[-20,43],[1,157]],[[2263,3590],[23,4]],[[2286,3594],[65,41],[9,60],[-15,74],[49,84]],[[2394,3853],[41,-68],[49,4]],[[2484,3789],[-104,-213]],[[3291,3236],[88,56],[72,140]],[[3489,3416],[55,-5]],[[3544,3411],[40,-75],[-159,-57],[-43,-48]],[[3382,3231],[-73,-22],[-43,23]],[[3266,3232],[25,4]],[[3200,1473],[157,95],[100,-12],[42,-137]],[[3499,1419],[-121,23],[-86,51],[-57,-31],[-35,11]],[[2724,3299],[10,-60]],[[2734,3239],[-22,-73],[-41,-64],[-10,-70]],[[2661,3032],[-18,8]],[[2643,3040],[-22,84],[-36,58]],[[2529,3250],[88,6],[107,43]],[[1148,2888],[46,-8]],[[1194,2880],[22,-87],[-40,-5]],[[1176,2788],[-18,38]],[[1158,2826],[-10,62]],[[2719,3993],[62,-82],[3,-45],[-38,-36]],[[2746,3830],[-47,9],[-81,65]],[[2618,3904],[58,88],[43,1]],[[2534,3516],[37,-23]],[[2571,3493],[8,-45],[75,71],[35,7],[58,-85],[-35,-21],[13,-51]],[[2725,3369],[-72,29],[-77,-13]],[[2576,3385],[-42,131]],[[404,1637],[37,-68]],[[441,1569],[20,-42]],[[461,1527],[-55,-28]],[[406,1499],[-62,97]],[[344,1596],[60,41]],[[2520,2591],[80,-80],[118,38]],[[2718,2549],[46,-27]],[[2764,2522],[-24,-42]],[[2740,2480],[-71,-4],[-135,-31],[-10,48],[-68,11]],[[157,2475],[125,-43]],[[282,2432],[-31,-29],[22,-92]],[[251,2323],[-66,-1]],[[2134,2908],[33,-60]],[[2167,2848],[-48,-29],[-2,-78],[-24,-28]],[[2071,2777],[-16,85]],[[302,1716],[-5,63],[47,48]],[[344,1827],[38,31],[-18,43],[65,18]],[[429,1919],[50,26]],[[518,1839],[9,-45]],[[527,1794],[25,-91]],[[552,1703],[-169,-32]],[[383,1671],[-87,-45]],[[296,1626],[-7,5]],[[289,1631],[36,42],[-23,43]],[[2453,1778],[6,3]],[[2459,1781],[3,-27],[-104,-63],[81,-35]],[[2364,1606],[-94,-54]],[[1652,1075],[31,6]],[[1927,4019],[38,13],[47,-31],[137,-33]],[[2149,3968],[-57,-109],[-27,-83]],[[2063,3778],[-48,40]],[[1980,3835],[-46,112],[-7,72]],[[1322,2062],[27,46]],[[2054,787],[-8,-32]],[[2046,755],[-78,-104]],[[1968,651],[-77,43]],[[2334,994],[6,-46],[63,-8],[23,-40],[-26,-94]],[[2400,806],[-102,74]],[[2298,880],[15,67],[-30,64]],[[778,1850],[45,27]],[[823,1877],[32,-60]],[[855,1817],[-29,-28]],[[3124,3384],[-3,-75],[54,-97]],[[3175,3212],[-68,-38]],[[1895,3757],[32,-62]],[[1927,3695],[-61,-56]],[[1866,3639],[-63,35],[-12,58]],[[2558,1785],[-44,-18],[-55,14]],[[1194,2880],[57,-10],[114,18]],[[1365,2888],[-137,-113],[-24,-36]],[[1204,2739],[-28,49]],[[2403,2911],[36,-50]],[[2439,2861],[-26,-97],[12,-51]],[[2125,2481],[28,-72]],[[3187,1481],[13,-8]],[[3499,1419],[50,-1]],[[3549,1418],[-109,-120]],[[3440,1298],[-123,29]],[[3317,1327],[-15,54],[-40,28],[-47,-27]],[[3215,1382],[-46,12],[-26,44],[44,43]],[[2088,644],[26,75],[98,146]],[[2253,865],[-27,-84],[30,-60],[62,-48],[-81,-28],[54,-99]],[[2291,546],[-68,9],[-72,-23],[-40,14]],[[2111,546],[-26,4]],[[2085,550],[3,94]],[[1605,3811],[13,29]],[[1618,3840],[50,74]],[[1668,3914],[53,-70]],[[1743,3743],[-103,-40]],[[1640,3703],[-28,38]],[[1612,3741],[-7,70]],[[939,1264],[17,-31]],[[956,1233],[-28,-77],[-2,-63]],[[926,1093],[-74,39]],[[1296,748],[51,3]],[[1347,751],[109,24]],[[1456,775],[37,10]],[[1493,785],[32,-139],[-37,-33]],[[1488,613],[-70,77],[-67,-30],[-39,31],[-16,57]],[[2502,1045],[35,62]],[[2704,1060],[-24,-80]],[[2485,933],[17,112]],[[1687,3318],[86,-57]],[[1773,3261],[-99,-123],[-24,-47]],[[1773,3261],[27,-18],[25,-107]],[[1825,3136],[45,-79]],[[2534,3516],[-49,27]],[[2485,3543],[29,64],[-13,74],[31,33]],[[1640,3703],[16,-28]],[[1656,3675],[-26,-63],[-38,-21],[-41,-63],[-30,19]],[[1521,3547],[-32,70],[123,124]],[[2549,3757],[69,147]],[[1950,4382],[156,-77],[288,-127],[0,-9]],[[2394,4169],[-71,18],[-206,-35],[-38,65],[-114,39],[-24,-10]],[[2156,2592],[58,83]],[[2214,2675],[9,-141],[12,-17]],[[2235,2517],[-26,-65]],[[2209,2452],[-32,57],[-21,83]],[[2812,2699],[61,-11],[56,63],[-23,38],[6,98]],[[2912,2887],[54,31]],[[2984,2929],[36,-84],[65,-42]],[[3085,2803],[-7,-32],[-78,-52]],[[3000,2719],[-80,-54],[-89,-112],[-67,-31]],[[2764,2522],[58,131],[-10,46]],[[2499,3029],[53,16],[91,-5]],[[2661,3032],[5,-31]],[[2666,3001],[-33,-118]],[[2571,2914],[-26,21],[-46,94]],[[1726,4064],[30,-14]],[[1756,4050],[50,-8],[18,-44]],[[1824,3998],[-14,-31]],[[1810,3967],[-51,-21],[14,-102]],[[1668,3914],[11,83],[47,67]],[[1980,971],[44,-57],[-82,-8]],[[1696,3602],[53,-37]],[[1749,3565],[16,-37],[73,-25]],[[1838,3503],[-151,-185]],[[1566,3410],[22,49],[114,88],[-6,55]],[[911,1419],[-60,36]],[[851,1455],[-40,54]],[[811,1509],[49,66]],[[1837,1473],[14,51],[52,53],[68,42]],[[2003,1849],[70,-18],[51,25]],[[2124,1856],[67,-60]],[[2191,1796],[0,-1]],[[3465,3507],[107,33],[58,-30],[-1,-95]],[[3629,3415],[-85,-4]],[[866,2334],[30,28]],[[896,2362],[83,-73]],[[911,2247],[-45,87]],[[2812,2699],[15,106],[25,45]],[[1913,2965],[145,142]],[[2058,3107],[142,97]],[[2200,3204],[58,-45]],[[2229,3100],[-51,-49]],[[2178,3051],[-56,-24]],[[2057,3031],[-55,-8],[-59,-48],[-4,-44]],[[1939,2931],[-26,34]],[[2200,3204],[88,33],[92,14]],[[2734,3239],[109,10],[81,-74]],[[2924,3175],[-61,-14]],[[2863,3161],[-75,-41],[-22,-46]],[[2766,3074],[-56,-48]],[[2687,3020],[-21,-19]],[[3175,3212],[32,-66],[-70,-87]],[[1968,651],[-13,-104]],[[1955,547],[-102,15]],[[1769,569],[-32,82]],[[1955,547],[130,3]],[[2085,550],[-34,-118],[25,-34]],[[1969,450],[-14,97]],[[2054,787],[69,47]],[[2088,644],[7,47],[-49,64]],[[2681,825],[78,44],[53,-7]],[[3002,866],[-126,-119]],[[2151,1120],[82,-23]],[[2298,880],[-45,-15]],[[2196,995],[-50,115]],[[1374,1063],[-84,-50]],[[1281,1009],[-47,61],[-29,78]],[[1884,4133],[43,-114]],[[1927,4019],[-103,-21]],[[1756,4050],[128,83]],[[705,2179],[106,106]],[[811,2285],[5,-87]],[[695,2110],[-50,-13]],[[645,2097],[-11,5]],[[634,2102],[71,77]],[[954,1707],[12,-15]],[[966,1692],[27,-52]],[[993,1640],[-36,-47]],[[885,1704],[69,3]],[[834,1427],[17,28]],[[655,1858],[-128,-64]],[[3440,1298],[-171,-171]],[[3269,1127],[-9,50],[20,108],[37,42]],[[2439,2861],[2,0]],[[3307,2598],[157,85]],[[3464,2683],[90,-113],[105,-60],[52,-57],[36,-136]],[[3747,2317],[-170,38]],[[2616,2721],[46,16],[24,-42]],[[2686,2695],[44,-91],[-12,-55]],[[3309,2981],[72,4],[13,63],[71,14],[18,62],[-52,89],[-49,18]],[[3629,3415],[57,11]],[[3686,3426],[-211,-638]],[[3475,2788],[-145,138],[-21,55]],[[2162,1151],[30,97]],[[2201,1282],[54,-64],[77,10]],[[2332,1228],[54,-72],[-10,-52]],[[2151,1120],[11,31]],[[2478,1248],[79,131]],[[2557,1379],[26,-88]],[[2533,1152],[-55,96]],[[2731,1540],[133,5]],[[2947,1435],[-102,-60]],[[2790,1432],[-89,81]],[[2701,1513],[30,27]],[[461,1527],[44,-4]],[[466,1430],[-60,69]],[[1604,1804],[1,-175]],[[1605,1629],[-121,46]],[[2295,540],[41,24],[20,49],[51,56]],[[2407,669],[52,-104],[22,-202]],[[2481,363],[-104,-104]],[[2342,383],[-42,98],[-5,59]],[[2922,1250],[18,-74],[78,-100],[-40,-23]],[[2978,1053],[-110,42]],[[2804,1119],[-36,113],[58,23]],[[1694,1129],[26,94],[84,24]],[[1652,1075],[42,54]],[[686,1592],[1,-5]],[[687,1587],[26,-60]],[[713,1527],[-77,13]],[[993,1640],[77,-61]],[[1837,1473],[-35,69],[-50,-13],[-55,35]],[[1697,1564],[53,42]],[[996,2074],[-66,-57]],[[1952,3704],[-25,-9]],[[2088,3767],[-1,0]],[[2480,1998],[68,70]],[[2368,3872],[1,0]],[[2369,3872],[25,-19]],[[2286,3594],[-20,107],[-18,18]],[[1965,3835],[-116,78],[-39,54]],[[1608,1887],[-5,-10]],[[1566,1880],[-13,78]],[[3164,3392],[14,-20]],[[3178,3372],[0,-108],[48,-50]],[[3226,3214],[-51,-2]],[[2380,1288],[76,30]],[[2456,1318],[22,-70]],[[2537,1107],[-159,-36]],[[2332,1228],[48,60]],[[3212,1719],[78,10]],[[3290,1729],[184,-160],[47,-25],[76,9],[63,-34]],[[3660,1519],[-111,-101]],[[3187,1481],[-22,37]],[[3165,1518],[16,54],[87,56],[-56,91]],[[1659,1819],[46,7]],[[1735,1771],[-4,-62]],[[1655,1715],[4,104]],[[2191,1796],[66,-1]],[[2248,1701],[-67,2]],[[3030,2046],[48,18],[73,-15],[56,30]],[[3207,2079],[151,-29]],[[3358,2050],[-39,-104],[-32,-42],[111,-161],[-35,-15],[-86,31]],[[3277,1759],[-52,61],[6,48],[-61,48]],[[3170,1916],[-45,88],[-94,36]],[[3031,2040],[-1,6]],[[800,1988],[31,-10],[52,44]],[[895,2004],[70,-42]],[[965,1962],[-142,-85]],[[823,1877],[-20,47],[-58,39]],[[745,1963],[55,25]],[[2604,2161],[48,-44]],[[2512,2108],[-30,21]],[[2887,2253],[59,-10]],[[2946,2243],[0,-1]],[[2946,2242],[59,-92],[-6,-66],[31,-38]],[[3030,2046],[-62,11]],[[2968,2057],[-77,70]],[[2891,2127],[-56,66]],[[3747,2317],[62,-46],[109,-128]],[[3918,2143],[-110,-6],[-63,-22]],[[3646,2085],[-123,3],[-117,-53]],[[3406,2035],[-1,86],[-31,48],[5,54]],[[3085,2803],[39,0],[57,-47],[44,-1]],[[3225,2755],[-53,-40]],[[3129,2632],[-129,87]],[[690,1415],[72,31],[10,50]],[[772,1496],[39,13]],[[1082,1257],[-9,-44],[30,-61]],[[1103,1152],[-73,-3],[-42,22],[-32,62]],[[1604,1804],[55,15]],[[1645,1601],[-40,28]],[[1115,1127],[53,52]],[[1505,562],[29,-53],[86,-94]],[[1620,415],[54,-120],[44,-57]],[[1718,238],[-42,26],[-97,134],[-85,89]],[[1494,487],[11,75]],[[1438,1272],[88,-38]],[[1385,1169],[-11,55],[64,48]],[[811,2285],[55,49]],[[489,1594],[-48,-25]],[[404,1637],[-21,34]],[[1284,1808],[-41,8],[-44,-34],[-61,26]],[[121,1766],[47,50]],[[168,1816],[56,-86],[-6,-53]],[[218,1677],[-47,22],[-50,67]],[[896,2362],[35,31]],[[1062,2220],[-93,-13]],[[2162,1151],[-30,31]],[[2660,876],[7,-59]],[[2609,660],[-64,85],[-97,44]],[[2448,789],[18,23]],[[3018,2952],[19,49],[51,24]],[[3088,3025],[22,-39]],[[3110,2986],[-25,-183]],[[3178,3372],[44,-28],[69,-108]],[[3266,3232],[-40,-18]],[[2766,3074],[84,-37]],[[2606,1648],[95,-135]],[[2701,1513],[-64,-40],[-36,-60]],[[2601,1413],[-48,11],[-41,89]],[[2814,1783],[117,-5],[63,-31],[56,-63],[58,31],[104,4]],[[3165,1518],[-48,19]],[[2979,1630],[-85,77]],[[1697,1564],[-31,-47]],[[1666,1517],[-41,-51]],[[1625,1466],[2,30],[-59,48]],[[1064,1785],[-47,-53]],[[1017,1732],[-51,-40]],[[954,1707],[-38,64],[-61,46]],[[1893,2354],[48,5],[39,62],[39,8]],[[1892,2348],[1,6]],[[2160,1984],[21,-41]],[[2124,1856],[-59,103],[-30,26]],[[2035,1985],[17,4]],[[2424,3030],[75,-1]],[[2732,2909],[-53,-46],[35,-95]],[[2714,2768],[23,-43],[-51,-30]],[[3918,2143],[-4,-39],[72,-78]],[[546,2227],[6,83]],[[552,2310],[24,5]],[[576,2315],[39,8]],[[615,2323],[41,-22],[50,29]],[[706,2330],[140,82],[18,75]],[[864,2487],[67,-94]],[[705,2179],[-36,4],[-55,-48]],[[629,2364],[-14,-41]],[[576,2315],[-15,101],[-23,47]],[[710,2491],[60,49],[60,-22]],[[706,2330],[-7,60],[46,23],[-35,78]],[[1481,2711],[-15,-130]],[[1466,2581],[-61,-61]],[[1405,2520],[-47,46],[-64,158]],[[1294,2724],[90,61]],[[1353,2429],[36,-13]],[[1389,2416],[172,-21]],[[1436,2247],[-87,-36]],[[1349,2211],[-33,96],[-55,24]],[[1405,2520],[-16,-104]],[[1264,2705],[30,19]],[[2946,2242],[78,3],[83,32]],[[3239,2178],[-32,-99]],[[2153,2409],[56,43]],[[2235,2517],[32,-1]],[[2267,2516],[56,-4]],[[2740,2480],[2,-2]],[[2742,2478],[100,-63]],[[2842,2415],[-51,-24]],[[2921,2491],[-61,18],[-118,-31]],[[1861,2422],[76,13],[7,48]],[[1893,2354],[-32,68]],[[2267,2516],[22,52]],[[3110,2986],[18,-15]],[[3128,2971],[24,-51],[97,-54]],[[3249,2866],[6,-46],[54,-42],[-23,-82]],[[3286,2696],[-61,59]],[[3128,2971],[138,43],[43,-33]],[[3309,2981],[-64,-63],[4,-52]],[[1829,3378],[113,101]],[[2019,3284],[-31,-17]],[[1988,3267],[-10,19]],[[1656,3675],[40,-73]],[[1566,3410],[-39,35],[-3,48]],[[997,2830],[99,18],[62,-22]],[[1027,2800],[-30,30]],[[3295,3491],[46,72],[77,33],[35,56],[-3,47]],[[3450,3699],[79,57]],[[3529,3756],[7,-65],[-29,-55],[52,-75],[80,8],[108,42]],[[3747,3611],[-61,-185]],[[2111,546],[112,-225]],[[2223,321],[-87,-11]],[[1901,434],[42,-41]],[[1927,217],[-39,-21],[-60,17]],[[1828,213],[-1,0]],[[1827,213],[-82,45],[19,110]],[[1752,2650],[33,36]],[[1904,2657],[-8,-95]],[[1896,2562],[-80,33],[-62,3],[-2,52]],[[3170,1916],[-109,-68],[-25,24]],[[3036,1872],[18,79],[-23,89]],[[1726,4064],[28,36]],[[1881,4212],[3,-79]],[[2155,3600],[56,72]],[[1407,3126],[60,28],[-3,61]],[[1464,3215],[51,41]],[[1463,3044],[-56,82]],[[1142,2620],[-67,-82],[32,-19]],[[1107,2519],[13,-81]],[[292,1879],[52,-52]],[[302,1716],[-86,137]],[[216,1853],[76,26]],[[1960,2055],[38,6],[-39,81],[182,16]],[[512,2450],[40,-140]],[[552,2310],[-66,-11],[-50,23]],[[404,2327],[24,30],[-32,61]],[[1517,2115],[-3,-5]],[[2366,2316],[-9,-67],[88,-14]],[[2284,2221],[-33,51]],[[1343,889],[53,16]],[[1396,905],[35,-38],[-10,-41],[35,-51]],[[1347,751],[-76,29],[64,66],[8,43]],[[152,2495],[43,69]],[[195,2564],[49,-37]],[[370,2439],[-88,-7]],[[195,2564],[11,62],[135,40]],[[2436,4157],[116,-50]],[[2552,4107],[-183,-235]],[[2552,4107],[204,-93]],[[2756,4014],[-37,-21]],[[2549,3757],[-65,32]],[[1247,751],[49,-3]],[[1488,613],[14,-17]],[[1502,596],[3,-34]],[[1494,487],[-138,98],[-109,166]],[[1981,2667],[11,-15]],[[1992,2652],[-94,-98]],[[1898,2554],[-2,8]],[[993,1640],[59,29]],[[1052,1669],[64,-10]],[[1566,565],[115,-7]],[[1827,213],[-109,25]],[[1620,415],[27,16],[-81,134]],[[1973,68],[74,66],[-18,42],[97,16],[8,47],[-22,64]],[[2242,121],[-121,-121],[-148,68]],[[3189,2527],[34,-7]],[[3249,2361],[-189,3],[-52,27],[-58,71],[-108,-47]],[[2737,1555],[-6,-15]],[[1939,2931],[33,-74],[-8,-81]],[[1752,2650],[-20,-3]],[[1732,2647],[-39,11]],[[1409,1318],[29,-46]],[[1749,3565],[117,74]],[[2423,1537],[-56,-66],[-9,-50],[-54,-33]],[[2304,1388],[-90,-52]],[[2214,1336],[55,215]],[[2863,3161],[41,-51],[-54,-73]],[[2045,938],[-13,-31],[24,-103]],[[1898,2554],[-75,-45]],[[1823,2509],[-79,59]],[[1744,2568],[-38,40],[26,39]],[[2842,2415],[3,-20],[110,-18],[34,-84],[-43,-50]],[[2891,2127],[-74,-22]],[[2817,2105],[-54,1]],[[2763,2106],[-39,3]],[[2724,2109],[4,56],[82,61]],[[3406,2035],[-22,6]],[[3384,2041],[-26,9]],[[1561,2395],[46,115]],[[1744,2568],[-1,-118],[-61,-19],[12,-45]],[[1681,558],[-28,22],[10,67],[-64,43],[26,95],[-13,62],[-46,-2]],[[2458,3480],[27,63]],[[2576,3385],[18,-49],[-49,-47],[-25,49],[-60,-36],[-60,5]],[[2400,3307],[49,78],[9,95]],[[1823,2509],[38,-87]],[[1992,2652],[30,-52]],[[2297,1987],[37,50],[42,-3]],[[2000,3519],[-79,10]],[[1802,1451],[-59,47],[-77,19]],[[1493,785],[66,58]],[[1566,565],[-64,31]],[[1115,1127],[-12,25]],[[1464,3215],[-63,33],[-31,72]],[[87,2238],[55,-42]],[[93,2068],[-48,11]],[[45,2079],[0,28]],[[45,2107],[42,131]],[[1340,922],[3,-33]],[[1247,751],[-69,120]],[[642,1768],[60,45],[-30,35]],[[3863,1733],[-131,-143]],[[3732,1590],[-60,6],[-4,63],[-86,24],[-50,35],[-29,59],[-105,113],[-14,151]],[[3286,2696],[47,-26],[106,20]],[[3439,2690],[25,-7]],[[2458,3480],[-78,96]],[[1155,1741],[38,-36]],[[1052,1669],[-8,52]],[[1044,1721],[111,20]],[[2075,3133],[60,126]],[[2400,3307],[-20,-56]],[[2058,3107],[17,26]],[[1512,3966],[106,-126]],[[1605,3811],[-104,-22],[-25,46],[-20,7],[9,53],[47,71]],[[2978,1053],[71,-30],[55,-60]],[[3104,963],[-39,-37]],[[1510,3969],[17,24]],[[1527,3993],[102,-31],[39,-48]],[[1512,3966],[-2,3]],[[168,1816],[48,37]],[[289,1631],[-71,46]],[[1604,1474],[21,-8]],[[1353,1694],[-72,-9],[-88,20]],[[1155,1741],[-17,67]],[[2717,1911],[100,55],[34,-38],[39,22]],[[2890,1950],[42,-80],[102,-47]],[[3034,1823],[101,-59],[142,-5]],[[3277,1759],[13,-30]],[[2724,3299],[51,24]],[[2775,3323],[23,9]],[[2950,3183],[-26,-8]],[[344,1596],[-48,30]],[[2601,1413],[-44,-34]],[[2456,1318],[14,145],[-31,78]],[[2214,1336],[-13,-54]],[[2607,491],[-126,-128]],[[2407,669],[41,120]],[[3475,2788],[-36,-98]],[[1044,1721],[-27,11]],[[2386,1045],[47,-18],[69,18]],[[2448,789],[-48,17]],[[634,2102],[-47,-47]],[[429,1919],[17,33],[-42,79],[3,32]],[[713,1527],[59,-31]],[[2987,1288],[96,-64]],[[3083,1224],[80,-204]],[[3163,1020],[-59,-57]],[[2100,2659],[56,-67]],[[2156,2592],[-72,-64]],[[2714,2768],[100,59]],[[2787,1339],[-124,-74],[-7,-19]],[[3215,1382],[-67,-56],[-8,-41],[-57,-61]],[[681,2475],[29,16]],[[2167,2848],[31,-23]],[[1973,68],[-46,59],[-51,25],[-48,61]],[[3732,1590],[-72,-71]],[[956,2862],[41,-32]],[[1474,1408],[6,0]],[[1554,1252],[-28,-18]],[[1059,961],[-86,117],[-47,15]],[[3269,1127],[-106,-107]],[[3034,1823],[2,49]],[[2304,1388],[31,-20],[11,-60],[34,-20]],[[645,2097],[34,-56],[59,-2],[62,-51]],[[3384,3725],[66,-26]],[[2709,2037],[56,12],[-2,57]],[[2817,2105],[-28,-58]],[[2789,2047],[-25,-51],[-59,-29]],[[1694,1129],[-62,60],[41,58],[-63,48]],[[2946,3031],[-12,55],[44,51]],[[2291,546],[4,-6]],[[687,1587],[46,-8],[74,42]],[[807,1621],[53,-46]],[[1357,3482],[-4,73],[33,79],[-4,48],[77,99],[-6,67],[5,46],[52,75]],[[2890,1950],[55,42],[23,65]],[[1289,3012],[43,24],[75,90]],[[1410,2992],[-48,-30],[-73,50]],[[292,1879],[-43,25],[-45,90]],[[689,2553],[54,35],[43,60],[4,82]],[[2394,4169],[36,-8]],[[2756,4014],[115,-53]],[[1120,2965],[169,47]],[[1541,2956],[-58,-22]],[[1483,2934],[-118,-46]],[[1148,2888],[-28,77]],[[66,2271],[21,-33]],[[45,2107],[-45,97],[66,67]],[[121,1766],[-13,11],[-91,268],[28,34]],[[1171,2577],[-64,-58]],[[1573,2528],[-41,-61],[-62,15],[-4,99]],[[3529,3756],[137,99]],[[3797,3765],[-50,-154]],[[2775,3323],[-50,46]],[[1483,2934],[15,-111]],[[1396,905],[63,19]],[[2789,2047],[78,-22],[23,-75]],[[890,2952],[94,39],[34,-17],[102,-9]],[[807,1621],[-6,4]],[[1825,3136],[140,105]],[[1965,3241],[110,-108]],[[2178,3051],[106,-28]],[[2677,2111],[47,-2]],[[1988,3267],[-23,-26]],[[1527,3993],[-12,66],[82,116],[-2,61],[76,96]],[[66,2271],[57,33]]],"transform":{"scale":[0.00011729212091179548,0.00009348617045198919],"translate":[-84.272495,33.752808]},"objects":{"Geometry\\13-135":{"type":"GeometryCollection","geometries":[{"arcs":[[0,1,2,3,4,5]],"type":"Polygon","properties":{"GEOID":"131350503172"}},{"arcs":[[6,7,8,9]],"type":"Polygon","properties":{"GEOID":"131350503154"}},{"arcs":[[10,11,12,13,14,15,16]],"type":"Polygon","properties":{"GEOID":"131350505642"}},{"arcs":[[17,18,19,20,21,22,23,24]],"type":"Polygon","properties":{"GEOID":"131350505211"}},{"arcs":[[25,26,27,28]],"type":"Polygon","properties":{"GEOID":"131350506263"}},{"arcs":[[29,30,31,32,33,34,35,36]],"type":"Polygon","properties":{"GEOID":"131350501172"}},{"arcs":[[37,38,39,40,41,42,43]],"type":"Polygon","properties":{"GEOID":"131350505572"}},{"arcs":[[44,45,46,47]],"type":"Polygon","properties":{"GEOID":"131350505612"}},{"arcs":[[48,49,50,51,52]],"type":"Polygon","properties":{"GEOID":"131350507153"}},{"arcs":[[53,54,55,56,57]],"type":"Polygon","properties":{"GEOID":"131350504572"}},{"arcs":[[58,59,60,61,62,63,64]],"type":"Polygon","properties":{"GEOID":"131350505281"}},{"arcs":[[65,66,67]],"type":"Polygon","properties":{"GEOID":"131350505372"}},{"arcs":[[68,69,70,71,72,73]],"type":"Polygon","properties":{"GEOID":"131350505391"}},{"arcs":[[74,75]],"type":"Polygon","properties":{"GEOID":"131350506171"}},{"arcs":[[76,77,78,79]],"type":"Polygon","properties":{"GEOID":"131350503271"}},{"arcs":[[80,81,82,83]],"type":"Polygon","properties":{"GEOID":"131350505681"}},{"arcs":[[84,85,86,87,88,89]],"type":"Polygon","properties":{"GEOID":"131350501193"}},{"arcs":[[90,91,92,93,-74,94,95]],"type":"Polygon","properties":{"GEOID":"131350505413"}},{"arcs":[[96,97,98,99,100]],"type":"Polygon","properties":{"GEOID":"131350501133"}},{"arcs":[[101,102,103,104]],"type":"Polygon","properties":{"GEOID":"131350504272"}},{"arcs":[[105,106,107]],"type":"Polygon","properties":{"GEOID":"131350504602"}},{"arcs":[[108,109,110,-49,111]],"type":"Polygon","properties":{"GEOID":"131350507561"}},{"arcs":[[112,113,114,115]],"type":"Polygon","properties":{"GEOID":"131350507421"}},{"arcs":[[116,117,118,119,120,121]],"type":"Polygon","properties":{"GEOID":"131350506351"}},{"arcs":[[122,123,124,125,126]],"type":"Polygon","properties":{"GEOID":"131350504663"}},{"arcs":[[127,128,129,130,131,132,133,134,135,136,137]],"type":"Polygon","properties":{"GEOID":"131350502291"}},{"arcs":[[-47,138,139,140,141]],"type":"Polygon","properties":{"GEOID":"131350505613"}},{"arcs":[[142,143,144,145]],"type":"Polygon","properties":{"GEOID":"131350502391"}},{"arcs":[[146,147,148,149,150,-19,151]],"type":"Polygon","properties":{"GEOID":"131350505691"}},{"arcs":[[152,153,154,155,156,157]],"type":"Polygon","properties":{"GEOID":"131350504461"}},{"arcs":[[158,159,160,161,162,163]],"type":"Polygon","properties":{"GEOID":"131350505561"}},{"arcs":[[164,165,166,167,168,169]],"type":"Polygon","properties":{"GEOID":"131350505711"}},{"arcs":[[170,171,172,173,174,175]],"type":"Polygon","properties":{"GEOID":"131350505893"}},{"arcs":[[176,177,178]],"type":"Polygon","properties":{"GEOID":"131350505292"}},{"arcs":[[179,180,181]],"type":"Polygon","properties":{"GEOID":"131350505301"}},{"arcs":[[182,183,184]],"type":"Polygon","properties":{"GEOID":"131350505512"}},{"arcs":[[185,186,187,188,189,190]],"type":"Polygon","properties":{"GEOID":"131350505741"}},{"arcs":[[191,192,193,194,195]],"type":"Polygon","properties":{"GEOID":"131350507384"}},{"arcs":[[196,197,198,199,200]],"type":"Polygon","properties":{"GEOID":"131350506142"}},{"arcs":[[201,202,203,-149]],"type":"Polygon","properties":{"GEOID":"131350505693"}},{"arcs":[[204,205,206]],"type":"Polygon","properties":{"GEOID":"131350503253"}},{"arcs":[[207,208,209,-72]],"type":"Polygon","properties":{"GEOID":"131350505392"}},{"arcs":[[210,211,212,213,214,215]],"type":"Polygon","properties":{"GEOID":"131350502192"}},{"arcs":[[216,217,218,219]],"type":"Polygon","properties":{"GEOID":"131350504632"}},{"arcs":[[220,221,222,223]],"type":"Polygon","properties":{"GEOID":"131350502432"}},{"arcs":[[224,225,226,227,228,229]],"type":"Polygon","properties":{"GEOID":"131350507624"}},{"arcs":[[230,231,232,233,234]],"type":"Polygon","properties":{"GEOID":"131350504611"}},{"arcs":[[235,236,237,238,239,240,241,242]],"type":"Polygon","properties":{"GEOID":"131350507522"}},{"arcs":[[243,244,245,246]],"type":"Polygon","properties":{"GEOID":"131350507562"}},{"arcs":[[247,248,249,250,251,252,253]],"type":"Polygon","properties":{"GEOID":"131350505541"}},{"arcs":[[254,255,256,-172]],"type":"Polygon","properties":{"GEOID":"131350505811"}},{"arcs":[[257,258,259,-77,260]],"type":"Polygon","properties":{"GEOID":"131350503272"}},{"arcs":[[261,262,-187]],"type":"Polygon","properties":{"GEOID":"131350505742"}},{"arcs":[[263,264,-164,265]],"type":"Polygon","properties":{"GEOID":"131350505562"}},{"arcs":[[266,267,-139,-46]],"type":"Polygon","properties":{"GEOID":"131350505622"}},{"arcs":[[268,269,270,271,272]],"type":"Polygon","properties":{"GEOID":"131350502224"}},{"arcs":[[273,274,275,276,277,278,279,280,281,282]],"type":"Polygon","properties":{"GEOID":"131350502312"}},{"arcs":[[283,284,285,286,287]],"type":"Polygon","properties":{"GEOID":"131350506222"}},{"arcs":[[288,289,-262,290]],"type":"Polygon","properties":{"GEOID":"131350505752"}},{"arcs":[[291,292,293,294,295]],"type":"Polygon","properties":{"GEOID":"131350505791"}},{"arcs":[[296,297,298,299]],"type":"Polygon","properties":{"GEOID":"131350506113"}},{"arcs":[[300,301,-122,302,303]],"type":"Polygon","properties":{"GEOID":"131350506313"}},{"arcs":[[304,305,306,307,308]],"type":"Polygon","properties":{"GEOID":"131350507342"}},{"arcs":[[-135,309,310,311,-96,312,313,314,315,316]],"type":"Polygon","properties":{"GEOID":"131350505422"}},{"arcs":[[317,-153,318,319]],"type":"Polygon","properties":{"GEOID":"131350504451"}},{"arcs":[[320,321,322,323,324,325]],"type":"Polygon","properties":{"GEOID":"131350506202"}},{"arcs":[[326,327,328,329]],"type":"Polygon","properties":{"GEOID":"131350502433"}},{"arcs":[[330,331,332,333,334,335,336]],"type":"Polygon","properties":{"GEOID":"131350507491"}},{"arcs":[[337,338,339,340,341,342,343]],"type":"Polygon","properties":{"GEOID":"131350504641"}},{"arcs":[[344,345,346,347,-103]],"type":"Polygon","properties":{"GEOID":"131350507601"}},{"arcs":[[-253,348,349,350,351]],"type":"Polygon","properties":{"GEOID":"131350504413"}},{"arcs":[[-314,352,353,354,355]],"type":"Polygon","properties":{"GEOID":"131350505263"}},{"arcs":[[-161,356,357,-38,358]],"type":"Polygon","properties":{"GEOID":"131350505571"}},{"arcs":[[359,360,361,362,363,-177]],"type":"Polygon","properties":{"GEOID":"131350505493"}},{"arcs":[[364,365,366,367,368]],"type":"Polygon","properties":{"GEOID":"131350501112"}},{"arcs":[[369,370,371,372,373]],"type":"Polygon","properties":{"GEOID":"131350504471"}},{"arcs":[[374,-137,375,376]],"type":"Polygon","properties":{"GEOID":"131350503332"}},{"arcs":[[377,-261,-80,378,379,380,381]],"type":"Polygon","properties":{"GEOID":"131350503301"}},{"arcs":[[-233,382,383,384,385]],"type":"Polygon","properties":{"GEOID":"131350504612"}},{"arcs":[[386,387,388,-248,389,-354]],"type":"Polygon","properties":{"GEOID":"131350505771"}},{"arcs":[[390,391,392,393,394]],"type":"Polygon","properties":{"GEOID":"131350504371"}},{"arcs":[[395,396,397,398,399]],"type":"Polygon","properties":{"GEOID":"131350503224"}},{"arcs":[[400,401,-374,402,403]],"type":"Polygon","properties":{"GEOID":"131350504482"}},{"arcs":[[404,405]],"type":"Polygon","properties":{"GEOID":"131350502411"}},{"arcs":[[406,407,408,409,410,411,412]],"type":"Polygon","properties":{"GEOID":"131350505852"}},{"arcs":[[413,414,415,416,-40]],"type":"Polygon","properties":{"GEOID":"131350505593"}},{"arcs":[[417,418,-61,419]],"type":"Polygon","properties":{"GEOID":"131350502251"}},{"arcs":[[420,421,422,423,424,425,426,427]],"type":"Polygon","properties":{"GEOID":"131350507451"}},{"arcs":[[428,-42,429,430,431,432,433]],"type":"Polygon","properties":{"GEOID":"131350505671"}},{"arcs":[[-313,-95,434,-387,-353]],"type":"Polygon","properties":{"GEOID":"131350505772"}},{"arcs":[[435,436,437,-216,438]],"type":"Polygon","properties":{"GEOID":"131350502283"}},{"arcs":[[439,440,441,442,443,444,445,446]],"type":"Polygon","properties":{"GEOID":"131350506173"}},{"arcs":[[447,448,-275]],"type":"Polygon","properties":{"GEOID":"131350502322"}},{"arcs":[[-82,449,450,451,452]],"type":"Polygon","properties":{"GEOID":"131350505913"}},{"arcs":[[453,454,455,456,457]],"type":"Polygon","properties":{"GEOID":"131350505843"}},{"arcs":[[458,-321,459]],"type":"Polygon","properties":{"GEOID":"131350506211"}},{"arcs":[[460,461,-231,462,463]],"type":"Polygon","properties":{"GEOID":"131350504351"}},{"arcs":[[-120,464,465,466,467]],"type":"Polygon","properties":{"GEOID":"131350506361"}},{"arcs":[[468,469,470,471]],"type":"Polygon","properties":{"GEOID":"131350503352"}},{"arcs":[[472,-303,473,474]],"type":"Polygon","properties":{"GEOID":"131350506341"}},{"arcs":[[475,476,477,478]],"type":"Polygon","properties":{"GEOID":"131350504582"}},{"arcs":[[479,480,481,482,483,-415]],"type":"Polygon","properties":{"GEOID":"131350505591"}},{"arcs":[[484,-176,485,486]],"type":"Polygon","properties":{"GEOID":"131350505214"}},{"arcs":[[487,488,489,490,491]],"type":"Polygon","properties":{"GEOID":"131350502051"}},{"arcs":[[-134,492,493,494,-310]],"type":"Polygon","properties":{"GEOID":"131350505421"}},{"arcs":[[-400,495,496]],"type":"Polygon","properties":{"GEOID":"131350503223"}},{"arcs":[[497,-319,-158,498,499]],"type":"Polygon","properties":{"GEOID":"131350504331"}},{"arcs":[[500,501,-69,-94]],"type":"Polygon","properties":{"GEOID":"131350505411"}},{"arcs":[[-347,-52,502,503,504,505,506]],"type":"Polygon","properties":{"GEOID":"131350507151"}},{"arcs":[[507,-332,508]],"type":"Polygon","properties":{"GEOID":"131350507291"}},{"arcs":[[-178,-364,509,510,511,-180,512]],"type":"Polygon","properties":{"GEOID":"131350505291"}},{"arcs":[[513,-386,514,515,516,517,518]],"type":"Polygon","properties":{"GEOID":"131350504253"}},{"arcs":[[519,-229,520,521,-504]],"type":"Polygon","properties":{"GEOID":"131350507632"}},{"arcs":[[522,523,524,525]],"type":"Polygon","properties":{"GEOID":"131350503111"}},{"arcs":[[526,527,-294,528,529,530,531]],"type":"Polygon","properties":{"GEOID":"131350505781"}},{"arcs":[[532,533,534]],"type":"Polygon","properties":{"GEOID":"131350502232"}},{"arcs":[[535,536,537,538,-214]],"type":"Polygon","properties":{"GEOID":"131350502223"}},{"arcs":[[539,540,541,-465,-119]],"type":"Polygon","properties":{"GEOID":"131350506151"}},{"arcs":[[-416,-484,542,543,-84,544,-431,545]],"type":"Polygon","properties":{"GEOID":"131350505682"}},{"arcs":[[-145,546,547,548,549]],"type":"Polygon","properties":{"GEOID":"131350502393"}},{"arcs":[[550,551,552,553,554,555,556]],"type":"Polygon","properties":{"GEOID":"131350507641"}},{"arcs":[[557,558,559,560,-538]],"type":"Polygon","properties":{"GEOID":"131350502222"}},{"arcs":[[561,-123,562]],"type":"Polygon","properties":{"GEOID":"131350504662"}},{"arcs":[[563,-22,564,565,566,-255]],"type":"Polygon","properties":{"GEOID":"131350505221"}},{"arcs":[[567,568,569,-454,570]],"type":"Polygon","properties":{"GEOID":"131350505842"}},{"arcs":[[571,-5,572,573]],"type":"Polygon","properties":{"GEOID":"131350503171"}},{"arcs":[[574,575,-57,576,-476,577,578,-516]],"type":"Polygon","properties":{"GEOID":"131350504621"}},{"arcs":[[-351,579,580,581]],"type":"Polygon","properties":{"GEOID":"131350504411"}},{"arcs":[[582,583,584,585]],"type":"Polygon","properties":{"GEOID":"131350505532"}},{"arcs":[[-355,-390,-254,586,587,588,589]],"type":"Polygon","properties":{"GEOID":"131350505262"}},{"arcs":[[590,591,592,593,594,595]],"type":"Polygon","properties":{"GEOID":"131350507531"}},{"arcs":[[596,-246,597,-110,598]],"type":"Polygon","properties":{"GEOID":"131350507563"}},{"arcs":[[-41,-417,-546,-430]],"type":"Polygon","properties":{"GEOID":"131350505672"}},{"arcs":[[-268,599,600,-191,601,-140]],"type":"Polygon","properties":{"GEOID":"131350505621"}},{"arcs":[[602,603,-212,604,605]],"type":"Polygon","properties":{"GEOID":"131350502193"}},{"arcs":[[-471,606,607,608,609,-2,610]],"type":"Polygon","properties":{"GEOID":"131350503362"}},{"arcs":[[611,-9,-574,612]],"type":"Polygon","properties":{"GEOID":"131350503322"}},{"arcs":[[613,614,615,616]],"type":"Polygon","properties":{"GEOID":"131350504521"}},{"arcs":[[617,618,-501,-93,619,-494]],"type":"Polygon","properties":{"GEOID":"131350505423"}},{"arcs":[[620,621,622,623,624,625,-395,626,627]],"type":"Polygon","properties":{"GEOID":"131350504372"}},{"arcs":[[-111,628,-225,629,-50]],"type":"Polygon","properties":{"GEOID":"131350507623"}},{"arcs":[[630,631,632,633]],"type":"Polygon","properties":{"GEOID":"131350503081"}},{"arcs":[[634,635,636,637,638,639]],"type":"Polygon","properties":{"GEOID":"131350507482"}},{"arcs":[[640,641,642,643,-251]],"type":"Polygon","properties":{"GEOID":"131350505542"}},{"arcs":[[-141,644,-481,645,-357,-160,646,-264,647]],"type":"Polygon","properties":{"GEOID":"131350505581"}},{"arcs":[[648,-163,649,650,-208,-71]],"type":"Polygon","properties":{"GEOID":"131350505393"}},{"arcs":[[651,-317,652,653,-589,654,655,656]],"type":"Polygon","properties":{"GEOID":"131350504391"}},{"arcs":[[-615,657,658,659]],"type":"Polygon","properties":{"GEOID":"131350504511"}},{"arcs":[[660,-48,-142,661,-66,662,663]],"type":"Polygon","properties":{"GEOID":"131350505611"}},{"arcs":[[664,-344,665,666,-218]],"type":"Polygon","properties":{"GEOID":"131350504642"}},{"arcs":[[667,668,669,670,671,672]],"type":"Polygon","properties":{"GEOID":"131350507401"}},{"arcs":[[-625,673,-370,-402,674]],"type":"Polygon","properties":{"GEOID":"131350504383"}},{"arcs":[[675,676,677,678]],"type":"Polygon","properties":{"GEOID":"131350503212"}},{"arcs":[[679,680,681,-383,-232]],"type":"Polygon","properties":{"GEOID":"131350504273"}},{"arcs":[[-468,682,683,684]],"type":"Polygon","properties":{"GEOID":"131350506362"}},{"arcs":[[-162,-359,-44,685,686]],"type":"Polygon","properties":{"GEOID":"131350505553"}},{"arcs":[[687,688,689,690,691]],"type":"Polygon","properties":{"GEOID":"131350505363"}},{"arcs":[[692,693,694,695]],"type":"Polygon","properties":{"GEOID":"131350507191"}},{"arcs":[[696,697,698,699,700,-632]],"type":"Polygon","properties":{"GEOID":"131350503231"}},{"arcs":[[701,702,-680,-462]],"type":"Polygon","properties":{"GEOID":"131350504422"}},{"arcs":[[-368,703,704,705,706,707]],"type":"Polygon","properties":{"GEOID":"131350501053"}},{"arcs":[[708,-539,-561,709]],"type":"Polygon","properties":{"GEOID":"131350502211"}},{"arcs":[[-260,710,711,-78]],"type":"Polygon","properties":{"GEOID":"131350503281"}},{"arcs":[[712,-170,713,-203]],"type":"Polygon","properties":{"GEOID":"131350505692"}},{"arcs":[[714,-505,715,716,717,718,-553]],"type":"Polygon","properties":{"GEOID":"131350507152"}},{"arcs":[[-315,-356,-590,-654,719]],"type":"Polygon","properties":{"GEOID":"131350505264"}},{"arcs":[[720,-107,721,722,723,-340,724]],"type":"Polygon","properties":{"GEOID":"131350504591"}},{"arcs":[[725,726,-237,727]],"type":"Polygon","properties":{"GEOID":"131350507461"}},{"arcs":[[-656,728,729,730]],"type":"Polygon","properties":{"GEOID":"131350504531"}},{"arcs":[[731,-413,732,733]],"type":"Polygon","properties":{"GEOID":"131350505853"}},{"arcs":[[734,735,736,-289,737,738,-584]],"type":"Polygon","properties":{"GEOID":"131350505751"}},{"arcs":[[739,740,-527,741,742]],"type":"Polygon","properties":{"GEOID":"131350505721"}},{"arcs":[[743,744,745,-418,746]],"type":"Polygon","properties":{"GEOID":"131350502253"}},{"arcs":[[747,748,749,750]],"type":"Polygon","properties":{"GEOID":"131350504304"}},{"arcs":[[-548,751,752,753]],"type":"Polygon","properties":{"GEOID":"131350502402"}},{"arcs":[[754,755,-6,-572,-8]],"type":"Polygon","properties":{"GEOID":"131350503173"}},{"arcs":[[-542,756,-466]],"type":"Polygon","properties":{"GEOID":"131350506152"}},{"arcs":[[757,758,-755,-7,759]],"type":"Polygon","properties":{"GEOID":"131350503153"}},{"arcs":[[760,761,762,763,764]],"type":"Polygon","properties":{"GEOID":"131350507251"}},{"arcs":[[-64,765,-740,766,767]],"type":"Polygon","properties":{"GEOID":"131350505732"}},{"arcs":[[-286,768,769]],"type":"Polygon","properties":{"GEOID":"131350506232"}},{"arcs":[[770,-209,-651,771,772,-249,-389]],"type":"Polygon","properties":{"GEOID":"131350505762"}},{"arcs":[[773,774,-464,-723,775]],"type":"Polygon","properties":{"GEOID":"131350504353"}},{"arcs":[[-436,776,777,778]],"type":"Polygon","properties":{"GEOID":"131350502282"}},{"arcs":[[-157,779,780,-220,781,-499]],"type":"Polygon","properties":{"GEOID":"131350504631"}},{"arcs":[[782,-432,783]],"type":"Polygon","properties":{"GEOID":"131350507611"}},{"arcs":[[784,785,786,787,788]],"type":"Polygon","properties":{"GEOID":"131350503341"}},{"arcs":[[789,-788,790,791,792,793,-206]],"type":"Polygon","properties":{"GEOID":"131350503252"}},{"arcs":[[-719,794,-765,-333,-508,795]],"type":"Polygon","properties":{"GEOID":"131350507252"}},{"arcs":[[-614,796,797,798,799,-154,-318,800,-658]],"type":"Polygon","properties":{"GEOID":"131350504452"}},{"arcs":[[801,-531,802,803,-13,804]],"type":"Polygon","properties":{"GEOID":"131350505632"}},{"arcs":[[-670,805,806,807,-423,808]],"type":"Polygon","properties":{"GEOID":"131350507413"}},{"arcs":[[809,810,811,-780,-156]],"type":"Polygon","properties":{"GEOID":"131350504463"}},{"arcs":[[812,-234,-514,813,814]],"type":"Polygon","properties":{"GEOID":"131350504252"}},{"arcs":[[815,816,817,818]],"type":"Polygon","properties":{"GEOID":"131350507364"}},{"arcs":[[819,-472,820,-759]],"type":"Polygon","properties":{"GEOID":"131350503182"}},{"arcs":[[821,822,823,-817,824]],"type":"Polygon","properties":{"GEOID":"131350507363"}},{"arcs":[[825,826,827,828]],"type":"Polygon","properties":{"GEOID":"131350506274"}},{"arcs":[[-690,829,-25,830,831]],"type":"Polygon","properties":{"GEOID":"131350505201"}},{"arcs":[[832,-810,-155,-800]],"type":"Polygon","properties":{"GEOID":"131350504462"}},{"arcs":[[-393,833,834]],"type":"Polygon","properties":{"GEOID":"131350504493"}},{"arcs":[[-336,835,836,837]],"type":"Polygon","properties":{"GEOID":"131350507502"}},{"arcs":[[838,839,840,841,842,-717]],"type":"Polygon","properties":{"GEOID":"131350507193"}},{"arcs":[[843,844,-269,845,846,847,848,849]],"type":"Polygon","properties":{"GEOID":"131350502372"}},{"arcs":[[850,851,-11,-189]],"type":"Polygon","properties":{"GEOID":"131350505641"}},{"arcs":[[852,853,854,855]],"type":"Polygon","properties":{"GEOID":"131350507511"}},{"arcs":[[856,857]],"type":"Polygon","properties":{"GEOID":"131350506242"}},{"arcs":[[858,-131,859,-129,860]],"type":"Polygon","properties":{"GEOID":"131350502301"}},{"arcs":[[861,862,863,864]],"type":"Polygon","properties":{"GEOID":"131350505652"}},{"arcs":[[865,866,867,-277,868,869]],"type":"Polygon","properties":{"GEOID":"131350502241"}},{"arcs":[[870,871,872,-807]],"type":"Polygon","properties":{"GEOID":"131350507412"}},{"arcs":[[873,874,-606,875,-437,876,-491]],"type":"Polygon","properties":{"GEOID":"131350502053"}},{"arcs":[[-240,877,878,879,880,881]],"type":"Polygon","properties":{"GEOID":"131350507351"}},{"arcs":[[882,883,-338,-665,-217,-781]],"type":"Polygon","properties":{"GEOID":"131350504431"}},{"arcs":[[884,-304,-473,885,886,887]],"type":"Polygon","properties":{"GEOID":"131350506322"}},{"arcs":[[-757,-541,888,889,890,-440,891,-683,-467]],"type":"Polygon","properties":{"GEOID":"131350506161"}},{"arcs":[[892,893,894,895,896]],"type":"Polygon","properties":{"GEOID":"131350501202"}},{"arcs":[[-869,-276,-449,897,898]],"type":"Polygon","properties":{"GEOID":"131350502321"}},{"arcs":[[899,900,-196,901,902]],"type":"Polygon","properties":{"GEOID":"131350507331"}},{"arcs":[[-372,903,904,-108,905,906]],"type":"Polygon","properties":{"GEOID":"131350504481"}},{"arcs":[[907,908,-535,909,-870,910]],"type":"Polygon","properties":{"GEOID":"131350502233"}},{"arcs":[[911,912,913,-138,-375,914,-786,915]],"type":"Polygon","properties":{"GEOID":"131350503342"}},{"arcs":[[916,-846,-273,917,-558,-537]],"type":"Polygon","properties":{"GEOID":"131350502221"}},{"arcs":[[-555,918,-337,-838,919]],"type":"Polygon","properties":{"GEOID":"131350507292"}},{"arcs":[[920,-453,921,-247,-597,922]],"type":"Polygon","properties":{"GEOID":"131350507572"}},{"arcs":[[923,-173,924,925,926,927]],"type":"Polygon","properties":{"GEOID":"131350505892"}},{"arcs":[[-121,-685,928,929,-474]],"type":"Polygon","properties":{"GEOID":"131350506352"}},{"arcs":[[-100,930,-752,-547,-144,931]],"type":"Polygon","properties":{"GEOID":"131350501131"}},{"arcs":[[-56,932,-557,933,934,-477,-577]],"type":"Polygon","properties":{"GEOID":"131350504573"}},{"arcs":[[-350,935,936,937,-703,-580]],"type":"Polygon","properties":{"GEOID":"131350504421"}},{"arcs":[[938,939,940,-880]],"type":"Polygon","properties":{"GEOID":"131350507353"}},{"arcs":[[941,942,943,944]],"type":"Polygon","properties":{"GEOID":"131350507381"}},{"arcs":[[945,946,947,948,-98]],"type":"Polygon","properties":{"GEOID":"131350501151"}},{"arcs":[[949,-443,950,951,952,953]],"type":"Polygon","properties":{"GEOID":"131350506192"}},{"arcs":[[954,955]],"type":"Polygon","properties":{"GEOID":"131350507433"}},{"arcs":[[956,957,958,959,-298,960]],"type":"Polygon","properties":{"GEOID":"131350506112"}},{"arcs":[[961,962,963,964]],"type":"Polygon","properties":{"GEOID":"131350502352"}},{"arcs":[[965,966,967]],"type":"Polygon","properties":{"GEOID":"131350506311"}},{"arcs":[[968,969,970,971]],"type":"Polygon","properties":{"GEOID":"131350506343"}},{"arcs":[[972,973,974,975,976]],"type":"Polygon","properties":{"GEOID":"131350504561"}},{"arcs":[[-530,977,978,979,980,-803]],"type":"Polygon","properties":{"GEOID":"131350505832"}},{"arcs":[[981,982,-607,-470,983,-677]],"type":"Polygon","properties":{"GEOID":"131350503213"}},{"arcs":[[-864,984,985,-361,986]],"type":"Polygon","properties":{"GEOID":"131350505653"}},{"arcs":[[987,988,989,-382,990,991,992,993,994,995]],"type":"Polygon","properties":{"GEOID":"131350503063"}},{"arcs":[[-925,-257,996,997,-421,998]],"type":"Polygon","properties":{"GEOID":"131350505802"}},{"arcs":[[999,-551,-933,-55]],"type":"Polygon","properties":{"GEOID":"131350507642"}},{"arcs":[[1000,1001,-87,1002,-33,1003]],"type":"Polygon","properties":{"GEOID":"131350501122"}},{"arcs":[[-130,-860]],"type":"Polygon","properties":{"GEOID":"131350502292"}},{"arcs":[[1004,-91,-312]],"type":"Polygon","properties":{"GEOID":"131350505412"}},{"arcs":[[-764,1005,1006,1007,-334]],"type":"Polygon","properties":{"GEOID":"131350507492"}},{"arcs":[[-595,1008,1009,1010]],"type":"Polygon","properties":{"GEOID":"131350507532"}},{"arcs":[[1011,1012,1013,-623]],"type":"Polygon","properties":{"GEOID":"131350504381"}},{"arcs":[[-446,1014,1015,-459]],"type":"Polygon","properties":{"GEOID":"131350506212"}},{"arcs":[[-35,1016,1017,1018]],"type":"Polygon","properties":{"GEOID":"131350501182"}},{"arcs":[[-567,-672,1019,-997,-256]],"type":"Polygon","properties":{"GEOID":"131350505812"}},{"arcs":[[-963,1020,1021,1022]],"type":"Polygon","properties":{"GEOID":"131350502353"}},{"arcs":[[-63,1023,1024,-741,-766]],"type":"Polygon","properties":{"GEOID":"131350505722"}},{"arcs":[[-290,-737,1025,-851,-188,-263]],"type":"Polygon","properties":{"GEOID":"131350505743"}},{"arcs":[[1026,-956,1027,1028,1029,1030,1031]],"type":"Polygon","properties":{"GEOID":"131350507443"}},{"arcs":[[1032,-694,1033,1034,1035,1036]],"type":"Polygon","properties":{"GEOID":"131350507392"}},{"arcs":[[1037,1038,1039,-37,1040,1041,1042]],"type":"Polygon","properties":{"GEOID":"131350501171"}},{"arcs":[[-343,1043,1044,1045,-666]],"type":"Polygon","properties":{"GEOID":"131350504643"}},{"arcs":[[1046,1047,1048,1049,1050]],"type":"Polygon","properties":{"GEOID":"131350504152"}},{"arcs":[[-611,-1,-756,-821]],"type":"Polygon","properties":{"GEOID":"131350503181"}},{"arcs":[[1051,-242,1052,-853,1053]],"type":"Polygon","properties":{"GEOID":"131350507521"}},{"arcs":[[-328,1054,1055,-910,-534]],"type":"Polygon","properties":{"GEOID":"131350502231"}},{"arcs":[[1056,1057,-866,-1056]],"type":"Polygon","properties":{"GEOID":"131350502242"}},{"arcs":[[-887,-969,1058,1059]],"type":"Polygon","properties":{"GEOID":"131350506321"}},{"arcs":[[-1042,1060,1061,1062]],"type":"Polygon","properties":{"GEOID":"131350501162"}},{"arcs":[[-967,-301,-885,1063]],"type":"Polygon","properties":{"GEOID":"131350506312"}},{"arcs":[[1064,1065,-893]],"type":"Polygon","properties":{"GEOID":"131350501102"}},{"arcs":[[1066,1067,1068,1069]],"type":"Polygon","properties":{"GEOID":"131350505661"}},{"arcs":[[1070,1071,-199,1072,1073,1074,1075]],"type":"Polygon","properties":{"GEOID":"131350506301"}},{"arcs":[[1076,-959,1077,1078,-292,1079]],"type":"Polygon","properties":{"GEOID":"131350505792"}},{"arcs":[[1080,1081,1082,1083,-30,-1040,1084]],"type":"Polygon","properties":{"GEOID":"131350501213"}},{"arcs":[[-843,1085,-761,-795,-718]],"type":"Polygon","properties":{"GEOID":"131350507254"}},{"arcs":[[1086,1087,1088,-327,1089]],"type":"Polygon","properties":{"GEOID":"131350502421"}},{"arcs":[[-906,-721,1090,1091,1092]],"type":"Polygon","properties":{"GEOID":"131350504442"}},{"arcs":[[1093,-923,-599,-109]],"type":"Polygon","properties":{"GEOID":"131350507571"}},{"arcs":[[1094,1095,1096,-450,-81,-544]],"type":"Polygon","properties":{"GEOID":"131350505901"}},{"arcs":[[1097,1098,-951,-442]],"type":"Polygon","properties":{"GEOID":"131350506172"}},{"arcs":[[1099,1100,-912,1101]],"type":"Polygon","properties":{"GEOID":"131350503343"}},{"arcs":[[1102,-455,-570,-1071]],"type":"Polygon","properties":{"GEOID":"131350506302"}},{"arcs":[[1103,1104,1105,-744,1106,1107,-862,1108,1109]],"type":"Polygon","properties":{"GEOID":"131350502261"}},{"arcs":[[-300,-745,-1106,1110]],"type":"Polygon","properties":{"GEOID":"131350502262"}},{"arcs":[[-958,1111,1112,1113,1114,-568,1115,-1078]],"type":"Polygon","properties":{"GEOID":"131350506122"}},{"arcs":[[-1016,1116,-322]],"type":"Polygon","properties":{"GEOID":"131350506201"}},{"arcs":[[-335,-1008,1117,1118,-305,1119,-836]],"type":"Polygon","properties":{"GEOID":"131350507503"}},{"arcs":[[1120,1121,-192,-901,1122]],"type":"Polygon","properties":{"GEOID":"131350507343"}},{"arcs":[[-1006,1123,-695,-1033,1124]],"type":"Polygon","properties":{"GEOID":"131350507222"}},{"arcs":[[1125,-881,-941,1126,-823]],"type":"Polygon","properties":{"GEOID":"131350507361"}},{"arcs":[[1127,-596,-1011,1128,-693,1129,-840]],"type":"Polygon","properties":{"GEOID":"131350507533"}},{"arcs":[[-517,-579,1130,-748,1131]],"type":"Polygon","properties":{"GEOID":"131350504254"}},{"arcs":[[1132,1133,-1082,1134]],"type":"Polygon","properties":{"GEOID":"131350501211"}},{"arcs":[[1135,1136,-789,-790,-205,1137,1138,1139]],"type":"Polygon","properties":{"GEOID":"131350503251"}},{"arcs":[[1140,1141,1142,-904,-371,1143]],"type":"Polygon","properties":{"GEOID":"131350504472"}},{"arcs":[[1144,-1091,-725,-339,-884]],"type":"Polygon","properties":{"GEOID":"131350504432"}},{"arcs":[[-381,1145,-991]],"type":"Polygon","properties":{"GEOID":"131350503302"}},{"arcs":[[-1030,1146,1147]],"type":"Polygon","properties":{"GEOID":"131350507441"}},{"arcs":[[1148,-295,-528,-1025]],"type":"Polygon","properties":{"GEOID":"131350505782"}},{"arcs":[[1149,1150,1151,-284]],"type":"Polygon","properties":{"GEOID":"131350506223"}},{"arcs":[[1152,1153,-978,-529]],"type":"Polygon","properties":{"GEOID":"131350505821"}},{"arcs":[[1154,-952,-1099,1155,1156,1157]],"type":"Polygon","properties":{"GEOID":"131350506191"}},{"arcs":[[1158,-227,1159,1160,-591,-1128,1161]],"type":"Polygon","properties":{"GEOID":"131350507582"}},{"arcs":[[1162,1163,-728,-236,1164]],"type":"Polygon","properties":{"GEOID":"131350507463"}},{"arcs":[[1165,-116,1166,-635,1167,1168]],"type":"Polygon","properties":{"GEOID":"131350507422"}},{"arcs":[[1169,-659,-801,-320,-498,1170,-975]],"type":"Polygon","properties":{"GEOID":"131350504551"}},{"arcs":[[-349,-252,-644,1171,1172,-936]],"type":"Polygon","properties":{"GEOID":"131350505501"}},{"arcs":[[1173,1174,1175,-943,1176]],"type":"Polygon","properties":{"GEOID":"131350507371"}},{"arcs":[[-638,1177,1178,-878,-239,1179]],"type":"Polygon","properties":{"GEOID":"131350507472"}},{"arcs":[[1180,-506,-715,-552,-1000,1181]],"type":"Polygon","properties":{"GEOID":"131350507651"}},{"arcs":[[-627,-394,-835,1182,1183,1184,-798]],"type":"Polygon","properties":{"GEOID":"131350504492"}},{"arcs":[[-1143,1185,-722,-106,-905]],"type":"Polygon","properties":{"GEOID":"131350504601"}},{"arcs":[[-784,-545,-83,-921,-1094,1186,1187]],"type":"Polygon","properties":{"GEOID":"131350507612"}},{"arcs":[[-787,-915,-377,1188,-791]],"type":"Polygon","properties":{"GEOID":"131350503333"}},{"arcs":[[-34,-1003,-86,1189,-1017]],"type":"Polygon","properties":{"GEOID":"131350501181"}},{"arcs":[[-1002,-369,-708,1190,-88]],"type":"Polygon","properties":{"GEOID":"131350501111"}},{"arcs":[[1191,-733,-412,-673,-566]],"type":"Polygon","properties":{"GEOID":"131350505223"}},{"arcs":[[-705,1192,1193,-947,1194]],"type":"Polygon","properties":{"GEOID":"131350501153"}},{"arcs":[[-1134,-1004,-32,1195,-1083]],"type":"Polygon","properties":{"GEOID":"131350501121"}},{"arcs":[[-650,-687,1196,-642,1197,-772]],"type":"Polygon","properties":{"GEOID":"131350505552"}},{"arcs":[[-445,1198,1199,1200,-1015]],"type":"Polygon","properties":{"GEOID":"131350506182"}},{"arcs":[[1201,1202,-1165,-243,1203,-592,-1161,1204]],"type":"Polygon","properties":{"GEOID":"131350507551"}},{"arcs":[[1205,1206,1207,-1028,-955,-1027,1208,1209]],"type":"Polygon","properties":{"GEOID":"131350507432"}},{"arcs":[[1210,-434,1211,-183,1212]],"type":"Polygon","properties":{"GEOID":"131350505503"}},{"arcs":[[-1097,1213,-174,-924,1214,-451]],"type":"Polygon","properties":{"GEOID":"131350505912"}},{"arcs":[[1215,1216,1217,1218,1219,1220]],"type":"Polygon","properties":{"GEOID":"131350506251"}},{"arcs":[[1221,-793,1222,1223,1224,1225]],"type":"Polygon","properties":{"GEOID":"131350503263"}},{"arcs":[[-151,1226,-407,-732,1227,-20]],"type":"Polygon","properties":{"GEOID":"131350505851"}},{"arcs":[[1228,1229,1230,1231,1232,1233,-167]],"type":"Polygon","properties":{"GEOID":"131350505713"}},{"arcs":[[-769,-285,-1152,1234,1235,-26,1236,1237]],"type":"Polygon","properties":{"GEOID":"131350506233"}},{"arcs":[[-1074,1238,1239,-826,1240]],"type":"Polygon","properties":{"GEOID":"131350506273"}},{"arcs":[[1241,1242,-1092,-1145,-883,-812]],"type":"Polygon","properties":{"GEOID":"131350504441"}},{"arcs":[[-342,-815,1243,1244,-1044]],"type":"Polygon","properties":{"GEOID":"131350504651"}},{"arcs":[[1245,-1213,-185,1246,-1172]],"type":"Polygon","properties":{"GEOID":"131350505502"}},{"arcs":[[-518,-1132,-751,-124,-562,1247]],"type":"Polygon","properties":{"GEOID":"131350504661"}},{"arcs":[[1248,1249,1250,1251]],"type":"Polygon","properties":{"GEOID":"131350504162"}},{"arcs":[[1252,-58,-576,1253]],"type":"Polygon","properties":{"GEOID":"131350504623"}},{"arcs":[[-51,-630,-230,-520,-503]],"type":"Polygon","properties":{"GEOID":"131350507154"}},{"arcs":[[1254,-1102,-916,-785,-1137]],"type":"Polygon","properties":{"GEOID":"131350503344"}},{"arcs":[[-993,-628,-797,-617,1255,-973,1256]],"type":"Polygon","properties":{"GEOID":"131350504522"}},{"arcs":[[-646,-480,-414,-39,-358]],"type":"Polygon","properties":{"GEOID":"131350505592"}},{"arcs":[[-626,-675,-401,-391]],"type":"Polygon","properties":{"GEOID":"131350504384"}},{"arcs":[[-655,-588,1257,-729]],"type":"Polygon","properties":{"GEOID":"131350504401"}},{"arcs":[[1258,1259,1260]],"type":"Polygon","properties":{"GEOID":"131350503311"}},{"arcs":[[1261,-710,-560,-132,-859,1262,-913,-1101]],"type":"Polygon","properties":{"GEOID":"131350502212"}},{"arcs":[[-1159,1263,-521,-228]],"type":"Polygon","properties":{"GEOID":"131350507622"}},{"arcs":[[-855,1264,-825,-816,1265,1266]],"type":"Polygon","properties":{"GEOID":"131350507512"}},{"arcs":[[-198,1267,1268,1269,-1073]],"type":"Polygon","properties":{"GEOID":"131350506291"}},{"arcs":[[1270,-954,1271,-1200]],"type":"Polygon","properties":{"GEOID":"131350506183"}},{"arcs":[[1272,-200,-1072,-569,-1115]],"type":"Polygon","properties":{"GEOID":"131350506131"}},{"arcs":[[-1256,-616,-660,-1170,-974]],"type":"Polygon","properties":{"GEOID":"131350504512"}},{"arcs":[[1273,1274,1275,-425]],"type":"Polygon","properties":{"GEOID":"131350507452"}},{"arcs":[[1276,-1210,1277,-114,1278,-871]],"type":"Polygon","properties":{"GEOID":"131350507431"}},{"arcs":[[-1173,-1247,-184,-1212,-433,-783,-1188,1279,1280,1281,-937]],"type":"Polygon","properties":{"GEOID":"131350505511"}},{"arcs":[[-1224,-657,-731,1282,1283,-1141,1284,-1013]],"type":"Polygon","properties":{"GEOID":"131350504532"}},{"arcs":[[1285,-738,-291,-186,-601,1286]],"type":"Polygon","properties":{"GEOID":"131350505521"}},{"arcs":[[-773,-1198,-641,-250]],"type":"Polygon","properties":{"GEOID":"131350505543"}},{"arcs":[[-691,-832,1287,-486,-175,-1214,-1096,1288,1289]],"type":"Polygon","properties":{"GEOID":"131350505891"}},{"arcs":[[1290,-1080,-296,-1149,-1024,-62]],"type":"Polygon","properties":{"GEOID":"131350505793"}},{"arcs":[[-1079,-1116,-571,-458,1291,1292,-1153,-293]],"type":"Polygon","properties":{"GEOID":"131350505841"}},{"arcs":[[-1236,1293,-27]],"type":"Polygon","properties":{"GEOID":"131350506262"}},{"arcs":[[1294,1295,1296,1297,1298,1299,-1262,-1100,-1255,-1136,1300,-523]],"type":"Polygon","properties":{"GEOID":"131350503241"}},{"arcs":[[-700,1301,-1297,1302]],"type":"Polygon","properties":{"GEOID":"131350503242"}},{"arcs":[[1303,-778,-1299,1304]],"type":"Polygon","properties":{"GEOID":"131350503232"}},{"arcs":[[-282,1305,1306,1307,1308]],"type":"Polygon","properties":{"GEOID":"131350502382"}},{"arcs":[[1309,1310,-664,1311,1312,-271]],"type":"Polygon","properties":{"GEOID":"131350502152"}},{"arcs":[[-1308,1313,-1310,-270,-845,1314]],"type":"Polygon","properties":{"GEOID":"131350502371"}},{"arcs":[[1315,-858,1316,-1216,-1231]],"type":"Polygon","properties":{"GEOID":"131350506241"}},{"arcs":[[1317,-1069,1318,1319,-805,-12,-852]],"type":"Polygon","properties":{"GEOID":"131350505631"}},{"arcs":[[-14,-804,-981,1320,1321,1322,-165,-713,-202,-148]],"type":"Polygon","properties":{"GEOID":"131350505833"}},{"arcs":[[-980,-1075,-1241,-829,1323,-1321]],"type":"Polygon","properties":{"GEOID":"131350506272"}},{"arcs":[[1324,-585,-739,-1286,1325]],"type":"Polygon","properties":{"GEOID":"131350505522"}},{"arcs":[[-742,-532,-802,-1320,1326]],"type":"Polygon","properties":{"GEOID":"131350505633"}},{"arcs":[[1327,1328,1329,1330,-1239,-1270]],"type":"Polygon","properties":{"GEOID":"131350506283"}},{"arcs":[[1331,1332,-1329]],"type":"Polygon","properties":{"GEOID":"131350506281"}},{"arcs":[[1333,-146,-550,1334,1335,-405]],"type":"Polygon","properties":{"GEOID":"131350502392"}},{"arcs":[[-1062,1336,-1090,1337,-222]],"type":"Polygon","properties":{"GEOID":"131350502422"}},{"arcs":[[1338,-964,-1023,-850,-603,-875,1339]],"type":"Polygon","properties":{"GEOID":"131350502342"}},{"arcs":[[1340,1341,1342,1343,-1156,-1098,-441,-891]],"type":"Polygon","properties":{"GEOID":"131350506174"}},{"arcs":[[-1036,1344,1345,-193,-1122]],"type":"Polygon","properties":{"GEOID":"131350507383"}},{"arcs":[[-307,1346,-903,1347,1348,1349]],"type":"Polygon","properties":{"GEOID":"131350507332"}},{"arcs":[[1350,-181,-512,1351,1352]],"type":"Polygon","properties":{"GEOID":"131350505304"}},{"arcs":[[-1220,1353,1354]],"type":"Polygon","properties":{"GEOID":"131350505871"}},{"arcs":[[1355,-895,1356,-1135,-1081]],"type":"Polygon","properties":{"GEOID":"131350501214"}},{"arcs":[[-706,-1195,-946,-97,1357]],"type":"Polygon","properties":{"GEOID":"131350501141"}},{"arcs":[[1358,1359,-329,-533,-909,1360]],"type":"Polygon","properties":{"GEOID":"131350502441"}},{"arcs":[[-213,-604,-849,1361,1362,-536]],"type":"Polygon","properties":{"GEOID":"131350502181"}},{"arcs":[[1363,-988,1364,1365]],"type":"Polygon","properties":{"GEOID":"131350503061"}},{"arcs":[[-692,-1290,-482,1366]],"type":"Polygon","properties":{"GEOID":"131350505361"}},{"arcs":[[-397,-633,1367,1368,-609,1369]],"type":"Polygon","properties":{"GEOID":"131350503082"}},{"arcs":[[-720,-653,-316]],"type":"Polygon","properties":{"GEOID":"131350505261"}},{"arcs":[[-663,-68,1370,-502,-619,-1312]],"type":"Polygon","properties":{"GEOID":"131350505371"}},{"arcs":[[-16,1371,-152,-18,-830,-689,1372]],"type":"Polygon","properties":{"GEOID":"131350505203"}},{"arcs":[[1373,1374,-1048,1375]],"type":"Polygon","properties":{"GEOID":"131350504301"}},{"arcs":[[1376,1377,-496,-399,1378,-982,-676]],"type":"Polygon","properties":{"GEOID":"131350503222"}},{"arcs":[[-634,-396,-497,-1378,1379]],"type":"Polygon","properties":{"GEOID":"131350503221"}},{"arcs":[[1380,1381,-1193,-704,-367]],"type":"Polygon","properties":{"GEOID":"131350501051"}},{"arcs":[[-1382,1382,1383,-968,-1064,1384,-948,-1194]],"type":"Polygon","properties":{"GEOID":"131350501052"}},{"arcs":[[1385,-1051,1386,1387,-1252,1388]],"type":"Polygon","properties":{"GEOID":"131350504151"}},{"arcs":[[-1007,-1125,-1037,-1121,-1118]],"type":"Polygon","properties":{"GEOID":"131350507221"}},{"arcs":[[-511,1389,1390,1391,-1352]],"type":"Polygon","properties":{"GEOID":"131350505302"}},{"arcs":[[1392,1393,-776,-1186]],"type":"Polygon","properties":{"GEOID":"131350504352"}},{"arcs":[[1394,-308,-1350,1395,-1250,1396]],"type":"Polygon","properties":{"GEOID":"131350504161"}},{"arcs":[[1397,-194,-1346,-945,1398]],"type":"Polygon","properties":{"GEOID":"131350507321"}},{"arcs":[[-828,1399,-287,1400,-1322,-1324]],"type":"Polygon","properties":{"GEOID":"131350506221"}},{"arcs":[[-808,-873,1401,-1169,-1274,-424]],"type":"Polygon","properties":{"GEOID":"131350507411"}},{"arcs":[[-278,-868,-1110,1402,-179,-513,-182,-1351,1403,1404]],"type":"Polygon","properties":{"GEOID":"131350505293"}},{"arcs":[[-385,1405,-1254,-575,-515]],"type":"Polygon","properties":{"GEOID":"131350504622"}},{"arcs":[[1406,-1018,-1190,-85,-1088]],"type":"Polygon","properties":{"GEOID":"131350501192"}},{"arcs":[[-1119,-1123,-900,-1347,-306]],"type":"Polygon","properties":{"GEOID":"131350507341"}},{"arcs":[[-926,-999,-428,1407,1408,1409]],"type":"Polygon","properties":{"GEOID":"131350507591"}},{"arcs":[[1410,-1273,-1114]],"type":"Polygon","properties":{"GEOID":"131350506133"}},{"arcs":[[-1086,-842,1411,-762]],"type":"Polygon","properties":{"GEOID":"131350507253"}},{"arcs":[[-67,-662,-648,-266,-649,-70,-1371]],"type":"Polygon","properties":{"GEOID":"131350505373"}},{"arcs":[[-444,-950,-1271,-1199]],"type":"Polygon","properties":{"GEOID":"131350506181"}},{"arcs":[[-1404,-1353,-1392,1412,1413,1414]],"type":"Polygon","properties":{"GEOID":"131350505303"}},{"arcs":[[1415,-1229,-166,-1323]],"type":"Polygon","properties":{"GEOID":"131350505712"}},{"arcs":[[-168,-1234,1416,1417,1418,1419]],"type":"Polygon","properties":{"GEOID":"131350505701"}},{"arcs":[[-1401,-770,-1238,1420,1421,-1217,-1317,-857,-1316,-1230,-1416]],"type":"Polygon","properties":{"GEOID":"131350506231"}},{"arcs":[[1422,-279,-1405,-1415,1423,-45,-661]],"type":"Polygon","properties":{"GEOID":"131350505602"}},{"arcs":[[-556,-920,-837,-1120,-309,1424]],"type":"Polygon","properties":{"GEOID":"131350507501"}},{"arcs":[[1425,-1059,-972,1426,1427]],"type":"Polygon","properties":{"GEOID":"131350506332"}},{"arcs":[[-554,-796,-509,-331,-919]],"type":"Polygon","properties":{"GEOID":"131350507293"}},{"arcs":[[-1414,1428,-1326,-1287,-600,-267,-1424]],"type":"Polygon","properties":{"GEOID":"131350505601"}},{"arcs":[[-1413,-1391,1429,-586,-1325,-1429]],"type":"Polygon","properties":{"GEOID":"131350505531"}},{"arcs":[[-23,-564,-171,-485,1430]],"type":"Polygon","properties":{"GEOID":"131350505213"}},{"arcs":[[-89,-1191,-707,-1358,-101,-932,1431]],"type":"Polygon","properties":{"GEOID":"131350501142"}},{"arcs":[[-1187,-112,-53,-346,1432,-1280]],"type":"Polygon","properties":{"GEOID":"131350507602"}},{"arcs":[[-1050,1433,-934,-1425,-1395,1434,-1387]],"type":"Polygon","properties":{"GEOID":"131350504153"}},{"arcs":[[-814,-519,-1248,1435,-1244]],"type":"Polygon","properties":{"GEOID":"131350504251"}},{"arcs":[[-223,-1338,-330,-1360,1436]],"type":"Polygon","properties":{"GEOID":"131350502431"}},{"arcs":[[1437,-760,-10,-612,1438,1439,1440]],"type":"Polygon","properties":{"GEOID":"131350503151"}},{"arcs":[[-125,-750,1441,-1376,-1047,-1386,1442]],"type":"Polygon","properties":{"GEOID":"131350504303"}},{"arcs":[[-841,-1130,-696,-1124,-763,-1412]],"type":"Polygon","properties":{"GEOID":"131350507192"}},{"arcs":[[-379,-79,-712,-1225,-1012,-622,1443]],"type":"Polygon","properties":{"GEOID":"131350503282"}},{"arcs":[[-1421,-1237,-29,1444,1445]],"type":"Polygon","properties":{"GEOID":"131350506261"}},{"arcs":[[-1331,1446,1447,-1150,-288,-1400,-827,-1240]],"type":"Polygon","properties":{"GEOID":"131350506271"}},{"arcs":[[-949,-1385,-888,-1060,-1426,1448]],"type":"Polygon","properties":{"GEOID":"131350501152"}},{"arcs":[[1449,-774,-1394,1450,1451]],"type":"Polygon","properties":{"GEOID":"131350504542"}},{"arcs":[[-872,-1279,-113,-1166,-1402]],"type":"Polygon","properties":{"GEOID":"131350507423"}},{"arcs":[[1452,-753,-931,-99,-1449,-1428,1453,-1111,-1105,1454]],"type":"Polygon","properties":{"GEOID":"131350501132"}},{"arcs":[[1455,-1038,1456]],"type":"Polygon","properties":{"GEOID":"131350501164"}},{"arcs":[[-1179,1457,1458,-939,-879]],"type":"Polygon","properties":{"GEOID":"131350507352"}},{"arcs":[[-1196,-31,-1084]],"type":"Polygon","properties":{"GEOID":"131350501212"}},{"arcs":[[1459,1460,-1039,-1456,1461]],"type":"Polygon","properties":{"GEOID":"131350501163"}},{"arcs":[[1462,-1365,-996,1463,-1260]],"type":"Polygon","properties":{"GEOID":"131350503312"}},{"arcs":[[-1281,-1433,-345,1464]],"type":"Polygon","properties":{"GEOID":"131350507603"}},{"arcs":[[-1258,-587,-352,-582,1465,-1450,1466]],"type":"Polygon","properties":{"GEOID":"131350504402"}},{"arcs":[[1467,1468,1469,1470,-1206,-1277,-806,-669]],"type":"Polygon","properties":{"GEOID":"131350505882"}},{"arcs":[[-620,-92,-1005,-311,-495]],"type":"Polygon","properties":{"GEOID":"131350505424"}},{"arcs":[[-1109,-865,-987,-360,-1403]],"type":"Polygon","properties":{"GEOID":"131350505651"}},{"arcs":[[-1379,-398,-1370,-608,-983]],"type":"Polygon","properties":{"GEOID":"131350503211"}},{"arcs":[[-792,-1189,-376,-136,-652,-1223]],"type":"Polygon","properties":{"GEOID":"131350503331"}},{"arcs":[[1471,1472,-929,-684,-892,-447,-460,-326,1473,-1112,-957]],"type":"Polygon","properties":{"GEOID":"131350506121"}},{"arcs":[[-1257,-977,1474,-994]],"type":"Polygon","properties":{"GEOID":"131350504562"}},{"arcs":[[-426,-1276,1475,-1163,-1203,1476]],"type":"Polygon","properties":{"GEOID":"131350507462"}},{"arcs":[[-299,-960,-1077,-1291,-419,-746]],"type":"Polygon","properties":{"GEOID":"131350506111"}},{"arcs":[[-598,-245,-927,-1410,1477,-226,-629]],"type":"Polygon","properties":{"GEOID":"131350507621"}},{"arcs":[[-724,-463,-235,-813,-341]],"type":"Polygon","properties":{"GEOID":"131350504592"}},{"arcs":[[-1435,-1397,-1249,-1388]],"type":"Polygon","properties":{"GEOID":"131350504163"}},{"arcs":[[-1266,-819,1478,-1175,1479]],"type":"Polygon","properties":{"GEOID":"131350507372"}},{"arcs":[[-1158,1480,-1447,-1330,-1333]],"type":"Polygon","properties":{"GEOID":"131350506282"}},{"arcs":[[-1283,-730,-1467,-1452,1481]],"type":"Polygon","properties":{"GEOID":"131350504533"}},{"arcs":[[-15,-147,-1372]],"type":"Polygon","properties":{"GEOID":"131350505202"}},{"arcs":[[-594,1482,-1054,-856,-1267,1483,-1009]],"type":"Polygon","properties":{"GEOID":"131350507541"}},{"arcs":[[-559,-918,-272,-1313,-618,-493,-133]],"type":"Polygon","properties":{"GEOID":"131350502151"}},{"arcs":[[-524,-1301,-1140,1484,-258,-378,-990,1485]],"type":"Polygon","properties":{"GEOID":"131350503112"}},{"arcs":[[-602,-190,-17,-1373,-688,-1367,-645]],"type":"Polygon","properties":{"GEOID":"131350505362"}},{"arcs":[[-452,-1215,-928,-244,-922]],"type":"Polygon","properties":{"GEOID":"131350505911"}},{"arcs":[[-1185,1486,-1242,-811,-833,-799]],"type":"Polygon","properties":{"GEOID":"131350504491"}},{"arcs":[[-637,1487,1488,1489,-1458,-1178]],"type":"Polygon","properties":{"GEOID":"131350507481"}},{"arcs":[[-363,1490,1491,-735,-583,-1430,-1390,-510]],"type":"Polygon","properties":{"GEOID":"131350505492"}},{"arcs":[[-1293,1492,-456,-1103,-1076,-979,-1154]],"type":"Polygon","properties":{"GEOID":"131350505831"}},{"arcs":[[-1275,-1168,-640,1493,-726,-1164,-1476]],"type":"Polygon","properties":{"GEOID":"131350507464"}},{"arcs":[[-1014,-1285,-1144,-674,-624]],"type":"Polygon","properties":{"GEOID":"131350504382"}},{"arcs":[[-1041,-36,-1019,-1407,-1087,-1337,-1061]],"type":"Polygon","properties":{"GEOID":"131350501191"}},{"arcs":[[-115,-1278,-1209,-1032,1494,-1488,-636,-1167]],"type":"Polygon","properties":{"GEOID":"131350507444"}},{"arcs":[[-699,1495,-1305,-1298,-1302]],"type":"Polygon","properties":{"GEOID":"131350503233"}},{"arcs":[[-767,-743,-1327,-1319,-1068]],"type":"Polygon","properties":{"GEOID":"131350505731"}},{"arcs":[[-986,1496,-65,-768,-1067,-1491,-362]],"type":"Polygon","properties":{"GEOID":"131350505662"}},{"arcs":[[-902,-195,-1398,1497,-1348]],"type":"Polygon","properties":{"GEOID":"131350507322"}},{"arcs":[[-1263,-861,-128,-914]],"type":"Polygon","properties":{"GEOID":"131350502302"}},{"arcs":[[-1218,-1422,-1446,1498,-1207,-1471]],"type":"Polygon","properties":{"GEOID":"131350506252"}},{"arcs":[[1499,-1340,-874,-490]],"type":"Polygon","properties":{"GEOID":"131350502052"}},{"arcs":[[1500,-105,1501,-1253,-1406,-384,-682]],"type":"Polygon","properties":{"GEOID":"131350504271"}},{"arcs":[[-1245,-1436,-563,-127,1502,-1045]],"type":"Polygon","properties":{"GEOID":"131350504652"}},{"arcs":[[-1031,-1148,1503,-1489,-1495]],"type":"Polygon","properties":{"GEOID":"131350507442"}},{"arcs":[[-1020,-671,-809,-422,-998]],"type":"Polygon","properties":{"GEOID":"131350505801"}},{"arcs":[[-1466,-581,-702,-461,-775]],"type":"Polygon","properties":{"GEOID":"131350504412"}},{"arcs":[[-1354,-1219,-1470,1504]],"type":"Polygon","properties":{"GEOID":"131350505881"}},{"arcs":[[-1409,1505,-1205,-1160,-1478]],"type":"Polygon","properties":{"GEOID":"131350507581"}},{"arcs":[[-777,-439,-215,-709,-1300]],"type":"Polygon","properties":{"GEOID":"131350502281"}},{"arcs":[[-1485,-1139,1506,-1226,-711,-259]],"type":"Polygon","properties":{"GEOID":"131350503261"}},{"arcs":[[1507,-1341,-890]],"type":"Polygon","properties":{"GEOID":"131350506162"}},{"arcs":[[1508,-1418,1509,1510,-410]],"type":"Polygon","properties":{"GEOID":"131350505861"}},{"arcs":[[-348,-507,-1181,1511]],"type":"Polygon","properties":{"GEOID":"131350507652"}},{"arcs":[[-324,-1268,-197,1512]],"type":"Polygon","properties":{"GEOID":"131350506141"}},{"arcs":[[-1408,-427,-1477,-1202,-1506]],"type":"Polygon","properties":{"GEOID":"131350507592"}},{"arcs":[[-1035,1513,-1177,-942,-1345]],"type":"Polygon","properties":{"GEOID":"131350507382"}},{"arcs":[[1514,1515,-1093,-1243,-1487,-1184]],"type":"Polygon","properties":{"GEOID":"131350504501"}},{"arcs":[[-1462,-1457,-1043,-1063,-221,1516]],"type":"Polygon","properties":{"GEOID":"131350501161"}},{"arcs":[[-1289,-1095,-543,-483]],"type":"Polygon","properties":{"GEOID":"131350505902"}},{"arcs":[[1517,-1232,-1221,-1355,-1505,-1469]],"type":"Polygon","properties":{"GEOID":"131350505872"}},{"arcs":[[1518,-1361,-908,1519]],"type":"Polygon","properties":{"GEOID":"131350502442"}},{"arcs":[[-573,-4,-525,-1486,-989,-1364,1520]],"type":"Polygon","properties":{"GEOID":"131350503062"}},{"arcs":[[1521,-492,-877,-779,-1304,-1496,-698]],"type":"Polygon","properties":{"GEOID":"131350502271"}},{"arcs":[[-1066,1522,-365,-1001,-1133,-1357,-894]],"type":"Polygon","properties":{"GEOID":"131350501101"}},{"arcs":[[-323,-1117,-1201,-1272,-953,-1155,-1332,-1328,-1269]],"type":"Polygon","properties":{"GEOID":"131350506193"}},{"arcs":[[-1384,1523,-117,-302,-966]],"type":"Polygon","properties":{"GEOID":"131350506314"}},{"arcs":[[1524,-1520,-911,-899,1525,1526,-1021,-962,1527]],"type":"Polygon","properties":{"GEOID":"131350502351"}},{"arcs":[[1528,-1441,1529]],"type":"Polygon","properties":{"GEOID":"131350503152"}},{"arcs":[[-104,-1512,-1182,-54,-1502]],"type":"Polygon","properties":{"GEOID":"131350504571"}},{"arcs":[[-1129,-1010,-1484,-1480,-1174,-1514,-1034]],"type":"Polygon","properties":{"GEOID":"131350507391"}},{"arcs":[[-1439,-613,-1521,-1366,-1463,-1259,1530]],"type":"Polygon","properties":{"GEOID":"131350503321"}},{"arcs":[[-848,1531,-1362]],"type":"Polygon","properties":{"GEOID":"131350502183"}},{"arcs":[[-281,1532,-1306]],"type":"Polygon","properties":{"GEOID":"131350502381"}},{"arcs":[[-457,-1493,-1292]],"type":"Polygon","properties":{"GEOID":"131350505844"}},{"arcs":[[1533,-76,1534,-1343]],"type":"Polygon","properties":{"GEOID":"131350506175"}},{"arcs":[[-886,-475,-930,-1473,1535,-970]],"type":"Polygon","properties":{"GEOID":"131350506342"}},{"arcs":[[-1494,-639,-1180,-238,-727]],"type":"Polygon","properties":{"GEOID":"131350507471"}},{"arcs":[[-1527,1536,-283,-1309,-1315,-844,-1022]],"type":"Polygon","properties":{"GEOID":"131350502331"}},{"arcs":[[-1532,-847,-917,-1363]],"type":"Polygon","properties":{"GEOID":"131350502182"}},{"arcs":[[-1526,-898,-448,-274,-1537]],"type":"Polygon","properties":{"GEOID":"131350502311"}},{"arcs":[[1537,-478,-935,-1434,-1049,-1375]],"type":"Polygon","properties":{"GEOID":"131350504302"}},{"arcs":[[-411,-1511,1538,-1468,-668]],"type":"Polygon","properties":{"GEOID":"131350505862"}},{"arcs":[[1539,-1528,-965,-1339,-1500,-489]],"type":"Polygon","properties":{"GEOID":"131350502341"}},{"arcs":[[-21,-1228,-734,-1192,-565]],"type":"Polygon","properties":{"GEOID":"131350505222"}},{"arcs":[[-876,-605,-211,-438]],"type":"Polygon","properties":{"GEOID":"131350502191"}},{"arcs":[[-403,-373,-907,-1516,1540]],"type":"Polygon","properties":{"GEOID":"131350504483"}},{"arcs":[[-938,-1282,-1465,-102,-1501,-681]],"type":"Polygon","properties":{"GEOID":"131350504274"}},{"arcs":[[-647,-159,-265]],"type":"Polygon","properties":{"GEOID":"131350505563"}},{"arcs":[[-1284,-1482,-1451,-1393,-1142]],"type":"Polygon","properties":{"GEOID":"131350504541"}},{"arcs":[[-24,-1431,-487,-1288,-831]],"type":"Polygon","properties":{"GEOID":"131350505212"}},{"arcs":[[-1053,-241,-882,-1126,-822,-1265,-854]],"type":"Polygon","properties":{"GEOID":"131350507362"}},{"arcs":[[-1492,-1070,-1318,-1026,-736]],"type":"Polygon","properties":{"GEOID":"131350505491"}},{"arcs":[[1541,1542,-1455,-1104,-867,-1058]],"type":"Polygon","properties":{"GEOID":"131350502413"}},{"arcs":[[-1108,1543,-59,-1497,-985,-863]],"type":"Polygon","properties":{"GEOID":"131350505282"}},{"arcs":[[-1146,-380,-1444,-621,-992]],"type":"Polygon","properties":{"GEOID":"131350503291"}},{"arcs":[[-1113,-1474,-325,-1513,-201,-1411]],"type":"Polygon","properties":{"GEOID":"131350506132"}},{"arcs":[[-1303,-1296,-1368,-701]],"type":"Polygon","properties":{"GEOID":"131350503243"}},{"arcs":[[-1369,-1295,-526,-3,-610]],"type":"Polygon","properties":{"GEOID":"131350503361"}},{"arcs":[[-522,-1264,-1162,-839,-716]],"type":"Polygon","properties":{"GEOID":"131350507631"}},{"arcs":[[-747,-420,-60,-1544,-1107]],"type":"Polygon","properties":{"GEOID":"131350502252"}},{"arcs":[[-1131,-578,-479,-1538,-1374,-1442,-749]],"type":"Polygon","properties":{"GEOID":"131350504581"}},{"arcs":[[-392,-404,-1541,-1515,-1183,-834]],"type":"Polygon","properties":{"GEOID":"131350504502"}},{"arcs":[[1544,-1419,-1509,-409]],"type":"Polygon","properties":{"GEOID":"131350505864"}},{"arcs":[[-1138,-207,-794,-1222,-1507]],"type":"Polygon","properties":{"GEOID":"131350503262"}},{"arcs":[[-150,-204,-714,-169,-1420,-1545,-408,-1227]],"type":"Polygon","properties":{"GEOID":"131350505702"}},{"arcs":[[-1427,-971,-1536,-1472,-961,-297,-1454]],"type":"Polygon","properties":{"GEOID":"131350506331"}},{"arcs":[[-1089,-90,-1432,-143,-1334,-406,-1336,1545,-1542,-1057,-1055]],"type":"Polygon","properties":{"GEOID":"131350502412"}},{"arcs":[[-1197,-686,-43,-429,-1211,-1246,-643]],"type":"Polygon","properties":{"GEOID":"131350505551"}},{"arcs":[[-73,-210,-771,-388,-435]],"type":"Polygon","properties":{"GEOID":"131350505761"}},{"arcs":[[-1307,-1533,-280,-1423,-1311,-1314]],"type":"Polygon","properties":{"GEOID":"131350502361"}},{"arcs":[[-896,-1356,-1085,-1461,1546]],"type":"Polygon","properties":{"GEOID":"131350501201"}},{"arcs":[[-1335,-549,-754,-1453,-1543,-1546]],"type":"Polygon","properties":{"GEOID":"131350502401"}},{"arcs":[[-1510,-1417,-1233,-1518,-1539]],"type":"Polygon","properties":{"GEOID":"131350505863"}},{"arcs":[[1547,-678,-984,-469,-820,-758,-1438,-1529]],"type":"Polygon","properties":{"GEOID":"131350503351"}},{"arcs":[[-1204,-1052,-1483,-593]],"type":"Polygon","properties":{"GEOID":"131350507542"}}]}}}