{"type":"Topology","arcs":[[[1077,3878],[78,-30],[24,-16],[47,-38],[64,-21],[42,-45],[37,-28],[54,-17],[37,-21],[47,-6],[105,26],[81,15],[30,0],[61,-12],[130,-7],[78,-15],[76,-3],[16,-3],[37,-20]],[[2121,3637],[2,-98],[-3,-19],[-42,-120],[-15,-22],[-68,-44],[-32,-27],[-8,-25],[-2,-193],[-5,-119],[-5,-110],[-4,-139],[1,-36],[7,-21],[23,-30],[1,-26],[-28,-114],[1,-29]],[[1944,2465],[-33,-28],[-46,-22],[-13,-21],[-21,-16],[-10,-18],[-115,-30],[-29,-2]],[[1677,2328],[-12,81],[-11,33],[-35,81],[-94,156],[-15,20],[-35,25],[-56,29],[-196,106],[23,239],[12,28],[47,74],[-1,48],[-38,127],[-16,50],[-25,36],[-44,32],[-85,53],[-26,22],[-22,41],[-3,18],[8,36],[31,62],[13,42],[-1,31],[-19,80]],[[1400,1341],[351,-2],[19,-7],[68,-41],[18,-7],[48,-6],[43,-2],[60,6],[133,-2],[98,-6],[4,133],[2,54],[-88,89],[-33,30],[-98,78],[47,66],[3,97]],[[2075,1821],[80,-3]],[[2155,1818],[40,-1],[25,-6],[138,-62],[38,-30],[29,-13],[23,-3],[90,-1],[62,-12],[26,-2],[27,6],[18,-92],[-1,-11],[81,-31],[15,-8],[16,-25],[17,-50],[34,-59],[15,-64],[16,-17],[42,-2],[39,24],[0,-121],[141,-7],[94,15],[33,0],[71,-25],[88,-25],[125,-44],[21,-9],[181,-91],[66,-52],[47,-55]],[[3812,945],[-6,-348],[-7,-333],[-159,3],[-10,-267],[-465,4],[-215,3],[-311,2],[-171,2],[4,120],[7,452],[5,290],[2,50],[-7,15],[-189,3],[-68,6],[-380,3],[-110,0],[-579,3]],[[1153,953],[7,84],[9,19],[21,26],[105,76],[14,16],[27,45],[64,122]],[[1071,4003],[244,-1],[430,-4],[378,-2]],[[2123,3996],[-4,-225],[0,-83],[2,-51]],[[1077,3878],[-14,73],[8,52]],[[2137,2113],[32,15],[31,8],[59,7],[156,28],[55,21],[96,16],[129,33],[31,11],[22,20],[-64,24],[-11,9],[-65,86],[-20,121],[-1,66],[6,55],[-11,26],[-36,40],[-43,66],[-42,26]],[[2461,2791],[24,-3],[11,14],[30,15],[33,3],[27,-10],[33,1],[95,42],[20,5],[28,24],[8,28],[17,15],[30,8],[63,4],[31,-9],[37,1],[40,17],[28,2],[45,14],[15,16],[27,13],[24,-6],[41,11],[10,41],[25,24],[54,31],[24,51],[36,16],[38,1],[34,-15],[27,32],[39,11],[20,-6],[59,1],[38,-19],[41,2],[29,26],[27,-2],[21,-33],[87,29],[69,13]],[[3846,3199],[4,-72],[-13,-250],[-2,-124],[-11,-836],[-4,-347],[-8,-625]],[[2155,1818],[6,41],[3,60],[-1,63],[-53,-2],[22,115],[5,18]],[[1944,2465],[14,13],[-2,19],[21,30],[53,27],[43,-3],[40,9],[28,64],[78,-4],[66,26],[63,98],[61,22],[52,25]],[[2137,2113],[-52,-29],[-71,-36],[-50,-20],[-37,-22]],[[1927,2006],[1,79]],[[1928,2085],[-1,66],[-9,27],[5,52],[-11,41],[6,40],[15,39],[1,31],[10,28],[0,56]],[[1816,1816],[55,81]],[[1871,1897],[38,-14],[76,-4],[38,-15],[14,-13],[-3,-22],[41,-8]],[[1400,1341],[28,53],[81,100],[69,51],[26,14],[102,40],[28,25],[9,17],[18,62],[55,113]],[[1871,1897],[24,38],[16,18]],[[1911,1953],[16,21],[0,32]],[[1677,2328],[-16,7],[-82,-20],[-26,-16],[-31,1],[-51,-21],[-13,2],[-30,-14]],[[1428,2267],[-45,21],[-42,72],[-13,14],[-46,19],[-65,1]],[[1217,2394],[9,11],[-55,40],[-24,13],[-49,-8],[-40,15],[-35,71],[-16,12],[-55,-45],[-26,-11],[-17,-16],[-32,-55],[25,-27],[15,-25],[2,-43],[-28,-25],[30,-35],[-23,-24],[-67,-12],[-20,-13],[-50,0],[-24,-6],[-71,2],[0,17],[-28,63],[-4,37],[-23,41],[-30,17],[-55,1],[-15,6],[-31,-7],[-26,-23],[-33,-10],[-24,4],[-31,16]],[[366,2375],[0,53],[2,192],[0,60],[4,188],[0,82],[-1,177],[7,419],[-8,294],[1,241],[-2,78],[200,-2],[148,0],[35,-55],[20,-25],[6,-27],[-7,-46],[300,-1]],[[1911,1953],[-39,11],[-19,-6],[-104,-17],[-45,7],[8,35]],[[1712,1983],[4,24],[-15,132],[58,-10],[21,-9],[42,-33],[8,3],[98,-5]],[[1428,2267],[20,-10],[16,-44],[26,-16],[25,-32],[28,-11],[69,-5],[-7,-101],[-1,-68],[90,4],[18,-1]],[[1816,1816],[-54,32],[-25,8],[-113,1],[-57,4],[-34,-2],[-235,-1],[-28,-16],[-32,-40],[-64,40],[-32,8],[4,215],[1,131],[15,25],[19,108],[11,35],[25,30]],[[1153,953],[-79,1],[-96,-2],[-120,2],[-96,0],[-102,2],[-171,1],[-152,-1],[-337,5],[6,146],[6,313],[4,194],[170,1],[4,132],[150,1],[21,-6],[4,310],[0,75],[4,10],[1,188],[-4,50]],[[2123,3996],[253,-4],[65,2],[16,-3],[3,391],[416,-2],[121,1],[748,-2],[98,0],[1,-107],[5,-110],[1,-93],[2,-15],[-1,-222],[2,-58],[-8,-221],[1,-120],[-2,-159],[2,-75]]],"transform":{"scale":[0.000059490786400208415,0.00006191853035143757],"translate":[-84.27014,32.931497]},"objects":{"Geometry\\13-171":{"type":"GeometryCollection","geometries":[{"arcs":[[0,1,2,3]],"type":"Polygon","properties":{"GEOID":"131719701004"}},{"arcs":[[4,5,6,7,8]],"type":"Polygon","properties":{"GEOID":"131719702012"}},{"arcs":[[9,10,-1,11]],"type":"Polygon","properties":{"GEOID":"131719701003"}},{"arcs":[[12,13,14,-7,15]],"type":"Polygon","properties":{"GEOID":"131719702011"}},{"arcs":[[16,-13,17,18,19]],"type":"Polygon","properties":{"GEOID":"131719702023"}},{"arcs":[[20,21,-5,22]],"type":"Polygon","properties":{"GEOID":"131719702021"}},{"arcs":[[23,24,-18,-16,-6,-22]],"type":"Polygon","properties":{"GEOID":"131719702022"}},{"arcs":[[-12,-4,25,26,27,28]],"type":"Polygon","properties":{"GEOID":"131719701002"}},{"arcs":[[-19,-25,29,30]],"type":"Polygon","properties":{"GEOID":"131719703003"}},{"arcs":[[-27,31,-30,-24,-21,32]],"type":"Polygon","properties":{"GEOID":"131719703004"}},{"arcs":[[-28,-33,-23,-9,33]],"type":"Polygon","properties":{"GEOID":"131719703002"}},{"arcs":[[-3,-20,-31,-32,-26]],"type":"Polygon","properties":{"GEOID":"131719703001"}},{"arcs":[[-11,34,-14,-17,-2]],"type":"Polygon","properties":{"GEOID":"131719701001"}}]}}}