{"type":"Topology","arcs":[[[4107,3653],[53,-56],[32,-48],[42,-50],[31,-8],[-66,-125],[-8,-28],[-19,-178],[-37,-91]],[[4135,3069],[-33,-30]],[[4102,3039],[-67,117]],[[4035,3156],[-24,36],[-56,-53],[-178,99],[-41,-2],[-39,-20],[-19,34]],[[3678,3250],[188,177],[-103,120],[-103,116]],[[3660,3663],[43,4],[16,26],[26,-26],[89,10],[63,-19],[102,-107],[108,102]],[[3793,3951],[91,4]],[[3884,3955],[130,2],[61,-23],[42,-24],[36,-31],[60,-30],[-18,-23],[-29,-82],[4,-31]],[[4170,3713],[-63,-60]],[[3660,3663],[53,100],[45,48],[24,96],[-10,36],[21,8]],[[3857,6920],[93,-136]],[[3950,6784],[55,-78],[18,-39],[3,-49]],[[4026,6618],[-192,22]],[[3834,6640],[-70,9],[-144,10],[-72,1],[-83,-21],[-103,27]],[[3362,6666],[-29,72],[0,155],[38,17],[24,24],[123,-10],[56,24],[75,21],[86,2],[78,-43],[44,-8]],[[4026,6618],[-2,-50],[18,-40],[97,-99],[67,-44],[27,-28],[73,-140],[22,-76],[69,-104],[16,-34],[6,-43],[23,-41],[63,-53]],[[4505,5866],[27,-44],[42,-47]],[[4574,5775],[-60,-30],[-13,-23],[-53,-36],[-97,14],[-51,-8],[-75,-34],[-81,28],[-103,91]],[[4041,5777],[-102,109],[39,89],[-34,187],[-54,120],[11,46],[-12,52],[-33,74],[-33,51],[11,135]],[[4916,6224],[103,15],[65,34],[65,-36],[36,-102],[37,-62],[51,5],[42,34],[12,65],[-15,83],[-39,84],[-19,86],[47,39],[46,3],[49,-34],[52,-99],[37,-55],[13,-4]],[[5498,6280],[-21,-100],[-84,-155],[-83,-103],[-93,-94],[-17,-6]],[[5200,5822],[-31,101],[-24,22],[-50,6]],[[5095,5951],[-48,68],[-92,102],[-39,103]],[[4524,6145],[47,8],[28,39],[31,23],[44,-28],[-5,-52],[78,-104],[34,16]],[[4781,6047],[6,-50],[-41,-2],[13,-43],[23,-36],[14,-73],[-5,-51],[10,-58],[43,-24],[-21,-49],[-27,-20],[39,-35],[17,-28]],[[4852,5578],[-121,-74]],[[4731,5504],[-59,114]],[[4672,5618],[-10,53],[-15,28],[-73,76]],[[4505,5866],[32,39],[-33,104],[-13,73],[33,63]],[[6223,6261],[36,-110],[38,-44],[-7,-54],[52,-71],[-66,-55],[54,-30],[53,-11],[-4,-27],[-30,-23],[54,-14],[-7,-49],[24,-34],[3,-61],[20,-31],[-21,-44],[83,7],[-16,-30],[-67,-56],[-21,-34],[35,-8],[58,-65],[48,-74],[-44,-39],[12,-29],[-60,-89],[19,-37],[60,-26],[26,-29],[11,-51],[22,-50],[-16,-64],[6,-42],[19,-15]],[[6597,4872],[-13,-27]],[[6584,4845],[-20,1],[-67,43],[-10,46],[-73,17],[-42,-15],[-29,72],[-43,1],[-24,-10],[-25,13],[7,45],[-70,41],[-10,14],[-17,90],[-42,70],[17,38],[-1,42],[-24,36],[-45,0],[-38,-14],[-60,-49],[-33,-2],[-58,35],[-65,9],[-24,17],[-41,-11],[-116,-92]],[[5631,5282],[2,31],[-21,182],[27,90],[-5,8],[50,121],[102,156],[204,253],[46,43],[36,22],[151,73]],[[4806,5292],[23,-61]],[[4829,5231],[-184,-111],[-8,-26],[12,-36],[-23,-52],[1,-66]],[[4627,4940],[-62,-4],[-86,4]],[[4479,4940],[-10,20],[-50,40],[-30,68],[-11,66],[-48,187]],[[4330,5321],[56,18],[79,10],[50,21],[59,-51],[58,18],[102,-17],[41,-24],[31,-4]],[[4994,4234],[70,85],[59,122],[87,112],[33,57],[16,42]],[[5259,4652],[7,-1]],[[5266,4651],[74,-17],[34,-27]],[[5374,4607],[-19,-39],[45,-154],[-4,-138],[-19,-52],[29,-85],[47,-64],[39,-76],[23,-23],[64,-40],[35,-34],[-14,-87],[10,-33],[26,-31],[24,-63],[59,-39],[23,-54],[51,-67],[-22,-33],[27,-50],[23,-102],[-22,-23],[8,-20],[-24,-48],[31,-23],[65,-105],[22,7],[33,-57],[32,-31],[18,-44],[19,-3]],[[6003,2996],[30,-35],[-19,-14],[-37,14],[-47,-5],[-40,-21],[-74,18],[-22,-20],[-57,15],[-14,-18]],[[5723,2930],[-2,42],[-32,85],[-63,85],[-50,45],[-66,89],[-13,65],[-8,89],[-30,51],[-59,68],[-85,-71],[-21,-53],[-1,-32],[25,-99],[19,-51],[12,-92],[-16,-22],[-49,-10],[-65,-28],[-52,-13],[-49,-44],[-48,-1],[-28,-22]],[[5042,3011],[12,57],[-18,47],[-17,13],[1,36],[-58,23],[-38,-9],[-20,-32],[-35,4],[16,64],[-49,-5],[-5,54],[82,116],[6,62],[35,35],[18,41],[-10,43],[8,27],[47,43],[16,47],[-9,49],[32,76],[-2,36],[-49,97],[38,87],[3,52],[19,21],[-31,38],[-40,101]],[[2396,5737],[56,55],[119,130],[77,49],[62,64]],[[2710,6035],[91,52],[30,9],[118,-40],[56,-10],[34,20],[23,40],[43,28],[78,7],[48,-82],[43,-10],[140,-5]],[[3414,6044],[80,-106],[50,-51],[95,6],[16,-30],[58,-78],[72,-156]],[[3785,5629],[-41,-58]],[[3744,5571],[-63,68],[-28,17],[-86,33],[-107,96],[-66,43],[-87,20],[-56,7],[-45,-9]],[[3206,5846],[-62,-21],[-69,-48],[-74,-10],[-111,25],[-83,-9],[-96,-34],[-119,-54],[-31,-25],[-28,-41],[-159,-260],[-68,-43]],[[2306,5326],[-57,75],[-11,24],[-1,46],[37,100],[20,25],[82,15],[17,25],[-16,24],[-1,38],[20,39]],[[5723,2930],[0,-53]],[[5723,2877],[-53,-7],[-38,-34],[-22,-84],[-82,-99],[-57,-79],[-123,-107],[-92,-3]],[[5256,2464],[-26,45],[19,17],[35,-3],[-37,53],[9,49],[-24,26],[-113,74],[-14,25],[-41,20],[-12,38],[15,38],[-33,25],[15,32],[-27,25],[20,83]],[[2797,1529],[14,45],[90,165],[68,65]],[[2969,1804],[73,-57],[-39,-36],[44,-69],[-9,-11],[132,-130],[106,-80],[-5,-31]],[[3271,1390],[-14,-39],[-31,-22],[-59,-3],[-41,-29]],[[3126,1297],[-33,-10],[-34,7],[-35,-18],[-63,-11],[-34,-24],[-55,18],[-31,25],[-77,-13]],[[2764,1271],[45,47],[11,43],[-26,61],[-7,61],[10,46]],[[3130,1941],[57,-30],[103,-155],[31,-64],[18,-103],[59,-130]],[[3398,1459],[-113,-49],[-12,-17]],[[3273,1393],[-2,-3]],[[2969,1804],[31,35],[96,64],[34,38]],[[3326,4208],[59,35],[32,2],[43,90],[-49,-30],[-73,209]],[[3338,4514],[58,29],[118,11],[58,-3]],[[3572,4551],[196,-23],[26,-8]],[[3794,4520],[-58,-51],[-67,-130],[-10,-40],[0,-93],[-13,-31]],[[3646,4175],[-59,-2],[-28,-45],[-40,-7],[-41,-40],[-25,39],[-46,27],[-39,50],[-42,11]],[[4030,4825],[25,-14],[37,-45]],[[4092,4766],[31,-18],[20,-40],[58,-57],[97,-58],[45,-1]],[[4343,4592],[-21,-30]],[[4322,4562],[-97,-118],[-71,-49]],[[4154,4395],[-27,-15],[-63,2],[-270,138]],[[3794,4520],[59,44],[40,11],[85,-6],[33,6],[39,37],[8,39],[-28,174]],[[3631,4147],[18,-37],[71,-39],[30,-36],[43,-84]],[[3660,3663],[-26,12],[-37,-14],[-27,25],[-43,20],[-35,42],[-13,31]],[[3479,3779],[36,133],[116,235]],[[5068,5251],[19,44],[-12,60]],[[5075,5355],[28,55],[60,91],[39,22],[20,67],[56,59]],[[5278,5649],[24,-68],[56,-90],[12,-67],[20,-65],[39,-79]],[[5429,5280],[-32,-33],[-59,-38],[-47,-9]],[[5291,5200],[-57,-5],[-45,-19],[-69,-82]],[[5120,5094],[-31,62],[-35,51],[14,44]],[[4216,4987],[34,-41],[50,-36]],[[4300,4910],[27,-34],[-82,-62],[-38,-8],[-52,-32],[2,75],[-27,39],[-16,-60],[-15,-8],[-7,-54]],[[4030,4825],[2,27],[24,49],[21,18],[139,68]],[[4852,5578],[53,43],[18,-3],[74,-107]],[[4997,5511],[37,-27],[28,-105],[13,-24]],[[5068,5251],[-15,5],[-51,-39],[-111,-67],[-35,-14]],[[4856,5136],[-27,95]],[[4806,5292],[-22,93],[-53,119]],[[4036,1326],[7,-25],[50,-81],[76,-79],[34,-77],[40,-47],[56,-9],[52,19],[49,-22]],[[4400,1005],[-56,-45],[-10,-37],[15,-35],[3,-39],[-13,-41],[-6,-70],[-38,-73],[-6,-25],[-36,6]],[[4253,646],[-46,39],[9,26],[-36,31],[-64,35],[-45,33],[-48,-16],[-43,-2],[-48,61],[-27,13],[-33,-58],[-62,1],[-25,14],[-55,10]],[[3730,833],[-26,143],[-23,52],[-20,71],[-37,41]],[[3624,1140],[127,68],[121,-1],[30,5],[57,29],[43,64],[34,21]],[[6133,3879],[27,-74],[23,-25],[77,-21],[54,-39],[97,-60],[108,-44],[32,-8],[91,5],[86,61],[20,3]],[[6748,3677],[53,-14]],[[6801,3663],[28,-28]],[[6829,3635],[16,-41],[3,-56],[14,-77],[-37,-43],[-27,-50],[-86,28],[-32,4],[-91,-8],[-96,-38],[-25,-42],[-117,70],[-70,24],[-62,44]],[[6219,3450],[-76,80],[-48,73],[-4,17],[2,175],[40,84]],[[3760,1561],[35,-26],[28,12],[49,-1],[1,30],[-17,23],[-4,109],[27,7],[19,36],[-19,49],[26,-2],[60,37],[24,36],[22,140],[21,28],[-9,22],[26,34],[-2,77],[-12,30],[12,48],[-21,39],[-10,54],[9,38]],[[4025,2381],[40,2],[75,-27],[42,8]],[[4182,2364],[50,-124]],[[4232,2240],[33,-44]],[[4265,2196],[-9,-65],[-57,-81],[-43,-85],[-7,-88],[1,-72],[-32,-40],[-49,-105],[-15,-48],[16,-188],[-28,-44],[-6,-54]],[[3624,1140],[-90,123],[-63,56]],[[3471,1319],[13,29],[85,31],[37,4],[48,37],[35,16],[20,30],[-3,29],[54,66]],[[4400,1005],[33,-22],[41,-53],[57,-35],[30,-41],[35,-30],[49,-18],[91,2],[12,-41]],[[4748,767],[-79,-17],[-42,13],[-24,-35],[-32,0],[-25,-52],[1,-30],[-35,-28],[-68,8],[-74,-29],[-52,-4]],[[4318,593],[-36,16],[-29,37]],[[4041,5777],[-47,5],[-209,-153]],[[3414,6044],[42,34],[59,34],[-12,102],[-42,103],[15,98]],[[3476,6415],[-13,88],[-22,52],[-53,59],[-26,52]],[[3273,1393],[11,-20],[-24,-51],[2,-44],[32,-71],[30,-26],[72,-119],[8,-31]],[[3404,1031],[-18,-3],[1,-79],[-18,-43],[4,-18],[-41,-8],[-46,-26],[-44,0]],[[3242,854],[-12,29],[-64,13],[4,72],[-37,122],[27,33],[5,32],[-5,59],[-34,83]],[[3615,4955],[33,107],[14,-4],[86,62],[2,18]],[[3750,5138],[88,-18],[39,6],[21,-20],[32,-71],[18,0],[56,46],[-27,13],[13,66],[85,49]],[[4075,5209],[30,-41],[46,-42],[65,-139]],[[3572,4551],[21,98],[21,57],[30,49],[-19,29],[5,34],[-34,18],[29,36],[-10,83]],[[4300,4910],[45,-8],[73,28],[61,10]],[[4479,4940],[42,-120],[18,-96],[-7,-48]],[[4532,4676],[-92,-41],[-53,-17],[-44,-26]],[[4108,4333],[37,26],[9,36]],[[4322,4562],[29,-27],[34,-55],[6,-32],[24,-17]],[[4415,4431],[-4,-47],[-26,-72],[65,-39],[128,40],[31,15]],[[4609,4328],[-26,-74],[-34,-70],[-123,-221]],[[4426,3963],[24,63],[-52,33],[-43,12],[-33,20],[-91,103],[-51,36],[-35,37],[-37,66]],[[4856,5136],[-6,-41]],[[4850,5095],[-19,-32],[-60,-38],[2,-37]],[[4773,4988],[-97,-38],[-49,-10]],[[4773,4988],[33,-44],[-41,-97],[-46,-73]],[[4719,4774],[-113,-67],[-74,-31]],[[5735,4668],[-19,-59],[-51,-60]],[[5665,4549],[-88,13]],[[5577,4562],[-9,17],[-48,39],[-23,42],[20,16],[30,92],[52,65],[72,18],[92,-29],[-1,-54],[17,-42],[-4,-25],[-40,-33]],[[3364,393],[51,-17],[73,-48],[59,-49],[31,-15],[22,17],[-3,26],[-34,39],[148,137],[79,-74],[45,-30]],[[3835,379],[-1,-23],[28,-99],[41,-133],[29,-77],[58,-47]],[[3990,0],[-139,51],[-489,218],[-39,16]],[[3323,285],[13,18],[-15,44],[36,23],[7,23]],[[1961,2926],[304,-56],[61,-113],[10,-42],[19,-27],[20,-64],[23,-23],[91,-45],[87,114],[142,-6],[31,-55],[47,27],[14,-47],[26,-46],[34,-40]],[[2870,2503],[-86,-25],[-89,-18],[-147,-43],[-56,-38],[-23,-58],[-32,-148]],[[2437,2173],[-51,21],[-53,-10],[-33,10],[-75,63],[-70,17],[-189,73],[-98,54],[-281,128]],[[1587,2529],[18,51],[27,42],[30,111],[25,72],[41,66],[119,8],[88,26],[26,21]],[[2292,4061],[115,-49],[30,-4],[41,19],[109,85],[39,21],[109,22],[98,35],[37,41],[65,34],[39,73],[28,17],[62,11],[70,-10],[46,35],[55,56],[54,41],[49,26]],[[3326,4208],[-48,-37],[-60,-11],[-89,27],[-56,-50],[-176,-147],[-78,-90],[-63,-53]],[[2756,3847],[-51,0],[-54,-43],[-133,21],[-33,-4],[-44,-21],[-64,-202],[-70,-79]],[[2307,3519],[11,24],[8,57],[-25,119],[-21,56],[-47,56],[1,80],[23,71],[35,79]],[[2804,4680],[43,34],[35,14],[77,13],[37,17],[23,46],[82,55],[120,51],[58,-14],[48,-46],[35,13],[23,62],[25,34],[18,3]],[[3428,4962],[25,5],[65,-27],[49,1],[48,14]],[[2292,4061],[0,22],[-54,77],[-19,48],[16,38],[38,34],[58,30],[124,79],[98,24],[42,21],[70,46],[70,12],[34,13],[22,59],[13,116]],[[6909,4756],[20,46],[32,-29],[37,44],[-2,62]],[[6996,4879],[10,47],[20,21],[69,4],[-44,39],[8,42],[52,-19],[29,15],[59,6],[57,-4],[16,-20],[-4,-30],[39,-11],[71,44],[32,-34],[0,-39],[76,-8],[14,-23],[8,-69],[15,-44],[73,-117],[57,-103]],[[7653,4576],[-54,-3],[-68,17],[-74,-2],[-67,22],[-46,32],[-39,46],[-38,18],[-77,-12],[-57,-49],[-38,-57],[-35,-26],[-75,-36],[-34,-28],[-60,-83],[-57,-42],[-51,-3],[-100,-109],[-53,-23],[-70,-52]],[[6560,4186],[-39,-17],[-72,-12],[-71,-36],[-34,-35],[-73,-29],[-123,-2],[-63,-32]],[[6085,4023],[-109,82],[-80,35],[-30,27],[-17,42]],[[5849,4209],[29,4],[14,37],[27,-27],[40,-2],[52,10],[18,-18],[31,-61],[38,-23],[65,22],[17,35],[47,50],[6,68],[14,63],[32,22],[55,87],[73,91],[61,-17],[36,35],[45,30],[61,-14],[58,-29],[26,57],[89,12],[4,44],[31,-16],[46,20],[34,-15],[11,82]],[[3340,2158],[3,-85],[67,-80],[55,-57],[27,-15],[49,-86],[36,-7],[49,-36],[16,-24],[63,-38],[17,-26],[15,-96],[23,-47]],[[3471,1319],[-28,44],[-45,96]],[[3130,1941],[48,59],[73,57],[61,63],[28,38]],[[3399,2983],[39,39],[240,228]],[[4035,3156],[-138,-115],[-177,-128]],[[3720,2913],[-24,53],[-36,-26],[-30,23],[-222,16],[-9,4]],[[4318,593],[-61,-33],[-43,-70],[-44,-34],[-36,9],[0,-72],[-11,-24],[14,-64],[75,53],[29,9],[136,17],[59,-5],[75,-17]],[[4511,362],[-207,-145],[-314,-217]],[[3835,379],[24,88],[-18,47],[-39,56],[-47,115],[-10,66]],[[3745,751],[-15,82]],[[5185,6762],[21,-12],[88,-4],[68,25],[53,-7],[116,8],[24,16],[18,-43],[38,-31],[9,-37],[-15,-98],[24,-89],[-18,-64],[-46,-37],[-50,-52],[-17,-57]],[[4916,6224],[-33,102],[2,41],[17,27],[142,109],[65,32],[26,26],[24,135],[26,66]],[[4161,7252],[43,-33],[22,-56],[48,-6],[38,-25],[8,-113],[3,-120],[23,-39],[67,-24],[54,-5],[69,20],[37,-55],[-43,-103],[-77,-54],[29,-70],[77,-54]],[[4559,6515],[-56,-107],[-8,-34],[8,-70],[19,-89],[2,-70]],[[3950,6784],[4,16],[128,212],[32,59],[22,75],[9,82],[16,24]],[[4559,6515],[89,-11],[63,-3],[2,43],[-17,66],[-22,43],[54,21],[48,8],[80,-44],[94,19],[84,78],[102,48],[40,43],[25,2]],[[5201,6828],[-16,-66]],[[4916,6224],[-34,-14],[-101,-163]],[[5095,5951],[23,-82],[-15,-95],[-1,-58],[-47,-83],[-58,-122]],[[4672,5618],[-93,-38],[-51,-15],[-12,-37],[-77,-5],[-23,-17],[-128,-29],[42,-156]],[[4075,5209],[-84,202],[-28,26],[-64,7],[-48,13],[-105,111]],[[3746,5568],[-2,3]],[[5266,4651],[41,69],[56,65],[17,36],[11,88],[19,44],[129,172],[78,110],[14,47]],[[6584,4845],[-20,-39],[-31,-35],[-59,25],[-55,-17],[-22,-53],[-42,-42],[-71,49],[-48,4],[-39,23],[-98,2],[-25,-6],[-41,-34],[-21,4],[-45,66],[-20,-2],[-67,-71],[-52,-92],[-36,6],[-23,23],[-34,12]],[[5577,4562],[-56,5],[-66,-9],[-42,15],[-39,34]],[[4102,3039],[21,-89],[84,-190],[15,-49],[4,-60],[-9,-51],[-43,-99],[-9,-47],[17,-90]],[[4025,2381],[2,121],[-24,38],[-8,55],[-17,39],[-4,52],[-27,61],[-56,13],[-36,-2],[-90,103],[-32,23],[-13,29]],[[4108,4333],[-39,-31],[-73,-40],[-19,-18],[-32,-70],[-9,-74],[-57,-70],[5,-75]],[[3631,4147],[15,28]],[[3464,3634],[-3,63],[18,82]],[[3678,3250],[-29,58],[-26,-10],[-157,42],[-88,8]],[[3378,3348],[77,92],[15,41],[-6,153]],[[2642,6994],[52,-84],[41,-32],[91,-21],[30,-18],[56,-89],[23,-63],[27,-44],[33,-36],[70,-31],[46,-51],[65,-22],[44,-25],[61,-14],[25,-14],[61,-9],[41,-27],[68,1]],[[2710,6035],[-72,85],[-74,25],[-70,12],[-72,4],[-10,21],[9,65],[-20,36],[48,64],[41,73],[47,41],[-9,70],[-19,56],[19,76],[23,28],[17,41],[8,105],[8,49],[24,64],[34,44]],[[5200,5822],[83,-150],[-5,-23]],[[5264,8640],[49,131],[36,60],[91,106],[78,72],[172,104],[256,174],[51,52],[59,103]],[[6056,9442],[273,-4],[17,-4],[135,-65],[-31,-37],[-66,-40],[-162,-72],[-41,-6],[-16,-49],[18,-77],[52,-18],[26,-38],[-19,-73],[-38,-67],[3,-16],[-24,-61],[-27,-19],[-14,-30],[-36,-29],[4,-35],[25,-33],[-19,-56],[29,-26],[-39,-61],[35,-28],[80,18],[19,-38],[70,-3],[74,-47],[46,-52],[25,-43],[18,12],[93,-59],[36,-53],[-38,-47],[8,-26],[40,16],[38,-8],[36,-72]],[[6686,8096],[-26,-31],[-11,-58],[-77,-47],[-24,-69],[-19,-34],[-44,-17],[-95,24],[-85,-25],[-64,17],[-67,-6],[-56,9],[-17,-31],[-80,-41],[-27,-8],[-133,4],[-46,-13],[-61,4],[-28,-8],[-73,-48],[-56,-68],[-28,-23],[-79,-16],[-43,14],[-90,0],[-63,16]],[[5294,7641],[-1,14],[-93,267],[-5,23],[6,64],[-13,76],[9,27],[57,43],[-1,76],[-37,101],[-8,89],[2,34],[54,185]],[[6270,10114],[202,-4],[620,-7],[316,-3],[717,-8]],[[8125,10092],[-23,-39],[-38,-104],[-64,-53],[-23,-42],[-50,-72],[-22,-48],[-45,-33],[-14,-38],[20,-62],[-12,-34],[-36,-7],[-27,-38],[-8,-71],[-42,-42],[-36,-56],[-11,-35],[0,-55],[-24,-38],[-4,-59],[68,-4],[9,-38],[-47,-75],[-11,-110],[36,-88],[28,-41],[86,-53],[68,-31],[34,-52],[-18,-53],[-28,-17],[-70,-16],[-30,19],[-20,31],[-42,-8],[-1,-29],[39,-101],[57,-70],[-6,-37],[-50,-61],[-82,-7],[-43,-28],[-31,-89],[-36,-37],[-108,-33],[-15,-28],[20,-85],[-110,-132],[-49,-38],[-51,-14],[-10,10]],[[7253,7851],[-18,19],[-17,48],[-28,25],[-56,-12],[-26,-35],[-10,-67],[-31,-53],[-58,-19]],[[7009,7757],[43,81],[-59,-11],[-82,33],[-66,-35],[-55,36],[-60,-35],[-7,35],[30,98],[13,71],[-12,48],[-68,18]],[[6056,9442],[207,352],[22,68],[2,75],[-17,177]],[[3340,2158],[36,72],[55,78],[27,31]],[[3458,2339],[64,63],[46,33],[71,-39],[27,-33],[82,-33],[74,-18],[35,12],[55,50],[22,7],[91,0]],[[4748,767],[25,-89],[44,-90]],[[4817,588],[-306,-226]],[[3745,751],[-57,-7],[-56,59],[-52,16],[-29,54],[-103,107],[-30,17],[-14,34]],[[4182,2364],[47,58],[51,25],[70,4],[22,9],[75,65],[3,25],[-36,74],[13,35],[79,11],[31,32],[14,85],[33,45],[54,23]],[[4638,2855],[79,-108],[30,-53],[67,-92],[29,-25]],[[4843,2577],[-4,-49],[-30,-75],[14,-83],[-21,-64],[3,-110],[-148,114],[-37,37],[-37,-7],[-49,-68],[-39,-23],[-160,-11],[-61,7],[-42,-5]],[[5256,2464],[-36,0],[-68,-19],[-34,3],[-40,47],[-30,78],[-59,28],[-98,-10],[-48,-14]],[[4638,2855],[-16,32],[-39,44]],[[4583,2931],[23,3],[64,32],[120,26],[96,-6],[33,9],[77,-13],[46,29]],[[4135,3069],[37,-6],[48,36],[17,0],[77,-32],[54,-5],[52,-24],[37,-54],[58,-34],[68,-19]],[[4170,3713],[231,218],[25,32]],[[4609,4328],[13,38],[24,37],[103,101]],[[4749,4504],[117,116]],[[4866,4620],[24,-118],[104,-268]],[[5665,4549],[38,-20],[18,-26],[37,-87],[14,-88],[21,-40],[40,-47],[16,-32]],[[6085,4023],[37,-49],[17,-56],[-6,-39]],[[6219,3450],[-56,-33],[-28,0],[-33,-33],[-63,-34],[-34,-35],[-30,-12],[-19,-32],[6,-31],[-8,-47],[16,-65],[-17,-22],[31,-53],[19,-57]],[[6597,4872],[45,4],[29,59],[45,-34],[-17,-31],[31,-33],[43,-3],[12,-16],[-22,-36],[39,-15],[28,33],[79,-44]],[[4955,4943],[78,-45],[21,-23]],[[5054,4875],[26,-44]],[[5080,4831],[75,-129],[37,-33],[67,-17]],[[4866,4620],[-16,31],[96,59],[45,41],[-95,157],[59,35]],[[5282,7563],[12,78]],[[7009,7757],[-49,-18],[-25,-47],[-3,-56],[54,4],[6,-48],[-85,-72],[-76,-35],[-4,-72],[-51,-131],[-28,-16],[-49,-54],[-29,-63],[28,-91],[-1,-54],[-35,-50],[-50,3],[-32,22]],[[6580,6979],[-65,0],[-48,-33],[-129,7],[-35,-22],[13,-74],[-7,-22],[-36,-31],[-73,-42],[-65,49],[-80,8],[-22,-16],[-53,-94],[-148,-137],[-24,-42]],[[5808,6530],[-28,-26],[-104,-123],[-134,-117],[-44,16]],[[5201,6828],[4,53],[-26,58],[-3,37],[36,92],[27,44],[-2,51],[22,91],[51,114],[-7,41],[-34,43],[-2,18],[15,93]],[[5723,2877],[32,-54],[33,-114],[6,-61],[17,-49],[-25,-62],[12,-48],[71,-162],[30,-27],[95,-23],[31,-25],[29,-66],[27,-8],[69,4],[96,-88],[47,-62]],[[6293,2032],[-365,-378]],[[5928,1654],[-40,34],[-36,1],[-28,-40],[-66,-13],[-25,-23],[-65,20],[-19,78],[25,35],[-24,18]],[[5650,1764],[-18,21],[15,35],[-8,23],[31,103],[-12,52],[-16,9],[-12,74],[-19,-89],[-39,-18],[-41,54],[39,34],[-31,43],[-49,20],[17,44],[-62,25],[-27,24],[8,22],[-45,43],[-1,34],[42,1],[-6,30],[-29,-5],[-26,66],[-65,-35],[-9,63],[-31,27]],[[3746,5568],[-51,-121],[28,-207],[27,-102]],[[3428,4962],[-11,6],[-8,68],[-16,59],[-42,72],[-57,15],[-19,51],[-42,31],[-85,9],[9,42],[-11,72],[-26,36],[43,31],[25,30],[-14,51],[-23,34],[11,71],[-8,48],[26,28],[18,56],[8,74]],[[2804,4680],[-60,87],[-49,28],[-25,-24],[21,-94],[-27,-35],[-35,28],[-14,63],[-4,81],[-26,72],[23,26],[74,19],[-10,47],[-39,15],[-63,11],[-53,-17],[-15,-32],[16,-95],[-4,-30],[-41,-9],[-28,54],[-75,82],[2,26],[34,35],[45,30],[4,21],[-38,94],[-50,80],[-61,83]],[[5808,6530],[65,-41],[58,-52],[15,10],[76,-63],[42,48],[42,-20],[43,-8],[17,-15],[14,-45],[43,-83]],[[5631,5282],[-61,-28],[-141,26]],[[2182,3435],[43,25],[424,-173],[58,-97],[65,2],[72,-33],[12,-22],[-3,-68]],[[2853,3069],[-4,-23],[27,-47],[23,-62],[26,-18],[9,-35],[-26,-30],[-11,-41],[7,-30],[47,-39],[70,-89]],[[3021,2655],[-35,-89],[-41,-41],[-75,-22]],[[1961,2926],[44,106],[-1,31],[-21,16],[-58,-4],[-38,18],[-43,80],[8,48],[16,18],[58,34],[118,49],[32,18],[46,49],[60,46]],[[2713,7961],[38,14],[91,-12],[55,15],[15,33],[-9,68],[-19,26],[-1,35],[17,73],[23,24],[64,3]],[[2987,8240],[182,-181],[29,-37],[17,-58],[31,-52],[37,-38]],[[3283,7874],[67,-71],[29,-40],[41,-79],[11,-39],[11,-83],[25,-37],[99,-56],[98,-16],[54,-19],[43,-38],[65,-97],[31,-112]],[[3857,7187],[-68,22],[-54,43],[-68,44],[-51,2],[-86,30],[-92,11],[-46,-14],[-57,-66],[-1,-39],[-51,20],[-44,6],[16,55],[24,33],[-48,17],[-24,22],[-13,32],[-24,12],[-111,-2],[-36,8],[-19,-14],[-69,-26],[-48,-39]],[[2887,7344],[-26,41],[-110,96],[15,52],[56,61],[9,19],[-13,49],[18,23],[-31,22],[-94,205],[2,49]],[[3788,9396],[57,39],[20,2],[537,422],[91,69],[-2,212],[871,-16],[257,-3],[-3,233],[226,-10],[-2,-222],[430,-8]],[[6056,9442],[-207,3],[-210,-1],[-174,63],[-46,-7],[-53,-49],[-115,-72],[-94,-33],[-104,-2],[-30,-8],[-47,-28],[-74,-79],[-55,-17],[-23,-17],[-7,-39],[-53,15],[-38,-23],[-27,-61],[-78,-54],[-31,-36],[-18,8],[-50,-12],[-20,28],[-155,-46],[-20,-41],[-44,-57],[-28,11],[-35,37],[-53,39],[-34,13],[-38,-54],[23,-68],[-12,-47],[-50,-46],[-83,21],[-73,38],[-34,34],[-70,18],[-61,41],[-42,-30]],[[3693,8884],[-27,60],[4,23],[85,-1],[19,-18],[70,39],[44,45],[24,104],[-13,47],[-38,28],[38,33],[-31,21],[-6,24],[8,68],[-27,27],[-55,12]],[[1729,7387],[31,72],[76,26],[25,70],[-6,83],[-16,23],[-44,13],[-17,51]],[[1778,7725],[18,-46],[16,-6],[53,28],[60,10],[41,36],[44,75],[120,67],[83,29],[113,59],[46,62],[34,29],[0,23],[26,35],[33,12],[55,-21],[43,-33],[14,-29],[45,-53],[44,-8],[47,-33]],[[2887,7344],[33,-92],[-20,-72],[-70,-21],[-67,2],[-108,-40],[-20,-31],[-44,-41]],[[2591,7049],[-29,4],[-53,45],[-69,80],[-65,-11],[-24,-33],[-94,-7],[-37,24],[-98,108],[-32,26],[-39,-1],[-71,15],[-75,26],[-33,30],[-143,32]],[[4850,5095],[1,-17],[62,-107],[42,-28]],[[4749,4504],[-33,49]],[[4716,4553],[8,68],[-16,63],[11,90]],[[5120,5094],[26,-66],[-14,-54],[-30,-18],[-48,-81]],[[7527,6182],[94,-74],[130,-193],[46,-97],[31,23],[156,51],[60,0],[91,-38],[42,-25],[51,26],[25,-1],[6,48],[47,44],[16,83],[110,79]],[[8432,6108],[32,-78],[9,-48],[29,-87],[2,-26],[-35,-187],[1,-66],[10,-89],[94,-114],[-1,-8],[69,-79],[161,-120],[23,-14],[120,-9],[25,-8],[23,-45],[-19,-79],[33,-40],[64,-97],[-813,-844]],[[8259,4070],[-74,20],[-59,46],[-53,65],[-232,61],[-22,18],[-46,88],[-45,75]],[[7728,4443],[-75,133]],[[6996,4879],[-40,7],[-23,35],[2,32],[-33,51],[-15,86],[-59,43],[-65,21],[-10,69],[12,37],[-6,57],[11,33],[56,65],[22,57],[-16,28],[53,29],[-7,25],[37,43],[59,43],[21,-10],[21,47],[28,0],[12,27],[36,17],[61,-4],[1,56],[14,24],[35,12],[20,-20],[66,68],[54,20],[3,49],[-9,47],[18,24],[2,61],[35,8],[39,-20],[23,40],[73,96]],[[4265,2196],[86,-97],[114,-83]],[[4465,2016],[64,-52],[24,-34],[43,-86],[62,-85],[136,-116],[46,-65],[249,-238],[46,-19],[26,5],[138,55],[36,-5],[23,-17],[37,-51],[50,-155]],[[5445,1153],[-417,-433],[-36,-24],[-25,-1],[-150,-107]],[[6560,4186],[49,-29],[-14,-103],[-2,-71],[39,-80],[61,-74],[8,-74],[47,-78]],[[6801,3663],[42,-10],[34,9],[38,49],[26,49],[46,69],[51,-42],[67,58],[54,27],[51,34],[65,21],[112,55],[28,-6],[87,24],[13,12],[7,95],[-9,44],[27,58],[-46,19],[-28,49],[17,47],[85,15],[78,31],[7,68],[-6,46],[70,-47],[11,6]],[[8259,4070],[-752,-780]],[[7507,3290],[-88,19],[-68,46],[-77,25],[-27,-9],[-39,-32],[-38,-10],[-22,27],[-55,22],[-36,67],[-51,31],[-23,-7],[-24,22],[-44,77],[-41,41],[-45,26]],[[5264,8640],[-28,14],[-11,27],[4,39],[-129,37],[-73,7],[-43,14],[-77,14],[-53,-73],[-34,-88],[-44,-1],[-34,25],[-102,-15],[-39,8],[-31,-8],[-30,-64],[-4,-29],[-32,-84],[-87,-121],[-61,-57],[-18,-5]],[[4338,8280],[-60,7],[-29,-9],[-82,-71],[-38,-14],[-61,-47],[-49,-5],[-77,-39],[-29,-48],[-105,0]],[[3808,8054],[-21,17],[-3,34],[35,64],[21,87],[-7,17],[-43,21],[-31,3],[-55,49],[-44,-46],[-7,49],[-50,30],[23,95],[3,41],[19,57],[35,31],[-8,31],[12,30],[-15,57],[59,55],[-2,61],[-36,47]],[[5650,1764],[-53,-26],[-24,2],[-27,39],[-10,40],[-32,21],[-35,1],[-14,38],[-30,-10],[-30,18],[-40,-14],[-4,44],[14,15],[-19,59],[-32,-25],[-11,43],[21,29],[-3,50],[-32,1],[-48,-43],[-28,0],[-31,34],[-33,18],[-39,-4],[-63,23],[-23,-1],[-129,-69],[-63,1],[-37,16],[-39,-17],[-18,-36],[-54,-4],[-100,4],[-57,16],[-60,38],[-2,-49]],[[7253,7851],[-24,-88],[14,-90],[11,-15],[43,-7],[94,13],[39,-8],[27,-29],[29,-82],[18,-26],[156,-176],[75,-54],[17,-23],[19,-107],[39,-101],[53,-72],[6,101],[17,50],[23,24],[28,1],[71,-25],[36,17],[70,49],[12,-19],[44,32],[77,-30]],[[8247,7186],[9,-100],[1,-67],[-17,-49],[-35,-47],[-23,-94],[-36,-47],[-2,-36],[-26,-34],[-49,-25],[-6,-19],[20,-47],[40,-40],[24,-77],[36,-60],[57,-32],[41,-1],[41,-29],[17,-40],[70,-69],[23,-32],[7,-37],[-11,-32],[4,-64]],[[7527,6182],[-31,34],[-46,83],[-30,23],[-51,12],[-35,-9],[-53,4],[-67,-28],[-69,52],[-25,58],[4,115],[-25,49],[-22,7],[-116,1],[-38,29],[1,57],[-22,29],[-29,-10],[-26,34],[-43,-37],[-13,-41],[-35,-23],[-95,-24],[-40,52],[-61,121],[18,24],[-21,49],[-18,15],[11,60],[16,13],[14,48]],[[4716,4553],[-63,11],[-115,8],[-49,-11],[-62,-61],[-12,-69]],[[5080,4831],[34,33],[71,49],[138,142],[6,90],[-38,55]],[[8125,10092],[198,-342],[219,-372],[155,-268],[280,-480],[0,-7],[199,-322],[-40,-39],[-41,-67],[-11,-56],[-26,-70],[-35,-68],[-57,-4],[-47,-28],[-133,-56],[-39,-12],[-39,30],[-94,-37],[-15,-33],[-29,-25],[10,-55],[-8,-66],[-16,-44],[-54,-48],[-94,-48],[-60,-71],[-62,-164],[-31,-54],[-8,-100]],[[5928,1654],[-483,-501]],[[3021,2655],[100,263],[72,193],[32,56],[107,122],[46,59]],[[3399,2983],[-14,-18],[-252,-365]],[[3133,2600],[-92,35],[-20,20]],[[3479,3779],[-44,7],[-20,-32],[-25,-2],[-21,30],[-60,13],[-47,-17],[-20,-19],[-32,2],[-46,25],[-29,-14],[-42,-50],[-44,-2],[-41,-28],[-70,26],[-182,129]],[[2853,3069],[25,11],[19,33],[14,94],[11,29],[44,48],[25,38],[77,75],[37,56],[119,96],[62,11],[58,32],[83,18],[37,24]],[[1103,2319],[58,-110],[39,-97],[96,-162],[13,-56],[145,-96],[132,-103],[42,-71],[53,-23],[59,70],[41,27],[55,10],[39,-43],[110,-51],[75,-75],[52,-17]],[[2112,1522],[-211,-267],[-19,-20]],[[1882,1235],[-31,-28],[-66,-43],[-179,-80],[-57,-17]],[[1549,1067],[-64,31],[-421,183],[-252,104],[-216,101],[-337,161],[-91,36],[-168,59],[29,93],[0,25],[26,55],[16,82],[-7,71],[25,38],[51,34],[29,30],[35,69],[63,63],[36,11],[125,54],[84,19],[134,23],[100,-4],[67,-13],[118,-60],[65,-26],[55,-3],[52,16]],[[3857,7187],[-3,-65],[-30,-71],[0,-36],[16,-62],[17,-33]],[[2642,6994],[-51,55]],[[5282,7563],[-86,-17],[-37,9],[-48,41],[-56,26],[-67,-13],[-77,-4],[-85,-38],[-43,2],[-45,-24],[-46,-53],[-58,-17],[-62,8],[-46,69],[0,34],[-49,32],[-8,40],[-57,70],[-60,-27],[5,54],[44,89],[34,125],[-4,73],[-16,45],[-63,101],[-12,39],[-2,53]],[[7507,3290],[-500,-518],[-714,-740]],[[4161,7252],[-24,19],[-33,-5],[-164,138],[-80,131],[-82,163],[-14,83],[-1,45],[12,57],[46,43],[0,75],[-13,53]],[[2609,8732],[78,55],[218,-2],[0,224],[-230,10],[0,220],[453,-4],[-5,-197],[2,-37],[459,3],[0,221],[204,171]],[[3808,8054],[-53,-10],[-63,-42],[-44,-2],[-87,-21],[-80,-44],[-53,-1],[-70,-33],[-75,-27]],[[2987,8240],[-149,150],[-69,93],[-44,71],[-97,142],[-19,36]],[[1778,7725],[-58,65],[-38,10],[-69,-23],[-25,23],[32,135],[26,27],[72,23],[33,-9],[30,9],[93,94],[5,30],[-16,54],[-32,67],[-15,55],[-24,37],[93,8],[83,25],[59,57],[40,-1],[92,44],[12,-15],[51,33],[212,145],[175,114]],[[2396,5737],[-17,27],[-26,10],[-98,14],[-69,38],[-20,19],[-49,118],[-20,58],[-3,62],[-22,13],[-27,-14],[-59,-68],[-29,-8],[-15,28],[-19,84],[-70,88],[-22,61],[-47,79],[-20,82],[-28,14],[-41,1],[-37,16],[-1,43],[91,59],[18,23],[-3,46],[-62,86],[-31,15],[0,22],[29,51],[5,33],[-24,28],[15,75],[49,53],[-44,36],[-56,19],[-46,38],[15,78],[52,76],[52,40],[10,28],[2,79]],[[2182,3435],[30,25],[70,38],[25,21]],[[3133,2600],[-96,-137]],[[3037,2463],[-259,-373]],[[2778,2090],[-30,-32],[-107,-44]],[[2641,2014],[-88,31],[-54,61],[-34,28],[-28,39]],[[3458,2339],[-70,-31],[-32,3],[-94,33],[-59,27],[-59,48],[-107,44]],[[2273,1741],[60,80],[37,42],[52,43],[113,68],[106,40]],[[2778,2090],[45,-44],[45,-58],[28,-25],[53,12],[70,0],[50,-21],[8,16],[53,-29]],[[2797,1529],[-37,3]],[[2760,1532],[-56,12],[-52,26],[-92,9],[-19,8],[-66,56],[-121,70],[-81,28]],[[2273,1741],[-161,-219]],[[1103,2319],[47,26],[43,63],[33,15],[49,-9],[32,-21],[57,-23],[56,5],[81,44],[86,110]],[[2110,824],[40,42],[149,171]],[[2299,1037],[41,46],[334,318],[38,45],[48,86]],[[2764,1271],[-11,-27],[-6,-63],[3,-53],[-49,-102],[-28,-38],[-70,-119],[3,-62],[-21,-50],[-6,-84],[16,-64]],[[2595,609],[-99,41],[-300,138],[-86,36]],[[1882,1235],[91,-48],[52,-15],[108,-18],[62,-28],[104,-89]],[[2110,824],[-188,79],[-111,55],[-88,22],[-174,87]],[[3242,854],[40,-82],[53,-68],[7,-30],[30,-23],[-1,-36],[75,-90],[-50,-48],[-9,-58],[-23,-26]],[[3323,285],[-149,62],[-339,157],[-145,66],[-95,39]]],"transform":{"scale":[0.00004871065823888358,0.00004012401004442736],"translate":[-84.062187,34.098652]},"objects":{"Geometry\\13-139":{"type":"GeometryCollection","geometries":[{"arcs":[[0,1,2,3,4,5]],"type":"Polygon","properties":{"GEOID":"131390014052"}},{"arcs":[[6,7,8,-6,9]],"type":"Polygon","properties":{"GEOID":"131390014061"}},{"arcs":[[10,11,12,13,14]],"type":"Polygon","properties":{"GEOID":"131390004022"}},{"arcs":[[-13,15,16,17,18]],"type":"Polygon","properties":{"GEOID":"131390004012"}},{"arcs":[[19,20,21,22]],"type":"Polygon","properties":{"GEOID":"131390006011"}},{"arcs":[[23,24,25,26,27,-17,28]],"type":"Polygon","properties":{"GEOID":"131390005021"}},{"arcs":[[29,30,31,32]],"type":"Polygon","properties":{"GEOID":"131390006021"}},{"arcs":[[33,34,35,36,37]],"type":"Polygon","properties":{"GEOID":"131390009021"}},{"arcs":[[38,39,40,41,42,43,44]],"type":"Polygon","properties":{"GEOID":"131390012043"}},{"arcs":[[45,46,47,48,49,50,51]],"type":"Polygon","properties":{"GEOID":"131390003071"}},{"arcs":[[-44,52,53,54]],"type":"Polygon","properties":{"GEOID":"131390012042"}},{"arcs":[[55,56,57,58,59]],"type":"Polygon","properties":{"GEOID":"131390016091"}},{"arcs":[[60,61,62,-57,63]],"type":"Polygon","properties":{"GEOID":"131390016102"}},{"arcs":[[64,65,66,67,68]],"type":"Polygon","properties":{"GEOID":"131390010052"}},{"arcs":[[69,70,71,72,73,74]],"type":"Polygon","properties":{"GEOID":"131390010071"}},{"arcs":[[75,-10,76,77]],"type":"Polygon","properties":{"GEOID":"131390014062"}},{"arcs":[[78,79,80,81,82,83]],"type":"Polygon","properties":{"GEOID":"131390006013"}},{"arcs":[[84,85,-70,86]],"type":"Polygon","properties":{"GEOID":"131390010083"}},{"arcs":[[-26,87,88,-79,89,90,-34,91]],"type":"Polygon","properties":{"GEOID":"131390009011"}},{"arcs":[[92,93,94,95,96]],"type":"Polygon","properties":{"GEOID":"131390016111"}},{"arcs":[[97,98,99,100,101]],"type":"Polygon","properties":{"GEOID":"131390012024"}},{"arcs":[[102,103,104,105,106,-97,107,108]],"type":"Polygon","properties":{"GEOID":"131390016033"}},{"arcs":[[109,110,111,-94]],"type":"Polygon","properties":{"GEOID":"131390016122"}},{"arcs":[[-14,-19,112,-48,113,114]],"type":"Polygon","properties":{"GEOID":"131390004021"}},{"arcs":[[-63,115,116,117,-58]],"type":"Polygon","properties":{"GEOID":"131390016092"}},{"arcs":[[118,119,120,-87,-75,-67,121]],"type":"Polygon","properties":{"GEOID":"131390010042"}},{"arcs":[[122,123,124,-71,-86]],"type":"Polygon","properties":{"GEOID":"131390010081"}},{"arcs":[[125,-73,126,127,128,129]],"type":"Polygon","properties":{"GEOID":"131390011022"}},{"arcs":[[-91,130,131,132,-35]],"type":"Polygon","properties":{"GEOID":"131390009022"}},{"arcs":[[-36,-133,133,134,-124]],"type":"Polygon","properties":{"GEOID":"131390010082"}},{"arcs":[[135,136,137]],"type":"Polygon","properties":{"GEOID":"131390007031"}},{"arcs":[[138,139,140,141]],"type":"Polygon","properties":{"GEOID":"131390016053"}},{"arcs":[[142,143,144,145]],"type":"Polygon","properties":{"GEOID":"131390015012"}},{"arcs":[[146,-65,147,148,149]],"type":"Polygon","properties":{"GEOID":"131390010062"}},{"arcs":[[150,151,-122,-66,-147,152]],"type":"Polygon","properties":{"GEOID":"131390010061"}},{"arcs":[[153,154,155,156,157,158]],"type":"Polygon","properties":{"GEOID":"131390007042"}},{"arcs":[[159,-109,160,-61,161]],"type":"Polygon","properties":{"GEOID":"131390016101"}},{"arcs":[[162,-4,163,164]],"type":"Polygon","properties":{"GEOID":"131390014042"}},{"arcs":[[-95,-112,165,166,-140,167,168]],"type":"Polygon","properties":{"GEOID":"131390016112"}},{"arcs":[[169,-20,170]],"type":"Polygon","properties":{"GEOID":"131390005013"}},{"arcs":[[171,172,-29,-16,-12,173]],"type":"Polygon","properties":{"GEOID":"131390005022"}},{"arcs":[[174,175,-171,176,-24,-173]],"type":"Polygon","properties":{"GEOID":"131390005011"}},{"arcs":[[-177,-23,177,-88,-25]],"type":"Polygon","properties":{"GEOID":"131390005012"}},{"arcs":[[-49,-113,-18,-28,178,-37,-123,-85,-121,179,180]],"type":"Polygon","properties":{"GEOID":"131390004011"}},{"arcs":[[181,-32,182,-138,183,-41]],"type":"Polygon","properties":{"GEOID":"131390007032"}},{"arcs":[[-164,-3,184,-104,185]],"type":"Polygon","properties":{"GEOID":"131390014044"}},{"arcs":[[-68,-74,-126,186,-7,-76,187]],"type":"Polygon","properties":{"GEOID":"131390010051"}},{"arcs":[[188,-77,-5,189,190]],"type":"Polygon","properties":{"GEOID":"131390014051"}},{"arcs":[[191,-114,-47,192]],"type":"Polygon","properties":{"GEOID":"131390003072"}},{"arcs":[[-22,193,-80,-89,-178]],"type":"Polygon","properties":{"GEOID":"131390006012"}},{"arcs":[[194,195,196,197]],"type":"Polygon","properties":{"GEOID":"131390002061"}},{"arcs":[[198,199,200,201,-196,202]],"type":"Polygon","properties":{"GEOID":"131390002062"}},{"arcs":[[203,204,-103,-160]],"type":"Polygon","properties":{"GEOID":"131390016032"}},{"arcs":[[-111,205,206,-166]],"type":"Polygon","properties":{"GEOID":"131390016121"}},{"arcs":[[-62,-161,-108,-96,-169,207,-116]],"type":"Polygon","properties":{"GEOID":"131390016093"}},{"arcs":[[208,209,210,-105]],"type":"Polygon","properties":{"GEOID":"131390013032"}},{"arcs":[[-55,211,-210,212,213]],"type":"Polygon","properties":{"GEOID":"131390013041"}},{"arcs":[[-2,214,-213,-209,-185]],"type":"Polygon","properties":{"GEOID":"131390013031"}},{"arcs":[[215,-129,216,217,218,-45,-214,-215,-1,-9]],"type":"Polygon","properties":{"GEOID":"131390013042"}},{"arcs":[[-184,-137,219,-158,220,-102,221,-42]],"type":"Polygon","properties":{"GEOID":"131390012023"}},{"arcs":[[-183,-31,222,-159,-220,-136]],"type":"Polygon","properties":{"GEOID":"131390007041"}},{"arcs":[[223,224,225,-39,-219,226]],"type":"Polygon","properties":{"GEOID":"131390012031"}},{"arcs":[[227,-197,-202,228,229,230,-170,-176,231]],"type":"Polygon","properties":{"GEOID":"131390002051"}},{"arcs":[[-54,232,233,234,235]],"type":"Polygon","properties":{"GEOID":"131390012041"}},{"arcs":[[-27,-92,-38,-179]],"type":"Polygon","properties":{"GEOID":"131390009012"}},{"arcs":[[-50,-181,236,-119,-152,237]],"type":"Polygon","properties":{"GEOID":"131390003062"}},{"arcs":[[-51,-238,-151,238]],"type":"Polygon","properties":{"GEOID":"131390003061"}},{"arcs":[[-231,239,-33,240,-81,-194,-21]],"type":"Polygon","properties":{"GEOID":"131390006022"}},{"arcs":[[241,242,243,-143,244]],"type":"Polygon","properties":{"GEOID":"131390015013"}},{"arcs":[[245,246,247,248,249]],"type":"Polygon","properties":{"GEOID":"131390003051"}},{"arcs":[[250,-203,251,252]],"type":"Polygon","properties":{"GEOID":"131390002032"}},{"arcs":[[253,254,-250,255,256]],"type":"Polygon","properties":{"GEOID":"131390003041"}},{"arcs":[[-134,-132,257,-227,-218,258,259]],"type":"Polygon","properties":{"GEOID":"131390011011"}},{"arcs":[[-131,-90,-84,260,-224,-258]],"type":"Polygon","properties":{"GEOID":"131390008003"}},{"arcs":[[261,262,263,264,-155,265]],"type":"Polygon","properties":{"GEOID":"131390001021"}},{"arcs":[[266,267,268,-206,-110,-93,-107]],"type":"Polygon","properties":{"GEOID":"131390016031"}},{"arcs":[[269,-98,-221,-157]],"type":"Polygon","properties":{"GEOID":"131390012021"}},{"arcs":[[270,-264,271,272,-100]],"type":"Polygon","properties":{"GEOID":"131390007021"}},{"arcs":[[-252,-195,273,274,275]],"type":"Polygon","properties":{"GEOID":"131390002031"}},{"arcs":[[-212,-236,276,-267,-106,-211]],"type":"Polygon","properties":{"GEOID":"131390013022"}},{"arcs":[[-229,-201,277,278,-262,279]],"type":"Polygon","properties":{"GEOID":"131390001012"}},{"arcs":[[-125,-135,-260,280,-127,-72]],"type":"Polygon","properties":{"GEOID":"131390011013"}},{"arcs":[[281,-82,-241,-182,-40,-226]],"type":"Polygon","properties":{"GEOID":"131390008001"}},{"arcs":[[-200,282,-278]],"type":"Polygon","properties":{"GEOID":"131390001011"}},{"arcs":[[-280,-266,-154,-223,-30,-240,-230]],"type":"Polygon","properties":{"GEOID":"131390001022"}},{"arcs":[[-281,-259,-217,-128]],"type":"Polygon","properties":{"GEOID":"131390011012"}},{"arcs":[[-235,283,-268,-277]],"type":"Polygon","properties":{"GEOID":"131390013021"}},{"arcs":[[-261,-83,-282,-225]],"type":"Polygon","properties":{"GEOID":"131390008002"}},{"arcs":[[284,-190,-163,285,286]],"type":"Polygon","properties":{"GEOID":"131390014041"}},{"arcs":[[-69,-188,-78,287,-148]],"type":"Polygon","properties":{"GEOID":"131390014021"}},{"arcs":[[288,-191,-285,-243]],"type":"Polygon","properties":{"GEOID":"131390014023"}},{"arcs":[[289,290,291,292]],"type":"Polygon","properties":{"GEOID":"131390015021"}},{"arcs":[[-256,-249,293,-15,-115,-192,294]],"type":"Polygon","properties":{"GEOID":"131390003052"}},{"arcs":[[-274,-198,-228,295]],"type":"Polygon","properties":{"GEOID":"131390002041"}},{"arcs":[[-43,-222,-101,-273,296,-233,-53]],"type":"Polygon","properties":{"GEOID":"131390012022"}},{"arcs":[[-265,-271,-99,-270,-156]],"type":"Polygon","properties":{"GEOID":"131390007022"}},{"arcs":[[-275,-296,-232,-175,-172,297]],"type":"Polygon","properties":{"GEOID":"131390002042"}},{"arcs":[[298,-253,-276,299,-247,300]],"type":"Polygon","properties":{"GEOID":"131390003032"}},{"arcs":[[-301,-246,-255,301]],"type":"Polygon","properties":{"GEOID":"131390003053"}},{"arcs":[[-300,-298,-174,-11,-294,-248]],"type":"Polygon","properties":{"GEOID":"131390003031"}},{"arcs":[[-257,-295,-193,-46,302]],"type":"Polygon","properties":{"GEOID":"131390003042"}},{"arcs":[[-180,-120,-237]],"type":"Polygon","properties":{"GEOID":"131390010041"}},{"arcs":[[-130,-216,-8,-187]],"type":"Polygon","properties":{"GEOID":"131390011021"}},{"arcs":[[-149,-288,-189,-289,-242,303]],"type":"Polygon","properties":{"GEOID":"131390014022"}},{"arcs":[[-244,-287,304,305,306,307,-144]],"type":"Polygon","properties":{"GEOID":"131390015011"}},{"arcs":[[-305,-286,-165,-186,-205,308]],"type":"Polygon","properties":{"GEOID":"131390014043"}},{"arcs":[[309,-307,310,-64,-56,311,312]],"type":"Polygon","properties":{"GEOID":"131390016061"}},{"arcs":[[-145,-308,-310,313,-290,314]],"type":"Polygon","properties":{"GEOID":"131390015022"}},{"arcs":[[315,316,-312,-60,317,318]],"type":"Polygon","properties":{"GEOID":"131390016073"}},{"arcs":[[-292,319,-316,320]],"type":"Polygon","properties":{"GEOID":"131390016071"}},{"arcs":[[-314,-313,-317,-320,-291]],"type":"Polygon","properties":{"GEOID":"131390016072"}},{"arcs":[[-59,-118,321,-142,322,-318]],"type":"Polygon","properties":{"GEOID":"131390016051"}},{"arcs":[[-117,-208,-168,-139,-322]],"type":"Polygon","properties":{"GEOID":"131390016052"}},{"arcs":[[-306,-309,-204,-162,-311]],"type":"Polygon","properties":{"GEOID":"131390016062"}}]}}}