{"type":"Topology","arcs":[[[3759,4471],[208,-605],[59,-163],[91,-267],[32,-98],[246,-731]],[[4395,2607],[-143,-42],[-241,-76],[-203,-61],[-415,-110],[-99,-46]],[[3294,2272],[35,24],[19,44],[-2,18],[13,36],[2,30],[-26,33],[-21,106],[-52,23],[-43,58],[-43,7],[-43,26],[61,42],[44,22],[-26,22],[2,37],[-65,56],[-33,72],[-18,23],[-26,52],[-20,9]],[[3052,3012],[11,29],[36,69],[1,32],[-37,42],[-16,37],[8,38],[14,13],[38,3],[35,19],[19,22],[-8,24],[-28,31],[-11,23],[1,64],[18,30],[77,24],[94,7],[36,12],[24,18],[17,36],[-13,21],[-65,40],[-86,30],[-49,22],[-17,28],[5,13],[33,29],[27,10],[80,10],[26,8],[67,34],[38,30],[64,45],[23,22],[8,27],[10,142],[14,39],[26,30],[77,73],[70,46],[11,13],[10,43],[-9,34],[5,41],[23,56]],[[2607,2552],[15,-24],[21,-12],[56,-20],[16,-22],[-28,-24],[6,-34],[18,-12],[49,6],[54,38],[43,46],[44,98],[-4,56],[10,51],[-3,31],[-23,41],[-12,52],[36,42],[49,26],[45,30],[20,27],[33,64]],[[3294,2272],[-14,-29],[-1,-27],[-15,-23],[-26,-13],[-67,-15],[-49,-41],[-47,2],[-67,13],[-34,-6],[-34,-24],[-24,-27],[-16,-33],[13,-4],[-12,-30],[-9,-54],[-69,2],[-22,-16],[-21,-42],[-21,-15],[7,-30],[22,-28],[28,-53],[4,-24],[-12,-29],[-23,-35],[-25,-2],[-77,-52],[-25,27],[-24,-9],[-30,-40]],[[2604,1615],[-20,22],[-51,75],[-17,16],[-31,60],[-50,55],[-16,29],[-25,25],[-6,34],[-24,27],[-36,20],[-6,21],[1,83],[28,26],[-9,31],[11,32],[7,56],[16,13],[-12,15],[-7,30]],[[2357,2285],[-26,-16],[-55,23],[-20,68],[22,25],[12,33],[73,40],[225,90],[19,4]],[[2604,1615],[40,-94],[-12,-45],[6,-34],[24,-52],[23,-30],[29,-28],[109,-42],[39,-30],[12,-21],[28,-87],[8,-13],[122,-54],[50,-30],[68,-18],[26,-13],[90,-59],[62,0],[54,-30],[25,-27],[9,-21]],[[3416,887],[-14,-44],[-17,-27],[-30,-30],[-57,-2],[-59,26],[-27,8],[-46,-8],[-17,-30],[-40,-20],[-14,-21],[-318,-102],[5,45],[-1,53],[1,126],[-133,1],[0,128],[-141,0],[2,-251],[-131,0],[2,-224],[-176,-60],[-113,-33],[-305,-98],[-518,-165],[-495,-159],[-65,383],[-80,449],[-37,228],[-29,169]],[[563,1229],[45,48],[28,39],[64,146],[18,27],[34,11],[40,-10],[48,-20],[61,-14],[51,5],[101,42],[24,17],[28,42],[15,13],[108,64],[55,44],[43,1],[28,7],[26,17],[56,61],[29,17],[62,13],[61,21],[35,5],[81,-19],[26,-16],[20,-24],[18,-33],[16,-15],[27,-6],[21,7],[23,22],[30,44],[55,64],[16,45],[58,53],[33,11],[102,-2],[24,4],[37,22],[20,22],[127,281]],[[903,3190],[16,-1],[21,27],[27,19],[11,40],[-6,45],[14,16],[41,23],[36,36],[6,25],[-57,51],[36,40],[37,17],[77,130],[41,109],[50,33],[11,20],[-4,30],[-26,45],[13,30],[0,44],[19,20],[17,-2],[39,32],[3,40],[48,55],[31,15],[-8,36],[-2,60],[-11,33],[-27,46],[-11,56],[-40,39],[-13,40],[-1,23],[8,35]],[[1299,4497],[302,-3],[548,-2],[166,0],[562,-7]],[[2877,4485],[-8,-25],[-26,-43],[11,-36],[-3,-43],[-8,-29],[-50,-40],[6,-38],[-23,-38],[-61,-41],[-45,-58],[-42,-27],[-42,-41],[-97,-25],[-35,-24],[-73,-35],[-57,-39],[-73,-63],[-23,-23],[-42,-69],[-31,-70],[-30,-49],[-44,-15],[-34,-78],[16,-47],[59,-68],[31,-5],[-24,-66],[-39,-42]],[[2090,3308],[-17,-22],[-15,-39],[15,-8],[15,-71],[2,-34],[-8,-33],[-31,-53],[5,-28],[20,-28],[4,-34],[-16,-19],[-2,-48],[-46,-80],[-25,-29],[-23,17],[-42,4],[-28,17],[-26,33],[-29,60],[-27,-27],[-4,-20],[-17,-26],[-45,-25],[-22,-19],[-23,-41],[-30,-20],[-62,-59],[-48,31],[-35,33],[-18,9],[-44,0],[-31,-10],[-50,55],[-12,3],[-8,30],[36,3],[-28,40],[-28,25],[-63,93],[7,10],[29,-16],[35,-6],[-73,62],[-32,30],[-45,32],[-59,28],[-48,-4],[-30,11],[-16,-14],[18,-17],[-9,-17],[-28,-17],[5,-19],[-15,-10],[-27,16],[10,24],[0,24],[-57,48],[-32,20],[-14,17]],[[171,3528],[20,56],[24,19],[40,3],[32,17],[16,-23],[56,-33],[-2,-28],[33,-23],[-25,-13],[72,-41],[15,22],[34,-19],[23,17],[40,-34],[3,-22],[40,-17],[46,-27],[39,-4],[29,-33],[35,-30],[-7,-17],[31,-34],[47,-17],[17,-14],[8,-29],[22,8],[45,-14],[-1,-8]],[[2090,3308],[10,-40],[36,-19],[32,2],[28,-5],[56,-58],[37,-43],[4,-37],[57,-9],[42,-13],[21,-22],[-8,-22],[35,-15],[41,-64],[8,-31],[-38,-62],[-21,-13],[-19,-47],[7,-19],[43,-12],[23,27],[22,-3],[23,-24],[2,-13],[23,-21],[21,-46],[-8,-30],[8,-52],[32,-65]],[[563,1229],[-19,111],[-28,168],[-25,131],[-9,62],[-32,190],[-142,831],[-137,806]],[[2877,4485],[194,-3],[688,-11]],[[171,3528],[-70,399],[-81,471],[-20,112],[232,-2],[455,0],[192,-5],[344,-4],[76,-2]],[[4395,2607],[129,-379],[1,80],[132,-1],[0,-251],[-78,-1],[81,-232],[129,-386],[-333,-134],[-507,-204],[-533,-212]]],"transform":{"scale":[0.00007408435999164927,0.00006619356984478915],"translate":[-85.29380500000002,33.129565]},"objects":{"Geometry\\13-149":{"type":"GeometryCollection","geometries":[{"arcs":[[0,1,2,3]],"type":"Polygon","properties":{"GEOID":"131499701003"}},{"arcs":[[4,-3,5,6,7]],"type":"Polygon","properties":{"GEOID":"131499701002"}},{"arcs":[[-7,8,9,10]],"type":"Polygon","properties":{"GEOID":"131499703002"}},{"arcs":[[11,12,13,14]],"type":"Polygon","properties":{"GEOID":"131499702002"}},{"arcs":[[15,-15,16,-8,-11,17]],"type":"Polygon","properties":{"GEOID":"131499703001"}},{"arcs":[[18,-4,-5,-17,-14]],"type":"Polygon","properties":{"GEOID":"131499702001"}},{"arcs":[[-12,-16,19]],"type":"Polygon","properties":{"GEOID":"131499702003"}},{"arcs":[[-2,20,-9,-6]],"type":"Polygon","properties":{"GEOID":"131499701001"}}]}}}