{"type":"Topology","arcs":[[[4518,7103],[-54,-56],[-176,-174],[-57,-44],[-83,-98],[-80,-71],[-40,-19],[-189,-28],[-130,-8],[-61,-9],[-113,-32],[-250,-92],[-194,-69],[-180,-42],[-58,-7],[-432,-2],[-137,0],[-232,-3],[-97,-3],[-55,-22],[-81,24],[-76,-2],[-190,3],[-79,9],[-68,22],[-272,128],[-84,18],[-272,9]],[[778,6535],[-31,44],[-8,25],[6,40],[57,62],[27,39],[59,34],[32,42],[46,32],[13,32],[49,36],[17,38],[47,40],[66,15],[33,-13],[18,29],[25,-16],[67,34],[78,20],[17,28],[4,38],[54,27],[18,43],[-12,23],[26,32],[-10,25],[26,22],[-5,79],[5,36],[20,39],[27,30],[45,10],[24,-14],[30,10],[37,-17],[20,-51],[34,-8],[100,80],[41,-17],[22,4],[32,-16],[46,26],[32,27],[2,31],[20,39],[35,49],[4,62],[35,20],[337,-7],[121,0],[238,-3],[140,-4],[183,-2],[121,3],[268,-6],[-1,-134],[-3,-124],[377,0],[122,3],[-14,-345],[140,-3],[381,0]],[[4691,6340],[34,0],[24,11],[62,80],[14,116],[11,29],[97,-5],[88,-16],[3,40],[18,57],[76,177],[0,125],[17,45],[-5,38],[20,54],[17,6]],[[5167,7097],[363,-3],[311,1],[214,-3]],[[6055,7092],[-90,-89],[-91,-67],[-56,-55],[-66,-88],[-17,-43],[-19,-98],[-53,-143],[-36,-199],[-25,-101],[-29,-96],[-53,-133],[-26,-85]],[[5494,5895],[-69,6],[-51,-4],[-74,11],[-34,14],[-19,26],[-28,70],[-22,122],[-25,-3],[-57,19],[-58,-8],[-19,4],[-21,-20],[-26,-2],[-61,8],[-156,75],[-33,18],[-50,70],[0,39]],[[5264,5494],[82,130],[51,91],[69,116],[28,64]],[[6055,7092],[99,-3],[406,4],[490,-7],[2,-155],[-1,-172],[0,-307],[6,-297],[6,-290],[-4,-419]],[[7059,5446],[-100,4],[-16,27],[-10,51],[-115,-49],[-19,-13],[-80,-134],[-100,-105],[-32,-25],[-52,-5],[-408,12],[-87,-20],[-70,-53],[-52,-25],[-33,81],[-43,54],[-8,66],[-32,46],[-13,40],[-27,31],[-54,37],[-22,4],[-32,-10],[-75,-37],[-41,1],[-86,19],[-62,37],[-35,10],[-91,4]],[[5264,5494],[-34,-53],[-31,-56],[-44,-97],[-7,-34],[-4,-155],[-5,-37],[-17,-42],[-18,-23],[-93,-91],[-31,-38],[-196,-312],[-18,-44]],[[4766,4512],[-16,40],[-1,76],[-20,124],[-18,91],[-5,89],[-10,39],[-25,54],[-9,47],[-146,26],[-69,8],[-133,-3],[-88,-8],[-60,11],[-41,28],[-48,11],[-191,7],[-40,7],[-84,23],[-32,3],[-8,-49],[-42,-91],[-23,-41],[-79,-70],[-60,-20],[-31,-22],[-24,-37],[-29,-88]],[[3434,4767],[-93,113],[-183,194],[-232,217],[-41,44]],[[2885,5335],[22,21],[89,-6],[29,4],[47,50],[1,17],[27,24],[16,49],[18,22],[0,29],[-19,54],[4,56],[25,36],[25,15],[47,-1],[27,18],[52,87],[30,1],[8,40],[29,34],[1,46],[11,15],[30,-22],[71,-123],[116,-94],[35,-12],[133,-1],[2,98],[43,73],[41,13],[41,93],[38,59],[61,77],[30,53],[111,116],[100,101],[72,64],[63,-99],[13,-28],[78,0],[56,26],[28,3],[155,-3]],[[7059,5446],[-5,-162],[2,-85],[-3,-168],[2,-351],[-1,-165],[-5,-374],[0,-119],[-4,-382],[0,-201],[6,-4],[-1,-310]],[[7050,3125],[-56,-2],[-22,9],[-9,24],[-42,29],[-3,56],[-62,30],[-31,30],[-39,4],[-70,-44],[-43,-10],[-129,-2],[-57,-11],[-102,-83],[-44,9],[-48,53],[-35,6],[-31,35],[-35,1],[-42,-28],[-42,-39],[-73,-8],[-33,-19],[-16,-74],[-22,-33],[-42,-35],[-43,-10],[-37,8],[-45,33],[-6,43],[-54,23],[-15,-14],[-31,6],[-23,19]],[[5668,3131],[-11,119],[1,75],[22,117],[-1,178],[-15,44],[-145,186],[-55,83],[-111,152],[-110,138],[-7,18],[-8,92],[-126,-35],[-75,-11],[-51,-1],[-225,5]],[[4751,4291],[2,161],[13,60]],[[4751,4291],[-2,-129],[-57,-138],[-9,-33],[-7,-269],[1,-64],[14,-164]],[[4691,3494],[23,-253],[-76,19],[-85,-44],[-142,-90],[-66,-63],[-92,-58],[-77,-64],[-109,-33],[-40,2],[-21,50],[-24,2],[-35,29],[-15,41],[9,30],[-19,33],[36,60],[7,32],[8,84],[-41,54],[-39,24],[-51,7],[-87,-99],[-93,-1],[-10,-14],[-31,5],[-21,-14],[-26,-37],[-41,16],[-38,-9],[-31,6],[-45,-7],[-8,-42],[-69,-7],[-46,14],[-43,2],[-46,26]],[[3207,3195],[6,160],[-6,54],[-21,52],[-5,51],[-12,26],[9,38],[49,58],[39,37],[40,73],[13,53],[12,85],[16,62],[79,-3],[42,19],[34,98],[22,80],[4,30],[-11,108],[-8,196],[11,104],[-3,61],[-21,51],[-62,79]],[[308,3171],[57,38],[61,8],[162,-5],[281,-3],[212,-4],[212,0],[286,-8],[201,8],[116,-13],[202,-5],[134,3],[106,-4],[64,25],[105,16],[57,-12],[189,-2],[65,3],[76,11],[39,19],[40,49],[19,6],[90,3],[38,-11],[49,-32],[29,-67]],[[3198,3194],[-36,10],[-25,-4],[-15,-31],[-3,-41],[-35,-59],[-3,-30],[7,-82],[-18,-42],[-32,-21],[-9,-27],[-20,-17],[-57,-122],[-10,0],[-24,-90],[-28,-24],[-31,-11],[-55,5],[-40,41],[-28,14],[-10,39],[-22,2],[-43,20],[-50,37],[-27,-22],[-37,5],[-28,28],[-22,-10],[-45,9],[-19,-15],[-47,-74],[-54,-17],[-22,-19],[-41,-6],[-6,32],[-95,-44],[-26,-2],[-7,17],[-37,24],[-69,-5],[-28,-21],[29,-81],[24,-29],[7,-34],[-40,-40],[0,-22],[27,-33],[-1,-24],[-21,-4],[-22,-42],[-26,-5],[-44,-44],[-6,-45],[-20,3],[-17,-29],[-17,3],[-25,-31],[-59,-17],[-25,4],[-7,34],[-57,19],[-37,-10],[-2,-22],[10,-58],[-12,-18],[-4,-61],[-21,-30],[-45,-7],[4,-66],[-27,-19],[-22,5],[3,-46],[17,-27],[0,-47],[-58,-20],[-29,-17],[-37,4],[-26,-31],[2,-27],[-13,-27],[0,-70],[15,-34],[-11,-30],[-33,-21],[-24,-37],[-3,-44],[-21,-112],[3,-42],[-14,-51],[-2,-31],[-33,-7],[-12,-29],[-35,-7],[-13,-28],[22,-49],[3,-51],[38,-47],[0,-45],[-15,-18],[-43,-28],[-46,-66],[-5,-47]],[[1175,806],[-33,-50],[22,-47],[-110,-74],[4,-48],[-17,-20],[1,-39],[-10,-19],[-71,-56],[-69,17],[-15,-9],[35,-58],[30,-37],[-2,-17],[-76,-90],[-27,-62],[-20,-31],[-19,0],[-13,-41],[-39,-9],[-36,-27],[-64,19],[-35,-40],[-22,-5],[-17,18],[-37,-26],[-62,-22],[-21,2],[-14,-33],[-54,11],[-52,-13],[-24,32],[-31,-7],[-10,36],[57,26],[43,36],[23,28],[13,48],[-4,42],[-40,88],[-48,72],[-36,32],[-65,42],[-13,23],[-12,57],[7,37],[36,81],[-3,17],[-34,51],[-27,63],[12,75],[38,64],[50,58],[-1,26],[-44,68],[-26,28],[-68,40],[-62,106],[-34,40],[-23,42],[-6,34],[8,45],[66,173],[23,49],[7,46],[-3,40],[-22,94],[6,25],[28,23],[4,35],[-39,80],[-9,39],[0,57],[-9,27],[-36,45],[13,61],[9,76],[23,64],[23,12],[66,10],[59,-5],[24,20],[12,27],[2,67],[26,55],[15,59],[13,85],[43,46],[5,42],[-13,47],[19,62],[8,89],[-22,120],[-41,71]],[[5668,3131],[-24,15],[-16,30],[-27,4],[-36,40],[-56,-18],[-32,7],[-19,-28],[-23,5],[-18,-19],[-9,-64],[-11,-23],[7,-35],[-11,-50],[-4,-53],[-26,18],[-104,123],[-18,11],[-91,1]],[[5150,3095],[-24,106],[-14,99],[-30,97],[-26,68],[-19,71],[-119,5],[-31,5],[-25,-7],[-77,-40],[-48,-11],[-46,6]],[[478,4443],[71,17],[43,-11],[46,0],[33,19],[58,22],[46,27],[21,32],[19,8],[49,-7],[65,31],[19,16],[69,38],[64,4],[34,27],[43,6],[23,-8],[36,21],[37,2],[24,20],[21,-5],[59,40],[45,-25],[42,-66],[21,2],[15,20],[23,5],[52,-33],[37,-9],[54,-72],[22,-11],[25,9],[11,21],[39,31],[25,28],[49,92],[9,49],[-1,51],[17,36],[74,33],[20,18],[70,-15],[47,20],[41,52],[28,2],[36,61],[20,6],[14,72],[18,28],[18,48],[9,56],[28,11],[47,37],[37,8],[31,-11],[33,-28],[63,4],[21,-10],[40,-1],[45,32],[75,-10],[30,16],[46,-13],[84,3],[67,46]],[[3207,3195],[-9,-1]],[[308,3171],[-39,66],[-7,24],[7,49],[12,37],[22,101],[10,83],[12,29],[29,26],[59,33],[58,18],[31,-2],[15,-29],[-16,-59],[36,-29],[55,-2],[21,29],[6,68],[21,65],[22,33],[-3,42],[-14,21],[-44,30],[-91,51],[-55,57],[-14,47],[-1,34],[-44,54],[-19,4],[-71,-42],[-41,-41],[-17,-4],[-14,38],[1,42],[14,43],[-23,71],[4,13],[52,38],[84,35],[38,42],[66,-19],[12,38],[-10,52],[6,86]],[[3198,3194],[24,-98],[70,-211],[28,-100],[16,-104],[12,-44],[110,-274],[8,-48],[6,-173],[1,-132],[-2,-135],[6,-47],[-2,-83],[-37,-16],[-90,-67],[5,-76],[18,-80],[1,-83],[24,-221],[1,-136],[4,-44],[-59,-141],[-6,-79],[-17,-33]],[[3319,769],[-724,12],[-532,9],[-312,2],[-171,3],[-247,3],[-158,8]],[[7050,3125],[0,-65],[-6,-19],[0,-150],[-2,-319],[-3,-299],[-31,13],[-217,-2],[-5,-263],[-246,-2],[-7,-386],[-8,-623],[-9,-291],[-97,3],[-364,7],[-28,17],[-4,52],[-14,36],[-32,46],[-4,82],[-13,36],[-138,-1]],[[5822,997],[-1,-263],[-505,10]],[[5316,744],[-21,93],[-26,55],[-61,84],[-15,40],[-19,153],[15,264],[7,240],[-6,149],[-12,47],[-13,24],[-41,36],[3,28],[-19,73],[3,62],[24,53],[55,87],[27,34],[55,45],[-54,264],[0,45],[6,168],[-12,71],[-62,236]],[[5822,997],[0,144],[-99,0],[0,-143],[99,-1]],[[5316,744],[-115,-2],[-533,7],[-564,7],[-137,6],[-648,7]],[[4518,7103],[432,-6],[217,0]],[[478,4443],[5,57],[13,35],[-4,25],[-40,57],[-8,60],[13,50],[27,165],[4,62],[58,57],[45,52],[21,4],[35,-10],[12,14],[-7,91],[11,47],[-13,14],[-35,4],[-32,85],[-2,32],[-21,47],[-43,48],[28,68],[-21,36],[-31,17],[6,19],[46,21],[18,37],[-16,52],[4,74],[12,21],[56,39],[62,142],[34,15],[30,-4],[0,30],[-41,60],[0,55],[-9,57],[-16,41],[36,41],[23,41],[50,111],[2,29],[-12,94]]],"transform":{"scale":[0.00004110774458445485,0.00003109799352750795],"translate":[-84.538004,32.968657]},"objects":{"Geometry\\13-231":{"type":"GeometryCollection","geometries":[{"arcs":[[0,1]],"type":"Polygon","properties":{"GEOID":"132310102002"}},{"arcs":[[2,3,4,5]],"type":"Polygon","properties":{"GEOID":"132310101011"}},{"arcs":[[6,-5,7,8]],"type":"Polygon","properties":{"GEOID":"132310101022"}},{"arcs":[[-6,-7,9,10,11,12]],"type":"Polygon","properties":{"GEOID":"132310101013"}},{"arcs":[[-10,-9,13,14,15,16]],"type":"Polygon","properties":{"GEOID":"132310101021"}},{"arcs":[[-11,-17,17,18,19]],"type":"Polygon","properties":{"GEOID":"132310101012"}},{"arcs":[[20,21,22]],"type":"Polygon","properties":{"GEOID":"132310103003"}},{"arcs":[[-16,23,24,-18]],"type":"Polygon","properties":{"GEOID":"132310101023"}},{"arcs":[[25,-12,-20,26,-21,27]],"type":"Polygon","properties":{"GEOID":"132310103001"}},{"arcs":[[28,29,-22]],"type":"Polygon","properties":{"GEOID":"132310103002"}},{"arcs":[[-24,-15,30,31,32],[33]],"type":"Polygon","properties":{"GEOID":"132310104001"}},{"arcs":[[-19,-25,-33,34,-29,-27]],"type":"Polygon","properties":{"GEOID":"132310104002"}},{"arcs":[[-1,35,-3,-13,-26,36]],"type":"Polygon","properties":{"GEOID":"132310102001"}}]}}}