{"type":"Topology","arcs":[[[6319,5584],[57,17],[87,9],[37,8],[36,17],[54,40],[37,48],[29,52],[37,49],[61,63],[14,-10],[60,8]],[[6828,5885],[0,-44],[-13,-49],[-8,-55],[-21,-47],[17,-18],[-9,-23],[-3,-77],[4,-32],[16,-34],[24,-7],[31,-23],[9,-32],[33,-55],[35,-41],[144,-2],[0,31],[23,0],[23,45],[23,-11],[62,-51],[4,-29],[-6,-101],[9,-27],[25,-18],[40,-48],[14,-7],[73,-9],[30,-78]],[[7407,5043],[-12,-4],[-37,-44],[-13,-36],[-39,-61]],[[7306,4898],[-49,21],[-38,9],[-112,15],[-50,19],[-38,22],[-41,34],[-77,88],[-57,46],[-47,24],[-65,16],[-1,20],[-115,27],[-38,18],[-27,29],[-34,78],[-47,57],[-31,21],[-68,24],[-21,16],[-31,102]],[[7472,3394],[16,-9],[40,-6],[33,7],[71,29],[34,8],[31,-3],[55,-18],[53,-3],[32,8],[133,63],[85,28],[85,11]],[[8140,3509],[492,49]],[[8632,3558],[0,-12],[92,-39],[-17,-40],[29,-60],[11,-11],[9,-60],[34,-31],[47,2],[18,-15],[55,-12],[24,-14],[30,-40],[56,-50],[15,-19],[8,-42],[-22,-59],[1,-32],[14,-29],[45,-38]],[[9081,2957],[-99,-61],[-95,-46]],[[8887,2850],[-4,50],[-14,54],[-18,43],[-43,55],[-44,-18],[-13,8],[19,37],[-13,42],[-25,25],[-83,41],[-26,18],[-41,40],[-34,48],[-38,33],[-47,30],[-61,17],[-52,2],[-30,-13],[-34,-38],[-150,-253],[-94,-181],[-41,-68],[-111,-165],[-36,-42],[-23,-21]],[[7831,2594],[-13,43],[-9,53],[-45,45],[-23,39],[-85,67],[-51,48]],[[7605,2889],[-12,41],[-76,0],[-1,67],[-41,51],[-13,35],[-33,20],[-14,30],[6,51],[-8,35],[-15,27],[1,34],[35,42],[20,45],[18,27]],[[6377,11479],[26,-22],[37,-22],[105,-53],[34,-31],[31,-50],[88,-206],[64,-186],[13,-42]],[[6775,10867],[5,-45],[-1,-82],[-5,-62],[-19,-90],[-47,-151],[-26,-55],[-87,-134]],[[6595,10248],[-76,-117],[-58,-73],[-191,-212],[-46,-68],[-153,-282],[-22,-37],[-60,-81],[-146,-196],[-33,-48],[-163,-283]],[[5647,8851],[-92,9],[-210,62],[-29,7],[-193,35],[-283,52],[-362,65],[-212,37],[-170,31],[-441,82],[-221,41],[-344,68]],[[3090,9340],[282,835],[304,900],[57,116],[9,38],[115,249],[254,4],[-3,-273],[133,0],[3,123],[393,4],[3,142],[662,4],[1075,-3]],[[7896,6860],[33,54]],[[7929,6914],[179,77],[53,16],[184,4],[44,8],[30,14],[182,99]],[[8601,7132],[29,-63],[24,-70],[7,-35],[-1,-75],[5,-20],[55,-59],[19,-28],[26,-104],[-3,-50],[-48,-83],[-14,-52],[-3,-53],[-9,-32],[-44,-96],[-12,-16],[-25,-11]],[[8607,6285],[-43,58],[-301,275],[-71,53],[-59,31],[-106,46],[-56,33],[-36,31],[-39,48]],[[7309,2412],[72,5],[35,10],[331,120],[52,24],[32,23]],[[8887,2850],[-3,-44],[-27,-180]],[[8857,2626],[-27,-184]],[[8830,2442],[-277,-31],[-47,4],[-75,28],[-23,5],[-40,-8],[-136,-92],[-23,-20],[-26,-40],[-46,-94],[-28,-41],[-42,-31]],[[8067,2122],[-15,29],[-52,48],[-87,39],[-27,17],[-76,13],[-31,15],[-74,18],[-23,17],[-46,17],[-102,28],[-110,10],[-107,21],[-8,18]],[[6239,1989],[38,63],[75,150],[16,21]],[[6368,2223],[111,96],[46,28],[83,27]],[[6608,2374],[69,-110],[14,-27],[80,-176],[8,-43],[0,-62],[11,-30],[48,-71],[19,-20],[59,-36],[29,-14],[113,-12],[29,-13],[16,-22],[5,-56],[12,-47],[42,-55]],[[7162,1580],[-157,-84],[-46,-32],[-145,-117],[-32,-24]],[[6782,1323],[-53,-33],[-245,-128],[-103,-41],[-45,-12]],[[6336,1109],[1,77],[15,71],[-11,63],[-1,34],[9,13],[-9,34],[2,70],[0,204],[13,68],[-12,68],[-22,53],[-22,25],[-14,62],[-10,18],[-36,20]],[[8601,7132],[52,21],[44,10],[334,44],[31,14],[81,48],[65,26]],[[9208,7295],[81,33],[25,26],[59,152],[15,13],[0,25]],[[9388,7544],[13,29]],[[9401,7573],[-2,-158],[-5,-196],[5,-101],[-1,-88],[2,-155]],[[9400,6875],[-122,-2],[-40,4],[-19,12],[-38,-15],[-41,-42],[30,-30],[20,-97],[7,-66],[10,-32],[-3,-58],[-35,-33],[-5,-16],[-3,-71],[-10,-34],[-3,-38],[9,-80],[20,-27],[14,-38]],[[9191,6212],[-42,-23],[-132,-91],[-40,-19],[-40,-6],[-34,5],[-177,68],[-42,24],[-35,39],[-42,76]],[[8847,931],[62,21],[94,10],[53,14],[62,29],[41,28],[48,43]],[[9207,1076],[91,19],[30,-5],[34,-40],[20,-8],[120,-5],[76,27],[86,9],[43,18],[19,22],[27,9],[67,5],[41,29]],[[9861,1156],[1,-640],[-41,-1],[-480,0],[-3,-32],[-264,0]],[[9074,483],[-7,3],[-38,97],[-68,138],[-42,73],[-48,78],[-24,59]],[[4864,4420],[56,27],[27,-18],[57,24],[42,29],[29,-41],[33,46],[61,50],[26,1],[17,28],[10,50],[66,191],[19,44],[26,43]],[[5333,4894],[15,-32],[98,-28],[34,-20],[41,-36],[29,-12],[26,-48],[16,-43],[33,-15],[27,15],[44,48],[59,32],[38,24],[18,0],[-15,-46],[-5,-43],[-21,-38],[-12,-37],[34,-29],[18,4],[3,25],[29,14],[27,-57],[4,-40],[27,7],[15,-43],[28,10],[24,-22],[42,25],[19,22],[12,39],[32,13],[43,-19],[54,19],[35,-24],[38,5],[40,-3],[17,7],[43,-19],[52,-42],[11,-53],[23,-14],[68,2],[-23,-93],[-146,-588],[-14,-85]],[[6313,3676],[-2,-33],[-3,-189]],[[6308,3454],[-100,-29],[-56,0],[-36,16],[-38,40],[-64,112],[-24,27],[-53,34],[-136,51],[-31,0],[-106,-36],[-93,-18],[-64,-27],[-71,-45],[-35,-9]],[[5401,3570],[-28,13],[-72,59],[-43,7],[-42,-19],[-28,-4],[-99,16],[-96,34],[-21,-51],[-34,-63],[-40,-54],[-58,-51],[-49,-26]],[[4791,3431],[-24,12],[-11,30],[11,32],[2,60],[-12,24],[-34,27],[-1,20],[15,13],[-5,72],[-27,83],[-2,34],[10,8],[-13,54],[8,28],[-3,31],[10,16],[-1,35],[37,43],[10,27],[-8,25],[25,6],[7,22],[71,41],[26,26],[23,4],[-40,117],[-19,17],[4,17],[25,4],[-17,40],[6,21]],[[8170,982],[26,25],[2,49],[8,14],[58,51],[11,15],[-4,37],[-13,41],[3,42],[-9,28],[-23,29],[-25,0],[-17,21],[28,51],[24,20],[43,14],[61,49],[-18,12],[-179,-34],[62,125],[57,29],[43,-5],[69,-25],[109,2],[38,-8],[46,-24],[29,-6],[65,-2],[32,9],[77,42],[48,53]],[[8821,1636],[9,-143],[5,-147],[0,-332],[12,-83]],[[9074,483],[-136,-22],[-20,2],[-255,6],[-112,-16],[-393,-64],[-178,-33]],[[7980,356],[83,96],[89,83],[8,52],[9,199],[5,179],[-4,17]],[[7624,8400],[-5,-43],[7,-29],[0,-87],[39,-59],[34,-25],[47,-51],[41,-13],[47,12]],[[7834,8105],[11,-51],[20,-13],[70,-31],[46,-25],[11,-14],[6,-134],[5,-43],[43,-76],[10,-33],[3,-42],[39,-6],[8,-11],[41,17],[8,-48],[0,-27],[-35,-45],[-43,-14],[22,-33],[9,-31],[10,-88],[-8,-32],[6,-33]],[[8116,7292],[-33,-63],[-124,-256]],[[7959,6973],[-59,20],[-52,26],[14,-51],[7,-70],[-19,-10],[-16,-37],[12,-29],[-51,5],[-43,27],[-50,19],[-43,9],[-35,16],[-26,24],[-27,12],[-43,-9],[-51,26],[-4,69],[3,70],[6,59],[23,25],[29,6],[10,12],[4,73],[47,74],[-69,42]],[[7526,7381],[23,66],[-1,98],[-10,34],[8,43],[52,87],[12,41],[-7,26],[-14,18],[-46,40],[-13,71],[13,105],[-4,39],[-10,21],[-47,41],[-16,40],[-11,43],[-20,25],[5,56],[53,71],[30,13],[52,-7],[25,9],[24,39]],[[7312,7379],[90,0],[67,16],[22,-1],[35,-13]],[[7959,6973],[-30,-59]],[[7896,6860],[-49,-60]],[[7847,6800],[-55,-53],[-45,-33],[-367,-241],[-42,-28],[-63,-54],[-204,-184]],[[7071,6207],[-12,10],[-120,72],[-51,10],[-20,32],[2,117],[21,47],[40,20],[78,-5],[-2,23],[-33,35],[-67,24],[-47,25],[-62,14],[-16,13],[-46,74],[-40,27],[-11,18],[-24,-4],[-86,-1]],[[6575,6758],[0,109],[30,-3],[32,-12],[23,2],[49,-15],[25,12],[-12,101],[10,51],[150,388],[21,32],[27,22],[26,10],[40,-5],[197,-78],[23,-6],[96,13]],[[9400,6875],[-4,-7],[-4,-108],[3,-306],[316,-4],[186,-4],[1,-84],[4,-53],[-8,0],[0,-143],[-7,-102],[-3,-91]],[[9884,5973],[-12,-4]],[[9872,5969],[-26,71],[-22,35],[-35,33],[-30,19],[-44,15],[-278,75]],[[9437,6217],[-95,21],[-44,2],[-56,-9],[-51,-19]],[[8276,8576],[158,-164],[131,-141],[48,-59]],[[8613,8212],[-497,-920]],[[7834,8105],[0,67],[-4,56],[22,9],[44,3],[22,69],[4,39],[-30,30],[-55,20],[-15,37],[17,45],[34,29],[-10,20],[12,31],[30,-14],[13,9],[9,38],[270,-12],[79,-5]],[[7224,9675],[316,-255],[123,-122],[127,-142],[46,-3],[59,-17],[63,3],[35,14],[26,28],[23,36]],[[8042,9217],[19,-20],[14,-48],[20,-28],[-2,-32],[9,-56],[-34,5],[-23,20],[-36,4],[-29,-12],[3,-23],[-15,-15],[-44,2],[-54,31],[-58,17],[143,-154],[145,-151],[176,-181]],[[7624,8400],[4,66],[-35,39],[-57,20],[-41,38],[-9,35],[0,55],[8,17],[51,55],[38,80],[5,31],[-17,52],[14,74],[17,41],[-199,198],[-376,365]],[[7027,9566],[31,15],[59,-25],[21,-2],[47,10],[11,13],[4,39],[24,59]],[[8280,9455],[40,24],[44,44],[46,18],[101,5],[29,-4],[33,-16],[39,-7],[61,7],[41,-3]],[[8714,9523],[76,-33],[27,-8],[67,-10],[86,2],[102,-1],[39,16],[50,57],[35,10],[106,-2],[34,-8]],[[9336,9546],[-414,-763]],[[8922,8783],[-35,22],[-112,38],[-89,42],[-23,22],[-26,45],[-21,50],[-26,78],[-47,51],[-111,102],[-54,63],[-35,56],[-25,49],[-38,54]],[[9068,10481],[58,1],[37,7],[38,19],[78,15],[74,22],[75,-4]],[[9428,10541],[1,-477],[-7,-316],[-3,-54]],[[9419,9694],[-17,-26],[-66,-122]],[[8714,9523],[-17,46],[-12,45],[21,56],[33,9],[47,63],[-15,54],[4,16],[26,11],[-15,53],[37,-19],[19,10],[-27,26],[4,48],[-12,8],[-4,63],[24,11],[35,36],[19,2],[30,34],[-5,21],[24,21],[28,7],[25,-20],[16,12],[17,31],[26,19],[26,2],[22,27],[-15,19],[7,27],[-8,28],[6,33],[16,40],[-28,119]],[[6595,10248],[208,-157],[-4,-36],[52,-34],[39,38],[50,-129],[44,-41],[-21,-15],[-40,-45],[-42,-19],[-36,-40],[-18,-6],[200,-198]],[[7027,9566],[-9,-44],[5,-30],[-17,-75],[15,-13],[38,-55],[41,-83],[26,-14],[36,16],[27,4],[57,-47],[6,-36],[-14,-13],[-45,0],[-67,-21],[-64,7],[-17,-21],[11,-49],[1,-73],[5,-21],[17,-11],[50,6],[53,-20],[12,-17],[-17,-28],[-57,-32],[-47,-94],[-39,-28],[-38,-1],[-23,10],[-51,46],[-29,21],[-8,-23],[17,-36],[1,-47],[6,-20],[41,-17],[37,-22],[14,-22],[-7,-32]],[[6994,8631],[-487,3],[-25,3],[-273,79],[-225,54],[-337,81]],[[8857,2626],[46,-5],[105,-2],[38,-7],[31,-24],[57,29],[46,53],[40,23],[90,6],[28,8],[72,30],[40,7],[74,-15],[81,-12],[95,-4],[16,-41],[30,-23],[44,-13],[52,-3]],[[9842,2633],[-1,-268],[1,-131],[-4,-127],[1,-140]],[[9839,1967],[-81,82],[-47,27]],[[9711,2076],[-58,20],[-155,13],[-44,16],[-28,21],[-58,73],[-24,-4],[-136,-9],[-187,1],[-112,3],[-54,9],[-48,-4]],[[8807,2215],[10,120],[13,107]],[[6191,3097],[43,54],[27,59],[35,102],[12,74],[0,68]],[[6308,3454],[94,1],[60,13],[66,28],[61,8],[164,-17],[58,-18]],[[6811,3469],[0,-64],[-5,-53],[11,-81],[2,-64],[7,-62],[-2,-150],[-60,-4],[-35,28],[-16,-21],[1,-77],[-5,-177]],[[6709,2744],[2,-38],[16,-29],[-19,-44],[-21,-9],[-64,-46],[1,-28],[-24,-41],[-51,1]],[[6549,2510],[-60,141],[-75,129],[-30,34],[-55,36],[-114,120],[-20,42],[-4,85]],[[9711,2076],[-1,-14],[-22,-16],[20,-24],[-9,-19],[-82,-30],[-6,-25],[-16,-22],[-4,-23],[-17,-18],[3,-27],[13,-23],[-30,-40],[-19,-6],[-27,10],[-24,19],[-43,18],[18,17],[2,43],[-13,12],[-30,5],[-17,-20],[-37,13],[1,26],[-24,5],[-30,16],[-16,-16],[-21,13],[-25,-19],[-39,13],[-19,-5],[-23,31],[-30,2],[-10,-14],[19,-17],[-25,-14],[-33,-31],[-8,-40],[7,-20],[-6,-26],[-51,-26],[-43,-41],[-49,-6],[-38,4],[-36,-4],[-29,-36],[-21,-65]],[[8821,1636],[-14,210],[-6,174],[2,105],[4,90]],[[437,4710],[19,45],[71,43],[46,4],[19,10],[163,157],[37,50],[30,59],[21,28],[52,46],[37,24],[22,8],[148,30],[47,20],[253,155],[29,11],[58,10],[116,57],[23,26],[35,87]],[[1663,5580],[97,-140],[31,-73],[7,-39],[-2,-66],[-12,-47],[-46,-91]],[[1738,5124],[-52,-94],[-17,-39],[-6,-44],[-1,-105],[-4,-33],[-16,-58],[-48,-116],[-28,-49],[-30,-35],[-54,-86],[-37,-49]],[[1445,4416],[-28,-6],[-53,-22],[-25,-6],[-107,5],[-70,-49],[-52,-13],[-58,9],[-55,-20],[-11,-17],[-71,-13],[-77,1],[-5,-44],[-13,-37],[-14,-78],[-19,-8],[-57,1],[-68,-23],[-85,-42],[-26,-45],[-39,-21],[-29,-3],[112,233],[12,34],[17,93],[2,24],[-15,74],[-26,13],[-63,47],[-44,4],[-40,17],[-5,145],[4,41]],[[7433,1735],[150,125],[60,36]],[[7643,1896],[127,-124],[12,-16],[45,-95],[25,-31],[1,-24],[-11,-59],[14,-34],[-14,-30],[-6,-79],[-1,-76],[5,-32],[36,-74]],[[7876,1222],[-5,-4],[-65,38],[-84,5],[-21,7],[-32,34],[-26,49],[-84,40],[-40,6],[-21,39],[-44,93],[-9,36],[6,51],[3,77],[-21,42]],[[8276,10688],[-8,-38],[-18,-38],[-2,-57],[78,-2],[25,-32],[32,-30],[44,52],[14,35],[24,24],[41,57],[54,38],[66,18],[74,-52],[66,-18],[56,-67],[15,-30],[29,-103]],[[8866,10445],[-36,-18],[-20,-19],[-51,-76],[-29,-19],[-60,-28],[-41,-26],[-19,-29],[-16,-90],[-28,-68],[-16,-70],[-22,-74],[-20,-42],[-27,-10],[-45,-1],[-15,-7],[-37,-36]],[[8384,9832],[-22,40],[3,74],[-15,55],[-20,46],[-32,44],[-34,32],[-3,44],[-17,29],[0,40],[-15,45],[-15,23],[-33,23],[-54,8],[-36,39],[-73,17],[-31,18],[-52,58],[-35,3],[-14,-11]],[[7886,10459],[-49,3],[-17,41],[3,23],[16,54],[-8,50],[35,28],[27,2],[34,-50],[23,-21],[3,-42],[14,-41],[27,-14],[20,7],[29,35],[47,33],[21,22],[16,32],[-16,70],[31,45],[-14,53],[28,15],[50,-17],[14,-11],[56,-88]],[[5741,2622],[110,169]],[[5851,2791],[4,5]],[[5855,2796],[38,-13],[21,-65],[14,-67],[31,-45],[40,-36],[16,-22],[11,-42],[171,3],[4,-43],[14,-37],[50,-77],[13,-46],[12,-84],[78,1]],[[6239,1989],[-42,-54],[-67,-65],[-54,-39],[-89,-47],[-182,-75],[-56,-17]],[[5749,1692],[-42,-6],[-44,9],[-92,30],[-116,9],[-132,13],[-153,2],[274,419],[297,454]],[[5855,2796],[26,35],[40,40],[232,192],[38,34]],[[6549,2510],[59,-136]],[[8276,10688],[9,-5],[39,27],[23,26],[47,77],[18,76],[-2,62],[47,37],[16,48],[48,46],[18,11],[19,-7],[46,-31],[59,-26],[36,-6],[3,-30],[34,-25],[40,18],[28,46],[15,40],[14,113],[-12,57],[11,23],[27,12],[91,-3],[21,34],[63,31],[60,5],[67,21],[100,50],[89,28],[56,2],[41,-3]],[[9447,11442],[0,-82],[-9,-79],[-6,-381],[-4,-330],[0,-29]],[[9068,10481],[-96,-4],[-52,-19],[-54,-13]],[[8276,9583],[17,46],[4,70],[19,49],[68,84]],[[8280,9455],[1,4]],[[8281,9459],[-17,44],[0,42],[12,38]],[[7162,1580],[30,-33],[16,-30],[9,-36],[18,-126],[35,-125],[8,-41],[6,-69],[19,-59],[60,-108],[12,-28],[8,-42],[-3,-102]],[[7380,781],[0,-60],[11,-40],[19,-25],[52,-48],[26,-18],[82,-39],[26,-20],[27,-33],[44,-78],[42,-56],[53,-48]],[[7762,316],[-202,-36],[12,-88],[-778,-40]],[[6794,152],[27,43],[-22,29],[0,28],[20,10],[13,30],[52,24],[43,27],[37,30],[45,26],[11,16],[10,42],[-18,41],[36,28],[10,42],[-96,109],[-12,20],[-2,75]],[[6948,772],[72,-7],[59,-23],[37,5],[31,-20],[48,36],[55,13],[27,22],[11,18],[-15,13],[-77,91],[-16,28],[-39,22],[-59,16],[-54,39],[-45,44],[-51,57],[-47,36],[-18,21],[-11,35],[-21,37],[-21,21],[-32,47]],[[5887,1059],[106,19],[226,15],[56,5],[61,11]],[[6336,1109],[2,-76],[12,-13],[51,-32],[38,-40],[93,-43],[45,-23],[32,-28],[55,-61]],[[6664,793],[7,-104],[10,-100],[19,-47],[-4,-72],[-115,0],[-76,12],[-45,-1],[-50,-23],[-55,-55],[-20,-11],[-68,-11],[-61,-1],[-68,5],[-108,36],[-18,18],[-44,67],[-40,2]],[[5928,508],[-16,117],[3,63],[-4,56],[10,118],[-1,22],[-27,91],[-6,84]],[[7380,781],[61,32],[20,5],[37,38],[30,-10],[47,22],[35,-1],[21,29],[6,21],[21,1],[54,25],[22,28],[33,6],[48,36],[67,46],[-5,25],[46,30],[42,8],[15,11]],[[7980,1133],[48,-15],[19,-18],[41,-56],[82,-62]],[[7980,356],[-218,-40]],[[7162,1580],[180,94],[60,37],[31,24]],[[7876,1222],[11,-44],[17,-27],[29,-16],[47,-2]],[[6608,2374],[74,19],[84,47],[44,34],[46,21],[34,4],[151,-5],[65,-16],[110,-45],[42,-14],[51,-7]],[[8067,2122],[-234,-141],[-64,-32],[-126,-53]],[[9419,9694],[-4,-122],[-3,-566],[1,-361],[-1,-139],[-5,-120],[0,-107],[-3,-268],[-1,-181],[-2,-257]],[[9388,7544],[-1,33],[-15,50],[-51,67],[-27,65],[-25,44],[-98,107],[-17,27],[-58,123],[-18,61],[-32,207],[-5,62],[0,257],[-17,58],[-29,33],[-73,45]],[[7844,10155],[34,-20],[12,-36],[15,-4],[21,38],[5,36],[-12,79],[-14,65],[12,43],[-2,25],[-32,74]],[[7883,10455],[3,4]],[[8276,9583],[-25,9],[-70,-135],[-237,140],[21,32],[21,14],[35,5],[28,15],[-36,42],[-4,30],[8,32],[-11,22],[-57,19],[-8,30],[24,70],[-22,11],[-39,-6],[-38,56],[-21,60],[-4,37],[-36,34],[-1,18],[18,23],[22,14]],[[8281,9459],[-97,-50],[-92,-68],[-16,-17],[-15,-36],[-7,-46],[-12,-25]],[[7224,9675],[11,28],[28,39],[4,42],[-9,30],[2,23],[25,14],[57,-2],[9,13],[7,72],[30,36],[-5,35],[-16,22],[2,17],[20,35],[19,19],[24,-3],[10,-15],[-13,-51],[27,-35],[12,-39],[24,-25],[13,0],[68,106],[41,10],[51,67],[9,24],[-4,53],[15,36],[36,8],[53,-26],[46,-31],[24,-22]],[[5887,1059],[-70,-14]],[[5817,1045],[-20,59],[-18,26],[-38,75],[7,33],[20,23],[-5,88],[3,39],[-8,61],[-10,227],[1,16]],[[6948,772],[-127,-2],[-37,8],[-26,-3],[-3,19],[-35,-4],[-56,3]],[[1738,5124],[105,3],[3,-19],[20,-39],[41,-44],[26,-16],[31,-41],[4,-33],[19,-42],[37,-54],[26,-48],[8,-31],[11,-103],[11,-30],[60,-107],[4,-27],[-5,-90],[-6,-32],[31,-84],[62,-91],[40,-75],[25,-34],[78,-62],[87,-78]],[[2456,3947],[-50,-55],[-36,-78],[-23,-92],[6,-53],[-1,-125],[-22,-71],[1,-19],[21,-46],[1,-65],[6,-18],[42,-65],[62,-55],[57,-24],[62,-12],[37,-17],[71,-68],[24,-16],[46,-17],[47,2],[78,-9],[92,-58],[35,-11],[48,-23],[8,-16],[2,-40],[11,-5],[73,-1],[8,-17]],[[3162,2873],[-346,-91],[-152,-44],[-530,-171]],[[2134,2567],[-39,-12]],[[2095,2555],[-25,51],[-19,21],[-56,42],[-40,48],[-37,69],[-31,73],[-11,43],[-15,129],[-17,59],[-24,46],[-141,225],[-26,53],[-13,44],[-6,52],[-3,81],[-5,37],[-20,43],[-37,37],[-81,53],[-33,26],[-26,31],[-34,58],[-10,39],[0,32],[2,355],[6,36],[26,48],[26,30]],[[410,4706],[27,4]],[[2095,2555],[-155,-50],[-362,-111],[-1151,-357],[-45,-13]],[[382,2024],[1,273],[-4,185],[7,137],[6,231],[-1,173],[3,173],[-3,125],[1,109],[7,58],[-9,76],[9,179],[11,963]],[[5888,5757],[2,-24],[25,-31],[34,-27],[27,-45],[20,-71],[20,-28],[49,-31],[186,-71],[46,-22],[-9,-57],[14,-51],[-42,-8],[-31,-24],[-37,-37]],[[6192,5230],[-53,17],[-42,3],[-243,-8],[-50,4],[-41,13],[-179,86],[-48,15],[-38,3],[-137,4],[-38,-6],[-50,-27],[-72,-67],[-23,-18],[-44,-16],[-121,-25]],[[5013,5208],[-5,6]],[[5008,5214],[-37,43],[-27,21],[-44,13],[-91,-1]],[[4809,5290],[-29,42],[-10,24],[-1,58],[29,29],[18,8],[18,22],[14,43],[15,23],[14,-9],[32,4],[32,-20],[42,29],[0,21],[28,17],[13,37],[22,20],[27,10],[31,1],[37,-29],[45,-1],[24,14],[24,1],[15,27],[15,9],[34,-2],[66,6],[35,28],[9,21],[67,9],[10,8],[17,61],[57,68],[21,7],[15,-18],[61,-43],[51,-7],[31,7],[56,-8],[94,-50]],[[8633,8249],[289,534]],[[9208,7295],[-38,68],[-23,23],[1,52],[-20,42],[-4,22],[-19,30],[-12,-1],[-11,-27],[-24,-3],[-24,36],[-28,27],[1,35],[-42,18],[-19,56],[-13,18],[-7,39],[8,38],[-15,18],[-35,-8],[-16,-18],[-13,8],[2,38],[10,16],[-8,19],[-20,-8],[-12,-31],[-22,6],[7,29],[-30,62],[-17,13],[-51,80],[-28,32],[-36,66],[-23,27],[-1,28],[14,26],[-7,78]],[[8459,5301],[46,26],[417,212]],[[8922,5539],[218,111]],[[9140,5650],[22,-75],[35,-78],[12,-73],[-2,-169],[-6,-44],[-30,-104],[-35,-114]],[[9136,4993],[-50,3],[-67,-1],[-25,4],[-85,40],[-142,60],[-191,110],[-89,74],[-28,18]],[[9136,4993],[-54,-179],[-14,-39],[-47,-112],[-19,-62],[-20,-93],[-16,-57],[-33,-94]],[[8933,4357],[-80,32],[-74,34],[-132,68],[-58,46]],[[8589,4537],[-25,26],[-35,46],[-130,242]],[[8399,4851],[-34,49],[-57,56],[-59,41],[-40,18]],[[8209,5015],[19,33],[121,148],[64,71],[46,34]],[[8109,5349],[132,-17],[121,-1],[26,-3],[71,-27]],[[8209,5015],[-47,14],[-78,10],[-360,22],[-191,12],[-69,-8]],[[7464,5065],[3,11],[47,45],[64,85],[41,38],[105,75],[42,23],[29,9],[111,24],[42,3],[92,-9],[69,-20]],[[6192,5230],[38,-26],[101,-91]],[[6331,5113],[-30,-44],[-10,-25],[1,-76],[-7,-30],[-29,-64],[-14,-20],[3,-20]],[[6245,4834],[-4,-22],[-16,-10],[-45,1],[-30,21],[-38,6],[-67,3],[-55,-9],[-26,19],[-25,47],[-41,10],[26,29],[6,19],[-3,55],[-24,43],[-3,63],[-16,-6],[-66,-8],[-22,7],[-27,37],[-29,-16],[-328,-152],[-33,-21],[-46,-56]],[[4864,4420],[37,51],[-10,24],[9,19],[-23,12],[4,22],[-13,37],[-18,2],[-18,56],[-23,25],[-17,45],[-16,28],[-9,44],[33,32],[20,4],[13,27],[34,31],[14,20],[31,15],[19,0],[17,15],[39,17],[4,16],[38,25],[43,3],[45,24],[11,35],[70,42],[-30,50],[0,15],[-84,3],[-28,10],[-43,39]],[[6794,152],[-66,-3],[-149,-9],[0,-93],[-440,-19],[-350,-10]],[[5789,18],[5,193],[10,105],[11,25],[45,21],[39,50],[28,69],[1,27]],[[7407,5043],[57,22]],[[8399,4851],[-42,-36],[-34,-54],[-117,0]],[[8206,4761],[-663,3],[-42,-3],[-82,-18],[-63,-3],[-41,10],[-56,30]],[[7259,4780],[17,30],[10,48],[20,40]],[[5851,2791],[-100,1],[-58,6],[-43,42],[-25,9],[-63,-2],[-34,34],[-13,73],[15,125],[0,66],[-11,28],[-31,47],[-45,56],[-7,33],[-36,37],[12,43],[-15,42],[16,52],[-12,87]],[[8633,8249],[-20,-37]],[[7312,7379],[-3,55],[11,23],[-13,50],[-1,42],[-8,47],[-50,17],[-12,-4],[-44,7],[-43,14],[-35,26],[-14,25],[-4,47],[-21,23],[-13,31],[-25,23],[8,33],[-14,82],[-24,92],[-20,132],[-15,32],[0,18],[16,32],[15,6],[30,-10],[-2,70],[-33,53],[20,12],[17,-5],[8,19],[-35,23],[5,16],[-13,36],[-50,20],[12,22],[1,40],[-21,21],[-23,6],[-7,54],[58,0],[24,22]],[[9437,6217],[-81,-139],[-21,-28],[-26,-21],[-67,-44],[-33,-29],[-12,-18],[-36,-96],[-18,5],[-160,-1],[-39,-26],[-117,-2],[-13,-9],[5,-42],[19,-10],[222,-3],[22,9],[45,-17],[-2,-42],[15,-54]],[[8922,5539],[-3,12],[-32,4],[-7,21],[-18,3],[-77,-7],[-26,25],[-49,-12],[-28,-32],[-31,-15],[-67,-1],[-22,8],[-4,105],[-40,40],[-23,31],[-4,36],[-36,84],[-21,27],[-52,13],[-20,20],[-25,5],[13,26],[57,168],[119,111],[45,57],[36,17]],[[6313,3676],[24,29],[52,30],[16,15],[76,47],[56,17],[37,3],[31,49],[67,53],[40,2],[27,13],[35,50],[33,27],[22,40],[26,15],[37,65],[21,17],[55,8],[10,-6],[72,2],[35,-15],[39,-28],[41,-16],[69,-18],[30,-25],[24,-41],[38,-12],[22,28],[19,46]],[[7367,4071],[-1,-21],[18,-28],[8,-34],[-28,-53],[-61,-71],[-6,-101],[10,-72],[46,-21],[67,-56],[5,-29],[-37,-34],[-23,-29],[-8,-22],[-5,-64]],[[7352,3436],[-295,1],[-125,-6],[-30,1],[-42,13],[-49,24]],[[9136,4993],[98,-4],[24,-7],[351,-125],[44,-12],[210,-40]],[[9863,4805],[-1,-84],[-5,-223],[3,-246],[-3,-33],[3,-100],[-5,-129]],[[9855,3990],[-22,10],[-464,184]],[[9369,4184],[-436,173]],[[8589,4537],[0,-32],[12,-54],[-3,-73],[-13,-34],[-8,-105],[-64,-2],[-20,-7]],[[8493,4230],[-86,-12],[-47,-14],[-16,33],[-71,59],[-40,7],[-28,13],[-36,3]],[[8169,4319],[11,74],[2,181],[5,47],[18,79],[1,61]],[[7367,4071],[-24,35],[-28,14],[-16,44],[-2,39],[7,39],[31,32],[7,75],[8,23]],[[7350,4372],[22,56],[33,-42],[24,-16],[28,-7],[55,-32],[35,-5],[55,6],[20,-3],[54,-23],[26,-37],[41,-21],[105,-26],[114,-1],[127,-33],[66,-4]],[[8155,4184],[3,-86],[-7,-55],[-26,-112],[-4,-53],[19,-96],[3,-37],[-8,-90],[5,-146]],[[7472,3394],[-41,27],[-29,12],[-50,3]],[[6331,5113],[128,-117],[58,-35],[57,-11],[43,3],[170,43],[33,6],[49,-2],[45,-13],[26,-14],[319,-193]],[[7259,4780],[-34,-32],[-22,-9],[-69,-58],[-35,-21],[-78,-1]],[[7021,4659],[-133,2],[9,-58],[-30,-84],[-64,68],[-43,67],[-44,6],[-88,5],[-89,-129],[-22,-7],[-1,58],[-20,27],[-81,39],[-36,25],[-26,33],[-11,47],[-52,35],[-45,41]],[[7021,4659],[0,-18],[42,-48],[102,-66],[185,-155]],[[8169,4319],[-13,-92],[-1,-43]],[[8632,3558],[4,33]],[[8636,3591],[42,87],[36,111],[27,72],[131,315],[19,53],[28,95],[14,33]],[[9369,4184],[-5,-257],[-2,-48],[-45,0],[-88,-25],[-6,-16],[27,-81],[5,-70],[-6,-20]],[[9249,3667],[6,-50],[-2,-53],[-8,-52],[4,-34],[23,-55],[12,-84],[22,-34],[-25,-34],[0,-26],[-68,-117],[14,-11],[-22,-84],[-16,-20],[-108,-56]],[[8493,4230],[22,-26],[76,-70],[25,-42],[-7,-139],[-48,-31],[-9,-54],[9,-19],[50,-64],[7,-42],[-14,-51],[0,-47],[8,-33],[24,-21]],[[6775,10867],[15,16],[18,56],[39,11],[94,-15],[62,9],[37,25],[44,-4],[32,-28],[17,-50],[44,-69],[29,-18],[17,-23],[84,-67],[55,-3],[34,-32],[82,-50],[31,-10],[28,-20],[9,-24],[9,-57],[28,-34],[30,-25],[73,-46],[19,-9],[103,-15],[58,47],[17,23]],[[2134,2567],[55,-67],[26,-22],[24,-12],[96,-26],[64,-25],[122,-62],[122,-45],[33,-6],[64,6],[84,-11]],[[2824,2297],[49,-65],[11,-29],[32,-152],[4,-24],[13,-10],[40,-101],[36,-41],[-5,-45],[-22,-36],[-3,-28],[25,-100],[11,-26],[54,-72],[49,-38],[90,-42],[19,-12],[72,-74],[12,-22],[0,-79],[4,-69],[7,-39],[48,-95],[17,-67],[18,-25],[49,-15],[12,-19],[-15,-54],[2,-132],[-3,-31],[-31,-77],[2,-21],[14,-24],[38,-43]],[[3473,590],[-168,52],[-129,39],[-784,246],[-444,99],[-239,76],[-53,12],[-133,15],[-133,20],[-207,47],[-199,47],[-610,142],[3,249],[1,236],[4,154]],[[2824,2297],[31,-2],[21,7],[48,33],[39,16],[42,0],[249,-87],[35,-32],[137,-226],[21,-26],[137,-110],[49,-49],[16,-21],[120,-204],[38,-31],[102,-29],[50,0],[118,40],[55,-1],[105,-34],[78,-34],[32,-3],[73,1],[87,14],[24,-3],[24,-17],[79,-74]],[[4634,1425],[6,-6],[-1,-93],[-52,-42],[-36,-56],[-26,-29],[-22,-70],[-30,-14],[-25,-29],[-17,-74],[1,-30],[-15,-94],[-1,-19],[22,-31],[13,-68],[19,-38],[27,-10],[77,-58],[17,-9],[76,-14],[51,-21]],[[4718,620],[-63,-329],[-27,-113]],[[4628,178],[-134,44],[-99,43],[-414,167],[-508,158]],[[6709,2744],[66,-9],[31,13],[4,25],[27,7],[14,-10],[54,-5],[39,38],[58,-1],[19,8],[62,-57],[20,21],[39,15],[23,-17],[-2,-22],[-25,-41],[4,-45],[31,-32],[20,-35],[62,-23],[47,8],[29,28],[47,11],[52,-36],[32,1],[2,116],[7,31],[-2,40],[5,89],[97,4],[21,-8],[13,31]],[[9140,5650],[395,201],[39,16],[178,60],[120,42]],[[9884,5973],[-3,-81],[-1,-143],[-10,-143],[-3,-132],[4,-139],[12,-25],[-8,-29],[-4,-52],[-2,-186],[-6,-238]],[[9207,1076],[51,70],[64,113],[80,95],[43,30],[92,17],[31,14],[50,40],[28,15],[102,46],[27,37],[44,108],[17,31]],[[9836,1692],[-1,-117],[33,0],[-7,-419]],[[4718,620],[15,77],[5,51],[14,271],[7,60],[11,41],[26,56],[60,91],[266,-31],[69,-13],[46,-20],[316,-161],[63,-24],[70,0],[131,27]],[[5789,18],[-614,-18],[-547,178]],[[6575,6758],[-170,-2],[-30,-7],[-31,-30],[-38,-68],[-7,-39],[-3,-151],[-15,-110],[5,-35],[31,-101],[-11,-38],[-17,-17],[-76,-56]],[[6213,6104],[-41,161],[-134,461],[-35,123],[-23,55],[-96,172],[-26,36],[-74,88],[-26,36],[-20,52],[-14,91],[-20,62]],[[5704,7441],[-95,206],[-17,35],[-32,46],[-92,99],[-36,47],[-18,40],[-8,57],[5,46],[140,547],[44,188],[12,30],[40,69]],[[2049,6591],[102,-257],[24,-55],[41,-71],[45,-58],[63,-61],[62,-46],[408,-246],[51,-25],[82,-29],[-14,-20],[-142,-81],[-28,-29],[-65,-91],[-40,-36],[-30,-13],[-53,-2],[-40,14],[-72,42],[-37,13],[-28,0],[-33,-13],[-65,-42],[-54,-9],[-34,8],[-67,43],[-52,26],[-43,12],[-73,5],[-150,-1],[-57,9],[-55,19],[-47,28],[-1,-16],[16,-29]],[[410,4706],[2,127],[-268,-1],[-10,5],[-94,-3],[-40,5],[9,1090],[5,705],[723,-16],[113,-2],[673,-17],[13,3],[513,-11]],[[5704,7441],[-8,0],[-270,46],[-38,-1],[-55,-30],[-22,-6],[-30,12],[-12,15],[-29,-50],[-4,-26],[-28,-33],[-39,-22],[-56,-57],[-22,-42],[-46,-43],[-11,-44],[-13,-19],[-38,-15],[-14,-16],[-5,-33],[-37,-46],[-108,-12],[-34,-20],[-56,-18],[-52,-39],[-18,-43],[-24,-30],[-42,-95],[-59,-46],[-18,-25],[-19,-46],[17,-59],[-1,-16],[-49,-37],[-16,-45],[-20,-40],[-59,22],[-8,-27],[-23,-10],[-20,23],[-45,6],[-20,-12],[-26,-52],[-41,-26],[-45,-5],[-35,-18],[-53,-7]],[[4053,6354],[-11,72],[7,51],[17,78],[3,41],[-18,42],[-96,135],[-41,63],[-28,24],[-68,26],[-36,31],[-44,95],[-61,42],[-63,40],[-130,115],[-28,18],[-44,6],[-76,-23],[-52,-2],[-135,40],[-28,4],[-220,-42],[-33,3],[-32,19],[-64,110],[-33,22],[-172,55],[-121,-6]],[[2446,7413],[93,280],[104,316],[83,243],[49,153],[315,935]],[[2049,6591],[117,-3],[42,122],[238,703]],[[4053,6354],[52,-300],[14,-31],[22,-24],[75,-53],[41,-42],[15,-42],[18,-214],[17,-46],[32,-49],[13,-32],[38,-192],[12,-34],[20,-25],[49,-22],[124,-11],[26,3],[66,39],[38,10],[84,1]],[[5008,5214],[-387,-81],[-79,-6],[-51,8],[-170,42],[-36,7],[-280,37],[4,-24],[38,-99],[25,-44],[-6,-39],[23,-56],[-2,-34],[-35,-48],[-29,-63],[-30,-27],[7,-36],[-7,-29],[-25,-13],[-54,-68],[-5,-51],[-22,-66],[-11,-78],[-27,-31],[-44,-9],[-39,-21],[-48,-60],[-27,-51],[-21,-27],[-51,-40],[-30,-11],[-39,-1],[-32,19],[-58,23],[-57,-2],[-42,-80],[-56,-31],[-19,0],[-74,44],[-18,1],[-67,-14],[-60,-38],[-33,4],[-18,27],[-43,-6],[-92,-84],[-28,-15],[-57,-7],[-47,18],[-25,1],[-30,-15],[-71,-17],[-66,-46],[-101,-30]],[[3162,2873],[463,121],[69,29],[37,27],[60,58],[33,23],[79,38],[131,41],[84,20],[83,8],[42,8],[41,15],[65,40],[71,69],[54,32],[68,12],[157,-3],[40,5],[52,15]],[[5741,2622],[-16,-3],[-72,-55],[-79,-69],[-20,-28],[-66,-108],[-21,-30],[-27,-27],[-89,-68],[-202,-113],[-145,-62],[-47,-22],[-18,-14],[-26,-39],[-69,-177],[-31,-74],[-25,-41],[-78,-101],[-26,-41],[-50,-125]],[[6213,6104],[35,-149],[6,-43],[-6,-84],[0,-72]],[[6248,5756],[-86,5],[-12,7],[-22,50],[-45,35],[-71,5],[-11,-71],[-23,-8],[-31,8],[-29,-7],[-30,-23]],[[8109,5349],[-15,48],[-68,181],[-24,58],[-58,131],[-88,181],[-16,62],[6,45],[60,235],[8,65],[-14,105],[-2,102],[-3,32],[-27,147],[-21,59]],[[6248,5756],[59,-133],[12,-39]],[[7071,6207],[-32,-29],[-214,-219],[6,-34],[-3,-40]],[[6377,11479],[913,-1],[1108,-3],[670,-1],[289,-1],[91,-1],[-1,-30]],[[9855,3990],[-2,-48],[-2,-232],[0,-154]],[[9851,3556],[-33,-3],[-178,27],[-184,48],[-100,12],[-84,26],[-23,1]],[[9839,1967],[-2,-95],[-1,-180]],[[9851,3556],[-2,-3],[1,-110],[-7,-5],[4,-240],[0,-205],[-6,-329],[1,-31]]],"transform":{"scale":[0.00003307483336699627,0.000026811618184985147],"translate":[-85.05031,33.774758]},"objects":{"Geometry\\13-223":{"type":"GeometryCollection","geometries":[{"arcs":[[0,1,2,3]],"type":"Polygon","properties":{"GEOID":"132231203011"}},{"arcs":[[4,5,6,7,8,9,10]],"type":"Polygon","properties":{"GEOID":"132231205032"}},{"arcs":[[11,12,13,14,15]],"type":"Polygon","properties":{"GEOID":"132231201041"}},{"arcs":[[16,17,18,19]],"type":"Polygon","properties":{"GEOID":"132231202031"}},{"arcs":[[20,-9,21,22,23,24]],"type":"Polygon","properties":{"GEOID":"132231205031"}},{"arcs":[[25,26,27,28,29,30]],"type":"Polygon","properties":{"GEOID":"132231206052"}},{"arcs":[[31,32,33,34,35,36,-19]],"type":"Polygon","properties":{"GEOID":"132231202032"}},{"arcs":[[37,38,39,40]],"type":"Polygon","properties":{"GEOID":"132231206012"}},{"arcs":[[41,42,43,44,45,46]],"type":"Polygon","properties":{"GEOID":"132231203031"}},{"arcs":[[47,48,-41,49,50]],"type":"Polygon","properties":{"GEOID":"132231206041"}},{"arcs":[[51,52,53,54,55]],"type":"Polygon","properties":{"GEOID":"132231201081"}},{"arcs":[[56,-55,57,-17,58,59,60,61]],"type":"Polygon","properties":{"GEOID":"132231201082"}},{"arcs":[[62,63,64,65,-36]],"type":"Polygon","properties":{"GEOID":"132231202033"}},{"arcs":[[66,67,-53,68]],"type":"Polygon","properties":{"GEOID":"132231201083"}},{"arcs":[[69,70,-69,-52,71,72]],"type":"Polygon","properties":{"GEOID":"132231201103"}},{"arcs":[[73,74,75,76]],"type":"Polygon","properties":{"GEOID":"132231201071"}},{"arcs":[[77,78,79,-75,80]],"type":"Polygon","properties":{"GEOID":"132231201073"}},{"arcs":[[81,82,83,-14]],"type":"Polygon","properties":{"GEOID":"132231201113"}},{"arcs":[[-23,84,85,86,87,88]],"type":"Polygon","properties":{"GEOID":"132231206033"}},{"arcs":[[89,90,91,92,93]],"type":"Polygon","properties":{"GEOID":"132231205053"}},{"arcs":[[-88,94,95]],"type":"Polygon","properties":{"GEOID":"132231206034"}},{"arcs":[[96,97,98,99]],"type":"Polygon","properties":{"GEOID":"132231204013"}},{"arcs":[[100,101,102]],"type":"Polygon","properties":{"GEOID":"132231206043"}},{"arcs":[[103,104,105,106]],"type":"Polygon","properties":{"GEOID":"132231201053"}},{"arcs":[[107,108,109,-26,110,111]],"type":"Polygon","properties":{"GEOID":"132231205042"}},{"arcs":[[112,-94,113,-27,-110]],"type":"Polygon","properties":{"GEOID":"132231205054"}},{"arcs":[[114,115,-78,116,-104]],"type":"Polygon","properties":{"GEOID":"132231201051"}},{"arcs":[[117,-105,-117,-81,-74,118,119]],"type":"Polygon","properties":{"GEOID":"132231201072"}},{"arcs":[[-29,120,121,122,123,124]],"type":"Polygon","properties":{"GEOID":"132231206072"}},{"arcs":[[125,126,127,128]],"type":"Polygon","properties":{"GEOID":"132231206073"}},{"arcs":[[129,130,-51,131,-122]],"type":"Polygon","properties":{"GEOID":"132231206061"}},{"arcs":[[132,-103,133,-130,-121]],"type":"Polygon","properties":{"GEOID":"132231206062"}},{"arcs":[[134,-25,135,-101,-133,-28]],"type":"Polygon","properties":{"GEOID":"132231205033"}},{"arcs":[[-76,-80,136,-34,137]],"type":"Polygon","properties":{"GEOID":"132231201061"}},{"arcs":[[138,139,-106,-118,140]],"type":"Polygon","properties":{"GEOID":"132231201104"}},{"arcs":[[-141,-120,141,-70,142]],"type":"Polygon","properties":{"GEOID":"132231201101"}},{"arcs":[[-111,-31,-126,143,144]],"type":"Polygon","properties":{"GEOID":"132231206054"}},{"arcs":[[-30,-125,145,-127]],"type":"Polygon","properties":{"GEOID":"132231206071"}},{"arcs":[[-99,146,147,148,149,150]],"type":"Polygon","properties":{"GEOID":"132231204033"}},{"arcs":[[151,-100,-151,152,153]],"type":"Polygon","properties":{"GEOID":"132231204032"}},{"arcs":[[154,155,156,157,158]],"type":"Polygon","properties":{"GEOID":"132231203052"}},{"arcs":[[159,-138,-33,160]],"type":"Polygon","properties":{"GEOID":"132231201092"}},{"arcs":[[161,162,163,164]],"type":"Polygon","properties":{"GEOID":"132231202052"}},{"arcs":[[-165,165,166,167,168,169]],"type":"Polygon","properties":{"GEOID":"132231202051"}},{"arcs":[[170,-170,171,172]],"type":"Polygon","properties":{"GEOID":"132231202081"}},{"arcs":[[-156,173,174,175,-42,176]],"type":"Polygon","properties":{"GEOID":"132231203072"}},{"arcs":[[-128,-146,-124,177,178]],"type":"Polygon","properties":{"GEOID":"132231206074"}},{"arcs":[[-3,179,-172,-169,180,181,182]],"type":"Polygon","properties":{"GEOID":"132231203053"}},{"arcs":[[-45,-90,-113,-109,183]],"type":"Polygon","properties":{"GEOID":"132231205041"}},{"arcs":[[-142,-119,-77,-160,184,-67,-71]],"type":"Polygon","properties":{"GEOID":"132231201091"}},{"arcs":[[-72,-56,-57,185,-83]],"type":"Polygon","properties":{"GEOID":"132231201112"}},{"arcs":[[-37,-66,186,-163,187]],"type":"Polygon","properties":{"GEOID":"132231202071"}},{"arcs":[[188,189,190,-91,-44]],"type":"Polygon","properties":{"GEOID":"132231205061"}},{"arcs":[[191,192,193,194,-166]],"type":"Polygon","properties":{"GEOID":"132231202062"}},{"arcs":[[-181,-168,195,196,197]],"type":"Polygon","properties":{"GEOID":"132231205071"}},{"arcs":[[198,199,200,-5,201,-190]],"type":"Polygon","properties":{"GEOID":"132231205062"}},{"arcs":[[202,203,204,-175]],"type":"Polygon","properties":{"GEOID":"132231203071"}},{"arcs":[[-176,-205,205,-199,-189,-43]],"type":"Polygon","properties":{"GEOID":"132231203062"}},{"arcs":[[-204,-182,-198,206,-200,-206]],"type":"Polygon","properties":{"GEOID":"132231203061"}},{"arcs":[[207,208,-195,209,210,-7]],"type":"Polygon","properties":{"GEOID":"132231205073"}},{"arcs":[[-207,-197,211,-208,-6,-201]],"type":"Polygon","properties":{"GEOID":"132231205072"}},{"arcs":[[-196,-167,-209,-212]],"type":"Polygon","properties":{"GEOID":"132231205074"}},{"arcs":[[-54,-68,-185,-161,-32,-18,-58]],"type":"Polygon","properties":{"GEOID":"132231201093"}},{"arcs":[[212,-139,-143,-73,-82,-13]],"type":"Polygon","properties":{"GEOID":"132231201102"}},{"arcs":[[-153,-150,213,214,215]],"type":"Polygon","properties":{"GEOID":"132231204021"}},{"arcs":[[216,217,218,219,-215]],"type":"Polygon","properties":{"GEOID":"132231204022"}},{"arcs":[[-93,220,-10,-21,-135,-114]],"type":"Polygon","properties":{"GEOID":"132231205052"}},{"arcs":[[221,-64,222,-192,-164]],"type":"Polygon","properties":{"GEOID":"132231202061"}},{"arcs":[[223,224,-39]],"type":"Polygon","properties":{"GEOID":"132231206013"}},{"arcs":[[225,-144,-129,-179,226,-219]],"type":"Polygon","properties":{"GEOID":"132231206053"}},{"arcs":[[-191,-202,-11,-221,-92]],"type":"Polygon","properties":{"GEOID":"132231205051"}},{"arcs":[[-84,-186,-62,227,228,229]],"type":"Polygon","properties":{"GEOID":"132231201111"}},{"arcs":[[230,-97,-152,231]],"type":"Polygon","properties":{"GEOID":"132231204011"}},{"arcs":[[-15,-230,232,233,234]],"type":"Polygon","properties":{"GEOID":"132231201042"}},{"arcs":[[235,-234,236,-158,237,-147,-98,-231]],"type":"Polygon","properties":{"GEOID":"132231204012"}},{"arcs":[[-149,238,-46,-184,-108,239,-217,-214]],"type":"Polygon","properties":{"GEOID":"132231204023"}},{"arcs":[[-238,-157,-177,-47,-239,-148]],"type":"Polygon","properties":{"GEOID":"132231204031"}},{"arcs":[[-229,240,241,-159,-237,-233]],"type":"Polygon","properties":{"GEOID":"132231203041"}},{"arcs":[[-59,-20,-188,-162,-171,242]],"type":"Polygon","properties":{"GEOID":"132231202082"}},{"arcs":[[-65,-222,-187]],"type":"Polygon","properties":{"GEOID":"132231202072"}},{"arcs":[[243,-4,-183,-203,-174,-155,-242]],"type":"Polygon","properties":{"GEOID":"132231203051"}},{"arcs":[[-61,244,-1,-244,-241,-228]],"type":"Polygon","properties":{"GEOID":"132231203013"}},{"arcs":[[245,-115,-107,-140,-213,-12]],"type":"Polygon","properties":{"GEOID":"132231201052"}},{"arcs":[[-240,-112,-145,-226,-218]],"type":"Polygon","properties":{"GEOID":"132231206051"}},{"arcs":[[-194,246,247,-210]],"type":"Polygon","properties":{"GEOID":"132231206031"}},{"arcs":[[-95,-87,248,-224,-38,-49]],"type":"Polygon","properties":{"GEOID":"132231206011"}},{"arcs":[[-22,-8,-211,-248,249,-85]],"type":"Polygon","properties":{"GEOID":"132231206032"}},{"arcs":[[-245,-60,-243,-173,-180,-2]],"type":"Polygon","properties":{"GEOID":"132231203012"}},{"arcs":[[-24,-89,-96,-48,-131,-134,-102,-136]],"type":"Polygon","properties":{"GEOID":"132231206042"}}]}}}