{"type":"Topology","arcs":[[[6,2361],[15,-11],[36,-53],[31,-34],[-2,-16],[-58,-31],[-12,-48],[14,-33],[45,-31],[84,-40],[79,-5],[91,-16],[43,-15],[76,-57],[20,-7],[46,-49],[36,-15],[56,-33],[84,-73],[39,-26],[0,-44],[27,-30],[59,-16],[27,-29],[34,-8],[68,15],[23,-8],[35,-48],[29,-6],[38,12],[44,-10],[22,-15],[17,-24],[33,-25],[23,-32],[32,-32],[33,-11]],[[1273,1457],[76,-14],[3,-45],[14,-11],[51,-90],[32,-10],[87,29],[34,-5],[38,-27],[11,-19],[2,-34],[17,-15],[42,3],[52,38],[46,10],[20,-5],[14,-26],[50,-21],[29,-27],[57,30],[33,-6],[16,-21],[3,-23],[-14,-50],[12,-24],[40,-29],[56,-10],[42,-30]],[[2136,1025],[33,-20],[-1,-123],[1,-295],[1,-119],[25,-15],[70,-2],[41,-30],[41,-4],[50,-34],[43,-5],[27,-25],[62,0],[50,41],[30,16],[115,0],[46,-27],[31,17],[96,10],[85,0],[5,22],[63,37],[42,8],[19,17],[65,32],[109,-1]],[[3285,525],[149,0],[-27,-21]],[[3407,504],[-12,-17],[-24,-7],[4,-18],[29,5],[31,-9],[25,15],[13,-20],[47,30],[31,-4],[22,-36],[-4,-25],[-51,-103],[-54,-128],[-29,-77],[-15,-64],[-3,-44]],[[3417,2],[-428,-1],[-595,-1],[-301,4],[-298,-3],[-896,1],[-272,0],[-9,-1],[-380,0],[-157,2],[-79,-2],[-2,282],[0,427],[0,392],[2,66],[6,15],[-2,185],[-1,9],[3,187],[-4,89],[2,36],[0,672]],[[2857,1789],[26,-6],[17,-16],[43,-3],[68,12],[31,16],[15,-9],[2,-24],[29,0],[10,46],[17,51],[15,0],[14,-29],[41,-26],[68,20],[96,-6],[29,-8],[12,-13],[45,-28],[69,-24],[53,-1],[62,21],[28,33],[24,8],[90,-14],[48,14],[62,31],[29,-2],[18,20],[2,19],[21,39],[-5,26],[9,43],[71,74],[88,-11],[21,-36]],[[4125,2006],[-45,-15],[-58,15],[-32,-15],[32,-51],[1,-25],[-15,-45],[5,-49],[-9,-59],[-19,-36],[-52,-54],[-53,-29],[-23,-6],[-72,-41],[-25,-36],[-12,-44],[-16,-35],[-65,-61],[-64,-52]],[[3603,1368],[-16,-10],[-108,-18],[-45,4],[-34,-7],[-20,-12],[-43,-58],[-31,-19],[-74,-24],[-59,-2]],[[3173,1222],[1,78],[-6,34],[-28,37],[-1,38],[-298,0]],[[2841,1409],[3,364],[13,16]],[[2793,1080],[44,15],[39,19],[44,39],[71,1],[43,-16],[23,-19],[31,17],[26,67],[19,20],[40,-1]],[[3173,1222],[1,-106]],[[3174,1116],[1,-60]],[[3175,1056],[1,-119]],[[3176,937],[-1,-55],[-189,0],[1,161],[2,12],[-72,3],[-40,-7],[-19,7],[-52,0],[-13,22]],[[3407,504],[30,5],[23,26],[62,17],[41,30],[3,30],[35,32],[10,22],[35,12],[33,32],[4,39],[11,15],[0,55]],[[3694,819],[35,43],[30,16],[55,0],[22,18],[-7,31],[55,56],[1,23],[19,8],[3,38],[42,55],[15,12],[21,53],[16,16],[-11,23],[6,60],[42,43],[66,23],[26,15],[10,33],[-12,17],[9,60],[42,47],[30,15],[31,57],[-6,44],[-18,12],[-22,43],[-14,45],[7,20],[-9,21],[-27,31],[-18,46],[-39,23],[-38,30],[-7,23],[3,30],[74,46],[-1,11]],[[2857,1789],[-21,16],[-82,-1],[-42,-38],[-33,-2],[-69,14],[-65,26],[-21,38],[-27,-9],[-52,-4],[-14,27],[-40,16],[-23,-14],[-35,16],[-18,-11],[-58,1],[-36,21],[-18,-12],[-49,7],[-11,12],[-6,44],[-4,80],[-47,17],[-17,-8],[-19,-35],[-51,-50],[-40,-21],[-15,5],[-66,1],[-64,6],[-82,26],[-78,47],[7,37],[-3,22],[-27,-5],[-35,-39],[-29,-6],[-58,13],[-26,16],[-22,28],[12,41],[-15,11],[-44,-33],[-10,-16],[-124,46],[-85,11],[-33,9],[-17,14],[8,25],[-141,37],[-28,-20],[-34,24],[-31,-8],[-18,8],[1,21],[17,37],[38,31],[0,28],[19,37],[10,36],[44,62],[65,44],[24,30],[-36,5],[-39,-27],[-142,-48],[-35,-51],[-52,-94],[-23,-31],[-21,-3],[-32,-22],[-22,5],[-30,21],[-33,-2],[-44,13],[-119,76],[-57,-23],[-42,14],[13,55],[-37,-15],[-29,-19],[-22,6],[-26,23],[-30,9],[-57,4],[-53,37],[-20,7],[9,26],[-21,18],[-21,-5],[-45,-37],[-34,1],[-14,11]],[[5,2499],[1,103],[-2,236],[602,-1],[300,-3],[301,0],[293,-2],[598,-8],[1,234],[0,234],[300,-4],[297,-2],[-4,237],[4,694],[296,-4],[295,-2],[597,-4],[-2,235],[2,239],[2,470],[1,236],[4,222],[292,-1],[595,-6],[510,2],[-1,29],[-26,21],[24,76],[19,16],[4,37],[20,57],[25,33],[-3,50],[14,44],[3,34],[-27,43],[-19,5],[-5,64],[15,5],[29,59],[-27,37],[2,17],[22,18],[-11,25],[-31,35],[-7,34],[23,35],[-11,29],[14,45],[-3,33],[-21,32],[43,27],[56,13],[24,15],[35,76],[46,41],[-41,19],[-24,42],[12,44],[49,25],[-13,27],[-34,33],[16,7],[-16,31],[-10,39],[-24,14],[-37,45],[24,26],[39,15],[13,15],[-31,20],[-26,42],[16,43],[-2,68],[45,52],[34,22],[5,20],[-16,34],[12,32],[-10,33],[18,18],[-7,16],[23,38],[-29,38],[1,55],[25,20],[11,31],[-9,17],[2,35],[-23,47],[-3,54],[-15,16],[-92,7],[39,51],[-8,20],[29,25],[15,32],[34,52],[15,6],[-15,71],[30,34],[3,82],[-34,35],[-17,3],[-5,51],[17,28],[-47,69],[52,38],[4,13],[39,37],[0,51],[23,58],[-10,42],[24,44],[34,23],[3,47],[10,20],[20,7],[43,53],[-1,23],[-19,27],[47,51],[0,27],[11,19],[-54,12],[-24,27],[-15,30],[-13,52],[17,55],[23,53],[-1,42],[-11,27],[44,-1],[27,6],[20,65],[-8,17],[13,28],[28,1],[22,50],[27,14],[2,31],[15,29],[-36,39],[22,50],[12,10],[-11,26],[2,44],[30,37],[11,31],[-9,69],[10,34],[-17,79],[11,11],[-7,43],[9,23],[37,11],[21,18],[51,-17],[56,25],[4,38],[-13,6],[26,38],[4,30],[19,10],[-9,21],[25,35],[2,27],[21,50],[30,45],[19,17],[-2,27],[23,59],[35,32],[28,3],[39,38],[10,-8],[29,14],[11,19],[71,29],[10,14],[39,25],[152,43],[19,27],[59,26],[30,4],[61,22],[39,7],[56,-21],[44,-7],[51,1],[22,-15],[-5,-28],[13,-9],[34,8],[49,37],[32,8],[-13,42],[9,40],[54,89],[13,27],[-6,28],[-23,43],[29,32],[14,29],[15,73],[33,31],[6,21],[50,9],[21,15],[33,53],[28,125],[-1,22],[12,35],[56,21],[16,-2],[17,-33],[15,-50],[52,-14],[45,-24],[32,14],[25,-1],[9,-48],[44,-31],[35,-41],[20,-34],[67,-7],[51,24],[75,76],[56,21],[33,0],[54,-16],[50,-1],[107,-25],[48,14],[68,-2],[1,-267],[0,-434],[2,-40],[-1,-465],[-3,-240],[3,-219],[0,-261],[-2,-92],[3,-372],[-1,-449],[-43,2],[-561,-2],[-108,-2],[-192,0],[-2,-705],[-2,-415],[-6,-522],[1,-237],[-2,-233],[-3,-324],[-1,-381],[-27,-1],[-551,1],[-305,-3],[-2,-218],[-2,-469],[-4,-235],[3,-235],[-2,-236],[1,-221],[2,-242],[-1,-467],[-3,-235],[-1,-232],[2,-633],[-1,-527],[3,-247],[-4,-112],[-3,-234],[-1,-351],[-2,-237],[0,-235],[0,-235],[-300,0],[-299,-2],[-295,0],[-295,2],[-172,-1],[-327,1],[-242,1],[-446,0],[-595,-3],[-160,0]],[[2841,1409],[-633,3],[-413,4],[-212,-1],[-19,4],[-97,54],[-43,2],[-60,15],[-24,1],[-53,-18],[-14,-16]],[[6,2361],[-1,138]],[[2793,1080],[-59,-1],[-60,8],[-26,-27],[-24,-9],[-47,-3],[-19,-16],[-51,-22],[-32,3],[-40,21],[-101,-18],[-78,2],[-50,16],[-26,-8],[-44,-1]],[[3176,937],[109,-1]],[[3285,936],[-1,-358],[1,-53]],[[3694,819],[-111,0],[-1,236]],[[3582,1055],[0,62]],[[3582,1117],[-1,171],[38,3],[-13,36],[20,31],[-23,10]],[[3285,936],[75,1],[-1,65],[-74,2],[0,51]],[[3285,1055],[297,0]],[[3582,1117],[-408,-1]],[[3285,1055],[-110,1]]],"transform":{"scale":[0.00006700179297155279,0.00006139760615062016],"translate":[-116.712781,43.807096]},"objects":{"Geometry\\16-045":{"type":"GeometryCollection","geometries":[{"arcs":[[0,1,2,3,4,5]],"type":"Polygon","properties":{"GEOID":"160459602001"}},{"arcs":[[6,7,8,9,10]],"type":"Polygon","properties":{"GEOID":"160459601003"}},{"arcs":[[11,12,13,14,15]],"type":"Polygon","properties":{"GEOID":"160459602003"}},{"arcs":[[-5,16,17,-7,18,19]],"type":"Polygon","properties":{"GEOID":"160459601001"}},{"arcs":[[-19,-11,20,-1,21]],"type":"Polygon","properties":{"GEOID":"160459601002"}},{"arcs":[[-10,-12,22,-2,-21]],"type":"Polygon","properties":{"GEOID":"160459601004"}},{"arcs":[[-23,-16,23,24,-3]],"type":"Polygon","properties":{"GEOID":"160459602002"}},{"arcs":[[-8,-18,25,26,27]],"type":"Polygon","properties":{"GEOID":"160459603012"}},{"arcs":[[28,29,-26,-17,-4,-25]],"type":"Polygon","properties":{"GEOID":"160459603021"}},{"arcs":[[-9,-28,30,-13]],"type":"Polygon","properties":{"GEOID":"160459603011"}},{"arcs":[[-31,-27,-30,31,-14]],"type":"Polygon","properties":{"GEOID":"160459603022"}},{"arcs":[[-32,-29,-24,-15]],"type":"Polygon","properties":{"GEOID":"160459603023"}}]}}}