{"type":"Topology","arcs":[[[1120,1638],[2,-109],[0,-218],[2,0],[0,-110],[0,-218],[142,1],[26,0],[117,1]],[[1409,985],[0,-165],[1,-152],[-3,-16],[1,-102],[-142,-1],[0,-217],[142,1],[42,-1],[102,1],[-1,-10],[1,-316]],[[1552,7],[-32,0],[-171,-2],[-226,-2],[-138,-1],[-139,-2],[-202,1],[-12,0],[-239,-1],[-109,1],[-8,1],[-112,0],[-29,0],[-135,1],[1,115],[1,89],[0,35],[2,218],[1,78],[1,114],[0,234],[-1,129],[0,235],[-1,82],[1,52],[-1,144],[0,108],[7,1],[262,-1],[321,0],[251,-2],[0,3],[102,0],[173,1]],[[633,328],[142,-1],[71,1],[0,109],[-29,-1],[-112,1],[0,69]],[[705,506],[1,58],[-1,53],[-36,0],[0,-16],[-23,0]],[[646,601],[-52,-1],[-173,1],[1,-54],[-1,-53]],[[421,494],[0,-3],[-1,-152],[-8,-11],[8,0],[213,0]],[[2720,447],[50,-12],[49,0],[0,19],[36,-1]],[[2855,453],[0,-110],[-143,1],[-35,0]],[[2677,344],[43,103]],[[705,506],[-48,0]],[[657,506],[-11,0]],[[646,506],[0,95]],[[646,506],[-83,0],[-1,-9],[-18,-3],[-100,0],[-23,0]],[[2630,505],[31,-7],[-11,-24],[38,-10],[3,9],[36,-9]],[[2727,464],[-7,-17]],[[2677,344],[-27,-64],[-7,-21],[-10,-25],[-25,0],[-21,-3],[-9,2]],[[2578,233],[16,38],[10,36],[2,17],[0,18],[0,55],[-41,-1],[1,-53],[-90,-2],[0,55],[1,0],[1,26],[-20,0],[0,28],[1,23],[-1,30],[74,0],[32,0],[59,2],[7,0]],[[657,506],[0,-69],[-23,0],[-1,-109]],[[2855,453],[141,0],[-1,110],[-224,0],[-2,0]],[[2769,563],[-7,1],[-3,-6],[-14,4],[-81,0]],[[2664,562],[50,85],[13,23]],[[2727,670],[88,0],[180,1],[285,2],[135,2],[19,-3],[60,-20],[7,-1],[151,1],[137,1],[141,1],[11,-214],[6,-156],[2,-76],[4,-93],[4,-108],[-337,-2],[-102,1],[-72,8],[-22,2],[-105,-1],[-46,0],[-132,0],[-152,0],[-134,-1],[-137,1],[-67,1],[-79,0],[-89,0]],[[2483,16],[8,18],[39,91],[48,108]],[[1685,1643],[4,-111],[1,-56],[4,-160],[0,-219],[1,-109]],[[1695,988],[-143,-2],[-119,-1],[-24,0]],[[1120,1638],[143,1],[286,3],[136,1]],[[1695,988],[0,-219],[12,1],[140,1],[142,1],[72,1],[0,-67],[1,-42],[79,1],[136,1],[143,1],[-1,19],[16,2],[6,-1],[16,-10],[12,-1],[5,-9],[12,-9],[14,1],[18,-4],[14,7],[13,1],[14,-2],[3,8]],[[2562,669],[165,1]],[[2664,562],[-34,-57]],[[2483,16],[-21,-1],[-251,-2],[-232,-3],[-137,-1],[-85,0],[-205,-2]],[[2544,1760],[-142,-5],[-32,0],[-112,1],[-141,-1],[-145,-5],[-142,3],[-117,-4],[-30,0]],[[1683,1749],[-2,108],[-6,210],[-5,0],[-5,173],[-3,86],[-5,175],[-7,218],[-2,109],[-3,110],[-2,87],[-12,338],[-1,7],[-3,108],[-4,111],[-8,244],[-7,190],[-4,108],[-4,109],[-7,216],[81,5],[62,3],[26,0],[120,0],[217,5],[72,3],[72,1],[195,5],[19,2],[2,-110],[4,-87],[1,-23],[0,-108],[2,-110],[3,-109],[3,-106],[1,-18],[5,-167],[5,-148],[3,-110],[1,-54],[3,-57],[3,-107],[7,-256],[3,-112],[2,-70],[4,-108],[6,-159],[6,-167],[3,-106],[4,-108],[6,0],[7,-213],[3,-107]],[[1936,2689],[2,-76],[140,2],[145,1],[-3,54],[-1,54],[-143,-1],[-141,-2],[1,-32]],[[2544,1760],[5,-114],[6,-170],[4,-155],[1,-107],[-1,-109],[1,-110],[0,-109],[2,-217]],[[1685,1643],[-2,106]],[[2727,464],[6,13],[36,86]]],"transform":{"scale":[0.00013349633560778325,0.00013378571428571367],"translate":[-88.459957,40.398417]},"objects":{"Geometry\\17-053":{"type":"GeometryCollection","geometries":[{"arcs":[[0,1,2],[3,4,5,6]],"type":"Polygon","properties":{"GEOID":"170539619002"}},{"arcs":[[7,8,9]],"type":"Polygon","properties":{"GEOID":"170539618004"}},{"arcs":[[-5,10,11,12]],"type":"Polygon","properties":{"GEOID":"170539620001"}},{"arcs":[[-13,13,-6]],"type":"Polygon","properties":{"GEOID":"170539620002"}},{"arcs":[[14,15,-10,16,17]],"type":"Polygon","properties":{"GEOID":"170539618003"}},{"arcs":[[-14,-12,18,-7]],"type":"Polygon","properties":{"GEOID":"170539620003"}},{"arcs":[[-11,-4,-19]],"type":"Polygon","properties":{"GEOID":"170539620004"}},{"arcs":[[-17,-9,19,20,21,22,23]],"type":"Polygon","properties":{"GEOID":"170539617003"}},{"arcs":[[24,25,-1,26]],"type":"Polygon","properties":{"GEOID":"170539619001"}},{"arcs":[[-26,27,28,-22,29,-18,-24,30,-2]],"type":"Polygon","properties":{"GEOID":"170539617002"}},{"arcs":[[31,32],[33]],"type":"Polygon","properties":{"GEOID":"170539616002"}},{"arcs":[[-32,34,-28,-25,35]],"type":"Polygon","properties":{"GEOID":"170539617001"}},{"arcs":[[36,-20,-8,-16]],"type":"Polygon","properties":{"GEOID":"170539618001"}},{"arcs":[[-21,-37,-15,-30]],"type":"Polygon","properties":{"GEOID":"170539618002"}},{"arcs":[[-34]],"type":"Polygon","properties":{"GEOID":"170539616001"}}]}}}