{"type":"Topology","arcs":[[[7077,6085],[64,22],[18,4],[49,16],[48,19],[69,25],[28,9],[44,11],[90,14],[17,2]],[[7504,6207],[2,-10],[5,-69],[-1,-10],[10,-105]],[[7520,6013],[-6,-69],[-10,-37],[1,-12],[-11,-17],[-48,14],[-4,-10]],[[7442,5882],[-12,4],[-6,-21],[-39,-7],[-25,-7],[-25,-5],[-29,-42],[-31,-30],[-21,-17],[-20,-10],[-22,-9],[-15,-18],[-22,-33],[-45,-51],[-25,-24],[-6,-11],[-33,-31],[-25,-17],[-27,-15],[-35,-25],[-34,-20],[-12,-10],[-14,-3],[-36,-30],[-32,-29],[-25,-1],[-36,-44]],[[6790,5376],[-49,46]],[[6741,5422],[39,35],[7,10],[13,8],[35,32],[1,32],[8,20],[15,11],[10,3],[59,2],[13,9],[-6,26],[7,20],[29,28],[6,17],[-2,72],[47,1],[21,9],[9,7],[11,22],[16,21],[-1,31],[0,100],[-1,147]],[[6074,5118],[46,1],[129,5]],[[6249,5124],[108,5],[20,7],[17,13],[7,10],[6,19],[4,33],[6,19],[31,40],[9,21],[2,17],[0,39]],[[6459,5347],[-3,85],[-3,105]],[[6453,5537],[103,5],[3,37]],[[6559,5579],[136,-118]],[[6695,5461],[46,-39]],[[6790,5376],[-18,-20]],[[6772,5356],[-102,-1],[2,-107]],[[6672,5248],[-22,-14],[-71,-75],[-11,-2],[-62,-53],[-23,-36],[-1,-6],[14,-34],[-28,-54],[-56,-120],[-9,-14],[-53,9],[-22,-47],[-11,-17]],[[6317,4785],[-78,47],[-200,135],[-215,143],[-3,7]],[[5821,5117],[19,22],[14,26],[93,-36],[33,-14],[22,-6],[24,1],[29,7],[19,1]],[[6080,5756],[55,-1]],[[6135,5755],[0,-42]],[[6135,5713],[5,-191]],[[6140,5522],[-103,-4],[0,26],[-27,-2]],[[6010,5542],[-2,100],[64,2],[-2,92],[10,20]],[[5880,5440],[52,103],[16,-3],[62,2]],[[6140,5522],[102,4]],[[6242,5526],[0,-6]],[[6242,5520],[1,-66]],[[6243,5454],[1,-62]],[[6244,5392],[-51,-1],[-153,-6],[-1,46],[-102,-2],[-57,11]],[[5598,4888],[24,45]],[[5622,4933],[-2,-19],[2,-19],[7,-32],[15,-41],[25,-33],[5,0],[7,24],[11,72],[108,3],[1,-39],[5,-2],[35,-1]],[[5841,4846],[13,-53],[17,-82],[4,-23],[0,-20],[-7,-136]],[[5868,4532],[-4,-38],[-8,-26],[-44,2],[-250,-5],[-142,-3],[-12,1],[4,22],[11,46],[25,61],[112,220],[38,76]],[[4489,5841],[106,-34],[69,-21],[86,-28],[41,-9],[36,-5],[32,-2],[135,2],[116,0],[159,3]],[[5269,5747],[2,-17],[-4,-3],[1,-37],[49,1],[-1,-51],[-29,2],[-30,6],[-9,-2]],[[5248,5646],[-40,-8],[-51,1],[1,-76]],[[5158,5563],[-71,5],[-66,13],[1,-58],[-108,-4]],[[4914,5519],[-12,0],[0,15],[-100,-3],[-1,87],[-16,14],[-30,37],[-10,9],[-21,6],[-17,-3],[-59,-15],[-77,-16],[-80,-15],[-1,7],[-1,199]],[[5158,5563],[5,0],[0,-65],[2,-123]],[[5165,5375],[-53,-1],[-29,4],[-43,-1],[0,57],[-126,-3],[0,88]],[[4177,11726],[1,-426],[2,-16],[-1,-69],[4,-14],[-5,-27],[0,-280],[0,-16],[0,-315],[1,-80],[0,-275],[2,-276],[0,-202],[-1,-135],[-1,-64],[0,-166],[1,-216]],[[4180,9149],[1,-249],[0,-176],[0,-31],[1,-401],[0,-70],[0,-271],[0,-88],[1,-430]],[[4183,7433],[-104,-1],[-321,-5]],[[3758,7427],[0,164],[1,153],[-1,112],[-211,-2],[1,237],[-108,91],[0,-80],[-29,0],[0,83],[-32,0],[0,-28],[-45,0],[-1,28],[1,94],[-128,-1],[-190,-2],[-107,-1],[-328,-6],[-308,-4],[-212,-3],[-107,0],[-311,4]],[[1643,8266],[-1,190],[-2,203],[2,81],[-3,72],[-2,258],[-1,122],[-2,268],[-1,169],[0,93],[-1,258],[-1,244],[-2,192],[-1,23],[-1,205],[0,111],[-4,437],[-2,104],[-3,351],[-1,49],[165,2],[290,3],[572,5],[177,2],[89,2],[326,3],[311,4],[34,1],[203,2],[184,3],[146,1],[63,2]],[[6245,5366],[2,-107]],[[6247,5259],[-102,-4],[-1,18],[-70,-3]],[[6074,5270],[-31,0],[-2,61]],[[6041,5331],[0,27],[62,3],[142,5]],[[2901,4404],[5,4],[8,20],[12,11],[49,10],[95,35],[16,12],[8,12],[6,24],[-1,26],[-4,14],[-14,25],[-24,36],[-13,33],[-4,15],[-18,0],[-5,6],[-15,39],[-12,37],[-2,11],[1,63]],[[2989,4837],[0,201],[5,12],[150,0],[0,127],[0,183],[1,119],[0,106],[244,2],[40,3],[27,5],[36,4],[150,-2],[33,-2],[-1,101],[4,4],[64,1],[18,-7],[-2,23],[-1,146],[0,200],[0,74],[0,355],[1,77]],[[3758,6569],[0,202],[0,244],[0,183],[0,229]],[[4183,7433],[-1,-182],[0,-260],[2,-214],[-1,-106],[-2,-96]],[[4181,6575],[1,-54],[0,-249],[-1,-115]],[[4181,6157],[0,-232]],[[4181,5925],[1,-204],[0,-135],[1,-324],[0,-394]],[[4183,4868],[-75,0],[-160,-1],[-7,0],[-267,-2],[-252,-3],[-14,2],[-57,-3],[0,-236],[1,-34],[0,-179],[-135,-3],[-181,-2],[-30,-2],[-105,-1]],[[6133,5885],[101,4],[0,31],[188,6],[24,2],[-4,90]],[[6442,6018],[109,6],[0,-17],[9,-33],[42,18],[54,2],[23,3],[29,10],[28,17],[41,17],[-4,-22],[2,-22],[13,-3],[156,53],[63,23],[27,4],[43,11]],[[6695,5461],[11,26],[-1,128],[2,25],[0,40],[38,2],[10,4],[12,10],[18,23],[-33,4],[-23,8],[-37,6],[-177,-8],[-63,-2],[-58,-4]],[[6394,5723],[-28,17],[-15,5],[-51,12],[-56,-1],[-71,-2],[-38,1]],[[6135,5755],[-1,95],[-1,35]],[[4183,4868],[126,0],[298,3],[96,2],[165,4],[209,4],[147,4]],[[5224,4885],[-2,-6],[1,-177],[3,-244],[-23,-2],[2,-141],[1,-68],[3,-5],[18,-1],[3,-13],[2,-185],[7,-34],[1,-63]],[[5240,3946],[-96,42],[-64,30],[-67,38],[-35,23],[-75,56],[-42,35],[-102,89],[-114,94],[-22,20],[-138,115],[-77,66],[-102,85],[-36,31],[-23,24],[-25,29],[-38,51]],[[4184,4774],[-1,94]],[[6625,9224],[434,13],[90,3],[239,8],[263,7],[46,2]],[[7697,9257],[294,11],[129,4],[267,7],[293,10],[279,6],[11,1],[198,7],[104,0],[131,0],[353,-1],[158,0],[327,-3],[211,-2]],[[10452,9297],[7,0],[-2,-209],[-2,-208],[0,-143],[0,-75],[0,-19],[1,-199],[-1,-216],[2,-217],[-2,-124],[-3,-35],[1,-108],[-2,-167],[-1,-105],[5,-46],[-1,-66],[0,-219],[-2,-332],[0,-88],[-7,-31],[-2,-196],[-2,-217],[-1,-211]],[[10440,6066],[-86,-2],[-253,-2],[-76,-1],[-314,0],[-271,-2],[-262,-6],[-419,-24]],[[8759,6029],[-4,292],[0,156],[-1,216],[-200,-3],[-215,-3],[-1,106],[-4,3],[-28,-1],[-1,62],[4,14],[24,32],[3,13],[-4,268],[-3,153],[164,3],[100,2],[49,1],[9,-4],[19,-15],[13,-2],[70,1],[-1,96],[11,8],[82,2],[12,10],[-1,107],[11,9],[78,3],[29,12],[98,-2],[104,0],[0,1],[186,3],[92,-1],[68,1],[130,3],[124,3],[-6,14],[-21,23],[-13,-2],[-15,12],[-9,-3],[-19,23],[-13,33],[-11,-3],[-13,8],[-5,10],[-13,3],[-4,-7],[-28,8],[-9,9],[-7,-7],[-18,11],[-12,-1],[-5,-11],[-17,-9],[-9,5],[3,14],[-14,31],[-14,3],[-8,18],[0,32],[11,7],[3,7],[-19,34],[-3,18],[-9,23],[-27,-3],[-18,21],[8,12],[-24,10],[17,14],[6,13],[-1,12],[-13,19],[6,10],[45,-4],[37,4],[26,14],[-5,8],[5,19],[-9,24],[2,27],[25,28],[32,43],[12,8],[13,-12],[15,-53],[12,-18],[13,-2],[12,11],[7,24],[9,8],[12,6],[38,3],[28,9],[8,6],[10,22],[31,22],[11,11],[5,27],[9,8],[35,37],[29,38],[3,13],[13,23],[0,16],[-10,26],[-1,15],[-7,15],[-2,18],[-14,17],[-59,-6],[-7,4],[-89,-4],[-22,-4],[-107,-4],[-94,0],[2,-208],[-11,-7],[-57,0],[-117,-1],[-136,-2],[-12,-9],[-63,1],[-49,6],[-25,1],[-82,-2],[-209,-3],[1,-100],[-9,-9],[-89,-1],[-29,-3],[-47,-1],[-3,-6],[1,-32],[-11,-4],[-89,-13],[-4,12],[6,14],[2,22],[-13,15],[-23,3],[-9,-4],[-9,18],[-22,18],[-5,19],[-16,3],[-17,33],[-6,4],[-15,0],[-8,17],[-24,27],[24,34],[34,50],[20,34],[37,59],[-102,-2]],[[8320,8419],[-2,147],[-1,285],[-248,-6],[-16,-1],[-261,-5],[-315,-6],[-65,-1],[-353,-12],[2,-289],[2,-145]],[[7063,8386],[-202,-4],[-162,-6],[-32,-3],[-36,-5]],[[6631,8368],[-4,407],[-1,36],[-1,413]],[[6513,2902],[340,10],[-4,107],[139,1],[71,2],[107,1],[87,4],[14,-4],[5,-8],[4,-62],[0,-37],[5,-11],[12,-10],[17,11],[15,14],[39,2],[18,5],[84,1],[29,-4],[95,2]],[[7590,2926],[97,2],[5,-7],[2,-88],[1,-16],[40,1],[369,8],[18,0],[1,14],[-3,90],[6,11],[-6,23],[-2,34],[-8,210],[-4,47],[-9,36]],[[8097,3291],[12,14],[-3,101],[0,59],[-4,98],[-1,58],[-5,133],[-5,195],[-3,144]],[[8088,4093],[149,2],[78,3],[297,3],[12,1],[175,2],[126,3],[158,-1],[355,4],[33,1],[139,1],[25,0],[497,3],[27,0]],[[10159,4115],[6,-352],[3,-215],[10,-648],[2,-26],[-3,-299],[-201,14],[-214,2],[-208,7],[-210,0],[-178,-3],[-203,-3],[10,-417],[1,-109],[2,-65],[16,-875],[4,-247],[0,-16],[8,-424],[-1,-5],[8,-418],[-137,-1],[-117,0],[-244,-1],[-79,-1],[-96,0],[-164,-2],[-181,-1],[-131,-2],[-81,0],[-183,-2],[-53,0],[-202,-3],[-199,2],[-73,2],[-118,1],[-308,-7],[-79,-1]],[[6566,0],[-2,104],[-1,71],[-12,685],[-2,134],[-5,257],[-2,142],[0,52],[-2,137],[-4,140]],[[6536,1722],[-4,202],[-4,182],[-4,219],[-2,94],[-2,110],[-3,168],[-2,99],[-2,106]],[[4177,11726],[63,3],[300,12],[374,16],[119,4],[34,1],[292,12],[170,6],[54,5],[85,1],[120,5]],[[5788,11791],[0,-462]],[[5788,11329],[0,-152],[-1,-17],[-15,-33],[-14,-16],[-26,-22],[9,-12],[21,-40],[16,-49],[3,-26],[2,-38],[-1,-47],[1,-47],[0,-167],[1,-138],[0,-31],[1,-363],[-1,-69],[1,-384],[1,-49],[0,-431]],[[5786,9198],[-75,-3]],[[5711,9195],[-122,-3],[-209,-13],[-38,0],[-174,-1],[-258,-8],[-151,-5],[-342,-10],[-237,-6]],[[7063,8386],[2,-183],[2,-233],[2,-231],[149,5],[18,7],[26,-5],[65,86],[156,211],[103,137],[2,-152],[1,-165],[141,3],[95,2],[8,17],[12,3],[26,1],[16,5],[12,10],[6,15],[1,13],[-1,107],[0,201],[-2,170],[417,9]],[[8759,6029],[-261,7],[-166,1],[-316,-16],[-105,-3],[-104,-1],[-127,2],[-52,7],[-32,0],[-61,-12],[-15,-1]],[[7504,6207],[-7,30]],[[7497,6237],[3,102],[-7,199],[-8,69],[1,64],[-205,-9],[-208,-7]],[[7073,6655],[7,108],[1,99],[-3,122],[-2,105]],[[7076,7089],[0,61],[-1,69],[-2,218],[-4,17],[-14,17],[39,53],[-31,12],[-17,1],[-18,-5],[-24,-9],[-16,-2],[-31,-1],[-227,-5],[-90,-2]],[[6640,7513],[-1,65]],[[6639,7578],[-1,142],[-5,356],[-2,226],[0,66]],[[7513,4977],[54,-17],[155,-49],[97,-31],[161,-53],[163,-52],[370,-119],[146,-47],[113,-37],[144,-45],[35,-10],[131,-40],[123,-40],[67,-22],[89,-28],[87,-29],[42,-11],[33,-6],[35,-5],[52,-1],[114,-1],[97,2],[33,-1],[74,1],[32,3],[51,1],[122,1],[103,-1],[114,0],[67,-2],[24,1],[5,-7]],[[10446,4332],[0,-215],[-287,-2]],[[8088,4093],[-103,-1],[-312,-4]],[[7673,4088],[-5,32],[-9,44],[-19,60],[-13,33],[-20,43],[-27,49],[-15,29],[-26,62],[-11,33],[-6,37],[-1,78],[-3,82],[0,57],[-5,214]],[[7513,4941],[0,36]],[[4181,6575],[11,0],[202,2],[173,3],[226,2],[42,3],[21,-9],[10,7],[19,-8],[15,13],[98,2]],[[4998,6590],[2,-3],[1,-64],[9,-26],[28,-40],[30,-21],[4,-10],[0,-37],[7,-9],[1,-106]],[[5080,6274],[-57,-2],[-16,3],[-17,7],[3,-48],[-1,-72],[-51,-1],[-22,-11],[-19,-3],[0,-16],[-35,-1],[0,-37],[-31,2],[-14,8],[-10,-3],[-13,-22],[0,-48]],[[4797,6030],[-26,11],[-26,17],[-33,26],[-19,8],[-48,11],[-39,7],[-23,10],[-56,5],[-13,3],[-26,21],[-20,7],[-37,1],[-81,-1],[-99,1],[-70,0]],[[5788,11329],[48,2],[96,2],[5,7],[-1,22],[270,10],[231,11],[107,5],[83,6],[1,308],[1,122]],[[6629,11824],[172,5],[236,5],[225,6],[233,6]],[[7495,11846],[-2,-116],[-2,-118],[-3,-284],[0,-137],[-1,-52],[0,-99],[-1,-61],[0,-34],[-1,-180],[0,-201],[0,-17],[43,2],[167,2],[0,-23],[0,-205],[-3,-165],[0,-37],[3,-193],[0,-217],[0,-141],[1,-100],[1,-213]],[[6625,9224],[-49,-1],[-241,-6],[-336,-14],[-213,-5]],[[4181,5925],[39,-4],[52,-11],[21,-6],[196,-63]],[[5165,5375],[107,2]],[[5272,5377],[51,1],[1,-15],[-5,-49],[12,-28]],[[5331,5286],[-11,-47],[40,35],[32,18],[9,2],[19,-6],[9,-11],[8,-21],[20,-17],[11,-4],[12,4],[3,20],[5,9],[19,-4],[11,4],[12,15],[21,9],[26,5],[34,-18],[8,-8],[1,-26],[3,-9],[26,-27],[24,-12],[22,4],[16,-2],[29,-25],[8,5]],[[5748,5179],[-72,-139],[-54,-107]],[[5598,4888],[-151,0],[-49,-3],[-72,4],[-102,-4]],[[1679,4387],[5,7],[367,0],[52,1],[372,3],[28,1],[124,1],[274,4]],[[4184,4774],[1,-133],[5,-97],[1,-120],[1,-424],[-10,0],[3,-483],[1,-70],[5,-353],[2,-101],[3,-118],[3,-143],[3,-137],[1,-29],[2,-115],[1,-6]],[[4206,2445],[-284,3],[-132,2],[-421,-3],[-3,217],[-203,1],[-209,1],[-398,3],[-21,0],[-397,-3],[-52,-1],[-382,-9]],[[1704,2656],[-2,121],[-1,123],[-2,122],[-1,61],[-4,302],[-3,263],[-4,320],[-1,92],[-2,122],[0,67],[-2,28],[-3,110]],[[6639,7578],[-184,-7],[-35,-3],[-198,-8],[-209,-9],[-33,-1]],[[5980,7550],[-182,-8],[-90,-4]],[[5708,7538],[-2,0]],[[5706,7538],[0,15],[-6,36],[4,14],[2,45],[-1,38],[-4,0],[-1,56],[-16,2],[-17,11],[-6,10],[-5,27],[4,16],[-1,15],[-7,33],[3,15],[16,29],[15,11],[16,6],[20,4],[20,-3],[15,-7],[10,-9],[5,-13],[1,-14],[29,1],[0,63],[-149,-4],[-14,-8],[-12,3],[-9,13],[-17,8],[-1,55],[53,2],[-6,123],[-40,1],[-14,29],[-24,21],[-31,17],[-35,9],[-18,2],[-6,4],[-54,76],[-27,12],[-10,19],[-1,158],[-1,81],[0,168],[-1,55],[24,4],[14,4],[38,7],[32,4],[16,5],[33,38],[15,30],[6,7],[4,17],[7,17],[19,25],[24,23],[37,27],[17,22],[21,57],[13,75],[9,27],[-3,23]],[[4229,1368],[225,-6],[203,-8],[5,8],[-2,115],[-1,80],[1,19],[8,41],[38,-7],[5,30],[111,-23],[12,60],[20,98],[9,0],[0,32],[-1,88],[-7,210],[-1,100],[403,-6],[20,0],[2,-97],[2,-239],[2,-97],[212,-10],[205,-9],[92,-2],[322,-7],[233,-7],[189,-9]],[[6566,0],[-95,5],[-212,7],[-78,1],[-127,4],[-184,3],[-39,3],[-69,3],[-34,-4],[-118,1],[-315,6],[-59,3],[-345,15],[-51,1],[-306,-1],[-130,-1],[-152,-2],[0,14]],[[4252,58],[-2,105],[-5,316],[-7,411],[-5,196],[-2,185],[-2,97]],[[5788,11791],[367,13],[228,9],[77,4],[169,7]],[[6559,5579],[-83,76],[-56,50],[-26,18]],[[6243,5454],[106,5],[2,-117],[108,5]],[[6249,5124],[-2,135]],[[6245,5366],[-1,26]],[[5748,5179],[31,-25],[10,-5],[17,-26],[15,-6]],[[5821,5117],[-45,-50],[-17,-17],[-2,-25],[3,-6],[26,0],[11,-4],[7,-9],[8,-26],[11,-47],[11,-42],[7,-45]],[[3758,6569],[-155,-2],[-61,-3],[-216,-4],[-531,-9],[-280,-2],[7,-5],[0,-87],[1,-213],[-1,-191],[-1,-143],[1,-69],[-2,-164],[1,-193],[2,-52],[-1,-34],[-7,-49],[-2,-24],[1,-21],[11,-104],[0,-24],[-3,-53],[0,-185],[-3,-55],[2,-56],[206,5],[262,5]],[[1679,4387],[-210,-1],[0,105],[-205,-3],[0,19],[-49,34],[-49,45],[-17,4],[-24,13],[-42,27],[-16,14],[-7,12],[-8,45],[-211,0],[0,104],[-104,0],[0,17],[-49,32],[-17,9],[-14,4],[-24,-2],[0,-59],[-207,0],[-313,0],[0,-53],[-104,0],[0,328],[-1,24],[1,120],[1,6],[0,169],[-1,48],[0,215],[-1,427],[-1,165],[0,232],[-1,20],[-5,22],[0,165],[-1,163],[1,120],[-1,334],[1,277],[0,123],[0,92],[61,1],[97,0],[252,3],[223,3],[21,1],[165,2],[826,10],[-1,62],[-1,201],[-1,180]],[[422,5658],[257,1],[267,2],[310,2],[-1,47],[0,378],[-6,3],[-34,30],[-26,11],[-12,21],[-12,10],[-26,2],[-97,-1],[-42,6],[-53,27],[-102,-1],[-7,-1],[1,-105],[-110,0],[-44,0],[-103,0],[-158,-2],[0,-189],[-2,-241]],[[6645,7077],[-2,143],[-3,293]],[[7076,7089],[-104,-2],[-104,-2],[-50,-1],[-42,13],[-44,-60],[-86,-116]],[[6646,6921],[-1,55],[-8,9],[6,17],[2,21],[0,54]],[[7507,5370],[2,-69],[4,-324]],[[7513,4977],[-158,51],[-52,17],[-146,48],[-40,17],[-34,19],[-33,21],[-24,20],[-106,91],[-39,35]],[[6881,5296],[3,26],[12,23],[22,14],[22,3],[165,3],[86,0],[70,3],[246,2]],[[5422,5963],[86,1]],[[5508,5964],[115,2]],[[5623,5966],[1,-108]],[[5624,5858],[0,-39],[-102,-1],[0,39],[-51,0],[0,-27],[-50,0]],[[5421,5830],[-1,97],[2,36]],[[6227,6196],[70,3],[65,0],[79,4]],[[6441,6203],[1,-70],[-2,-19],[2,-96]],[[6133,5885],[-2,93],[-1,30],[126,5],[27,2],[-3,122],[-52,-3],[-1,62]],[[6441,6203],[-1,5]],[[6440,6208],[112,6],[101,4],[215,4],[185,0],[36,1],[104,6],[102,2],[131,4],[71,2]],[[6242,5520],[106,4],[28,5],[12,7]],[[6388,5536],[1,-2],[64,3]],[[6772,5356],[43,-1],[66,-59]],[[6881,5296],[-6,-27],[6,-29],[2,-72],[2,-126]],[[6885,5042],[2,-107],[-26,2],[-77,-1],[-79,-1],[-33,-3]],[[6672,4932],[-4,119],[3,14],[1,183]],[[5419,6177],[60,0],[0,-34]],[[5479,6143],[0,-27],[28,0],[1,-152]],[[5422,5963],[-2,25],[-5,13],[3,16],[2,30],[-1,130]],[[6681,4724],[180,-230],[71,-90],[166,-14],[22,-2],[56,76],[29,-7],[5,5],[-2,141],[-4,225],[-2,110]],[[7202,4938],[26,1],[25,-12],[27,14],[31,-4],[34,0],[168,4]],[[7673,4088],[-384,-5]],[[7289,4083],[-299,-7],[-86,-1],[-87,-2],[-123,-2]],[[6694,4071],[-4,252],[1,0],[-1,82],[-4,67],[-1,31]],[[6685,4503],[0,98],[-4,123]],[[4206,2445],[1,-71],[5,-153],[17,-853]],[[4252,58],[-326,-2],[-103,2],[-38,0],[-261,3],[-197,0],[-85,0],[-251,0],[-444,7],[-31,1],[-375,8],[-399,-5],[-5,412],[-2,234],[-3,131],[-1,53],[-2,136],[0,21],[-2,173],[-3,136],[-1,109],[-2,124],[-2,111],[-3,159],[-1,87],[-3,172],[-3,267],[-3,120],[-2,139]],[[7495,11846],[208,5],[120,3],[86,3],[94,1],[366,8],[148,4],[225,6],[78,3],[200,4],[157,5],[98,0],[182,-4],[127,0],[253,-1],[92,0],[238,0],[133,-1],[96,0],[57,-1],[5,3],[1,-107],[1,-104],[-1,-323],[-2,-368],[-2,-181],[-1,-146],[1,-62],[-1,-128],[-6,-29],[6,-9],[-1,-352],[0,-345],[-1,-217],[0,-216]],[[8747,9647],[1,-16],[67,31],[37,23],[25,21],[20,25],[40,55],[21,25],[37,40],[31,29],[48,37],[47,24],[-5,16],[-2,22],[-11,5],[-10,12],[-14,11],[-10,12],[-9,20],[-4,15],[-23,23],[-13,8],[-45,5],[-8,-3],[-11,7],[-18,5],[-6,5],[-13,-1],[-13,14],[1,15],[9,14],[-23,23],[-5,14],[-14,-3],[-5,-14],[-42,3],[-11,11],[-6,17],[-46,-66],[-12,-31],[-3,-21],[-2,-161],[1,-199],[-1,-72]],[[6388,5536],[-8,19],[-3,167],[17,1]],[[6242,5526],[0,26],[-14,0],[-4,164],[-89,-3]],[[5863,5405],[17,35]],[[6041,5331],[-176,-5],[-2,79]],[[6074,5118],[-6,19],[8,15],[-2,118]],[[5751,5185],[15,31],[45,88]],[[5811,5304],[52,101]],[[5748,5179],[3,6]],[[5331,5286],[6,26],[34,159]],[[5371,5471],[19,-1],[137,3],[100,1]],[[5627,5474],[43,1],[2,-127],[-2,-6],[-17,-5],[-22,-2],[1,-18],[16,-9],[-6,-31],[12,-7],[18,-15],[25,-29],[13,-8],[41,-33]],[[5623,5966],[136,1]],[[5759,5967],[1,-107]],[[5760,5860],[-136,-2]],[[5760,5860],[2,-127]],[[5762,5733],[-70,0],[0,-33],[-92,-4],[-63,0]],[[5537,5696],[-14,-1],[-1,55],[-101,-1]],[[5421,5749],[0,81]],[[5248,5646],[-2,-18],[2,-65],[21,0],[3,-186]],[[7202,4938],[-35,-1],[-34,-10],[-36,-3],[1,23],[-2,96],[-158,0],[-53,-1]],[[6681,4724],[0,96],[-9,112]],[[5317,5959],[105,4]],[[5421,5749],[-106,-1]],[[5315,5748],[-1,38],[2,106],[1,67]],[[4797,6030],[105,-26],[31,-3],[31,-2],[121,4],[10,2]],[[5095,6005],[0,-52],[165,5],[57,1]],[[5315,5748],[-46,-1]],[[5080,6274],[26,1]],[[5106,6275],[4,-121],[0,-93],[-15,1],[0,-57]],[[7572,3531],[22,36],[-16,10],[-3,7],[1,28],[2,68],[-2,130],[13,33],[0,53],[92,1]],[[7681,3897],[3,-123],[2,-89],[-2,-146],[4,-28],[8,-20],[19,-25],[17,-12],[27,-10],[222,-58],[38,-13],[26,-15],[26,-24],[13,-18],[13,-25]],[[7590,2926],[-3,162],[-4,32],[-2,78],[-3,40],[4,133],[5,84],[12,22],[4,34],[-31,20]],[[6685,4503],[-67,-3],[-55,-4],[-85,-3],[3,-209],[-5,-5],[-32,-1],[-128,-6],[-43,-1],[-3,102],[-2,109],[-64,-1]],[[6204,4481],[2,7],[17,10],[9,26],[-14,30],[3,30],[-5,29],[13,24],[17,24],[5,11],[27,10],[13,22],[26,81]],[[5206,6597],[118,4],[12,-1],[49,-1],[32,1]],[[5417,6600],[1,-184]],[[5418,6416],[1,-129]],[[5419,6287],[-31,-1],[-16,3],[-34,-2],[-26,-4],[-104,-4],[-102,-4]],[[4998,6590],[25,0],[95,5],[88,2]],[[5419,6287],[0,-110]],[[5418,6416],[27,-18],[11,-4],[168,3]],[[5624,6397],[-3,-61],[-1,-108]],[[5620,6228],[1,-83]],[[5621,6145],[-67,0],[-75,-2]],[[5621,6145],[1,-72]],[[5622,6073],[1,-107]],[[6490,6639],[54,3],[52,4],[52,2]],[[6648,6648],[230,2],[195,5]],[[6440,6208],[-2,84],[-1,111],[3,44],[8,49],[24,86],[18,57]],[[5915,6617],[93,4]],[[6008,6621],[147,4],[64,3]],[[6219,6628],[97,4],[122,4],[52,3]],[[6227,6196],[-202,-6]],[[6025,6190],[-102,-3]],[[5923,6187],[-3,156]],[[5920,6343],[-2,129],[-3,145]],[[6648,6648],[-1,139],[-1,134]],[[5394,7524],[0,-63],[4,-50],[-1,-57],[102,3],[0,-10]],[[5499,7347],[1,-187],[29,4],[21,9],[3,-20],[1,-24],[-9,0],[0,-92]],[[5545,7037],[-125,-4]],[[5420,7033],[-230,-8]],[[5190,7025],[-54,-2],[-141,-3],[-73,-3],[-26,-8],[-14,-12],[-20,-24],[-54,45],[-43,35],[-41,36],[-52,44]],[[4672,7133],[130,123],[53,48],[30,26],[85,72],[58,46],[20,14],[44,23],[34,15],[23,6],[47,9],[24,2],[91,5],[83,2]],[[7289,4083],[2,-13],[1,-83],[3,-65],[0,-23],[-4,-15],[-7,-58],[-2,-22],[-1,-44],[0,-89],[47,-21],[75,-23],[84,-34],[19,-10],[23,-15],[43,-37]],[[6513,2902],[-5,210],[-3,91],[-7,237],[-7,218]],[[6491,3658],[0,8],[-8,198],[0,20],[-7,180],[66,3],[59,-1],[30,3],[63,2]],[[5240,3946],[31,-16],[27,-11],[-43,-213],[109,-8],[142,-11],[146,-10],[108,1],[197,5],[115,3],[30,-2],[162,-14],[92,-6],[95,-6],[40,0]],[[5868,4532],[18,-17],[20,-14],[48,-31],[24,3],[174,7],[52,1]],[[7681,3897],[-3,133],[-5,58]],[[5980,7550],[9,-284]],[[5989,7266],[-37,1],[-35,-2],[-78,-3],[-47,-4],[-106,-3]],[[5686,7255],[-39,-2],[-43,1],[0,96]],[[5604,7350],[0,111],[0,7],[71,2],[73,-2],[6,22],[9,10],[-10,21],[-15,12],[-30,5]],[[5499,7347],[105,3]],[[5686,7255],[1,-13],[7,-22],[0,-11],[37,-4],[40,-14],[15,-13],[8,-25],[1,-62],[20,1],[0,-48]],[[5815,7044],[-41,-1],[-169,-5]],[[5605,7038],[-60,-1]],[[6080,5756],[-54,0],[7,37],[1,24]],[[6034,5817],[-5,158]],[[6029,5975],[-3,103],[-1,112]],[[5537,5696],[-66,-67]],[[5471,5629],[-34,-33],[-25,-30],[-18,-33]],[[5394,5533],[-13,-31],[-10,-31]],[[5815,7044],[135,6],[46,2]],[[5996,7052],[2,-49],[2,-98],[2,-58]],[[6002,6847],[1,-62],[4,-93],[1,-71]],[[5915,6617],[-139,-8],[-56,-2],[-112,-2]],[[5608,6605],[-1,71],[-2,362]],[[4181,6575],[64,77],[57,73],[136,169],[56,63],[39,42],[35,34],[66,62],[38,38]],[[5190,7025],[1,-93],[-1,-117],[1,-91],[-3,-12],[-8,-13],[-3,-20]],[[5177,6679],[13,-10],[1,-44],[15,-28]],[[5759,5967],[66,0],[52,2]],[[5877,5969],[3,-170],[40,2],[13,-7],[0,18],[89,3],[12,2]],[[5811,5304],[1,28],[-3,59],[-11,64],[0,60],[-32,0],[0,25]],[[5766,5540],[-1,63]],[[5765,5603],[-3,130]],[[5873,6185],[50,2]],[[6029,5975],[-152,-6]],[[5877,5969],[-3,108]],[[5874,6077],[0,35]],[[5874,6112],[-1,73]],[[5706,7538],[-80,-4],[-14,0],[-218,-10]],[[6229,6859],[-1,129],[-2,72]],[[6226,7060],[220,8],[84,4],[115,5]],[[6219,6628],[3,30],[10,44],[-1,90],[-2,67]],[[6226,7060],[-154,-6],[-76,-2]],[[5996,7052],[-7,214]],[[10440,6066],[0,-214],[2,-217],[1,-215],[1,-478],[1,-403],[0,-191],[1,-16]],[[7507,5370],[-4,291],[9,25],[16,21],[4,15],[-1,58],[-4,25],[-11,28],[-6,29],[-68,20]],[[5420,7033],[0,-17],[-8,-11],[2,-19],[11,-22],[16,-14],[3,-12],[8,-10],[8,-32],[-3,-13],[-12,-6],[4,-8],[-18,-15],[-3,-12],[-57,-3],[-13,-17],[-22,0],[-12,11],[-18,7],[-12,-6],[-13,1],[-7,-10],[-11,1],[-5,-27],[-12,1],[-6,-10],[10,-25],[16,-12],[3,-7],[-3,-18],[8,-31],[7,-6],[1,-16],[-9,-2],[-9,-14],[-12,2],[-8,12],[-29,8],[-38,-2]],[[6229,6859],[-106,-3],[0,-3],[-90,-4],[-31,-2]],[[5608,6605],[-146,-3],[-45,-2]],[[5608,6605],[1,-29],[4,-49],[9,-54],[2,-76]],[[5920,6343],[-100,-3],[-1,59],[-66,-1],[-64,0],[-65,-1]],[[5873,6185],[-51,-2],[0,48],[-101,-2],[-83,0],[-18,-1]],[[5874,6112],[-50,-1],[-1,20],[-101,-1],[-1,17],[-100,-2]],[[5874,6077],[-50,-2],[-202,-2]],[[5765,5603],[-138,-4],[-51,-1]],[[5576,5598],[-1,33],[-104,-2]],[[5394,5533],[183,4]],[[5577,5537],[49,0]],[[5626,5537],[1,-63]],[[5576,5598],[1,-61]],[[5766,5540],[-140,-3]]],"transform":{"scale":[0.000045202390057360616,0.00003387104643337819],"translate":[-89.217874,39.652682]},"objects":{"Geometry\\17-115":{"type":"GeometryCollection","geometries":[{"arcs":[[0,1,2,3,4,5]],"type":"Polygon","properties":{"GEOID":"171150011001"}},{"arcs":[[6,7,8,9,10,11,-5,12,13,14,15,16]],"type":"Polygon","properties":{"GEOID":"171150012001"}},{"arcs":[[17,18,19,20,21]],"type":"Polygon","properties":{"GEOID":"171150002004"}},{"arcs":[[22,-21,23,24,25,26,27]],"type":"Polygon","properties":{"GEOID":"171150003001"}},{"arcs":[[28,29,30,31]],"type":"Polygon","properties":{"GEOID":"171150014002"}},{"arcs":[[32,33,34,35,36]],"type":"Polygon","properties":{"GEOID":"171150015001"}},{"arcs":[[-36,37,38]],"type":"Polygon","properties":{"GEOID":"171150015002"}},{"arcs":[[39,40,41,42,43]],"type":"Polygon","properties":{"GEOID":"171150028001"}},{"arcs":[[44,45,46,47]],"type":"Polygon","properties":{"GEOID":"171150003003"}},{"arcs":[[48,49,50,-42,51,52,53,54,55]],"type":"Polygon","properties":{"GEOID":"171150028005"}},{"arcs":[[56,57,-6,-12,58,59,60]],"type":"Polygon","properties":{"GEOID":"171150011002"}},{"arcs":[[61,62,63,64]],"type":"Polygon","properties":{"GEOID":"171150026011"}},{"arcs":[[65,66,67,68,69,70,71,72]],"type":"Polygon","properties":{"GEOID":"171150022002"}},{"arcs":[[73,74,75,76,77,78,79]],"type":"Polygon","properties":{"GEOID":"171150025002"}},{"arcs":[[80,81,82,83,84,-40]],"type":"Polygon","properties":{"GEOID":"171150030002"}},{"arcs":[[-72,85,-70,86,-2,87,88,89,90,91,92]],"type":"Polygon","properties":{"GEOID":"171150022005"}},{"arcs":[[93,94,-77,95,96,97]],"type":"Polygon","properties":{"GEOID":"171150023001"}},{"arcs":[[98,99,100,101,-53]],"type":"Polygon","properties":{"GEOID":"171150018012"}},{"arcs":[[102,103,104,-66,105,-83]],"type":"Polygon","properties":{"GEOID":"171150030003"}},{"arcs":[[106,-37,-39,107,108,109,110,-29,111,-62,-55]],"type":"Polygon","properties":{"GEOID":"171150015003"}},{"arcs":[[112,-56,-65,113,114,115]],"type":"Polygon","properties":{"GEOID":"171150027001"}},{"arcs":[[-84,-106,-73,-93,116,117,118,119]],"type":"Polygon","properties":{"GEOID":"171150029011"}},{"arcs":[[120,-79,121,122]],"type":"Polygon","properties":{"GEOID":"171150026021"}},{"arcs":[[123,-103,-82]],"type":"Polygon","properties":{"GEOID":"171150030001"}},{"arcs":[[-59,-11,124]],"type":"Polygon","properties":{"GEOID":"171150011003"}},{"arcs":[[125,-8,126,-45,127,-27]],"type":"Polygon","properties":{"GEOID":"171150012003"}},{"arcs":[[-111,128,129,-30]],"type":"Polygon","properties":{"GEOID":"171150014001"}},{"arcs":[[-43,-51,130,-49,-113,131],[132]],"type":"Polygon","properties":{"GEOID":"171150028002"}},{"arcs":[[133,-91,134,135]],"type":"Polygon","properties":{"GEOID":"171150022003"}},{"arcs":[[-86,-71]],"type":"Polygon","properties":{"GEOID":"171150022004"}},{"arcs":[[136,137,138]],"type":"Polygon","properties":{"GEOID":"171150024011"}},{"arcs":[[139,140,141,142,143]],"type":"Polygon","properties":{"GEOID":"171150006003"}},{"arcs":[[144,145,-57,146]],"type":"Polygon","properties":{"GEOID":"171150009001"}},{"arcs":[[147,148,-88,-1,-58,-146]],"type":"Polygon","properties":{"GEOID":"171150010001"}},{"arcs":[[149,150,-9,-126,-26]],"type":"Polygon","properties":{"GEOID":"171150012002"}},{"arcs":[[-14,151,152,153,154]],"type":"Polygon","properties":{"GEOID":"171150024021"}},{"arcs":[[-133]],"type":"Polygon","properties":{"GEOID":"171150028003"}},{"arcs":[[155,156,-140,157]],"type":"Polygon","properties":{"GEOID":"171150019003"}},{"arcs":[[158,159,-97,160,161,162,163]],"type":"Polygon","properties":{"GEOID":"171150024024"}},{"arcs":[[-115,164,-123,165]],"type":"Polygon","properties":{"GEOID":"171150027002"}},{"arcs":[[166,-67,-105],[167]],"type":"Polygon","properties":{"GEOID":"171150030004"}},{"arcs":[[-125,-10,-151,168]],"type":"Polygon","properties":{"GEOID":"171150002001"}},{"arcs":[[-60,-169,-150,-25,169,-19]],"type":"Polygon","properties":{"GEOID":"171150002002"}},{"arcs":[[-170,-24,-20]],"type":"Polygon","properties":{"GEOID":"171150002003"}},{"arcs":[[170,-28,-128,-48,171]],"type":"Polygon","properties":{"GEOID":"171150003002"}},{"arcs":[[-46,-127,-7,172]],"type":"Polygon","properties":{"GEOID":"171150003004"}},{"arcs":[[173,174,-172,-47,-173,-17,-129,175]],"type":"Polygon","properties":{"GEOID":"171150003005"}},{"arcs":[[176,177,178,-176,-110]],"type":"Polygon","properties":{"GEOID":"171150004001"}},{"arcs":[[179,180,181,-142]],"type":"Polygon","properties":{"GEOID":"171150006001"}},{"arcs":[[-143,-182,182,183,184,185]],"type":"Polygon","properties":{"GEOID":"171150006002"}},{"arcs":[[186,-108,-38,-35]],"type":"Polygon","properties":{"GEOID":"171150016001"}},{"arcs":[[-138,-98,-160,187,-153]],"type":"Polygon","properties":{"GEOID":"171150024022"}},{"arcs":[[-188,-159,188,-154]],"type":"Polygon","properties":{"GEOID":"171150024023"}},{"arcs":[[189,-144,-186,190,191]],"type":"Polygon","properties":{"GEOID":"171150017001"}},{"arcs":[[-102,192,193,-192,194,-33,-107,-54]],"type":"Polygon","properties":{"GEOID":"171150017002"}},{"arcs":[[195,196,-193,-101]],"type":"Polygon","properties":{"GEOID":"171150018011"}},{"arcs":[[197,198,-75,199]],"type":"Polygon","properties":{"GEOID":"171150025001"}},{"arcs":[[-15,-155,-189,-164,200,201]],"type":"Polygon","properties":{"GEOID":"171150026012"}},{"arcs":[[202,203,204,205,-196,-100,206]],"type":"Polygon","properties":{"GEOID":"171150018021"}},{"arcs":[[-197,-206,207,-158,-190,-194]],"type":"Polygon","properties":{"GEOID":"171150018022"}},{"arcs":[[208,209,210,211,-156,-208,-205]],"type":"Polygon","properties":{"GEOID":"171150019001"}},{"arcs":[[-212,212,213,-141,-157]],"type":"Polygon","properties":{"GEOID":"171150019002"}},{"arcs":[[214,215,-89,-149,216]],"type":"Polygon","properties":{"GEOID":"171150021001"}},{"arcs":[[217,218,219,-217,-148,-145,220,221,222,223]],"type":"Polygon","properties":{"GEOID":"171150021002"}},{"arcs":[[-135,-90,-216,224]],"type":"Polygon","properties":{"GEOID":"171150022001"}},{"arcs":[[225,226,227,228,229,230]],"type":"Polygon","properties":{"GEOID":"171150029025"}},{"arcs":[[-162,231,-200,-74,232,233]],"type":"Polygon","properties":{"GEOID":"171150025004"}},{"arcs":[[-64,234,-233,-80,-121,-165,-114]],"type":"Polygon","properties":{"GEOID":"171150026022"}},{"arcs":[[-112,-32,235,-201,-163,-234,-235,-63]],"type":"Polygon","properties":{"GEOID":"171150026013"}},{"arcs":[[-96,-76,-199,236]],"type":"Polygon","properties":{"GEOID":"171150025005"}},{"arcs":[[-161,-237,-198,-232]],"type":"Polygon","properties":{"GEOID":"171150025003"}},{"arcs":[[-118,237,238,239,240]],"type":"Polygon","properties":{"GEOID":"171150029021"}},{"arcs":[[241,-240,242,243,244,-227]],"type":"Polygon","properties":{"GEOID":"171150029023"}},{"arcs":[[-221,-147,-61,-18,245,246,247]],"type":"Polygon","properties":{"GEOID":"171150009002"}},{"arcs":[[-34,-195,-191,-185,248,249,250,-177,-109,-187]],"type":"Polygon","properties":{"GEOID":"171150016002"}},{"arcs":[[-16,-202,-236,-31,-130]],"type":"Polygon","properties":{"GEOID":"171150013001"}},{"arcs":[[-50,-131]],"type":"Polygon","properties":{"GEOID":"171150028004"}},{"arcs":[[-244,251,252,253,-218,254,255]],"type":"Polygon","properties":{"GEOID":"171150029041"}},{"arcs":[[256,-230,257,258,-207,-99]],"type":"Polygon","properties":{"GEOID":"171150029042"}},{"arcs":[[-168]],"type":"Polygon","properties":{"GEOID":"171150030005"}},{"arcs":[[259,260,-246,-22,-23,-171,-175,261,262,263,-183,-181]],"type":"Polygon","properties":{"GEOID":"171150031001"}},{"arcs":[[264,-222,-248,265,266,267,268]],"type":"Polygon","properties":{"GEOID":"171150031002"}},{"arcs":[[-85,-120,269,-231,-257,-52,-41]],"type":"Polygon","properties":{"GEOID":"171150029012"}},{"arcs":[[270,271,-136,-225,-215,-220,272]],"type":"Polygon","properties":{"GEOID":"171150029062"}},{"arcs":[[-117,-92,-134,-272,273,274,-238]],"type":"Polygon","properties":{"GEOID":"171150029051"}},{"arcs":[[-87,-69,275,-94,-137,276,-3]],"type":"Polygon","properties":{"GEOID":"171150023002"}},{"arcs":[[-229,277,-258]],"type":"Polygon","properties":{"GEOID":"171150029044"}},{"arcs":[[-274,-271,278,-253]],"type":"Polygon","properties":{"GEOID":"171150029063"}},{"arcs":[[-239,-275,-252,-243]],"type":"Polygon","properties":{"GEOID":"171150029022"}},{"arcs":[[-228,-245,-256,279,-203,-259,-278]],"type":"Polygon","properties":{"GEOID":"171150029043"}},{"arcs":[[-279,-273,-219,-254]],"type":"Polygon","properties":{"GEOID":"171150029061"}},{"arcs":[[-280,280,-209,-204]],"type":"Polygon","properties":{"GEOID":"171150020011"}},{"arcs":[[-255,-224,281,-281]],"type":"Polygon","properties":{"GEOID":"171150020012"}},{"arcs":[[-282,-223,-265,282,-210]],"type":"Polygon","properties":{"GEOID":"171150020022"}},{"arcs":[[-270,-119,-241,-242,-226]],"type":"Polygon","properties":{"GEOID":"171150029024"}},{"arcs":[[-283,-269,283,-211]],"type":"Polygon","properties":{"GEOID":"171150020023"}},{"arcs":[[-284,-268,284,-213]],"type":"Polygon","properties":{"GEOID":"171150020024"}},{"arcs":[[-285,-267,-260,-180,-214]],"type":"Polygon","properties":{"GEOID":"171150020021"}},{"arcs":[[-249,-184,-264,285,286]],"type":"Polygon","properties":{"GEOID":"171150005021"}},{"arcs":[[287,288,289,-178,-251]],"type":"Polygon","properties":{"GEOID":"171150005023"}},{"arcs":[[-287,290,-288,-250]],"type":"Polygon","properties":{"GEOID":"171150005022"}},{"arcs":[[-286,-263,291,-289,-291]],"type":"Polygon","properties":{"GEOID":"171150005024"}},{"arcs":[[-292,-262,-174,-179,-290]],"type":"Polygon","properties":{"GEOID":"171150005011"}},{"arcs":[[-266,-247,-261]],"type":"Polygon","properties":{"GEOID":"171150031003"}},{"arcs":[[-4,-277,-139,-152,-13]],"type":"Polygon","properties":{"GEOID":"171150024012"}}]}}}