{"type":"Topology","arcs":[[[1361,7213],[46,2],[91,-2],[198,-8],[24,6],[111,-2],[79,-1],[68,0]],[[1978,7208],[-1,-92],[-1,-70],[-3,-54],[-3,-109],[-6,-327],[139,0],[28,5],[11,9],[77,0],[0,-24],[-6,-1],[-2,-52],[-8,-82],[1,-18],[0,-41]],[[2204,6352],[-43,0],[-1,-63],[-18,-2],[-1,-59],[13,-45],[-19,-7],[-11,39],[-18,-7],[-37,-6],[-13,4],[-12,-2],[-11,-10]],[[2033,6194],[-10,12],[-76,62],[-14,14],[-47,51],[-26,24],[-30,22]],[[1830,6379],[-29,21],[-20,18],[-13,16],[-14,25],[-48,98],[-191,408],[-74,167],[-9,16],[-15,21],[-14,16],[-20,16],[-22,12]],[[2204,6352],[-2,-118],[19,-68]],[[2221,6166],[-75,-29]],[[2146,6137],[-56,-22]],[[2090,6115],[-3,-1],[-54,80]],[[2221,6166],[11,-40],[28,0],[1,23],[44,-1],[67,-1],[15,3]],[[2387,6150],[-6,-20],[-18,-38],[-23,-18],[-21,-10],[-40,-15]],[[2279,6049],[-29,-15],[-23,-15]],[[2227,6019],[-3,3],[-12,43],[-42,-16],[-24,88]],[[2227,6019],[-5,-4],[-50,-53],[-17,-9],[-18,-14]],[[2137,5939],[-24,88],[0,4],[-16,58]],[[2097,6089],[-7,26]],[[4,2627],[276,-1],[278,2],[280,1],[261,0],[296,0],[279,-4],[3,169],[275,-7],[278,-2],[139,0],[138,0],[276,-1],[138,0],[368,3],[44,3],[28,2],[244,-1]],[[3605,2791],[-2,-165],[-4,-328],[-2,-165],[0,-92],[3,-72],[-143,0],[-131,0],[-3,-164],[2,-164],[1,-166],[1,-164],[3,-312],[1,-179],[3,-496],[1,-323]],[[3335,1],[-259,0],[-85,1],[-79,0],[-37,-1],[-91,0],[-154,0],[-124,1],[-127,-2],[-157,1],[-62,1],[-71,-1],[-46,1],[-50,0],[-78,1],[-36,0],[-56,1],[-98,0],[-50,-1],[-235,1],[-39,-1],[-179,1],[-68,0],[-17,0],[-168,1],[-9,-1],[-214,0],[-77,0],[-75,0],[-71,0],[-177,-1],[-264,-1],[-69,-1],[0,164],[-4,491],[-2,166],[1,17],[-2,147],[0,2],[0,161],[0,169],[-3,327],[-3,323],[2,164],[1,166],[0,164],[1,165]],[[2279,6049],[8,-24],[25,8],[31,8],[-3,-25],[-8,-34],[-12,-18],[-18,-10],[5,-18],[17,7],[22,19],[7,9],[16,12],[5,-3],[-31,-35],[-4,-9],[3,-13],[-3,-11],[-10,-10],[-25,-3],[0,-22],[-22,1],[-21,-10],[6,-21],[-19,-7],[18,-64],[19,7],[11,-40],[-10,0]],[[2286,5743],[-19,5],[-20,13],[-18,0],[-6,22]],[[2223,5783],[-18,64],[-56,-22]],[[2149,5825],[-11,43],[18,7],[-19,64]],[[2387,6150],[4,19],[10,22],[35,38],[10,6],[18,18]],[[2464,6253],[22,-34],[18,-8],[9,-10],[0,-14],[12,7],[38,13],[54,16],[18,7],[49,23],[108,61],[-5,-248],[-3,-165],[1,-160],[69,3],[1,-162]],[[2855,5582],[-2,-174],[-23,0],[-40,4],[-17,5],[-106,33],[-31,2],[-24,-3],[-29,-11]],[[2583,5438],[-58,69],[-77,90],[-11,11],[-136,111],[-15,24]],[[2583,5438],[-52,-23],[-78,-33],[-51,-23],[-80,-33],[-31,-14],[-13,103]],[[2278,5415],[-15,77],[-21,82]],[[2242,5574],[-6,24],[-6,15],[-10,31],[-35,124],[38,15]],[[5146,3932],[280,2],[141,-1],[67,0]],[[5634,3933],[319,0],[587,1],[62,1],[52,5],[74,11],[27,3],[53,2],[426,4],[512,4],[22,-1],[136,2]],[[7904,3965],[0,-166],[-2,-769],[-3,-25],[-7,-24],[-8,-16],[-15,-20],[-39,-33],[-15,-17],[-10,-15],[-8,-22],[-6,-38],[1,-211],[1,-208],[-2,-24],[-6,-24],[-11,-23],[-11,-14],[-17,-16],[-28,-15],[-27,-3],[-175,3],[3,-328]],[[7519,1957],[-278,8],[-277,9],[-139,1],[-128,0],[0,-21],[-241,2],[-88,1],[-271,2],[-140,2],[-280,2],[-138,18],[-106,9]],[[5433,1990],[-13,161],[-4,29],[-19,229],[-5,15],[-31,68],[-8,13],[-23,31],[-8,14],[-25,59],[-9,11],[-12,3],[-17,0],[-1,169]],[[5258,2792],[-1,261],[15,43],[6,28],[1,24],[-2,15],[-12,29],[-16,26],[-20,46],[-21,182],[2,210],[-71,9],[7,267]],[[3500,7217],[145,-2],[34,1],[157,0],[23,3],[59,-4],[-3,-331],[150,2],[126,-2],[279,-1],[103,-1],[175,-1],[279,1],[0,3],[41,1]],[[5068,6886],[5,-6],[5,-322],[3,-166]],[[5081,6392],[-59,-2],[-140,2],[-138,2],[-1,-139],[-24,-3],[-13,-4],[-10,3],[-18,-24],[-1,-17],[-6,-14],[4,-32],[-2,-21],[6,-27],[0,-15],[4,-5],[-1,-14],[-4,-7],[-7,-22],[-18,-11],[0,-17],[5,-4],[2,-21],[6,-32],[9,-15],[2,-13],[-1,-22],[-6,-14],[-10,-5],[8,-18],[-5,-4],[-99,-99],[-15,-13],[-19,-10],[-34,-7],[1,-14],[26,2],[22,-1],[26,-6],[21,-12],[10,-14],[-3,-18],[-2,-111],[0,-168],[17,0],[164,0],[22,2],[32,11]],[[4832,5419],[31,-147],[11,-35],[1,-13],[0,-308],[-1,-164],[-1,-124],[24,-35],[114,-172],[-2,-159],[-2,-331]],[[5007,3931],[-585,-3],[-109,-1],[-416,1],[-277,1]],[[3620,3929],[2,167],[2,180],[2,313],[2,329],[0,286],[-5,22],[-11,12],[-21,8],[-77,-1],[-8,3],[-12,11],[-4,16],[-1,76],[-1,263]],[[3488,5614],[-1,284],[3,13],[0,317],[1,330],[2,165],[-136,-4],[1,32],[5,19],[11,23],[5,21],[1,53],[6,32],[37,90],[32,96],[34,102],[15,22],[-4,8]],[[8338,6942],[198,-1],[222,6],[36,0],[123,5],[178,2],[290,6],[6,0],[271,5],[148,3],[144,1],[1,0],[-1,-481],[0,-105],[0,-119],[0,-251],[-1,-418],[0,-274],[0,-335],[0,-120],[1,-36],[-1,-195],[0,-39],[-1,-270],[-1,-332]],[[9951,3994],[-65,1],[-218,1],[-566,-1],[-166,-4],[-323,-9]],[[8613,3982],[-1,147],[6,37],[14,44],[2,23],[-2,16],[-16,80],[-3,30],[-2,26],[-2,261],[-40,0],[-243,-1],[1,317],[2,338],[2,327],[2,327],[1,332],[1,165],[1,165],[2,326]],[[5068,6886],[215,6],[135,2],[6,1],[140,1],[154,2],[547,10],[139,4],[275,6]],[[6679,6918],[1,-138]],[[6680,6780],[-327,-199],[-35,-20],[-127,-67],[-98,-44],[-49,-24],[-54,-25],[-5,12],[-10,-5],[-125,-1],[-140,-3],[-420,-6],[-107,-3],[-16,-2],[-20,-8],[-16,-9],[-20,-22],[-13,-21],[-10,-32]],[[5088,6301],[-6,3],[-1,88]],[[7904,3965],[145,2],[275,4],[116,6],[173,5]],[[9951,3994],[0,-331],[-1,-341],[0,-38],[0,-78]],[[9950,3206],[-81,-1],[-18,-4],[-119,-48],[-30,-10],[-38,-10],[-14,-5],[-198,-84],[-13,-4],[-95,-7],[-31,-3],[-3,-2],[-154,-9],[-18,4],[-11,8],[0,-37],[6,-346],[6,-366],[6,-383],[261,205],[41,-33],[112,-98],[119,-104],[18,-11],[20,-6],[117,-9],[72,-7],[12,-4],[26,-20],[39,-6]],[[9982,1806],[7,-553],[2,-39],[-2,-3],[3,-225],[-8,0],[-544,-13],[-282,-5],[-278,-7],[-283,-6],[-1,0],[-234,-5],[-132,3],[-427,10],[-277,6]],[[7526,969],[-1,165],[-2,494],[-4,329]],[[1830,6379],[0,-15],[-9,-20],[-8,-7],[5,-19],[11,-15],[22,-19],[-5,-9],[-21,-14],[4,-21],[18,-2],[5,-10],[11,-13],[-2,-20],[12,-6],[-5,-12],[-17,-3],[-11,-11],[0,-35],[2,-13],[-9,-2],[-16,10],[-10,-1],[-3,-11],[12,-16],[-15,-6],[-12,9],[-11,-7],[-1,-17],[-12,-10],[27,-13],[22,-20],[13,-20],[15,-5],[38,-4],[7,-7],[4,-28]],[[1891,5967],[-37,-2],[-33,-11],[-43,-23],[-23,-14],[-22,-17]],[[1733,5900],[-49,0],[-130,-3],[-218,-3],[-206,-5],[-281,-3],[-71,-1],[-203,-2],[-2,-60],[1,-245],[1,-173],[-279,1],[-89,-1],[-181,-9]],[[26,5396],[2,180],[2,302],[3,247],[1,81],[3,164],[3,330],[1,160],[1,164],[2,169],[165,2],[44,1],[139,1],[69,1],[69,0],[208,3],[128,2],[217,3],[77,1],[175,5],[26,1]],[[17,4416],[27,7],[36,12],[26,20],[9,13],[15,27],[16,44],[6,29],[1,32],[0,33],[-15,61],[-23,80],[-1,50],[4,27],[11,32],[27,47],[15,18],[29,23],[51,36],[19,9],[28,27],[36,55],[40,56],[27,23],[15,9],[5,24],[20,14],[52,15],[22,10],[15,-1],[21,-7],[19,-12],[5,-9],[20,-6],[28,-4],[22,0],[25,-8],[32,9],[60,29],[29,12],[29,9],[18,13],[12,12],[16,9],[20,6],[50,8],[26,7],[14,-3],[11,5],[44,26],[21,19],[2,16],[7,20],[14,17],[18,10],[24,7],[26,3],[20,-4],[15,-10],[7,-10],[58,1],[22,-2],[16,-9],[21,-18],[18,-31],[18,-45],[14,-19],[27,-9],[12,2],[17,7],[18,15],[34,44],[29,55],[11,23],[28,72],[4,17],[39,59],[20,24],[28,26],[26,25],[20,13],[12,23],[9,7],[0,16],[9,3],[2,7],[-11,7]],[[1686,5725],[15,-2],[20,6],[7,5]],[[1728,5734],[9,-33],[-18,-9],[-5,-5],[14,-49],[25,15],[9,-27],[14,-28]],[[1776,5598],[-70,-50],[-12,-12],[-8,-27],[0,-65],[-3,-21]],[[1683,5423],[-23,-48],[-11,-12],[-35,-26],[-178,-129],[-15,-8],[-133,-51],[-13,-6],[-21,-15],[-91,-74],[-167,-139],[-78,-64],[-190,-152],[-150,-125],[-138,-115],[-122,-95],[-16,-12],[-180,-119],[-58,-38],[-20,-8],[-32,-7]],[[12,4180],[0,83],[5,153]],[[1683,5423],[3,-13]],[[1686,5410],[1,-164],[2,-159],[-1,-73],[1,-96],[1,-653],[1,-329],[565,0],[266,0],[233,0],[32,1],[79,-1],[203,0],[93,-1],[120,-4],[61,-1]],[[3343,3930],[-4,-814],[62,1],[64,3],[169,-1],[-13,-82],[-11,-8],[-1,-71],[-2,-136],[-2,-31]],[[4,2627],[1,329],[4,657],[3,164],[1,156],[-1,247]],[[2062,5791],[87,34]],[[2242,5574],[-30,8],[-66,41],[-30,10],[-11,1]],[[2105,5634],[-6,26],[-15,45],[-4,6],[-18,80]],[[3343,3930],[277,-1]],[[5007,3931],[139,1]],[[5258,2792],[-103,0],[-163,-4],[-173,3],[-15,5],[-13,12],[-6,14],[-6,27],[-8,23],[-27,55],[-44,78],[-38,11],[-62,9],[-20,-2],[-36,-18],[-134,-55]],[[4410,2950],[0,46],[26,0],[-2,33],[-13,70],[0,19],[-265,1],[0,-2]],[[4156,3117],[0,-162],[0,-82],[-1,-82]],[[4155,2791],[-276,-1],[-274,1]],[[1978,7208],[178,4]],[[2156,7212],[-14,-42],[-5,-22],[5,-23],[3,-33],[0,-45],[-2,-26],[1,-34],[6,-56],[3,-16],[12,-37],[15,0],[10,-22],[12,-14],[14,-14],[18,-9],[42,-15],[33,-17],[13,-9],[60,-50],[22,-22],[48,-28],[22,-17],[16,-16],[13,-18],[18,-34],[12,-19],[16,-32],[18,-39],[10,-37],[1,-30],[-5,-41],[-8,-23],[-17,-33],[-31,-49],[-20,0],[-33,-37]],[[5088,6301],[-3,-28],[9,-205],[-2,-20],[-5,-25],[-16,-32],[-15,-18],[5,-5],[36,17],[10,-111],[3,-26],[24,-114],[-5,-14],[10,-15],[9,-32],[-39,-26],[-46,-36],[-202,-174],[-29,-18]],[[2156,7212],[39,1],[9,52],[4,18],[17,46],[16,27],[9,11],[36,29],[20,11],[21,9],[22,4],[51,2],[17,-2],[24,-9],[28,-6],[25,-9],[36,-10],[28,-5],[14,3],[14,-1],[12,3],[51,-6],[29,-1],[64,-22],[29,-15],[57,-17],[21,-3],[37,4],[35,6],[20,1],[15,-3],[15,-7],[42,-29],[11,-12],[8,-14],[2,-27],[-7,-50],[1,-37],[-9,-14],[-31,-25],[-31,-13],[-16,-3],[-8,-13],[-18,-1],[-13,-13],[-12,-25],[-2,-17],[2,-11],[12,-15],[21,-10],[36,-27],[36,-17],[11,-6],[27,-22],[17,-9],[7,-7],[5,-14],[28,-25],[4,-5],[17,-9],[13,-16],[9,-7],[16,-4],[18,7],[16,25],[3,15],[-2,19],[-7,39],[-2,21],[1,26],[-3,27],[2,13],[12,17],[17,11],[24,2],[11,10],[5,12],[25,26],[26,39],[21,40],[2,8],[-1,25],[49,-1],[1,13],[133,-3]],[[3488,5614],[-21,-5],[-86,-13],[-45,-5],[-150,1],[-179,-6],[-152,-4]],[[6679,6918],[120,0],[87,2],[50,4],[140,-2],[264,5],[118,2],[37,-1],[141,1],[89,0],[43,5],[570,8]],[[5634,3933],[0,136],[-1,357],[129,0],[10,12],[0,483],[70,0],[-1,164],[0,165],[281,0],[1,328],[0,297],[3,25],[4,17],[285,5],[-2,165],[-70,-1],[4,11],[16,14],[34,20],[4,5],[-1,121],[9,16],[0,48],[2,8],[18,7],[188,4],[11,3],[21,31],[10,18],[8,8],[16,7],[-2,188],[-1,185]],[[2097,6089],[-17,-9],[-25,-18],[-10,-5],[-27,1],[-10,-32],[1,-29],[-90,-5],[0,-24],[-28,-1]],[[7526,969],[-277,9],[-137,4],[-145,5],[-266,7],[3,-324],[4,-330],[2,-324],[0,-7],[-180,0],[-40,1],[-131,0],[-114,0],[-278,-1],[-79,1],[-67,0],[-45,-3],[-5,2],[-82,-1],[-139,0],[-300,-2],[-99,-1],[-31,0]],[[5120,5],[4,16],[39,112],[4,20],[-1,19],[-4,14],[-19,50],[-7,36],[-5,62],[85,4],[30,3],[5,224],[0,19],[15,0],[-1,83],[1,40],[0,92],[-2,50],[3,60],[14,85],[20,74],[70,228],[6,12],[13,11],[11,4],[-2,164],[-2,82],[-1,117],[3,21],[-9,8],[41,154],[3,16],[3,31],[0,17],[-4,57]],[[1733,5900],[-29,-28],[-19,-22],[1,-125]],[[17,4416],[1,174],[3,318],[2,177],[3,311]],[[2062,5791],[-18,-7],[6,-22],[-85,-32],[-17,-6]],[[1948,5724],[-30,111],[-12,23]],[[1906,5858],[11,19],[12,9],[23,6],[33,16],[40,2],[16,-2],[55,12],[21,6],[20,13]],[[1728,5734],[43,27],[16,12],[24,24],[43,35],[24,16],[28,10]],[[1948,5724],[1,-2]],[[1949,5722],[-83,-59],[7,-13],[0,-8],[-55,-38],[-10,19],[-32,-25]],[[1949,5722],[1,-3],[-1,-151],[32,11],[79,44],[21,9],[24,2]],[[2278,5415],[-57,0],[-272,2],[-138,-3],[-125,-4]],[[4410,2950],[-20,-8],[7,-14],[-16,-19],[-9,10],[-16,-6],[-10,11],[-15,-6]],[[4331,2918],[-30,36],[-29,29],[-11,13],[-27,41],[-10,2],[-68,78]],[[4331,2918],[56,-68],[22,-24],[23,-31],[73,-84],[-2,-7],[-2,-242],[-69,1],[-136,-1],[-159,0],[-2,89],[-5,15],[-17,23],[3,51],[12,47],[6,44],[5,14],[24,46],[-8,0]],[[9950,3206],[-1,-194],[5,-7],[8,-1],[6,-9],[2,-162],[2,-132],[5,-397],[6,-497],[-1,-1]],[[5120,5],[-174,-2],[-101,-1],[-44,1],[-155,0],[-139,-2],[-161,1],[-81,1],[-237,-1],[-172,0],[-50,0],[-124,0],[-101,-1],[-156,0],[-2,0],[-88,0]]],"transform":{"scale":[0.00006942554043234656,0.00004403435731608696],"translate":[-89.632379,41.584893]},"objects":{"Geometry\\17-103":{"type":"GeometryCollection","geometries":[{"arcs":[[0,1,2,3,4]],"type":"Polygon","properties":{"GEOID":"171030004001"}},{"arcs":[[-3,5,6,7,8]],"type":"Polygon","properties":{"GEOID":"171030004002"}},{"arcs":[[-7,9,10,11,12]],"type":"Polygon","properties":{"GEOID":"171030004003"}},{"arcs":[[-8,-13,13,14,15]],"type":"Polygon","properties":{"GEOID":"171030004004"}},{"arcs":[[16,17,18]],"type":"Polygon","properties":{"GEOID":"171030007003"}},{"arcs":[[-12,19,20,21,22,-14]],"type":"Polygon","properties":{"GEOID":"171030003002"}},{"arcs":[[-11,23,24,25,26,-20]],"type":"Polygon","properties":{"GEOID":"171030003001"}},{"arcs":[[-21,-27,27,28,29]],"type":"Polygon","properties":{"GEOID":"171030003003"}},{"arcs":[[30,31,32,33,34,35]],"type":"Polygon","properties":{"GEOID":"171030009003"}},{"arcs":[[36,37,38,39,40,41,42]],"type":"Polygon","properties":{"GEOID":"171030002002"}},{"arcs":[[43,44,45]],"type":"Polygon","properties":{"GEOID":"171030001004"}},{"arcs":[[46,47,48,49,-38]],"type":"Polygon","properties":{"GEOID":"171030001001"}},{"arcs":[[50,-45,51,52,53,54,-33]],"type":"Polygon","properties":{"GEOID":"171030009002"}},{"arcs":[[-5,55,56,57,58]],"type":"Polygon","properties":{"GEOID":"171030005001"}},{"arcs":[[59,60,61,62,63,64]],"type":"Polygon","properties":{"GEOID":"171030007001"}},{"arcs":[[-64,65,66,67,-17,68]],"type":"Polygon","properties":{"GEOID":"171030007002"}},{"arcs":[[69,-22,-30,70,71]],"type":"Polygon","properties":{"GEOID":"171030003004"}},{"arcs":[[72,-41,73,-36,74,75,76,77,-68]],"type":"Polygon","properties":{"GEOID":"171030008001"}},{"arcs":[[78,79,-24,-10,-6,-2]],"type":"Polygon","properties":{"GEOID":"171030004005"}},{"arcs":[[-50,80,-39]],"type":"Polygon","properties":{"GEOID":"171030002001"}},{"arcs":[[81,-43,82,-25,-80]],"type":"Polygon","properties":{"GEOID":"171030002003"}},{"arcs":[[-48,83,-46,-51,-32,84]],"type":"Polygon","properties":{"GEOID":"171030001003"}},{"arcs":[[-4,-9,-16,85,-56]],"type":"Polygon","properties":{"GEOID":"171030005002"}},{"arcs":[[-81,-49,-85,-31,-74,-40]],"type":"Polygon","properties":{"GEOID":"171030001002"}},{"arcs":[[-34,-55,86,87]],"type":"Polygon","properties":{"GEOID":"171030009004"}},{"arcs":[[-58,88,-60,89]],"type":"Polygon","properties":{"GEOID":"171030005004"}},{"arcs":[[-23,-70,90,91,92]],"type":"Polygon","properties":{"GEOID":"171030006001"}},{"arcs":[[93,-92,94,95,-62]],"type":"Polygon","properties":{"GEOID":"171030006002"}},{"arcs":[[-96,96,-71,-29,97,-66,-63]],"type":"Polygon","properties":{"GEOID":"171030006003"}},{"arcs":[[-91,-72,-97,-95]],"type":"Polygon","properties":{"GEOID":"171030006004"}},{"arcs":[[98,99,-76]],"type":"Polygon","properties":{"GEOID":"171030008002"}},{"arcs":[[-77,-100,100]],"type":"Polygon","properties":{"GEOID":"171030008003"}},{"arcs":[[101,-53]],"type":"Polygon","properties":{"GEOID":"171030009001"}},{"arcs":[[-98,-28,-26,-83,-42,-73,-67]],"type":"Polygon","properties":{"GEOID":"171030002004"}},{"arcs":[[-57,-86,-15,-93,-94,-61,-89]],"type":"Polygon","properties":{"GEOID":"171030005003"}},{"arcs":[[-78,-101,-99,-75,-35,-88,102,-18]],"type":"Polygon","properties":{"GEOID":"171030008004"}}]}}}