{"type":"Topology","arcs":[[[5745,6046],[2,-31],[64,-278],[-29,-1],[2,-255],[5,1],[0,-61],[-24,0]],[[5765,5421],[-80,-2]],[[5685,5419],[-1,112],[-85,2]],[[5599,5533],[4,99],[-1,128],[-2,284],[145,2]],[[9053,4888],[311,-5],[10,-6],[139,0],[20,13],[11,-10],[22,-1],[191,0],[452,1],[94,0],[164,-8],[164,7],[300,-2],[3,-5],[1,-96],[3,-2],[121,-4],[56,1],[120,-3],[28,1]],[[11263,4769],[-2,-305],[-2,-337],[-4,-175]],[[11255,3952],[-17,4],[-167,0],[-52,1],[0,-203],[-121,1],[-15,-3],[-101,2],[1,-103],[-177,1],[-132,3],[-122,-1],[-102,2],[-11,-4],[-55,4],[-54,1],[-300,1],[-303,2],[-215,3],[-175,1],[-284,2],[0,-101],[-20,0],[-1,101],[-39,0],[0,-16],[-27,1],[6,-46],[-64,2],[0,13],[-32,0],[-1,31],[-12,16],[-223,2]],[[8440,3669],[-8,608],[-1,206],[-3,202],[157,1],[163,0],[148,-1],[5,7],[0,86],[7,9],[146,-1],[-1,102]],[[9078,2042],[168,-2],[145,-1],[-1,103],[299,-1],[4,27],[17,8],[47,9],[9,19],[3,36],[90,0],[34,-29],[18,-7],[19,3],[13,40],[51,57],[1,40],[41,0],[36,73],[5,20],[31,12],[1,30],[12,10],[38,13],[1,42],[149,2],[118,0],[45,-6],[51,-19],[12,23],[250,-4],[0,101],[16,1],[141,-2],[0,202],[315,0]],[[11257,2842],[1,-303],[0,-103],[0,-202],[0,-204],[-3,-166],[1,-241],[2,-500],[1,-19],[-1,-290],[0,-114],[2,-139],[-1,-153],[-3,-209],[4,-45],[0,-151],[-236,-3],[-393,6],[-235,-2],[-223,1],[-33,-3],[-28,5],[-42,-2],[-142,1],[-80,3],[-170,1],[-77,-1],[-75,0],[-287,5],[-158,2]],[[9081,16],[0,185],[0,275],[-1,212],[-1,195],[-1,155],[0,236],[1,363],[-1,135],[0,270]],[[1928,3664],[-1,-412],[1,-177],[-1,-422],[109,1],[6,-6],[30,-96],[30,-10],[0,-84],[3,-11],[59,-1],[17,-11],[-1,-111],[0,-177],[6,-4],[70,2],[1,-97],[10,-4],[99,5],[34,6],[79,5],[15,-1]],[[2494,2059],[-2,-196],[0,-316],[-46,0],[-33,-34],[-2,-70],[-12,-3],[-64,0],[1,-61],[-2,-142],[8,-5],[-1,-115],[0,-173],[-2,-11],[0,-86],[1,-36],[1,-121],[-1,-51],[-26,-6],[0,-94],[-6,-11],[-8,-98],[-117,-2],[-1,-407]],[[2182,21],[-77,-2],[-77,2],[-29,5],[-28,-4],[-48,1],[-19,-8],[-124,3],[-17,1],[-112,2],[-241,9],[-167,7],[-166,6],[-106,5],[-254,8],[-173,5],[-259,6],[-34,-2],[-238,-2],[-5,4],[-1,408],[-1,406],[0,296],[-1,190],[-1,544],[-1,119],[0,180],[-1,115],[1,196],[-1,133],[0,652],[-2,35],[2,53],[0,353],[339,-17],[135,-8],[51,-2],[452,-28],[153,-5],[190,-7],[132,-2],[158,-4],[133,-5],[175,-8],[8,3]],[[5685,5419],[-85,-2],[1,-67],[5,-197]],[[5606,5153],[1,-219]],[[5607,4934],[-206,-1],[0,-31],[-50,-2],[-8,-8],[-32,-13],[-18,9],[-1,38],[-145,-2],[-79,1],[25,18],[19,4],[15,20],[21,61],[15,3],[14,22],[11,27],[8,68],[8,24],[-9,12],[-67,-5],[-176,-6],[-1,159],[58,0],[2,-36],[-28,1],[1,-65],[73,-1],[0,-27],[133,0],[13,15],[14,-14],[56,3],[4,24],[-13,7],[-3,18],[12,16],[13,-9],[-1,64],[-149,2],[-2,197],[5,6],[140,-2],[68,2],[172,7],[80,-7]],[[4066,1264],[118,0],[134,1],[187,-2],[239,1],[213,-1],[40,72],[-1,131],[154,0],[4,-2],[1,-44],[5,-6],[47,-10],[25,-15],[9,0],[28,25],[9,-1],[16,-26],[21,-7],[0,-115],[4,-4],[86,2],[12,-10],[7,-25]],[[5424,1228],[9,-25],[21,-13],[44,0],[43,-9],[15,-19],[30,-4],[0,-76],[4,-15],[36,-19],[2,-301],[0,-84],[1,-75],[0,-141],[1,-162],[1,-247]],[[5631,38],[-23,4],[-125,0],[-163,-2],[-30,2],[-155,-1],[-36,5],[-8,-5],[-92,-1],[-316,3],[-112,0],[-70,-3],[-524,5]],[[3977,45],[1,103],[-1,172],[1,99],[0,159],[0,282],[69,-1],[10,22],[-1,190],[10,193]],[[1919,6563],[27,-1],[231,4],[311,-6],[2,-3],[53,2],[258,-3],[162,0],[123,-2],[178,-5],[169,1],[126,-4],[75,-4],[67,0],[39,2],[33,-1],[92,1],[-5,299],[1,11],[187,91],[13,10],[112,1]],[[4173,6956],[4,-305],[2,-98],[3,-5],[75,1],[2,-203],[1,-294],[-3,-42],[8,-13],[89,0],[7,-11],[3,-422],[0,-229],[-158,3],[-75,3],[-81,1],[1,-184],[1,-247],[-2,-251],[0,-161],[0,-111],[3,-137],[4,-268],[3,-265]],[[4060,3718],[-216,-2],[-90,1],[-133,-5],[-74,-6],[-116,3]],[[3431,3709],[-1,13],[-1,313],[0,346],[-3,365],[1,83],[-1,125],[-1,376],[-55,-1],[-162,2],[-32,-1],[-25,-10],[-15,11],[-211,-9],[-124,-6],[-130,0],[-169,0],[1,-116],[1,-239],[1,-324],[1,-160],[1,-324],[0,-66]],[[2507,4087],[-1,-257],[-1,-140],[-3,-6],[-160,-7],[-145,-6],[-136,-3],[-133,-4]],[[1928,3664],[-2,152],[0,155],[-1,30],[0,257],[1,142],[-1,50],[1,127],[-2,256],[-1,167],[2,111],[-1,326],[1,266],[10,456],[-25,1],[1,14],[6,316],[2,73]],[[9038,6180],[0,43],[259,90],[-1,93],[5,5],[43,-1],[8,12],[0,85]],[[9352,6507],[250,3],[84,0],[314,-2],[5,-4],[876,-4],[52,-5],[333,-4],[3,-403],[-3,-611],[-3,-708]],[[9053,4888],[-2,191],[2,45],[-4,115],[-3,149],[-3,264],[-2,254],[-1,31],[-2,192],[6,26],[-6,25]],[[5606,5153],[61,2],[79,-1],[5,4],[-2,89],[-19,0],[-1,114],[36,1]],[[5765,5362],[138,2],[67,-13]],[[5970,5351],[19,-7]],[[5989,5344],[-41,-37],[-22,-42],[-1,-52],[37,-17],[-1,-27],[-50,27],[3,-46],[8,-7],[1,-33],[-37,-48],[-9,-22],[-30,0],[-25,24],[-32,20],[-55,5],[-44,-15],[-24,-1],[-5,-43],[8,-58],[6,-13],[22,-22],[50,-16],[45,-2],[33,-47],[15,-33],[-1,-13],[11,-27],[23,-36],[0,-28],[-18,-44],[-5,-28],[15,-10],[17,0],[0,-18],[-16,-46],[-22,-33],[3,-89],[0,-59],[-4,-21],[-21,-18],[-38,-11],[-24,-2],[-36,20],[-23,21],[-19,24],[-20,17],[-18,5],[-35,-5]],[[5610,4438],[-1,85],[0,116],[-2,295]],[[1938,11063],[27,-17],[11,-1],[29,16],[106,-3],[72,0],[70,-3],[121,9],[52,-2],[4,-6],[196,-4],[175,-5],[263,-11],[-2,44],[-2,366]],[[3060,11446],[-5,211],[-2,252],[-3,159],[-2,197]],[[3048,12265],[24,2],[82,-6],[140,-3],[156,-4],[161,-7],[78,-5],[54,1],[234,7],[297,-5],[154,3],[478,5],[259,3],[378,1],[2,-213],[7,-409],[2,-206],[13,-1023],[2,-190],[98,-2],[384,-5],[737,-13],[322,-5],[6,-715],[4,-331],[0,-174]],[[7120,8971],[-238,6],[-393,10],[-261,3],[-366,7],[-281,-3],[2,-199],[2,-208]],[[5585,8587],[-248,-3],[-106,0],[-110,-5],[-99,1],[-346,2],[-402,-1],[-189,-2],[-173,-1],[-193,3],[-56,3],[-387,11],[-189,4],[-380,0],[-238,0],[-64,2],[-454,17]],[[1951,8618],[-1,194],[-1,168],[-4,722],[-1,244],[-5,711],[-1,201],[0,205]],[[2507,4087],[176,5],[122,2],[163,5],[-1,-331],[-10,-35],[10,-14],[4,-25],[109,5],[291,7],[60,3]],[[4060,3718],[309,-2],[136,-2],[319,0],[91,2],[7,-21],[0,-24],[-10,-12],[-21,-6],[-9,-13],[-3,-33],[187,3],[0,48],[82,3],[0,52],[72,0],[5,5],[2,47],[59,1],[16,15],[4,32],[82,2],[225,3]],[[5613,3818],[2,-378],[1,-132],[0,-202],[2,-195],[4,-5],[70,1],[5,-3],[2,-324],[-1,-104],[-74,-1],[0,6],[-74,1],[2,-11],[25,-24],[-2,-50],[7,-12],[35,-13],[0,-21],[-22,-11],[-1,-17],[15,-5],[15,-17],[22,6],[0,-28],[-21,-13],[-4,-20],[24,-16],[4,-21],[-8,-11],[4,-55],[-22,-11],[-9,-23],[5,-19],[30,-20],[10,-27],[-5,-33],[-13,2],[-10,25],[-12,-18],[10,-22],[-3,-14],[-22,-35],[3,-40],[15,-9],[19,6],[-4,-30],[-14,-17],[-5,-27],[-18,-48],[-34,-80],[-35,-39],[-35,-52],[-32,-51],[-28,-53],[-25,-30],[6,-32],[24,-28],[35,-29],[10,-14],[4,-27],[-7,-14],[-22,7],[-9,-4],[6,-34],[-1,-41],[-12,-21],[-21,-13]],[[4066,1264],[1,19],[0,487],[-1,211],[-1,138],[0,159],[-136,1],[-151,3],[-141,-4],[-120,-2],[-49,-23],[-61,-5],[-11,6],[1,18],[-80,-3],[-118,-2],[-128,-1],[-185,-2],[-259,-1],[-55,-2],[-1,-193],[-1,-9],[-76,0]],[[5613,3818],[-1,293]],[[5612,4111],[132,2],[164,2],[349,-10],[132,-2],[-1,91],[4,10],[232,-5],[1,-114],[2,-10],[53,-128],[26,-58],[2,-96],[157,-3],[2,-102],[199,-4],[187,-5],[8,-2],[329,-3],[177,0],[204,-2]],[[7971,3672],[1,-198],[-4,-8],[-152,4],[1,-391],[-1,-170],[3,-471],[0,-268],[1,-120],[204,-5],[110,0]],[[8134,2045],[1,-403],[1,-405],[-1,0],[1,-563],[1,-84],[0,-221],[1,-243],[0,-99]],[[8138,27],[-158,1],[-156,0],[-98,2],[-88,-3],[-296,-1],[-148,1],[-316,0],[-232,1],[-395,0],[-29,1],[-284,3],[-195,0],[-91,2],[-21,4]],[[5765,5421],[0,-59]],[[8134,2045],[314,1],[235,-3],[331,0],[64,-1]],[[9081,16],[-313,5],[-315,4],[-315,2]],[[7971,3672],[141,0],[80,-2],[248,-1]],[[11255,3952],[0,-209],[2,-55],[-2,-41],[0,-228],[2,-471],[0,-106]],[[3977,45],[-233,1],[-158,-2],[-481,-6],[-362,-4],[-224,-4],[-289,-9],[-48,0]],[[1934,11468],[3,-2],[110,2],[138,1],[150,-4],[725,-19]],[[1938,11063],[-3,284],[-1,121]],[[1934,11468],[-6,418],[-2,263],[-3,135],[214,3],[272,0],[263,-15],[44,-3],[240,-5],[90,-1],[2,2]],[[7120,8971],[0,-405],[160,-5]],[[7280,8561],[-17,-20],[5,-35],[-11,-19],[-31,0],[-7,-15],[-29,-8],[-26,-17],[-15,8],[-16,-8],[-18,5],[-25,16],[-24,22],[-25,-2],[-31,-37],[-21,-10],[6,-10],[17,5],[37,31],[22,-3],[8,-9],[0,-20],[12,-5],[10,-18],[22,6],[16,-13],[24,-8],[-7,-24],[11,-13],[1,-36],[-10,-13],[-23,-13],[10,-27],[14,10],[7,-20],[-2,-20],[16,-28],[0,-12],[14,-11],[4,-22],[16,10],[25,-39],[-10,-38],[18,14],[8,-3],[35,-50],[-16,-15],[21,-8],[3,-27],[17,8],[2,-30],[19,-3],[30,-35],[11,-26],[34,-32],[29,-4],[31,22],[18,-6],[18,-19],[7,-50],[27,-18],[-3,-7],[-41,21],[-13,15],[-22,8],[13,-33],[20,-14],[12,-24],[-3,-18],[6,-20],[-20,-56],[-11,-13],[-2,-20],[-9,-13],[-1,-33],[-31,-33],[-14,-38],[-18,-10],[-35,4],[20,-30],[-27,-33],[-19,-12],[-16,-3],[-5,35],[-13,-29],[-23,-5],[21,-26],[-19,-18],[-13,7],[-6,-19],[-21,-3],[-6,-16],[-11,-1],[-1,23],[-17,19],[-3,20],[6,38],[-4,28],[-8,10],[4,30],[-3,20],[8,20],[-22,35],[-3,45],[-8,39],[21,12],[-20,14],[-14,32],[1,24],[-10,5],[-7,30],[-11,17],[0,20],[-20,36],[-21,11],[-8,12],[1,31],[-14,-13],[-6,-29],[17,-12],[12,-17],[6,-21],[14,-2],[15,-70],[14,-25],[-2,-20]],[[7148,7744],[-53,-2],[-112,2],[-159,6],[-315,6],[-1,205],[-414,8],[-212,6],[-113,0],[-181,-3],[-3,529],[0,86]],[[4173,6956],[320,0],[351,1],[18,-5],[15,-18],[7,-24],[1,-101],[3,-21],[12,-20],[22,-12],[239,2],[155,2],[242,2],[37,1],[0,-12],[316,4],[122,-3],[59,6]],[[6092,6758],[-3,-25],[10,-27],[-3,-29],[7,-32],[32,-34],[29,-7],[20,-40],[17,-26],[16,-52],[11,-16],[45,-22],[5,-18],[-31,-5],[14,-14],[20,-2],[17,-28],[2,-19],[-16,-18],[-17,-1],[-27,-11],[-19,-21],[-15,8],[-6,-11],[-23,8],[-11,43],[-26,35],[13,-49],[-3,-20],[-39,10],[-10,-21],[23,0],[32,-14],[0,-18],[23,-20],[-14,-65],[-32,-1],[29,-27],[-5,-8],[-31,27],[-16,36],[-15,12],[-13,20],[-16,-2],[-15,13],[-13,23],[-13,1],[21,-37],[27,-19],[3,-21],[-10,-15],[31,-8],[1,-32],[-10,-16],[-44,1],[-24,42],[-13,14],[-15,6],[-14,-26],[26,1],[19,-37]],[[6023,6144],[-61,1],[-6,-2],[-202,5],[-5,-6],[-5,-43],[1,-53]],[[5610,4438],[0,-78],[2,-249]],[[7148,7744],[-4,-16],[13,-12],[-1,-19],[-14,-21],[18,-26],[-3,-31],[12,-17],[0,-39],[-16,-11],[15,-13],[-4,-16],[-34,14],[-17,-6],[-16,9],[-30,7],[-17,-14],[-21,2],[11,-23],[44,10],[33,-17],[19,1],[17,-12],[-13,-22],[-51,-8],[-18,-26],[60,18],[15,-13],[15,18],[12,-9],[-13,-17],[1,-18],[-9,-28],[-27,-16],[-15,0],[-10,-10],[-33,-11],[-37,-4],[9,-12],[51,6],[37,17],[29,3],[7,-19],[-23,-27],[-6,-20],[-19,-30],[-17,-6],[5,-18],[-27,-11],[-24,12],[-13,-15],[3,-16],[-38,1],[-20,-9],[8,-14],[22,9],[16,-14],[10,9],[41,20],[10,-6],[-4,-28],[-12,-8],[-2,-16],[-24,-11],[4,-14],[24,6],[14,-46],[14,-16],[-24,-15],[15,-12],[20,0],[-8,-32],[-10,-11],[-5,-40],[-12,-15],[1,-16],[-8,-41],[6,-22],[-4,-24],[17,-24],[13,-35],[-12,-30],[-31,-21],[-28,-7],[-9,14],[-9,-29],[-20,-5],[-20,-13],[-26,33],[-7,33],[-4,40],[1,31],[10,31],[-12,1],[-13,-33],[0,-52],[-6,-12],[-17,-6],[-52,49],[-21,59],[-6,-24],[18,-44],[-4,-21],[15,-1],[12,-18],[-14,-19],[-17,-39],[-28,0],[14,-34],[-27,-29],[-35,-18],[-13,0],[-3,-31],[-16,-29],[-6,-39],[8,-32],[-1,-19],[-14,-1],[-12,12],[-11,-2],[-22,13],[-8,13],[-2,39],[15,9],[-10,22],[15,30],[8,38],[9,16],[-6,23],[-17,-24],[-11,-1],[2,-21],[-9,-9],[-1,-33],[-9,-15],[-12,0],[2,-22],[-14,1],[3,-24],[-7,-12],[-18,8],[-16,37],[6,29],[-27,-8],[-17,18],[6,35],[0,37],[-14,-11],[-10,21],[-9,-18],[-13,-9],[29,-28],[-5,-13],[-26,0],[-11,14],[-43,-26],[-18,-48],[-10,-7],[-4,-48],[-4,-11],[-32,-37],[-12,4],[8,26],[-25,-12],[-5,-8],[1,-27],[-7,-14],[-15,12],[2,29],[-25,28],[-5,19],[-14,6],[12,35],[2,22],[-7,20],[9,12],[-14,17],[-10,28],[11,25],[9,44],[-9,56],[14,23],[-16,7],[-14,-37],[-14,-8],[-6,30],[-3,31],[-16,30],[-1,24],[22,65],[13,22],[-7,6],[-51,-73],[-6,-37],[4,-10],[3,-37],[13,-19],[-6,-23],[25,-38],[0,-18],[14,-23],[-2,-67],[12,-18],[-5,-19],[5,-12],[-9,-28],[-16,-12],[-12,6],[-18,18],[-18,42],[-6,29],[-58,18],[-11,22],[1,27],[-17,45],[-5,39],[-11,-14],[8,-16]],[[1919,6563],[0,6],[6,348],[2,95],[1,148],[2,90],[6,392],[0,74],[9,449],[-1,65],[7,388]],[[5989,5344],[21,28],[13,35],[14,-9],[-27,-49],[4,-11],[43,-6],[148,-3],[2,56],[-2,18],[26,0],[0,38],[12,16],[99,-1],[0,68],[-90,5],[5,14],[-7,34],[7,8],[-10,19],[10,6],[34,-14],[-6,23],[-30,20],[5,15],[17,-10],[7,18],[14,8],[19,-37],[45,-29],[11,-22],[24,-14],[28,-5],[15,4],[15,-9],[23,13],[-75,17],[-14,14],[-17,29],[-33,20],[4,14],[23,-3],[7,12],[-25,5],[-31,26],[-6,16],[12,12],[31,16],[-5,9],[14,24],[19,5],[6,-28],[22,-7],[5,18],[-15,20],[3,17],[24,-42],[23,-20],[9,-21],[2,-24],[17,-28],[12,-1],[31,-36],[3,-11],[37,-17],[-28,33],[-7,16],[-42,50],[1,12],[26,-12],[-1,16],[-24,16],[-17,28],[-5,18],[-16,8],[-13,18],[-9,25],[30,9],[15,50],[31,12],[16,2],[14,-11],[7,-23],[11,2],[28,-16],[15,-26],[8,7],[-16,28],[-35,30],[2,16],[19,-5],[12,-15],[20,-13],[18,-24],[24,-8],[23,-20],[4,8],[-21,19],[7,11],[-26,27],[1,14],[12,32],[36,-10],[3,18],[20,11],[19,-18],[46,13],[10,-8],[17,6],[22,-13],[21,-4],[-2,193],[233,-3],[200,-4],[238,-3],[100,1],[63,2],[82,-2],[30,2],[343,0],[158,-1],[300,-5],[257,-3],[18,5],[179,62]],[[6023,6144],[7,-18],[19,-27],[17,-3],[19,7],[1,-18],[24,17],[9,-25],[25,-32],[0,-31],[-17,7],[6,-27],[32,-39],[-26,-5],[-20,29],[-42,19],[-18,4],[-1,-22],[-16,-9],[10,-16],[31,13],[16,-10],[-7,-23],[9,-15],[52,-15],[32,-14],[-3,-25],[-13,-21],[-23,12],[-8,-7],[17,-19],[-7,-18],[4,-18],[-9,-17],[-10,3],[-22,24],[-25,10],[-12,38],[-13,15],[-6,-15],[14,-15],[-7,-26],[-21,15],[-38,-7],[-20,26],[-33,32],[-1,-17],[18,-16],[0,-25],[14,-3],[14,-15],[21,-1],[28,-22],[29,0],[34,-19],[-14,-25],[-26,-9],[-36,16],[-11,16],[-14,-3],[20,-32],[24,-6],[11,-11],[28,-5],[25,6],[13,-20],[3,-48],[-10,-13],[13,-24],[3,-34],[-16,-5],[-1,26],[-23,28],[-27,-10],[6,-26],[-24,-29],[-8,-16],[5,-77],[-17,19],[-6,-27],[5,-27],[-22,-43],[-27,-14],[-11,-16]],[[7280,8561],[165,-4],[234,-3],[386,5],[166,1],[158,-1],[5,-399],[316,-6],[3,-408],[320,-8],[0,-408],[314,-1],[2,-171],[0,-141],[3,-117],[-2,-26],[2,-367]]],"transform":{"scale":[0.00005941654095305757,0.00003575876943110619],"translate":[-89.139916,39.214915]},"objects":{"Geometry\\17-173":{"type":"GeometryCollection","geometries":[{"arcs":[[0,1,2,3]],"type":"Polygon","properties":{"GEOID":"171739593001"}},{"arcs":[[4,5,6,7]],"type":"Polygon","properties":{"GEOID":"171739594003"}},{"arcs":[[8,9,10]],"type":"Polygon","properties":{"GEOID":"171739595004"}},{"arcs":[[11,12,13]],"type":"Polygon","properties":{"GEOID":"171739596002"}},{"arcs":[[-3,14,15,16]],"type":"Polygon","properties":{"GEOID":"171739593004"}},{"arcs":[[17,18,19,20]],"type":"Polygon","properties":{"GEOID":"171739596004"}},{"arcs":[[21,22,23,24,25,26]],"type":"Polygon","properties":{"GEOID":"171739592002"}},{"arcs":[[27,28,-5,29]],"type":"Polygon","properties":{"GEOID":"171739594001"}},{"arcs":[[30,31,32,33,34,-16]],"type":"Polygon","properties":{"GEOID":"171739593002"}},{"arcs":[[35,36,37,38,39,40]],"type":"Polygon","properties":{"GEOID":"171739591003"}},{"arcs":[[-26,41,-24,42,43,-18,44,-12]],"type":"Polygon","properties":{"GEOID":"171739596001"}},{"arcs":[[45,46,47,48,49,-19,-44]],"type":"Polygon","properties":{"GEOID":"171739595002"}},{"arcs":[[-2,50,-31,-15]],"type":"Polygon","properties":{"GEOID":"171739593003"}},{"arcs":[[51,-11,52,-49]],"type":"Polygon","properties":{"GEOID":"171739595003"}},{"arcs":[[53,-7,54,-9,-52,-48]],"type":"Polygon","properties":{"GEOID":"171739595001"}},{"arcs":[[-45,-21,55,-13]],"type":"Polygon","properties":{"GEOID":"171739596003"}},{"arcs":[[56,-36,57]],"type":"Polygon","properties":{"GEOID":"171739591002"}},{"arcs":[[-42,-25]],"type":"Polygon","properties":{"GEOID":"171739592003"}},{"arcs":[[-37,-57,58]],"type":"Polygon","properties":{"GEOID":"171739591001"}},{"arcs":[[59,60,61,-39]],"type":"Polygon","properties":{"GEOID":"171739591004"}},{"arcs":[[62,63,64,-4,-17,-35,65,-46,-43,-23]],"type":"Polygon","properties":{"GEOID":"171739592004"}},{"arcs":[[-40,-62,66,-63,-22,67]],"type":"Polygon","properties":{"GEOID":"171739592001"}},{"arcs":[[-34,68,-30,-8,-54,-47,-66]],"type":"Polygon","properties":{"GEOID":"171739594002"}},{"arcs":[[69,-32,-51,-1,-65]],"type":"Polygon","properties":{"GEOID":"171739593005"}},{"arcs":[[-64,-67,-61,70,-28,-69,-33,-70]],"type":"Polygon","properties":{"GEOID":"171739594004"}}]}}}