{"type":"Topology","arcs":[[[6343,7629],[27,118],[16,61],[61,255],[5,15],[17,36],[16,23],[20,23],[25,20],[19,13],[34,15],[128,42],[117,37],[34,14],[-1,-9],[4,-34],[0,-22],[-12,-17],[14,-7],[125,3],[184,2],[-2,-173],[-2,-189],[-2,-228],[-314,-2],[-118,-2],[-316,-5],[-16,3],[-7,-3],[-59,-2],[3,13]],[[1430,9957],[186,2]],[[1616,9959],[0,-50],[-1,-5],[36,0],[-9,-58],[-8,-32],[-8,-22],[3,-3],[-7,-20],[-25,-73]],[[1597,9696],[-32,2],[-9,3],[-63,3],[-36,6],[-54,-1],[-20,10],[-13,20],[-2,10],[1,35],[2,25],[-2,6],[18,55],[12,18],[31,35],[6,11],[-6,23]],[[4704,5491],[13,-4],[48,0],[1,-5],[78,0],[0,-20],[21,4],[-1,28],[7,6],[29,-1]],[[4900,5499],[1,-67]],[[4901,5432],[0,-17]],[[4901,5415],[-83,-1],[-17,-35],[-128,0]],[[4673,5379],[6,43],[5,18],[10,30],[10,21]],[[7967,9704],[148,3]],[[8115,9707],[3,-72]],[[8118,9635],[1,-49],[31,1],[3,-117],[2,-58]],[[8155,9412],[-208,-5],[-34,1],[-8,3],[15,19],[22,37],[9,19],[13,41],[5,30],[2,32],[-4,115]],[[8301,9805],[1,-21],[43,0],[1,-71]],[[8346,9713],[-103,-3],[-5,-45],[-9,-27],[-111,-3]],[[8115,9707],[-1,45],[31,0],[0,28],[105,3],[0,-27],[15,12],[36,37]],[[8346,9713],[97,2],[2,-37],[15,1],[1,-38],[-129,-2],[1,-56],[-13,-1],[0,-27],[-12,0],[4,-139]],[[8312,9416],[-157,-4]],[[3747,6997],[62,0],[100,0],[140,1]],[[4049,6998],[314,3],[521,5],[202,1],[215,1]],[[5301,7008],[285,6],[29,0],[-1,-312],[-11,-20],[-72,-41],[-29,1],[-11,-11],[32,-23],[17,-4],[61,1],[17,-6],[38,-1],[-76,-103],[-7,2],[-246,-5],[-24,-105],[1,-119],[1,-127],[-8,-14],[6,-3]],[[5303,6124],[-71,-96],[-110,-147],[-61,-83],[-27,-29],[-37,-33],[1,-19],[-9,-18],[-14,-19],[-25,-27],[-40,-34],[4,-11],[-5,-14],[6,-17]],[[4915,5577],[-15,-16],[0,-62]],[[4704,5491],[-12,15],[-2,10],[-1,100],[-5,3],[-52,45],[-15,20],[-8,6],[-21,6],[-61,23],[-9,8],[-21,38],[-4,11],[-2,40],[-2,3],[-97,-1],[-18,3],[-1,139],[-35,-21],[-26,-19],[-32,-31],[-2,14],[11,16],[15,31],[-3,15],[-48,-1],[-192,-3]],[[4061,5961],[0,135],[-2,157],[-1,154],[-261,-3],[-55,0]],[[3742,6404],[2,199],[0,86],[3,308]],[[4673,5379],[0,-45]],[[4673,5334],[-14,1],[-20,7],[-13,8],[-13,13],[-3,21],[-13,13],[-19,0],[-44,-8],[-10,-11],[-11,-1],[-9,8],[-19,48],[-6,9],[-42,42],[-37,22],[-24,9],[-14,8],[-66,-2],[2,-248],[7,-30],[1,-56],[-5,-26],[0,-79],[1,-80]],[[4302,5002],[-83,-1],[-1,74],[-150,-1],[-1,148],[-2,215],[-2,270],[0,33],[45,1],[54,-9],[-4,31],[-14,21],[-29,26],[-12,33],[-24,36],[-13,26],[-5,14],[0,42]],[[5649,2279],[126,2],[48,2],[153,2],[164,5],[101,2],[121,2],[156,2],[-2,102],[2,4],[19,0],[122,1],[12,0],[0,-34],[7,-3],[9,19],[0,15],[16,46],[-33,-1],[0,23],[77,1],[-1,82],[15,-5],[11,0],[0,-12],[52,1],[-11,-7],[0,-42],[20,-2],[0,6],[50,1],[0,18],[19,0],[1,-64],[31,0],[4,4],[53,1],[14,-10],[34,0],[1,-13],[18,-1],[-2,90],[0,9],[-26,-1],[5,-24],[18,-10],[-23,-8],[-11,7],[-10,14],[-2,21],[-20,-1],[-9,-24],[-20,-13],[-29,-14],[-2,-7],[-11,-6],[-1,63],[-4,0],[0,21],[16,1],[1,13],[58,1],[0,12],[12,7],[0,13],[14,1],[-1,15],[-11,-1],[0,9],[28,0],[-1,25],[-31,-1]],[[6996,2638],[0,15],[-23,0],[0,17],[11,0],[-1,72],[44,0],[1,-17],[41,1],[-7,5],[0,14],[-5,13],[-9,11],[0,24],[-33,-1],[1,-46],[-52,-1],[-1,35],[-66,-3],[-1,101],[0,12]],[[6896,2890],[155,3],[0,63],[4,11],[103,2],[3,4],[-2,66],[5,5],[30,1],[12,11],[-1,137],[278,6],[30,0]],[[7513,3199],[4,-320],[2,-220],[5,-197],[3,-150],[5,-295],[10,3],[206,2],[89,0],[49,1],[180,3],[301,3],[104,2]],[[8471,2031],[149,3],[152,2],[110,3],[210,2],[-3,148],[83,1],[92,2],[86,2],[9,-16],[-8,-15],[8,-1],[26,-13],[20,3]],[[9405,2152],[1,-99],[2,-141],[1,-159],[8,-270],[6,-320],[69,1],[200,3],[1,-279],[0,-53],[-3,-3],[-70,-1],[-4,-3],[0,-219],[-106,0],[-18,-4],[1,-70],[-1,-163],[1,-107],[0,-248]],[[9493,17],[-1,-7],[-139,1],[-171,1],[-234,2],[-387,1],[-306,1],[-3,0],[-370,1],[-199,1],[-19,-2],[-52,0],[-254,1],[-310,-5],[-231,-1],[-234,-2],[-172,-2],[-291,-6],[-320,-1],[0,19],[-2,428],[-1,55],[-1,57],[-3,184],[-1,151],[-3,73],[-1,132],[-3,3],[-110,-3],[-3,4],[-3,145],[-2,79],[-2,85],[-9,444],[-4,268],[-3,155]],[[7506,3783],[77,2],[235,4],[309,7],[2,-25],[-1,-26],[4,-189],[11,1],[0,-27],[-10,0],[2,-142],[1,-57],[2,-126],[93,2],[36,1],[183,2],[5,-240],[1,-53]],[[8456,2917],[3,-117],[2,-68],[3,-111],[1,-75]],[[8465,2546],[2,-220],[0,-19],[4,-276]],[[7513,3199],[-4,279],[-1,184],[-2,121]],[[11243,2836],[11,-469],[12,-474],[5,-234],[7,-294],[0,-11],[5,-165],[11,0],[4,-231],[2,-59],[5,-284],[5,-270],[0,-22],[6,-289],[-296,-3],[-219,-3],[-90,-1],[-311,-4],[-310,-4],[-375,-1],[-222,-1]],[[9405,2152],[-3,117],[-5,217],[0,17],[-5,227],[301,11],[311,16],[76,5],[0,3],[-38,-2],[-1,21],[16,1],[0,-20],[23,1],[-1,31],[155,2],[77,1],[-1,54],[-2,71],[3,20],[138,2],[1,-68],[13,0],[1,-45],[55,8],[24,0],[-1,-47],[-52,-3],[0,-4],[81,5],[217,15],[142,9],[111,7],[202,12]],[[4696,4635],[310,3],[-2,19],[-1,115],[-1,29],[0,152],[0,123],[-1,6]],[[5001,5082],[84,0],[109,1],[20,-1],[5,9],[-1,12],[8,8],[25,10],[24,3],[5,10],[1,13],[-5,17],[-34,-3],[-17,15],[-9,29],[-11,15]],[[5205,5220],[-1,17],[0,81],[-1,62]],[[5203,5380],[133,1],[101,2],[18,6],[9,12],[2,12],[-1,118]],[[5465,5531],[131,3],[90,0],[76,1],[135,3],[111,1],[174,1],[115,3],[225,6],[294,7],[292,5],[55,0],[104,2],[129,2],[125,2]],[[7521,5567],[-7,-14],[-15,1],[-6,-6],[7,-20],[-16,-11],[-20,3],[-11,6],[-13,-7],[-7,-10],[3,-13],[-3,-27],[-23,-21],[-10,-17],[-19,-21],[-14,-19],[-12,-33],[-5,-26],[0,-47],[-8,-17],[-5,-3],[-44,-1],[-4,-17],[-18,-41],[-6,-36],[-5,-40],[1,-23],[6,-12],[31,-23],[52,-56],[27,-45],[-4,-48],[-6,-20],[-18,-13],[-19,-33],[-15,-5],[-38,-17],[-19,-6],[-12,-9],[-12,-29],[1,-20],[6,-13],[-6,-13],[-33,-22],[-6,-12],[-18,-16],[-24,-23],[9,-63],[7,-14],[17,0],[17,-17],[11,-24],[10,-5],[21,-2],[20,-6],[6,-10],[13,-10],[17,2],[18,-4],[18,7],[8,0],[17,-7],[23,-5],[25,0],[9,-2],[12,-13],[7,0],[28,-28],[18,-1],[6,-3],[10,-32],[11,-19],[7,-7],[0,-19],[6,-17],[1,-16],[-5,-11],[8,-16],[-16,-30],[-8,-23],[-9,-12],[-15,-10],[-21,-10],[-17,-3],[-17,2],[-35,8],[-30,2],[-15,-3],[-36,-17],[-20,-6],[6,-16],[0,-43],[7,-5],[4,-13],[-3,-25],[2,-5],[-7,-20],[15,-5],[9,7],[24,-7],[14,-10],[139,3],[3,-3],[3,-303]],[[6896,2890],[1,17],[-1,90],[0,67],[-2,122],[-154,-3],[2,-243],[-1,-53],[-51,-2]],[[6690,2885],[-173,-4],[-79,-1],[-88,-2],[-225,-3],[-224,-3],[-260,-4]],[[5641,2868],[-312,-4],[-81,-2],[-250,-3],[-285,-4]],[[4713,2855],[-3,317],[-3,267],[0,142],[0,20],[-1,137],[-2,194],[-2,176],[0,128],[-2,133],[0,99],[-2,146],[-2,21]],[[8138,10032],[219,6],[184,6]],[[8541,10044],[-43,-44],[-72,-70],[-16,-10],[-12,-17],[-29,-29],[-68,-69]],[[7967,9704],[0,49],[3,24],[15,39],[17,30],[11,14],[25,25],[31,21],[14,7],[57,21],[-2,98]],[[3134,8177],[34,-10],[21,-4],[11,1],[26,16],[90,1],[129,1],[0,-111],[0,-54],[0,-87],[-1,-55],[23,-5],[15,0],[10,4],[19,13],[116,2],[115,2],[22,-6],[24,-1],[88,2],[125,-1],[49,-1],[2,-293],[0,-150],[-1,-147],[-2,-296]],[[3747,6997],[-33,0],[-140,-2],[-320,-4],[4,29],[11,24],[-20,14],[-8,-2],[-10,-16],[-8,-4],[-18,3],[-11,10],[-18,-11],[-21,-2],[-9,-8],[-11,4],[-15,21],[-13,-3],[3,-12],[-9,-14],[-20,-7],[-27,19],[-6,15],[-1,14],[3,21],[-5,7],[-24,18],[-10,5],[5,22],[-104,-2],[-2,48],[-3,10],[-29,47],[-12,23],[-4,21],[103,1],[6,6],[4,319],[2,151],[2,118],[155,1],[1,90],[0,94],[0,98],[-1,14]],[[13,8418],[190,-1],[6,-7],[16,0],[37,5],[68,0],[19,1],[210,6],[141,4],[120,3],[132,3],[146,4],[149,4],[202,5],[152,6],[189,7],[104,4],[22,-2],[268,2],[2,19],[27,2],[21,8],[15,-1],[30,-26],[1,-3],[-4,-204],[107,85],[8,-6],[0,-20],[-9,-37],[-4,-29],[-20,-51],[-10,-32],[207,3],[201,3],[269,5],[20,-3],[14,-12],[31,2],[25,11],[19,1]],[[3742,6404],[-277,-3],[-113,-1],[-225,-3],[-319,-5]],[[2808,6392],[-310,-5],[-115,0],[-124,-2],[-104,-3],[-288,-4],[2,134],[3,201],[2,110],[-149,-5],[-1,12],[-23,-9],[-19,-5],[-118,-4],[-149,-4],[-163,-5],[-23,0],[-270,-6],[-20,-1],[2,149],[-312,-8],[-149,-3],[-166,-4],[0,8],[5,291],[-310,-4]],[[9,7225],[1,141],[2,443],[1,151],[-1,110],[1,38],[0,310]],[[5301,7008],[2,296],[177,2],[108,2],[27,0],[-1,89],[0,181],[0,307],[3,217],[1,169],[0,166],[0,104],[5,540],[0,14],[2,186],[1,45],[3,320],[0,34],[5,233],[1,86]],[[5635,9999],[166,0],[38,1],[141,0],[138,-1],[142,1],[291,1],[238,-1],[85,0],[97,2],[143,2],[141,2],[31,1],[81,2],[149,3],[157,4],[226,8],[38,1],[162,5],[39,2]],[[8312,9416],[1,-30],[4,-159],[3,-120],[4,-124],[5,-192],[5,-141],[12,-371],[1,-81],[9,-247],[5,-177],[6,-199],[5,-225],[7,-345],[2,-80],[3,-225],[4,-236]],[[8388,6464],[-311,-3],[-309,-3],[-126,-3],[-44,-1],[-128,-3],[3,-239],[1,-57],[-3,-293],[5,-120],[12,-33],[0,-16],[6,-12],[15,-15],[0,-34],[9,-10],[9,-38],[-6,-17]],[[5465,5531],[0,262],[-2,174],[-2,157],[-146,-3],[-12,3]],[[1616,9959],[170,2],[42,1],[110,0]],[[1938,9962],[-3,-119],[-1,-60],[-3,-92],[-4,-105],[2,-6],[-6,-28],[-15,19],[-14,11],[-5,11],[-9,2],[-33,35],[-31,19],[-26,-4],[-53,-15],[-18,0],[-33,13],[-20,12],[-13,17],[-12,9],[-30,14],[-14,1]],[[6690,2885],[2,-122],[-21,1],[0,36],[-2,7],[-24,-1],[-2,-3],[2,-144],[-11,0],[0,-10],[12,-4],[149,-3],[54,-2],[50,0],[56,-2],[41,0]],[[5649,2279],[-3,233],[-2,154],[-3,202]],[[9323,6477],[277,4],[115,1],[77,2],[229,4],[61,0],[96,2],[69,1],[340,6],[250,5],[150,2],[161,4]],[[11148,6508],[8,-265],[1,-31],[5,-211],[1,-9],[6,-245],[4,-128],[7,-292],[9,-300],[7,-296],[1,-17],[9,-277],[3,-127]],[[11209,4310],[-13,-3],[-23,9],[-17,20],[-9,51],[-24,26],[-19,2],[-18,-12],[-12,-5],[-12,-1],[-9,4],[-25,30],[-15,11],[-17,8],[-15,3],[-38,1],[-20,4],[-30,19],[-25,13],[-39,24],[-24,10],[-18,4],[-20,0],[-46,-8],[-66,-5],[-26,-5],[-34,-8],[-51,-26],[-19,-6],[-19,-1],[-75,3],[-51,-6],[-37,-2],[-17,-2],[-74,-19],[-24,-1],[-55,18],[-12,6],[-25,18],[-21,9],[-43,16],[-26,14],[-23,16],[-18,11],[-28,10],[-14,2],[-26,-5],[-20,-14],[-12,-12],[-55,-79],[-4,-6],[-43,-41],[-9,-7],[-18,-8],[-46,-11],[-18,-7],[-49,-21],[-1,60],[-271,-6],[-27,1],[-3,112],[-6,352],[-2,129],[-2,180],[-6,246],[-3,144],[-1,49],[-7,323],[-1,64],[-1,46],[-4,222],[-5,204]],[[8541,10044],[244,7],[93,3],[192,6],[86,3],[199,6],[47,1],[259,8],[102,4],[134,4],[265,8],[207,7],[58,1],[73,3],[469,12],[78,2],[3,-125],[5,-162],[8,-249],[7,-281],[5,-138],[1,-49],[7,-243],[4,-147],[1,-31],[3,-123],[7,-231],[4,-162],[4,-139],[6,-252],[2,-47],[9,-347],[3,-123],[4,-172],[10,-295],[7,-259],[1,-36]],[[9323,6477],[-150,-2],[-213,-4],[-318,-4],[-254,-3]],[[4302,5002],[0,-74],[81,1],[174,1],[20,1]],[[4577,4931],[114,0],[1,-96],[1,-67],[1,-122],[2,-11]],[[4713,2855],[-184,-1],[-447,-5],[-533,-8],[-93,-2],[-139,-2],[-170,-3],[-314,-6]],[[2833,2828],[0,31],[1,214],[-1,207],[1,164],[-1,42],[0,101],[0,106],[1,26],[0,54],[0,250],[-1,53],[-2,205],[-1,34],[0,112],[-1,180],[-4,0],[-4,293],[-2,203],[-1,37],[-1,177],[-1,116],[-1,131],[0,247],[-3,299],[-2,125],[1,53],[-3,104]],[[4901,5415],[2,-86],[-2,-14]],[[4901,5315],[-13,0],[-35,-14],[-8,-1],[-21,11],[-13,5],[-41,2]],[[4770,5318],[-39,1],[-34,8],[-24,7]],[[4915,5577],[34,14],[4,-2],[1,-29],[18,0],[0,-32],[18,-3],[1,-92]],[[4991,5433],[-90,-1]],[[4991,5433],[20,0],[2,-5],[0,-48],[14,0]],[[5027,5380],[0,-33],[18,0],[5,-19],[7,-33]],[[5057,5295],[-60,-1],[-19,7],[-39,-1],[-29,15],[-9,0]],[[5027,5380],[176,0]],[[5205,5220],[-30,23],[-37,18],[-20,5],[-25,0],[-23,-14],[-5,8],[-8,35]],[[4770,5318],[-36,-73],[-9,-17]],[[4725,5228],[-76,-155],[-72,-142]],[[4725,5228],[9,-1],[66,1],[0,-37],[46,0],[0,-18],[57,1],[1,-93],[97,1]],[[8456,2917],[30,-1],[-1,36],[39,0],[1,-36],[86,1],[1,-67],[-5,-4],[-46,-1],[-6,-53],[3,1],[1,-29],[17,1],[1,-30],[-28,-1],[0,-10],[11,-7],[13,-14],[-29,2],[0,-11],[59,2],[1,-42],[-58,-2],[9,-33],[55,-124],[9,-25],[5,-18],[-6,-1],[-4,15],[-30,70],[-21,0],[0,13],[-98,-3]],[[11209,4310],[5,-168],[8,-296],[2,-54],[5,-236],[3,-151],[3,-149],[5,-296],[3,-124]],[[1938,9962],[92,1],[355,1],[462,3],[231,2],[194,2],[196,2],[272,4],[39,0],[274,5],[35,0],[197,2],[402,4],[46,1],[126,2],[282,3],[362,3],[132,2]],[[13,8418],[1,374],[0,21],[-1,282],[-1,198],[0,123],[-3,462],[1,72],[189,0],[115,0],[42,1],[270,2],[46,0],[334,2],[279,2],[51,-1],[94,1]],[[2833,2828],[-314,-4],[-252,-2],[-215,-3],[-207,-4],[-566,-8],[-334,-6],[-132,-3],[-155,-1],[-171,-3],[-140,-5],[-111,-3],[-201,-5],[-9,592],[-7,611],[-6,505],[-1,72],[-2,174],[-1,47],[0,51],[-1,98],[-3,323],[-2,174],[-1,24],[0,137],[-1,315],[0,34],[-1,102],[1,255],[1,173],[1,67],[2,302],[2,87],[2,293],[0,8]]],"transform":{"scale":[0.00006155231530576226,0.000049181539677834216],"translate":[-88.931476,40.61655]},"objects":{"Geometry\\17-105":{"type":"GeometryCollection","geometries":[{"arcs":[[0]],"type":"Polygon","properties":{"GEOID":"171059602004"}},{"arcs":[[1,2,3]],"type":"Polygon","properties":{"GEOID":"171059603001"}},{"arcs":[[4,5,6,7,8]],"type":"Polygon","properties":{"GEOID":"171059605003"}},{"arcs":[[9,10,11,12]],"type":"Polygon","properties":{"GEOID":"171059601004"}},{"arcs":[[13,14,-11,15]],"type":"Polygon","properties":{"GEOID":"171059601002"}},{"arcs":[[-15,16,17,-12]],"type":"Polygon","properties":{"GEOID":"171059601003"}},{"arcs":[[18,19,20,21,22,-5,23,24,25]],"type":"Polygon","properties":{"GEOID":"171059605001"}},{"arcs":[[-24,-9,26,27,28]],"type":"Polygon","properties":{"GEOID":"171059605002"}},{"arcs":[[29,30,31,32,33,34,35]],"type":"Polygon","properties":{"GEOID":"171059610001"}},{"arcs":[[36,37,38,-33,39]],"type":"Polygon","properties":{"GEOID":"171059609001"}},{"arcs":[[40,-35,41]],"type":"Polygon","properties":{"GEOID":"171059610002"}},{"arcs":[[42,43,44,45,46,47,-40,-32,48,49,50,51]],"type":"Polygon","properties":{"GEOID":"171059608001"}},{"arcs":[[52,53,-16,-10,54]],"type":"Polygon","properties":{"GEOID":"171059601001"}},{"arcs":[[55,-19,56]],"type":"Polygon","properties":{"GEOID":"171059604001"}},{"arcs":[[57,-57,-26,58,59,60]],"type":"Polygon","properties":{"GEOID":"171059604002"}},{"arcs":[[61,62,-55,-13,-18,63,64,-47,65,-21],[-1]],"type":"Polygon","properties":{"GEOID":"171059602003"}},{"arcs":[[66,67,-3]],"type":"Polygon","properties":{"GEOID":"171059603003"}},{"arcs":[[-50,68,-30,69]],"type":"Polygon","properties":{"GEOID":"171059608004"}},{"arcs":[[70,71,72]],"type":"Polygon","properties":{"GEOID":"171059602002"}},{"arcs":[[-54,73,-71,74,-64,-17,-14]],"type":"Polygon","properties":{"GEOID":"171059602001"}},{"arcs":[[-59,-25,-29,75,76,-52,77,78]],"type":"Polygon","properties":{"GEOID":"171059608002"}},{"arcs":[[-8,79,80,81,-27]],"type":"Polygon","properties":{"GEOID":"171059605004"}},{"arcs":[[82,83,-6,-23]],"type":"Polygon","properties":{"GEOID":"171059606002"}},{"arcs":[[-7,-84,84,85,86,-80]],"type":"Polygon","properties":{"GEOID":"171059606003"}},{"arcs":[[87,-45,88,-86]],"type":"Polygon","properties":{"GEOID":"171059606004"}},{"arcs":[[-82,89,90,-76,-28]],"type":"Polygon","properties":{"GEOID":"171059607001"}},{"arcs":[[91,-43,-77,-91]],"type":"Polygon","properties":{"GEOID":"171059607002"}},{"arcs":[[-66,-46,-88,-85,-83,-22]],"type":"Polygon","properties":{"GEOID":"171059606001"}},{"arcs":[[-90,-81,-87,-89,-44,-92]],"type":"Polygon","properties":{"GEOID":"171059607003"}},{"arcs":[[92,-38]],"type":"Polygon","properties":{"GEOID":"171059609003"}},{"arcs":[[-49,-31,-69]],"type":"Polygon","properties":{"GEOID":"171059608003"}},{"arcs":[[-65,-75,-73,93,-42,-34,-39,-93,-37,-48]],"type":"Polygon","properties":{"GEOID":"171059609002"}},{"arcs":[[-4,-68,94,-62,-20,-56,-58,95]],"type":"Polygon","properties":{"GEOID":"171059603002"}},{"arcs":[[-60,-79,96]],"type":"Polygon","properties":{"GEOID":"171059604003"}}]}}}