{"type":"Topology","arcs":[[[4753,1886],[208,-1],[164,0]],[[5125,1885],[269,4],[190,1],[197,1],[197,1],[147,1]],[[6125,1893],[1,-88],[-1,-91],[5,-145],[2,-12],[1,-292],[0,-516],[1,-254]],[[6134,495],[-172,-2],[-18,-4],[-18,-15],[-33,-69],[-10,-18],[-24,-10],[-87,-1],[1,-51],[3,-11],[-60,0],[0,61],[-26,-7],[-15,-23],[-14,-10],[-85,-2],[0,-57],[2,-254]],[[5578,22],[-179,-2],[-400,-6],[-385,-3],[-174,-2]],[[4440,9],[2,138],[7,524],[73,2],[46,4],[34,-2],[128,-13],[4,183],[-2,98],[4,214],[10,439],[3,101],[4,189]],[[3199,5450],[48,0],[76,-2],[38,2],[88,-1],[151,1],[94,-1],[40,39],[65,9]],[[3799,5497],[1,-6],[0,-225],[0,-285],[71,0],[-1,-80],[37,-42],[4,-14],[22,-19],[77,-1],[1,-159],[-1,-76],[180,3],[102,-4],[-1,-163]],[[4291,4426],[-28,-14],[-29,2],[-14,8],[-16,-1],[-18,10],[-30,47],[-14,5],[-14,14],[-26,16],[-22,-2],[-12,-9],[-97,-56],[-24,-25],[-16,-35],[-12,-13],[-26,-14],[-31,-7],[-32,-2],[-30,5],[-23,9],[-17,13],[-36,42],[-19,10],[-26,0],[-14,-10],[-17,-33],[-14,-18],[-43,-27]],[[3591,4341],[-50,-19],[-37,-9],[-38,-20],[-49,9],[-65,-19]],[[3352,4283],[-19,-3],[-1,9],[-14,17],[-4,13],[3,30],[11,4],[11,15],[2,14],[-9,12],[-30,1],[-15,24],[11,24],[23,38],[-3,33],[-104,0],[-10,-1]],[[3204,4513],[-1,122],[-3,333],[0,142],[-1,340]],[[9,4686],[81,-2],[120,-5],[189,-5],[172,-4],[163,-2],[248,0],[217,0],[263,1],[128,-2],[84,-1],[0,35],[23,4],[4,6],[0,107],[2,2],[94,3],[177,1]],[[1974,4824],[5,-50],[-5,-5],[-30,0],[-5,-4],[0,-249],[0,-104],[9,-18],[37,-17],[12,-16],[4,-21],[13,-9],[39,-14],[5,-10],[0,-44],[3,-7],[31,-34],[8,-25],[-4,-19]],[[2096,4178],[-41,-6],[-28,-11],[-27,-19],[-25,-22],[-25,-40],[-34,-47],[-28,-21],[-40,-22],[-34,-11],[-77,-15],[-50,-13],[-57,-13],[-39,-15],[-45,-13],[-65,-1],[-30,-6],[-71,-25],[-21,-5],[-48,-1],[-67,-14],[-63,-33],[-26,-23],[-26,-38],[-20,-45],[-21,-88],[-5,-57],[-13,-53],[-14,-42],[-27,-37],[-30,-25],[-38,-21],[-56,-17],[-73,-37]],[[832,3342],[3,23],[-2,70],[1,79],[-1,219],[-343,2],[-76,1],[-259,1],[-155,3],[1,303],[3,302],[2,85],[3,256]],[[4291,4426],[29,24],[20,6],[27,15],[28,28],[27,12],[24,6],[38,0],[90,14],[36,-4],[14,2],[17,14],[15,30],[3,21],[0,81],[15,64]],[[4674,4739],[41,-7],[-1,-68],[261,4],[1,-224],[24,0],[19,-8],[30,0],[16,-4],[15,-13],[18,-33],[-2,-8],[83,-73],[52,-48],[27,-42],[42,-97],[0,-47],[23,-40],[14,-10],[14,-26],[20,-18],[-22,-50]],[[5349,3927],[-25,31],[-11,48],[-9,16],[-27,24],[-62,35],[-60,26],[-51,59],[-64,111],[-20,26],[-17,9],[-43,12],[-39,2],[-62,-21],[-110,-78],[-53,-33],[-13,-5],[-43,-3],[-23,-6],[-40,-25],[-14,-4],[-49,-3],[-44,1],[-34,-5],[-30,-13],[-38,-25],[-52,-48],[-57,-37],[-19,-3],[-47,7],[-43,1]],[[4150,4026],[-2,47],[1,118],[-41,10]],[[4108,4201],[0,20],[29,5],[-1,44],[-29,3],[2,18],[-1,65],[-177,1],[-25,-3],[-38,-11],[-48,-5],[-120,-3],[-69,-31]],[[3631,4304],[-40,-19]],[[3591,4285],[0,56]],[[3204,4513],[-144,0]],[[3060,4513],[-140,-1],[-109,77],[-30,9],[-72,4],[-69,2]],[[2640,4604],[-4,44],[-36,38],[-11,30],[-1,53],[-6,15],[-27,33],[-68,76],[-18,17],[-79,69]],[[2390,4979],[-11,15],[-30,95],[-10,19],[-48,77],[-11,32],[-63,62],[-34,15],[-20,18],[-48,87],[-2,97],[-16,69],[-29,37],[143,-3],[74,2],[94,0],[185,3],[234,2],[23,-1],[105,2],[131,-1],[0,-155],[142,-1]],[[3066,1875],[279,4],[130,2],[380,2],[330,2]],[[4185,1885],[319,2],[249,-1]],[[4440,9],[-96,0],[-212,-4],[-252,-2],[-419,-3],[-352,0],[-56,1],[3,109],[3,246],[0,317],[-3,42],[3,65],[1,164],[3,3],[-1,158],[1,208],[2,247],[1,315]],[[6093,5468],[-4,-511],[-1,-271],[-1,-261],[-1,-205],[-1,-51],[0,-122],[-4,-141]],[[6081,3906],[-35,9],[-47,-1],[-43,-15],[-13,-11],[-19,-7],[-20,-20],[-13,-21],[-54,-6],[-93,30],[-19,1],[-40,-14],[-36,-7],[-44,-22],[-58,-37],[-31,-12],[-47,-4],[-39,13],[-12,10],[-3,13],[9,52],[1,24],[-11,14],[-20,15],[-45,17]],[[4674,4739],[4,29],[14,41],[20,33],[28,32],[11,24],[3,46],[-3,29],[3,58],[25,32],[25,4],[33,-14],[20,3],[54,35],[14,14],[8,19],[24,10],[17,0],[36,9],[13,-7],[19,-53],[17,-22],[26,-9],[52,8],[42,-4],[69,-26],[27,-33],[26,-18],[45,-45],[24,-6],[13,3],[40,34],[33,21],[19,-1],[36,-24],[30,-9],[20,4],[31,19],[33,49],[14,28],[12,35],[11,47],[49,77],[11,32],[18,29],[23,28],[28,16],[28,44],[16,21],[13,43],[9,14],[30,24],[42,0],[39,23],[19,-6],[26,1],[26,10],[14,-3],[40,-19]],[[3326,7463],[111,0],[245,5],[15,-5],[305,-2],[238,0],[20,2],[130,0],[143,-2],[56,2],[29,-4],[221,-3],[158,-1]],[[4997,7455],[3,-412],[0,-71],[4,-427],[-1,-90],[-21,-56],[-8,-55],[-6,-24],[-2,-59],[-5,-34],[185,-1],[108,1],[-1,-185],[-10,-49],[-139,0],[-24,-2],[-5,-7],[-1,-65],[-4,-4],[-68,0],[-1,-132],[4,-8]],[[5005,5775],[-15,-16],[-116,0],[-154,1],[-1,-36],[-11,-10],[-108,-1],[-39,-8],[-124,1],[-2,-68],[-67,0],[-2,-24],[-10,-9],[-25,-3],[-1,-72],[-10,-13],[-164,7],[-3,3],[-128,0],[-35,4],[-45,3],[-112,0],[-34,-37]],[[3199,5450],[-1,164],[1,305],[138,0],[4,2],[-1,554],[-3,292],[-2,183],[-5,317],[-4,196]],[[1782,6305],[-2,235],[-98,0],[-18,2],[-61,0],[-1,202],[0,110]],[[1602,6854],[-1,305],[3,185],[1,127]],[[1605,7471],[58,2],[116,-6],[151,-3],[88,0],[257,0],[430,-1],[334,1],[287,-1]],[[2390,4979],[-75,-1],[-70,0],[-176,-1],[-131,3]],[[1938,4980],[-67,0],[-4,6],[-1,44],[-6,6],[-62,20],[-4,5],[-1,76],[-63,-2],[-56,0],[1,306],[-3,4],[-65,1],[-3,3],[-3,154],[74,-2],[-1,228],[6,3],[62,4],[76,0],[6,2],[-42,44],[0,149],[0,274]],[[3468,3894],[12,-2],[74,10],[59,-9],[79,-28],[34,-8],[60,3],[53,-2],[28,-6],[22,0],[29,5],[37,15],[30,20],[29,25],[48,65],[19,20],[34,17],[35,7]],[[6081,3906],[46,-14],[1,-18],[0,-94],[-3,-186],[-2,-225],[-1,-6],[-1,-163],[-8,-690]],[[6113,2510],[-51,1],[-199,-1],[-18,-10],[-16,10],[-271,1],[-1,9],[-48,38],[-13,3],[-73,-1],[-3,5],[0,258],[-152,0],[-170,-1],[-191,-2],[-208,0]],[[4699,2820],[-237,1]],[[4462,2821],[-1,299],[-1,194],[2,21],[-2,133],[-1,135],[-192,0],[-8,-3],[-36,4],[-119,1],[-14,2],[-162,48],[-24,5],[-140,16],[-299,42]],[[3465,3718],[0,73]],[[3465,3791],[-2,77],[5,26]],[[5005,5775],[36,3],[1,-39],[-2,-352],[1,-124],[-53,-10],[-52,-14],[-43,-8],[-117,-90],[-26,1],[2,-59],[-20,-53],[-14,-51],[-28,-61],[-53,-128],[19,-38],[18,-13]],[[2893,4105],[25,-6],[49,-18],[30,-18],[15,-5],[43,-1]],[[3055,4057],[21,1]],[[3076,4058],[-5,-22],[-7,-11],[-38,-30],[-15,-3]],[[3011,3992],[-30,-19],[-35,-9],[-32,0],[-45,7]],[[2869,3971],[0,34],[-4,39],[0,33],[11,20],[17,8]],[[1602,6854],[-209,-1],[-188,6],[-100,3],[1,-125],[-1,-273],[1,-229],[-1,-152],[311,-8],[7,3],[60,86],[49,57],[0,19],[43,2],[53,60],[9,3],[145,0]],[[1938,4980],[1,-34],[32,-3],[3,-5],[0,-114]],[[9,4686],[2,178],[3,258],[2,147],[3,250],[1,36],[-1,108],[2,18],[-3,222],[-4,371],[-1,99],[-1,140],[0,212],[-4,173],[-5,597],[345,-7],[162,-4],[282,-5],[302,-5],[109,-1],[40,-4],[144,2],[173,-2],[45,2]],[[2096,4178],[28,1],[33,-11],[29,-14],[122,-31],[36,-16],[55,-29],[29,-32],[31,-31],[21,-14],[53,-13],[40,3],[75,10],[29,6],[26,2],[61,-18],[40,-5],[65,-15]],[[3011,3992],[0,-56]],[[3011,3936],[-8,-11],[-115,-89],[-46,-34],[21,-55],[255,2],[0,34],[39,88]],[[3157,3871],[11,27],[67,-36],[22,51],[85,-44],[69,-38],[54,-40]],[[3465,3718],[2,-189],[1,-91],[137,0],[4,-4],[2,-111],[3,-338],[3,-171],[-297,0],[-254,-3]],[[3066,2811],[-259,-2],[-254,1],[-134,-1],[-172,-4],[-305,-1],[-262,-4],[-282,8],[-277,0],[-144,3],[-144,-1],[1,313],[-2,219]],[[4997,7455],[222,1],[300,2],[559,14],[8,-9],[5,-308],[3,-285],[1,-114],[2,-64],[-1,-65],[2,-90],[2,-137],[0,-336],[-1,-211],[-4,-317],[-2,-68]],[[3285,4157],[75,19]],[[3360,4176],[19,-95]],[[3379,4081],[-21,-5],[2,-17],[-5,-14],[25,-11],[-8,-21]],[[3372,4013],[-86,43]],[[3286,4056],[13,46],[-14,55]],[[2640,4604],[-28,3],[-18,9],[-31,8],[-92,6],[170,-256],[114,-23],[3,-21],[16,-5],[33,0],[27,3],[20,-6],[60,-2],[83,-28]],[[2997,4292],[-4,-34],[-65,-1],[-1,-23],[-46,-19],[-29,-1],[-6,-9],[0,-19],[26,1]],[[2872,4187],[-4,-13],[-1,-33],[26,-36]],[[3352,4283],[-33,-18],[-33,-10],[-17,-1]],[[3269,4254],[-27,-2],[-19,-8],[-19,-22]],[[3204,4222],[-36,75],[21,12],[16,0],[-1,65],[0,139]],[[3204,4222],[-40,-25],[-21,-21]],[[3143,4176],[-25,53]],[[3118,4229],[-11,26]],[[3107,4255],[-41,119],[-5,47],[-1,92]],[[3107,4255],[-110,37]],[[3118,4229],[-59,-33],[6,-20],[-10,-4],[-1,-20]],[[3054,4152],[-127,-1],[-5,18],[-14,14],[-36,4]],[[3143,4176],[-12,-17],[-49,-85],[-6,-16]],[[3055,4057],[-1,95]],[[3011,3936],[11,-9],[12,15],[16,6],[12,16],[18,12],[18,-9],[-22,-51],[81,-45]],[[3591,4285],[-17,-6],[-140,-34],[10,-48]],[[3444,4197],[-84,-21]],[[3285,4157],[-14,68],[-2,29]],[[3286,4056],[-33,15],[3,17],[-30,12],[0,18],[-22,104]],[[3444,4197],[21,6],[5,-25]],[[3470,4178],[14,-70]],[[3484,4108],[-105,-27]],[[3484,4108],[5,-25]],[[3489,4083],[16,-78],[-9,-24]],[[3496,3981],[-5,-13]],[[3491,3968],[-25,0],[-94,45]],[[3598,4210],[50,12],[-17,82]],[[4108,4201],[-19,0],[-269,-1],[-36,-1],[-50,-7],[-41,-9]],[[3693,4183],[-63,-15],[-5,23],[-22,-5],[-5,24]],[[3598,4210],[-128,-32]],[[3693,4183],[-5,-19],[-52,-14],[-17,-8],[3,-31],[14,-4],[4,-11],[-31,-8]],[[3609,4088],[-5,24],[-86,-21],[-29,-8]],[[3609,4088],[11,-24],[4,-21],[-14,-4],[3,-24],[-57,-16],[-9,24],[-21,-6],[5,-30],[-7,-19],[-28,13]],[[3468,3894],[6,29],[17,45]],[[4462,2821],[-283,1],[2,-395],[5,-365],[-4,-24],[3,-153]],[[3066,1875],[-4,48],[5,547],[1,29],[-2,312]],[[6113,2510],[-1,-81],[6,-67],[4,-312],[3,-157]],[[5125,1885],[-31,67],[-26,43],[-43,59],[-22,48],[16,9],[-40,86],[4,0],[-36,80],[0,6],[-61,134],[-96,205],[-42,95],[-49,103]],[[6134,495],[2,-404],[1,-63],[-280,-4],[-279,-2]]],"transform":{"scale":[0.00006790206941502303,0.00004664362908605686],"translate":[-86.581739,40.561331]},"objects":{"Geometry\\18-017":{"type":"GeometryCollection","geometries":[{"arcs":[[0,1,2,3,4,5]],"type":"Polygon","properties":{"GEOID":"180179519001"}},{"arcs":[[6,7,8,9,10,11]],"type":"Polygon","properties":{"GEOID":"180179509003"}},{"arcs":[[12,13,14,15]],"type":"Polygon","properties":{"GEOID":"180179511003"}},{"arcs":[[-9,16,17,18,19,20,21,22]],"type":"Polygon","properties":{"GEOID":"180179517002"}},{"arcs":[[-12,23,24,25,26]],"type":"Polygon","properties":{"GEOID":"180179510003"}},{"arcs":[[27,28,-6,29]],"type":"Polygon","properties":{"GEOID":"180179519003"}},{"arcs":[[30,31,-18,32]],"type":"Polygon","properties":{"GEOID":"180179517001"}},{"arcs":[[33,34,35,-7,36]],"type":"Polygon","properties":{"GEOID":"180179509002"}},{"arcs":[[37,38,39,-37,-27,40,41]],"type":"Polygon","properties":{"GEOID":"180179510001"}},{"arcs":[[42,-19,-32,43,44,45,46,47,48]],"type":"Polygon","properties":{"GEOID":"180179517003"}},{"arcs":[[-36,49,-17,-8]],"type":"Polygon","properties":{"GEOID":"180179509004"}},{"arcs":[[50,51,52,53,54]],"type":"Polygon","properties":{"GEOID":"180179513004"}},{"arcs":[[-39,55,-42,56,-13,57]],"type":"Polygon","properties":{"GEOID":"180179511002"}},{"arcs":[[-15,58,-54,59,60,61,-48,62,63]],"type":"Polygon","properties":{"GEOID":"180179518004"}},{"arcs":[[-35,64,-33,-50]],"type":"Polygon","properties":{"GEOID":"180179509001"}},{"arcs":[[65,66,67,68,69]],"type":"Polygon","properties":{"GEOID":"180179515003"}},{"arcs":[[-41,-26,70,71,72,-55,-59,-14,-57]],"type":"Polygon","properties":{"GEOID":"180179510002"}},{"arcs":[[-38,-56]],"type":"Polygon","properties":{"GEOID":"180179511001"}},{"arcs":[[-11,73,74,75]],"type":"Polygon","properties":{"GEOID":"180179512001"}},{"arcs":[[-24,-76,76,77,78,79]],"type":"Polygon","properties":{"GEOID":"180179512002"}},{"arcs":[[-25,-80,80,-71]],"type":"Polygon","properties":{"GEOID":"180179512003"}},{"arcs":[[-81,-79,81,82,-72]],"type":"Polygon","properties":{"GEOID":"180179513001"}},{"arcs":[[-82,-78,83,-52,84]],"type":"Polygon","properties":{"GEOID":"180179513002"}},{"arcs":[[-83,-85,-51,-73]],"type":"Polygon","properties":{"GEOID":"180179513003"}},{"arcs":[[85,-61]],"type":"Polygon","properties":{"GEOID":"180179514002"}},{"arcs":[[-74,-10,-23,86,87,-66,88]],"type":"Polygon","properties":{"GEOID":"180179515001"}},{"arcs":[[-75,-89,-70,89]],"type":"Polygon","properties":{"GEOID":"180179515002"}},{"arcs":[[-88,90,91,92,-67]],"type":"Polygon","properties":{"GEOID":"180179515004"}},{"arcs":[[-93,93,94,95,96,-68]],"type":"Polygon","properties":{"GEOID":"180179515005"}},{"arcs":[[97,-21,98,99]],"type":"Polygon","properties":{"GEOID":"180179516001"}},{"arcs":[[-22,-98,100,-91,-87]],"type":"Polygon","properties":{"GEOID":"180179516002"}},{"arcs":[[-101,-100,101,102,-94,-92]],"type":"Polygon","properties":{"GEOID":"180179516003"}},{"arcs":[[-103,103,-95]],"type":"Polygon","properties":{"GEOID":"180179516004"}},{"arcs":[[-96,-104,-102,-99,-20,-43,104]],"type":"Polygon","properties":{"GEOID":"180179516005"}},{"arcs":[[-63,-47,105,-28,106]],"type":"Polygon","properties":{"GEOID":"180179518003"}},{"arcs":[[-45,107,-2,108]],"type":"Polygon","properties":{"GEOID":"180179518001"}},{"arcs":[[-46,-109,-1,-29,-106]],"type":"Polygon","properties":{"GEOID":"180179518002"}},{"arcs":[[109,-4]],"type":"Polygon","properties":{"GEOID":"180179519002"}},{"arcs":[[-60,-53,-84,-77,-90,-69,-97,-105,-49,-62,-86]],"type":"Polygon","properties":{"GEOID":"180179514001"}}]}}}