{"type":"Topology","arcs":[[[4211,663],[15,0],[7,-22],[13,-7],[58,0],[52,3],[27,-1],[10,9],[0,17],[30,-1],[10,10],[0,24],[21,13],[20,-14],[15,-4],[26,3],[16,-12],[13,-19],[2,-31],[24,-8],[14,-8],[-21,-40],[-6,-8],[-65,-106],[-6,-6],[-60,0],[0,-27]],[[4426,428],[-214,-5]],[[4212,423],[-1,240]],[[4147,7923],[173,2],[291,4]],[[4611,7929],[1,-38],[1,-197],[-3,-14],[-22,-26],[-9,-25],[-7,-56],[-4,-3],[-146,0],[-190,1],[0,198],[80,-1],[-38,38],[-127,117]],[[3488,7918],[373,4],[286,1]],[[4611,7929],[343,3]],[[4954,7932],[1,-335],[1,-13],[0,-199],[2,-444],[-1,-117],[2,-32]],[[4959,6792],[-221,2],[-108,1],[-18,-8]],[[4612,6787],[0,15],[-10,0],[-4,28],[-21,38],[-8,8],[-51,0],[0,5],[-98,0],[-95,-1],[0,-28],[-4,-11],[4,-31],[0,-29],[-59,0],[0,-119],[121,1],[-1,-76],[125,0],[0,20],[101,1]],[[4612,6608],[-2,-130],[0,-90],[-151,0],[-239,-2],[-32,-5],[-29,-10],[-17,-1],[-20,5],[-22,9],[-103,0],[-139,0],[-136,0],[-241,3]],[[3481,6387],[3,290],[3,341],[1,159],[0,418],[1,173],[-1,150]],[[4612,6787],[0,-179]],[[2299,5569],[0,66],[3,120],[1,56],[-1,174],[0,770],[-1,200],[0,147],[-2,262],[0,204],[1,338]],[[2300,7906],[299,4],[235,2],[219,1],[359,3],[76,2]],[[3481,6387],[-5,-323],[-5,-266],[22,-11],[-12,-190]],[[3481,5597],[-121,1],[-5,-236],[-3,-204],[-1,-155],[-2,-241]],[[3349,4762],[-271,-4],[-17,0]],[[3061,4758],[-382,9],[-192,-1],[-159,0],[-26,-4]],[[2302,4762],[-2,225],[0,171],[-1,210],[0,201]],[[4491,5597],[114,4],[127,3],[25,-5],[26,-13],[58,-57],[25,-17],[15,-6],[24,-4],[80,-1]],[[4985,5501],[-1,-264],[-1,-87],[-5,-239],[-3,-140]],[[4975,4771],[-219,4],[-26,5],[-133,1]],[[4597,4781],[4,199],[3,171],[1,220],[-116,1],[2,122],[0,103]],[[1566,1739],[33,3],[53,26],[18,-1],[3,43],[25,-1],[19,-8],[21,14],[6,14],[0,44],[29,0],[0,-43],[4,-15],[10,-11],[11,-3],[37,0],[11,-2],[12,-11],[21,-28],[28,-24],[18,-26],[22,-7]],[[1947,1703],[1,-95],[-185,-4],[-4,-121]],[[1759,1483],[-16,-17],[-18,-27],[-14,-32]],[[1711,1407],[-144,-3]],[[1567,1404],[-1,196]],[[1566,1600],[0,139]],[[4171,1229],[135,-1],[42,1],[117,-1],[119,1],[11,2]],[[4595,1231],[1,-175]],[[4596,1056],[-21,2],[-18,14],[-16,7],[-30,-1],[-7,-29],[-8,-10],[-20,-11],[-19,-2],[-6,-26]],[[4451,1000],[-19,-2],[-11,7],[-78,0],[-7,3],[-12,-9],[-33,0],[-5,4],[-18,-12],[-5,-9],[-16,6],[-35,1],[-34,12],[-7,6],[-4,15],[-11,19],[-19,8],[-9,9]],[[4128,1058],[34,137],[9,34]],[[3076,1715],[63,2],[125,0],[-1,-44],[3,-54],[9,0],[9,-11],[87,0],[15,-8],[13,7],[13,-3],[34,39],[12,2]],[[3458,1645],[0,-222]],[[3458,1423],[-79,0],[-302,-1]],[[3077,1422],[0,197]],[[3077,1619],[-1,93]],[[3076,1712],[0,3]],[[1759,1483],[28,21],[21,10],[212,78],[28,12],[29,17]],[[2077,1621],[9,-13],[24,5],[212,5],[1,-82],[28,0],[1,-90],[-3,-24]],[[2349,1422],[-82,-2]],[[2267,1420],[-225,-5]],[[2042,1415],[-95,-2]],[[1947,1413],[-236,-6]],[[4978,842],[85,0],[237,4],[102,2]],[[5402,848],[2,-17],[-17,-8],[-10,-28],[2,-17],[12,-16],[11,-5],[27,-25],[19,12],[-12,-53],[-18,2],[-12,-15],[-11,-67],[-19,-83],[-16,7],[-5,-19],[0,-90]],[[5355,426],[0,-4],[-95,-1]],[[5260,421],[-169,0],[-115,0]],[[4976,421],[0,33],[1,240],[1,148]],[[5260,421],[0,-134],[-1,-258]],[[5259,29],[-285,-3]],[[4974,26],[1,174],[1,221]],[[1563,2385],[204,4],[178,3]],[[1945,2392],[187,10],[152,5],[19,-74],[7,-32],[11,-91]],[[2321,2210],[-24,-1],[-30,12],[-18,3],[-39,-14],[-34,0],[-23,3],[-31,1],[-28,17],[-12,5],[-18,-2],[-16,-7],[-25,-20],[-17,-5],[-11,4],[-20,17],[-18,5],[-21,0],[-12,5],[-21,1],[-14,-3],[-35,-40],[-15,-3],[-20,5],[-31,14],[-34,8],[-34,15],[-13,2],[-43,0],[-21,-9],[-25,-37],[-16,-6],[-38,0]],[[1564,2180],[0,11]],[[1564,2191],[-1,194]],[[4596,1056],[1,-100],[3,-9],[-56,-113]],[[4544,834],[-21,2],[-77,-2],[-60,0]],[[4386,834],[0,26],[10,18],[32,18],[11,11],[10,28],[0,56],[2,9]],[[1566,1993],[278,6],[22,1],[51,17],[29,1]],[[1946,2018],[1,-120],[0,-195]],[[1566,1739],[0,254]],[[5059,3604],[0,-11]],[[5059,3593],[0,-45],[-2,-41],[-4,-36],[-9,-49],[-12,-39],[-42,-135]],[[4990,3248],[-30,-1]],[[4960,3247],[0,148],[-107,1],[0,-48],[-3,-2],[-81,1]],[[4769,3347],[1,50],[-1,198],[-55,0]],[[4714,3595],[0,28],[17,0],[0,59],[-26,0],[3,9],[31,2],[57,-2],[35,-18],[10,-2],[1,-18],[8,-5],[39,-1],[10,7],[1,15],[59,-1],[0,-63],[93,1],[7,-2]],[[3075,2014],[383,0]],[[3458,2014],[1,-112],[0,-109],[2,-56],[-3,-92]],[[3076,1715],[0,148],[-1,151]],[[4579,587],[125,231],[11,18]],[[4715,836],[263,6]],[[4976,421],[-86,0],[-263,4],[-28,7],[-1,143],[2,12],[-21,0]],[[4283,29],[199,368],[12,32]],[[4494,429],[85,158]],[[4974,26],[-300,3],[-25,1],[-46,6],[-115,-2],[-135,-3],[-70,-2]],[[1356,4736],[203,2],[84,1],[194,1],[36,4],[56,-2],[89,3],[16,-1],[19,7],[10,-6],[56,7],[169,7],[14,3]],[[2302,4762],[1,-378],[2,-334],[0,-281]],[[2305,3769],[-1,-63],[-3,-23],[-9,-44],[-14,-45],[-24,-53],[-55,-102],[-20,-47],[-9,-26],[-145,-2],[1,-198]],[[2026,3166],[-84,-1]],[[1942,3165],[-381,-4]],[[1561,3161],[-9,0]],[[1552,3161],[-1,85],[-1,253],[0,348],[-6,4],[-56,0],[-128,-2],[-1,123],[-1,314],[-1,233],[-1,217]],[[3077,1619],[-264,2]],[[2813,1621],[-9,25],[-1,96],[-17,28],[0,36],[125,1],[10,-5],[6,-37],[10,-7],[39,-1],[35,-19],[26,-23],[8,-3],[31,0]],[[3827,830],[63,2],[180,1]],[[4070,833],[-50,-186],[-3,0],[-13,-50],[-31,-66],[-10,-18],[-17,-23]],[[3946,490],[-2,124],[-4,-3],[-84,1],[-1,20],[-9,0],[0,30],[-19,31],[-11,5],[3,28],[-8,5],[-6,24],[1,34],[20,17],[1,24]],[[4518,3257],[28,30],[21,35],[19,54],[1,34],[-2,36],[-12,36],[-22,74],[0,31],[7,30],[8,68]],[[4566,3685],[9,0],[-2,-57],[48,0],[0,-4],[44,-1],[4,17],[21,0],[-6,-18],[20,0],[0,-26],[10,-1]],[[4769,3347],[-164,0],[-2,-101]],[[4603,3246],[-59,1],[-26,10]],[[3766,268],[124,154]],[[3890,422],[274,2],[48,-1]],[[4426,428],[68,1]],[[4283,29],[-71,-1],[-72,0],[-283,-1],[-186,-1],[-124,0]],[[3547,26],[32,33],[49,43],[34,37],[53,65],[51,64]],[[5355,426],[143,0],[48,1]],[[5546,427],[0,-3],[96,1],[0,-177],[0,-54]],[[5642,194],[-28,1],[-30,-8],[-103,-50],[-16,-9],[-22,-19],[-73,-87]],[[5370,22],[-20,8],[-91,-1]],[[2321,2210],[-1,-17],[1,-98],[5,-58],[5,-25]],[[2331,2012],[-9,0]],[[2322,2012],[-144,-4],[-99,-3],[-45,-1],[-14,2],[-28,10],[-18,3],[-28,-1]],[[1566,1993],[-2,187]],[[4595,1231],[16,3],[94,1]],[[4705,1235],[287,4]],[[4992,1239],[-1,-122]],[[4991,1117],[1,-77]],[[4992,1040],[1,-141],[-15,-32],[0,-25]],[[4715,836],[-101,-2],[-70,0]],[[2695,2017],[380,-3]],[[2813,1621],[-115,1]],[[2698,1622],[-1,134],[-2,261]],[[3537,4435],[37,20],[17,-6],[4,13],[-1,58],[20,3],[19,10],[2,235]],[[3635,4768],[191,2],[232,0]],[[4058,4770],[20,0]],[[4078,4770],[55,-101],[-11,-62],[-59,-55],[-6,-17],[20,-37],[0,-45],[-119,-263],[-45,-123]],[[3913,4067],[-118,-10],[-6,-4],[-30,13]],[[3759,4066],[-37,28],[-81,122],[-34,44],[-21,70],[-32,63],[-6,29],[-11,13]],[[2077,1621],[141,98],[61,45],[3,-7],[31,38],[-8,5],[14,30],[13,38],[4,25]],[[2336,1893],[18,-20],[23,-24],[157,-168],[26,-34],[14,-25]],[[2574,1622],[17,-38],[13,-53],[3,-33],[0,-76]],[[2607,1422],[-110,1],[-83,0],[-65,-1]],[[2322,2012],[14,-85],[0,-34]],[[2305,3769],[16,6],[14,-2],[50,0],[9,3],[1,-205],[284,2],[0,-65],[-13,-19],[-6,-27],[-22,-41],[-7,-8],[-84,4],[-25,-7],[-21,-28],[3,-47],[26,-26],[38,-9],[51,-2],[15,-33],[-13,-44],[-10,-9],[-26,-15],[-5,-20],[-13,-35],[-13,-13],[-8,-33]],[[2546,3096],[0,-92]],[[2546,3004],[-234,-3]],[[2312,3001],[-2,168],[-284,-3]],[[2574,1622],[42,3],[33,-4],[49,1]],[[3077,1422],[-160,1],[-182,-2],[-128,1]],[[4211,834],[175,0]],[[4211,663],[0,171]],[[4959,6792],[2,-3],[-4,-393],[-1,-396]],[[4956,6000],[-93,1],[0,76],[-54,0],[-6,-37],[2,-42],[-3,-20],[-10,-12],[-18,0],[-20,21],[-4,9],[-34,10],[-8,-4],[-26,-27],[-10,-32],[-4,-42],[-28,-6],[-28,9],[-24,0],[-25,-15],[-13,-24],[-45,-24],[-15,-14],[-10,-29],[5,-24],[23,-24],[12,-37],[-26,-29],[-52,-31],[-57,-34],[2,-19]],[[4387,5600],[-73,-2],[-94,0],[-370,-2],[-369,1]],[[4587,4386],[10,395]],[[4975,4771],[186,3],[242,7],[35,3],[49,-1],[35,3],[29,-2],[82,6]],[[5633,4790],[72,1]],[[5705,4791],[8,-364],[2,-31],[6,-340]],[[5721,4056],[-53,13],[-127,17],[-47,1],[-55,-1]],[[5439,4086],[0,98],[-3,10],[-94,-73]],[[5342,4121],[-2,14],[-18,7],[-16,0],[-20,4],[-33,15],[-24,14],[-21,2],[-31,-21],[-69,-53],[-14,-6],[-22,-17],[-10,-14],[-21,-16],[-31,-10],[-63,-39],[-30,-12],[-29,-5],[-30,-2],[-49,3],[-23,11],[-23,4],[-23,0],[-33,-12],[-20,-17],[-28,-31],[-51,-72],[-25,-42],[-17,-35],[-5,-16],[9,-57],[-3,-29]],[[4567,3689],[-19,-1],[-6,79],[1,21],[6,23],[20,39],[8,24],[3,27],[4,192],[3,293]],[[3444,4125],[1,196],[-2,22],[0,134]],[[3443,4477],[62,-19],[24,-14],[8,-9]],[[3759,4066],[-7,-49],[11,-25],[-4,-17],[3,-11],[-84,-1],[0,15],[-46,-1],[-1,96],[-26,0],[0,27],[-162,-2],[1,27]],[[3566,819],[30,25],[36,17],[18,2],[73,14],[12,-1],[72,8],[23,14],[8,24],[3,64],[18,75],[15,45],[12,25],[20,34],[27,37],[22,23],[25,8],[34,18]],[[4014,1251],[9,5],[40,7],[17,7],[15,14],[26,9],[37,35],[27,32],[10,16],[11,39],[0,34],[4,28],[-2,13],[-16,9],[-19,-2],[-29,-11],[-27,-14],[-20,-1],[-55,4],[-69,27],[-17,3],[-18,10],[-11,14],[-7,32],[2,44],[16,39],[10,10],[46,32],[33,31],[32,13],[13,9],[21,6],[43,3],[15,-1],[36,-10],[5,8],[16,-5],[23,6],[21,9],[17,17],[52,38],[26,25],[20,23],[11,18],[18,51],[4,34],[-1,33],[9,20]],[[4408,2014],[79,1]],[[4487,2015],[-30,-184],[-10,-44],[-27,-83]],[[4420,1704],[-29,-80],[-20,-52],[-24,-52],[-48,-94]],[[4299,1426],[-33,-66],[-22,-28],[-32,-34],[-18,-22],[-14,-25],[-9,-22]],[[4128,1058],[-58,-225]],[[3827,830],[-93,-2],[-22,-1],[-20,-7],[-44,-25],[-10,-3],[-18,2],[-49,23]],[[3571,817],[-5,2]],[[4070,833],[141,1]],[[3890,422],[56,68]],[[2591,977],[11,128],[4,63],[2,58]],[[2608,1226],[100,1],[233,-2]],[[2941,1225],[5,-16],[-9,-10],[-6,-24],[-30,-14],[-20,-21],[-18,-11],[9,-26],[-8,-21],[-20,-32],[-12,0],[-9,-18],[4,-12],[19,-13],[4,-24],[15,-13],[-1,-13],[19,-5],[31,-26],[9,-5],[12,-28],[-3,-22],[16,-25],[-8,-15]],[[2940,831],[-118,-1]],[[2822,830],[-109,1],[-123,0]],[[2590,831],[-5,0]],[[2585,831],[1,65],[5,81]],[[2941,1225],[80,1],[57,-2]],[[3078,1224],[2,-373],[6,-20]],[[3086,831],[-146,0]],[[2822,830],[0,-24],[-12,-24],[-6,-42],[-1,-25],[-14,-36],[2,-19],[-6,-37],[0,-32],[5,-22],[17,-33],[2,-19],[-4,-9],[-35,-48],[-8,-15],[-5,-27]],[[2757,418],[-106,1],[-44,5]],[[2607,424],[-9,82],[-4,58],[-3,67],[-1,200]],[[3086,831],[7,-22],[1,-18],[-1,-375]],[[3093,416],[-336,2]],[[2607,1422],[1,-196]],[[2608,1226],[-170,0],[-15,-1],[-26,-12],[-11,-1],[-62,0]],[[2324,1212],[-36,0],[-18,-3]],[[2270,1209],[-1,159],[-2,52]],[[1703,820],[6,0]],[[1709,820],[70,2],[165,4],[19,-1],[76,1]],[[2039,826],[114,2],[177,2]],[[2330,830],[-2,-211],[-165,4],[-86,2],[7,-27],[6,-44],[9,-25],[-3,-35],[12,-18],[1,-11],[-10,-18],[2,-21]],[[2101,426],[-157,1]],[[1944,427],[-240,-4]],[[1704,423],[0,79],[-1,318]],[[2330,830],[55,1],[200,0]],[[2607,424],[-5,-3]],[[2602,421],[-27,-2],[-187,2],[-60,1]],[[2328,422],[-34,1],[-193,3]],[[4371,2987],[79,-1],[134,2],[-1,9],[72,1],[41,-1],[0,-25],[15,0],[-1,-26],[77,1],[0,-24],[42,0],[1,-62],[-2,-11]],[[4828,2850],[-35,8],[-11,-13],[-9,9],[-33,14],[-27,22],[-78,80],[-4,-19],[2,-127],[-47,0],[2,-89],[-3,0]],[[4585,2735],[-39,25],[-1,83],[-51,62],[-104,0]],[[4390,2905],[0,18],[-11,29],[-8,35]],[[4383,3116],[143,2],[204,2],[1,1],[235,3]],[[4966,3124],[2,-264],[-1,-47]],[[4967,2813],[-18,9],[-121,28]],[[4371,2987],[-1,66],[7,55],[6,8]],[[4448,3983],[1,90],[4,216],[1,21],[8,72],[125,4]],[[4567,3689],[-1,-4]],[[4518,3257],[-34,18],[-27,8],[-22,2],[-58,0]],[[4377,3285],[-2,12],[-15,50],[-6,14],[-17,25],[-17,14],[-16,10],[-78,37]],[[4226,3447],[9,16],[-10,35],[3,24],[20,4],[12,25],[6,35],[121,2],[2,3],[1,93],[2,2],[52,1],[0,72],[3,3],[0,154],[1,67]],[[3086,831],[187,1],[114,-1]],[[3387,831],[139,0],[14,-1],[26,-11]],[[3571,817],[-31,-33],[-13,-17],[-14,-33],[-10,-37],[-13,-42],[6,-27],[10,-20],[27,-24],[9,-18],[10,-12],[10,-30],[-1,-48],[-24,-45]],[[3537,431],[-13,-9],[-34,-13],[-15,-10],[-42,-39],[-19,-24],[-23,-56],[-8,-30],[-9,-49],[-15,-74],[-14,-47],[-2,-25],[2,-30]],[[3345,25],[-252,-2]],[[3093,23],[1,309],[-1,84]],[[2757,418],[0,-16],[8,-15],[16,-9],[10,-12],[-1,-34],[-19,-29],[-4,-16],[0,-72],[5,-12],[29,-32],[4,-14],[0,-96],[-8,-25],[0,-13]],[[2797,23],[-180,0]],[[2617,23],[0,177],[-2,79],[-3,45],[-10,97]],[[3766,268],[-5,22],[-14,8],[-4,35],[18,5],[17,25],[-2,28],[-4,9],[-14,6],[-49,-2],[-9,-4],[-20,-19],[-11,11],[-22,7],[-15,-3],[-20,-17],[-11,9],[0,8],[-18,14],[-6,18],[-16,-4],[-24,7]],[[2331,2012],[125,3],[101,1],[138,1]],[[3061,4150],[36,5],[6,5],[21,-17],[16,2],[20,8],[7,-6],[25,8],[9,-3],[21,3],[6,-9],[14,0],[6,-10],[15,-7],[14,4],[11,-4],[15,2],[29,19],[4,-12],[27,6],[33,1],[31,-16],[17,-4]],[[3913,4067],[27,-83],[54,-26],[1,-3]],[[3995,3955],[22,-32],[34,-24],[41,-21],[7,-25],[-6,-38],[-2,-36],[-6,-15],[-1,-18],[4,-27],[-5,-20],[2,-42],[-6,-31],[-17,-37]],[[4062,3589],[-21,-27],[-1,-32]],[[4040,3530],[-33,18],[-19,17],[-26,33],[-24,22],[-306,175]],[[3632,3795],[-190,110]],[[3442,3905],[-144,83],[-138,80],[-99,56]],[[3061,4124],[0,26]],[[2591,977],[-149,0],[-17,-2],[-28,-10],[-25,-5],[-45,0]],[[2327,960],[-1,70],[-2,182]],[[4062,3589],[91,-4],[31,34],[14,32],[4,22],[1,305]],[[4203,3978],[245,5]],[[4226,3447],[-57,28],[-129,55]],[[4387,5600],[104,-3]],[[4597,4781],[-139,-4],[-250,-8],[-130,1]],[[4058,4770],[17,7],[8,12],[24,19],[6,29],[7,8],[29,17],[0,22],[-13,9],[-20,2],[-13,-6],[-24,0],[-12,13],[-3,19],[16,13],[45,29],[33,26],[34,13],[14,10],[0,24],[-22,48],[3,32],[-3,37],[20,32],[-3,16],[5,17],[13,26],[3,22],[7,18],[27,29],[34,17],[19,19],[21,-1],[3,-19],[25,2],[9,7],[13,28],[21,5],[-1,14],[-18,5],[-8,13],[-6,26],[45,69],[0,54],[-21,32],[-5,16]],[[3077,1422],[1,-198]],[[4960,3247],[-155,-1],[-202,0]],[[4990,3248],[-16,-52],[-7,-41],[-1,-31]],[[4383,3116],[-7,-1]],[[4376,3115],[15,22],[41,34],[61,53],[25,33]],[[3547,26],[-202,-1]],[[6503,318],[20,2],[34,20],[23,5],[254,21],[62,4],[112,1],[62,-4],[189,3],[4,-297]],[[7263,73],[-376,-4],[-59,-1],[-97,-6],[-229,-16],[-226,-5]],[[6276,41],[-9,40],[3,22],[23,29],[4,11],[0,23],[-5,40],[5,31],[12,21],[7,28],[8,16],[33,20],[15,2],[29,-21],[22,-1],[30,16],[14,4],[36,-4]],[[6521,786],[20,1],[96,11],[19,-1],[39,-16],[77,-26],[126,-20],[111,-13],[39,5],[75,35],[55,4],[87,-7],[92,14],[71,5],[85,4],[27,7],[2,-10],[15,0],[17,-13],[14,0],[17,13],[16,7],[17,16]],[[7638,802],[0,-50],[-2,-95],[0,-180],[2,-201],[0,-197],[-197,-3],[-178,-3]],[[6503,318],[1,196],[4,50],[11,34],[4,23],[-2,114],[0,51]],[[6507,1259],[65,2],[305,5],[13,2],[112,1],[10,8],[126,-96],[126,-89],[1,8],[-1,171]],[[7264,1271],[146,1],[234,4]],[[7644,1276],[1,-294],[4,-24],[0,-78],[-11,0],[0,-78]],[[6521,786],[-2,30],[-9,24],[-2,21]],[[6508,861],[0,84],[2,31],[-1,98],[-2,185]],[[2328,422],[0,-199],[0,-201]],[[2328,22],[-8,2],[-115,-1],[-21,4],[-239,3]],[[1945,30],[-1,140],[1,59],[-1,198]],[[2043,1064],[0,75]],[[2043,1139],[19,1],[20,10],[44,47],[15,10],[15,4],[50,-4],[64,2]],[[2327,960],[3,-130]],[[2039,826],[-1,178],[5,33],[0,27]],[[4299,1426],[144,-1],[75,2],[75,4],[110,2]],[[4703,1433],[2,-198]],[[5551,1258],[197,128]],[[5748,1386],[282,183]],[[6030,1569],[2,-118]],[[6032,1451],[1,-198]],[[6033,1253],[-284,-4]],[[5749,1249],[-155,-2],[-18,2],[-25,9]],[[6030,1569],[160,104],[35,21],[27,14],[43,19],[27,9],[42,12],[61,11],[50,3],[27,0]],[[6502,1762],[0,-37],[2,-26],[1,-74],[-3,-93],[-1,-70],[4,-112],[2,-91]],[[6507,1259],[-49,2],[-82,-3],[-60,-1]],[[6316,1257],[0,69],[-2,31],[0,151],[-61,0],[-43,-3],[-13,-6],[-23,-23],[-17,-10],[-92,-2],[-25,-12],[-8,-1]],[[5269,2036],[189,-1],[285,4]],[[5743,2039],[16,2],[81,0],[187,7],[97,-2]],[[6124,2046],[95,1],[53,4],[228,2]],[[6500,2053],[2,-291]],[[5748,1386],[-1,61],[62,1],[28,13],[5,9],[-2,171],[-1,203],[-150,-2],[-230,-2]],[[5459,1840],[-189,-2]],[[5270,1838],[-1,198]],[[1189,1987],[332,5],[45,1]],[[1566,1600],[-150,-1],[-227,-4]],[[1189,1595],[0,392]],[[6502,1762],[316,-5],[83,0],[359,11],[1,-32],[3,-465]],[[6500,2053],[184,1],[196,0],[-1,10],[195,2],[109,0],[156,2],[171,2],[131,0]],[[7641,2070],[1,-123],[-1,-257],[3,-414]],[[5642,194],[59,-14],[29,-1],[40,6],[25,10],[31,27],[21,9],[82,1],[0,59],[-2,18],[2,22],[13,27],[55,83],[6,20],[7,116],[24,279]],[[6034,856],[474,5]],[[6276,41],[-119,-1],[-30,-11],[-71,0],[-620,-7],[-66,0]],[[773,6523],[190,4],[319,7],[70,-14],[-15,-88],[-6,-84],[3,-11],[15,-24],[-2,-54],[2,-315],[1,-201],[1,-192],[191,3],[501,10],[203,3],[53,2]],[[1356,4736],[-163,-1],[-232,-4],[-175,-2]],[[786,4729],[-1,129],[-3,387],[-2,295],[-1,27],[-1,274],[-2,118],[-1,214],[-1,168],[-1,182]],[[4377,3285],[-88,-1],[-25,-2],[-27,-9],[-27,-15],[-53,-37],[-25,-14],[-36,-13],[-31,-5],[-29,-1],[-405,-4],[1,267],[0,225],[0,119]],[[5705,4791],[215,4],[350,4],[190,2],[111,2],[277,4],[1,-129],[144,-55],[9,-3],[236,2],[-2,199],[384,7]],[[7620,4828],[2,-176],[0,-70],[1,-103],[0,-191],[2,-255],[0,-84],[1,-112],[1,-201],[2,-398],[6,0],[1,-57],[3,-358],[0,-146],[2,-196],[1,-248],[-1,-163]],[[6500,2053],[-4,396],[-1,62],[-2,333],[160,0],[6,5],[21,90],[1,8],[-1,167],[-2,95],[-2,35],[-1,146],[-1,148],[-31,-9],[-62,-28],[-31,-10],[-230,-61],[-121,-31],[-184,-49],[-97,-28],[-191,-52]],[[5727,3270],[-5,-1]],[[5722,3269],[-2,136],[3,396],[0,118],[-2,137]],[[6090,6006],[238,5],[140,3],[-1,138],[0,258],[369,14],[26,7],[20,1],[365,-1],[367,5],[16,-14]],[[7630,6422],[0,-40],[-1,-167],[1,-171],[-1,-169],[1,-93],[-1,-78],[-15,-85],[2,-222],[1,-53],[3,-516]],[[5633,4790],[39,60],[95,147],[36,55],[25,34],[162,215],[21,33],[71,157],[22,36],[-12,41],[0,35],[-2,244],[0,159]],[[1187,3156],[1,-123],[1,-164]],[[1189,2869],[1,-490]],[[1190,2379],[-1,-176]],[[1189,2203],[0,-216]],[[1189,1987],[-203,-2],[-185,-2]],[[801,1983],[-379,-6],[-340,-4],[-48,2]],[[34,1975],[0,34],[0,378],[0,185],[-2,156],[-5,408]],[[27,3136],[115,3],[272,3],[126,4],[276,3],[176,3],[195,4]],[[1944,2589],[298,13],[73,4]],[[2315,2606],[6,1],[370,3]],[[2691,2610],[3,-395],[1,-198]],[[1945,2392],[-1,197]],[[4487,2015],[43,2],[44,1],[52,9],[73,2]],[[4699,2029],[1,-200]],[[4700,1829],[1,-110]],[[4701,1719],[-35,0],[-10,-20],[-23,-11],[-73,-1],[-31,14],[-9,2],[-85,-2],[-15,3]],[[4701,1719],[2,-286]],[[3981,2015],[48,-4],[167,-1]],[[4196,2010],[55,-1],[49,4],[108,1]],[[4014,1251],[-5,1],[-7,24],[13,32],[-5,6],[0,18],[8,9],[9,22],[-16,8],[-19,-23],[-9,-14],[-13,-10],[-8,-22],[-8,-8],[-46,-20],[-29,-10],[-18,-1],[-23,13]],[[3838,1276],[-1,114],[6,27],[-1,16],[-7,3]],[[3835,1436],[12,26],[11,17],[36,35],[11,27],[1,69],[10,41],[6,12],[33,36],[39,39],[-13,24],[-1,166],[-2,29],[3,58]],[[3456,2902],[189,3],[0,100],[11,0],[181,2],[223,-5],[7,5],[18,47],[17,33],[21,24],[253,4]],[[4390,2905],[-1,-67],[-4,-77],[3,-31],[18,-41],[1,-23],[13,-24],[9,-6],[31,12],[34,7],[16,-2],[45,-19],[25,-17],[23,-19],[19,-36],[2,-15],[-11,-38],[-15,-13],[-15,-7],[-28,-4],[-10,6],[-27,21],[-5,12],[-19,8],[-19,-9],[-23,1],[-12,-7],[-19,-35],[-10,-32],[3,-24],[8,-44],[-6,-31],[-27,-20],[-16,-24],[-32,-62],[-7,-26],[-3,-26],[13,-49],[7,-14],[16,-12],[21,-36],[23,-53],[-3,-15]],[[4196,2010],[-1,132],[2,13],[17,45],[4,21],[0,145],[-1,165],[-117,1],[-73,1],[1,73],[-190,5],[-59,-1]],[[3779,2610],[-133,-2],[-189,-1]],[[3457,2607],[-1,295]],[[4585,2735],[2,-35],[4,-29],[11,-34],[23,-46],[29,-45],[20,-39],[15,-46],[6,-40],[1,-28],[3,-364]],[[4956,6000],[193,0],[191,0],[185,1],[110,2],[154,1],[157,1],[144,1]],[[4985,5501],[-1,108],[-28,1],[0,193],[0,197]],[[3674,2018],[47,1],[73,-3],[143,0],[44,-1]],[[3835,1436],[-15,-9],[-56,-2]],[[3764,1425],[-36,40],[-27,28],[-31,26],[-21,21],[-2,56],[1,20],[-4,33],[-4,10],[-8,46],[-10,30],[-6,53],[-4,55],[1,29],[-8,38],[42,63],[10,20],[17,25]],[[805,1590],[384,5]],[[1567,1404],[-378,-5]],[[1189,1399],[-384,-5]],[[805,1394],[0,196]],[[2043,1139],[-1,126],[0,150]],[[31,1386],[101,0],[292,3]],[[424,1389],[2,-205],[1,-277],[1,-26],[-16,-39],[0,-27],[-5,-18],[2,-392]],[[409,405],[-353,-4],[-19,-2]],[[37,399],[0,312],[-2,128],[-1,350],[0,52],[-3,145]],[[409,405],[178,4],[149,4],[61,1]],[[797,414],[-1,-288],[1,-64],[7,-32],[-8,-14]],[[796,16],[-215,-5],[-170,-5],[-147,-3],[-216,-3],[-8,0],[-3,399]],[[805,1590],[-2,196]],[[803,1786],[-2,197]],[[424,1389],[381,5]],[[805,1394],[2,-447],[1,-56]],[[808,891],[1,-85]],[[809,806],[0,-24],[-13,-46],[1,-322]],[[3093,23],[-156,0],[-140,0]],[[3349,4762],[286,6]],[[3443,4477],[-30,9],[-25,11],[-6,20],[8,17],[22,12],[-2,18],[-13,5],[-6,15],[-19,29],[-33,9],[-3,19],[-13,1],[-11,-14],[-33,-20],[-8,-18],[-19,-1],[-16,18],[-9,1],[-8,16],[21,12],[-11,42],[-8,11],[-20,-6],[-27,1],[-23,-5],[-9,-7],[0,-110],[-81,-2]],[[3061,4560],[0,138],[0,60]],[[3995,3955],[17,13],[8,11],[183,-1]],[[3061,4150],[-1,237],[1,173]],[[4967,2813],[-5,-49],[-14,-75],[-17,-62]],[[4931,2627],[-27,-68],[-31,-61],[-28,-47],[-21,-42],[-13,-34],[-12,-43],[-9,-59],[-2,-35],[2,-208]],[[4790,2030],[-91,-1]],[[1942,3165],[0,-182]],[[1942,2983],[-171,-5],[-112,-2],[-1,10],[-96,-2]],[[1562,2984],[-1,177]],[[5342,4121],[-172,-137],[-28,-25],[-21,-24],[-27,-41],[-14,-29],[-14,-45],[-6,-37],[-1,-38],[0,-141]],[[5439,3599],[0,104],[0,383]],[[5722,3269],[-284,-76],[0,161],[1,245]],[[5439,3599],[-98,-1],[-172,-3],[-110,-2]],[[3456,2902],[-1,199]],[[3455,3101],[-1,80],[-9,70],[-1,64],[1,148],[-3,23],[0,153],[3,43],[-3,25],[0,198]],[[3455,3101],[-185,0],[-199,0]],[[3071,3101],[0,76],[-10,0],[0,183],[0,89],[0,321],[0,197],[0,157]],[[5727,3270],[0,-61],[11,0],[-1,-95],[2,-144],[0,-135],[3,-396]],[[5742,2439],[1,-157],[-1,-7]],[[5742,2275],[-154,59],[-133,48],[-95,36],[-60,26],[-35,14]],[[5265,2458],[-179,61],[-85,27],[-17,9],[-13,14],[-40,58]],[[4792,1831],[196,4]],[[4988,1835],[1,-194]],[[4989,1641],[0,-3]],[[4989,1638],[-163,-8],[5,-25],[-37,-1],[-2,227]],[[803,1786],[-168,-2],[-212,-3]],[[423,1781],[-126,-1],[-251,-3],[-12,1]],[[34,1778],[0,52],[-4,66],[0,59],[4,20]],[[1190,2379],[163,4],[210,2]],[[1564,2191],[-192,-3],[-9,-6],[-30,-1],[-5,15],[-13,8],[-17,-1],[-5,-8],[-12,8],[-92,0]],[[2691,2610],[255,-3],[126,-1]],[[3072,2606],[2,-340],[1,-252]],[[6124,2046],[-3,61],[1,96]],[[6122,2203],[-1,243],[-379,-7]],[[1562,2875],[116,3],[11,-4],[32,-23],[20,-7],[28,0],[22,7],[29,24],[17,6],[106,2]],[[1943,2883],[0,-156]],[[1943,2727],[-108,-1],[-15,-11],[-22,-29],[-46,-4],[-29,15],[-14,-15],[-19,-9],[-24,0],[-39,13],[-28,-1],[-17,-12],[-19,-2]],[[1563,2671],[-1,204]],[[1943,2727],[1,-138]],[[1563,2385],[0,196],[0,90]],[[3779,2610],[0,-109],[-41,-96],[2,-61],[-9,-5],[-15,-130],[-6,-82],[-5,-42],[-31,-67]],[[3674,2018],[-47,-3],[-169,-1]],[[3458,2014],[-1,593]],[[1942,2983],[1,-100]],[[1562,2875],[0,109]],[[2546,3004],[143,2],[1,-99],[94,0],[288,-6]],[[3072,2901],[1,-121],[-1,-174]],[[2315,2606],[-2,246],[-1,149]],[[2546,3096],[89,3],[0,2],[436,0]],[[3456,2902],[-153,1],[-231,-2]],[[11,6511],[88,0],[149,2],[142,2],[278,6],[105,2]],[[786,4729],[-380,-8],[-132,0],[-108,-1],[-145,-1]],[[21,4719],[0,149],[1,246],[-2,203],[-3,200],[0,11]],[[17,5528],[133,2],[296,4]],[[446,5534],[196,3],[-42,48],[-60,72],[23,0],[-1,64],[16,3],[-1,32],[-133,-1]],[[444,5755],[-48,-1],[-1,74],[-31,-1],[-16,7],[0,-105],[-11,0],[-12,12],[-81,91],[-18,17],[-30,23],[-180,104]],[[16,5976],[-2,201],[0,114],[-3,220]],[[11,6511],[-3,404],[-3,312],[0,158],[-3,262],[-2,222],[211,5],[224,4],[212,3],[120,3],[141,1],[117,2],[316,6],[288,3],[167,2],[175,3],[138,2],[191,3]],[[797,414],[381,4],[173,1],[209,2],[144,2]],[[1704,423],[0,-46],[-3,-117],[-9,-38],[-1,-14],[8,-54],[2,-33],[0,-95]],[[1701,26],[-155,-3],[-163,0],[-46,-1],[-159,-1],[-220,-3],[-162,-2]],[[3458,1423],[306,2]],[[3838,1276],[0,-48],[-176,-1],[-202,-1],[-5,-5]],[[3455,1221],[-4,5],[-373,-2]],[[5402,848],[159,2]],[[5561,850],[-1,-20],[-13,-46],[0,-58],[4,-19],[-5,-8],[0,-272]],[[1552,3161],[-171,-2],[-194,-3]],[[27,3136],[-1,211],[0,423],[0,123],[-1,242],[-3,365],[-1,219]],[[5742,2275],[64,-25],[177,-106],[23,-18],[10,12],[2,22],[11,1],[-3,39],[96,3]],[[5743,2039],[2,211],[-3,25]],[[4990,1437],[285,4],[188,2]],[[5463,1443],[1,-139],[6,-36],[-30,-15],[-32,-9],[-63,-1],[-222,-2],[-131,-2]],[[4992,1239],[-2,198]],[[1189,2869],[103,2],[13,10],[14,-6],[18,-3],[61,1],[164,2]],[[808,891],[378,358],[3,150]],[[1711,1407],[-7,-29],[-1,-23],[0,-124],[6,0]],[[1709,1231],[0,-411]],[[1703,820],[-135,-4],[-759,-10]],[[5561,850],[188,3],[95,1]],[[5844,854],[190,2]],[[4988,1835],[282,3]],[[5459,1840],[3,-299]],[[5462,1541],[-189,-1],[0,13],[-15,-1],[0,15],[-15,17],[-3,19],[-25,25],[-37,21],[-24,0],[-14,8],[-18,-8],[-45,-1],[-11,-20],[-10,-4],[-28,-1],[-23,15],[-16,3]],[[5463,1443],[-1,98]],[[5551,1258],[-17,-11]],[[5534,1247],[-67,-43],[-41,-19],[-48,-11],[-319,-47],[-68,-10]],[[444,5755],[2,-221]],[[17,5528],[-2,159],[1,116],[0,173]],[[4986,2031],[159,4],[124,1]],[[4988,1835],[-2,196]],[[3455,1221],[0,-87],[-5,-44],[-15,-44],[-47,-106],[-9,-37],[-1,-29],[9,-43]],[[5534,1247],[24,-3],[1,-25],[1,-171]],[[5560,1048],[-320,-4],[-248,-4]],[[5560,1048],[1,-81],[0,-117]],[[5844,987],[31,1],[17,-8],[3,37],[-5,0],[4,28],[12,15],[-14,9],[-11,48],[41,10],[111,23]],[[6033,1150],[1,-294]],[[5844,854],[0,133]],[[423,1781],[1,-155],[0,-237]],[[31,1386],[-1,271],[4,121]],[[2043,1064],[-24,0],[-21,4],[-11,8],[-42,47],[-20,39],[-25,21],[-21,6],[-37,6],[-14,6],[-17,12]],[[1811,1213],[136,200]],[[6033,1253],[0,-103]],[[5844,987],[0,64],[-96,0],[1,198]],[[4990,1437],[-1,201]],[[2617,23],[-112,0],[-177,-1]],[[1811,1213],[-24,15],[-11,2],[-67,1]],[[6316,1257],[-26,1],[-39,-2],[-218,-3]],[[4790,2030],[101,2],[95,-1]],[[4792,1831],[-92,-2]],[[4954,7932],[669,4],[454,3],[243,2],[206,3],[104,0],[150,0],[376,3],[263,4],[229,2],[-7,-76],[-5,-107],[-1,-145],[-4,-397],[0,-107],[-1,-434],[1,-142],[-2,-42],[1,-81]],[[1945,30],[-244,-4]],[[5269,2036],[-2,157],[-2,265]]],"transform":{"scale":[0.00004979565956334178,0.00003682761222180308],"translate":[-86.242743,39.926046]},"objects":{"Geometry\\18-057":{"type":"GeometryCollection","geometries":[{"arcs":[[0,1,2]],"type":"Polygon","properties":{"GEOID":"180571108104"}},{"arcs":[[3,4]],"type":"Polygon","properties":{"GEOID":"180571102011"}},{"arcs":[[5,-5,6,7,8,9,10,11]],"type":"Polygon","properties":{"GEOID":"180571102012"}},{"arcs":[[12,-10]],"type":"Polygon","properties":{"GEOID":"180571102013"}},{"arcs":[[13,14,-12,15,16,17,18,19]],"type":"Polygon","properties":{"GEOID":"180571102014"}},{"arcs":[[20,21,22,23]],"type":"Polygon","properties":{"GEOID":"180571102024"}},{"arcs":[[24,25,26,27,28,29]],"type":"Polygon","properties":{"GEOID":"180571109062"}},{"arcs":[[30,31,32,33,34]],"type":"Polygon","properties":{"GEOID":"180571108122"}},{"arcs":[[35,36,37,38,39,40]],"type":"Polygon","properties":{"GEOID":"180571109071"}},{"arcs":[[41,42,43,44,45,46,-27]],"type":"Polygon","properties":{"GEOID":"180571109052"}},{"arcs":[[47,48,49,50,51]],"type":"Polygon","properties":{"GEOID":"180571108051"}},{"arcs":[[-51,52,53,54]],"type":"Polygon","properties":{"GEOID":"180571108052"}},{"arcs":[[55,56,57,58,59]],"type":"Polygon","properties":{"GEOID":"180571104041"}},{"arcs":[[-33,60,61,62]],"type":"Polygon","properties":{"GEOID":"180571108123"}},{"arcs":[[63,64,-25,65]],"type":"Polygon","properties":{"GEOID":"180571109063"}},{"arcs":[[66,67,68,69,70,71]],"type":"Polygon","properties":{"GEOID":"180571106003"}},{"arcs":[[72,73,-36,74]],"type":"Polygon","properties":{"GEOID":"180571109072"}},{"arcs":[[75,76,-52,77]],"type":"Polygon","properties":{"GEOID":"180571108071"}},{"arcs":[[78,79,-78,-55,80]],"type":"Polygon","properties":{"GEOID":"180571108073"}},{"arcs":[[81,82,83,84,85,86,87]],"type":"Polygon","properties":{"GEOID":"180571104012"}},{"arcs":[[-40,88,89]],"type":"Polygon","properties":{"GEOID":"180571109042"}},{"arcs":[[90,91,92]],"type":"Polygon","properties":{"GEOID":"180571108112"}},{"arcs":[[93,94,-71,95,96]],"type":"Polygon","properties":{"GEOID":"180571106001"}},{"arcs":[[97,98,-2,99,-79,100,101]],"type":"Polygon","properties":{"GEOID":"180571108101"}},{"arcs":[[-50,102,103,104,105,-53]],"type":"Polygon","properties":{"GEOID":"180571108053"}},{"arcs":[[-58,106,107,108,-64,109]],"type":"Polygon","properties":{"GEOID":"180571104042"}},{"arcs":[[-61,-32,110,111,112,113,114,-77,115]],"type":"Polygon","properties":{"GEOID":"180571108072"}},{"arcs":[[116,-75,-41,-90,117,118]],"type":"Polygon","properties":{"GEOID":"180571109043"}},{"arcs":[[119,120,121,122,123,124]],"type":"Polygon","properties":{"GEOID":"180571105121"}},{"arcs":[[125,126,127,128,-43]],"type":"Polygon","properties":{"GEOID":"180571109051"}},{"arcs":[[-65,-109,129,-126,-42,-26]],"type":"Polygon","properties":{"GEOID":"180571109061"}},{"arcs":[[130,131,132,133,-84]],"type":"Polygon","properties":{"GEOID":"180571104011"}},{"arcs":[[134,-118,-89,-39,135,-128]],"type":"Polygon","properties":{"GEOID":"180571109073"}},{"arcs":[[136,-62,-116,-76,-80,-100,-1,137]],"type":"Polygon","properties":{"GEOID":"180571108103"}},{"arcs":[[-11,-13,-9,138,139,140,-16]],"type":"Polygon","properties":{"GEOID":"180571102021"}},{"arcs":[[141,-23,142,143,144,145,146,147,148]],"type":"Polygon","properties":{"GEOID":"180571105051"}},{"arcs":[[149,150,-125,151]],"type":"Polygon","properties":{"GEOID":"180571105112"}},{"arcs":[[152,153,154,155,156,157,-35,158,-91,159,160]],"type":"Polygon","properties":{"GEOID":"180571108121"}},{"arcs":[[-92,161,-138,-3,-99,162]],"type":"Polygon","properties":{"GEOID":"180571108102"}},{"arcs":[[163,164,165,166,167,168,169]],"type":"Polygon","properties":{"GEOID":"180571110032"}},{"arcs":[[170,171,172,-166]],"type":"Polygon","properties":{"GEOID":"180571110033"}},{"arcs":[[-168,173,174,175]],"type":"Polygon","properties":{"GEOID":"180571110041"}},{"arcs":[[-167,-173,176,177,-174]],"type":"Polygon","properties":{"GEOID":"180571110042"}},{"arcs":[[-44,-129,178,179,180,181]],"type":"Polygon","properties":{"GEOID":"180571110071"}},{"arcs":[[182,183,184,185,186,187,188]],"type":"Polygon","properties":{"GEOID":"180571110062"}},{"arcs":[[189,-169,-176,190,191,192,-186]],"type":"Polygon","properties":{"GEOID":"180571110061"}},{"arcs":[[193,194,195,196]],"type":"Polygon","properties":{"GEOID":"180571107003"}},{"arcs":[[197,198,199,-194,200]],"type":"Polygon","properties":{"GEOID":"180571107002"}},{"arcs":[[201,-149,202,-94,203,204,205]],"type":"Polygon","properties":{"GEOID":"180571105092"}},{"arcs":[[206,207,-161,208,209,210,211,-177]],"type":"Polygon","properties":{"GEOID":"180571111011"}},{"arcs":[[-191,-175,212,213,214]],"type":"Polygon","properties":{"GEOID":"180571111012"}},{"arcs":[[-160,-93,-163,-98,215,-209]],"type":"Polygon","properties":{"GEOID":"180571108111"}},{"arcs":[[-108,216,-119,-135,-127,-130]],"type":"Polygon","properties":{"GEOID":"180571109041"}},{"arcs":[[217,-152,-124,218,219,220,221,222,223,224]],"type":"Polygon","properties":{"GEOID":"180571105111"}},{"arcs":[[-180,-164,225,226]],"type":"Polygon","properties":{"GEOID":"180571110072"}},{"arcs":[[227,228,-206,229,-221]],"type":"Polygon","properties":{"GEOID":"180571105091"}},{"arcs":[[230,-24,231,-122,232]],"type":"Polygon","properties":{"GEOID":"180571102022"}},{"arcs":[[-136,233,-171,-165,-179]],"type":"Polygon","properties":{"GEOID":"180571110031"}},{"arcs":[[-70,234,-96]],"type":"Polygon","properties":{"GEOID":"180571106002"}},{"arcs":[[-97,-235,-69,235,-198,236,237]],"type":"Polygon","properties":{"GEOID":"180571107001"}},{"arcs":[[-216,-102,238,-210]],"type":"Polygon","properties":{"GEOID":"180571108113"}},{"arcs":[[239,240,241]],"type":"Polygon","properties":{"GEOID":"180571108132"}},{"arcs":[[242,243,-240,244]],"type":"Polygon","properties":{"GEOID":"180571108133"}},{"arcs":[[245,246,247,-243,248,249]],"type":"Polygon","properties":{"GEOID":"180571108142"}},{"arcs":[[-187,-193,250,251,252]],"type":"Polygon","properties":{"GEOID":"180571111042"}},{"arcs":[[253,254,-181,-227,255,-185,256]],"type":"Polygon","properties":{"GEOID":"180571110111"}},{"arcs":[[-158,257,258,-111,-31]],"type":"Polygon","properties":{"GEOID":"180571108191"}},{"arcs":[[259,260,261,262,263,264]],"type":"Polygon","properties":{"GEOID":"180571108211"}},{"arcs":[[265,266,267,268,-262]],"type":"Polygon","properties":{"GEOID":"180571108152"}},{"arcs":[[269,270,271,272,-266,-261,273,274,275]],"type":"Polygon","properties":{"GEOID":"180571108183"}},{"arcs":[[276,-66,-30,277,278]],"type":"Polygon","properties":{"GEOID":"180571109091"}},{"arcs":[[279,-246,-267]],"type":"Polygon","properties":{"GEOID":"180571108141"}},{"arcs":[[280,281,-247,-280,-273]],"type":"Polygon","properties":{"GEOID":"180571108143"}},{"arcs":[[-105,282,283,-249,-245,-242,284]],"type":"Polygon","properties":{"GEOID":"180571108131"}},{"arcs":[[285,-20,-82,286,287]],"type":"Polygon","properties":{"GEOID":"180571103034"}},{"arcs":[[-222,-230,-205,288]],"type":"Polygon","properties":{"GEOID":"180571105181"}},{"arcs":[[289,290,-281,291,292,293,-145]],"type":"Polygon","properties":{"GEOID":"180571101022"}},{"arcs":[[294,295,-290,-144,296]],"type":"Polygon","properties":{"GEOID":"180571101023"}},{"arcs":[[297,298,299,300,301,302,303,304]],"type":"Polygon","properties":{"GEOID":"180571103022"}},{"arcs":[[305,306,307,-217,-107,-57,308]],"type":"Polygon","properties":{"GEOID":"180571104051"}},{"arcs":[[309,310,311,312,-156]],"type":"Polygon","properties":{"GEOID":"180571108193"}},{"arcs":[[-313,313,-258,-157]],"type":"Polygon","properties":{"GEOID":"180571108192"}},{"arcs":[[314,315,-154,316,317,318]],"type":"Polygon","properties":{"GEOID":"180571109113"}},{"arcs":[[319,-237,-201,-197,320,-316,321,322,323]],"type":"Polygon","properties":{"GEOID":"180571105172"}},{"arcs":[[-196,324,-310,-155,-321]],"type":"Polygon","properties":{"GEOID":"180571105141"}},{"arcs":[[-226,-170,-190,-256]],"type":"Polygon","properties":{"GEOID":"180571110073"}},{"arcs":[[325,-297,-143,-22,326]],"type":"Polygon","properties":{"GEOID":"180571101024"}},{"arcs":[[327,-319,328,329]],"type":"Polygon","properties":{"GEOID":"180571109112"}},{"arcs":[[330,-278,-29,331,332,333]],"type":"Polygon","properties":{"GEOID":"180571109093"}},{"arcs":[[-45,-182,-255,334]],"type":"Polygon","properties":{"GEOID":"180571110112"}},{"arcs":[[335,336,337,338]],"type":"Polygon","properties":{"GEOID":"180571110101"}},{"arcs":[[-338,339,340,341]],"type":"Polygon","properties":{"GEOID":"180571111032"}},{"arcs":[[-302,-279,-331,342,343]],"type":"Polygon","properties":{"GEOID":"180571109092"}},{"arcs":[[344,345,346,347,-340,-337]],"type":"Polygon","properties":{"GEOID":"180571110102"}},{"arcs":[[-178,-212,348,-213]],"type":"Polygon","properties":{"GEOID":"180571111013"}},{"arcs":[[-18,349,-120,-151,350,351]],"type":"Polygon","properties":{"GEOID":"180571105122"}},{"arcs":[[-228,-220,352]],"type":"Polygon","properties":{"GEOID":"180571105093"}},{"arcs":[[-351,-150,-218,353]],"type":"Polygon","properties":{"GEOID":"180571105113"}},{"arcs":[[-195,-200,354,355,356,-325]],"type":"Polygon","properties":{"GEOID":"180571105142"}},{"arcs":[[-86,357,358,359]],"type":"Polygon","properties":{"GEOID":"180571104062"}},{"arcs":[[360,-72,-95,-203,-148]],"type":"Polygon","properties":{"GEOID":"180571105054"}},{"arcs":[[361,-146,-294,362]],"type":"Polygon","properties":{"GEOID":"180571105052"}},{"arcs":[[-361,-147,-362,363,-67]],"type":"Polygon","properties":{"GEOID":"180571105053"}},{"arcs":[[-327,-21,-231,-140]],"type":"Polygon","properties":{"GEOID":"180571102025"}},{"arcs":[[-223,-289,-204,-238,-320,364,365]],"type":"Polygon","properties":{"GEOID":"180571105182"}},{"arcs":[[-224,-366,366,367]],"type":"Polygon","properties":{"GEOID":"180571105162"}},{"arcs":[[-199,-236,-68,-364,-363,-293,368,369,370,371,-355]],"type":"Polygon","properties":{"GEOID":"180571105133"}},{"arcs":[[372,373,374,375]],"type":"Polygon","properties":{"GEOID":"180571108201"}},{"arcs":[[-303,-344,376,377,378]],"type":"Polygon","properties":{"GEOID":"180571109101"}},{"arcs":[[379,-60,380,-300]],"type":"Polygon","properties":{"GEOID":"180571103013"}},{"arcs":[[381,382,-117,-308]],"type":"Polygon","properties":{"GEOID":"180571105152"}},{"arcs":[[-292,-272,383,384,-369]],"type":"Polygon","properties":{"GEOID":"180571101013"}},{"arcs":[[-381,-59,-110,-277,-301]],"type":"Polygon","properties":{"GEOID":"180571103012"}},{"arcs":[[385,386,387,388]],"type":"Polygon","properties":{"GEOID":"180571104063"}},{"arcs":[[-388,389,-309,-56,390]],"type":"Polygon","properties":{"GEOID":"180571104061"}},{"arcs":[[-323,391,392,393]],"type":"Polygon","properties":{"GEOID":"180571105173"}},{"arcs":[[-359,394,-386,395]],"type":"Polygon","properties":{"GEOID":"180571104064"}},{"arcs":[[-133,396,397,-382,-307,398]],"type":"Polygon","properties":{"GEOID":"180571105153"}},{"arcs":[[399,-367,-365,400,-397,-132]],"type":"Polygon","properties":{"GEOID":"180571105161"}},{"arcs":[[-141,-233,-121,-350,-17]],"type":"Polygon","properties":{"GEOID":"180571102023"}},{"arcs":[[401,-288,402,403,404,405,406,407]],"type":"Polygon","properties":{"GEOID":"180571103035"}},{"arcs":[[-14,-286,-402,408]],"type":"Polygon","properties":{"GEOID":"180571103031"}},{"arcs":[[409,410,411,-341]],"type":"Polygon","properties":{"GEOID":"180571111031"}},{"arcs":[[-38,412,-329,-318,413,414,-234]],"type":"Polygon","properties":{"GEOID":"180571109121"}},{"arcs":[[415,416,-103,-49]],"type":"Polygon","properties":{"GEOID":"180571108054"}},{"arcs":[[-403,-287,-88,417,-305,418]],"type":"Polygon","properties":{"GEOID":"180571103021"}},{"arcs":[[-19,-352,-354,-225,-368,-400,-131,-83]],"type":"Polygon","properties":{"GEOID":"180571105163"}},{"arcs":[[419,-384,-271,420]],"type":"Polygon","properties":{"GEOID":"180571101011"}},{"arcs":[[421,422,423]],"type":"Polygon","properties":{"GEOID":"180571108181"}},{"arcs":[[-85,-134,-399,-306,-390,-387,-395,-358]],"type":"Polygon","properties":{"GEOID":"180571104052"}},{"arcs":[[424,-389,-391,-380,-299]],"type":"Polygon","properties":{"GEOID":"180571103014"}},{"arcs":[[425,-332,-28,426,427,-183,428,-347]],"type":"Polygon","properties":{"GEOID":"180571110093"}},{"arcs":[[-385,-420,-370]],"type":"Polygon","properties":{"GEOID":"180571101012"}},{"arcs":[[-398,-401,-324,-394,-73,-383]],"type":"Polygon","properties":{"GEOID":"180571105151"}},{"arcs":[[429,430,-283,-104,-417]],"type":"Polygon","properties":{"GEOID":"180571108221"}},{"arcs":[[-34,-63,-137,-162,-159]],"type":"Polygon","properties":{"GEOID":"180571108124"}},{"arcs":[[431,-275,432,433,-374]],"type":"Polygon","properties":{"GEOID":"180571108172"}},{"arcs":[[-423,434,-433,-274,-260,435,436,-113]],"type":"Polygon","properties":{"GEOID":"180571108182"}},{"arcs":[[-407,437,-405,438]],"type":"Polygon","properties":{"GEOID":"180571103033"}},{"arcs":[[439,-276,-432,440]],"type":"Polygon","properties":{"GEOID":"180571108171"}},{"arcs":[[-415,441,-207,-172]],"type":"Polygon","properties":{"GEOID":"180571109122"}},{"arcs":[[-232,-142,-202,-229,-353,-219,-123]],"type":"Polygon","properties":{"GEOID":"180571105094"}},{"arcs":[[-437,442,443,-114]],"type":"Polygon","properties":{"GEOID":"180571108162"}},{"arcs":[[-444,444,-416,-48,-115]],"type":"Polygon","properties":{"GEOID":"180571108161"}},{"arcs":[[445,446,-431,447]],"type":"Polygon","properties":{"GEOID":"180571108213"}},{"arcs":[[-378,448,-336,449]],"type":"Polygon","properties":{"GEOID":"180571109102"}},{"arcs":[[-46,-335,-254,450,451]],"type":"Polygon","properties":{"GEOID":"180571110121"}},{"arcs":[[-264,452,-446,453]],"type":"Polygon","properties":{"GEOID":"180571108212"}},{"arcs":[[-434,-435,-422,454,-375]],"type":"Polygon","properties":{"GEOID":"180571108173"}},{"arcs":[[-392,-322,-315,-328]],"type":"Polygon","properties":{"GEOID":"180571105171"}},{"arcs":[[-192,-215,455,-251]],"type":"Polygon","properties":{"GEOID":"180571111041"}},{"arcs":[[-414,-317,-153,-208,-442]],"type":"Polygon","properties":{"GEOID":"180571109123"}},{"arcs":[[-47,-452,456,-427]],"type":"Polygon","properties":{"GEOID":"180571110123"}},{"arcs":[[-269,457,-263]],"type":"Polygon","properties":{"GEOID":"180571108153"}},{"arcs":[[-357,458,-441,-373,459,-311]],"type":"Polygon","properties":{"GEOID":"180571108202"}},{"arcs":[[-406,-438]],"type":"Polygon","properties":{"GEOID":"180571103032"}},{"arcs":[[-333,-426,-346]],"type":"Polygon","properties":{"GEOID":"180571110091"}},{"arcs":[[-460,-376,-455,-424,-112,-259,-314,-312]],"type":"Polygon","properties":{"GEOID":"180571108203"}},{"arcs":[[460,-295,-326,-139,-8]],"type":"Polygon","properties":{"GEOID":"180571101021"}},{"arcs":[[-74,-393,-330,-413,-37]],"type":"Polygon","properties":{"GEOID":"180571109111"}},{"arcs":[[-429,-189,-410,-348]],"type":"Polygon","properties":{"GEOID":"180571110092"}},{"arcs":[[-265,-454,-448,-430,-445,-443,-436]],"type":"Polygon","properties":{"GEOID":"180571108222"}},{"arcs":[[-458,-268,-250,-284,-447,-453]],"type":"Polygon","properties":{"GEOID":"180571108151"}},{"arcs":[[-377,-343,-334,-345,-449]],"type":"Polygon","properties":{"GEOID":"180571109103"}},{"arcs":[[-418,-87,-360,-396,-425,-298]],"type":"Polygon","properties":{"GEOID":"180571103011"}},{"arcs":[[-188,-253,461,-411]],"type":"Polygon","properties":{"GEOID":"180571111043"}},{"arcs":[[-457,-451,-257,-184,-428]],"type":"Polygon","properties":{"GEOID":"180571110122"}},{"arcs":[[-371,-421,-270,462]],"type":"Polygon","properties":{"GEOID":"180571105131"}},{"arcs":[[-372,-463,-440,-459,-356]],"type":"Polygon","properties":{"GEOID":"180571105132"}}]}}}