{"type":"Topology","arcs":[[[1433,3430],[30,-2],[103,-2],[87,0],[62,4],[75,5],[98,9],[40,2],[45,-1],[0,23],[63,1],[0,2],[51,-1],[76,-29],[24,0],[0,19],[21,10],[12,3],[92,9],[58,8],[20,2],[39,-4],[110,-21],[22,-4],[59,-24],[200,-6],[48,2],[220,0],[9,1]],[[3097,3436],[0,-177],[0,-120],[0,-108],[2,-131],[-3,-34],[0,-39],[4,-28],[3,-150],[1,-134],[2,-220],[-1,-150]],[[3105,2145],[-120,-1],[-123,0],[-12,-3],[-81,1],[-115,1],[-82,-1],[-105,-1],[-129,-2],[-158,1],[-49,-1],[1,-141],[1,-16],[-112,5],[-28,0],[-148,1],[-35,1],[-124,2],[-30,-1],[-204,3]],[[1452,1993],[-4,287],[-4,246],[-2,220],[-2,109],[-1,154],[-2,129],[-1,4],[-2,116],[-1,172]],[[3105,2145],[-2,-143],[-3,-3],[-68,-1],[-1,-135],[-2,-626],[1,-237],[0,-144],[0,-143],[1,-71],[0,-341],[-4,-40],[0,-96],[1,-146],[-120,0],[-28,1],[-17,-4],[-11,4],[-138,-5],[-82,-2],[-129,0],[-126,0],[-107,-5],[-132,-5],[-253,0],[-305,-3],[-127,0],[0,12],[-11,-1]],[[1442,11],[19,97],[30,152],[2,14],[1,108],[-2,14],[-20,63],[-25,44],[-51,58]],[[1396,561],[-6,11],[1,141],[-28,70],[-21,31],[-15,32],[112,-4],[9,0],[5,8],[-1,180],[2,172],[0,113],[1,111],[0,118],[-1,83],[-1,247],[-1,119]],[[941,1544],[28,0],[0,66],[36,0],[0,33],[27,-1],[0,-16],[57,-1]],[[1089,1625],[0,-99],[13,0],[0,-32]],[[1102,1494],[-84,1],[-76,0]],[[942,1495],[-1,49]],[[849,1428],[1,-34],[119,-1],[-1,-100],[35,-1],[-1,-53],[92,0],[0,64],[54,-38]],[[1148,1265],[-1,-127],[-179,2],[0,-17],[-1,-69],[-17,30],[-22,19],[-20,5],[-20,0],[-31,6],[-10,21],[-11,6],[-12,-1],[-22,-15],[-11,35],[-3,26],[-5,10],[-19,15],[-8,12],[-2,21],[-16,2],[-8,11],[1,173],[118,-2]],[[956,1712],[0,-36],[-13,0],[-2,-132]],[[942,1495],[-36,0],[0,3],[-56,1]],[[850,1499],[1,79],[0,110],[-1,25],[106,-1]],[[1429,3736],[0,-37],[1,-138],[3,-131]],[[1452,1993],[-88,1],[-66,0],[-87,1]],[[1211,1995],[-149,0],[-90,0]],[[972,1995],[-45,0],[-71,0],[-38,0],[-142,2],[-59,1],[-136,0],[-104,-3],[-115,3],[-40,0],[-207,-1]],[[15,1997],[-2,111],[-3,148],[-2,145],[-1,37],[1,170],[1,115],[0,118],[1,37],[-3,256],[-1,77],[-3,256],[1,17],[-2,152],[-2,92],[115,-1],[50,1],[65,-1],[234,-1],[6,0],[242,1],[240,5],[240,1],[237,3]],[[972,1995],[-2,-51],[0,-108],[-1,-45],[1,-79],[-14,0]],[[850,1499],[0,-19],[18,0],[1,-11],[11,-8],[26,0],[0,-18],[-30,0],[-27,-15]],[[1148,1265],[0,79],[1,78],[-60,1],[0,20],[13,-1],[0,52]],[[1089,1625],[0,84],[120,-2],[0,146],[1,133],[1,9]],[[1396,561],[-55,1],[-132,3],[-112,1],[-102,0],[-106,2],[-164,3],[-204,3],[0,93],[4,9],[20,28],[6,10],[0,145],[-114,2],[-77,0],[-95,1],[-237,1]],[[28,863],[-3,293],[-4,234],[-3,311],[0,29],[-1,154],[-2,113]],[[1442,11],[-108,-3],[-123,-4],[-136,2],[-114,1],[-53,2],[-127,1],[-251,0],[-343,1],[-153,-1],[-1,131],[-4,213],[-1,224],[-1,52],[1,124],[0,109]],[[1429,3736],[219,0],[174,-2],[7,1],[174,0],[1,-3],[54,2],[68,0],[242,-2],[241,2],[150,-1],[90,1],[231,1],[19,-1],[0,-165],[-2,-133]]],"transform":{"scale":[0.000079329040566642,0.00005061750535331904],"translate":[-85.44701399999998,40.378222]},"objects":{"Geometry\\18-009":{"type":"GeometryCollection","geometries":[{"arcs":[[0,1,2,3]],"type":"Polygon","properties":{"GEOID":"180099751002"}},{"arcs":[[-3,4,5,6]],"type":"Polygon","properties":{"GEOID":"180099754001"}},{"arcs":[[7,8,9,10]],"type":"Polygon","properties":{"GEOID":"180099752003"}},{"arcs":[[11,12]],"type":"Polygon","properties":{"GEOID":"180099753001"}},{"arcs":[[13,-11,14,15]],"type":"Polygon","properties":{"GEOID":"180099752002"}},{"arcs":[[16,-4,17,18,19,20]],"type":"Polygon","properties":{"GEOID":"180099751003"}},{"arcs":[[-20,21,-16,22,-13,23,-9,24,-18,-7,25,26]],"type":"Polygon","properties":{"GEOID":"180099754002"}},{"arcs":[[-22,-19,-25,-8,-14]],"type":"Polygon","properties":{"GEOID":"180099752001"}},{"arcs":[[-23,-15,-10,-24,-12]],"type":"Polygon","properties":{"GEOID":"180099753002"}},{"arcs":[[-26,-6,27]],"type":"Polygon","properties":{"GEOID":"180099754003"}},{"arcs":[[28,-1,-17]],"type":"Polygon","properties":{"GEOID":"180099751001"}}]}}}