{"type":"Topology","arcs":[[[1309,8485],[4,-43],[25,-62],[41,-52],[14,-25],[13,-48],[12,-187],[-11,-79],[-64,-133],[-45,-64],[-55,-53],[-29,-47],[-9,-35],[-2,-64],[5,-56],[13,-76],[9,-109],[1,-130],[-8,-48],[-26,-82],[-8,-62],[6,-39],[26,-97],[-6,-56],[-59,-85],[-7,-24]],[[1149,6729],[-99,10],[-37,-3],[-91,-45],[-70,-20],[-218,-2],[-72,12],[-166,-27],[-23,-17],[-28,-63],[-25,-24],[-45,-18],[-34,-2],[-59,21],[-47,-11],[-42,-42],[-76,-63]],[[17,6435],[-7,753],[-8,912],[-2,365],[85,2],[348,3],[336,2],[340,5],[187,10],[13,-2]],[[4997,8504],[379,-7],[301,-8],[194,0],[150,-22],[74,4],[112,-11],[402,0],[35,2],[80,-10],[181,3],[118,-1],[137,-4]],[[7160,8450],[-3,-52],[-15,-105],[-8,-89],[-4,-168],[-6,-8],[-63,0],[-29,8],[-12,-13],[-26,-85],[-56,-60],[-49,-18],[-15,-15],[-13,-62]],[[6861,7783],[-34,3],[-21,-24],[-41,-4],[-17,17],[-22,-26],[-54,-33],[-18,-24],[-30,-59],[-40,-12],[-24,-30],[-61,-46],[-14,-70],[0,-65],[-44,-31],[-20,-41],[-55,-88],[-24,-20],[-56,-87],[-1,-29],[-30,-14],[-37,-44],[-10,-78],[-49,25],[-66,26],[-87,99],[-14,29]],[[5992,7157],[-16,43],[-6,137],[-25,65],[-27,27],[-52,26],[-20,65],[-1,135],[-211,-36],[-174,-14],[22,22],[3,19],[32,42],[7,87],[-6,43],[-58,64],[-89,64],[-7,12],[-12,100],[-27,59],[-105,71],[-6,90],[-67,98],[-66,35],[-77,25],[-30,15],[23,53]],[[4921,5239],[21,85],[-5,50],[8,40],[37,-8],[46,-42],[23,4],[41,-17],[77,24],[27,-7],[2,-33],[14,-7],[62,39],[35,34],[59,29],[27,44],[-8,66],[51,17],[37,-25],[47,54],[30,49],[17,40]],[[5569,5675],[45,-53],[31,-15],[55,-40],[5,-12],[0,-152],[30,-60],[11,-3],[274,-2],[44,2],[120,-4],[268,-42],[50,-5],[-20,102],[50,-4],[19,10],[208,0],[74,25],[55,-9],[27,15],[38,-6],[42,4],[27,-42],[58,-40],[10,-33],[21,-20],[27,5],[129,-4],[37,-38],[9,-24],[26,-14],[45,3],[66,-28],[85,-66],[37,-60],[33,-30],[99,0],[33,-34],[18,-37],[29,-6],[87,-3],[49,94],[32,-23],[9,-57],[18,-13],[5,-28]],[[7984,4928],[-10,-214],[-4,-272],[-8,-194],[-15,-669],[-25,-25],[-36,-63],[-9,-28],[-74,-71],[-30,4],[-100,94],[-48,15],[-32,-18],[-33,-40],[-29,-49],[-2,-52],[15,-27],[91,-69],[43,-18],[31,-30],[12,-38],[-9,-42],[-21,-27],[-51,-27],[-40,-1],[-10,-14],[17,-61],[85,-125],[-4,-28],[-37,-12],[-28,1],[-21,14],[-10,54],[-66,-15],[-29,-19],[-54,-3],[-51,9],[-26,-6],[-22,-26],[-18,-41],[-12,-78]],[[7314,2717],[-26,7],[-18,-36],[-14,-47],[-22,-30],[-51,-42],[-28,-8],[-177,-18],[-33,3],[-80,27],[-35,16],[-25,44],[-16,60],[-45,50],[-67,20],[-45,23],[-36,10],[-38,0],[-42,15],[-44,58],[-27,90],[-29,27],[-40,18],[-7,18],[-85,117],[-166,188]],[[6118,3327],[-163,181],[-42,-2],[-251,6],[-15,13],[-18,38],[-41,165],[-19,24],[-130,88],[-23,48],[-45,19],[43,34],[20,-7],[42,-38],[52,2],[34,25],[46,12],[-3,18],[28,15],[-12,117],[8,17],[5,61],[38,65],[-42,33],[-58,66],[-28,57],[-144,194],[-87,84],[-21,31],[-16,44],[-33,37],[-45,26],[-53,46],[-39,64],[-27,72],[-62,72],[-41,21],[-24,24],[-26,92],[-5,48]],[[3237,8513],[328,5],[252,-5],[589,0],[107,2],[484,-11]],[[5992,7157],[-30,-31],[-32,-60],[-5,-110],[5,-51],[36,-113],[21,-92],[19,-105],[31,-60],[36,-22],[31,-54],[-9,-101],[-25,-54],[-14,-62],[-49,-51],[-73,-34],[-24,-24],[-2,-53],[-18,-46],[-30,-15],[-59,8],[-16,-28],[-33,-15],[-22,-23],[-15,-47],[-34,-48],[-36,-71],[-17,-52],[-38,-36],[-21,-32]],[[4921,5239],[-164,1],[-21,-4],[-124,-43],[-63,-29],[-34,-4],[-18,-14],[-24,-48],[-10,-4],[-64,9],[-72,61],[-42,6],[-10,15],[10,29],[0,110],[-12,15],[-106,14]],[[4167,5353],[-42,7],[-63,24],[-42,-18],[-37,7],[-84,-5],[-16,-12],[-48,20],[-42,60],[-19,18],[24,43],[41,2],[2,32],[24,33],[-7,45],[-34,64],[-47,-11],[-54,6],[-21,12],[-57,78],[-8,18],[17,66],[20,14],[62,-10],[75,42],[6,32],[-20,74],[31,11],[57,-22],[60,-14],[40,16],[38,38],[27,6],[54,36],[8,35],[-27,19],[-25,43],[-47,20],[-26,-8],[-29,-28],[-42,55],[-50,43],[-39,41],[-83,11],[-164,-8],[-13,4],[-26,50],[-15,65],[-36,37],[5,29],[-13,29],[-33,26],[-54,15],[-28,20],[-41,44],[-46,17],[-30,29],[-72,16],[-8,14],[4,127],[-18,-2]],[[3156,6808],[-2,69],[9,41],[1,54],[32,71],[25,37],[81,86],[7,42],[18,50],[0,91],[-18,72],[1,228],[-4,33],[7,132],[19,81],[59,51],[24,37],[-4,22],[-74,45],[-13,29],[-8,78],[15,87],[-14,95],[-8,26],[-45,68],[-27,80]],[[7160,8450],[57,-5],[103,0],[3,839],[369,1],[23,2],[659,-8],[-34,-87],[-13,-57],[-30,-44],[-11,-39],[-22,-32],[-52,-39],[-27,-39],[21,-28],[40,-16],[28,0],[38,15],[105,-73],[25,-44],[-13,-101],[-13,-12],[12,-46],[34,-81],[2,-22],[-16,-43],[-36,-37],[-48,15],[-41,64],[-25,29],[-34,-14],[-20,-61],[16,-39],[39,-29],[38,-16],[115,-33],[102,-78],[9,-41],[-17,-27],[-79,-94],[-37,-3],[-52,36],[-13,34],[-5,52],[4,46],[-12,20],[-43,-1],[-19,-19],[-16,-54],[-7,-105],[-10,-88],[11,-44],[28,-75],[-1,-109],[5,-26],[22,-44],[7,-34],[-12,-40],[1,-25],[37,-37],[44,-21],[85,-20],[24,-14],[9,-35],[0,-38],[-30,-59],[-59,-80],[-5,-33],[17,-25],[57,-55],[26,-38],[9,-51],[-27,-30],[-44,1],[-26,45],[-6,31],[-23,35],[-59,48],[-90,50],[-31,45],[-17,80],[-28,60],[-25,5],[-88,-26],[-15,-17],[-37,-131],[-15,-22],[-59,-46],[-78,-94],[-11,-26],[7,-37],[45,4],[43,27],[34,-1],[13,-27],[19,-103],[37,-76],[5,-29],[-30,-26],[-42,9],[-26,-16],[3,-62],[28,-82],[-1,-49],[23,-117],[-65,-67],[1,-24],[36,-27],[28,-34],[8,-67],[-4,-31],[-26,-22],[-25,-1],[-48,15],[-45,50],[-18,35],[-13,65],[-7,110],[-9,34],[-27,31],[-35,-16],[-14,-30],[-7,-44],[15,-44],[62,-62],[5,-31],[-30,-100],[-85,-94],[-12,-29]],[[7696,6185],[-5,21],[-70,40],[-25,39],[-21,17],[-70,-8],[-29,-19],[-36,-10],[-48,-52],[-43,-29],[-74,-8],[-108,-4],[-24,11],[-14,-11],[-51,-13],[-26,11],[-11,28],[-71,50],[-59,6],[-77,-10],[6,38],[78,68],[10,18],[3,151],[3,6],[94,26],[4,240],[-1,71],[-17,-26],[-44,-25],[-33,-7],[3,120],[6,33],[29,75],[-3,22],[-56,1],[-69,-9],[-27,30],[-16,33],[-20,80],[-81,138],[3,10],[53,11],[25,17],[74,4],[87,-55],[31,-47],[23,10],[38,40],[10,83],[93,-2],[22,48],[-12,14],[3,66],[-192,134],[-28,26],[-32,58],[-40,39]],[[4326,1951],[7,27],[48,-16],[201,12],[-1,87],[18,110],[-19,25],[23,21],[57,18],[52,40],[41,13],[39,106],[0,43],[21,16],[48,9],[-1,85],[6,12],[126,-3],[33,21],[20,35],[8,369],[107,-3],[19,-7],[161,-94],[14,-17],[25,-60],[7,-31],[25,-12],[13,15],[-2,94],[10,19],[53,12],[31,44],[28,5],[61,-31],[65,-19],[65,-64],[67,-35],[32,-7],[40,18],[84,1],[37,41],[16,119],[15,63],[92,295]],[[7314,2717],[-25,-149],[0,-81],[-25,-23],[-77,14],[-28,1],[-23,-37],[20,-55],[39,-49],[85,-61],[18,-18],[3,-40],[-18,-29],[-40,-39],[-47,-10],[-42,10],[-85,60],[-55,59],[-25,13],[-39,2],[-38,-27],[-35,22],[-41,53],[-59,69],[-71,95],[-127,133],[-39,33],[-149,82],[-31,9],[-41,1],[-85,-14],[-84,-44],[-50,-38],[-41,-38],[-37,-59],[-22,-46],[-24,-68],[-21,-146],[-3,-90],[13,-187],[-2,-18],[23,-100],[51,-96],[36,-54],[65,-56],[72,-39],[56,-18],[20,0],[122,-27],[89,-12],[121,-9],[128,-36],[131,-48],[50,-36],[58,-27],[39,-49],[20,-34],[27,-83],[8,-51],[-9,-24],[-13,-101],[-33,-117],[-24,-57],[-48,-85],[-58,-74],[-36,-32],[-74,-42],[-50,-14],[-111,-11],[-77,5],[-182,49],[-48,0],[-91,21],[-99,10],[-47,-4],[-60,11],[-112,-47],[-40,-35],[-76,-81],[-52,-80],[-49,-140],[-35,-188],[-25,-62],[-31,-59],[-21,-25],[-39,-32],[-47,-18],[-35,9],[-29,29],[-62,101],[-42,60],[-131,157],[-33,23],[-109,128],[-74,71],[-57,49],[-34,17],[-198,37],[-54,-1],[-67,-10],[-48,-16],[-85,-51],[-65,-77],[-39,-37],[-7,132],[0,94],[-7,100],[0,131],[-5,102],[8,450],[7,453]],[[1149,6729],[2,-49],[27,-59],[61,-57],[56,-40],[99,-53],[47,-37],[42,15],[81,-1],[40,5],[94,24],[57,6],[69,0],[29,8],[41,28],[64,68],[53,28],[92,13],[56,29],[76,70],[24,11],[44,0],[26,-10],[74,-49],[44,-16],[58,-7],[40,11],[43,40],[34,17],[51,-8],[74,-54],[50,-24],[52,-3],[49,17],[30,23],[98,91],[70,36],[60,6]],[[4167,5353],[7,-80],[-8,-53],[16,-34],[29,-29],[6,-25],[-35,-63],[-91,-53],[-35,-16],[-61,-7],[-35,4],[-48,-10],[9,-38],[1,-42],[-35,-9],[-29,-57],[-8,-45],[-105,5],[-41,24],[-125,1],[-83,38],[-15,21],[-41,23],[-152,3],[-13,-61],[-18,-44],[-66,-104],[-10,-4],[-85,1],[-67,-45],[-58,-9],[-42,54],[-44,4],[-56,-9],[-43,4],[-12,15],[-1,150],[-79,42],[-13,15],[-31,57],[-2,58],[-31,3],[-119,-7],[-91,49],[-30,12],[-2,-129],[-13,-65],[1,-45],[10,-48],[-4,-105],[-58,-4],[-22,15],[-71,19],[-20,12],[-53,8],[-14,-32]],[[2131,4718],[-518,-32],[-504,-36],[-353,-17],[-718,-6],[-11,966],[-5,118],[0,88],[-5,636]],[[4326,1951],[9,568],[4,310],[3,158],[-584,6],[-193,3],[-844,7],[-492,3],[-73,2],[12,481],[-3,13],[14,746],[7,474],[-55,-4]],[[7696,6185],[16,-30],[54,-32],[26,-26],[29,-47],[34,-30],[74,-38],[32,-30],[7,-51],[-10,-28],[-32,-54],[-8,-28],[14,-48],[37,-28],[24,12],[32,80],[19,65],[19,37],[28,26],[74,18],[43,-15],[85,-56],[10,-21],[-11,-19],[-50,-30],[-41,11],[-21,-49],[7,-106],[-5,-85],[11,-35],[27,8],[36,50],[48,8],[72,-13],[34,-34],[12,-44],[-7,-56],[-35,-36],[-30,-83],[-8,-72],[3,-29],[-28,-23],[-27,-1],[-37,16],[-38,43],[-44,20],[-23,-39],[-16,-137],[-31,-49],[-20,2],[-29,55],[-20,24],[-28,54],[-48,82],[-26,24],[-32,-18],[-22,-53],[13,-38],[20,-22],[56,-24],[25,-44],[-6,-191]],[[1309,8485],[323,8],[194,3],[251,6],[239,3],[220,0],[125,3],[576,5]]],"transform":{"scale":[0.000050898400093425844,0.00003430968019812673],"translate":[-86.681424,38.104329]},"objects":{"Geometry\\18-025":{"type":"GeometryCollection","geometries":[{"arcs":[[0,1,2]],"type":"Polygon","properties":{"GEOID":"180259520003"}},{"arcs":[[3,4,5,6]],"type":"Polygon","properties":{"GEOID":"180259519001"}},{"arcs":[[7,8,9,10,11]],"type":"Polygon","properties":{"GEOID":"180259521001"}},{"arcs":[[12,-7,13,-8,14,15,16]],"type":"Polygon","properties":{"GEOID":"180259520002"}},{"arcs":[[-5,17,18]],"type":"Polygon","properties":{"GEOID":"180259519003"}},{"arcs":[[19,-11,20]],"type":"Polygon","properties":{"GEOID":"180259521003"}},{"arcs":[[-2,21,-16,22,23]],"type":"Polygon","properties":{"GEOID":"180259520001"}},{"arcs":[[-23,-15,-12,-20,24]],"type":"Polygon","properties":{"GEOID":"180259521002"}},{"arcs":[[-6,-19,25,-9,-14]],"type":"Polygon","properties":{"GEOID":"180259519002"}},{"arcs":[[-1,26,-17,-22]],"type":"Polygon","properties":{"GEOID":"180259520004"}}]}}}