{"type":"Topology","arcs":[[[1274,1313],[1,-121],[-35,-28],[-36,-32],[-61,-52],[-60,-50],[-85,-66],[-65,-78],[-27,-29],[-44,-40],[-86,-72],[-43,-38]],[[733,707],[-1,98],[0,14],[-3,266],[-1,216],[134,2],[108,2],[32,0],[121,4],[41,1],[96,4],[14,-1]],[[188,1616],[-1,61],[0,103],[0,109],[3,26]],[[190,1915],[2,-1],[53,1],[96,1],[184,3],[57,1],[76,1],[63,1]],[[721,1922],[1,-59],[4,-239],[-54,-1],[-213,-2]],[[459,1621],[-136,-2],[0,-80],[-13,6],[-21,20],[-23,10],[-2,-40],[1,-56],[-2,-20],[-3,-3],[-22,-1],[-92,67]],[[146,1522],[28,56],[14,28],[0,10]],[[146,1522],[-40,-77],[-56,-113],[-27,11],[-20,-5]],[[3,1338],[-2,172],[-1,14],[2,89],[19,4],[32,-1],[61,0],[40,0],[34,0]],[[459,1621],[1,-162],[0,-161],[-136,-4],[2,-148],[0,-175],[-129,-3],[-182,-2],[-10,1]],[[5,967],[-1,91],[0,150],[-1,130]],[[1274,1313],[0,110],[0,214],[-2,107],[-1,53]],[[1271,1797],[97,0],[111,0],[55,0],[97,2],[73,2],[80,2],[44,0],[73,1],[53,1],[94,2],[89,3],[73,3],[246,10],[89,3],[45,2]],[[2590,1828],[112,2],[24,0],[2,-161],[1,-162],[3,-256],[0,-40],[3,-292],[1,-125],[3,-156],[2,-248],[2,-91],[3,-243],[-1,-9]],[[2745,47],[-62,0],[-75,0],[-130,-3],[-59,-2],[-188,-5],[-99,-4],[-50,0],[-47,-2],[-45,0],[-176,-4],[-15,0]],[[1799,27],[-1,108],[0,22],[-1,74],[0,68],[-1,119],[0,53],[-2,202],[-183,-4],[-87,-1],[-198,-2],[-248,-4],[-344,-6],[-1,51]],[[3445,2801],[52,2],[35,0],[83,2]],[[3615,2805],[100,3],[2,-91],[6,-393],[-13,0],[-107,-4],[-148,-3]],[[3455,2317],[-4,131],[-4,191]],[[3447,2639],[-2,162]],[[3439,3166],[1,-44],[2,-162],[0,-17],[2,-74]],[[3444,2869],[-29,-2],[-73,-3]],[[3342,2864],[1,11],[-2,66],[0,17],[-98,-3]],[[3243,2955],[-1,69],[1,24],[-2,13],[-1,21],[3,17],[5,13],[10,14],[26,28],[15,9],[99,3],[41,0]],[[3342,2864],[-33,-1],[1,-66]],[[3310,2797],[-67,-2],[-1,46],[-1,42],[-1,43],[-21,-1],[-1,30],[25,0]],[[3444,2869],[1,-68]],[[3447,2639],[-77,-2],[-39,-1],[-61,-3]],[[3270,2633],[41,64],[-1,67],[0,33]],[[3438,3283],[86,3],[185,5],[204,2]],[[3913,3293],[4,-322],[-100,-2],[-75,0],[-86,-1],[-45,-2],[2,-63],[2,-98]],[[3439,3166],[-1,117]],[[2844,3268],[98,3],[161,3],[65,1],[148,5],[109,3],[13,0]],[[3270,2633],[-22,-35],[-28,-42],[-21,-34],[-35,-53],[-15,-26],[-31,-51],[-1,-10],[2,-73]],[[3119,2309],[-118,-3],[-98,-3],[-47,-1]],[[2856,2302],[0,15],[-1,109],[-2,3],[-53,0],[-5,3],[-20,82],[-29,0],[17,26],[11,-1],[30,28],[29,23],[10,16],[7,23],[3,15],[-1,57],[-1,64],[4,21],[-7,5],[-2,8],[4,29],[-1,95],[-3,184],[-2,161]],[[2289,5834],[2,-70],[3,-143],[3,-87],[1,-18],[68,4],[3,-170],[4,-162],[1,-105],[1,-73],[2,-138],[2,-93],[0,-26],[2,-78],[1,-43],[2,-86],[69,2],[57,1],[213,5],[2,-91],[4,-244],[0,-153],[-3,-160]],[[2726,3906],[-41,-1],[-89,-1],[-57,-2],[-92,-3],[-159,-4],[-86,-2],[-57,-1],[-76,-3],[-26,0],[-26,9],[-18,-1],[-94,-11],[-153,-4],[-80,-2],[-70,-2],[-86,-2],[-157,-4]],[[1359,3872],[-2,140],[-4,184],[0,163],[-1,72],[0,253],[-79,-3],[-175,-5],[-85,-3],[3,-164]],[[1016,4509],[-98,-3],[-89,-2],[-49,0],[-51,1],[-56,0],[-51,-2],[4,-83],[1,-81],[-82,-3],[-19,2],[-55,1],[-196,7]],[[275,4346],[-1,87],[-2,151],[-2,170],[-5,31],[0,44],[3,39],[0,23],[-2,124],[0,122],[0,136],[0,199],[1,94],[1,57],[0,73],[0,55],[1,58],[252,0],[88,1],[140,1],[153,2],[168,2],[234,3],[44,1],[254,3],[281,7],[5,0],[27,-3],[374,8]],[[1360,3716],[-2,146],[1,10]],[[2726,3906],[111,3]],[[2837,3909],[1,-105],[2,-214],[3,-181],[1,-141]],[[2856,2302],[-20,-6],[-172,-1],[-77,-1],[1,-86],[1,-140],[1,-92],[-1,-11],[1,-137]],[[1271,1797],[-3,137]],[[1268,1934],[-1,159],[-1,165],[66,2],[54,1],[127,2],[-3,216],[0,32],[-2,156],[50,1],[-50,141],[-2,8],[-2,85],[-2,169],[135,3],[-1,16],[-4,302],[-3,4],[-41,-1],[-189,-3],[-36,0],[-2,129],[-1,195]],[[5914,2135],[1,-122],[0,-128],[1,-199],[0,-20],[0,-143],[1,-162],[0,-9],[1,-203],[1,-213],[1,-92],[0,-65],[2,-100],[0,-95],[0,-9],[1,-98],[-1,-37],[1,-90],[-1,-93],[0,-181],[-30,0],[-42,-2],[-164,-1],[-69,-1],[-144,-2],[-76,-1],[-24,-1],[-51,0],[-25,-1],[-125,-1],[-88,-2],[-5,-1],[-98,0],[-35,-1],[-130,-1],[-46,-1],[-142,1],[-54,-1],[-77,0],[-226,0]],[[4271,60],[0,11],[1,146],[0,152],[1,218],[1,123],[0,86],[-1,90],[-1,157],[-3,313],[-3,211],[-2,112]],[[4264,1679],[0,180],[0,49],[0,101],[151,3],[92,1],[234,1],[46,0],[138,1],[63,0],[88,1],[11,-1],[134,1],[177,-1],[85,-1],[128,-2],[106,-1],[37,1],[43,34],[7,7],[4,40],[5,7],[58,12],[6,2],[37,21]],[[3913,3293],[118,1],[118,2],[137,1],[163,3],[74,2],[1,-154],[0,-84],[1,-86],[63,2],[210,7],[149,0],[92,-1],[29,0],[-1,161],[95,-1],[143,-3],[32,1],[81,-2],[73,0],[139,-2],[232,1],[59,-1]],[[5921,3140],[-1,-160],[-2,-168],[-1,-91],[0,-37],[-2,-223],[1,-32],[-1,-84],[0,-51],[0,-47],[-1,-90],[0,-22]],[[4264,1679],[-98,2],[-167,0],[-94,-2],[-59,0],[-23,-1],[-125,-3],[-142,-2],[-111,-1],[-1,162],[-1,149],[2,31],[9,158],[2,58],[0,44],[-1,43]],[[3455,2317],[-69,-1],[-81,-2],[-38,-1],[-66,-3],[-82,-1]],[[4271,60],[-25,0],[-151,-1],[-73,0],[-76,-1],[-58,0],[-57,-1],[-94,-1],[-113,-2],[-27,0],[-83,-1],[-168,-2],[-109,0],[-30,-1],[-157,1],[-114,0],[-55,0],[-80,-2],[-56,-2]],[[3711,5877],[46,1],[70,1],[51,2],[108,2],[53,1],[36,2],[66,-1],[46,0],[43,2],[73,0],[81,4],[71,1],[17,1],[93,0],[35,3],[45,0],[90,3],[57,0],[94,3],[38,-1],[12,-2],[98,6],[241,2],[150,4],[87,2],[132,3],[37,1],[31,0],[78,2],[149,1],[-1,-84],[0,-147],[0,-62],[-1,-263],[-1,-31],[1,-105],[-1,-57],[0,-393],[0,-164],[-1,-134],[-1,-112],[0,-16],[0,-57],[-1,-32],[-1,-156],[-1,-45],[0,-93]],[[5931,3969],[-65,-2],[-108,0],[-56,-1],[-99,-6],[-35,-2],[-116,4],[-87,0],[-65,-1],[-75,2],[-25,1],[-43,1],[-66,-3],[-132,-6],[-63,-1],[-2,150],[-3,173],[-133,-3],[-62,0],[-188,-5],[-54,0],[-82,-2],[-159,-1],[-117,-5],[-142,-3],[-166,0],[-90,0],[-44,-2],[-119,-7],[-20,0],[-84,-1]],[[3431,4249],[33,155],[36,170],[22,-7],[17,9],[41,3],[95,5],[125,0],[136,1],[0,48],[-1,201],[0,87],[-1,100],[-1,70],[-1,80],[-2,148],[-3,18],[-53,85],[-12,20],[-1,7],[-2,111],[-73,-2],[-99,-7],[19,263],[5,63]],[[1360,3716],[-116,-2],[-162,-5],[-3,2],[-3,23],[-28,26],[-12,10],[-51,2],[-2,153],[-1,17],[-3,32],[1,11],[4,13],[35,48],[3,7],[0,14],[-1,104],[-2,157],[-3,181]],[[2289,5834],[196,4],[546,12],[100,9],[67,1],[65,2],[173,7],[103,4],[107,2],[65,2]],[[3431,4249],[-8,-44],[-4,-30],[1,-93],[2,-155],[-170,-9],[-92,-2],[-138,-3],[-80,-1],[-105,-3]],[[5931,3969],[-2,-139],[-2,-131],[-1,-106],[-1,-72],[-1,-163],[-3,-218]],[[1268,1934],[-82,-2],[-83,-2],[-88,-2],[-22,0],[-181,-4],[-91,-2]],[[190,1915],[1,19],[0,28],[0,150],[0,207],[0,80],[-1,161],[1,163],[-1,134],[0,133],[0,109],[1,297],[0,302],[1,152],[78,1],[3,3],[1,82],[2,119],[0,130],[-1,161]],[[1799,27],[-169,-2],[-67,-2],[-25,-1],[-136,-3],[-56,0],[-40,-2],[-52,0],[-154,-3],[-67,0],[-21,-1],[-116,0],[-109,-2],[-125,-2],[-113,-2],[-92,-2],[-105,-3],[-26,2],[-170,-2],[-138,-2],[-7,647],[-6,320]]],"transform":{"scale":[0.00007030661727563615,0.00004484915540540532],"translate":[-85.220028,40.306706]},"objects":{"Geometry\\18-075":{"type":"GeometryCollection","geometries":[{"arcs":[[0,1]],"type":"Polygon","properties":{"GEOID":"180759632003"}},{"arcs":[[2,3,4,5,6]],"type":"Polygon","properties":{"GEOID":"180759633001"}},{"arcs":[[-7,7,8]],"type":"Polygon","properties":{"GEOID":"180759633002"}},{"arcs":[[-8,-6,9,10]],"type":"Polygon","properties":{"GEOID":"180759633003"}},{"arcs":[[-1,11,12,13,14,15]],"type":"Polygon","properties":{"GEOID":"180759632001"}},{"arcs":[[16,17,18,19]],"type":"Polygon","properties":{"GEOID":"180759630001"}},{"arcs":[[20,21,22,23]],"type":"Polygon","properties":{"GEOID":"180759631001"}},{"arcs":[[-23,24,25]],"type":"Polygon","properties":{"GEOID":"180759631003"}},{"arcs":[[-25,-22,26,-20,27,28]],"type":"Polygon","properties":{"GEOID":"180759631004"}},{"arcs":[[29,30,-17,-27,-21,31]],"type":"Polygon","properties":{"GEOID":"180759630002"}},{"arcs":[[32,-32,-24,-26,-29,33,34,35]],"type":"Polygon","properties":{"GEOID":"180759631002"}},{"arcs":[[36,37,38,39,40]],"type":"Polygon","properties":{"GEOID":"180759627001"}},{"arcs":[[41,-38,42,43,-36,44,-13,45,46]],"type":"Polygon","properties":{"GEOID":"180759627004"}},{"arcs":[[47,48,49]],"type":"Polygon","properties":{"GEOID":"180759629002"}},{"arcs":[[-18,-31,50,51,-50,52]],"type":"Polygon","properties":{"GEOID":"180759629001"}},{"arcs":[[-28,-19,53,-34]],"type":"Polygon","properties":{"GEOID":"180759631005"}},{"arcs":[[-35,-54,-53,-49,54,-14,-45]],"type":"Polygon","properties":{"GEOID":"180759629003"}},{"arcs":[[55,56,57]],"type":"Polygon","properties":{"GEOID":"180759628002"}},{"arcs":[[-39,-42,58]],"type":"Polygon","properties":{"GEOID":"180759627002"}},{"arcs":[[59,-58,60,-43,-37]],"type":"Polygon","properties":{"GEOID":"180759628001"}},{"arcs":[[-61,-57,61,-51,-30,-33,-44]],"type":"Polygon","properties":{"GEOID":"180759628003"}},{"arcs":[[-40,-59,-47,62,-4,63]],"type":"Polygon","properties":{"GEOID":"180759627003"}},{"arcs":[[-5,-63,-46,-12,-2,-16,64,-10]],"type":"Polygon","properties":{"GEOID":"180759632002"}}]}}}