{"type":"Topology","arcs":[[[7702,2109],[73,2],[151,2],[70,2]],[[7996,2115],[0,-75],[0,-175],[2,-203],[19,1],[27,-8],[22,7],[17,2],[35,0],[17,-4],[16,-1],[59,31],[8,-19],[3,-33],[-1,-25],[-3,-11],[-19,-56],[1,-39],[12,-41],[8,-8],[9,-3],[127,3],[7,-4],[7,-18],[21,1]],[[8390,1437],[0,-30],[0,-78],[1,-40],[-1,-53],[2,-11],[15,-30],[2,-20]],[[8409,1175],[-117,6],[1,-168],[-2,-62],[0,-47],[7,-16],[1,-118]],[[8299,770],[-76,-2],[-176,-2],[-327,-7]],[[7720,759],[0,126],[6,27],[11,30],[11,24],[0,15],[-10,33],[-27,77],[-6,0],[0,201]],[[7705,1292],[-1,55],[0,265],[0,90],[0,119],[-1,48],[0,129],[-1,111]],[[4395,3592],[26,-5],[8,-5],[19,-1],[31,18],[10,3],[51,23],[4,19],[6,9],[37,34],[12,1]],[[4599,3688],[8,-53],[8,-46],[0,-76]],[[4615,3513],[-85,0],[-135,-3]],[[4395,3510],[0,82]],[[4615,3513],[0,-76]],[[4615,3437],[-1,-68]],[[4614,3369],[-133,1],[-8,-2],[-41,1],[1,117],[-40,0]],[[4393,3486],[2,24]],[[4205,3482],[27,0],[57,3],[104,1]],[[4614,3369],[-16,-91],[-5,-34],[-4,-54],[-5,-34],[-7,-33]],[[4577,3123],[-49,35],[-32,26],[-95,73],[-37,30],[-32,29],[-31,33],[-28,31],[-39,53],[-29,49]],[[7720,759],[0,-47],[1,-55],[-5,-19],[-15,-23],[-18,-15],[-24,-15],[-22,-12],[-3,-27],[-9,-29],[0,-65],[0,-144],[0,-151],[0,-114]],[[7625,43],[-99,-3],[-68,3],[-74,-1]],[[7384,42],[-36,59],[-47,79],[-36,58],[-52,86],[-10,18],[-63,103],[-30,50],[-44,69],[-56,78],[-42,53]],[[6968,695],[42,25],[20,10],[29,10],[32,6],[13,2],[204,7],[319,4],[93,0]],[[6929,1278],[10,2],[94,2],[81,2],[15,0],[189,1],[170,3],[217,4]],[[6968,695],[-36,-24]],[[6932,671],[-1,131],[3,21],[-1,54],[-1,44],[-2,152],[-1,205]],[[7384,42],[-58,1],[-84,-1],[-91,0],[-215,-2]],[[6936,40],[-2,98],[-1,103],[1,6],[-1,320],[-1,104]],[[8299,770],[193,2]],[[8492,772],[1,-88],[-1,-95],[1,-124],[-1,-81],[1,-37],[-1,-121],[2,-139],[6,-28]],[[8500,59],[-54,-2],[-159,-1],[-259,-4],[-306,-7],[-95,0],[-2,-2]],[[7996,2115],[104,1],[36,2],[62,0],[12,1],[99,3],[36,1],[42,0]],[[8387,2123],[1,-123],[1,-38],[-1,-70],[1,-58],[0,-122],[0,-115],[1,-89]],[[8390,1508],[0,-71]],[[8390,1508],[49,0],[11,-7],[2,-8],[23,1],[17,3],[66,1],[29,-1],[26,-4],[29,-1],[38,20],[6,-16],[2,-23],[-2,-18],[91,4],[0,25],[5,5],[26,-7],[12,-1],[7,9],[8,-2],[7,16],[20,13],[24,0],[0,-16],[3,-24]],[[8889,1477],[-9,-5],[-3,-18],[0,-106],[0,-61],[1,-52],[-1,-40],[1,-81]],[[8878,1114],[-1,-49]],[[8877,1065],[-45,10],[-31,37],[-43,0],[-13,-40],[-12,10],[-19,8],[-105,18],[-20,5],[-23,9],[-63,27],[-39,19],[-13,3],[-42,4]],[[8856,720],[59,13],[20,7],[23,11],[-7,22],[-17,42],[-16,32],[1,25],[6,12],[4,14],[-2,24],[15,42],[-1,9],[-19,11],[-13,16],[-27,-3],[-11,-5]],[[8871,992],[7,9],[-1,64]],[[8878,1114],[49,1],[51,2],[157,4],[66,1],[21,1],[40,0]],[[9262,1123],[1,-204],[2,-87],[0,-322]],[[9265,510],[-59,-6],[-85,-3],[-16,3],[-25,12],[-15,14],[-17,21],[-26,23],[-19,13],[-29,12],[-28,6],[-68,-1],[0,17],[-22,99]],[[8747,946],[-2,-39],[52,1],[2,-68],[0,-59],[-51,-3],[-48,0],[-42,-2]],[[8658,776],[-76,-2],[-90,-2]],[[8492,772],[-1,118],[-2,16],[0,62],[23,-4],[83,0],[96,-7],[57,11],[-1,-22]],[[8747,946],[16,5],[20,16],[13,1],[44,17],[31,7]],[[8856,720],[-34,-7],[-12,2],[-4,17],[-58,-13],[-52,0],[-12,-14],[-24,29],[-2,13],[0,29]],[[8889,1477],[82,36],[50,18],[38,15],[17,2],[33,-11],[11,-7],[15,19],[39,29],[15,2],[37,-7],[16,0],[12,-44],[5,2]],[[9259,1531],[3,-150],[-1,-54],[1,-204]],[[6717,7175],[197,8],[0,13],[57,0],[21,-1],[69,3],[7,-4],[230,11],[323,9],[489,13],[255,7],[12,-7],[38,0],[136,7],[237,5],[52,2],[81,4],[128,6],[29,1],[157,6],[4,-420],[1,-89],[-1,-39],[1,-21],[1,-79],[1,-118],[1,-99],[0,-288],[-1,-121],[1,-99],[2,-77],[2,-207],[2,-210],[0,-255],[-1,-153],[1,-189],[0,-38],[1,-182],[2,-196],[1,-212]],[[9253,4166],[-9,0],[-206,-7],[-85,-2],[-44,-3],[-67,-2],[-35,0],[-87,-2],[-54,-2],[-103,-2],[-23,1],[-75,-2],[-98,-2],[-65,0],[-137,-2],[-36,-2],[-231,-3],[-100,-3],[-99,-2]],[[7699,4131],[-55,-2],[-76,-1],[-171,-5],[-121,-2],[-44,-1],[-35,2],[-277,-6]],[[6920,4116],[-1,103],[-2,102],[0,137],[0,69],[-1,165],[-1,128],[-2,120]],[[6913,4940],[-3,200],[-1,99],[0,182],[-1,127],[0,201],[-191,-5],[-1,102],[1,185],[0,28],[-1,381],[0,112],[1,191],[1,118],[0,79],[1,9],[-1,153],[-1,73]],[[1578,7196],[3,3],[41,-10],[151,-2],[177,-7],[101,-6],[270,0],[14,-3]],[[2335,7171],[5,-409],[-6,-6],[0,-35],[-1,-156],[-2,-6],[4,-164],[5,-704],[-10,-155],[-1,-287],[-1,-120],[1,-49],[-2,-154]],[[2327,4926],[-115,0],[-77,2],[-107,2],[-154,3],[-74,0],[-48,1],[-26,-1],[-171,1]],[[1555,4934],[1,169],[0,49],[1,72],[1,120],[33,-1],[52,1],[14,30],[19,44],[9,16],[17,14],[24,8],[18,15],[7,20],[2,78],[3,102],[2,33],[0,110],[16,-1],[92,1],[-14,80],[0,74],[-1,117],[4,19],[17,35],[8,20],[-4,22],[-24,45],[0,18],[1,116],[-1,91],[-22,56],[-22,134],[-26,169],[-13,84],[-9,57],[4,15],[-45,57],[-81,101],[-60,72]],[[1550,410],[88,0],[103,0],[11,-1],[15,-7],[20,-20],[14,-8],[18,-1],[14,5],[14,12],[52,-40],[25,-22],[47,-42],[61,-55],[2,-28],[2,-201]],[[2036,2],[-49,-1],[-42,1],[-204,0],[-33,1],[-58,-2],[-79,1],[-9,-2],[-40,4],[-105,0],[-82,2],[-36,-1],[-119,0],[-149,3],[-61,1],[-184,4]],[[786,13],[-3,229],[0,104],[-1,76],[1,5],[59,-31],[282,-158],[78,-45],[79,-42],[79,-42],[0,36],[-1,63],[82,-1],[7,-1],[101,-1],[5,18],[-4,56],[0,131]],[[4644,7153],[357,-3],[386,2],[206,2],[46,1],[96,2],[68,-1],[245,1],[286,8],[200,3],[183,7]],[[6913,4940],[-91,-5],[-177,-8],[-120,-5],[-380,-1],[-429,-1],[-704,-3],[-109,-1]],[[4903,4916],[1,165],[2,298],[0,347],[-109,-1],[1,49],[2,256],[-4,3],[-85,0],[-7,6],[1,92],[-1,8],[-42,78],[-21,65],[-1,55],[-18,0],[-160,3],[-13,0],[1,70],[0,77],[0,45],[0,114],[-42,0],[-10,21],[-20,0],[1,38],[-1,65],[20,-10],[6,2],[2,19],[13,7],[23,-4],[10,-11],[-9,-24],[18,1],[11,-16],[8,-5],[28,5],[27,13],[5,6],[7,20],[19,3],[26,-17],[28,11],[5,7],[-10,20],[3,7],[24,19],[1,83],[0,85],[1,162]],[[6922,3705],[0,93],[-1,180],[-1,138]],[[7699,4131],[4,-304],[3,-195],[0,-44],[2,-164],[1,-65],[0,-46],[-11,-1],[0,-119],[0,-57],[2,-94],[4,-17],[1,-16],[-1,-84],[93,1],[0,-168],[0,-210],[1,-31],[-100,-2],[3,-203],[1,-203]],[[7702,2109],[-40,-1],[-98,-2],[-53,-2],[-104,-2],[-120,-4],[-12,0],[-149,-3],[0,57],[-8,0],[-3,48],[11,0],[0,159],[-8,5],[-86,-8],[-24,7],[-22,25],[-12,18],[-14,25],[-15,14],[-14,15],[-7,14],[-4,21],[-164,2],[-92,1],[-131,2],[-14,2],[-78,-2],[-9,-2],[-96,-2],[-12,-1],[-10,18],[-21,0],[-9,3],[-5,-11],[0,-11],[-131,-2]],[[6148,2492],[-1,360],[0,97],[0,140],[0,194],[103,1],[103,1],[29,1],[132,1],[258,5],[151,3],[0,85],[0,152],[-1,173]],[[5084,1860],[97,-3],[1,97],[1,116],[193,3],[137,0],[56,1],[186,1],[10,2],[116,2],[49,0],[81,2],[98,1],[39,1]],[[6148,2083],[2,-192],[0,-202],[-5,-14],[-12,-16],[-59,-59],[-14,-19],[-4,-10],[-2,-17],[66,4],[46,-56],[48,-56],[32,-44],[31,-41],[77,-93],[96,0],[21,-6],[12,6],[213,3],[81,2],[66,0],[67,1],[19,4]],[[6936,40],[-222,-3],[-58,0],[-122,-2],[-174,-1],[-34,-1],[-546,-2],[-347,-2],[-37,-5]],[[5396,24],[-4,383],[-1,39],[-1,138],[-1,22],[-2,150],[-1,50],[-9,41],[0,223],[-1,99],[0,80],[-34,0],[-107,-3],[-44,0],[-203,-4],[-1,312],[100,0],[-2,101],[-1,205]],[[4391,3966],[3,-26],[2,-246],[-1,-102]],[[4205,3482],[-30,59],[-22,55],[-17,57],[-7,30],[-10,47],[-6,55]],[[4113,3785],[-7,114],[-3,36],[-9,45],[-22,75],[5,11],[17,-24],[25,-19],[79,-96],[30,-38],[12,10],[1,31],[0,67],[40,2],[22,-4],[11,-11],[9,-22],[22,-1],[38,6],[8,-1]],[[2335,7171],[6,-1],[220,1],[48,1],[211,1],[39,-2],[142,0],[73,1],[130,-2],[189,-4],[36,-1],[101,-1],[132,0],[156,-2],[223,-1],[211,0],[160,-4],[135,-3],[97,-1]],[[4903,4916],[-268,-1],[1,-10],[-220,3]],[[4416,4908],[-54,2],[-310,4],[-64,2],[-513,-1],[-106,-1],[-87,-4],[-1,-13],[0,-74],[0,-96],[0,-222],[0,-2]],[[3281,4503],[-130,0],[-62,1]],[[3089,4504],[-26,0],[-140,4],[-56,1],[-116,1],[-139,3],[-99,2],[-48,2],[-105,2],[-20,2],[-16,4],[0,13],[2,208],[1,180]],[[3251,1642],[25,-1],[0,58],[18,42],[78,1],[1,307],[161,2],[177,1],[236,1],[30,-3],[156,-1],[14,-1],[86,0],[134,1],[66,2],[191,4],[0,10],[134,-2],[26,0],[10,5],[193,2],[1,-55],[-2,-54],[2,-103],[96,2]],[[5396,24],[-118,-2],[-178,-2],[-194,-2],[-90,-2],[-57,0],[-67,-2],[-55,0],[-11,-10],[-91,-1],[-188,2],[-290,-1],[-69,4],[-552,-2],[-338,-1]],[[3098,5],[-2,251],[0,77],[2,4],[90,-2],[4,3],[-1,68],[-163,3],[-5,4],[0,62],[-1,55],[0,77],[-4,5],[-19,3],[-2,65],[-2,144],[-2,3],[44,22],[46,23],[41,36],[4,9],[0,113],[-98,0],[-29,1],[-174,1],[77,84],[44,50],[71,89],[30,55],[53,54],[42,45],[47,100],[60,133]],[[2,4942],[44,0],[171,2],[187,1],[186,-4],[1,-85],[-1,-120],[186,-6],[95,-1],[81,0],[177,-2],[98,0],[110,1],[96,0],[91,1],[30,0],[1,205]],[[3089,4504],[-2,-268],[1,-191],[-2,-206],[-1,-199],[-1,-168],[1,-170],[-5,-22],[0,-18],[1,-191],[-1,-135],[-2,-275],[-80,0],[-117,0],[3,-259]],[[2884,2402],[-95,1],[1,55],[-99,0],[-247,1],[-96,1],[-36,5],[-195,-4],[-123,-1],[-236,0],[-210,2]],[[1548,2462],[-238,0],[-246,0],[-188,0],[-55,0],[-205,2],[-82,0],[-141,-1],[-263,2],[-24,1],[-105,7]],[[1,2473],[0,408],[-1,621],[1,212],[-1,92],[2,19],[2,618],[-3,5],[0,189],[1,181],[0,124]],[[1548,2462],[0,-18],[-1,-224],[0,-108],[0,-49],[0,-185],[2,-329],[0,-294],[1,-155],[0,-79],[0,-191],[0,-109],[1,-162],[-1,-100],[0,-49]],[[786,13],[-76,-1],[-126,-4],[-32,0],[-76,-2],[-130,-2],[-165,1],[-166,-1],[0,15],[-1,397],[0,331],[-1,90],[-3,73],[1,23],[4,308],[-2,194],[-2,214],[-6,410],[5,116],[-9,298]],[[2884,2402],[2,-225],[-1,-127],[97,1],[-1,-115],[1,-82],[2,-59],[97,-2],[-1,-152],[84,0],[5,-2],[82,3]],[[3098,5],[-385,-2],[-276,-1],[-110,3],[-56,-2],[-111,0],[-89,0],[-35,-1]],[[9253,4166],[1,-166],[-1,-438],[1,-219],[4,-268],[2,-154],[1,-162],[0,-191],[0,-229],[1,-163],[-1,-35]],[[9261,2141],[-35,-2],[-22,2],[-131,-4],[-232,-4],[-80,-3],[-114,-1],[-124,-2],[-136,-4]],[[3281,4503],[0,-100],[-1,-67],[5,-9],[56,-21],[10,-3],[33,0],[50,1],[98,0],[44,-1],[89,0],[-1,-259],[0,-103],[162,-84],[122,-64],[19,-2],[55,1],[91,-7]],[[4577,3123],[68,-44],[36,-18],[67,-28],[173,-61],[36,-14],[31,-17],[1,114],[-3,15],[-20,35],[-25,41],[-86,132]],[[4855,3278],[-27,43],[10,-4],[64,-39],[69,0],[180,0],[70,0],[76,0],[183,0],[75,1],[44,0],[163,2],[1,29],[-1,150],[0,127]],[[5762,3587],[2,29],[-1,51],[1,18],[9,3],[102,1],[72,1],[202,1],[31,-1],[88,2],[111,0],[137,3],[266,7],[118,4],[22,-1]],[[6148,2492],[0,-141],[0,-268]],[[4798,3538],[0,-80],[33,11],[33,7],[60,1],[1,60],[66,-1]],[[4991,3536],[93,-1],[71,-3],[117,-5],[102,4],[7,2],[178,49],[24,3],[88,1],[91,1]],[[4855,3278],[-131,0],[1,75],[-3,27],[-19,12]],[[4703,3392],[0,21],[16,-1],[0,25],[31,3],[-31,47],[-15,26],[0,25],[94,0]],[[2,4942],[0,337],[0,143],[-1,103],[1,153],[0,129],[-1,13],[1,108],[-1,17],[1,192],[0,92],[-1,64],[0,30],[1,132],[-2,324],[1,419],[366,9],[33,1],[193,-2],[371,-7],[15,-2],[458,-2],[63,-1],[69,-1],[9,3]],[[4416,4908],[9,-113],[10,-101],[6,-51],[21,-122],[15,-93],[17,-97],[5,-31]],[[4499,4300],[23,-142],[11,-60],[14,-93]],[[4547,4005],[-35,-8],[-8,-25],[-23,-10],[-12,-3],[-25,-1],[-21,5],[-20,-1],[-12,4]],[[9261,2141],[-3,-21],[0,-60],[3,-69],[0,-44],[-3,-135],[1,-281]],[[9265,510],[3,-413],[-13,0],[-376,-27],[-5,-2],[-21,3],[-77,-2],[-68,-5],[-45,0],[-163,-5]],[[4991,3536],[1,122],[0,131]],[[4992,3789],[0,213],[1,44],[-1,81],[4,8],[-9,9],[-16,8],[-10,11],[-11,27],[-9,9],[-46,0],[-1,-19],[-11,-16],[-20,-14],[-12,-12],[-30,-43],[-38,-1],[-15,-7],[-1,47],[1,144],[1,23],[-117,1],[-35,-3],[-118,1]],[[4992,3789],[-88,0],[-10,-4],[0,-36],[-4,-9],[-41,-42],[-15,-11],[-83,2],[-48,-1]],[[4703,3688],[-104,0]],[[4599,3688],[-52,317]],[[4798,3538],[1,49],[-95,0],[-1,101]],[[4703,3392],[-41,20],[-38,25],[-9,0]]],"transform":{"scale":[0.00004910401381096218,0.000035567511711214654],"translate":[-86.695832,39.922629]},"objects":{"Geometry\\18-011":{"type":"GeometryCollection","geometries":[{"arcs":[[0,1,2,3,4,5,6]],"type":"Polygon","properties":{"GEOID":"180118106063"}},{"arcs":[[7,8,9,10]],"type":"Polygon","properties":{"GEOID":"180118104002"}},{"arcs":[[-10,11,12,13,14]],"type":"Polygon","properties":{"GEOID":"180118104003"}},{"arcs":[[15,-14,16,17]],"type":"Polygon","properties":{"GEOID":"180118104004"}},{"arcs":[[18,19,20,21]],"type":"Polygon","properties":{"GEOID":"180118106073"}},{"arcs":[[22,-6,-22,23,24]],"type":"Polygon","properties":{"GEOID":"180118106071"}},{"arcs":[[-21,25,26,-24]],"type":"Polygon","properties":{"GEOID":"180118106072"}},{"arcs":[[-5,27,28,29,-19]],"type":"Polygon","properties":{"GEOID":"180118106061"}},{"arcs":[[30,31,32,-2]],"type":"Polygon","properties":{"GEOID":"180118106062"}},{"arcs":[[33,34,35,36,-3,-33]],"type":"Polygon","properties":{"GEOID":"180118106043"}},{"arcs":[[37,38,-36,39,40,41]],"type":"Polygon","properties":{"GEOID":"180118106055"}},{"arcs":[[42,43,44]],"type":"Polygon","properties":{"GEOID":"180118106051"}},{"arcs":[[-43,45,-38,46]],"type":"Polygon","properties":{"GEOID":"180118106052"}},{"arcs":[[47,48,-40,-35]],"type":"Polygon","properties":{"GEOID":"180118106042"}},{"arcs":[[49,50,51,52,53]],"type":"Polygon","properties":{"GEOID":"180118101003"}},{"arcs":[[54,55,56,57]],"type":"Polygon","properties":{"GEOID":"180118102001"}},{"arcs":[[58,59,60]],"type":"Polygon","properties":{"GEOID":"180118107001"}},{"arcs":[[61,-54,62,63]],"type":"Polygon","properties":{"GEOID":"180118101002"}},{"arcs":[[64,-52,65,66,67]],"type":"Polygon","properties":{"GEOID":"180118106012"}},{"arcs":[[68,69,-25,-27,70,71]],"type":"Polygon","properties":{"GEOID":"180118107005"}},{"arcs":[[72,-11,-15,-16,73,74]],"type":"Polygon","properties":{"GEOID":"180118104001"}},{"arcs":[[-56,75,-64,76,77,78,79]],"type":"Polygon","properties":{"GEOID":"180118101001"}},{"arcs":[[80,-72,81,82]],"type":"Polygon","properties":{"GEOID":"180118107004"}},{"arcs":[[83,-57,-80,84,85,86,87]],"type":"Polygon","properties":{"GEOID":"180118102003"}},{"arcs":[[-87,88,-61,89]],"type":"Polygon","properties":{"GEOID":"180118107002"}},{"arcs":[[-86,90,-83,91,-59,-89]],"type":"Polygon","properties":{"GEOID":"180118107003"}},{"arcs":[[-51,92,93,-31,-1,-66]],"type":"Polygon","properties":{"GEOID":"180118106011"}},{"arcs":[[-79,94,-74,-18,95,96,97,-68,98,-69,-81,-91,-85]],"type":"Polygon","properties":{"GEOID":"180118103003"}},{"arcs":[[99,100,-97,101,102]],"type":"Polygon","properties":{"GEOID":"180118105001"}},{"arcs":[[-58,-84,103]],"type":"Polygon","properties":{"GEOID":"180118102002"}},{"arcs":[[-78,104,105,106,-75,-95]],"type":"Polygon","properties":{"GEOID":"180118103002"}},{"arcs":[[-94,107,-48,-34,-32]],"type":"Polygon","properties":{"GEOID":"180118106041"}},{"arcs":[[-99,-67,-7,-23,-70]],"type":"Polygon","properties":{"GEOID":"180118106013"}},{"arcs":[[-44,-47,-42,108,-29]],"type":"Polygon","properties":{"GEOID":"180118106054"}},{"arcs":[[-77,-63,-53,-65,-98,-101,109,110,-105]],"type":"Polygon","properties":{"GEOID":"180118103001"}},{"arcs":[[-111,111,112,113,-106]],"type":"Polygon","properties":{"GEOID":"180118105003"}},{"arcs":[[-107,-114,-8,-73]],"type":"Polygon","properties":{"GEOID":"180118104005"}},{"arcs":[[-112,-110,-100,114]],"type":"Polygon","properties":{"GEOID":"180118105004"}},{"arcs":[[-113,-115,-103,115,-12,-9]],"type":"Polygon","properties":{"GEOID":"180118105005"}},{"arcs":[[-13,-116,-102,-96,-17]],"type":"Polygon","properties":{"GEOID":"180118105002"}},{"arcs":[[-37,-39,-46,-45,-28,-4]],"type":"Polygon","properties":{"GEOID":"180118106053"}}]}}}