{"type":"Topology","arcs":[[[1327,6360],[67,65],[35,30],[66,-2],[244,-8],[160,-3]],[[1899,6442],[-5,-295],[-4,-360],[-1,-63],[-2,-186],[-2,-141]],[[1885,5397],[-64,3],[-241,8]],[[1580,5408],[-303,9],[-82,3],[-261,8],[-166,5],[-31,-2],[-24,-6],[-63,-29]],[[650,5396],[2,26],[2,106],[2,11],[25,27],[24,33],[14,37],[3,27],[3,118],[7,19],[89,94],[8,26],[138,-4],[1,119],[-1,90],[75,-3],[4,2],[0,67],[231,-8],[2,131],[5,7],[43,39]],[[1910,7299],[-1,-25]],[[1909,7274],[-2,-233]],[[1907,7041],[-153,3],[0,-45]],[[1754,6999],[-156,3],[-2,-154],[-3,-82],[8,-27]],[[1601,6739],[-11,-4],[-1,-152],[13,7],[164,-6]],[[1766,6584],[102,-4],[33,1]],[[1901,6581],[-2,-138]],[[1899,6443],[0,-1]],[[1327,6360],[-44,68],[-2,14],[0,121],[2,96],[-19,-4],[-17,78]],[[1247,6733],[-9,33],[-10,71],[-10,93],[-20,24],[-6,29],[1,71],[-39,97],[-5,15],[-24,33],[23,11],[15,20],[27,0],[14,14],[25,-30],[30,11],[12,11],[27,0],[53,15],[23,29],[56,-2],[24,-12],[16,-24],[28,-1],[28,9],[24,23],[18,2],[9,10],[37,2],[25,12],[32,-12],[48,-13],[41,8],[28,-4],[27,-23],[18,-3],[18,11],[25,1],[8,20],[26,15]],[[1756,6780],[14,4]],[[1770,6784],[135,36]],[[1905,6820],[-2,-103]],[[1903,6717],[-2,-136]],[[1766,6584],[2,162],[-12,34]],[[1910,7299],[3,340],[-1,127],[2,106],[0,121],[2,39],[-1,62],[4,188],[1,113]],[[1920,8395],[306,-5],[138,-1],[42,-2],[145,0],[59,-1],[164,-1],[146,-2],[328,-2],[64,-1],[72,1],[76,-3],[41,1],[48,-2],[68,0],[135,-1],[-3,-151],[-1,-125],[-3,-358],[-2,-211]],[[3743,7531],[-69,-1],[-83,1],[0,-5],[-142,4],[-110,0],[-170,0],[-45,1],[-6,-277],[-200,2],[-21,-1],[-88,2]],[[2809,7257],[-184,1],[-132,2],[-232,7],[-71,1]],[[2190,7268],[-281,6]],[[1899,6443],[91,0],[210,-4],[48,0],[111,-3],[87,-4],[49,-4]],[[2495,6428],[-6,-277],[298,2],[203,-2],[116,3],[113,-3],[200,1],[164,-6],[134,-8],[10,0]],[[3727,6138],[-2,-184]],[[3725,5954],[-187,-122],[-48,-25],[-42,-15],[-41,-9],[-615,-115],[-63,-16],[-71,-25],[-300,-109],[-41,-18],[-128,-67],[-30,-14],[-34,-12],[-76,-13],[-164,3]],[[1907,7041],[-1,-92]],[[1906,6949],[0,-28]],[[1906,6921],[-77,2],[-1,-19],[-70,1]],[[1758,6905],[1,94],[-5,0]],[[2495,6428],[1,60],[1,221]],[[2497,6709],[304,-4],[5,272],[-8,35],[-8,53],[17,8],[2,184]],[[3743,7531],[-2,-181],[-1,-52],[-1,-93],[-1,-53],[-4,-391],[-2,-67],[-1,-209],[-4,-347]],[[1903,6717],[186,-3]],[[2089,6714],[248,-2],[2,137],[33,0]],[[2372,6849],[123,-2],[-1,-111],[3,-27]],[[10,2585],[5,-2],[81,-3],[117,-6],[317,-12],[11,19],[3,20],[-10,37],[4,17],[20,7],[29,-13],[10,1],[10,19],[0,24],[-15,17],[14,16],[17,-4],[13,6],[12,19],[12,1],[57,-14],[31,1],[25,22],[16,4],[28,-7],[21,7],[17,20],[32,45],[20,10],[54,10],[17,20]],[[978,2866],[33,30],[60,43],[28,39],[13,3],[36,-16],[20,4],[20,22],[11,5],[62,13],[10,-3],[23,-20],[25,3],[10,8],[20,45],[18,14],[16,-7],[12,-19],[19,-17],[15,1],[57,47],[29,6],[16,-9],[19,-18],[17,-5],[32,4],[23,-6],[24,5],[45,30],[39,3],[42,-8],[42,8],[55,19],[67,-7],[22,6],[25,-5],[27,-16],[14,-19],[20,-4],[32,9],[18,25],[-1,22],[-19,34],[-3,26],[29,68],[5,20],[11,11],[27,9],[22,-2],[22,4],[20,9],[12,11],[18,31],[11,-3],[18,-19],[38,-11],[14,-14],[20,7],[17,20],[-4,16],[-26,24],[-4,22],[26,7],[18,-5],[27,-2],[8,-24],[21,-8],[23,12],[7,11],[164,-1],[42,50],[23,40],[31,31],[33,20],[33,5],[58,-7],[44,-10],[33,-12],[92,-23],[77,-8]],[[3081,3440],[2,-91]],[[3083,3349],[0,-62],[-7,-624],[-1,-12],[-3,-122],[-6,-400],[-3,-174]],[[3063,1955],[-154,2],[-173,4],[-147,1],[-139,0]],[[2450,1962],[4,278],[-97,-2],[-23,-5],[-12,6],[-76,1],[-378,6],[-16,-11],[-3,-260],[5,-7],[174,-2],[-8,-80],[-2,-54]],[[2018,1832],[-44,1],[-86,-1],[-199,4],[-150,4],[-307,6],[-134,3],[-242,7]],[[856,1856],[-358,13],[-137,5],[-346,13],[-8,2]],[[7,1889],[5,607],[-2,89]],[[2018,1832],[107,-1],[120,-2],[203,-6],[2,139]],[[3063,1955],[0,-135],[-1,-136],[9,-2],[0,-134],[5,-278],[-5,-150],[3,-108],[-3,-102],[-5,0],[4,-157],[1,-182],[-2,-149],[-2,-119],[-2,-120],[3,-52],[-3,-116],[3,-13],[-227,-2],[-51,2],[-34,5],[-174,0],[-171,1],[-266,3],[-303,9],[-226,8],[-695,19]],[[921,47],[3,193],[0,118],[1,311],[1,194],[-3,14],[269,-3],[207,-6],[6,2],[67,0],[-5,79],[3,63],[-5,18],[-12,14],[-33,26],[-9,17],[-4,31],[-33,53],[-9,39],[-8,10],[-76,40],[-24,18],[-53,56],[-38,33],[-94,96],[-54,62],[-62,49],[-56,50],[-12,20],[-7,22],[-5,60],[-12,46],[-7,60],[-1,24]],[[1906,6921],[-1,-101]],[[1770,6784],[-20,61],[7,13],[1,47]],[[1601,6739],[65,16],[90,25]],[[3081,3440],[34,-3],[41,1],[41,12],[59,22],[35,1],[32,13],[7,12],[-6,16],[8,33],[-3,25],[-17,27],[7,21],[26,15],[14,-10],[-15,-18],[10,-21],[25,13],[12,32],[-7,41],[15,35],[-5,31],[3,8],[32,30],[4,26],[-6,22],[2,21],[17,38],[-6,19],[11,15],[24,1],[16,-35],[-4,-18],[11,-13],[40,8],[11,10],[6,16],[-4,19],[15,41],[15,20],[26,25],[15,30],[7,27],[-1,74],[-5,30],[15,22],[2,16],[-8,26],[-21,33],[-23,-4],[-19,5],[-15,19],[-4,14],[7,21],[14,9],[52,1],[13,9],[14,42],[15,13],[30,12],[33,38],[26,13]],[[3754,4441],[30,9],[29,23],[11,32],[-11,16],[-18,2],[-14,13],[8,13],[53,26],[44,39],[28,12],[27,-2],[13,-8],[4,-28],[25,-8],[22,10],[12,14],[-3,27],[28,16],[-3,20],[-28,48],[-5,43],[19,67],[-2,10],[-17,18],[-3,13],[34,40],[33,14],[28,-2],[20,26],[-1,14],[-15,17],[-9,39],[-9,4],[-29,-9],[-26,-18],[-16,21],[24,21],[13,4],[14,35],[11,46],[-2,28],[-8,22],[1,20],[8,17],[-8,40],[-1,21],[13,46],[20,22],[24,12],[32,22],[12,18],[3,28],[24,19],[10,16],[3,28],[-11,28],[1,32],[10,18],[19,12],[29,8],[17,12],[12,25],[1,24],[-20,40],[-7,31],[-1,42],[13,43],[23,4],[18,-17],[17,-10],[24,-1],[7,17],[-1,25],[-12,51]],[[4345,5861],[611,-5],[-4,-174],[-2,-5],[-11,-154],[-3,-172],[-9,-340],[-11,1],[2,-554],[1,-487],[0,-75],[-4,-558],[-211,6],[-169,-3],[-33,-1],[-95,1],[-88,-1],[-293,1],[-390,1],[-553,7]],[[21,5330],[448,1],[60,12],[57,20],[64,33]],[[1580,5408],[-1,-104],[-2,-74],[-2,-170],[0,-93],[0,-203]],[[1575,4764],[-7,-255],[-153,-8],[-6,-264],[-3,-221],[2,-43],[-3,-36],[0,-279],[-1,-111],[44,9],[23,0],[33,-14],[14,-12],[20,-31],[-27,-48],[-6,-18],[-6,-56],[8,-33],[-17,-26],[-22,-13],[-12,-17],[-19,-13],[-18,-5],[-27,-18],[-8,-12],[-17,2],[-16,-8],[-26,-33],[-32,-22],[-55,-6],[-15,-9],[-24,-27],[-30,-10],[-32,5],[-69,-26],[-20,-13],[-16,-19],[-56,-91],[-2,-9],[1,-93],[3,-15]],[[10,2585],[1,127],[4,337],[-1,205],[1,360],[0,129],[3,512],[1,447],[1,112],[-2,24],[1,115],[1,360],[1,17]],[[1247,6733],[-215,6],[-198,4],[-164,4]],[[670,6747],[4,167],[0,52],[1,128],[3,194],[4,351],[1,144],[3,80],[0,192],[-2,7],[1,71],[0,77],[2,130],[1,81],[462,-10],[171,-3],[221,-5],[174,-3],[204,-5]],[[2190,7268],[-3,-277]],[[2187,6991],[-153,3],[0,-52],[-65,1],[0,5],[-63,1]],[[2187,6991],[-1,-93]],[[2186,6898],[-155,-43]],[[2031,6855],[-126,-35]],[[2372,6849],[10,47],[5,57],[-201,-55]],[[3725,5954],[-1,-90],[4,-4],[132,-1],[107,4],[378,-2]],[[3754,4441],[-36,39],[-19,36],[1,15],[-7,62],[11,9],[2,46],[26,41],[3,46],[-116,0],[-121,2],[-141,0],[-158,1],[-128,0],[-112,1],[-52,35],[-66,9],[-22,-2],[-32,-10],[-107,-1],[-35,1],[0,-28],[-160,2],[-246,5],[-150,2],[-210,3],[0,4],[-285,5],[-19,0]],[[21,5330],[1,57],[1,264],[2,36],[1,241],[-2,10],[1,133],[-1,220],[3,79],[-1,75],[2,43],[1,274],[239,-5],[402,-10]],[[921,47],[-155,4],[-76,4],[-690,18],[0,251],[1,20],[0,217],[2,170],[0,338],[2,202],[-3,57],[4,137],[-1,113],[2,311]],[[2031,6855],[-2,-60],[20,-38],[13,-19],[27,-7],[0,-17]]],"transform":{"scale":[0.000060686844229217304,0.000052152000950005846],"translate":[-87.240745,39.167965]},"objects":{"Geometry\\18-021":{"type":"GeometryCollection","geometries":[{"arcs":[[0,1,2,3,4]],"type":"Polygon","properties":{"GEOID":"180210404002"}},{"arcs":[[5,6,7,8,9,10,11,12,-1,13,14]],"type":"Polygon","properties":{"GEOID":"180210401001"}},{"arcs":[[15,16,17,18,-11,19]],"type":"Polygon","properties":{"GEOID":"180210401005"}},{"arcs":[[20,21,22,23,24,-6]],"type":"Polygon","properties":{"GEOID":"180210403001"}},{"arcs":[[-13,25,26,27,28,-2]],"type":"Polygon","properties":{"GEOID":"180210403003"}},{"arcs":[[29,30,31,32,-8]],"type":"Polygon","properties":{"GEOID":"180210401003"}},{"arcs":[[33,34,-23,35,-27]],"type":"Polygon","properties":{"GEOID":"180210403002"}},{"arcs":[[-19,36,37,38,-34,-26,-12]],"type":"Polygon","properties":{"GEOID":"180210402005"}},{"arcs":[[39,40,41,42,43,44,45,46,47]],"type":"Polygon","properties":{"GEOID":"180210406001"}},{"arcs":[[-46,48,-44,49,50]],"type":"Polygon","properties":{"GEOID":"180210406003"}},{"arcs":[[-32,51,-17,52]],"type":"Polygon","properties":{"GEOID":"180210401004"}},{"arcs":[[53,-20,-10]],"type":"Polygon","properties":{"GEOID":"180210401006"}},{"arcs":[[54,55,56,-42]],"type":"Polygon","properties":{"GEOID":"180210405004"}},{"arcs":[[57,-4,58,59,-40,60]],"type":"Polygon","properties":{"GEOID":"180210405002"}},{"arcs":[[-21,-15,61,62]],"type":"Polygon","properties":{"GEOID":"180210404001"}},{"arcs":[[-7,-25,63,64,-30]],"type":"Polygon","properties":{"GEOID":"180210402001"}},{"arcs":[[-31,-65,65,66,67,-52]],"type":"Polygon","properties":{"GEOID":"180210402006"}},{"arcs":[[-64,-24,-35,-39,68,-66]],"type":"Polygon","properties":{"GEOID":"180210402002"}},{"arcs":[[-3,-29,69,-56,70,-59]],"type":"Polygon","properties":{"GEOID":"180210405001"}},{"arcs":[[-71,-55,-41,-60]],"type":"Polygon","properties":{"GEOID":"180210405003"}},{"arcs":[[-49,-45]],"type":"Polygon","properties":{"GEOID":"180210406002"}},{"arcs":[[-33,-53,-16,-54,-9]],"type":"Polygon","properties":{"GEOID":"180210401002"}},{"arcs":[[-62,-14,-5,-58,71]],"type":"Polygon","properties":{"GEOID":"180210404003"}},{"arcs":[[-47,-51,72]],"type":"Polygon","properties":{"GEOID":"180210406004"}},{"arcs":[[-68,73,-37,-18]],"type":"Polygon","properties":{"GEOID":"180210402003"}},{"arcs":[[-67,-69,-38,-74]],"type":"Polygon","properties":{"GEOID":"180210402004"}}]}}}