{"type":"Topology","arcs":[[[4418,4586],[50,0],[7,11],[0,219],[0,107],[1,89],[1,114],[3,105]],[[4480,5231],[1,204],[2,7],[14,22],[4,20],[-6,27],[-12,24],[-1,68],[-1,64],[-1,17],[-21,24],[-14,5],[-119,1],[-10,7],[0,146],[1,7]],[[4317,5874],[162,0],[90,-1],[77,1],[176,-3],[125,0],[52,0],[140,-4],[174,0],[57,-1],[101,1]],[[5471,5867],[-2,-13],[-2,-107],[-5,-161],[-3,-81],[57,-2],[104,-2],[86,-1],[1,-25],[15,-19],[5,-18],[2,-40],[15,-25],[6,-47]],[[5750,5326],[-41,-34],[-7,-11],[-1,-9],[-6,-194],[-5,-152],[-89,-3],[-150,-3],[-14,0],[1,-148],[3,-179],[75,2]],[[5516,4595],[-102,-67],[-118,-78],[-12,-6],[-18,-6],[-16,-1],[-50,2],[-13,-2],[-29,-13],[-22,-12],[-7,-6],[-10,-18],[-1,-27],[1,-97],[4,-152]],[[5123,4112],[1,-89],[-58,-27],[-14,-4],[-22,-3],[-24,9],[-43,5],[-62,-1],[-147,0],[-16,2],[-61,12],[-35,4]],[[4642,4020],[-48,0],[-44,2],[-143,4],[-131,1],[-49,-3],[0,87],[3,14],[39,55],[15,7],[18,-1],[6,5],[2,97],[5,6],[47,5],[12,5],[3,7],[36,98],[5,24],[0,92],[0,61]],[[3434,3731],[102,-5],[38,-5],[23,-5],[36,-14],[25,-13]],[[3658,3689],[15,-10],[30,-23],[31,-33],[57,-66]],[[3791,3557],[-77,-45],[-41,-19],[-29,-11],[-46,-15],[-7,-1],[-111,-2]],[[3480,3464],[0,49],[-50,-1],[0,23],[-3,17],[2,14],[1,45],[-36,0]],[[3394,3611],[40,120]],[[2512,4244],[147,2],[166,3],[178,3],[146,2],[175,5],[4,1]],[[3328,4260],[0,-6]],[[3328,4254],[0,-200],[0,-100],[-1,-52],[1,-167]],[[3328,3735],[-164,7],[-66,1],[-94,0],[10,-12],[13,-9],[18,-22],[14,-20],[14,-24],[59,-115],[22,-32],[2,-19]],[[3156,3490],[-16,5]],[[3140,3495],[-49,13],[-360,68],[-43,12],[-41,15],[-26,12],[-28,16],[-3,178],[-2,105],[1,6]],[[2589,3920],[2,1],[109,2],[7,1],[-105,77],[-42,30],[-21,19],[-12,17],[-7,14],[-7,28],[-2,16],[1,119]],[[3355,3612],[2,-149]],[[3357,3463],[-98,-1]],[[3259,3462],[0,50],[-2,105],[70,-2],[28,-3]],[[3328,4254],[32,-28],[33,-19],[31,-16],[43,-15],[24,-1],[1,66],[-2,180],[261,0],[33,-1],[37,-4],[40,6],[281,4],[2,6],[1,155],[165,-2],[87,1]],[[4397,4586],[0,-19],[-18,-78],[-12,-48],[-5,-15],[-96,-110],[-27,-29],[-24,-33],[-9,-10],[-17,1],[-26,14],[-60,-3],[-4,-3],[-61,-64],[-23,-38],[-10,-12],[-23,-19],[-12,-13],[-10,-33],[-24,-45],[-4,-11],[-12,-24],[-15,-9],[-31,-26],[-208,-246],[-8,-24]],[[3434,3731],[-106,4]],[[4397,4586],[21,0]],[[4642,4020],[-33,-21],[-225,-148],[-85,-56],[0,-20],[2,-37],[0,-42],[-1,-50],[-2,-38],[0,-177],[2,-188],[2,-116],[-2,-12]],[[4300,3115],[-3,-8]],[[4297,3107],[-73,24],[-29,11],[-45,22],[-22,14],[-20,15],[-19,17],[-20,20],[-278,327]],[[3355,3612],[39,-1]],[[3480,3464],[-99,-1]],[[3381,3463],[-24,0]],[[3259,3462],[-32,2],[-21,6],[-50,20]],[[5750,5326],[15,8],[182,0],[120,-1],[16,-12],[101,-57],[9,-7],[7,-10],[19,-56],[12,-26],[35,-60]],[[6266,5105],[15,-30],[4,-20],[-42,-8],[-9,-4],[-53,-34],[-7,-2],[-48,2],[-26,-28],[-22,-17],[-343,-225],[-174,-114],[-45,-30]],[[1853,6551],[5,0],[133,0],[177,0],[50,-1],[67,0],[94,-1],[69,0],[116,-1],[-2,-73],[-2,-119],[-6,-196],[-1,-26],[2,-27],[-4,-149],[-2,-19],[0,-40],[61,-1],[6,3],[66,-2]],[[2682,5899],[1,-7],[-4,-151],[-2,-37],[-5,-3],[-139,-5],[-2,-81],[-74,0],[-48,1],[-94,4],[-111,3],[-1,-80],[-4,-2],[-76,-1]],[[2123,5540],[-36,0],[-6,6],[-9,151],[-5,5],[-38,-1],[-11,2],[-6,8],[-18,35],[-12,33],[-4,17],[-24,117],[-22,103],[-2,15],[-1,193],[3,101],[-7,56],[-32,48],[-29,59],[-13,47],[2,16]],[[3381,3463],[2,-86],[7,-31],[13,-34],[-5,-12]],[[3398,3300],[-11,-30],[-4,-30],[-8,0],[-4,-17],[-1,-20],[13,-28],[-23,-16],[-8,1],[-9,7],[-8,16]],[[3335,3183],[-13,17],[-22,19],[-23,18],[-14,19],[-9,39],[-6,13],[-10,38],[2,13],[-12,26],[-6,9],[-19,15],[-8,11],[-11,27],[-11,16],[-6,13],[-25,11],[-2,8]],[[2158,1906],[79,-12],[61,-6],[20,0],[101,10],[62,7],[104,10],[18,1],[20,-3],[49,-13],[85,-22],[57,-3],[225,-4]],[[3039,1871],[146,-2],[178,-1]],[[3363,1868],[-1,-214],[-2,-196],[-2,-148],[-2,-312],[-1,-220],[0,-204],[-1,-212],[1,-207],[-1,-15],[2,-89]],[[3356,51],[-353,-6],[-333,-7],[-326,-6],[-294,-6]],[[2050,26],[-4,220],[-4,222],[-2,223],[0,17],[-4,220],[1,34],[-4,64],[-4,324],[0,67],[-1,265]],[[2028,1682],[0,246],[68,-14],[62,-8]],[[2682,5899],[90,-2],[262,-9],[189,-3],[113,-1]],[[3336,5884],[-2,-22],[-2,-73],[-7,-205],[0,-33],[-164,-4],[1,-30],[-2,-92],[-1,-202],[0,-162],[-2,-164],[1,-134],[4,-290],[1,-82],[23,-20],[71,-56],[71,-55]],[[2512,4244],[0,68],[0,28],[-8,32],[-9,19],[-30,47],[-14,18],[-22,18],[-18,9],[-49,14],[-25,9],[-89,41],[-49,23],[-10,0]],[[2189,4570],[0,141],[0,183],[-168,-3],[-156,-2],[1,78],[2,176],[2,69],[109,0],[137,2],[3,126],[4,200]],[[4297,3107],[-5,-12],[-16,-9],[-147,-4],[-26,1],[-14,-3]],[[4089,3080],[-691,220]],[[999,2112],[12,-3],[38,-23],[47,-24],[17,-18],[8,-15],[15,-19],[24,-8],[23,11],[14,2],[16,-12],[21,-4],[21,-11],[7,6],[7,-1],[1,-12],[17,-13],[14,-5],[7,-7],[20,-6],[15,-12],[9,-19],[9,-8],[0,-12],[15,-20],[1,-131],[-1,-105]],[[1376,1643],[-264,-3],[-3,0]],[[1109,1640],[-67,118],[-19,30],[-21,22],[-1,6],[0,129],[-1,131],[-1,36]],[[591,4737],[71,-23],[66,-20],[64,-21],[15,-3],[45,0],[59,-2],[52,-3],[87,-2],[-2,-79],[215,-4],[110,-2],[48,-3],[114,-7],[0,-81],[143,-1],[69,-1],[102,-1],[86,1],[253,3],[1,82]],[[2589,3920],[-75,2],[-217,0],[-74,1],[-120,-1],[-84,2],[1,-31],[1,-129],[3,-207],[1,-153]],[[2025,3404],[-192,5],[-145,4],[-98,1],[-109,1],[-98,1],[0,161],[-100,0],[-62,-1],[-139,0],[-155,0],[-191,-1],[-203,-3],[-144,-2],[-133,-4],[-143,-6],[-110,-3]],[[3,3557],[-2,190],[-1,192],[45,0],[4,1],[148,3],[56,1],[169,-1],[156,-1],[5,307],[8,445],[0,43]],[[6266,5105],[28,15],[25,16],[108,66],[7,6]],[[6434,5208],[-2,-31],[-3,-134],[0,-162],[2,-82],[1,-243],[0,-93],[-3,-304],[0,-208],[-486,4],[1,-141]],[[5944,3814],[-83,-1],[-1,14],[-11,8],[-34,17],[-9,7],[-27,33],[-29,39],[-6,9],[-7,21],[-13,21],[-19,40],[-29,97],[-383,-4],[-30,-1],[-140,-2]],[[377,1651],[1,-14],[-4,-26],[18,-5],[37,-15],[23,-5],[23,3],[36,-2],[32,3],[45,-9],[34,-5],[17,-1],[266,1],[30,1],[31,5],[143,58]],[[1376,1643],[217,5],[97,3],[28,1],[152,13],[120,9],[25,4],[13,4]],[[2050,26],[-335,-4],[-332,-5],[-486,-6],[-120,-1],[-48,-1],[-123,-1],[-285,-4],[-94,-2],[-169,-2],[-3,157],[-1,4],[-3,165],[-4,263],[-4,237],[-3,207],[-1,141],[-4,122],[-4,121],[-6,230]],[[25,1647],[96,-3],[39,0],[114,3],[103,4]],[[591,4737],[4,132],[0,175],[5,175],[2,152],[1,130],[0,134],[1,252],[-3,165],[-5,179],[-2,146],[-3,161],[149,3],[310,6],[331,1],[60,0],[107,1],[103,1],[30,1],[48,-1],[104,1],[20,0]],[[4089,3080],[-113,-2],[-38,0],[-6,-3],[-13,-29],[2,-12],[42,-136],[30,-94],[11,-18],[37,-30],[62,-52],[7,-8],[91,-124],[39,-55],[8,-13],[5,-17],[23,-277],[5,-15],[25,-55],[5,-18],[-1,-106],[-1,-68]],[[4309,1948],[-104,0],[-198,0],[-126,1],[-166,0],[-12,3],[-15,8],[-20,-10],[-264,1],[-40,0],[-1,-83]],[[3039,1871],[0,43],[-3,15],[-18,41],[-3,11],[2,140],[-1,105],[0,11],[56,32],[2,30],[5,56],[1,10],[8,15],[37,43],[41,47],[36,39],[10,16],[11,49],[10,61],[6,108],[5,15],[35,56],[0,16],[-17,39],[-2,27],[-14,40],[6,63],[4,15],[7,10],[58,56],[9,9],[4,12],[1,13],[0,69]],[[4300,3115],[69,-23],[21,-5],[13,-2],[231,-3],[168,2],[62,1],[26,-2],[23,-4],[70,-24],[72,-28],[61,-19],[72,-24],[108,-39],[49,-14],[29,-2],[81,1],[177,6],[320,6]],[[5952,2942],[1,-81],[1,-53],[1,-113],[0,-67],[2,-32],[1,-142],[2,-198],[2,-102],[0,-60],[2,-134]],[[5964,1960],[-201,-2],[-146,-1],[-193,-2],[-123,-1],[-188,-3],[-345,-1],[-106,-1]],[[4662,1949],[-27,-1],[-281,1],[-45,-1]],[[4662,1949],[3,-241],[0,-111],[1,-229],[1,-130],[0,-209],[1,-109],[-1,-213],[-1,-137],[0,-169],[-1,-179],[0,-148]],[[4665,74],[-175,1],[-165,-1],[-163,0],[-162,0],[-168,-8],[-168,-9],[-165,-3],[-143,-3]],[[2025,3404],[31,0],[29,-7],[36,-12],[60,-9],[5,-1],[3,-290],[2,-151],[0,-170],[0,-84],[0,-109],[-1,-206],[0,-95],[-2,-207],[-1,-74],[-1,-25],[-3,-17],[-23,-36],[-2,-5]],[[999,2112],[1,60],[1,42],[-4,16],[-32,53],[-19,-1],[-39,1],[-77,-2],[-117,-1],[1,-126],[2,-199],[-341,-3],[0,-7],[0,-101],[2,-193]],[[25,1647],[-4,150],[0,12],[-5,282],[-2,38],[-1,139],[-4,322],[0,153],[-2,331],[-4,483]],[[3336,5884],[89,-2],[89,-1],[150,-3],[13,1],[43,-1],[108,-1]],[[3828,5877],[-7,-23],[-4,-26],[-1,-23],[4,-455],[3,-120],[44,0],[85,3],[52,1],[144,2],[125,-2],[169,-3],[38,0]],[[5964,1960],[2,-181],[1,-89],[4,-304],[2,-125],[2,-208],[2,-98],[3,-287],[3,-150],[2,-231],[2,-110],[1,-102],[-350,-3],[-330,2],[-326,-1],[-165,1],[-152,0]],[[3828,5877],[322,-3],[167,0]],[[5471,5867],[7,0],[137,-2],[34,-1],[98,-2],[51,0],[36,-1],[51,0],[215,-3],[109,-1],[254,-3],[-25,-293],[-1,-5],[-3,-189],[-1,-125],[1,-34]],[[5944,3814],[2,-244],[1,-151],[2,-92],[0,-48],[2,-211],[1,-126]]],"transform":{"scale":[0.00005860946928670702,0.00004479682491222717],"translate":[-85.686574,41.001909]},"objects":{"Geometry\\18-183":{"type":"GeometryCollection","geometries":[{"arcs":[[0,1,2,3,4,5,6,7]],"type":"Polygon","properties":{"GEOID":"181830501004"}},{"arcs":[[8,9,10,11,12]],"type":"Polygon","properties":{"GEOID":"181830504011"}},{"arcs":[[13,14,15,16,17,18,19]],"type":"Polygon","properties":{"GEOID":"181830504022"}},{"arcs":[[20,21,22]],"type":"Polygon","properties":{"GEOID":"181830504013"}},{"arcs":[[23,24,-9,25,-16]],"type":"Polygon","properties":{"GEOID":"181830504023"}},{"arcs":[[26,-8,27,28,29,-10,-25]],"type":"Polygon","properties":{"GEOID":"181830504021"}},{"arcs":[[30,-12,31,32,-21]],"type":"Polygon","properties":{"GEOID":"181830504014"}},{"arcs":[[-26,-13,-31,-23,33,-17]],"type":"Polygon","properties":{"GEOID":"181830504012"}},{"arcs":[[34,35,-5]],"type":"Polygon","properties":{"GEOID":"181830501003"}},{"arcs":[[36,37,38]],"type":"Polygon","properties":{"GEOID":"181830502001"}},{"arcs":[[-18,-34,-22,-33,39,40,41]],"type":"Polygon","properties":{"GEOID":"181830505002"}},{"arcs":[[42,43,44,45,46,47]],"type":"Polygon","properties":{"GEOID":"181830507003"}},{"arcs":[[-38,48,49,-14,50,51]],"type":"Polygon","properties":{"GEOID":"181830502003"}},{"arcs":[[-32,-11,-30,52,53,-40]],"type":"Polygon","properties":{"GEOID":"181830505001"}},{"arcs":[[54,55,56]],"type":"Polygon","properties":{"GEOID":"181830503004"}},{"arcs":[[57,-51,-20,58,59,60]],"type":"Polygon","properties":{"GEOID":"181830503001"}},{"arcs":[[-36,61,62,63,-6]],"type":"Polygon","properties":{"GEOID":"181830501002"}},{"arcs":[[64,-56,65,-47,66,67]],"type":"Polygon","properties":{"GEOID":"181830503005"}},{"arcs":[[-39,-52,-58,68]],"type":"Polygon","properties":{"GEOID":"181830502002"}},{"arcs":[[-41,-54,69,70,-44,71]],"type":"Polygon","properties":{"GEOID":"181830505004"}},{"arcs":[[-53,-29,72,73,74,75,-70]],"type":"Polygon","properties":{"GEOID":"181830506002"}},{"arcs":[[-71,-76,76,77,-45]],"type":"Polygon","properties":{"GEOID":"181830507002"}},{"arcs":[[-60,78,-48,-66,-55,79,-68,80]],"type":"Polygon","properties":{"GEOID":"181830503002"}},{"arcs":[[81,82,-1,-27,-24,-15,-50]],"type":"Polygon","properties":{"GEOID":"181830502004"}},{"arcs":[[-75,83,-77]],"type":"Polygon","properties":{"GEOID":"181830507001"}},{"arcs":[[-80,-57,-65]],"type":"Polygon","properties":{"GEOID":"181830503003"}},{"arcs":[[84,-2,-83]],"type":"Polygon","properties":{"GEOID":"181830502005"}},{"arcs":[[85,-62,-35,-4]],"type":"Polygon","properties":{"GEOID":"181830501001"}},{"arcs":[[-7,-64,86,-73,-28]],"type":"Polygon","properties":{"GEOID":"181830506001"}},{"arcs":[[-19,-42,-72,-43,-79,-59]],"type":"Polygon","properties":{"GEOID":"181830505003"}}]}}}