{"type":"Topology","arcs":[[[12,3323],[66,-98],[32,-41],[4,-15],[56,-56],[2,-26],[19,-17],[54,-12],[42,43],[30,25],[38,22],[36,0],[26,27],[20,11],[23,0],[64,-49],[28,-33],[62,-11],[-3,-26],[-21,-45],[1,-20],[22,-66],[10,-19],[1,-62],[9,-38],[-4,-27],[12,-17],[2,-47],[33,6],[20,-24],[53,2],[23,10],[71,9],[69,35],[21,2],[35,16],[218,0],[30,-2]],[[1216,2780],[11,-4],[-7,-71],[-12,-60],[-13,-42],[-41,-74],[-7,-20],[2,-41],[34,-122],[18,-37],[57,-72],[29,-45],[26,-47],[98,-213],[12,-32],[7,-54],[-2,-42],[-10,-47],[-17,-32],[-25,-35],[-18,-41],[-4,-27],[4,-222],[-3,-84],[2,-56],[7,-94],[-5,-39],[-31,-51],[-13,-48],[-35,-345],[-1,-33],[4,-77],[26,-82],[-2,-28],[-42,-83],[-14,-61],[-21,-34],[-62,-49],[-22,-27],[-10,-49],[14,-132]],[[1150,28],[-11,1],[-160,-7],[-291,-3],[-587,-3],[-73,-2],[-3,451],[-4,650],[-1,302],[-5,683],[-1,60],[0,240],[-1,297],[0,248],[-1,378]],[[1216,2780],[1,48],[-5,28],[-23,46],[-9,27],[6,36],[-4,40]],[[1182,3005],[166,1],[0,23],[76,12],[154,40],[86,1],[3,-30],[28,-25],[23,-49],[132,4],[48,30],[137,1],[11,35],[-30,29],[-50,24],[5,54],[-17,21],[4,20],[-13,43],[10,19]],[[1955,3258],[87,60],[48,50],[25,19],[85,1],[36,-6],[28,-19],[6,-21],[52,-67],[33,-18]],[[2355,3257],[0,-45],[-18,-83],[-31,-55],[-6,-21],[-22,-29],[-46,-48],[21,-24],[-9,-19],[6,-42],[-16,-23],[26,-48],[-7,-70],[-10,-28],[-33,-32],[-14,-26],[10,-76],[5,-149],[0,-122],[-5,-9],[-73,-81],[-42,-30],[-113,0],[-28,-10],[-57,1],[-15,-36],[-39,-115],[-52,-25],[-10,-10],[9,-31],[109,-61],[6,-7],[11,-54],[-1,-53],[-35,-35],[-48,-31],[-26,-31],[-38,-13],[-19,-33],[1,-52],[-5,-12],[38,-40],[35,-29],[36,-4],[54,18],[79,-3],[32,-18],[24,-24],[43,-34],[34,-38],[48,-9],[40,15],[54,-1],[-6,-30],[2,-38],[-26,-54],[-35,-41],[8,-41],[16,-31],[21,-62],[26,-25],[58,-42],[33,-77],[12,-47],[-3,-50],[8,-30],[16,-31],[0,-51],[-12,-58],[2,-29],[10,-15],[37,-19],[26,-37],[12,-98],[3,-71],[23,-56],[39,-34],[12,-23],[-6,-35],[24,-24],[46,-23],[37,-36],[32,-18],[25,-29],[54,-36],[51,-84]],[[2803,47],[-494,-3],[-107,-2],[-188,0],[-206,-2],[-215,-5],[-166,-2],[-277,-5]],[[3128,5995],[628,10],[1,-22],[75,-1]],[[3832,5982],[20,-55],[2,-81],[20,-107],[5,-183]],[[3879,5556],[-69,1],[0,-147],[137,0],[0,-22]],[[3947,5388],[-1,-183],[-6,-28],[22,1],[36,-60],[10,-43],[14,-23],[6,-31],[25,-48],[11,-38],[18,-89],[21,-53]],[[4103,4793],[-323,-6],[1,-27],[-83,6],[-63,18],[-48,22],[-172,1],[-285,4]],[[3130,4811],[-1,142],[5,10],[45,32],[4,57],[25,53],[-7,43],[-71,-11],[4,248],[-7,593],[1,17]],[[1124,3268],[42,65],[48,0],[17,-15],[49,-17],[59,-6],[58,-17],[50,8],[53,-20],[46,5],[22,14],[99,10],[57,-14],[65,-12],[166,-11]],[[1182,3005],[-27,0],[8,39],[-1,47],[-9,22],[-34,1]],[[1119,3114],[-1,41],[-61,-1],[4,35],[24,21],[39,58]],[[3488,3305],[38,0],[0,41],[89,0]],[[3615,3346],[22,0],[0,-64],[-22,0],[0,-45]],[[3615,3237],[-18,-44],[0,-62]],[[3597,3131],[-17,19],[-12,43],[-81,0],[1,112]],[[3615,3346],[4,52],[56,107]],[[3675,3505],[37,7],[-18,-48],[0,-41],[-13,-24],[0,-53],[47,5],[42,-3],[28,6],[113,49],[36,-1]],[[3947,3402],[33,-38]],[[3980,3364],[22,-38],[-36,-77],[-14,-38],[-12,-79]],[[3940,3132],[-201,108],[-102,0],[-22,-3]],[[3940,3132],[52,-29],[43,-19],[-9,-74],[2,-8],[62,-112],[3,-12],[2,-129],[10,-56],[5,-102],[-93,0],[-106,-27]],[[3911,2564],[-79,-27],[-50,4],[-129,65],[-82,88],[-45,11],[-30,21],[-31,45],[-31,22],[5,23],[37,48],[43,32],[18,37],[-1,23],[14,35],[21,31],[27,95],[-1,14]],[[1551,5974],[6,-1],[722,8],[805,10],[44,4]],[[3130,4811],[6,-312],[0,-204],[-2,-10],[-235,-4],[-68,4],[-1,-99],[2,-114],[-5,-36],[2,-120],[-68,-1],[-9,-5],[-3,-36],[-70,-44],[-42,-17],[-72,-18],[-16,-10],[-59,-22],[-16,-1],[-56,-98],[-36,-33],[24,-25],[50,-10],[53,12],[21,-4],[56,-45],[-4,-37],[29,-58],[16,-24],[9,-29],[24,-28],[12,-41],[-10,-38],[-1,-40]],[[2661,3264],[-43,6],[-33,33],[-55,-15],[-33,-16],[-31,-5],[-27,19],[-29,5],[-55,-34]],[[1955,3258],[17,32],[-37,39],[-37,17],[-14,27],[-23,27],[-8,36],[-37,11],[-44,31],[6,29],[-4,21],[-38,47],[-24,-14],[-37,17],[-16,24]],[[1659,3602],[109,2],[65,-12],[119,3],[-29,186],[-64,121],[-28,58],[-81,183],[-91,201],[-9,158],[-3,125],[46,17],[35,8],[1,131],[-1,123],[40,56],[6,133],[-25,72],[-13,49],[-19,39],[-15,74],[-26,62],[0,48],[-43,4],[-22,10],[-32,34],[-18,44],[-40,21],[-44,-1],[-14,32],[5,46],[9,17],[3,32],[-4,139],[40,10],[17,90],[18,57]],[[1031,3354],[55,-31],[24,-22],[14,-33]],[[1119,3114],[29,-16],[-9,-18],[-35,-29],[-42,-9],[-9,6],[-31,-15],[-9,22],[-40,3],[-9,38],[-11,8],[-39,-1],[-47,-24],[-64,0],[-23,-39],[-12,17],[-7,57],[-12,39],[-24,1],[-2,35],[22,3],[53,32],[5,41],[51,2],[38,28],[44,22],[25,5],[70,32]],[[3488,3305],[-91,-1],[-26,6],[-50,31]],[[3321,3341],[-78,47],[20,22],[85,39],[66,17],[29,21],[22,40],[95,2],[0,29],[62,1],[67,-10],[-14,-44]],[[11,3513],[59,0],[16,7],[-7,25],[26,77],[67,56],[48,18],[8,24],[60,40],[48,-3],[79,11],[22,13],[26,3],[54,29],[23,-4],[21,10],[47,56],[33,19],[45,52],[32,19],[65,0],[40,-54],[-26,-12],[5,-20],[41,-20],[23,-39],[14,-74],[26,-33],[26,-1],[-23,71],[16,14],[66,4],[76,-11],[12,-9],[13,-67],[2,-27],[79,-44]],[[1173,3643],[-14,-34],[0,-94],[-13,-48],[-20,-34],[-29,-29],[-66,-50]],[[12,3323],[-1,190]],[[3879,5556],[90,0],[15,-21],[0,-81],[-14,0],[-1,-66],[-22,0]],[[4103,4793],[4,-21],[6,-243],[13,-43],[6,-44],[18,-39],[37,-52],[44,-23],[35,-40],[3,-12],[2,-166],[-8,-96],[9,-66],[1,-36],[33,1],[-11,-116],[-23,-47],[0,-49],[-32,-46],[-40,-42],[-70,-1],[-23,-29],[-24,-13],[-37,-10],[-47,-52],[-52,-106]],[[3321,3341],[-14,-13],[-136,-3],[-3,-53],[-60,-31],[-77,5],[-29,13],[-62,-14],[-123,40],[-61,-4],[-35,-18],[-60,1]],[[4114,2007],[47,-60],[32,-14],[14,4],[26,37],[14,5],[45,-16],[44,-52],[23,-62],[6,-41],[12,-27],[20,-18],[14,-36],[19,-23],[33,-26],[70,-38],[39,-6],[19,-12],[15,-94],[0,-42],[-21,-69],[-24,-29],[-43,-34],[-4,-22],[41,-79],[41,-34],[40,-21],[27,-26],[128,-2],[9,30],[24,43],[25,66],[3,41],[-8,59],[12,49],[35,36],[35,44],[158,15],[42,-2],[247,0],[32,9],[100,4],[59,7],[51,-39],[17,-4],[49,9],[55,62],[56,40],[19,33],[129,28],[76,3],[46,26],[15,47],[155,1],[73,-56]],[[6305,1721],[-1,-166],[7,1],[0,-122],[-2,-98],[-4,-749],[-3,-587],[-254,7],[-101,0],[-155,-2],[-69,7],[-30,-2],[-345,1],[-96,7],[-63,-3],[-129,16],[-166,0],[-258,6],[-325,4],[-414,8]],[[3897,49],[23,20],[26,-2],[17,20],[1,51],[-13,49],[-9,52],[-32,103],[-5,43],[20,85],[-8,19],[-69,79],[-7,83],[-28,44],[-3,21],[19,76],[-1,126],[-30,53],[-7,54],[11,50],[3,68],[33,46],[32,61],[50,58],[20,57],[1,72],[-15,226],[7,34],[61,137],[13,16],[59,36],[34,32],[9,17],[8,51],[-3,21]],[[1173,3643],[23,22],[38,6],[173,4],[65,-22],[93,-12],[64,-37],[30,-2]],[[3832,5982],[277,-2],[538,4],[401,4],[84,4],[272,5],[265,3],[18,2],[304,-3],[63,-2],[251,-3],[13,-278],[0,-100],[-6,-209],[2,-116],[7,-187],[-3,-394],[1,-53]],[[6319,4657],[-75,0],[-64,19],[-44,3],[-100,-21],[-37,-2],[-64,-20],[-43,3],[-48,16],[1,-42],[-18,7],[-58,58],[-73,46],[-50,8],[-50,14],[-41,19],[-20,18],[-45,18],[-29,-6],[-43,-39],[-21,-10],[-45,26],[-31,6],[-26,32],[-466,0],[-100,0],[-295,-7],[-20,11],[-23,-13],[-288,-8]],[[3911,2564],[90,-121],[6,-20],[5,-78],[40,-37],[42,-23],[15,-19],[-1,-51],[-26,-75],[-18,-29],[-1,-18],[16,-35],[35,-51]],[[3897,49],[-93,-1],[-504,0],[-216,3],[-281,-4]],[[3980,3364],[36,-25],[26,-7],[165,-12],[32,7],[81,30],[34,7],[33,-2],[149,-34],[33,-4],[170,3],[302,3],[518,0],[121,1],[633,-5]],[[6313,3326],[4,0],[0,-148],[-1,-396],[-1,-163],[3,-29],[-6,-299],[-7,-570]],[[6319,4657],[-1,-593],[-5,-580],[0,-158]],[[11,3513],[-1,539],[-2,596],[-3,60],[-1,369],[-3,4],[0,458],[-1,423],[979,11],[15,-5],[379,6],[178,0]]],"transform":{"scale":[0.00005938190159784908,0.00004905678601165618],"translate":[-86.683102,38.394069]},"objects":{"Geometry\\18-117":{"type":"GeometryCollection","geometries":[{"arcs":[[0,1,2]],"type":"Polygon","properties":{"GEOID":"181179516003"}},{"arcs":[[3,4,5,6,7,-2]],"type":"Polygon","properties":{"GEOID":"181179516002"}},{"arcs":[[8,9,10,11,12,13]],"type":"Polygon","properties":{"GEOID":"181179513001"}},{"arcs":[[14,-5,15,16]],"type":"Polygon","properties":{"GEOID":"181179515003"}},{"arcs":[[17,18,19,20]],"type":"Polygon","properties":{"GEOID":"181179517002"}},{"arcs":[[21,22,23,24,25,-19]],"type":"Polygon","properties":{"GEOID":"181179517003"}},{"arcs":[[-20,-26,26,27]],"type":"Polygon","properties":{"GEOID":"181179517004"}},{"arcs":[[28,-14,29,30,-6,31,32]],"type":"Polygon","properties":{"GEOID":"181179514002"}},{"arcs":[[33,-17,34]],"type":"Polygon","properties":{"GEOID":"181179515004"}},{"arcs":[[-22,-18,35,36]],"type":"Polygon","properties":{"GEOID":"181179517001"}},{"arcs":[[37,38,-35,-16,-4,-1,39]],"type":"Polygon","properties":{"GEOID":"181179515001"}},{"arcs":[[40,-11]],"type":"Polygon","properties":{"GEOID":"181179513002"}},{"arcs":[[-13,41,-23,-37,42,-30]],"type":"Polygon","properties":{"GEOID":"181179514001"}},{"arcs":[[43,44,45]],"type":"Polygon","properties":{"GEOID":"181179518003"}},{"arcs":[[46,-32,-15,-34,-39]],"type":"Polygon","properties":{"GEOID":"181179515002"}},{"arcs":[[47,48,-12,-41,-10]],"type":"Polygon","properties":{"GEOID":"181179513003"}},{"arcs":[[-31,-43,-36,-21,-28,49,-46,50,-7]],"type":"Polygon","properties":{"GEOID":"181179516001"}},{"arcs":[[-27,-25,51,52,-44,-50]],"type":"Polygon","properties":{"GEOID":"181179518002"}},{"arcs":[[-42,-49,53,-52,-24]],"type":"Polygon","properties":{"GEOID":"181179518001"}},{"arcs":[[-33,-47,-38,54]],"type":"Polygon","properties":{"GEOID":"181179514003"}}]}}}