{"type":"Topology","arcs":[[[1604,3464],[778,0],[64,1],[94,-1],[48,1],[136,-2],[134,1],[95,-2],[189,1],[73,0],[63,0],[0,-89],[-1,-119],[1,-21],[-1,-207],[-2,-179],[-1,-177],[1,-149],[-1,-77],[1,-105],[-2,-331],[-1,-186],[0,-82]],[[3272,1741],[-115,4],[-41,0],[-119,4],[-10,2],[-69,29],[-67,36],[-24,7],[-25,5],[-79,11],[-138,12],[-73,3],[-58,1],[-32,8],[-45,17],[-106,1],[-162,3],[-67,-1]],[[2042,1883],[-52,1],[-108,0]],[[1882,1884],[0,107],[-3,190],[-132,0],[-7,-4],[1,-42],[-7,-10],[-127,0],[1,27],[-1,48],[1,74],[1,93]],[[1609,2367],[0,149],[-1,80],[-2,205],[1,205],[-2,134],[-1,131],[0,193]],[[1609,2367],[-35,-3],[-39,0],[-84,0],[-121,1],[2,-137],[0,-122],[11,-24],[-90,42],[-5,-88],[2,-7],[14,-3],[-6,-29]],[[1258,1997],[-9,-48],[-3,-22],[15,-11],[3,-11],[9,-12],[2,-11],[-17,-13],[-19,-5],[-24,-10]],[[1215,1854],[-27,22],[-6,1],[-187,1],[0,36],[11,52],[5,33],[-122,0],[-38,4],[-38,9],[-23,2],[-28,-1],[-55,-5],[-26,-13],[-64,-51],[-44,-38],[-37,-29],[-25,-13],[-19,-5],[-42,-8],[-123,-1],[-92,2],[-25,3],[-24,9],[-94,41],[-30,8],[-44,2]],[[18,1915],[0,96],[1,149],[2,267],[4,396],[1,112],[-2,73],[1,130],[1,173],[2,197],[278,-2],[230,-4],[339,0],[118,1],[-6,-37],[35,-1],[66,1],[516,-2]],[[1215,1854],[-1,-5],[-24,-27],[0,-33],[-9,-4],[16,-14],[22,-29],[3,-21],[35,-47],[16,-20],[18,-13],[0,-18],[21,-20],[17,-8],[-1,-35],[66,-13],[17,-8]],[[1411,1539],[-25,-31],[56,-2],[13,-6],[26,-31],[70,-68],[20,-8],[49,-11],[27,-1],[26,2],[27,-14],[26,-5],[42,9],[39,-10],[76,1],[-1,-106],[-2,-123],[-5,-254],[-4,-34],[1,-59],[2,-19],[-4,-131],[-2,-75],[-4,-163],[-4,-122],[1,-123],[0,-119]],[[1861,36],[-277,6],[-142,-2],[-52,-1],[-168,0],[-270,-2],[-278,-1],[-139,2],[-336,3],[5,29],[-201,2],[-3,242],[4,122],[-1,166],[-1,25],[2,298],[1,235],[0,111],[2,82],[0,71],[-1,125],[8,0],[5,244],[-1,122]],[[1411,1539],[22,27],[28,46],[6,17],[3,58],[44,75],[40,80],[2,10],[20,-17],[36,-12],[125,-16],[62,-9],[30,-9],[56,-23],[15,-8],[28,-20],[6,17],[26,30],[16,3],[27,19],[11,16],[2,9],[25,43],[1,8]],[[3272,1741],[0,-66],[-1,-122],[-1,-96],[-1,-209]],[[3269,1248],[-265,4],[-288,4],[-1,-165],[-2,-131],[-1,-117],[-2,-86],[0,-102],[-1,-141],[56,-2],[92,0],[42,-1],[117,-1],[103,-1],[6,-19],[70,-4],[31,-15],[25,-14],[15,-5]],[[3266,452],[-3,-452],[-118,3],[-10,2],[-366,16],[-53,1],[-234,3],[-100,1],[-104,1],[-138,3],[-279,6]],[[1258,1997],[37,-4],[31,-12],[83,-50],[14,-6],[25,-4],[64,0],[60,-1],[115,1],[1,-35],[133,-2],[61,0]],[[3269,1248],[-1,-244],[1,-29],[-2,-57],[0,-95],[-1,-35],[4,-16],[-2,-29],[0,-56],[-2,-34],[0,-201]]],"transform":{"scale":[0.00006771598535692232,0.00005909720638540659],"translate":[-85.036317,39.52195]},"objects":{"Geometry\\18-161":{"type":"GeometryCollection","geometries":[{"arcs":[[0,1,2,3,4]],"type":"Polygon","properties":{"GEOID":"181619607001"}},{"arcs":[[-5,5,6,7,8]],"type":"Polygon","properties":{"GEOID":"181619607002"}},{"arcs":[[-8,9,10,11]],"type":"Polygon","properties":{"GEOID":"181619608003"}},{"arcs":[[12,-2,13,14,15,-11]],"type":"Polygon","properties":{"GEOID":"181619608002"}},{"arcs":[[-7,16,-3,-13,-10]],"type":"Polygon","properties":{"GEOID":"181619607004"}},{"arcs":[[17,-15]],"type":"Polygon","properties":{"GEOID":"181619608001"}},{"arcs":[[-4,-17,-6]],"type":"Polygon","properties":{"GEOID":"181619607003"}}]}}}