{"type":"Topology","arcs":[[[3690,4501],[14,-4],[58,2],[76,27],[73,49],[62,89],[22,-1],[136,3],[146,1],[45,4]],[[4322,4671],[4,-47],[2,-50],[2,-235],[2,-160],[-3,-53],[-6,-40],[-6,-21],[-15,-42],[-12,-27],[-16,-29],[-20,-29],[-18,-23],[-35,-36]],[[4201,3879],[-25,-22],[-39,-27],[-48,-27],[-33,-15],[-59,-22],[-209,-76]],[[3788,3690],[-1,76],[-4,83],[-3,244],[-3,30],[0,49],[-2,16],[-8,19],[-17,23],[-6,27],[-8,14],[-16,14],[-44,32],[-4,10],[-1,31],[-5,12],[-22,14],[-5,9],[-2,21],[2,8],[45,-1],[7,4],[1,40],[-2,11],[0,25]],[[1788,6238],[123,1],[401,1],[791,-2],[128,1],[95,0],[247,1]],[[3573,6240],[13,-2],[37,-18],[18,-5],[16,0],[0,-137],[-6,-35],[2,-37],[6,-60],[0,-29]],[[3659,5917],[-86,4],[-83,1],[-88,-3],[-72,-4],[0,-127],[4,-250],[0,-22],[-7,-30],[-20,-44],[-21,-62],[-4,-31],[3,-131],[2,-56],[3,-16],[25,-99]],[[3315,5047],[-133,-1],[-51,0],[-5,8],[-1,85],[-9,4],[-147,-1],[-8,10],[0,61],[-5,11],[-42,21],[-29,19],[-77,52],[-16,5],[-143,0],[-19,2],[-51,10],[-1,-36]],[[2578,5297],[-48,6],[-59,5],[-252,15],[-114,8],[-32,1],[-97,-5],[-84,-3],[-6,-5],[1,-59],[-8,-19],[-11,-2],[-196,-1],[-26,-1],[-14,-10],[-22,-26],[-11,-5],[-60,-10],[-14,-5],[-16,-22],[-7,-4],[-48,-5],[-91,-2],[-36,-9],[-14,-1],[-78,0]],[[1235,5138],[-2,182],[-1,133],[-1,83],[-1,154],[32,8],[35,4],[107,1],[43,1],[44,4],[135,13],[44,8],[119,38],[20,4],[32,4],[39,3],[0,21],[-9,377],[-4,6],[-38,7],[-23,11],[-17,21],[-1,17]],[[1235,5138],[1,-129]],[[1236,5009],[-131,-4],[-108,-5],[-203,-7],[0,48],[-131,-1],[-150,0],[-22,3],[-6,24],[-11,5],[-11,-4],[-20,1],[-23,-2],[-5,-6],[-3,-17],[-6,-3],[-36,0],[-176,0],[-151,-1],[-20,0]],[[23,5040],[-3,194],[2,140],[-3,104],[-2,15],[-6,8],[0,29],[-2,149],[-2,234],[-2,69],[-1,175],[-4,82],[168,-1],[167,0],[141,0],[76,1],[361,-3],[438,1],[310,1],[127,0]],[[1236,5009],[-1,-134],[1,-112],[-1,-40],[0,-60],[6,-20],[3,-197],[59,0],[268,2],[82,1],[109,0],[125,0],[115,0],[15,2],[111,39],[117,42],[23,8],[61,5],[1,-109],[2,-181],[210,1],[5,-5],[1,-79],[4,-201],[1,-96],[-8,-7],[-162,-1],[-5,3],[-9,22],[-15,9],[-26,12],[-18,-4],[-14,-10],[-16,-19],[-19,-14],[-142,-1],[2,-189],[1,-95],[1,-184],[1,-123],[2,-119],[3,-213],[1,-51]],[[2130,2891],[-21,3],[-26,1],[-109,-1],[-324,-2],[-145,-2],[-245,-2],[-236,3],[-28,7],[-17,13],[-204,229],[-14,11],[-25,7],[-105,12],[-23,1],[-200,-15],[-42,-4],[-257,-34],[-24,-4],[-42,-14]],[[43,3100],[-1,182],[-2,394],[0,146],[-2,50],[-2,207],[-2,130],[0,51],[-2,187],[-5,104],[-4,99],[-4,150],[5,11],[1,32],[-1,112],[-1,85]],[[3341,4613],[0,27],[3,19]],[[3344,4659],[182,1]],[[3526,4660],[50,-72],[42,-43],[37,-35],[35,-9]],[[3788,3690],[-100,-36],[-33,-14],[-26,-14],[-23,-17],[-21,-19],[-19,-20],[-17,-23],[-31,-57]],[[3518,3490],[-113,0]],[[3405,3490],[-1,5],[-2,252],[-2,3],[-35,-4],[-33,17],[-11,10],[23,10],[7,85],[-10,12],[-12,19],[-3,19],[-12,29],[-16,19],[-7,30],[15,57],[14,16],[26,42],[-1,119],[-2,223],[-2,160]],[[3315,5047],[25,-100],[3,-24],[2,-147],[0,-105],[-1,-12]],[[3341,4613],[-44,10],[-25,11],[-11,13],[-12,7],[-54,0],[-22,4],[-97,-1],[-21,2],[-104,-2],[-149,-2]],[[2802,4655],[-2,180],[-7,21],[-14,14],[-77,74],[-10,16],[-2,103],[-2,181],[-7,13],[-54,21],[-49,19]],[[7163,4311],[221,3],[-4,5],[-2,118],[-4,123],[-3,135]],[[7371,4695],[320,4],[254,3],[189,2],[124,1],[171,3],[127,2],[-114,-309],[-22,-61],[193,6],[175,5]],[[8788,4351],[0,-220],[0,-118],[1,-41],[-5,-9],[7,-385],[1,-196],[1,-241],[-1,-51],[-3,-280],[7,-69],[-1,-100],[-2,-138],[0,-95]],[[8793,2408],[-181,-8],[-129,-5],[-41,-3],[-15,3],[-123,-2],[-49,-2],[-148,-3],[-158,-4],[-117,-3],[-200,-4],[9,-351],[-36,6],[-74,-3],[-108,-45],[-70,-26],[-168,-66],[-132,-51],[-51,-20],[-52,-25],[-45,-24],[-34,-16],[-70,-29],[-23,-8],[-166,-48],[-76,-21],[-23,-5],[-45,-3]],[[6468,1642],[-106,-13]],[[6362,1629],[-8,7],[-3,76],[-10,277],[-8,168],[1,8],[20,31],[3,12],[1,38],[-3,11],[-13,20],[-12,78],[-1,26],[-2,124],[0,80],[-2,119],[0,63],[-2,68],[247,4],[13,0],[35,-7],[336,-73],[26,-5],[41,-2],[171,4],[-3,130],[-7,293],[-4,201],[-2,128],[-3,192],[-1,139],[-1,83],[-5,259],[-3,130]],[[3341,2901],[133,2],[125,2],[169,0],[191,2]],[[3959,2907],[181,2],[79,0],[18,-1],[99,-9]],[[4336,2899],[1,-74],[1,-206],[98,2],[10,2]],[[4446,2623],[-4,-38],[-5,-27],[-11,-35],[-16,-41],[-17,-32],[-47,-81],[-10,-20],[-16,-39],[-10,-34],[-17,-60],[-64,-234],[-4,-21],[-4,-37],[3,-141]],[[4224,1783],[-169,-7],[-15,-2],[-9,19],[-21,33],[-8,7],[-54,29],[-182,75],[-51,23],[-16,3],[-114,3],[-110,2],[-11,7],[-1,68],[-5,15],[-58,89],[-3,13],[-5,55],[-28,-2]],[[3364,2213],[-15,188],[-4,62],[-2,56],[0,57],[-2,325]],[[4276,1257],[85,-32],[91,-36],[18,-11],[52,2],[19,3],[36,15],[15,4],[46,1],[149,1],[118,2],[117,3],[80,2],[11,9],[-1,98],[-2,203]],[[5110,1521],[77,3],[106,4],[50,2],[160,4],[47,-3],[144,-64],[11,-4],[96,-23],[8,0],[69,12],[140,22],[69,7],[13,5],[80,45],[84,45],[98,53]],[[6468,1642],[-5,-15],[0,-40],[10,-355],[68,0],[93,-1],[152,-3],[32,0],[194,2],[4,-116],[9,-249],[2,-78],[4,-103],[5,-170],[2,-49],[-2,-11],[-87,-1],[-95,1],[-54,-3],[-101,-2],[-17,3],[-16,9],[-23,-11],[-34,-12],[-7,-1],[-9,-23],[-19,-28],[-14,-12],[-106,-82],[-23,-22],[-13,-15]],[[6418,255],[-9,5],[-35,2],[-7,3],[-12,17],[-28,8],[-9,11],[-10,27],[-13,21],[-25,29],[-21,41],[-11,51],[3,47],[34,149],[30,133],[-110,105],[-35,13],[-73,17],[-15,8],[-9,0],[-3,13],[-31,9],[-28,-8],[-15,8],[-18,-3],[-22,9],[-12,12],[5,-89],[10,-273],[3,-117],[3,-93],[3,-85],[64,-31],[-8,-28],[-9,-46],[-7,-13],[-26,-23],[-9,-12],[-2,-12],[9,-108]],[[5970,52],[-205,-2],[-63,-1],[-233,-2],[-205,-1],[-105,-2],[-189,-3],[-484,-10],[-215,-3]],[[4271,28],[24,84],[7,41],[3,20],[6,87],[1,49],[-7,334],[-2,93],[-3,123],[-2,124],[-1,29],[-8,187],[-3,30],[-10,28]],[[6418,255],[10,-12],[15,0],[50,-24],[76,-18],[6,-3],[20,-28],[2,-12],[-2,-27],[22,-36],[59,-27],[50,8],[14,-16]],[[6740,60],[-99,-9],[-90,1],[-61,3],[-98,1],[-46,1],[-32,-2],[-33,2],[-53,-2],[-258,-3]],[[4589,3306],[13,19],[6,13],[40,113],[11,19],[25,30],[53,70],[39,54],[65,77],[12,16],[10,20],[22,72],[10,31],[15,32],[13,22]],[[4923,3894],[155,0],[13,1],[1,-11],[0,-127],[2,-153],[0,-194],[2,-131],[1,-163],[1,-214],[0,-14]],[[5098,2888],[-207,0],[-24,2],[-126,14],[-22,1],[-100,-2]],[[4619,2903],[-1,73],[-71,-1]],[[4547,2975],[1,135],[-2,126],[1,12],[7,12],[35,46]],[[1609,1178],[106,-1]],[[1715,1177],[200,0],[197,1],[84,1],[209,3],[182,2]],[[2587,1184],[346,2],[184,3]],[[3117,1189],[14,-248],[19,-334],[3,-69],[11,-197],[2,-46],[0,-124],[3,-56],[2,-28],[0,-68]],[[3171,19],[-283,-2],[-151,-1],[-52,-1],[-77,0],[-275,-2],[-177,0],[-331,-2],[-200,-1]],[[1625,10],[-2,93],[-1,81],[-2,129],[-5,291],[-2,211],[-1,41],[-2,193],[-1,129]],[[3659,5917],[123,-6],[45,-5],[19,-4],[29,-9],[27,-12],[35,-23],[33,-27],[-95,-2],[0,-8],[3,-203],[2,-103],[1,-73],[-25,-27],[-22,-29],[-22,-23],[-25,-22],[-121,-65],[-23,-22],[-25,-20],[-23,-8],[-29,-5],[-13,-11],[-11,-14],[0,-11],[16,-17],[4,-22],[-4,-70],[-2,-80],[8,-50],[10,-45],[14,-38],[-4,-22],[-7,-16],[-26,-47],[-17,-67],[-8,-51]],[[4441,2948],[51,1],[0,25],[55,1]],[[4619,2903],[-36,0],[1,-90],[-6,-3],[-57,0],[0,-21],[-25,-2],[2,-68],[-53,0]],[[4445,2719],[-3,186],[-1,18],[-26,0]],[[4415,2923],[0,25],[26,0]],[[4445,2719],[2,-61],[-1,-35]],[[4336,2899],[-1,23],[80,1]],[[2802,4655],[0,-157],[1,-167],[1,-3],[28,-21],[38,-26],[21,-10],[19,-6],[-1,-13],[1,-140],[3,-165],[2,-170],[54,0],[11,-5],[52,-38],[191,-142],[14,-17],[48,-77],[11,-9],[109,1]],[[3518,3490],[-130,-245],[-18,-37],[-14,-40],[-8,-34],[-7,-44],[-1,-66],[1,-123]],[[3341,2901],[-85,0],[-225,-1],[-41,6],[-53,15],[-32,6],[-25,1],[-85,-7],[-40,-6],[-51,-10],[-31,-5],[-20,-1],[-89,-2]],[[2564,2897],[-167,-3],[-17,-2],[-32,-6],[-48,-12],[-23,-4],[-22,-2],[-23,1],[-25,4],[-77,18]],[[7571,6246],[128,1],[399,1],[223,0],[125,2],[24,-1],[32,1],[196,-1],[93,4],[1,-214],[-1,-217],[-3,-109],[0,-66],[2,-123],[0,-119],[0,-214],[-1,-226],[2,-121],[-3,-271],[1,-118],[-1,-104]],[[7371,4695],[-3,336],[0,55],[108,0],[-1,102],[-2,144],[-3,122],[-1,23],[62,-2],[27,-7],[20,-10],[2,12],[-1,89],[0,122],[-3,207],[0,49],[-2,117],[-2,179],[-1,13]],[[5098,2888],[58,0],[24,-3],[106,-27],[92,-18],[77,-12],[2,-117],[0,-95],[3,-264],[2,-20],[1,-33],[2,-108],[2,-26],[-136,68],[-77,35],[-20,3],[-78,-2],[-53,13],[-18,-2],[-107,0],[-13,-2],[7,-11],[10,-30],[14,-59],[3,-33],[-11,-154],[-1,-22],[-20,-30],[-4,-24],[11,-26],[2,-23],[-15,-42],[-1,-11],[6,-11],[18,-18],[11,-37],[1,-40],[9,-109],[96,3],[9,-10],[0,-70]],[[4276,1257],[-33,51],[-10,28],[-2,24],[-1,193],[-6,230]],[[2564,2897],[2,-32],[0,-77],[3,-93],[-2,-101],[1,-12],[6,-481],[2,-121],[5,-406],[2,-135],[3,-173],[1,-82]],[[1715,1177],[-2,199],[0,182],[-2,149],[-1,156],[0,92],[-2,129],[-2,68],[-327,-1],[-93,0],[-118,1],[-119,0],[-123,0],[-149,1],[-159,-2],[0,90],[-1,35],[-3,34],[-439,0],[-123,0]],[[52,2310],[-5,327],[-4,463]],[[4271,28],[-247,-4],[-143,-1],[-479,-2],[-231,-2]],[[3117,1189],[-20,352],[1,46],[4,34],[11,44],[12,32],[15,32],[29,45],[23,28],[102,113],[29,39],[21,37],[11,28],[7,23],[6,29],[2,23],[0,44],[-6,75]],[[5295,6238],[16,-4],[6,-9],[31,-72],[12,-26],[24,-45],[4,-20],[-2,-227],[3,-163],[0,-93],[-4,-10],[-26,-20],[-11,-11],[-4,-10],[-14,-70],[-11,-2],[-63,-1],[-79,2],[-41,-2],[-65,-4],[1,-15],[1,-77],[4,-131],[1,-101],[2,-96],[6,-359]],[[5086,4672],[-263,-1],[-175,-1],[-274,-2],[-23,3],[-29,0]],[[4322,4671],[-9,113],[-1,40],[2,52],[11,121],[3,28],[8,32],[9,22],[10,20],[36,62],[11,24],[12,39],[3,23],[0,42],[-3,304],[-5,0],[0,36],[5,55],[0,96],[-79,27],[-65,20],[-19,5],[-37,2],[-116,-2],[-25,48],[-38,67],[-7,17],[2,13],[-46,5],[2,111],[1,119],[-7,29]],[[3980,6241],[69,2],[419,-4],[385,-4],[442,3]],[[3573,6240],[407,1]],[[5295,6238],[33,0],[442,3],[176,0]],[[5946,6241],[3,-10],[7,-103],[13,-153],[2,-13],[14,-39],[0,-12],[-6,-94],[-4,-17],[-33,-132],[-8,-33],[1,-112],[2,-56],[-1,-37],[1,-114],[-4,-11],[-10,-12],[-8,-18],[-2,-17],[-13,-20],[-13,-35],[-24,-60],[-12,-50],[-12,-60],[-7,-24],[-24,-41],[-14,-17],[-121,-110]],[[5673,4841],[-134,-124],[-47,-42],[-13,0],[-171,-1],[-222,-2]],[[5673,4841],[4,-4],[153,-110],[10,-10],[2,-7],[2,-32],[211,2],[12,-1],[171,-33],[12,0],[16,15],[110,-84],[45,-34],[52,-36],[61,-35],[29,-14],[47,-22],[259,-110],[42,-19],[37,-19],[-1,39],[8,-1],[23,-17],[27,-1],[158,3]],[[4923,3894],[-53,0],[-166,0],[-65,-1],[-87,-1],[-45,-2],[-209,-3],[-23,-4],[-23,-9],[-11,-3],[-18,1],[-22,7]],[[8793,2408],[3,-130],[1,-155],[2,-196],[1,-103],[0,-103],[2,-90],[2,-246],[2,-113],[1,-184],[2,-77],[-1,-57],[3,-131],[3,-225],[1,-46],[0,-139],[3,-314],[-150,2],[-58,0],[-41,-3],[-87,-1],[-127,-3],[-655,-14],[-385,-7],[-77,-4],[-96,-2],[-135,-3],[-7,0],[-260,-4]],[[1609,1178],[-202,1],[-30,3],[-28,-3],[-319,-1],[-100,-1],[-106,-1],[-205,0],[-108,1],[-11,1],[-16,7],[-67,38],[-17,13],[-5,35],[-6,0],[0,16],[-9,46],[-40,46],[-77,38],[-36,40],[-28,61],[-12,65],[-34,69],[-34,31],[-28,44],[-20,53],[-15,16]],[[56,1796],[0,102],[1,42],[-3,195],[-2,175]],[[1625,10],[-454,-3],[-47,-1],[-535,-2],[-529,-4],[4,102],[2,96],[-1,134],[-1,48],[-5,18],[0,25],[5,25],[0,210],[-2,124],[-2,170],[-1,3],[-1,218],[-1,251],[-5,7],[4,118],[0,34],[0,213]],[[4589,3306],[-119,-2],[-33,0],[0,-44]],[[4437,3260],[-110,-1],[-1,93],[0,145],[-106,-2],[-1,-131],[0,-72],[1,-5],[4,-167],[86,2],[1,-21],[13,0],[2,-76],[-136,1],[0,76],[-131,-1],[0,-62],[-52,-1],[-1,-36],[-14,1],[-18,-30],[-4,-51],[-11,-15]],[[5946,6241],[168,0],[162,0],[221,1],[183,0],[7,1],[354,2],[197,0],[130,1],[203,0]],[[4441,2948],[-3,153],[-1,159]]],"transform":{"scale":[0.000044464391018371924,0.00003737949784103604],"translate":[-85.196774,41.526437]},"objects":{"Geometry\\18-151":{"type":"GeometryCollection","geometries":[{"arcs":[[0,1,2,3]],"type":"Polygon","properties":{"GEOID":"181519711004"}},{"arcs":[[4,5,6,7,8,9]],"type":"Polygon","properties":{"GEOID":"181519710003"}},{"arcs":[[-10,10,11,12]],"type":"Polygon","properties":{"GEOID":"181519710004"}},{"arcs":[[-12,13,14,15]],"type":"Polygon","properties":{"GEOID":"181519710001"}},{"arcs":[[16,17,18,-4,19,20,21]],"type":"Polygon","properties":{"GEOID":"181519711003"}},{"arcs":[[22,-17,23,24,-8]],"type":"Polygon","properties":{"GEOID":"181519711001"}},{"arcs":[[25,26,27,28,29,30]],"type":"Polygon","properties":{"GEOID":"181519712002"}},{"arcs":[[31,32,33,34,35,36]],"type":"Polygon","properties":{"GEOID":"181519714004"}},{"arcs":[[37,38,-30,39,40,41,42]],"type":"Polygon","properties":{"GEOID":"181519716001"}},{"arcs":[[43,44,-41]],"type":"Polygon","properties":{"GEOID":"181519716002"}},{"arcs":[[45,46,47,48,49]],"type":"Polygon","properties":{"GEOID":"181519713001"}},{"arcs":[[50,51,52,53,54,55]],"type":"Polygon","properties":{"GEOID":"181519716004"}},{"arcs":[[56,-18,-23,-7]],"type":"Polygon","properties":{"GEOID":"181519709002"}},{"arcs":[[57,-49,58,59,60]],"type":"Polygon","properties":{"GEOID":"181519714002"}},{"arcs":[[-60,61,-34,62]],"type":"Polygon","properties":{"GEOID":"181519714003"}},{"arcs":[[-11,-9,-25,63,-21,64,65,66,-14]],"type":"Polygon","properties":{"GEOID":"181519710002"}},{"arcs":[[67,-27,68]],"type":"Polygon","properties":{"GEOID":"181519708001"}},{"arcs":[[-62,-59,-48,69,-38,70,-35]],"type":"Polygon","properties":{"GEOID":"181519714001"}},{"arcs":[[-15,-67,71,-52,72,73]],"type":"Polygon","properties":{"GEOID":"181519715002"}},{"arcs":[[-24,-22,-64]],"type":"Polygon","properties":{"GEOID":"181519711002"}},{"arcs":[[-36,-71,-43,74,-54,75]],"type":"Polygon","properties":{"GEOID":"181519716003"}},{"arcs":[[76,77,78,79]],"type":"Polygon","properties":{"GEOID":"181519709001"}},{"arcs":[[-6,80,-79,-1,-19,-57]],"type":"Polygon","properties":{"GEOID":"181519709003"}},{"arcs":[[81,82,83,-77]],"type":"Polygon","properties":{"GEOID":"181519708003"}},{"arcs":[[-2,-78,-84,84,-31,-39,-70,-47,85]],"type":"Polygon","properties":{"GEOID":"181519712001"}},{"arcs":[[-40,-29,86,-44]],"type":"Polygon","properties":{"GEOID":"181519712003"}},{"arcs":[[-73,-51,87,88]],"type":"Polygon","properties":{"GEOID":"181519715003"}},{"arcs":[[-88,-56,89]],"type":"Polygon","properties":{"GEOID":"181519715004"}},{"arcs":[[-20,-3,-86,-46,90,91,-32,-65]],"type":"Polygon","properties":{"GEOID":"181519713002"}},{"arcs":[[-83,92,-69,-26,-85]],"type":"Polygon","properties":{"GEOID":"181519708002"}},{"arcs":[[-66,-37,-76,-53,-72]],"type":"Polygon","properties":{"GEOID":"181519715001"}},{"arcs":[[-50,-58,93,-91]],"type":"Polygon","properties":{"GEOID":"181519713004"}},{"arcs":[[-94,-61,-63,-33,-92]],"type":"Polygon","properties":{"GEOID":"181519713003"}}]}}}