{"type":"Topology","arcs":[[[2987,6130],[20,-62],[25,-44],[32,-30],[24,-7],[22,-18],[35,-16],[5,-39],[-7,-32],[15,-49],[47,-35],[25,-66],[-32,-97],[-14,-29],[-7,-49],[-16,-28],[12,-20],[47,-25],[5,-204]],[[3225,5280],[-117,2],[-54,5],[-49,-14],[-462,7],[-182,1]],[[2361,5281],[-280,5],[-136,1],[-73,3],[-288,1],[-92,5],[-32,-4],[-99,4],[-31,-10],[-28,-44],[-19,-67],[13,-17],[1,-31],[-26,-25],[9,-27],[32,-36],[0,-56],[20,-33],[22,-22],[4,-18],[36,-74],[3,-42],[17,-37],[-16,-6],[-50,20],[-47,0],[-43,27],[-46,3],[-11,75],[-36,-3],[-37,-30],[-52,-26],[-46,-41],[-38,-23],[-56,-28],[-20,-33],[-27,-13],[-19,-50],[0,-43],[11,-70],[-6,-18],[-36,-13],[-104,63],[-40,5],[-20,19],[-320,1],[16,43],[2,37],[0,126],[-17,11],[-20,-20],[-30,-45],[-13,-50],[-26,-31],[-7,-28],[-39,-22],[-41,-32],[-37,6],[-45,-30],[-16,-37],[-22,-71],[-14,-23],[-32,-18]],[[14,4389],[0,429],[1,285],[0,194],[-4,257],[0,222],[-3,661],[9,0],[1,68],[-4,351],[261,4],[85,3],[187,3],[168,6],[574,14],[-70,-598],[-15,-153],[116,-1],[12,6],[470,-10],[1185,0]],[[9,2452],[80,-32],[40,-7],[40,17],[27,-2],[31,-16],[24,5],[68,-8],[41,7],[72,-21],[49,31],[59,2],[11,9],[30,67],[66,74],[38,71],[28,117],[32,81],[85,76],[6,10],[70,-71],[1,63],[7,12],[88,50],[102,18],[14,8],[32,37],[47,21],[103,-6],[27,-8],[166,-98]],[[1493,2959],[1,-68],[-14,-54],[-36,-39],[-16,-32],[-32,-30],[13,-63],[-2,-53],[12,-55],[22,-62],[72,-62],[47,-21],[84,-11],[37,-30],[23,-26],[22,-44],[15,-80],[9,-21],[26,-25],[36,-17],[31,-57],[60,-46],[52,-47],[11,37],[31,5],[24,23],[10,30],[29,19],[4,36],[9,13],[48,-23],[45,-28],[34,14],[17,-7],[23,-27],[46,-27],[32,-52],[18,-9],[11,-30],[56,-113],[18,31],[19,-2],[1,-42],[11,-19],[39,-19],[20,-31],[19,10],[122,-172],[13,-32]],[[2665,1601],[-93,-35],[-45,-27],[-42,-18],[-58,-45],[-14,-20],[-52,-53],[-21,-10],[-124,-103],[-40,-25],[-16,-19],[-59,-32],[-70,-57],[-15,-21],[-30,-19],[-48,-12],[-33,-53],[-69,-84],[1,-16],[-69,-74],[-74,-88],[-48,-48],[-86,-76],[-39,-28],[-60,-65],[-59,-88],[-39,-49],[-59,-39],[-26,-33],[-111,-80],[-142,-91],[-136,-68],[-101,-43],[-72,-25],[-100,-30],[-41,-15],[-59,12],[-36,0],[-200,-24],[-60,33],[15,16],[-37,11],[-59,3],[-98,35],[-6,190],[-17,1343],[-3,143],[-6,388],[3,195],[-3,95]],[[3225,5280],[1,-23],[1,-384],[116,0],[329,-7],[12,-15],[22,-57]],[[3706,4794],[23,-39],[197,-242],[11,-54],[31,-97],[58,-111],[13,-39],[21,-207],[3,-79],[0,-141],[10,-13],[50,-42],[24,-44],[-13,-45],[-31,-36],[19,-45],[-5,-44],[34,-87],[8,-44],[29,-39],[28,-64],[-3,-49],[-19,-16],[-43,10],[-43,-32],[-18,-79],[2,-72],[-17,-54],[-12,-59],[-6,-55],[13,-76],[22,-43],[-31,-62],[-31,-36],[-25,-20],[63,-7],[-6,-44]],[[4062,2588],[-34,-7],[-47,-23],[-56,-44],[-50,-50],[-7,-1],[-87,-102],[-60,-61],[-69,-62],[-63,-43],[-56,-32],[-83,-58],[-23,-9],[-18,-20],[-64,-47],[-41,-14],[-59,-8]],[[3245,2007],[-32,29],[-59,12],[-33,-2],[-23,10],[-11,-29],[-47,-2],[-13,25],[44,45],[7,23],[-8,25],[13,105],[6,94],[-17,52],[-43,40],[-5,16],[4,59],[-29,4],[-10,30],[5,43],[-51,7],[-11,12],[-22,58],[-11,6],[-44,-7],[-55,-36],[-38,1],[-32,36],[-15,55],[-43,16],[-57,-38],[-16,26],[-30,23],[-65,9],[9,72],[2,86],[-18,64],[-13,88],[-13,37]],[[2471,3101],[16,23],[1,41],[-10,30],[-27,220],[2,25],[34,124],[25,45],[13,7],[102,14],[14,21],[-8,73],[-16,24],[-35,25],[-80,69],[2,83],[-13,65],[-30,78],[-24,39],[-16,59],[-23,37],[-8,27],[-44,63],[29,161],[2,75],[-24,50],[-10,105],[10,29],[10,73],[-5,67],[2,380],[1,48]],[[5579,4595],[30,10],[66,91],[28,23],[47,-17],[32,7],[32,40],[38,16],[23,17],[39,73],[44,32],[133,5],[49,31],[27,42],[31,30],[33,13],[41,-19],[27,5],[20,-11],[34,-44],[57,-44],[102,-12],[62,4],[1,76],[-5,27],[-20,12],[-5,38],[3,108],[-13,94],[1,23],[-50,52],[-23,19],[-23,47],[3,21],[-6,78],[3,39],[28,54],[18,67],[35,44],[26,51],[22,16],[9,25],[4,64],[-29,37],[-18,43],[3,55]],[[6538,5977],[74,-1],[18,-5],[88,-2],[33,5],[41,-4],[122,6],[169,-12],[20,2],[81,-15],[82,-23],[106,-27],[32,14],[45,-13],[81,-42],[76,-27],[39,-20],[50,-38],[64,-61],[52,-28],[30,-39],[40,-38],[54,-65],[22,-43],[6,-28],[12,-138],[-23,-145],[-8,-37],[-33,-101],[-48,-110],[-65,-103],[-51,-27],[-65,-69],[-26,-51],[-24,-35],[-43,-40],[-29,-19],[-51,-52],[-91,-58],[-35,-33],[-39,-29],[-61,-62],[-52,-58],[-44,-65],[-33,-59],[-33,-82],[-12,-44],[0,-104],[22,-114],[25,-82],[17,-45],[66,-121],[41,-59],[25,-53],[16,-45],[46,-85],[47,-143],[16,-76],[7,-69],[18,-55],[5,-35],[-5,-88],[-13,-61],[-24,-47],[-36,-28],[-88,-26],[-26,-2],[-112,2],[-152,32],[-207,96],[-61,26],[-113,40],[-122,31],[-152,22],[-53,10],[-71,6],[-78,23],[-64,31],[-72,14],[-20,-8],[-82,-15],[-64,-38]],[[5845,2990],[-2,50],[19,59],[51,48],[11,21],[40,26],[11,29],[-8,40],[-4,91],[10,54],[55,1],[7,10],[1,146],[-31,18],[-44,12],[-24,21],[-10,92],[-63,62],[-57,19],[-7,13],[-3,55],[-38,41],[-74,1],[1,204],[-22,47],[-61,40],[-25,95],[-28,83],[-2,132],[5,29],[26,66]],[[1493,2959],[51,-17],[34,27],[49,12],[81,42],[46,4],[14,-7],[56,14],[69,32],[6,19],[-15,67],[1,38],[16,18],[22,7],[20,57],[36,-30],[63,-69],[60,-39],[40,-12],[41,-3],[39,7],[23,10],[34,-28],[116,-12],[38,13],[38,22],[0,-30]],[[3245,2007],[-88,-52],[-51,-24],[-109,-93],[-39,-46],[-77,-55],[-5,-14],[-66,-26],[-38,-25],[-42,-37],[-65,-34]],[[9,2452],[-5,220],[-3,306],[-1,702],[8,199],[2,124],[4,100],[0,286]],[[5845,2990],[-64,-33],[-69,-42],[-112,-90],[-35,-21],[-68,-50],[-55,-31],[-65,-24],[-42,-30],[-42,-17],[-68,-50],[-95,-50],[-135,-45],[-53,-10],[-56,-1],[-55,9],[-34,12],[-209,58],[-45,2],[-112,17],[-228,16],[-114,-21],[-27,-1]],[[3706,4794],[86,48],[87,43],[46,8],[111,137],[17,32],[115,-1],[12,-7],[25,-39],[71,-55],[67,67],[46,38],[23,31],[33,60],[20,-30],[50,-14],[56,-93],[16,-13],[114,-29],[9,-7],[23,-63],[44,-50],[38,-74],[27,-28],[38,-15],[114,-18],[64,37],[34,42],[50,2],[33,-10],[34,-19],[40,-40],[32,-12],[53,-4],[28,-51],[62,-30],[90,-14],[65,-28]],[[2987,6130],[47,0],[4,-31],[178,-1],[171,-3],[6,-3],[481,-6],[166,0],[784,-10],[315,-3],[670,-4],[285,2],[70,-3],[173,2],[37,-38],[39,-22],[47,-18],[78,-15]]],"transform":{"scale":[0.000052545956112851224,0.000035142753412721584],"translate":[-85.203589,38.68758499999999]},"objects":{"Geometry\\18-155":{"type":"GeometryCollection","geometries":[{"arcs":[[0,1,2,3]],"type":"Polygon","properties":{"GEOID":"181559658001"}},{"arcs":[[4,5,6]],"type":"Polygon","properties":{"GEOID":"181559659002"}},{"arcs":[[-2,7,8,9,10,11]],"type":"Polygon","properties":{"GEOID":"181559658003"}},{"arcs":[[12,13,14]],"type":"Polygon","properties":{"GEOID":"181559657001"}},{"arcs":[[15,-11,16,-6]],"type":"Polygon","properties":{"GEOID":"181559659001"}},{"arcs":[[-3,-12,-16,-5,17]],"type":"Polygon","properties":{"GEOID":"181559658002"}},{"arcs":[[-15,18,-9,19]],"type":"Polygon","properties":{"GEOID":"181559657003"}},{"arcs":[[20,-13,-20,-8,-1]],"type":"Polygon","properties":{"GEOID":"181559657002"}}]}}}