{"type":"Topology","arcs":[[[2413,3132],[11,-2],[12,17],[6,0],[32,11],[21,-1],[1,-70],[0,-37]],[[2496,3050],[-49,0],[-9,-2],[0,-42],[-19,-1],[-1,-20],[-66,0]],[[2352,2985],[1,71],[17,7],[-25,60],[-1,7],[13,5],[17,0],[27,-7],[12,4]],[[2496,3050],[-2,-127]],[[2494,2923],[-35,1],[-1,12],[-9,2],[-31,23],[-57,-66]],[[2361,2895],[-9,11],[0,79]],[[2671,2931],[1,105]],[[2672,3036],[0,34],[42,1]],[[2714,3071],[31,8],[4,6]],[[2749,3085],[12,-2],[74,-24],[0,-82],[1,-45]],[[2836,2932],[0,-51],[2,-119]],[[2838,2762],[-74,2],[-12,34],[7,20],[-21,4],[-5,-11],[-13,-3],[-21,16],[-1,25],[-9,8],[-20,2],[2,14],[0,58]],[[10,4602],[144,3],[61,1],[4,-2],[59,7],[100,1],[57,-1],[167,3],[251,5]],[[853,4619],[107,1],[125,2],[40,1]],[[1125,4623],[0,-66],[2,-193],[5,-209]],[[1132,4155],[4,-260],[3,-83],[7,-288],[3,-1],[8,-406]],[[1157,3117],[-138,-3],[-197,-5],[-244,-6],[-58,-2],[-234,-6],[-259,-5]],[[27,3090],[-5,0],[-6,519],[5,1],[-1,40],[0,81],[-4,226],[-3,175],[-3,470]],[[1157,3117],[206,3],[33,-1],[134,2],[197,3]],[[1727,3124],[4,0],[-7,-371]],[[1724,2753],[-35,0],[-40,-5],[-8,-34],[-6,-7],[-25,-2],[-10,-9],[-7,-67],[-66,-133],[172,1],[89,2],[-2,-169],[-2,-214],[2,-131],[-72,-1],[2,-135],[6,-189],[3,-61]],[[1725,1599],[-5,0]],[[1720,1599],[-247,-5],[-118,-3],[-132,-1],[-39,-1],[-64,-7],[-190,-2],[-182,0],[-4,-1],[-155,-4],[-113,-1],[-89,-3],[-147,-5],[-206,-6]],[[34,1560],[-3,176],[-1,80],[-5,70],[3,337],[8,368],[-3,65],[2,14],[-1,73],[-6,125],[-1,188],[0,34]],[[1720,1599],[-2,-117],[21,-5],[0,-39],[1,-220],[-3,-85],[3,-3],[135,4],[-4,-109],[-1,-61],[-5,-236],[-7,-181],[0,-184],[-27,10],[-32,3],[-18,13],[-28,14],[-14,-2],[-16,-7],[-14,2],[-40,16],[-34,21],[-24,9],[-21,3],[-18,8],[-3,-8],[-17,1],[-13,-4],[-12,-10],[-6,-19],[7,-13],[20,-26],[18,-13],[11,-2],[7,-7],[-9,-19],[-14,-8],[-39,-12],[-13,-14],[-33,-13],[-26,3],[-29,-23],[-11,-5],[-20,-21],[-12,-26],[-19,-17],[0,-12],[9,-15],[16,-6],[2,-7],[-5,-20],[3,-20],[14,-7],[10,-13],[3,-56],[7,-7]],[[1418,34],[-204,-1],[-417,-10],[-174,-5],[-208,-7],[-168,-5],[-229,-6],[-10,232],[-3,151],[-3,130],[-2,122],[3,234],[3,167],[0,100],[2,283],[1,131],[3,8],[22,2]],[[2513,6181],[228,2],[73,-2],[138,0],[118,-2],[154,0]],[[3224,6179],[3,-259],[2,-21],[65,-20],[75,-23],[4,-271],[0,-127],[4,-172],[-8,-6],[-132,-1],[7,-381]],[[3244,4898],[-238,-2],[-4,-2],[-251,-1]],[[2751,4893],[-2,127],[-138,-1],[-4,3],[-1,105],[-9,16],[-8,3],[-124,-2],[-2,150],[-2,12],[-2,124],[13,10],[18,42],[1,46],[31,-1],[4,4],[-2,124],[-2,144],[-1,136],[-2,128],[-3,116],[-3,2]],[[1132,4155],[66,1],[62,1],[65,1],[75,2],[231,-1],[215,1],[45,1],[42,8],[-223,183],[-23,18],[-176,146],[-23,23],[-44,52],[-40,38]],[[1404,4629],[296,4],[0,148],[-5,101],[0,14]],[[1695,4896],[283,2],[287,0]],[[2265,4898],[-1,-57],[2,-80],[1,-119],[-1,-7],[2,-86],[2,-180],[3,-175],[5,-217],[1,-92],[1,-15],[2,-225]],[[2282,3645],[-4,-2],[-165,1],[-174,-1],[-90,-1],[-133,-1],[6,-324],[2,-33],[3,-160]],[[17,5228],[32,-26],[114,-87],[46,-35],[46,-37],[169,-130],[12,18],[1,22],[32,-10],[14,1],[7,6],[8,17],[3,30],[15,22],[11,27],[-4,20],[-12,4],[-23,12],[-18,13],[-13,16],[4,16],[-7,23],[2,32],[9,9],[14,7],[3,9],[14,12],[4,10],[4,29],[8,29],[38,-22],[34,-25]],[[584,5240],[190,-144],[72,-56]],[[846,5040],[1,-90],[2,-62],[4,-269]],[[10,4602],[-1,280],[1,11],[3,163],[4,59],[0,66],[1,42],[-1,5]],[[2611,3204],[25,22],[18,8],[17,3],[14,-2],[16,-13],[20,-12],[37,-33],[-9,-9],[0,-43]],[[2749,3125],[0,-40]],[[2714,3071],[-103,133]],[[3224,6179],[123,0],[137,0],[170,-2],[11,3],[123,-2],[35,1],[6,-3],[198,-1],[183,-1],[127,1],[195,0],[216,-3],[-2,-127],[-2,-128],[-1,-256],[0,-192],[0,-40],[0,-280],[1,-256]],[[4744,4893],[-283,1],[-236,1],[-136,-1],[-143,0],[0,8],[-27,0],[-256,-5]],[[3663,4897],[-281,1],[-138,0]],[[3574,5610],[34,9],[135,4],[0,-9],[-7,-48],[30,4],[12,50],[-27,0],[5,45],[14,0],[-1,-7],[21,-1],[2,9],[60,2],[7,21],[39,-12],[3,-8],[39,1],[-1,52],[46,-15],[22,6],[9,21],[-1,56],[25,-1],[-1,130],[-80,0],[-22,5],[1,-121],[-36,-1],[-8,9],[-37,-14],[-25,-3],[-8,-36],[-130,39],[-3,-40],[-29,9],[0,-58],[-12,-18],[-11,-11],[-1,-15],[-44,0],[-20,-54]],[[1725,1599],[179,3],[128,2],[161,0],[74,2],[37,-1],[73,-2],[61,-1],[144,-6],[74,0]],[[2656,1596],[273,4]],[[2929,1600],[30,-146],[11,-34],[15,-31],[9,-33],[3,-25],[0,-25],[1,-117],[-1,-224],[-2,-24],[-10,-26],[-19,-23],[-41,-38],[-16,-20],[-16,-25],[-7,-14],[-24,-93],[205,-2],[-2,-197],[12,-32],[15,-18],[12,-22],[26,-62],[4,-18],[-2,-225],[-2,-77]],[[3130,49],[-60,1],[-245,0],[-223,1],[-252,-1],[-195,-2],[-182,-2],[-180,-3],[-74,-2],[-80,-1],[-171,-3],[-50,-3]],[[844,6172],[-5,-19],[-1,-14],[14,-53],[-1,-13],[-7,-39],[-1,-138],[1,-127],[1,-155],[-1,-229],[-268,-3],[-1,-2],[1,-66],[13,-35],[-5,-39]],[[17,5228],[-2,211],[2,5],[0,189],[1,150],[1,157],[2,125],[1,82],[3,2],[171,4],[316,8],[170,5],[142,4],[20,2]],[[2627,3644],[261,-1],[19,2],[353,1],[22,-1],[124,0],[47,2],[240,3]],[[3693,3650],[1,-257],[2,-18],[2,-244]],[[3698,3131],[-10,0],[0,-46],[1,-172],[2,-136]],[[3691,2777],[6,-66],[1,-40],[0,-38],[-33,-2],[-43,1]],[[3622,2632],[-358,3]],[[3264,2635],[-1,86],[-2,186],[-43,17],[10,10],[17,0],[8,8],[17,-4],[35,2],[16,-1],[41,38],[14,29],[-5,13],[0,16],[5,8],[-42,28],[-149,87],[-37,23],[-31,23],[-42,39]],[[3075,3243],[-55,52],[-67,62],[-50,40],[-31,23],[-122,87],[-44,28],[-77,42]],[[2629,3577],[-2,67]],[[2282,3645],[4,1],[106,1],[23,-2],[110,0],[102,-1]],[[2629,3577],[1,-59],[-135,0],[-43,-1],[49,-106],[65,-144],[10,-13],[29,-12],[-10,-24],[4,-23]],[[2599,3195],[-22,-7]],[[2577,3188],[-35,1],[-23,6],[-31,10],[-32,1],[-13,-7],[-19,-32],[-7,-29],[-4,-6]],[[2361,2895],[-112,-131]],[[2249,2764],[-78,-89],[-35,-42]],[[2136,2633],[-63,1],[-143,-5],[-207,-3],[2,60],[-1,67]],[[3075,3243],[-4,-6],[-6,-33],[6,-18],[-3,-23],[-5,-6],[-17,-5],[-8,-9],[0,-18],[-25,-11],[-27,-5],[-18,34],[-8,1],[-11,-13],[-17,-7],[-18,1],[-20,6],[-15,0],[-10,-8],[-3,-10],[-9,-10],[-12,0],[-28,22],[-10,-4],[-13,3],[-45,1]],[[2611,3204],[-12,-9]],[[2836,2932],[73,-63],[98,-76],[35,-28],[85,-66],[85,-64]],[[3212,2635],[-115,1],[-100,-2],[-85,-3],[-5,3],[-61,0],[-5,1]],[[2841,2635],[-3,75],[0,52]],[[2525,2633],[29,100],[11,33],[-5,0]],[[2560,2766],[-2,113],[0,44]],[[2558,2923],[18,0]],[[2576,2923],[33,0],[1,3],[34,0],[-1,6],[28,-1]],[[2841,2635],[-80,-1],[-54,0]],[[2707,2634],[-182,-1]],[[2494,2923],[64,0]],[[2560,2766],[-162,0],[-149,-2]],[[3698,3131],[55,6],[14,-5],[26,0],[197,0],[65,-1],[154,0],[216,-5],[71,-1],[206,2],[73,1]],[[4775,3128],[0,-2],[2,-166],[4,-324],[2,-127],[0,-34],[2,-97],[4,-149],[6,-370]],[[4795,1859],[-149,75],[-50,31],[-36,27],[-62,0],[5,-11],[-24,-40],[-12,-12],[-3,32],[-22,-3],[-47,23],[-18,6],[-18,14],[-9,11],[-26,18],[-23,4],[-16,-7],[-17,-1],[-32,3],[-3,173],[0,48],[-40,31],[-28,26],[-131,130],[-95,95],[-95,94],[-55,55],[-98,96]],[[4795,1859],[0,-6],[4,-207],[0,-35],[-11,-8]],[[4788,1603],[-476,-1],[-71,4],[-106,0],[-55,1],[-91,-4],[-135,-1],[-85,0]],[[3769,1602],[0,62],[13,5],[8,82],[14,109],[-98,-1],[-77,1],[-2,128],[-1,138],[-1,109],[-2,85],[0,224],[-1,88]],[[3212,2635],[52,0]],[[3769,1602],[-629,-1],[-211,-1]],[[2656,1596],[-1,82],[-4,168],[1,140],[11,0],[-3,127],[-16,2],[-8,260],[-12,67],[9,10],[4,13],[64,-1],[4,9],[29,0],[-12,80],[-15,81]],[[2136,2633],[52,-1],[167,2],[22,1],[108,0],[40,-2]],[[2672,3036],[-15,0],[0,13],[-81,1]],[[2576,3050],[1,138]],[[2576,3050],[-80,0]],[[844,6172],[169,-1],[131,-1],[279,0],[270,1]],[[1693,6171],[0,-135],[0,-115],[1,-268],[0,-143],[-1,-113],[1,-69],[0,-187]],[[1694,5141],[-55,-1],[-255,-2],[-76,-1],[-156,-3],[-88,-1],[-219,-3],[1,-90]],[[2576,2923],[0,127]],[[4744,4893],[2,-128],[-2,-128],[8,1],[3,-188],[4,-308],[7,-496],[1,-111],[2,-148],[1,-58],[0,-73],[2,-123],[3,-5]],[[3693,3650],[-4,388],[-1,188],[-1,34],[-3,179],[-1,52],[-1,143],[-16,6],[0,18],[-3,187],[0,52]],[[2265,4898],[80,0],[235,-4],[21,-3],[150,2]],[[1125,4623],[76,2],[5,2],[198,2]],[[1693,6171],[278,4],[19,3],[169,1],[354,2]],[[1695,4896],[-1,245]],[[4788,1603],[-2,-5],[-1,-102],[-1,-107],[-3,-4],[0,-74],[3,-103],[-2,-296],[0,-216],[-2,-272],[-4,-374],[-565,-2],[-152,-1],[-222,0],[-147,-1],[-136,1],[-176,0],[-248,2]]],"transform":{"scale":[0.00006754532194207191,0.00005688096393336559],"translate":[-85.95322,39.347373]},"objects":{"Geometry\\18-145":{"type":"GeometryCollection","geometries":[{"arcs":[[0,1,2]],"type":"Polygon","properties":{"GEOID":"181457106013"}},{"arcs":[[-2,3,4,5]],"type":"Polygon","properties":{"GEOID":"181457106021"}},{"arcs":[[6,7,8,9,10,11]],"type":"Polygon","properties":{"GEOID":"181457107004"}},{"arcs":[[12,13,14,15,16,17]],"type":"Polygon","properties":{"GEOID":"181457102005"}},{"arcs":[[-17,18,19,20,21,22,23]],"type":"Polygon","properties":{"GEOID":"181457108005"}},{"arcs":[[-23,24,25]],"type":"Polygon","properties":{"GEOID":"181457109001"}},{"arcs":[[26,27,28,29]],"type":"Polygon","properties":{"GEOID":"181457101003"}},{"arcs":[[30,31,32,33,34,-19,-16]],"type":"Polygon","properties":{"GEOID":"181457103003"}},{"arcs":[[35,36,37,-13,38]],"type":"Polygon","properties":{"GEOID":"181457102004"}},{"arcs":[[39,40,-9,41]],"type":"Polygon","properties":{"GEOID":"181457106014"}},{"arcs":[[42,43,44,-28],[45]],"type":"Polygon","properties":{"GEOID":"181457101001"}},{"arcs":[[-22,46,47,48,49,-25]],"type":"Polygon","properties":{"GEOID":"181457109003"}},{"arcs":[[50,-36,51]],"type":"Polygon","properties":{"GEOID":"181457102001"}},{"arcs":[[52,53,54,55,56,57,58,59]],"type":"Polygon","properties":{"GEOID":"181457104001"}},{"arcs":[[60,-60,61,62,63,-3,-6,64,65,66,-20,-35]],"type":"Polygon","properties":{"GEOID":"181457104002"}},{"arcs":[[-59,67,-40,68,-62]],"type":"Polygon","properties":{"GEOID":"181457105001"}},{"arcs":[[69,70,71,-11]],"type":"Polygon","properties":{"GEOID":"181457105002"}},{"arcs":[[72,73,74,75,-12,-72,76,77]],"type":"Polygon","properties":{"GEOID":"181457107001"}},{"arcs":[[-5,78,-74,79,-65]],"type":"Polygon","properties":{"GEOID":"181457107002"}},{"arcs":[[80,81,82,-55]],"type":"Polygon","properties":{"GEOID":"181457108001"}},{"arcs":[[-56,-83,83,84,85]],"type":"Polygon","properties":{"GEOID":"181457108002"}},{"arcs":[[-77,-71,86,-57,-86,87,-48,88]],"type":"Polygon","properties":{"GEOID":"181457108003"}},{"arcs":[[-67,89,-78,-89,-47,-21]],"type":"Polygon","properties":{"GEOID":"181457108004"}},{"arcs":[[-80,-73,-90,-66]],"type":"Polygon","properties":{"GEOID":"181457107003"}},{"arcs":[[-63,-69,-42,-8,90,91]],"type":"Polygon","properties":{"GEOID":"181457106012"}},{"arcs":[[-64,-92,92,-1]],"type":"Polygon","properties":{"GEOID":"181457106011"}},{"arcs":[[93,94,95,-37,-51]],"type":"Polygon","properties":{"GEOID":"181457102002"}},{"arcs":[[-91,-7,-76,96]],"type":"Polygon","properties":{"GEOID":"181457106022"}},{"arcs":[[-44,97,-81,-54,98]],"type":"Polygon","properties":{"GEOID":"181457103001"}},{"arcs":[[99,-29,-45,-99,-53,-61,-34]],"type":"Polygon","properties":{"GEOID":"181457103002"}},{"arcs":[[100,-31,-15]],"type":"Polygon","properties":{"GEOID":"181457103004"}},{"arcs":[[-46]],"type":"Polygon","properties":{"GEOID":"181457101002"}},{"arcs":[[101,-30,-100,-33,102,-95]],"type":"Polygon","properties":{"GEOID":"181457101004"}},{"arcs":[[-103,-32,-101,-14,-38,-96]],"type":"Polygon","properties":{"GEOID":"181457102003"}},{"arcs":[[-88,-85,103,-49]],"type":"Polygon","properties":{"GEOID":"181457109002"}},{"arcs":[[-93,-97,-75,-79,-4]],"type":"Polygon","properties":{"GEOID":"181457106023"}},{"arcs":[[-68,-58,-87,-70,-10,-41]],"type":"Polygon","properties":{"GEOID":"181457105003"}}]}}}