{"type":"Topology","arcs":[[[1255,2862],[37,0],[-1,-28],[52,-1],[167,2]],[[1510,2835],[0,-52],[1,-108],[-3,-99]],[[1508,2576],[-137,-1],[-71,1],[-45,0]],[[1255,2576],[0,194],[0,92]],[[1256,2922],[-1,-60]],[[1255,2576],[-1,-169],[-2,-2],[-39,-1],[-3,-3],[1,-100],[0,-68],[-48,-1],[-156,0],[-86,1],[-95,1]],[[826,2234],[109,334],[32,97],[8,21],[17,31],[137,185],[13,15],[11,5],[24,1],[79,-1]],[[2657,2057],[168,0],[0,86],[169,-1],[0,-85],[170,-1],[170,-1],[106,0],[90,1],[138,0],[101,0],[210,-1],[28,1]],[[4007,2056],[0,-33],[-2,-290],[1,-32],[0,-140],[-1,-93],[-1,-92],[0,-70],[0,-109],[-1,-20],[1,-144],[-1,-7],[0,-167],[-1,-233],[0,-119],[2,-6],[0,-156],[0,-120],[1,-65],[-1,-95],[0,-59],[-4,-4],[-31,0],[-5,-2],[-100,1],[-27,1],[-245,1],[-90,-2],[0,2],[-147,1],[-190,0],[-168,2]],[[2997,6],[0,65],[0,190],[-1,93],[-1,280],[0,61],[-1,177],[0,96],[1,225],[-214,3],[-81,0],[-43,0],[-1,96],[0,139],[-1,104],[-1,237],[0,139],[3,146]],[[1256,2922],[85,-1],[1,45],[-1,61],[-1,186]],[[1340,3213],[173,-1],[117,0],[45,0],[4,-3],[1,-112],[-1,-92],[-85,1],[0,-86]],[[1594,2920],[-84,0],[0,-85]],[[1594,2920],[52,-1],[111,0],[83,1],[37,-1],[37,-2],[117,0],[122,-1],[-1,69],[-3,93],[2,6],[121,1],[46,-1],[149,0],[21,1],[111,0],[227,0],[-1,107],[-1,41],[0,158],[0,203],[-1,87],[-15,5],[-6,5],[-1,78],[15,3],[10,11],[1,8],[-5,24],[-1,150],[-1,149]],[[2820,4114],[81,0],[52,0],[43,0],[61,-1],[297,-1],[95,1],[160,-1],[61,0],[130,0],[49,-1],[153,0],[0,-65],[1,-19],[-1,-259],[-1,-49],[1,-122],[-1,-343],[1,-58],[0,-113],[2,-195],[0,-88],[0,-81],[0,-171],[1,-136],[1,-185],[0,-140],[1,-31]],[[2657,2057],[-112,-1],[-157,1],[-234,0],[-44,0],[-97,1],[1,98],[1,227],[1,181],[0,15],[-20,13],[-9,3],[-34,-2],[-41,3],[-18,4],[-37,16],[-19,2],[-5,-41],[-2,-3],[-154,1],[-117,1],[-52,0]],[[11,2923],[61,-3],[103,0],[209,1],[128,0],[168,4],[67,0],[51,-2]],[[798,2923],[0,-66],[0,-97],[-9,-10],[-35,2],[1,-89],[-1,-43],[-1,-36],[7,-5],[44,0],[-2,-78],[-1,-7],[-22,-74],[-13,-24],[-11,-36],[-1,-126],[72,0]],[[826,2234],[-62,-188],[-34,-104],[-6,-13],[19,7],[67,-1],[27,1],[3,-3],[1,-27],[0,-57],[56,-1],[49,-1],[62,-1],[0,-171],[0,-89],[0,-180],[0,-33],[117,0],[41,1],[3,-246],[1,-92],[8,-6]],[[1178,1030],[-81,0],[-81,-1],[-93,0],[-178,-1],[-163,1],[-55,1],[-166,0],[-126,1],[-93,0],[-97,1],[-5,2],[-36,1]],[[4,1035],[2,58],[2,139],[0,157],[-3,104],[0,49],[-1,12],[1,245],[-1,7],[3,164],[-1,48],[-1,2],[1,130],[-2,56],[1,67],[-3,66],[0,25],[3,180],[0,35],[6,158],[0,186]],[[2997,6],[-37,0],[-291,1],[-198,-1],[-181,1],[-127,0],[-27,-1],[-32,1],[-97,0]],[[2007,7],[1,69],[-1,97],[1,87],[0,78],[2,111],[0,65],[-1,163],[1,227],[0,65],[1,152],[0,78],[-75,1],[-90,1],[-136,-1],[-208,1],[1,-166],[-1,-9],[-26,4],[-14,-1],[-225,0],[-59,1]],[[1340,3213],[-1,87],[-168,0],[1,-198],[-5,-5],[-19,-9],[-19,-3],[-113,0],[-4,0],[30,-34],[12,-15],[21,-31],[-55,-1],[-72,1],[-13,-1],[-10,-10],[-4,-11],[0,-37],[-11,-19],[-17,-8],[-47,1],[-48,3]],[[11,2923],[0,81],[-1,31],[-2,400],[-3,536],[0,91],[6,15],[-1,47],[21,0],[157,-1],[54,-1],[173,0],[106,-1],[85,0],[236,-2],[170,-2],[325,0],[87,-1],[85,1],[360,-1],[87,0],[7,0],[273,-1],[56,0],[175,0],[57,1],[136,0],[5,-1],[40,-2],[18,2],[61,0],[36,-1]],[[2007,7],[-81,0],[-2,-1],[-266,-2],[-59,2],[-234,2],[-67,0],[-126,1],[-57,0],[-10,-2],[-32,2],[-34,1],[-105,0],[-285,3],[-65,-1],[-182,1],[-281,1],[-114,1],[-7,1],[0,82],[1,89],[0,87],[0,111],[1,61],[0,205],[3,55],[-3,16],[1,191],[1,122]]],"transform":{"scale":[0.00011374544547042552,0.00008422308438409448],"translate":[-95.155851,41.157903]},"objects":{"Geometry\\19-029":{"type":"GeometryCollection","geometries":[{"arcs":[[0,1,2,3]],"type":"Polygon","properties":{"GEOID":"190291904002"}},{"arcs":[[4,-4,5,6]],"type":"Polygon","properties":{"GEOID":"190291905001"}},{"arcs":[[7,8,9]],"type":"Polygon","properties":{"GEOID":"190291903002"}},{"arcs":[[10,11,12,-1,-5]],"type":"Polygon","properties":{"GEOID":"190291904001"}},{"arcs":[[-13,13,14,-8,15,-2]],"type":"Polygon","properties":{"GEOID":"190291901002"}},{"arcs":[[16,17,18,19,20]],"type":"Polygon","properties":{"GEOID":"190291902001"}},{"arcs":[[-6,-3,-16,-10,21,22,-19]],"type":"Polygon","properties":{"GEOID":"190291903001"}},{"arcs":[[-14,-12,23,-17,24]],"type":"Polygon","properties":{"GEOID":"190291901001"}},{"arcs":[[-20,-23,25]],"type":"Polygon","properties":{"GEOID":"190291902002"}},{"arcs":[[-24,-11,-7,-18]],"type":"Polygon","properties":{"GEOID":"190291905002"}}]}}}