{"type":"Topology","arcs":[[[6908,2146],[0,-3],[0,-239],[-2,-182],[1,-208],[1,-268],[-2,-175],[1,-34],[2,-13],[1,-124],[-1,-179]],[[6909,721],[-267,-1],[-307,-1],[-288,-2],[-1,184],[-2,341],[73,0],[-2,174],[-1,351],[207,1],[10,11],[-1,72],[5,5],[139,-1],[0,175],[0,113],[59,0],[41,1],[24,0],[163,1],[147,1]],[[3181,3266],[71,0],[0,21],[87,0]],[[3339,3287],[54,1],[0,-88]],[[3393,3200],[-36,0],[0,-22]],[[3357,3178],[-71,0],[0,21],[-17,1],[0,-22],[-35,-2],[-65,0]],[[3169,3176],[-95,0],[12,13],[15,40],[10,12],[9,2],[61,1],[0,22]],[[3297,3877],[-9,-229],[0,-54],[0,-210],[-54,0],[0,-42],[88,0],[0,-22],[17,0]],[[3339,3320],[0,-33]],[[3181,3266],[-89,-1],[-17,115],[-6,34],[-12,37],[-21,24],[-84,71],[0,68],[2,51],[7,161],[1,48],[59,1],[276,2]],[[3297,3877],[82,-1],[2,1]],[[3381,3877],[1,-110],[1,-100],[4,-131]],[[3387,3536],[6,-138]],[[3393,3398],[-1,-22],[-53,-1],[0,-55]],[[3357,3178],[1,-110],[35,1]],[[3393,3069],[-1,-18],[-5,-35]],[[3387,3016],[-3,-15],[1,-67],[2,-43],[23,-214],[5,-45],[13,-90]],[[3428,2542],[15,-89],[3,-30],[8,-122],[-104,0],[0,42],[0,129],[-6,4],[-61,0],[-185,1]],[[3098,2477],[-1,58],[1,202],[71,2],[0,87],[0,175],[-36,0],[1,41],[4,3],[31,0],[0,131]],[[3,7319],[15,-1],[78,18],[43,8],[26,7],[43,8],[15,-2],[21,-13],[12,-12],[33,-42],[37,-34],[40,-42],[29,-29],[23,-24],[18,-17],[15,-18],[24,-22],[56,-38],[9,-10],[27,-16],[17,-15],[34,-25],[11,-6],[33,-25],[26,-22],[18,-20],[9,-19],[9,-31],[30,-59],[32,-43],[11,-19],[8,-10],[20,-16],[45,100],[15,19],[14,11],[32,15],[109,44],[16,9],[8,11],[6,15],[2,14],[0,38],[73,0],[68,1],[69,0],[79,1],[0,88],[-1,189],[7,9],[46,7],[87,11],[6,-6],[0,-30],[3,-5],[130,0],[12,-1],[0,-74],[4,-10],[11,-3],[58,0],[275,3],[1,176],[274,3],[276,1],[13,4],[13,21],[1,39],[9,17],[12,7],[311,0],[243,2],[180,0],[109,2],[132,0],[205,-2],[83,0],[219,-4],[171,5],[136,0],[19,4],[13,8],[14,18],[7,24]],[[4440,7511],[-2,-134],[2,-14],[16,-83],[28,-108],[13,-53],[9,-65],[2,-17],[7,-17],[1,-123],[1,-43],[0,-94],[1,-314],[-1,-114],[3,-9],[-372,-1],[-134,-1],[-147,0],[-294,-1],[-183,0],[-90,-2]],[[3300,6318],[0,175],[-1,176],[-144,-1],[-290,-1],[1,-252],[0,-90],[-3,-9],[-96,-1],[-341,-2],[-150,-1],[-138,-1],[-225,-2],[-8,-1],[-29,-9],[-17,-2],[-48,13],[-121,-1],[-1,-84],[-2,-83],[1,-22],[8,-36],[7,-104],[0,-19],[-6,-18],[-10,-15],[-20,-21],[-10,-18],[-3,-16],[1,-133],[-50,40],[-19,12],[-23,27],[-17,11],[-20,7],[-29,7],[-16,7],[-30,18],[-18,8],[-71,11],[-28,8],[-32,5],[-19,7],[-25,5],[-35,4],[-7,-2],[-57,9],[-19,-3],[-15,6],[-30,30],[-26,-11],[-30,-27],[-49,-24],[-18,11],[-7,-10],[0,-10],[-15,-29],[-27,-33],[-6,-16],[-10,-6],[-53,-4],[5,37],[2,57],[-1,77],[-158,-3],[-132,-1],[-73,1],[-72,0],[-16,10],[-22,-9],[-107,0],[-272,-12]],[[8,5955],[-1,346],[-1,115],[-1,252],[1,158],[-1,172],[-2,127],[0,194]],[[3393,3200],[54,1]],[[3447,3201],[70,0]],[[3517,3201],[1,-86],[-125,0],[0,-46]],[[3387,3536],[59,1],[0,-50],[-1,-24],[18,0],[0,-24],[49,1],[39,0],[1,-24],[0,-94]],[[3552,3322],[-88,0]],[[3464,3322],[-1,76],[-17,0],[0,28],[-35,1],[0,-29],[-18,0]],[[4440,7511],[0,99],[6,36],[60,168],[14,27],[32,44],[14,14],[21,16],[21,22],[12,20],[19,43],[23,36],[54,64],[8,16],[6,32],[-1,100],[-1,161]],[[4728,8409],[244,2],[31,-1],[55,1],[42,-1],[26,1],[77,1],[152,1],[74,-2],[14,-3],[62,2],[59,0],[136,4],[104,0],[72,1],[166,1],[193,-1],[100,1],[119,0],[199,2],[16,-1],[76,1],[73,0],[67,1],[-1,-230],[1,-514],[3,-674],[2,-668],[0,-106],[1,-119],[1,-302],[1,-198],[1,-200],[-1,-53],[1,-77],[1,-147],[0,-148],[0,-236],[1,-168]],[[6896,4579],[-200,-1],[-2,162],[-30,11],[-143,-1],[-11,-15],[-14,17],[-24,24],[-11,6],[-17,-4],[-8,7],[0,9],[6,18],[0,11],[-17,12],[-6,-1],[-28,10],[-18,-5],[-44,-7],[-13,1],[0,-66],[1,-187],[-360,1],[-13,-8],[11,-31],[2,-18],[3,-121],[-99,3],[-36,0],[-12,-6],[-26,-34],[-11,-6],[-61,9],[-35,5],[-10,9],[-6,21],[-12,3],[-94,-4],[-37,-2],[-136,-2],[-144,-1],[-72,-2],[-287,-1],[-68,1],[-76,-1],[-422,-1],[-9,1],[-22,13],[-47,8],[-12,5],[-5,-7],[-85,-106],[-23,-26],[-94,-55],[-23,-8],[-120,-1]],[[3876,4218],[-146,0],[-81,0],[-244,0],[-67,0]],[[3338,4218],[-6,21],[-12,33],[-19,43],[-28,82],[-26,92],[-23,90],[-10,44],[-3,25],[3,25],[15,90],[4,47],[-1,107],[0,175],[0,88],[-2,129],[0,54],[0,181],[-1,194],[1,144],[-1,33],[3,24],[8,19],[9,12],[30,31],[14,21],[5,13],[3,21],[0,88],[-1,174]],[[2081,4212],[42,-2],[20,1],[51,0],[5,2],[317,0],[71,0],[135,2],[60,1],[93,-1],[135,1],[149,0],[179,2]],[[3338,4218],[5,-57],[4,-27],[8,-32],[12,-44],[8,-34],[6,-42],[0,-105]],[[3098,2477],[-70,0],[-31,-1],[-38,0],[-4,-4],[-1,-172],[-35,0],[-17,15],[-20,8],[0,-18],[-6,-22],[-10,-26],[-24,-55],[-21,-59],[-6,-10],[-13,-6],[-53,0],[-9,-7],[0,-85],[-1,-15],[-7,-28],[-21,-51],[-9,-5],[-33,-1],[-72,1],[-92,-1],[-69,0],[-13,8],[-12,20],[-26,19],[-12,3],[-27,-1],[-13,-4],[-23,-11]],[[2310,1969],[1,124],[-2,46],[-2,156],[0,121],[0,58],[-2,175],[-1,163],[-7,13],[-54,-1],[-11,9],[-1,10],[0,193],[-170,26],[-46,6],[0,236],[0,45],[47,-3],[89,9],[7,10],[-1,247],[0,88],[-64,0],[-1,169],[-9,11],[-1,243],[-1,89]],[[3876,4218],[-1,-3],[3,-426],[0,-179],[0,-82],[0,-265]],[[3878,3263],[-72,2],[-115,1],[-68,-1],[-32,2]],[[3591,3267],[0,55],[-39,0]],[[19,1576],[110,2],[56,0],[164,1],[243,1],[73,-1],[99,0],[15,11],[23,63],[12,14],[67,0],[285,2],[137,1],[7,-1],[0,-42],[2,-215],[5,-5],[78,0],[44,-19],[11,-7],[6,-13],[0,-131],[3,-6],[105,2],[109,-1],[349,1],[-2,352],[-1,175],[-1,119],[-2,102],[0,24],[85,-8],[17,-3],[29,-13],[14,-1],[25,4],[14,-2],[28,-13],[12,-2],[70,2]],[[3428,2542],[22,1],[9,-10],[8,-1],[14,-17],[9,-37],[31,-1],[8,-5],[39,-12],[13,-13],[10,-14],[0,125],[5,7],[66,-1],[72,1],[237,0],[5,4],[47,-50]],[[4023,2519],[77,-83],[42,-44],[175,-187],[68,-73],[130,1],[160,-1],[71,0],[3,1],[69,0],[70,1],[131,1],[35,1],[122,2],[1,-376],[2,-700],[0,-174],[1,-175],[2,-349],[0,-265],[0,-56],[8,-32]],[[5190,11],[-291,-1],[-100,1],[-47,0],[-70,-2],[-356,2],[-114,0],[-180,-1],[-269,1],[-90,-2],[-30,-3],[-78,0],[-102,3],[-24,-1],[-61,0],[-133,0],[-38,-1],[-7,2],[-96,0],[-48,-1],[-95,0],[-73,0],[-36,1],[-252,-1],[-196,-1],[-520,0],[-136,1],[-144,-1],[-240,-2],[-278,0],[-70,-1],[-246,-2],[-47,-2],[-144,0],[-149,2],[-118,0],[-214,-1],[-72,-1],[-2,448],[0,207],[-1,55],[0,86],[-1,103],[-1,151],[1,73],[-2,277],[-1,176]],[[6896,4579],[1,-103],[0,-88],[0,-45],[1,-115],[0,-248],[0,-19],[0,-162],[1,-62],[0,-55],[1,-139],[1,-280],[1,-420],[1,-95],[-1,-125],[3,-113],[1,-133],[1,-227],[1,-4]],[[6909,721],[1,-110],[0,-72],[2,-53],[2,-107],[-1,-72],[-3,-36],[2,-249],[-26,0],[-261,-1],[-131,-2],[-473,-3],[-457,-2],[-374,-3]],[[4023,2519],[6,17],[-6,90],[-1,37],[-1,198]],[[4021,2861],[0,96],[-3,46],[-1,71],[1,43],[3,60],[1,87],[-99,-2],[-45,1]],[[2081,4212],[-215,0],[-138,0],[-284,-1],[-117,0],[-5,1],[-47,-2],[-20,1],[-103,-1],[-359,-1],[-242,-1],[-155,-1],[-138,-1],[-51,0],[-11,5],[-14,16],[-32,29],[-79,70],[-17,8],[-13,2],[-28,1]],[[13,4337],[-2,152],[1,61],[-3,270],[2,4],[-1,82],[0,349],[-1,231],[2,52],[-2,67],[-1,350]],[[3591,3267],[0,-43]],[[3591,3224],[-74,-1],[0,-22]],[[3447,3201],[0,120],[17,1]],[[3,7319],[0,380],[0,303],[-2,86],[0,89],[-1,37],[1,47],[0,133],[151,2],[294,0],[28,1],[78,0],[106,1],[123,0],[68,0],[58,0],[64,0],[101,2],[73,0],[137,0],[24,-1],[189,0],[16,3],[304,-2],[36,-1],[44,0],[373,4],[113,1],[40,2],[83,0],[73,1],[69,-1],[246,0],[262,3],[66,0],[81,-5],[66,2],[37,3],[120,0],[55,0],[72,1],[66,-1],[119,0],[86,1],[87,0],[95,0],[95,-1],[137,1],[170,0],[77,-1],[62,0],[48,0],[35,0]],[[3387,3016],[43,-4],[35,-6],[34,-3],[19,1],[0,40],[72,0],[1,3]],[[3591,3047],[73,0],[0,-19],[47,-22],[72,-32],[25,-7],[73,-23],[62,-32],[17,-19],[8,-5],[53,-27]],[[19,1576],[-1,350],[-2,184],[-4,39],[-1,220],[-2,104],[0,130],[-1,152],[0,337],[2,159],[0,64],[2,385],[-1,24],[1,87],[1,157],[0,69],[0,300]],[[3591,3224],[-1,-87],[1,-90]]],"transform":{"scale":[0.00006673459647092711,0.00004139446490081974],"translate":[-92.871473,41.161048]},"objects":{"Geometry\\19-123":{"type":"GeometryCollection","geometries":[{"arcs":[[0,1]],"type":"Polygon","properties":{"GEOID":"191239501001"}},{"arcs":[[2,3,4,5,6]],"type":"Polygon","properties":{"GEOID":"191239507003"}},{"arcs":[[7,8,-3,9]],"type":"Polygon","properties":{"GEOID":"191239506002"}},{"arcs":[[10,11,12,13,-8]],"type":"Polygon","properties":{"GEOID":"191239506003"}},{"arcs":[[-6,14,15,16,17,18]],"type":"Polygon","properties":{"GEOID":"191239507001"}},{"arcs":[[19,20,21,22]],"type":"Polygon","properties":{"GEOID":"191239502002"}},{"arcs":[[23,24,25,-15,-5]],"type":"Polygon","properties":{"GEOID":"191239507002"}},{"arcs":[[26,27,28,-13]],"type":"Polygon","properties":{"GEOID":"191239504002"}},{"arcs":[[-21,29,30,31,32,33]],"type":"Polygon","properties":{"GEOID":"191239501003"}},{"arcs":[[34,35,-11,-10,-7,-19,36,37]],"type":"Polygon","properties":{"GEOID":"191239503003"}},{"arcs":[[38,39,40,-27,-12,-36,-33]],"type":"Polygon","properties":{"GEOID":"191239504001"}},{"arcs":[[41,-37,-18,42,43,44]],"type":"Polygon","properties":{"GEOID":"191239503001"}},{"arcs":[[-32,45,-2,46,-44,47,48,-39]],"type":"Polygon","properties":{"GEOID":"191239501002"}},{"arcs":[[-22,-34,-35,49,50]],"type":"Polygon","properties":{"GEOID":"191239502001"}},{"arcs":[[-28,-41,51,52,-25,53]],"type":"Polygon","properties":{"GEOID":"191239504003"}},{"arcs":[[-30,-20,54]],"type":"Polygon","properties":{"GEOID":"191239502003"}},{"arcs":[[55,56,-48,-43,-17]],"type":"Polygon","properties":{"GEOID":"191239505002"}},{"arcs":[[-50,-38,-42,57]],"type":"Polygon","properties":{"GEOID":"191239503002"}},{"arcs":[[-26,-53,58,-56,-16]],"type":"Polygon","properties":{"GEOID":"191239505001"}},{"arcs":[[-52,-40,-49,-57,-59]],"type":"Polygon","properties":{"GEOID":"191239505003"}},{"arcs":[[-29,-54,-24,-4,-9,-14]],"type":"Polygon","properties":{"GEOID":"191239506001"}}]}}}