{"type":"Topology","arcs":[[[2730,1034],[205,16],[36,-1],[128,-3],[81,-3],[35,-3],[63,-11],[30,-4],[76,-15],[37,-1],[15,2],[73,18],[36,3],[32,-3],[273,-1]],[[3850,1028],[-2,-93],[-1,-377],[0,-364],[-1,-14],[1,-79],[-2,-86],[2,-15],[-147,0],[-177,1],[-38,1],[-183,0],[-60,0],[-99,0],[-6,-2],[-310,1],[-100,2]],[[2727,3],[2,187],[3,187],[0,197],[1,92],[2,83],[-2,110],[0,79],[-3,96]],[[2084,1305],[0,23],[158,-82],[142,-74],[9,-5],[74,-39],[49,-24],[51,-27],[78,-41],[21,-6],[13,0],[51,4]],[[2727,3],[-160,0],[-161,1]],[[2406,4],[1,142],[0,32],[2,299],[3,186],[0,89],[-85,1],[-242,-1],[2,95],[1,89],[-7,179],[3,190]],[[1361,1680],[2,-250]],[[1363,1430],[-30,0],[0,-32],[-130,1],[-82,1]],[[1121,1400],[0,87],[2,127],[92,6],[66,-1],[0,62],[80,-1]],[[1363,1430],[0,-78],[-1,-46],[0,-93]],[[1362,1213],[1,-92],[-1,-37],[-80,0],[-2,-22],[-40,-1],[-35,7],[-4,-17],[-6,-2],[-17,-23],[-28,-2],[-29,2],[-12,-7],[1,-9],[-9,-8],[-4,11],[3,40],[-1,28],[7,47],[-8,8],[-97,15]],[[1001,1151],[-17,2],[-18,12],[-1,141],[116,0],[35,0],[4,2],[1,92]],[[1363,1430],[59,0]],[[1422,1430],[0,-31],[54,0],[14,8],[22,7],[24,5],[31,-1],[35,-9]],[[1602,1409],[0,-103]],[[1602,1306],[2,-94],[-73,0],[-29,1],[-81,-1],[-59,1]],[[969,3343],[0,-87],[-1,-89],[1,-72],[-1,-294],[-1,-81],[0,-119],[-1,-49],[1,-28],[0,-111],[24,0],[132,1],[263,-2],[61,1],[74,-1],[36,-1],[14,12],[35,0],[0,-200],[56,0],[19,4],[17,0],[24,-4],[82,-1],[125,0]],[[1929,2222],[0,-169],[-1,-213],[0,-237],[0,-105],[0,-34],[0,-159]],[[1928,1305],[-74,-1],[-74,1],[-14,6],[-2,11],[-9,-4],[-6,-13],[-52,1],[-70,-1],[-25,1]],[[1602,1409],[1,31],[0,51],[-14,-3],[-31,4],[-43,0],[7,15],[0,10],[0,162],[-81,1]],[[1441,1680],[-80,0]],[[1001,1151],[0,-32],[-104,0],[-12,0],[-197,-1],[-59,2],[-33,-1],[-87,1],[-179,-1],[-57,2],[-33,-1],[-61,1],[-22,7],[-9,-8],[-146,1]],[[2,1121],[1,187],[2,135],[-2,3],[1,92],[-2,119],[2,22],[0,191],[-2,188],[0,108],[1,211],[0,80],[1,172],[0,165],[1,168],[2,19],[-2,196],[1,77],[-1,96],[49,-1],[128,1],[148,-2],[141,0],[498,-5]],[[969,3343],[132,0],[38,-1],[76,0],[83,0],[69,0],[322,-2],[242,0],[6,-1],[109,-1],[270,-1],[174,-1],[62,0],[180,-2]],[[2732,3334],[1,-176],[1,-82],[0,-105],[-85,1],[3,-188],[-2,-188],[1,-157],[-2,-124],[-122,0],[-36,0],[-164,0],[-40,-2],[-15,2],[-135,0],[-29,-5],[-25,-2],[-1,-85],[-153,-1]],[[2732,3334],[94,-1],[100,0],[33,-1],[31,-2],[10,2],[54,0],[121,-1],[64,0],[224,-2],[56,-2],[256,2],[2,1],[77,0],[0,-182],[0,-92],[-1,-49],[2,-45],[-1,-87],[1,-92],[-1,-122],[0,-67],[1,-25],[-2,-352],[0,-266],[0,-97],[-1,-232],[0,-134],[-1,-162],[1,-21],[-1,-23],[-2,-148],[1,-32],[0,-74]],[[2084,1305],[-86,-1],[-70,1]],[[2406,4],[-160,0],[-132,1],[-2,-2],[-36,2],[-114,0],[-109,1],[-248,0],[-56,1],[-62,0],[-224,1],[-38,1],[-181,0],[-77,1],[-204,1],[-50,0],[-1,-1],[-228,-1],[-161,2],[-182,0],[-141,1],[1,1],[1,80],[0,89],[-1,204],[1,425],[0,310]],[[1441,1680],[1,-122],[-20,0],[0,-66],[0,-62]]],"transform":{"scale":[0.00011867704280155538,0.00007743343283582133],"translate":[-95.384964,40.900624]},"objects":{"Geometry\\19-137":{"type":"GeometryCollection","geometries":[{"arcs":[[0,1,2]],"type":"Polygon","properties":{"GEOID":"191379604003"}},{"arcs":[[3,-3,4,5]],"type":"Polygon","properties":{"GEOID":"191379604002"}},{"arcs":[[6,7,8]],"type":"Polygon","properties":{"GEOID":"191379603002"}},{"arcs":[[-8,9,10,11]],"type":"Polygon","properties":{"GEOID":"191379603001"}},{"arcs":[[12,13,14,15,-10]],"type":"Polygon","properties":{"GEOID":"191379602003"}},{"arcs":[[16,17,18,-15,19,20,-9,-12,21,22]],"type":"Polygon","properties":{"GEOID":"191379601003"}},{"arcs":[[23,24,-17]],"type":"Polygon","properties":{"GEOID":"191379601002"}},{"arcs":[[-25,25,-1,-4,26,-18]],"type":"Polygon","properties":{"GEOID":"191379601001"}},{"arcs":[[-22,-11,-16,-19,-27,-6,27]],"type":"Polygon","properties":{"GEOID":"191379604001"}},{"arcs":[[-21,28,-13,-7]],"type":"Polygon","properties":{"GEOID":"191379602002"}},{"arcs":[[-29,-20,-14]],"type":"Polygon","properties":{"GEOID":"191379602001"}}]}}}