{"type":"Topology","arcs":[[[6702,8158],[121,0],[222,-2],[172,0],[223,-2],[336,0]],[[7776,8154],[4,-265],[1,-123],[0,-68],[2,-199],[0,-339],[2,-185],[0,-120],[1,-207],[43,-2],[1,-98],[-45,0],[1,-75],[-4,-331]],[[7782,6142],[-124,0],[-179,-1],[-105,1],[-223,-1],[-84,0],[-67,1],[-124,1],[-159,-1]],[[6717,6142],[1,172],[0,165],[-2,175],[0,157],[-1,24],[0,230],[0,184],[1,218],[-3,318],[-3,13],[-10,10],[-28,14],[8,13],[33,3],[-5,130],[-6,190]],[[7101,4448],[233,1],[124,0],[0,-140],[0,-199],[3,-170]],[[7461,3940],[-194,-3],[-58,-1]],[[7209,3936],[-4,172],[-103,-1]],[[7102,4107],[-1,115],[0,226]],[[8881,2272],[56,0],[1,-22],[119,1],[4,2],[71,-1],[0,25],[51,0]],[[9183,2277],[0,-170],[-26,-1],[-1,-29],[-80,0],[-22,4],[-63,22],[-46,8],[-42,1],[-22,-2]],[[8881,2110],[0,162]],[[6741,4448],[360,0]],[[7102,4107],[4,-166],[1,-176]],[[7107,3765],[-279,1],[-75,-1]],[[6753,3765],[-3,186],[-5,154]],[[6745,4105],[-4,312],[0,31]],[[7107,3765],[103,0],[-1,171]],[[7461,3940],[2,-179],[0,-129],[2,-206],[-108,0],[-238,-1],[-145,2],[-160,-1],[-60,0]],[[6754,3426],[-1,339]],[[8882,2760],[96,0],[214,-1],[151,0],[249,0]],[[9592,2759],[0,-160],[-1,-133],[-1,-220]],[[9590,2246],[-264,1],[0,29],[-143,1]],[[9183,2277],[1,141],[-303,2]],[[8881,2420],[0,113],[1,128],[0,99]],[[8881,2272],[0,148]],[[9590,2246],[-1,-171]],[[9589,2075],[0,-84],[-1,-276]],[[9588,1715],[-340,1],[-35,1],[-316,14],[-16,0],[0,179],[0,200]],[[4259,8164],[1,-45],[1,-142],[-1,-211],[0,-78],[0,-203],[2,-211],[2,-127]],[[4264,7147],[-274,0],[-82,-1],[6,-340],[107,1],[173,2],[73,0]],[[4267,6809],[3,-202],[-2,-15],[-14,-22],[17,-21],[1,-105],[0,-123],[1,-189],[3,-266],[3,-318],[2,-257],[5,-172],[1,-177],[0,-105],[0,-190],[-2,-195],[1,-347]],[[4286,4105],[2,-178],[2,-162],[1,-226],[3,-400],[3,-219],[3,-132],[2,-190],[2,-258],[-1,-130],[1,-80],[0,-290],[-1,-103],[0,-268],[-1,-128],[-2,-172],[-2,-213],[0,-133],[1,-158],[0,-298],[2,-161],[-2,-192]],[[4299,14],[-184,0],[-107,-2],[-241,-4],[-144,3],[-62,1],[-96,0],[-238,1],[-237,1],[-112,0],[-152,-2],[-187,-1],[-84,1],[-116,1],[-159,2],[-220,-3],[-161,-1],[-45,-1],[-170,0],[-191,-2],[-71,0],[-213,-2],[-124,2],[-53,0],[-189,-4],[-150,-4],[13,42],[-5,12],[-21,5],[-13,9],[-4,15],[13,31],[8,39],[16,29],[5,20],[-6,14],[-15,9],[-18,5],[-22,19],[-10,37],[0,35],[5,24],[11,31],[16,5],[30,-17],[17,-18],[16,-11],[16,2],[26,13],[20,22],[-26,37],[-3,17],[7,22],[8,13],[34,43],[39,54],[15,18],[43,39],[15,11],[21,6],[29,-2],[26,-19],[16,-34],[0,-21],[11,-12],[28,-6],[21,9],[12,15],[3,22],[-2,34],[-7,16],[-25,22],[-17,8],[-13,20],[-5,21],[3,19],[12,19],[41,33],[39,37],[6,25],[11,8],[27,-10],[20,-3],[19,5],[13,8],[7,11],[-1,31],[20,28],[2,24],[-4,9],[-8,33],[-12,39],[2,20],[5,11],[11,6],[27,0],[35,12],[12,14],[9,31],[23,18],[41,3],[16,6],[5,17],[-6,10],[-37,32],[-7,10],[-5,17],[-6,64],[-1,49],[-5,35],[-6,16],[-26,42],[-13,24],[-9,8],[-22,1],[-11,-6],[-31,2],[-38,5],[-48,16],[-35,18],[-7,13],[-4,31],[-13,20],[-23,13],[-18,17],[-15,30],[-7,39],[7,17],[38,-14],[12,3],[15,19],[2,15]],[[983,1705],[96,5],[153,1],[235,2],[266,5],[82,1],[1,340]],[[1816,2059],[0,68],[2,126],[-1,148],[1,168],[4,513],[-314,-2],[-31,0]],[[1477,3080],[9,210],[-5,27],[-7,21]],[[1474,3338],[9,13],[-3,21],[5,30],[14,11],[18,26],[14,8],[17,15],[10,17],[14,16],[20,8],[25,31],[16,12],[35,19],[22,28],[10,8],[28,12],[38,12],[14,-4],[30,-27],[24,-8],[35,-2],[45,14],[18,8],[43,25],[12,9],[8,20],[-6,15],[2,12],[35,19],[6,21],[-19,23],[-1,20],[31,20],[5,12],[0,18],[4,13],[22,24],[6,16],[4,27],[-7,52],[-1,74],[5,16],[20,23],[6,31],[-6,54],[-5,22],[-14,27],[-44,16],[-29,4],[-56,13],[-9,10],[1,14],[10,24],[5,31],[19,19],[8,24],[19,14],[35,1],[17,13],[-7,23],[3,14],[19,4],[13,-7],[21,-4],[15,6],[16,15],[1,7],[-12,7],[-3,8],[4,22],[9,16],[16,-8],[21,10],[4,14],[-1,16],[-7,14],[-2,15],[5,11],[34,13],[12,15],[15,11],[1,6],[-9,15],[6,30],[6,10],[7,32],[17,18],[18,4],[12,6],[16,21],[33,21],[21,21],[16,30],[0,31],[8,28],[27,45],[8,16],[0,19],[-8,16],[-37,12],[-14,8],[-8,10],[-6,18],[-17,26],[-1,20],[6,17],[21,31],[-4,29],[-10,7],[-19,-12],[-14,5],[-5,19],[-4,45],[3,26],[-1,27],[-16,25],[-15,17],[-10,20],[-8,9],[-19,-16],[-13,-2],[-13,3],[-6,10],[6,12],[18,10],[7,11],[-2,12],[-8,12],[-23,23],[-32,62],[-12,4],[-33,-5],[-17,3],[-12,28],[-9,8],[-21,1],[-20,-8],[-21,-11],[-14,0],[-16,5],[-8,14],[8,20],[-4,23],[7,8],[18,4],[3,10],[-7,16],[-26,7],[-12,26],[-13,3],[-14,-13],[5,-11],[-4,-11],[-15,-8],[-17,0],[-11,8],[2,21],[-5,15],[-29,37],[-20,17],[-5,17],[7,6],[27,-6],[14,0],[16,11],[10,13],[3,30],[5,21],[0,17],[-13,6],[-19,-6],[-17,1],[-11,7],[-7,19],[-13,13],[-9,0],[-11,10],[46,33],[14,20],[5,19],[-2,11],[-27,43],[2,15],[7,10],[3,78],[-5,9],[-28,4],[-7,15],[6,25],[11,5],[38,3],[6,4],[7,31],[0,14],[-5,9],[-17,9],[-5,18],[17,25],[6,25],[-11,15],[-4,14],[10,17],[13,37],[4,15],[0,34],[-7,18],[-16,9],[-7,9],[-6,17],[-13,10],[-21,-9],[-17,20],[-3,14],[-9,7],[-9,-2],[-14,-17],[-15,4],[-7,19],[10,18],[-7,22],[-15,19],[-8,17],[-1,16],[9,18],[-3,37],[15,37],[-1,22],[15,20],[-5,23],[-11,18],[-17,21],[-5,26],[-1,26],[-9,15],[-4,18],[2,11],[16,4],[8,15],[13,12],[25,13],[13,12],[-8,18],[7,21],[0,16],[-18,10],[-6,30],[-17,18],[-8,13],[-49,50],[-5,19],[16,31],[3,22],[5,9],[4,30],[-5,31],[2,8],[-2,23],[-27,44],[-13,5],[-10,-3],[-26,6],[-18,18],[-21,8],[-24,-1],[-24,6],[-6,6],[-18,7],[-10,0],[-70,-21],[-27,2],[-5,-3],[-41,0],[-26,4],[-18,7],[-7,-3],[-30,-39],[-22,-20],[-24,-12],[-11,3],[-27,17],[-24,7],[-19,1],[-21,-2],[-29,-13],[-5,-15],[12,-35],[1,-28],[-6,-10],[-16,-3],[-32,12],[-28,21],[-34,3],[-19,-5],[-34,-17],[-38,-1],[-19,4],[-13,13],[-1,14],[1,27],[-19,24],[-24,11],[-3,8],[-45,45],[-13,5],[-17,-2],[-21,3],[-29,19],[-29,28],[-12,0],[-11,14],[-14,5],[-21,12],[-17,-4],[-7,-17],[-29,-11],[-24,-14],[-32,10],[-12,0],[-38,-4],[-14,1],[-28,16],[-21,7],[-26,0],[-43,3],[-28,-3],[-30,-6],[-16,-9],[-5,-9],[-3,-29],[-23,-32],[-20,-10],[-12,8],[-19,47],[-18,14],[-18,20],[-14,19],[-15,40],[-15,25],[-15,11],[-15,1],[-25,12],[-17,33],[-7,42],[11,53],[-1,11],[-9,12],[-29,10],[-6,7],[1,14],[28,26],[20,34],[55,60],[15,7],[31,-14],[20,-4],[28,5],[7,17],[25,19],[32,11],[44,20],[25,16],[19,-1],[38,-17],[14,8],[-8,30],[-27,29],[-7,14],[-2,15],[-19,23],[0,15],[13,18],[-3,13],[-13,23],[1,28],[5,14],[-4,37],[-9,11],[-6,20],[-15,6],[-12,10],[44,0],[126,-4],[5,1],[98,-3],[196,-5],[309,-3],[238,-5],[537,-8],[202,-3],[109,-2],[198,-2],[377,-5],[223,-5],[211,-2],[182,-1],[290,-3],[393,-6],[225,-1]],[[4267,6809],[221,2],[118,0]],[[4606,6811],[2,-176],[0,-161],[199,0],[139,0],[159,3],[30,1],[184,1],[-1,75],[0,264]],[[5318,6818],[-3,191],[0,150],[6,1],[-2,45],[-16,3],[-8,-8],[-40,-13],[-21,-13],[-20,-4],[-17,4],[-19,24],[-10,19],[-53,-6],[-5,4],[-18,29],[1,21],[-6,6],[-8,21],[-16,5],[-23,-9],[-16,-22],[-8,-19],[-4,-32],[-19,-20],[-13,-10],[-8,-17],[-11,-8]],[[4961,7160],[-1,65],[-39,-4],[-70,-19],[-13,-5],[-13,-13],[-11,-16],[-17,-14],[-17,-5],[-297,-1],[-219,-1]],[[4259,8164],[199,0],[263,-2],[95,0],[159,-1],[321,-4],[118,0],[240,1],[153,3],[424,-2],[166,-1],[113,0],[192,0]],[[6717,6142],[-4,-344],[14,-256],[3,-75],[0,-46],[-2,-291],[3,-111],[5,-196],[1,-93],[4,-282]],[[6745,4105],[-155,-1],[-162,-1],[-314,0],[-191,0],[-115,-1],[-163,0],[-88,0],[-327,0],[-79,0],[-397,1],[-103,1],[-365,1]],[[1477,3080],[-10,-396],[0,-27],[6,-42],[22,-113],[4,-45],[0,-58],[51,0],[0,-175],[-2,-71],[0,-94],[85,-1],[121,0],[62,1]],[[983,1705],[-2,11],[-28,26],[-9,16],[0,10],[7,17],[15,5],[22,-22],[19,-5],[21,9],[32,25],[8,18],[2,20],[-9,24],[0,15],[21,30],[-1,9],[-21,15],[-8,11],[2,13],[21,27],[18,29],[28,29],[29,18],[27,4],[30,1],[36,9],[19,11],[23,7],[30,1],[22,11],[5,17],[-5,20],[7,13],[31,15],[8,19],[-5,21],[4,24],[25,29],[5,10],[6,35],[5,15],[3,27],[1,29],[-5,12],[-23,19],[-5,13],[-6,39],[-11,26],[-16,23],[-16,11],[-36,-5],[-18,11],[-1,13],[15,21],[1,9],[-5,15],[-11,8],[-43,7],[-21,8],[-24,18],[-30,36],[-42,29],[-30,15],[-24,30],[-16,32],[-14,33],[-14,42],[1,11],[8,10],[31,14],[12,3],[7,8],[11,51],[8,23],[9,37],[-4,28],[-22,19],[-9,23],[-21,17],[-32,-9],[-41,-27],[-16,-9],[-41,-17],[-29,0],[-7,22],[4,20],[7,12],[12,2],[33,-3],[13,7],[10,15],[24,8],[20,-11],[16,0],[22,4],[-4,17],[-28,35],[-9,27],[4,29],[16,31],[43,55],[8,9],[23,9],[14,1],[22,-10],[22,-15],[35,-9],[46,-2],[24,6],[13,21],[9,5],[66,5],[29,8],[35,1],[27,7],[21,12]],[[5318,6818],[-78,-1],[-188,-3],[-1,72],[-58,1]],[[4993,6887],[-1,95],[-30,0],[-1,178]],[[10608,8167],[343,-4],[143,2],[147,2],[139,0],[113,1],[169,-1],[310,0],[272,0],[36,-2],[18,-4],[62,4],[10,3],[15,-2],[59,-4],[49,2],[178,-2],[62,-1],[-2,-64],[-1,-113],[-2,-96],[-2,-202],[-3,-180],[4,-385],[1,-499],[1,-141],[2,-5],[3,-101],[5,-197],[-1,-48],[0,-78],[-6,-49],[9,-21],[4,-374],[2,-273],[1,-153],[1,-132],[2,-278],[6,-340]],[[12757,4432],[-339,1],[-325,2],[-133,2],[-267,2],[7,-340],[-328,1],[-295,2],[-195,1],[-234,0]],[[10648,4103],[-4,272],[-4,267],[-9,465],[-8,423],[-7,409],[-3,214]],[[10613,6153],[-2,360],[-2,132],[-4,207],[-4,288],[-1,286],[-1,68],[0,148],[1,205],[8,320]],[[8492,6145],[348,5],[315,2],[409,0],[125,0],[130,0],[203,0],[204,-1],[184,0],[203,2]],[[10648,4103],[2,-336],[0,-201],[1,-213],[2,-280],[-1,-205],[0,-113]],[[10652,2755],[-362,4],[-237,0],[-136,-1],[-177,1],[-148,0]],[[8882,2760],[-1,178],[0,143],[-1,264],[-3,276],[-1,104],[-1,382],[-3,135],[-5,212],[-2,128],[-2,211],[-267,1],[-80,0],[-3,190],[-4,133],[-13,605],[-2,139],[-2,284]],[[10652,2755],[154,-4],[11,-4],[23,-13],[18,-3],[38,3],[16,13],[109,-3],[179,-3],[27,6],[13,-8],[46,-1],[10,-14],[14,0],[26,13],[28,2],[352,-1],[114,0],[158,1],[78,-1],[182,-1],[158,-2],[359,2]],[[12765,2737],[2,-340],[0,-61],[1,-280],[3,-320],[3,-342],[4,-364],[1,-294],[0,-371],[-1,-156],[0,-201],[-191,0],[-174,1],[-342,6],[-345,4],[-203,1],[-264,2],[-248,1],[-355,0],[-348,9]],[[10308,32],[-1,67],[-1,188],[-3,248],[-2,170],[2,342]],[[10303,1047],[-1,179],[0,71],[-2,314],[0,83],[1,5],[26,48],[-19,29],[-9,35],[-3,158],[-1,98],[-1,5],[-47,2],[-121,0],[-28,0],[-86,-1],[-238,1],[-41,1],[-144,0]],[[6752,2069],[222,-1],[113,-1],[121,0],[148,0],[52,-1],[100,0],[103,1],[199,5],[160,1],[263,3],[193,2],[148,0],[148,0],[38,1],[34,7],[59,19],[28,5]],[[9588,1715],[0,-184],[0,-160],[12,0],[176,8],[127,5],[9,2],[24,-10],[8,-18],[2,-311],[275,1],[82,-1]],[[10308,32],[-165,0],[-189,0],[-371,-1],[-338,-2],[-354,0],[-35,-2],[-321,2],[-355,-2],[-146,-2],[-193,-3],[-199,-5],[-163,-2],[-196,0],[-182,-3],[-344,1]],[[6757,13],[1,49],[3,313],[-1,136],[-6,503],[0,102],[0,568],[-2,385]],[[7782,6142],[194,0],[259,1],[257,2]],[[6752,2069],[1,163],[1,237],[3,203],[0,115],[-1,138],[0,200],[-2,132],[0,169]],[[6757,13],[-229,1],[-84,1],[-154,-2],[-189,0],[-221,1],[-325,1],[-224,1],[-332,-1],[-355,0],[-110,1],[-235,-2]],[[4993,6887],[-30,7],[0,-25],[-178,0],[0,-57],[-179,-1]],[[8495,8157],[52,1],[185,7],[79,1],[225,7],[192,7],[147,4],[177,8],[209,-7],[140,-5],[117,-2],[141,-2],[94,-3],[266,-5],[89,-1]],[[8492,6145],[1,57],[3,299],[-1,297],[0,205],[1,81],[0,213],[1,65],[0,138],[-1,130],[-1,203],[0,203],[0,121]],[[12757,4432],[4,-261],[1,-115],[0,-302],[1,-181],[-1,-158],[2,-343],[1,-335]],[[7776,8154],[147,1],[300,0],[272,2]]],"transform":{"scale":[0.00005572822599577366,0.00004274175891010813],"translate":[-96.571486,42.908771]},"objects":{"Geometry\\19-167":{"type":"GeometryCollection","geometries":[{"arcs":[[0,1,2,3]],"type":"Polygon","properties":{"GEOID":"191670702002"}},{"arcs":[[4,5,6,7]],"type":"Polygon","properties":{"GEOID":"191670707021"}},{"arcs":[[8,9,10]],"type":"Polygon","properties":{"GEOID":"191670706023"}},{"arcs":[[11,-8,12,13,14,15]],"type":"Polygon","properties":{"GEOID":"191670707022"}},{"arcs":[[-14,16,-6,17,18]],"type":"Polygon","properties":{"GEOID":"191670707011"}},{"arcs":[[19,20,21,22,23]],"type":"Polygon","properties":{"GEOID":"191670706021"}},{"arcs":[[-23,-9,24]],"type":"Polygon","properties":{"GEOID":"191670706022"}},{"arcs":[[-10,-22,25,26,27]],"type":"Polygon","properties":{"GEOID":"191670706011"}},{"arcs":[[-7,-17,-13]],"type":"Polygon","properties":{"GEOID":"191670707012"}},{"arcs":[[28,29,30,31,32,33,34,35,36]],"type":"Polygon","properties":{"GEOID":"191670704001"}},{"arcs":[[37,38,39,40,-29,41,-4,42,-16,43,-31]],"type":"Polygon","properties":{"GEOID":"191670703002"}},{"arcs":[[-36,44,-34,45]],"type":"Polygon","properties":{"GEOID":"191670704003"}},{"arcs":[[-40,46,47]],"type":"Polygon","properties":{"GEOID":"191670703005"}},{"arcs":[[48,49,50,51]],"type":"Polygon","properties":{"GEOID":"191670701001"}},{"arcs":[[52,-51,53,54,-20,55]],"type":"Polygon","properties":{"GEOID":"191670701004"}},{"arcs":[[-21,-55,56,57,58,59,-26]],"type":"Polygon","properties":{"GEOID":"191670705001"}},{"arcs":[[60,-28,61,-59,62,63]],"type":"Polygon","properties":{"GEOID":"191670705002"}},{"arcs":[[-3,64,-56,-24,-25,-11,-61,65,-18,-5,-12,-43]],"type":"Polygon","properties":{"GEOID":"191670702003"}},{"arcs":[[-44,-15,-19,-66,-64,66,-32]],"type":"Polygon","properties":{"GEOID":"191670703001"}},{"arcs":[[-41,-48,67,-38,-30]],"type":"Polygon","properties":{"GEOID":"191670703003"}},{"arcs":[[-68,-47,-39]],"type":"Polygon","properties":{"GEOID":"191670703004"}},{"arcs":[[-35,-45]],"type":"Polygon","properties":{"GEOID":"191670704002"}},{"arcs":[[-27,-60,-62]],"type":"Polygon","properties":{"GEOID":"191670705003"}},{"arcs":[[68,-52,-53,69]],"type":"Polygon","properties":{"GEOID":"191670701003"}},{"arcs":[[-50,70,-57,-54]],"type":"Polygon","properties":{"GEOID":"191670701002"}},{"arcs":[[71,-70,-65,-2]],"type":"Polygon","properties":{"GEOID":"191670702001"}}]}}}