{"type":"Topology","arcs":[[[8695,7535],[66,-1],[245,1],[85,-1],[261,-1],[81,0],[257,0],[43,-1],[221,0],[78,0],[308,1],[124,0],[51,-1],[154,-1],[149,0],[138,0],[182,0],[180,1],[42,0],[148,-1],[114,-1],[125,1],[336,-1],[88,1],[134,0],[128,1],[35,1],[124,-1],[139,-2],[2,-240],[0,-123],[0,-145],[1,-274],[0,-390],[1,-126],[0,-206],[1,-246],[0,-340]],[[12736,5440],[-136,-1],[-147,1],[-72,-1],[-319,0],[-615,0],[-153,0],[-535,1],[-155,1],[-376,1],[-373,1],[-123,0],[-598,1],[-57,0],[-220,0],[-161,0]],[[8696,5444],[0,371],[0,202],[0,299],[0,310],[-1,909]],[[2651,1393],[238,-5],[61,-2],[77,-1],[264,-5],[11,329],[3,85],[13,488],[-272,4],[-47,0],[-151,4],[-179,4]],[[2669,2294],[0,58],[2,151],[4,207],[1,89],[0,184],[1,160],[-1,180],[0,184],[0,135],[0,105],[1,414],[0,188],[0,150],[2,227],[0,225],[-1,41],[-10,20],[-10,4],[-3,71],[3,21],[1,51],[3,17],[16,51],[1,227]],[[2679,5454],[54,-1],[156,0],[123,-1],[55,1],[99,-1],[161,-1]],[[3327,5451],[242,1],[354,0],[383,1],[120,-1],[123,1],[374,-1],[102,0],[125,-1],[93,0],[368,-1],[171,0],[214,1]],[[5996,5451],[342,0]],[[6338,5451],[-3,-111],[-3,-207],[-2,-120],[263,-1],[81,0]],[[6674,5012],[-4,-308],[-3,-142],[-3,-252],[-2,-207],[-1,-207],[3,-312],[2,-123],[2,-292],[4,-357],[0,-51]],[[6672,2761],[-122,-1],[-218,-1],[-258,0],[-67,-1],[-140,-1],[-158,-2],[-96,0],[-305,-3],[-158,-2],[-183,-1],[-283,1],[-57,0],[-261,-5],[-23,0],[-1,-86],[-7,-381],[-6,-190],[-1,-71],[-5,-190],[-8,-191],[-6,-140],[-5,-115],[-6,-282],[-3,-140],[-5,-198],[-4,-135],[-4,-155],[-9,-374],[-1,-79]],[[4272,18],[-250,5],[-277,4],[-174,1],[-202,3],[-213,6],[-360,7],[-179,3]],[[2617,47],[6,216],[8,243],[3,140],[17,725],[0,22]],[[6674,7538],[22,-1],[65,3],[166,-2],[21,0],[229,-2],[151,0],[69,-1],[131,0],[141,1],[31,-1],[259,0],[231,-1],[93,0],[14,1],[127,0],[114,-1],[157,1]],[[8696,5444],[-1,-279],[-2,-287],[0,-185],[-1,-223],[-1,-529],[0,-113],[-1,-208],[1,-60],[-1,-122],[0,-193],[-2,-490],[-3,-188],[-3,-340],[-2,-122],[-4,-326],[-6,-452],[-1,-237],[-1,-173],[-4,-446],[-1,-467]],[[8663,4],[-260,-2],[-287,-1],[-94,-1],[-368,0],[-213,3],[-150,0]],[[7291,3],[3,354],[4,291],[-3,43],[-21,171],[-2,40],[-131,4],[-182,3],[-1,175],[2,275],[-171,2],[-119,0],[-115,0],[29,92],[22,63],[24,57],[19,42],[26,49],[65,110],[15,29],[3,23],[14,26],[71,120],[103,175],[22,38],[6,22],[7,125],[-21,-14],[-33,-7],[-27,17],[-1,15],[-26,35],[-29,-7],[-12,11],[-10,-16],[-14,-1],[-14,22],[14,15],[-6,34],[-12,16],[-4,-16],[-10,-8],[-21,62],[-7,4],[-13,-34],[-14,17],[-2,25],[-7,19],[-12,11],[2,17],[12,11],[12,-30],[11,6],[3,38],[-3,17],[7,30],[-5,11],[-1,29],[-19,11],[-2,20],[3,11],[17,-3],[-1,14],[-7,12],[-9,-1],[-11,36],[-37,0]],[[6674,5012],[21,0],[121,4],[140,2],[201,0],[1,-58],[-1,-174],[-1,-221],[240,-3],[272,-2]],[[7668,4560],[88,0],[256,-1],[0,151],[1,186],[0,67],[3,312],[0,172],[109,-1],[231,0],[1,288],[-1,98],[6,27],[-3,37],[-277,0],[-410,4],[-1,225],[-2,249],[-32,-15],[-12,-19],[5,-29],[-6,-7],[-16,0],[-17,13],[-6,-13],[0,-20],[-15,-14],[-13,10],[-10,1],[-7,-22],[-10,-4],[-10,11],[-21,-22],[1,-13],[14,-26],[-5,-14],[-11,9],[-21,5],[-7,-7],[-3,-21],[12,-14],[1,-11],[22,-29],[4,-32],[5,-17],[13,-25],[-7,-26],[-15,10],[-16,-3],[-9,-12],[-3,-25],[2,-23],[-13,-31],[-7,-3],[-14,42],[-6,11],[-35,25],[-18,0],[-12,-23],[12,-19],[-3,-14],[-9,-3],[-14,19],[-7,47],[-6,15],[-29,52],[-4,15],[17,25],[15,9],[23,33],[-1,25],[-27,56],[-4,13],[-2,27],[5,27],[-12,43],[-6,8],[-13,-14],[-25,-9],[-54,3],[28,-134],[67,-310]],[[7322,5905],[-7,0],[-210,0],[-104,-1],[1,-70],[-1,-263],[-2,-117]],[[6999,5454],[-80,-2],[-139,-2],[-323,0],[-119,1]],[[5996,5451],[-1,453],[199,0],[94,-1],[60,1],[159,-2],[100,-1],[15,36],[-12,11],[-1,18],[4,15],[-9,15],[-20,25],[-3,20],[-9,22],[-37,44],[-13,4],[-11,24],[-3,21],[-15,30],[-27,11],[-11,13],[-20,-10],[-10,6],[-2,15],[-21,15],[-17,67],[-49,33],[0,15],[294,-4],[50,1],[-2,131],[-2,207],[-1,165],[0,325],[-1,99],[0,99],[0,164]],[[7291,3],[-227,2],[-299,1],[-108,-1],[-158,2],[-406,3],[-146,-4],[-229,-1],[-114,0],[-306,5],[-152,0],[-92,1],[-251,2],[-173,0],[-105,1],[-127,1],[-126,3]],[[7668,4560],[2,223],[-3,19],[-52,73],[-33,42],[-14,12],[-32,-5],[-25,8],[-16,0],[0,78],[-20,0],[1,26],[5,201]],[[7481,5237],[2,134],[-1,80],[-20,0],[2,58],[-4,4],[-32,1],[-6,5],[-79,368],[-3,14],[-18,4]],[[12736,5440],[0,-279],[1,-403],[1,-151],[2,-497],[0,-172],[-1,-517],[0,-256],[0,-410],[-2,-208],[-3,-301],[-1,-163],[-2,-216],[-3,-332],[-4,-497],[-5,-406],[-3,-382],[-2,-155],[0,-86],[-59,2],[-170,2],[-47,-2],[-57,5],[-13,3],[-10,-5],[-59,-4],[-17,6],[-35,2],[-260,-1],[-297,1],[-161,0],[-108,-1],[-133,0],[-140,-3],[-137,-2],[-315,5],[-98,2],[-254,7],[-90,3],[-136,3],[-111,3],[-134,6],[-199,9],[-170,-10],[-140,-6],[-184,-8],[-215,-9],[-75,-3],[-178,-8],[-49,-2]],[[9676,1840],[136,-1],[131,-1],[147,-1],[128,-1],[122,-1],[45,-1],[225,-13],[93,-5],[3,280],[3,287],[4,305],[1,203],[0,303],[-340,2],[-278,2],[-62,0],[0,-184],[-2,-265],[-5,-392],[-5,-31],[-9,-18],[-12,-13],[-13,-7],[-18,-2],[-259,3],[-27,-1],[-3,-224],[-5,-224]],[[6999,5454],[52,2],[47,-5],[98,-26],[28,-5],[86,-3],[-3,-177],[174,-3]],[[2681,7542],[151,-2],[102,0],[140,1],[404,-2],[341,1],[200,-1],[216,-1],[87,-4],[4,2],[186,4],[137,2],[41,-4],[76,0],[284,1],[279,-1],[249,-1],[233,0],[132,1],[158,-1],[197,0],[66,0],[132,1],[39,-1],[139,1]],[[3327,5451],[-9,235],[-5,183],[-1,90],[-1,396],[-83,-1],[-249,-4],[-175,-1],[-125,3]],[[2679,6352],[0,167],[1,330],[0,228],[1,180],[0,285]],[[2679,5454],[0,424],[0,60],[-1,305],[1,109]],[[2651,1393],[5,219],[2,206],[6,210],[5,266]],[[2617,47],[-115,3],[-193,4],[-513,10],[-229,6],[-294,5],[-188,6],[-94,4],[-4,-2],[-121,5],[-41,1],[-10,-8],[-22,-27],[-35,-2],[-46,12],[-18,15],[-39,13],[-8,10],[-11,26],[-13,15],[-54,28],[-12,18],[-16,36],[-49,53],[-27,49],[-18,14],[-13,4],[-29,-10],[-35,-1],[-20,-15],[-25,8],[-22,33],[-5,15],[1,20],[9,21],[-5,28],[-16,27],[-4,39],[12,33],[10,11],[18,42],[12,4],[8,-24],[-3,-30],[5,-14],[13,-5],[17,12],[6,11],[5,32],[9,11],[39,61],[3,25],[-10,43],[-3,27],[-4,68],[-2,13],[-36,63],[-11,54],[1,33],[19,73],[10,11],[8,28],[1,40],[-7,31],[0,30],[-10,3],[-24,-7],[-21,-26],[-17,-33],[-20,-23],[-15,-8],[-38,-10],[-13,15],[-9,74],[13,29],[17,10],[11,-2],[21,8],[14,10],[15,23],[18,11],[32,-8],[19,3],[26,18],[33,11],[34,5],[26,-7],[15,-18],[23,-60],[25,-24],[23,-9],[12,21],[19,0],[21,-32],[10,-8],[23,10],[17,26],[20,9],[22,2],[66,10],[18,1],[-1,-15],[-11,-17],[1,-25],[7,-20],[17,-25],[15,-12],[15,0],[22,9],[6,20],[11,14],[17,3],[26,-9],[30,14],[32,8],[45,20],[12,13],[6,22],[24,63],[21,-7],[20,9],[30,6],[28,10],[39,18],[10,12],[-1,10],[-25,40],[-10,26],[1,28],[4,25],[5,7],[24,6],[14,8],[21,-8],[9,1],[14,24],[-1,25],[-5,13],[-20,20],[-14,51],[10,9],[17,-6],[9,26],[36,7],[15,27],[0,17],[-7,16],[-16,6],[-29,19],[-17,23],[-9,27],[-1,22],[-5,31],[6,11],[28,-25],[9,3],[12,32],[3,43],[-5,24],[-31,-13],[-24,10],[-16,32],[-15,20],[4,13],[14,3],[15,41],[3,58],[-32,47],[-17,19],[-26,70],[22,61],[8,37],[-18,53],[1,28],[-21,2],[-13,10],[-9,25],[-1,31],[27,25],[23,36],[7,21],[2,20],[-6,30],[-16,26],[0,27],[8,14],[12,-3],[1,-19],[10,-11],[11,-4],[30,8],[18,23],[4,28],[14,37],[19,29],[18,37],[2,18],[-7,21],[-9,2],[-19,-22],[-10,1],[-13,12],[-2,12],[9,27],[5,35],[-1,31],[14,27],[10,11],[8,18],[0,13],[-35,47],[-9,32],[-2,23],[8,29],[3,20],[-5,46],[4,27],[-1,21],[-6,32],[-25,-9],[-7,11],[3,29],[-1,18],[-16,23],[-10,30],[1,40],[-2,36],[4,14],[14,11],[21,2],[10,-10],[8,-27],[16,1],[34,53],[-2,16],[-10,19],[5,40],[6,13],[9,-1],[20,-28],[16,8],[0,41],[10,32],[4,41],[-9,22],[-10,11],[-15,29],[-18,46],[2,32],[8,11],[25,12],[3,21],[-15,-8],[-14,3],[-10,11],[-1,25],[34,39],[14,30],[0,59],[-9,31],[-1,19],[-7,20],[-19,26],[-11,43],[8,62],[-4,46],[-8,26],[-9,16],[-13,10],[-33,16],[-16,17],[-13,5],[-10,-12],[3,-33],[-7,-15],[-16,-11],[-83,-17],[-22,4],[-7,11],[-13,34],[-16,22],[-13,8],[-21,3],[-9,-26],[-12,-17],[-14,-2],[-15,7],[-16,18],[-4,21],[13,47],[0,32],[-30,31],[-9,20],[-9,34],[-9,21],[-10,15],[-10,3],[-19,-9],[-26,2],[-17,6],[-22,15],[0,25],[-4,27],[-14,5],[-29,-7],[-10,12],[-7,42],[-6,13],[-16,18],[-6,19],[0,41],[-7,39],[-7,15],[-20,8],[-21,-3],[-21,6],[-17,18],[-11,30],[-13,23],[-11,29],[-20,26],[-11,9],[-23,9],[-22,15],[-38,38],[2,17],[14,12],[4,17],[3,27],[11,20],[14,43],[13,53],[7,47],[-3,38],[-10,21],[-40,27],[-14,14],[-12,34],[-18,18],[-13,6],[-20,-6],[-32,3],[-33,9],[-36,0],[-19,-14],[-10,-1],[-17,17],[-10,-1],[-10,-15],[-11,-5],[-16,4],[-18,23],[-9,4],[-23,3],[-27,15],[-16,21],[-4,17],[1,34],[9,15],[2,25],[-7,22],[-12,12],[-23,8],[-5,12],[0,23],[-4,14],[-13,9],[-2,19],[18,25],[0,27],[-13,4],[-10,-10],[-12,-2],[-11,8],[-10,23],[4,37],[8,11],[0,14],[-6,18],[-18,17],[-4,17],[-12,27],[-1,21],[-13,15],[-8,20],[-8,41],[8,10],[16,-25],[10,-4],[11,7],[7,12],[7,38],[0,13],[-19,36],[-9,38],[5,41],[13,31],[13,6],[22,-5],[2,19],[13,27],[15,9],[14,-8],[16,-3],[18,24],[3,26],[-5,25],[-17,25],[1,20],[9,12],[18,8],[34,-7],[9,7],[9,26],[-3,37],[6,31],[8,18],[10,6],[8,-12],[-7,-23],[6,-22],[24,-11],[30,15],[15,22],[34,32],[-4,14],[-15,21],[-15,36],[-5,25],[-7,10],[-4,35],[7,13],[10,34],[3,23],[9,27],[-2,22],[-12,20],[-23,21],[-16,29],[-3,16],[6,20],[27,20],[14,19],[25,13],[6,12],[12,3],[10,24],[-20,57],[-8,5],[-20,-9],[-15,6],[-22,2],[-13,13],[-8,31],[14,17],[3,24],[-13,34],[8,17],[17,3],[8,9],[9,26],[-5,20],[-10,19],[-14,16],[-9,18],[-14,10],[-17,-3],[-24,8],[3,55],[-17,25],[-27,-8],[-24,-22],[-8,-10],[-15,1],[-50,42],[-17,25],[-8,23],[6,21],[4,54],[-5,60],[82,1],[54,-1],[173,0],[124,0],[233,-1],[298,0],[303,1],[70,-2],[296,1],[133,-1],[580,0],[142,1],[15,-1],[112,1]]],"transform":{"scale":[0.00005829050235478804,0.00003223793743372232],"translate":[-96.603031,43.257277]},"objects":{"Geometry\\19-119":{"type":"GeometryCollection","geometries":[{"arcs":[[0,1,2]],"type":"Polygon","properties":{"GEOID":"191199501001"}},{"arcs":[[3,4,5,6,7,8,9,10,11,12]],"type":"Polygon","properties":{"GEOID":"191199503005"}},{"arcs":[[13,-3,14,15,16,-10,17,18,19,20,-8,21]],"type":"Polygon","properties":{"GEOID":"191199502003"}},{"arcs":[[-17,22,-11]],"type":"Polygon","properties":{"GEOID":"191199503006"}},{"arcs":[[23,24,-19]],"type":"Polygon","properties":{"GEOID":"191199502001"}},{"arcs":[[-2,25,-15],[26]],"type":"Polygon","properties":{"GEOID":"191199501003"}},{"arcs":[[-21,27,-24,-18,-9]],"type":"Polygon","properties":{"GEOID":"191199502002"}},{"arcs":[[-25,-28,-20]],"type":"Polygon","properties":{"GEOID":"191199502004"}},{"arcs":[[-27]],"type":"Polygon","properties":{"GEOID":"191199501002"}},{"arcs":[[28,-22,-7,29,30]],"type":"Polygon","properties":{"GEOID":"191199503001"}},{"arcs":[[-30,-6,31]],"type":"Polygon","properties":{"GEOID":"191199503002"}},{"arcs":[[-4,32]],"type":"Polygon","properties":{"GEOID":"191199503004"}},{"arcs":[[-31,-32,-5,-33,-13,33]],"type":"Polygon","properties":{"GEOID":"191199503003"}}]}}}