{"type":"Topology","arcs":[[[3450,4020],[-3,-14],[17,-16],[45,0],[13,-12],[-3,-23],[-7,-19],[-6,-43],[18,-35],[21,-25],[22,-13],[35,-11],[9,2],[-1,29],[26,0],[-1,-21],[41,-2],[25,6],[19,21],[33,11],[38,-15],[17,2],[31,21],[13,12],[21,0],[8,-20],[-40,-49],[-44,-29],[-22,-10],[-13,-12],[2,-9]],[[3764,3746],[-16,-12],[-44,5],[4,-13],[-4,-16],[8,-7],[6,-22],[-13,-10],[-9,12],[-13,-9],[-2,-17],[11,-21],[-4,-10],[-17,-8],[-2,-15],[8,-10],[-10,-9],[8,-13],[14,0],[-7,-16],[3,-10],[-15,-19],[-1,-15],[-17,-7],[-40,2],[0,104],[-2,38],[-253,1],[-5,21],[13,11],[7,-7],[22,4],[20,-6],[18,24],[25,12],[-12,10],[27,5],[6,26],[-5,14],[26,12],[-14,17],[-92,-1],[-3,241],[43,-2],[17,-10]],[[3670,5750],[502,-1],[35,0],[285,-1],[34,1],[187,0],[217,2],[160,-1],[68,-1],[289,0],[199,2],[4,1],[172,-2],[2,-82],[-3,-313],[-2,-197],[-3,-329],[-4,-249],[0,-190],[-2,-227]],[[5810,4163],[-2,-26],[-11,-16],[-23,-7],[-12,6],[-20,30],[-20,-2],[-3,-14],[13,-19],[-2,-15],[-14,-17],[-1,-10],[10,-23],[-12,-14],[-16,-6],[-25,17],[-14,30],[-24,6],[-41,-20],[-47,-11],[-22,2],[-20,-34],[-41,-46],[-15,0],[-29,13],[-20,-5],[-51,-1],[-6,-8],[5,-16],[-8,-17],[-14,-9],[-16,0],[-20,12],[-55,16],[-99,-3],[-53,-16],[-44,-26],[-35,-34],[-19,-15],[-26,-3],[-9,-20],[-12,-14],[-4,-13],[-34,-4],[-5,11],[-9,37],[-12,12],[-13,-4],[-12,-23],[-18,-11],[-33,-7],[-21,0],[-22,18],[-20,-11],[-12,-28],[-13,-18],[0,-28],[-14,-10],[-34,9],[-26,2],[-40,-2],[-17,-3],[-67,-27],[-24,-3],[-9,8],[2,15],[12,25],[-4,11],[-35,14],[-14,1],[-17,-17],[4,-30],[-6,-15],[-27,-23],[-36,-6],[-9,-18],[1,-16],[-25,-14],[-27,-3],[-29,-21],[-15,2],[-13,20],[3,9],[39,25],[4,8],[-11,20],[-32,21],[-33,14],[-16,41],[-16,10],[-13,1],[-14,-10],[-4,-25],[-13,-21],[14,-22],[1,-15],[-12,-5],[-10,27],[-22,-2],[-3,-21],[-21,-8],[-46,5],[-49,1],[-4,13],[-20,4],[-31,-7],[-28,-1],[-34,-10],[-18,0],[-58,11],[-29,25]],[[3450,4020],[13,7],[42,7],[11,10],[-4,12],[-15,7],[-30,-1],[1,14],[29,23],[6,15],[-47,17],[-32,25],[-11,19],[-17,60],[-3,25],[3,455],[13,36],[42,44],[20,34],[4,29],[-2,23],[-11,37],[-24,49],[-9,34],[-1,42],[-3,23],[-29,105],[-5,28],[2,205],[11,40],[14,20],[162,191],[90,95]],[[5810,4163],[1,-48],[-2,-70],[-2,-324],[-2,-247],[0,-311],[-2,-666],[-1,-192],[-8,0],[-1,-137],[-4,-311],[-1,-247],[-3,-349],[-2,-76],[-3,-27],[1,-143],[-2,-142],[-3,-346],[-2,-106],[-3,-418],[-169,0],[-396,4],[-637,3],[-119,1],[-288,0],[-90,0],[-463,-1],[-17,1],[-553,-2],[-128,0],[-293,-2],[-46,3],[-219,1],[-602,-2],[-559,-3],[-92,2],[-133,-1],[-305,-2],[-29,-2],[-263,-3],[-1,1],[-208,-1],[-80,2],[-75,-1],[1,192],[2,266],[1,221],[1,122],[-3,156],[-3,192],[1,16],[0,119],[2,56],[-3,190],[-4,2],[3,382],[-3,232],[-1,21],[4,149],[30,1],[17,10],[-9,10],[-1,171],[2,424],[-1,68],[0,273],[1,194],[204,0],[13,-1],[-1,191],[0,209],[0,204],[0,458],[-3,69],[1,398],[-1,225],[1,58],[-2,185],[2,210],[3,86],[20,-1],[473,-2],[789,-3],[47,0],[223,-1],[768,0],[331,1],[709,-3],[50,-1]]],"transform":{"scale":[0.00008373179945054808,0.00007584982638888885],"translate":[-96.84127399999998,38.085554]},"objects":{"Geometry\\20-017":{"type":"GeometryCollection","geometries":[{"arcs":[[0,1]],"type":"Polygon","properties":{"GEOID":"200179606003"}},{"arcs":[[2,3,-1,4]],"type":"Polygon","properties":{"GEOID":"200179606001"}},{"arcs":[[-5,-2,-4,5]],"type":"Polygon","properties":{"GEOID":"200179606002"}}]}}}