{"type":"Topology","arcs":[[[11218,5519],[-7,-38],[14,-18],[23,-8],[17,-20],[9,-53],[-10,-22],[7,-14],[30,-29],[17,-6],[1,-29],[9,-11],[16,-6],[88,0]],[[11432,5265],[1,-32],[-5,-15],[-33,-37],[-17,-37],[-31,-7],[1,-37],[9,-20],[-11,-21],[0,-64],[-48,3],[-56,-20],[-80,-12],[-72,0]],[[11090,4966],[1,429],[-2,28]],[[11089,5423],[1,95],[128,1]],[[11218,5519],[300,1],[159,-1]],[[11677,5519],[1,-362],[-1,-11]],[[11677,5146],[-43,-1],[-3,86],[-10,21],[-30,14],[-159,-1]],[[10604,4798],[244,0]],[[10848,4798],[242,1]],[[11090,4799],[-1,-270],[-1,-211]],[[11088,4318],[-207,1],[-278,-1]],[[10603,4318],[0,120],[243,0],[1,120],[-243,0],[0,240]],[[6965,4796],[246,0]],[[7211,4796],[-1,-267]],[[7210,4529],[0,-214]],[[7210,4315],[-155,1]],[[7055,4316],[-121,0],[-24,5],[-18,9],[-19,21]],[[6873,4351],[31,19],[24,19],[21,31],[6,20],[8,57],[2,299]],[[7211,4796],[483,-2]],[[7694,4794],[0,-225]],[[7694,4569],[-61,-7],[-33,6],[-30,-1],[-19,-5],[-52,-20],[-51,-1],[-46,-4],[-43,1],[-37,4],[-52,-2],[-29,-10],[-31,-1]],[[7694,4569],[1,-254]],[[7695,4315],[-191,0]],[[7504,4315],[-294,0]],[[7504,4315],[-1,-34],[-6,-50],[-17,-36],[-10,-43],[0,-21]],[[7470,4131],[-2,-59],[-8,-19],[-14,-15]],[[7446,4038],[-22,-21]],[[7424,4017],[-29,29],[-17,11],[-44,12],[-57,-2],[-50,-12],[-18,-1]],[[7209,4054],[1,261]],[[7446,4038],[31,-30],[20,-12],[48,-17],[146,0]],[[7691,3979],[-2,-134]],[[7689,3845],[-280,0]],[[7409,3845],[-1,46],[-8,62],[-1,18],[9,26],[16,20]],[[7470,4131],[111,0],[48,12],[25,0],[39,-7]],[[7693,4136],[-2,-157]],[[7695,4315],[-2,-179]],[[11096,6961],[243,1],[-3,244]],[[11336,7206],[147,1]],[[11483,7207],[125,0],[65,-5]],[[11673,7202],[0,-268],[0,-215]],[[11673,6719],[-90,3],[-484,0]],[[11099,6722],[-3,239]],[[10119,4319],[141,-1]],[[10260,4318],[3,-30],[11,-14],[33,-34],[6,-14],[7,-51],[6,-18],[31,-53],[5,-16],[-1,-32],[-31,-55],[-5,-31],[16,-63],[3,-68]],[[10344,3839],[-224,-1]],[[10120,3838],[-1,481]],[[3840,2880],[1,478],[238,-1],[97,1],[2,38],[1,150],[28,88],[25,73],[8,30],[5,35],[-1,65]],[[4244,3837],[518,1],[42,-2],[16,-3]],[[4820,3833],[28,-25],[-14,-20],[-9,-24],[-2,-484],[-1,-264],[1,-39],[-3,-169],[0,-207]],[[4820,2601],[-41,-24],[-284,-161]],[[4495,2416],[-86,15],[-86,3],[-42,-2],[-26,5],[-38,19],[-36,30],[-197,-43],[-36,-9]],[[3948,2434],[-7,6],[53,16],[14,-1],[69,16],[-7,29],[-33,76],[-16,40],[1,21],[-70,-1],[-36,4],[-75,0]],[[3841,2640],[-1,240]],[[7949,5755],[228,2]],[[8177,5757],[1,-67],[0,-143]],[[8178,5547],[-57,-4],[-32,-12],[-52,1]],[[8037,5532],[-28,-4],[-60,0]],[[7949,5528],[2,43],[16,58],[-2,25],[-11,28],[-5,25],[0,48]],[[9536,5757],[100,1]],[[9636,5758],[0,-169]],[[9636,5589],[-1,-76]],[[9635,5513],[-65,33],[-43,26],[-45,31],[5,12],[23,25],[9,16],[4,62],[13,39]],[[10,4331],[375,0],[109,1],[562,-4],[133,0],[240,-1],[208,-1],[87,0],[193,-1],[226,-1],[224,0]],[[2367,4324],[-3,-295],[2,-180],[-28,-2],[-182,0],[0,-108],[0,-309],[-2,-343],[0,-197],[228,-1]],[[2382,2889],[2,-131],[3,-58],[8,-53],[2,-241],[3,-89],[3,-6],[-1,-380],[1,-95]],[[2403,1836],[-179,-154],[-65,-58],[-110,-94],[-89,-78],[265,-1],[193,-2],[-2,-243],[1,-234],[-5,-46],[-12,-63],[0,-162]],[[2400,701],[1,-66],[3,-36],[1,-80],[2,-26],[-5,-109],[8,0],[-2,-139],[0,-232]],[[2408,13],[-28,4],[-74,1],[-25,-1],[-117,-1],[-244,-3],[-76,0],[-395,0],[-365,2],[-30,-5],[-87,1],[-13,4],[-171,0],[-66,0],[-344,1],[-283,1],[-88,0],[0,249],[0,229],[2,323],[0,173],[2,250],[0,52],[1,137],[-1,156],[2,337],[-1,256],[1,297],[0,207],[3,20],[-2,33],[0,46],[-3,11],[-2,57],[4,12],[1,80],[-1,43],[1,98],[0,294],[1,487],[0,210],[0,257]],[[968,494],[477,3],[-1,331],[-2,12],[-13,19],[-27,19],[-14,5],[-48,0],[3,12],[36,48],[44,44],[30,23],[-11,15],[-33,-18],[-58,-21],[-42,-9],[-53,-3],[-285,0],[-1,-112],[-2,-368]],[[8664,4796],[191,0]],[[8855,4796],[414,1]],[[9269,4797],[0,-315],[1,-165]],[[9270,4317],[-485,-1]],[[8785,4316],[-121,0]],[[8664,4316],[0,480]],[[3357,1924],[160,-1],[207,-1]],[[3724,1922],[122,0]],[[3846,1922],[8,-37]],[[3854,1885],[-377,-345],[-42,-38],[-73,-62],[-2,238],[-3,246]],[[2403,1836],[133,118],[60,41],[30,18],[103,48],[103,47],[50,21]],[[2882,2129],[0,-143],[101,62],[136,88],[1,-210]],[[3120,1926],[2,-252],[-240,-8],[0,-216],[67,-2],[174,-2],[1,-211],[-199,-171],[-29,-23],[-47,-34],[-449,-306]],[[6130,8929],[8,25],[5,31],[1,30],[-15,89]],[[6129,9104],[-30,164],[-2,16],[6,58]],[[6103,9342],[6,30],[73,226]],[[6182,9598],[22,68],[11,30],[34,63],[33,38],[51,40],[108,65],[47,26]],[[6488,9928],[76,28],[179,55],[156,51]],[[6899,10062],[61,2]],[[6960,10064],[8,-106],[11,-93],[16,-86],[29,-143],[10,-56],[13,-80],[14,-150]],[[7061,9350],[3,-59],[7,-277],[2,-32]],[[7073,8982],[1,-69],[10,-74],[53,-218]],[[7137,8621],[21,-83],[23,-49],[70,-91]],[[7251,8398],[-11,-25],[-28,-41]],[[7212,8332],[-10,21],[-39,1],[1,36],[-82,0],[1,239],[-105,16],[-235,36],[-1,-66],[-34,-16],[-28,13],[-18,16],[-284,-3],[0,120],[-107,-2],[1,92],[61,2],[2,18],[-9,7],[-37,-2],[-16,9],[-7,-17],[-31,-60],[1,-21],[-19,-24],[-13,3],[-23,20],[-18,7],[-19,-21],[-15,-7],[-5,-13],[16,-28],[-5,-9],[-22,-11],[10,-17],[13,1],[28,19],[15,2],[18,-8],[8,-13],[-15,-20],[27,-34],[1,-13],[-18,-12],[-23,7],[-23,-6],[-18,-10],[-18,-22],[6,-29],[18,-13],[11,-34],[12,6],[1,26],[21,16],[29,3],[17,-4],[2,-10],[-12,-27],[22,-21],[-7,-39],[8,-20],[-4,-8],[-24,-17],[-7,-13],[7,-12],[15,-2],[10,-18],[10,-38],[15,-27],[-8,-44],[-9,-40],[6,-18],[-4,-37]],[[6253,8142],[-20,-1]],[[6233,8141],[1,45],[-3,23],[-15,54],[-85,150],[-16,37],[-10,43],[-23,124],[-5,86],[39,160],[14,66]],[[7444,7912],[248,0]],[[7692,7912],[2,-238]],[[7694,7674],[-241,-1]],[[7453,7673],[-51,0]],[[7402,7673],[4,35],[12,29],[3,22],[-1,57],[23,77],[1,19]],[[10365,8879],[243,-1]],[[10608,8878],[0,-119]],[[10608,8759],[-61,0],[0,-120]],[[10547,8639],[-182,0]],[[10365,8639],[0,240]],[[9147,5276],[199,0],[288,2]],[[9634,5278],[-1,-210]],[[9633,5068],[-25,2],[-25,-2],[-27,4],[-53,26],[-23,6],[-24,-28],[-17,-26],[-20,-4],[-52,8],[9,21],[-1,30],[-5,7],[-31,12],[-3,19],[-116,0],[-11,1],[-25,14],[-37,3]],[[9147,5161],[0,115]],[[7413,3520],[22,7],[56,5],[38,22],[34,41],[36,17],[90,-1]],[[7689,3611],[-1,-245]],[[7688,3366],[-243,-1]],[[7445,3365],[5,56],[-2,50],[-7,15],[-28,34]],[[8179,4431],[63,1],[31,-3],[25,3],[22,7],[22,13],[45,40],[23,11],[19,4],[-13,41],[0,36],[12,64],[0,28],[-9,39],[-1,80]],[[8418,4795],[246,1]],[[8664,4316],[-260,0],[-224,-1]],[[8180,4315],[-1,116]],[[9634,5278],[161,1]],[[9795,5279],[0,-20],[-8,-39],[2,-23],[11,-41],[-3,-41],[-23,-22],[-49,-9],[-28,-11],[-33,-6],[-31,1]],[[9143,9360],[43,-4],[245,1],[62,2]],[[9493,9359],[-18,-77],[-13,-78],[-6,-86]],[[9456,9118],[-194,-1]],[[9262,9117],[-117,-2]],[[9145,9115],[-1,243],[-1,2]],[[8036,6623],[148,-97]],[[8184,6526],[36,-21],[47,-17],[38,-7]],[[8305,6481],[0,-118],[4,-56],[-3,-70]],[[8306,6237],[-121,0]],[[8185,6237],[-72,-2],[-172,0],[0,-53],[-3,-183]],[[7938,5999],[0,-2],[-241,-4]],[[7697,5993],[-85,1]],[[7612,5994],[408,605],[16,24]],[[5780,5046],[99,0],[48,8],[91,0]],[[6018,5054],[-2,-29],[0,-231]],[[6016,4794],[-26,4],[-211,0]],[[5779,4798],[-3,118],[-3,52],[7,21],[0,57]],[[6018,5054],[1,102],[-1,95],[1,20]],[[6019,5271],[1,3]],[[6020,5274],[178,0]],[[6198,5274],[-11,-34],[-2,-89],[-6,-40],[-18,-37],[-19,-59],[-2,-33],[0,-94]],[[6140,4888],[-93,0],[0,-97]],[[6047,4791],[-31,3]],[[3843,4316],[435,0],[358,0],[154,-3],[15,3],[39,0]],[[4844,4316],[-24,-12],[-5,-14],[5,-229],[6,-215],[-6,-13]],[[4244,3837],[-142,-1],[-261,1],[0,255],[2,224]],[[3356,2588],[28,-1],[18,-4],[199,-1]],[[3601,2582],[240,-2],[0,60]],[[3948,2434],[-106,-24]],[[3842,2410],[-121,-26]],[[3721,2384],[-363,-79]],[[3358,2305],[0,157],[-2,36],[0,90]],[[6746,5751],[1,-226]],[[6747,5525],[-78,1],[-11,-4],[-43,-32],[-66,-19],[-46,-3]],[[6503,5468],[-1,224],[-7,12],[-24,21]],[[6471,5725],[14,12],[25,10],[27,2],[209,2]],[[6747,5490],[79,1],[28,-9],[12,-14],[33,31],[33,-1],[14,-8],[6,-16],[-4,-55],[-12,-36],[-9,-13],[10,-13],[4,-40],[19,-20],[-16,-22],[115,4]],[[7059,5279],[7,-1]],[[7066,5278],[-48,-85],[-23,-52],[-12,-38],[-18,-70],[-33,-139],[-25,-98]],[[6907,4796],[-7,0]],[[6900,4796],[-151,-1]],[[6749,4795],[-1,293]],[[6748,5088],[0,176],[0,9]],[[6748,5273],[-1,217]],[[3842,2410],[0,-151]],[[3842,2259],[0,-262],[1,-45],[3,-30]],[[3724,1922],[2,25],[18,47],[-1,49],[-23,1],[-15,18],[-18,101],[5,11],[29,-9],[0,219]],[[3355,2809],[126,-1],[0,-31],[9,-13],[60,-4],[15,-10],[-27,-15],[1,-14],[17,-13],[16,4],[3,-23],[22,-36],[7,-23],[-3,-48]],[[3356,2588],[-1,221]],[[2880,2887],[96,-2],[379,-2]],[[3355,2883],[0,-74]],[[3356,2588],[-62,-1],[-15,5],[-55,34],[-13,4],[-75,1],[-38,11],[-217,1]],[[2881,2643],[-1,244]],[[10117,9599],[31,0]],[[10148,9599],[126,1],[0,120],[30,0],[-2,127]],[[10302,9847],[29,0],[34,-6]],[[10365,9841],[1,-242]],[[10366,9599],[0,-180]],[[10366,9419],[0,-61]],[[10366,9358],[-229,2],[-14,1]],[[10123,9361],[-1,65],[-1,160]],[[10121,9586],[-4,13]],[[9634,9119],[79,1],[165,0]],[[9878,9120],[2,0]],[[9880,9120],[1,-118],[-2,0],[0,-120],[126,2]],[[10005,8884],[2,-4],[1,-115],[6,-28],[13,-37],[6,-29],[0,-31]],[[10033,8640],[-154,0]],[[9879,8640],[-244,0]],[[9635,8640],[-1,479]],[[6749,3525],[73,1],[29,5],[45,-1],[55,-16]],[[6951,3514],[31,-10],[15,-9],[11,-15],[6,-27],[-3,-53],[0,-36]],[[7011,3364],[-142,-3],[-120,-2]],[[6749,3359],[0,166]],[[9633,4798],[259,0]],[[9892,4798],[0,-102],[1,-136]],[[9893,4560],[0,-92],[-3,-57],[-9,-93]],[[9881,4318],[-248,0]],[[9633,4318],[-1,217],[1,263]],[[9269,4797],[129,0],[0,-5],[103,0],[0,5],[132,1]],[[9633,4318],[-163,-1],[-200,0]],[[2882,2129],[112,53],[154,70],[106,30],[89,19],[15,4]],[[3358,2305],[-1,-381]],[[3357,1924],[-237,2]],[[7692,2404],[486,-2],[-2,168],[-1,316]],[[8175,2886],[161,0],[100,-1],[226,2]],[[8662,2887],[0,-250],[2,-197],[1,-79],[0,-200]],[[8665,2161],[3,-240],[-126,1],[-342,-1],[-391,3],[-112,0]],[[7697,1924],[-4,364],[-1,116]],[[9637,3358],[38,-3],[61,0],[83,-3],[80,-1]],[[9899,3351],[-28,-262],[0,-71],[5,-51],[14,-88]],[[9890,2879],[-8,1]],[[9882,2880],[-245,-2]],[[9637,2878],[0,480]],[[8181,7675],[43,-2],[130,-1]],[[8354,7672],[-1,-50],[-10,-32],[3,-28],[-17,-8],[-50,-1],[5,-28],[-2,-18],[-9,-15],[-1,-26],[31,1],[0,-33],[-8,0],[5,-45]],[[8300,7389],[-55,-30],[-26,-22],[-37,-20]],[[8182,7317],[-1,193]],[[8181,7510],[0,165]],[[8665,8291],[56,-1],[20,6],[9,11],[9,40],[-1,45]],[[8758,8392],[148,1]],[[8906,8393],[1,-179]],[[8907,8214],[1,-60],[-243,-1]],[[8665,8153],[0,138]],[[11511,7567],[-1,248],[2,29],[12,82]],[[11524,7926],[142,0]],[[11666,7926],[5,-185],[2,-184],[1,-125],[-1,-230]],[[11483,7207],[-1,108],[3,30],[17,70],[4,33],[5,119]],[[8528,8392],[136,-2]],[[8664,8390],[1,-99]],[[8665,8153],[-168,0]],[[8497,8153],[-3,48],[18,-1],[16,11],[-2,26],[-6,19],[8,43],[0,93]],[[7471,8152],[112,0],[108,0]],[[7691,8152],[1,-240]],[[7444,7912],[9,68],[-1,46],[12,51],[0,31],[7,44]],[[7299,7672],[103,1]],[[7453,7673],[1,-86],[-11,-25],[20,-37],[30,-24],[9,-29],[-1,-14],[-18,-50],[-1,-51],[-10,-31],[-16,-19],[-3,-17],[1,-97]],[[7454,7193],[-115,-1]],[[7339,7192],[-37,260],[-4,70],[1,150]],[[8092,7509],[81,-1],[8,2]],[[8182,7317],[-71,-40],[-33,-26]],[[8078,7251],[-8,12],[-15,56],[-6,9],[5,19],[-48,0],[-7,4],[-34,49],[-11,59],[12,27],[21,-20],[31,2],[17,-20],[53,1],[4,30],[0,30]],[[6260,5752],[1,5],[-1,266],[1,141],[-1,70]],[[6260,6234],[129,-2],[201,0],[153,-2]],[[6743,6230],[2,-61],[1,-418]],[[6471,5725],[-9,-11],[-75,-112],[-43,-66],[-51,-74],[-33,-53]],[[6260,5409],[1,297],[-1,46]],[[10121,3706],[22,8],[29,21],[28,3],[18,7],[18,-5],[29,-22],[4,-15],[27,-16],[27,2],[24,-11],[8,-12],[14,8],[17,-1],[2,-13],[34,-6],[9,-8],[0,-15],[31,-14],[14,-37],[16,-15],[21,-1],[33,-15],[40,3],[19,10]],[[10605,3562],[0,-155],[0,-46]],[[10605,3361],[-333,-2],[-150,0]],[[10122,3359],[-1,347]],[[10344,3839],[262,1]],[[10606,3840],[-1,-278]],[[10121,3706],[-1,132]],[[8178,8474],[24,1],[22,-4],[31,-14],[17,-14],[33,-35],[14,-11],[19,-6],[190,1]],[[8497,8153],[-101,0]],[[8396,8153],[-216,-1]],[[8180,8152],[-1,240]],[[8179,8392],[-1,82]],[[10605,5277],[120,0],[58,-2],[65,2]],[[10848,5277],[0,-88],[-1,-361],[1,-30]],[[10604,4798],[1,142],[-1,205],[1,132]],[[10120,4961],[10,6],[18,27],[1,15],[-8,21],[19,0],[16,17],[37,10],[20,15],[28,4],[31,45],[-2,37],[45,7],[8,11],[3,24],[13,3],[30,-12],[5,-19],[22,8],[-1,23],[14,7],[15,-2],[6,-11],[14,1],[4,22],[-5,56]],[[10463,5276],[142,1]],[[10604,4798],[-242,0]],[[10362,4798],[-242,0]],[[10120,4798],[0,163]],[[10120,5279],[187,-1]],[[10307,5278],[127,0],[29,-2]],[[10120,4961],[0,318]],[[10119,4559],[0,62]],[[10119,4621],[28,-3],[43,-15],[35,2],[27,21],[26,-26],[7,-51],[23,-10]],[[10308,4539],[-13,-24],[-14,-48],[-20,-51],[-12,-20],[-2,-14],[13,-37],[0,-27]],[[10119,4319],[0,240]],[[4794,9105],[0,-26],[75,11],[33,3],[26,11],[103,0],[7,-5],[2,-234],[122,-1],[21,-1],[85,-1]],[[5268,8862],[10,-99],[11,-69],[4,-51],[-1,-459],[-5,-75],[-14,-99],[-5,-43],[-1,-66]],[[5267,7901],[4,-61],[15,-135],[1,-45]],[[5287,7660],[-247,0]],[[5040,7660],[2,240],[27,1],[0,120],[-28,0],[0,122],[-172,0],[-90,-2],[-224,1]],[[4555,8142],[-2,170],[-7,305],[1,112],[-1,72],[1,73],[-6,65],[2,50],[9,24],[33,57],[7,32],[10,4],[192,-1]],[[3846,8344],[56,79],[50,80],[31,46],[30,38],[72,102],[51,76],[51,68],[23,33],[25,43],[40,74],[72,114],[29,62],[3,20],[1,88],[-4,27],[-29,65],[-16,31],[-10,41],[-15,80],[-5,82],[4,45],[39,115],[48,96],[16,44],[30,102],[26,106],[11,57],[8,65],[5,27],[14,47],[16,21],[89,106],[47,54],[34,31],[43,30],[61,34],[19,8]],[[4811,10581],[105,-137],[108,-146]],[[5024,10298],[-19,-11],[-23,1],[-32,8],[-149,0],[0,-18],[-3,-214],[4,-14],[38,-39],[10,-17],[-181,-366],[-36,-70],[-61,-124],[-164,-328],[-64,-131],[-40,-76],[-50,-67],[-57,-71],[-77,-105],[-90,-132],[-76,-113],[-69,-90],[-42,-50]],[[3843,8271],[3,73]],[[4794,9105],[2,252],[-1,41],[3,190],[194,-3],[312,-3]],[[5304,9582],[7,-11],[-1,-66],[-3,-60],[-10,-93],[-14,-118],[-5,-85]],[[5278,9149],[-8,-4],[-4,-213],[2,-70]],[[6746,5751],[202,3],[32,-1],[220,2],[10,2],[214,-2]],[[7424,5755],[-60,-64],[-90,-97],[-64,-79]],[[7210,5515],[-68,-95],[-46,-73],[-37,-68]],[[6747,5490],[0,35]],[[7066,5278],[25,-2],[119,0]],[[7210,5276],[1,-217]],[[7211,5059],[0,-263]],[[6965,4796],[-58,0]],[[7693,5754],[256,1]],[[7949,5528],[-26,-1],[-26,-9],[-30,-3],[-124,-1],[-32,24],[-18,4]],[[7693,5542],[0,131]],[[7693,5673],[0,81]],[[7211,5059],[27,0],[23,-7],[72,1]],[[7333,5053],[23,-6],[16,-14],[22,-3],[23,16],[10,2],[91,0],[18,8],[27,30],[21,19],[13,24],[12,13],[54,15],[30,1]],[[7693,5158],[2,-228],[-1,-136]],[[9149,5458],[15,0],[92,15],[40,1],[42,9],[-2,32],[34,-5],[38,-1],[19,7],[9,-22],[19,3],[18,-10],[14,-20],[22,-12],[30,0],[28,7],[68,4]],[[9635,5466],[-1,-188]],[[9147,5276],[0,113],[2,69]],[[9423,5757],[113,0]],[[9635,5513],[0,-6]],[[9635,5507],[-35,17],[-53,29],[-39,25],[-46,32],[-42,34],[-36,33],[-39,41],[-33,40]],[[9312,5758],[111,-1]],[[7937,4795],[242,0]],[[8179,4795],[0,-364]],[[8180,4315],[-203,0]],[[7977,4315],[-1,37],[-8,26],[-16,38],[1,45],[6,14],[26,30],[4,18],[-4,87],[12,40],[0,17],[-31,5],[-29,16],[0,107]],[[8179,4795],[239,0]],[[7694,4794],[146,1],[97,0]],[[7977,4315],[-118,0]],[[7859,4315],[-164,0]],[[9881,4318],[238,1]],[[10120,3838],[-129,0],[-121,-2]],[[9870,3836],[-11,209],[2,65],[20,208]],[[9270,4317],[-2,-35],[-5,-14],[-16,-23],[-21,-17],[-37,-18],[-16,-12],[-18,-27],[-6,-20],[0,-98]],[[9149,4053],[2,-213]],[[9151,3840],[-244,1]],[[8907,3841],[0,119],[-122,1],[0,119],[122,0],[0,118],[-122,0],[0,118]],[[5667,493],[109,1],[9,-20],[117,0],[113,1],[-4,-44],[0,-58],[2,-305],[1,-56]],[[6014,12],[-37,-2],[-79,1],[-171,2],[-73,-1]],[[5654,12],[-2,379],[1,44],[14,58]],[[7209,3845],[200,0]],[[7409,3845],[7,-67],[-5,-72],[0,-30],[8,-61],[-1,-31],[-9,-41]],[[7409,3543],[-57,0],[-53,-14],[-22,5],[-27,20],[-15,6],[-26,0]],[[7209,3560],[0,75]],[[7209,3635],[0,210]],[[7689,3845],[0,-234]],[[7413,3520],[-4,23]],[[7445,3365],[-235,0]],[[7210,3365],[-1,195]],[[8906,8393],[243,2]],[[9149,8395],[1,-156]],[[9150,8239],[-37,-4],[-24,-25],[-57,-21],[-25,-1],[0,26],[-100,0]],[[7212,8332],[-9,-33],[1,-77],[2,-50],[-1,-108],[0,-93]],[[7205,7971],[-118,-1],[-1,-59],[-241,-3],[0,-120],[-97,-1],[0,-115]],[[6748,7672],[-63,-4],[-131,0],[-87,3],[-107,-7],[-39,3],[-43,19],[-20,16],[-69,73]],[[6189,7775],[-2,115],[42,5],[1,18],[18,3],[20,-4],[13,11],[21,10],[6,20],[-3,23],[-23,13],[-44,-7],[-15,13],[-4,18],[28,74],[1,38],[5,17]],[[9899,3351],[-7,10],[0,65],[-5,28],[-8,213],[-9,169]],[[10122,3359],[-1,-480]],[[10121,2879],[-231,0]],[[10605,3361],[0,-346],[0,-131],[-2,-3]],[[10603,2881],[-92,0],[-146,-1],[-108,0],[-136,-1]],[[6266,3846],[69,5],[214,3],[65,-7],[53,-9],[82,0]],[[6749,3838],[1,-65],[-1,-248]],[[6749,3359],[-153,-1]],[[6596,3358],[-252,-1],[-80,1]],[[6264,3358],[0,310],[1,26],[1,152]],[[3355,2883],[278,-2],[207,-1]],[[2382,2889],[165,-1],[205,0],[128,-1]],[[2881,2643],[0,-110],[1,-404]],[[4495,2416],[-103,-59],[-58,-41],[-47,-37],[-32,-28],[-96,-88]],[[4159,2163],[-41,11],[-24,-2],[-28,18],[1,59],[-18,17],[-170,-2],[-37,-5]],[[4159,2163],[-305,-278]],[[9944,9974],[69,25],[39,9],[28,4],[101,11],[51,14],[121,41]],[[10353,10078],[72,-1]],[[10425,10077],[0,-14]],[[10425,10063],[-39,-12],[-56,-29],[-42,-17],[-66,-15],[-42,-7],[-14,-11],[-7,-29],[15,-65],[2,-31]],[[10176,9847],[0,-49],[-11,-50],[1,-36],[8,-31],[1,-24],[-15,-41],[-12,-17]],[[10117,9599],[-1,93],[-4,31],[-11,36],[-20,41],[-17,25],[-99,116],[-21,33]],[[6503,5272],[245,1]],[[6748,5088],[-79,-50],[-99,-69]],[[6570,4969],[-9,11],[-47,23],[-10,16],[-1,253]],[[11673,6719],[1,-113],[3,-59]],[[11677,6547],[-250,-100],[-68,-21],[-62,-11],[-63,-3],[-136,2]],[[11098,6414],[1,308]],[[10853,7554],[76,0],[76,10],[91,1]],[[11096,7565],[-1,-225],[-1,-135]],[[11094,7205],[-227,-1]],[[10867,7204],[1,196],[-13,36],[-2,17],[0,101]],[[10853,7923],[138,2],[0,36],[6,21],[21,17],[28,4],[49,-1]],[[11095,8002],[1,-197]],[[11096,7805],[1,-120],[-1,-120]],[[10853,7554],[1,41],[7,23],[29,38],[14,30],[2,32],[-5,29],[-27,47],[-4,21],[3,37],[-5,26],[-10,19],[-5,26]],[[9880,7680],[244,0]],[[10124,7680],[1,-114],[-1,-125]],[[10124,7441],[-111,0],[-13,-4],[-13,-16],[-56,6],[-37,10],[-14,-1]],[[9880,7436],[1,14],[-1,230]],[[9638,7413],[100,1],[21,13],[99,0],[22,9]],[[9880,7436],[0,-121],[-12,-21],[-3,-16],[1,-42],[15,-35]],[[9881,7201],[-242,-1]],[[9639,7200],[-1,135],[0,78]],[[10124,7441],[0,-240]],[[10124,7201],[-243,0]],[[10124,7201],[1,-241]],[[10125,6960],[-28,1],[-54,12],[-68,5],[-93,-1]],[[9882,6977],[-36,-1],[-35,-13],[-22,-3],[-57,14],[-35,-5],[-38,-23],[-20,-1]],[[9639,6945],[0,255]],[[9151,6718],[260,1]],[[9411,6719],[229,1]],[[9640,6720],[0,-186],[-3,-31],[0,-41]],[[9637,6462],[-316,24],[-163,-2]],[[9158,6484],[0,139],[-7,95]],[[9151,7915],[80,0]],[[9231,7915],[41,0],[2,-25]],[[9274,7890],[0,-70],[-2,-23],[1,-120]],[[9273,7677],[-243,-1]],[[9030,7676],[0,97],[2,22],[119,0],[0,120]],[[9274,7890],[39,-5],[22,14],[13,27],[45,-8]],[[9393,7918],[1,-240]],[[9394,7678],[-121,-1]],[[9393,7918],[244,2]],[[9637,7920],[1,-178]],[[9638,7742],[0,-62]],[[9638,7680],[-111,-1]],[[9527,7679],[-3,9],[-42,-9],[-88,-1]],[[6743,6230],[471,6],[-1,-131],[-1,-108],[-4,-21],[0,-74],[2,-26],[243,-1],[-1,-30],[-8,-8],[20,-16],[48,38]],[[7512,5859],[-19,-24],[-69,-80]],[[6744,6697],[150,-1],[48,2],[144,11],[128,1],[-2,158],[-1,324]],[[7211,7192],[-1,131]],[[7210,7323],[43,-1],[19,-5],[23,-24],[29,-84],[3,-17],[12,0]],[[7454,7193],[202,0],[40,0]],[[7696,7193],[65,-6],[119,0]],[[7880,7187],[159,0]],[[8039,7187],[34,0],[42,7],[0,-89],[38,1],[29,8],[0,-87],[4,-6],[82,0],[20,-12],[-25,-40],[6,-2]],[[8269,6967],[-86,-128]],[[8183,6839],[-147,-216]],[[7612,5994],[-59,-82],[-41,-53]],[[6743,6230],[-1,289],[2,80],[0,98]],[[6503,5468],[0,-196]],[[6503,5272],[-243,0],[-62,2]],[[6198,5274],[16,63],[18,30],[28,42]],[[6517,4933],[53,36]],[[6749,4795],[-103,-1]],[[6646,4794],[-126,0],[-1,134],[-2,5]],[[6749,3838],[226,3]],[[6975,3841],[0,-10],[-17,-28],[-5,-43],[-16,-25],[-5,-37],[17,-37],[3,-44]],[[6952,3617],[0,-94],[-1,-9]],[[6975,3841],[234,4]],[[7209,3635],[-90,-2],[-44,-13],[-25,-4],[-98,1]],[[10547,8639],[61,0]],[[10608,8639],[0,-239]],[[10608,8400],[-242,0]],[[10366,8400],[-1,239]],[[10033,8640],[90,0]],[[10123,8640],[0,-239]],[[10123,8401],[-244,-1]],[[9879,8400],[0,240]],[[9638,7680],[1,-110],[-1,-130]],[[9638,7440],[-229,-2]],[[9409,7438],[0,80],[-4,27],[65,0],[0,75],[3,4],[41,0],[0,52],[13,3]],[[8179,5071],[21,-1],[39,-15],[29,-2],[54,13],[28,-3],[45,-29],[33,-3],[30,6]],[[8458,5037],[1,-32],[-14,-22],[-6,-19],[1,-50],[-21,-52],[-2,-36],[1,-31]],[[8179,4795],[0,121]],[[8179,4916],[0,155]],[[10609,7445],[1,238]],[[10610,7683],[-1,239]],[[10609,7922],[244,1]],[[10867,7204],[-258,-1]],[[10609,7203],[-1,83],[1,159]],[[8658,9591],[243,2]],[[8901,9593],[95,2],[50,-1],[93,2]],[[9139,9596],[0,-120],[5,0],[1,-110],[-2,-6]],[[9143,9360],[-101,22],[-17,2],[-123,-2]],[[8902,9382],[-226,-2],[-17,-1]],[[8659,9379],[-1,212]],[[9145,9115],[-243,-1]],[[8902,9114],[0,268]],[[9500,10078],[304,0],[513,0],[36,0]],[[9944,9974],[-31,-11],[-67,-30],[-60,-37],[-64,-48],[-38,-31],[-28,-31],[-22,-31]],[[9634,9755],[0,48],[-55,30],[-18,-29],[-48,1],[-1,153],[-48,0],[0,82],[30,3],[6,35]],[[9329,10077],[171,1]],[[9634,9755],[0,-3]],[[9634,9752],[-2,-1],[-49,-72],[-14,-24],[-17,-40]],[[9552,9615],[-14,-13],[-55,1],[-55,3],[-45,-5],[-55,-2]],[[9328,9599],[1,119],[-1,216],[1,143]],[[8903,10076],[241,0]],[[9144,10076],[2,-20],[-1,-312],[-2,-148]],[[9143,9596],[-4,0]],[[8901,9593],[0,71],[2,412]],[[8660,9831],[0,245]],[[8660,10076],[243,0]],[[8658,9591],[2,240]],[[6960,10064],[24,5],[65,-4],[168,2]],[[7217,10067],[-7,-12],[-14,-39],[-10,-38],[-10,-26],[0,-52],[9,-33],[15,-26],[4,-14],[-2,-236],[243,-1],[1,-59],[77,0],[0,60],[-20,0],[0,90],[61,0],[0,32],[38,-1],[84,0],[0,-119],[121,0],[38,1],[246,-1]],[[8091,9593],[6,-21],[15,-13],[10,-17],[7,-37],[2,-48],[8,-15],[19,-12],[16,-29],[1,-49]],[[8175,9352],[-489,0]],[[7686,9352],[-258,-1],[-41,16],[-16,3],[-93,0],[-37,-15],[-15,-3],[-165,-2]],[[7217,10067],[79,1],[146,-2],[243,-1],[111,2]],[[7796,10067],[15,-17],[18,-49],[22,-11],[29,0],[21,-16],[11,-35],[16,-24],[17,-49],[15,-26]],[[7960,9840],[23,-37],[6,-25],[0,-48],[10,-25],[22,-18],[44,-14],[18,-17],[7,-26],[1,-37]],[[7499,5487],[60,14],[15,9],[25,-5],[15,-24],[16,-1],[23,-26],[25,-3],[4,-26],[12,-8]],[[7694,5417],[-1,-144]],[[7693,5273],[-202,1]],[[7491,5274],[-4,26],[2,56],[-2,35],[12,25],[-5,40],[5,31]],[[7210,5276],[169,-1]],[[7379,5275],[0,-97],[-31,-6],[-12,-14],[-3,-16],[0,-89]],[[7379,5275],[112,-1]],[[7693,5273],[0,-115]],[[7210,3365],[-199,-1]],[[6140,4888],[85,-1]],[[6225,4887],[13,-19],[-5,-27],[0,-100]],[[6233,4741],[0,-96]],[[6233,4645],[0,-48]],[[6233,4597],[-124,0]],[[6109,4597],[-1,48],[-61,0],[0,146]],[[6609,4742],[5,11],[32,41]],[[6900,4796],[-68,-278],[-12,-47],[-22,-47]],[[6798,4424],[-27,-37],[-105,-118]],[[6666,4269],[-47,-1]],[[6619,4268],[12,19],[12,4],[0,256],[-2,51],[108,1],[0,97],[-3,-1],[-163,-1]],[[6583,4694],[15,34],[11,14]],[[6619,4268],[-114,-1]],[[6505,4267],[-2,29],[5,21],[-4,89],[3,63],[8,41],[32,89],[8,17],[28,78]],[[6233,4597],[28,0],[0,-50],[5,-191],[0,-86]],[[6266,4270],[-100,-2],[-102,1]],[[6064,4269],[26,48],[11,34],[8,58],[0,188]],[[6233,4645],[315,0],[20,49],[15,0]],[[6505,4267],[-79,0],[-5,2],[-155,1]],[[5781,4554],[100,1],[25,2],[75,0],[0,40],[128,0]],[[6064,4269],[-282,0],[0,48]],[[5782,4317],[-1,237]],[[8906,5276],[241,0]],[[9147,5161],[-30,-7],[-15,-8],[-36,-52],[-12,-7],[-74,-6],[-37,8],[-37,1]],[[8906,5090],[0,186]],[[10128,6709],[32,0],[44,7],[46,3],[127,1]],[[10377,6720],[234,0]],[[10611,6720],[0,-348]],[[10611,6372],[-194,-25],[-30,-3],[-71,0],[-55,7],[-20,12],[-54,22],[-62,38]],[[10125,6423],[2,65],[0,209],[1,12]],[[10294,8400],[72,0]],[[10608,8400],[0,-239]],[[10608,8161],[-243,0]],[[10365,8161],[0,60],[-60,0],[0,59],[-12,0],[1,120]],[[6225,4887],[225,-1],[67,47]],[[6609,4742],[-376,-1]],[[6873,4351],[-44,58]],[[6829,4409],[-31,15]],[[8902,9114],[-69,0],[-173,-1]],[[8660,9113],[-1,266]],[[9880,9120],[245,0]],[[10125,9120],[-1,-76],[-1,-43]],[[10123,9001],[-64,-2],[-55,1],[1,-116]],[[10123,8640],[242,-1]],[[10294,8400],[-171,1]],[[8305,6481],[41,-1],[320,9]],[[8666,6489],[3,-88],[0,-164]],[[8669,6237],[-292,0],[-71,0]],[[8181,5998],[4,239]],[[8669,6237],[0,-60],[-5,-420]],[[8664,5757],[-194,-1],[-293,1]],[[8177,5757],[-1,103],[3,22],[2,116]],[[8181,5998],[-196,1]],[[7985,5999],[-47,0]],[[7985,5999],[-4,-40],[-37,-67],[2,-33],[18,-30],[4,-14],[-18,-34],[-1,-26]],[[7693,5754],[0,100],[-6,23],[-9,9],[10,17],[5,18],[4,72]],[[8037,5532],[0,-32],[5,-18],[1,-82],[-9,-23],[-12,-8],[-19,5],[-22,21],[-59,3],[-10,-18],[-23,-2],[-14,10],[-28,-12],[-32,1],[-17,10],[-32,25],[-31,15],[-12,15],[-3,18],[-27,0]],[[7693,5460],[0,82]],[[7694,5417],[-1,43]],[[8178,5547],[0,-182]],[[8178,5365],[1,-89]],[[8179,5276],[-59,-2],[-120,-1],[-35,-3],[-23,-8],[-43,10],[-90,-1],[-12,3],[-104,-1]],[[9870,3836],[-133,2],[-101,0]],[[9636,3838],[-2,151],[0,139]],[[9634,4128],[-1,190]],[[10366,9599],[243,-1]],[[10609,9598],[-1,-180]],[[10608,9418],[-242,1]],[[10608,8639],[232,2]],[[10840,8641],[-5,-70],[1,-53]],[[10836,8518],[5,-59],[10,-57]],[[10851,8402],[-80,0]],[[10771,8402],[-163,-2]],[[9144,10076],[67,1],[118,0]],[[9328,9599],[-25,-2],[-160,-1]],[[11333,9919],[214,-1],[0,15],[29,0]],[[11576,9933],[0,-208]],[[11576,9725],[-133,-1],[-92,1],[-18,4]],[[11333,9729],[0,190]],[[7693,5673],[-34,0],[-36,11],[-48,-3],[-31,1],[-11,11],[-16,-14],[-29,-11],[-86,-7],[-45,-13],[-29,-21],[-44,-47],[-62,-73]],[[7222,5507],[-12,8]],[[9638,7680],[242,0]],[[9638,7413],[0,27]],[[7209,3845],[0,209]],[[5781,4554],[0,44]],[[5781,4598],[-1,155],[-1,45]],[[9493,9359],[9,47],[6,47],[11,48],[33,114]],[[9634,9752],[1,-120],[78,1],[24,-9],[19,1],[1,-25],[111,0],[0,-31]],[[9868,9569],[0,-203],[10,-5]],[[9878,9361],[1,-53],[5,-42],[-6,-9],[7,-17],[-7,-18],[0,-102]],[[9634,9119],[-178,-1]],[[10125,9120],[120,2],[121,0]],[[10366,9122],[0,-66],[-1,-177]],[[10123,8640],[0,361]],[[10366,9122],[82,0],[62,4],[38,8],[62,22]],[[10610,9156],[-1,-38]],[[10609,9118],[-1,-104],[0,-136]],[[10793,9327],[37,41],[20,27],[47,56]],[[10897,9451],[14,18],[97,105],[24,22]],[[11032,9596],[22,8],[59,0]],[[11113,9604],[99,1]],[[11212,9605],[-2,-31],[-12,-22],[-23,-23],[-8,-28],[-8,-14],[-48,-2],[-16,-16],[0,-164]],[[11095,9305],[-199,-2]],[[10896,9303],[-65,0],[-38,24]],[[11095,9305],[-1,-138],[-1,-43]],[[11093,9124],[-198,-3]],[[10895,9121],[1,182]],[[10850,9120],[45,1]],[[11093,9124],[-1,-119],[1,-205],[10,-27]],[[11103,8773],[-10,-6]],[[11093,8767],[-4,9],[-102,-1],[-44,-11],[-38,5],[-55,-8]],[[10850,8761],[0,359]],[[10609,9118],[241,2]],[[10850,8761],[-242,-2]],[[10610,9156],[49,29],[30,23],[43,44],[61,75]],[[2367,4324],[87,-1],[97,1],[28,-5],[58,4],[11,3],[79,0],[17,2],[35,-4],[101,0],[181,-2],[228,-1],[72,-2]],[[3361,4319],[231,-2],[251,-1]],[[4818,1925],[451,-1],[60,1],[108,-1],[452,4],[135,0]],[[6024,1928],[0,-115],[1,-370]],[[6025,1443],[0,-304],[-15,-52],[-24,-55],[-43,-68],[-123,-204],[-74,-126],[-41,-66],[-28,-49],[-10,-26]],[[5654,12],[-261,-1],[-54,1],[-210,-1],[-109,3],[-68,-1],[-93,-5],[-45,0]],[[4814,8],[0,282],[-1,183],[-3,17],[6,203],[-10,283],[3,216],[5,175],[2,97],[0,258],[2,203]],[[9868,1442],[25,307],[55,0],[51,-3],[0,-5],[122,0],[0,101],[-47,-16],[-14,-13],[-36,-23],[-25,-3],[0,13],[-102,0],[10,120],[-8,-1],[12,159],[12,142],[1,80],[-20,252],[-3,59],[-2,104],[-3,50],[-5,54],[-9,61]],[[10603,2881],[365,1],[4,7],[114,-2]],[[11086,2887],[156,-5],[13,2],[345,1],[24,-1],[61,6]],[[11685,2890],[-9,-485],[-4,0],[0,-94],[-1,-208],[-2,-161],[-4,-492]],[[11665,1450],[-96,-3],[-472,-2],[-247,-1],[-72,-1],[-175,-1],[-301,1],[-200,-1],[-88,1],[-97,-2],[-49,1]],[[11665,1450],[-1,-228],[-2,-242],[-2,-93],[-2,-147],[-5,-351],[-5,-321],[1,-67],[-182,1],[-64,-1],[-335,-1],[-127,1],[-309,2],[-556,-2],[-174,1]],[[9902,2],[0,100],[-2,33],[-24,251],[-3,44],[-11,918],[6,94]],[[11108,10079],[225,-1]],[[11333,10078],[0,-89]],[[11333,9989],[-108,0],[0,-100],[-68,-2],[-66,-21]],[[11091,9866],[-2,193],[19,20]],[[11333,10078],[242,1]],[[11575,10079],[1,-146]],[[11333,9919],[0,70]],[[11575,10079],[118,0],[-2,-213],[-1,-112]],[[11690,9754],[-35,-5],[-42,-21],[-37,-3]],[[11333,9729],[-131,-20],[-90,-28]],[[11112,9681],[-21,44]],[[11091,9725],[0,141]],[[11690,9754],[-1,-110]],[[11689,9644],[-17,-12],[-22,-27],[-19,-48],[-6,-10],[-23,-13],[-32,-54],[-28,-31],[-53,-13],[-19,-39],[-16,12],[4,26]],[[11458,9435],[-5,18],[-16,18],[-20,9],[-52,10],[-54,31],[-27,20],[-59,65],[-13,-1]],[[11113,9604],[-5,25],[0,45],[4,7]],[[10606,10077],[139,1]],[[10745,10078],[59,-76],[23,-39],[19,-53],[7,-45]],[[10853,9865],[-61,0],[0,-25],[-184,-1]],[[10608,9839],[-2,238]],[[10745,10078],[116,0],[14,-9],[15,10],[218,0]],[[11091,9725],[-17,-7],[-24,48],[-33,-14],[-167,-1]],[[10850,9751],[-1,75],[4,39]],[[10850,9751],[1,-150]],[[10851,9601],[-242,-3]],[[10609,9598],[-1,241]],[[11689,9644],[-5,-517]],[[11684,9127],[-352,-2],[-10,0]],[[11322,9125],[26,35],[8,25],[34,59],[48,26],[12,37],[-15,16],[-9,26],[18,37],[5,39],[9,10]],[[11322,9125],[-229,-1]],[[11684,9127],[-1,-43]],[[11683,9084],[-22,5],[-57,4],[-21,-1],[-56,-13],[-40,-28],[-54,-34],[-33,-27],[-33,-21],[-21,-18],[-26,-32],[-29,-24],[-23,-8]],[[11268,8887],[-55,-2],[-13,-15],[-4,-20],[-23,-41],[-70,-36]],[[11683,9084],[-1,-196]],[[11682,8888],[-3,-2],[-336,-1],[-20,-10],[-8,-9],[-34,9],[-13,12]],[[11682,8888],[-2,-255]],[[11680,8633],[-10,-2],[-108,0],[-48,11],[-46,0],[-22,-4]],[[11446,8638],[-42,-9],[-86,0],[-61,-7],[-39,7],[-74,-1],[-21,12],[-30,5]],[[11093,8645],[1,15],[20,35],[5,31],[-6,28],[-10,19]],[[11446,8638],[9,-38],[1,-190],[-1,-7]],[[11455,8403],[-134,2],[-227,0]],[[11094,8405],[-1,240]],[[10840,8641],[8,68],[2,52]],[[11093,8767],[-25,-18],[-17,-29],[-17,-35],[-38,-42],[6,-3],[-27,-38],[-33,-58],[-26,-15],[-24,-7],[-40,0],[-16,-4]],[[7796,10067],[383,7],[179,2],[302,0]],[[8660,9831],[-389,1],[-291,0],[-20,8]],[[8658,9591],[-28,-1],[-381,3],[-158,0]],[[8659,9379],[-54,-4],[-111,-24],[-319,1]],[[8660,9113],[-136,0],[-197,2],[-23,2],[-45,-4],[-29,-5],[-53,-18]],[[8177,9090],[-1,27]],[[8176,9117],[1,56],[-2,179]],[[8660,9113],[2,-242]],[[8662,8871],[-193,0],[-292,1]],[[8177,8872],[-1,151],[1,67]],[[8662,8871],[0,-177]],[[8662,8694],[1,-63]],[[8663,8631],[-209,0],[-277,0]],[[8177,8631],[0,241]],[[10851,9601],[171,2],[10,-7]],[[10897,9451],[-1,20],[-153,-55],[-117,-49],[-18,-6],[0,57]],[[10365,9841],[10,-1],[233,-1]],[[10425,10077],[181,0]],[[10365,9841],[-3,72],[4,30],[13,28],[37,59],[9,33]],[[10610,9156],[-2,82],[-242,1],[0,119]],[[10125,9120],[0,183],[-2,58]],[[10121,9586],[-30,0],[-2,14],[-13,11],[-32,3],[-44,11],[0,-57],[-132,1]],[[11094,8405],[-243,-3]],[[10123,8401],[-1,-239]],[[10122,8162],[-79,0],[-21,-2]],[[10022,8160],[-143,0]],[[9879,8160],[0,240]],[[9635,8400],[244,0]],[[9879,8160],[-243,-1]],[[9636,8159],[-1,241]],[[9635,8400],[0,107]],[[9635,8507],[0,133]],[[9882,7960],[87,79],[28,35],[17,36],[8,50]],[[10122,8162],[2,-242]],[[10124,7920],[0,-240]],[[9880,7680],[0,234],[2,46]],[[9638,7742],[32,21],[18,16],[131,120],[63,61]],[[9637,7920],[-1,239]],[[10365,8161],[-212,-1],[-31,2]],[[10365,8161],[2,-240]],[[10367,7921],[-243,-1]],[[10608,8161],[1,-239]],[[10609,7922],[-242,-1]],[[10771,8402],[0,-77],[6,-24],[10,-13],[40,-39],[9,-4],[43,-1],[-21,-36],[-6,-20],[-1,-25]],[[10851,8163],[-243,-2]],[[7137,8621],[273,-41],[35,-4],[170,-3],[75,3]],[[7690,8576],[1,-184]],[[7691,8392],[0,-240]],[[7471,8152],[-167,0]],[[7304,8152],[0,109],[-6,36],[-17,50],[-30,51]],[[7444,7912],[-143,1]],[[7301,7913],[3,239]],[[7690,8576],[48,-1],[20,-5],[32,-16],[33,31],[13,17],[12,29]],[[7848,8631],[128,1],[201,-1]],[[8177,8631],[1,-157]],[[8179,8392],[-245,0],[0,-12],[-203,-1],[0,13],[-40,0]],[[8180,8152],[-489,0]],[[8663,8631],[1,-241]],[[8180,7912],[243,1]],[[8423,7913],[243,1]],[[8666,7914],[0,-239]],[[8666,7675],[-47,-1],[-137,-1],[-128,-1]],[[8181,7675],[-1,237]],[[8665,8153],[1,-114]],[[8666,8039],[0,-125]],[[8423,7913],[1,25],[-36,20],[-11,30],[6,38],[-13,32],[-2,18],[6,17],[22,31],[0,29]],[[8664,5757],[0,-27]],[[8664,5730],[-21,3],[-18,-9],[9,-35],[-4,-29],[-24,2],[-3,15],[3,29],[-23,9],[-22,-19],[-9,-26],[-17,-7],[-27,-19],[-20,-29],[-3,-17],[-38,-46],[-11,-42],[-1,-50],[-17,-28],[-46,-45],[-33,-2],[-12,-13],[-11,-22],[-23,-1],[-12,8],[-20,3],[-35,12],[-19,24],[-8,-6],[1,-27],[-22,2]],[[8664,5629],[0,-353]],[[8664,5276],[-161,0]],[[8503,5276],[4,32],[13,26],[2,23],[-37,3],[-28,9],[-18,2],[-5,23],[16,7],[16,21],[2,36],[6,12],[31,16],[20,35],[38,26],[13,19],[33,31],[11,19],[21,12],[23,1]],[[8664,5629],[0,101]],[[8664,5757],[94,-1]],[[8758,5756],[163,-1],[227,1]],[[9148,5756],[-1,-99],[2,-39],[0,-160]],[[8906,5276],[-242,0]],[[8906,5090],[-23,-1],[-38,-18],[-26,-4],[-20,5],[-44,23],[-43,25],[-22,5],[-26,1]],[[8664,5126],[0,150]],[[7937,4795],[0,114],[7,5],[34,0],[46,-8],[29,1],[39,11],[26,2],[61,-4]],[[9151,6008],[36,-4]],[[9187,6004],[54,2],[16,-6],[19,12],[1,23],[-3,34],[13,25],[21,15],[11,15],[14,43],[18,16],[8,16],[0,38],[19,0]],[[9378,6237],[11,-47],[-2,-38],[5,-14],[18,-17],[53,-25],[28,-22],[13,-20],[6,-25],[-1,-35],[-5,-38],[3,-33],[-15,-58]],[[9492,5865],[-39,-4],[-26,3],[-19,-19],[-1,-27],[-5,-11],[18,-22],[3,-28]],[[9312,5758],[-52,0],[-112,-2]],[[9148,5756],[3,252]],[[9637,6462],[-1,-53],[4,-14],[0,-157]],[[9640,6238],[-262,-1]],[[9187,6004],[-14,51],[-10,57],[-5,70],[-1,194],[1,108]],[[11094,8405],[0,-120]],[[11094,8285],[0,-119]],[[11094,8166],[-243,-3]],[[11094,8166],[1,-164]],[[10853,7923],[0,24],[9,33],[5,29],[-2,24],[-13,58],[-1,72]],[[11455,8403],[1,-120]],[[11456,8283],[-53,2],[-309,0]],[[11456,8283],[1,-178]],[[11457,8105],[-63,0],[-57,-5]],[[11337,8100],[-54,-15],[-44,-19],[-10,23],[0,77],[-135,0]],[[11457,8105],[120,1],[0,5],[95,0]],[[11672,8111],[-7,-142],[1,-43]],[[11524,7926],[-307,0]],[[11217,7926],[-1,119],[121,0],[0,55]],[[11096,7565],[167,1],[248,1]],[[11336,7206],[-242,-1]],[[11096,6961],[-2,244]],[[9882,6977],[1,-258]],[[9883,6719],[-243,1]],[[9640,6720],[-1,225]],[[10125,6960],[2,-218],[1,-33]],[[10128,6709],[-52,7],[-87,3],[-44,0]],[[9945,6719],[-62,0]],[[9945,6719],[0,-24],[-17,-35],[-7,-37],[0,-75],[7,-14],[28,-6],[-4,-24],[19,-2],[6,-9],[18,-2],[0,-74]],[[9995,6417],[-118,29],[-51,9],[-60,5],[-129,2]],[[10125,6960],[22,-2],[18,-7],[21,-2],[57,8],[42,2],[48,5],[51,14]],[[10384,6978],[12,-39],[6,-55],[-3,-32],[-17,-86],[-5,-46]],[[10384,6978],[22,8],[23,3],[28,-6],[48,-32],[26,-2],[53,11],[26,0]],[[10610,6960],[1,-240]],[[11096,6961],[-228,0]],[[10868,6961],[-1,159],[0,84]],[[10868,6961],[-258,-1]],[[10610,6960],[-1,243]],[[10868,6961],[0,-48],[2,-22],[-1,-127],[-15,-43]],[[10854,6721],[-243,-1]],[[11099,6722],[-245,-1]],[[10854,6721],[-2,-30],[2,-287]],[[10854,6404],[-243,-32]],[[8180,8152],[0,-240]],[[8180,7912],[-16,0],[-29,-13],[-56,6],[-16,7],[-16,23],[-40,21],[-33,10],[-28,1],[-37,9],[-59,6],[-23,-2],[-39,-20],[-41,-35],[-18,-10],[-37,-3]],[[8181,7675],[-32,2],[-69,0],[-83,-4],[-44,0]],[[7953,7673],[-259,1]],[[7694,7674],[1,-108],[2,-341],[-1,-32]],[[7953,7673],[0,-15],[-14,-25],[-3,-21],[-22,-8],[-23,-39],[12,-6]],[[7903,7559],[-8,-21],[28,-65],[2,-40],[-2,-40],[3,-127],[-13,-22],[-29,-9],[3,-41],[-7,-7]],[[8092,7509],[-31,-1],[5,44],[-115,0],[-31,1],[-17,6]],[[9637,5849],[1,97],[4,39],[-3,80]],[[9639,6065],[61,4],[22,-4],[24,-12],[31,-22],[27,-29],[27,-37],[14,-12],[20,-5],[42,4],[27,16],[21,0],[26,-12],[33,21],[21,2],[17,-12],[16,-33],[14,-8],[40,-7]],[[10122,5919],[-11,-54],[-13,-41],[-29,-65]],[[10069,5759],[-244,-1],[-189,0]],[[9636,5758],[1,91]],[[9635,5507],[0,-41]],[[9633,5068],[0,-270]],[[9269,4797],[0,239],[-2,16],[-12,25],[-18,15],[-52,17],[-15,11],[-15,20],[-8,21]],[[10607,5759],[241,0]],[[10848,5759],[0,-81],[43,2],[3,-16],[45,0],[0,-49],[-16,-52],[-40,-12],[-13,-13],[-22,-4],[-3,-38],[-8,-25]],[[10837,5471],[-15,-39],[2,-43],[17,-37],[7,-29],[0,-46]],[[10605,5277],[1,196],[1,286]],[[9409,7438],[-85,0]],[[9324,7438],[-50,0]],[[9274,7438],[0,194],[-1,45]],[[9152,7437],[122,1]],[[9324,7438],[2,-23],[11,-21],[72,-74],[65,-81],[8,-14],[3,-26]],[[9485,7199],[-53,0]],[[9432,7199],[-280,-2]],[[9152,7197],[0,240]],[[9639,7200],[-154,-1]],[[8669,6718],[286,0]],[[8955,6718],[196,0]],[[9158,6484],[-100,-1],[-108,7],[-27,0]],[[8923,6490],[-210,0],[-47,-1]],[[8666,6489],[3,100],[0,129]],[[8910,6971],[199,1],[2,-117],[31,-8]],[[9142,6847],[4,-92],[5,-37]],[[8955,6718],[3,76],[-5,21],[-33,62],[-8,23],[-2,71]],[[9077,7197],[75,0]],[[9432,7199],[5,-25],[-24,-17],[-1,-21],[20,-2],[10,-14],[0,-127],[-9,-27],[-1,-22]],[[9432,6944],[-39,0],[-53,14],[-187,-1],[0,-101],[-11,-9]],[[9142,6847],[0,184],[-5,45],[-10,35],[-20,45],[-30,41]],[[9639,6945],[-207,-1]],[[9411,6719],[-1,27],[-10,21],[10,23],[0,125],[18,15],[4,14]],[[10854,6240],[-3,-175],[-3,-306]],[[10607,5759],[2,181],[2,299],[243,1]],[[10368,5760],[239,-1]],[[10307,5278],[6,35],[13,17],[25,20],[11,22],[3,26],[15,23],[6,20],[-4,18],[-16,28],[-12,33],[-1,20],[20,57],[-2,26],[-14,38],[1,25],[11,53],[-1,21]],[[10854,6240],[100,1],[5,37],[9,23],[14,15],[35,19],[37,9],[14,8],[30,7],[9,9]],[[11107,6368],[23,-43],[15,-20],[35,-23],[33,-12],[13,-11],[2,-18],[-5,-29],[-43,-80],[-9,-33],[10,-54],[-6,-21],[-21,-16],[-42,-8],[-37,-1],[-36,-14],[-14,-19],[-7,-17],[-37,-124],[-12,-50],[0,-17]],[[10969,5758],[-121,1]],[[10837,5471],[21,-7],[22,3],[35,9],[35,-3],[35,14],[28,-4],[11,-8],[20,-31],[15,-14],[30,-7]],[[11090,4966],[0,-167]],[[8667,7195],[227,1]],[[8894,7196],[183,1]],[[8910,6971],[-157,1],[-43,1],[-42,-13]],[[8668,6960],[-1,83]],[[8667,7043],[0,152]],[[8927,7436],[10,-49],[13,-28],[27,-39],[26,-31],[74,-92]],[[8894,7196],[15,82],[0,158],[18,0]],[[10362,4798],[0,-34],[-6,-48],[7,-31],[12,-31],[0,-22],[-7,-23],[-14,-21],[-46,-49]],[[10119,4621],[1,177]],[[2385,8039],[67,-8],[150,2],[78,28],[63,26],[14,9],[36,1],[25,10],[50,41],[51,31],[55,60],[45,58],[42,154],[25,21],[73,72],[62,81],[32,50],[42,17],[40,4],[24,-2],[24,11],[35,9],[49,0],[40,-12],[49,-24],[42,-37],[33,-52],[21,-64],[2,-21],[-4,-37],[-7,-22],[-31,-54],[-30,-32],[-17,-31],[-34,-72],[-22,-67],[-1,-30],[23,-48],[20,-20],[26,-6],[42,25],[96,72],[39,41],[34,44],[26,37],[32,40]],[[3843,8271],[-15,-18],[-76,-76],[-47,-45],[-83,-67],[-69,-54],[-22,-19],[-28,-15],[-31,-13],[-58,-9],[-49,4],[-149,20],[-156,19],[-87,5],[-133,-3],[-141,-1],[-86,-4],[-147,1],[-84,9]],[[2382,8005],[3,34]],[[8179,5276],[1,-148],[-1,-57]],[[11107,6368],[-9,25],[0,21]],[[11677,6547],[-1,-99],[0,-208],[1,-103],[0,-378]],[[11677,5759],[-126,0],[-582,-1]],[[8458,5037],[34,22],[45,48]],[[8537,5107],[14,14],[25,4],[88,1]],[[8664,5126],[0,-330]],[[11677,5146],[1,-30],[0,-316]],[[11678,4800],[-34,1],[-305,-2],[-249,0]],[[6266,958],[53,-1],[50,1],[53,12],[87,-1],[8,2],[132,-2],[102,-3],[68,0],[114,0],[253,1],[42,0],[124,-1],[358,-3]],[[7710,963],[0,-182],[2,-297],[0,-142],[-1,-337]],[[7711,5],[-167,1],[-65,1],[-252,1],[-358,-1],[-233,1],[-367,2]],[[6269,10],[-2,33],[1,444],[0,38],[1,264],[-21,0],[20,89],[-2,80]],[[8910,6155],[25,1],[23,5],[40,-8],[27,-3],[64,0],[29,-13],[12,-18],[14,-63]],[[9144,6056],[-27,-6],[-13,-9],[-25,-31],[-21,-44],[-14,-20],[-27,-28],[-37,-30],[-25,-15],[-16,-31],[-13,-16]],[[8926,5826],[-13,19],[-5,17],[2,25],[10,30],[5,36],[-4,33],[-12,59],[1,110]],[[8662,2887],[18,-1],[427,-8],[39,2]],[[9146,2880],[192,0],[299,-2]],[[9637,2878],[0,-275],[-2,-163],[-3,-42],[4,-8],[2,-153],[-1,-78]],[[9637,2159],[-184,0],[0,-115],[-56,2],[2,112],[-13,1],[-235,1]],[[9151,2160],[-30,-1],[-456,2]],[[6748,7672],[98,3],[18,2],[69,-2],[30,-4],[93,-2],[65,7],[69,-1],[16,-4]],[[7206,7671],[2,-61],[2,-287]],[[7211,7192],[-22,0],[-42,-9],[-32,-9],[-18,-1],[-289,-1],[-276,1],[-38,-8],[-23,-14],[-24,-22],[-42,-57],[-10,-6],[-30,-37],[-25,-22],[-30,-10],[-52,-2]],[[6258,6995],[0,163],[2,28],[0,57],[-5,23],[1,38],[35,95],[3,29],[-7,31]],[[6287,7459],[-13,25],[-34,43],[10,6],[-24,33],[-23,50],[-10,40],[-4,119]],[[7848,8631],[49,122],[20,38],[19,20],[61,60],[180,1]],[[9151,2160],[3,-475],[150,1],[333,0],[0,259],[0,214]],[[9902,2],[-117,1],[-95,0],[-82,1],[-326,-1],[-89,-1],[-129,1],[-252,5],[-160,1],[-179,0],[-249,-3],[-513,-1]],[[7710,963],[-1,127],[-4,219],[-7,447],[-1,168]],[[8176,9117],[-43,-6],[-189,2],[-256,-1]],[[7688,9112],[1,43],[0,183],[-3,14]],[[9393,8157],[243,2]],[[9393,7918],[0,239]],[[10122,5919],[7,56],[2,141],[-1,47],[-8,76]],[[10122,6239],[-3,48],[4,98]],[[10123,6385],[2,38]],[[10854,6404],[78,8],[60,3],[106,-1]],[[10368,5760],[-91,-3],[-146,-1],[-9,1],[-1,-238]],[[10121,5519],[-168,-1]],[[9953,5518],[22,45],[94,196]],[[2382,8005],[-28,-1],[-66,3],[-43,-6],[-47,-22],[-30,-25],[-34,-49],[-83,-140],[-62,-108]],[[1989,7657],[-35,-16],[-13,-10],[-21,-25],[-9,-24],[-1,-16],[0,-189],[-2,-40]],[[1908,7337],[-470,22],[0,-7],[-205,9],[-32,0],[-67,-6],[-39,-9],[-50,-14],[-41,-16],[-60,-32],[-54,-38],[-50,-46],[-23,-25],[-34,-46],[-17,-26],[-53,-95],[-18,-29],[-26,-36],[-55,-59],[-36,-30],[-59,-39],[-52,-26],[-27,-11],[-60,-19],[-79,-12],[-52,-2],[-241,0]],[[8,6745],[-2,258],[-3,8],[-2,209],[-1,231],[3,241],[1,303],[2,43],[71,-57],[46,-41],[50,-36],[81,-47],[28,-22],[46,-27],[84,-32],[60,1],[85,23],[48,20],[71,48],[61,53],[9,10],[41,66],[25,47],[21,60],[4,33],[5,70],[14,33],[-5,24],[-20,28],[-38,83],[-1,25],[17,48],[21,42],[12,16],[29,47],[32,62],[18,12],[94,10],[40,11],[50,7],[68,-1],[36,-11],[40,-10],[128,-41],[72,-35],[79,-45],[52,-26],[59,-22],[73,-16],[80,-16],[85,-26],[105,-29],[39,-38],[33,-13],[2,-9],[21,-21],[52,-68],[81,-89],[175,-100]],[[1908,7337],[-2,-8],[52,-2],[315,-15],[87,-3],[281,0]],[[2641,7309],[-6,-115],[1,-94],[-2,-404],[5,-422],[0,-274],[235,-1],[7,-5],[1,-71],[0,-279],[-1,-282],[-1,-74],[9,-9],[466,-2],[10,0],[-1,-247],[-1,-522],[-2,-189]],[[10,4331],[1,190],[0,132],[1,112],[0,104],[3,417],[0,410],[2,165],[-2,57],[-1,151],[-3,250],[-4,329],[1,97]],[[3847,7071],[141,-115],[44,-29],[48,-20],[30,-9],[36,-5],[61,0],[107,10],[65,2],[69,-7]],[[4448,6898],[-11,-53],[-32,-94],[-4,-68],[16,-28],[-31,-22],[-30,-14],[-14,-12],[-8,-21],[-3,-43],[-10,-20],[-21,-16],[-11,-21],[1,-14],[13,-14],[20,-10],[17,-25],[22,-10],[5,-11],[-4,-27],[2,-14],[33,2],[12,-21],[20,-5],[13,-15],[1,-29],[-19,-15],[14,-33],[-1,-30]],[[4438,6215],[-30,-2],[-17,-7],[-18,-29],[-32,-12],[-23,-28],[-65,48],[-26,26],[-27,-15],[-21,5]],[[4179,6201],[-30,22],[-36,5],[-45,13],[-7,8],[6,17],[-7,18],[-18,-15],[-14,5],[-11,16],[-18,14],[-2,12],[23,18],[-13,8],[-65,18],[-30,2],[-41,23],[-4,20],[4,22],[22,27]],[[3893,6454],[5,31],[8,10],[-11,14],[-16,6],[-18,-9],[-8,6],[-8,36],[10,17],[17,6],[49,-14],[11,22],[-18,26],[1,27],[-5,12],[-15,4],[-17,-13],[-8,-20],[-17,-1],[-13,20],[5,47],[15,10],[1,20],[-9,8],[19,23],[3,20],[-17,22],[-13,6],[-21,23],[-3,13],[14,41],[15,9],[12,-10],[19,5],[4,16],[-4,34],[19,22],[-3,10],[-21,4],[-15,25],[-13,2],[0,87]],[[4438,6215],[30,14],[287,1],[69,1],[413,0],[65,1]],[[5302,6232],[-1,-36],[-2,-345],[7,-60],[11,-39]],[[5317,5752],[-214,-2],[-92,-8]],[[5011,5742],[-52,28],[-24,6],[-29,-1],[-88,-13],[-81,-14],[-47,1],[-24,5],[-42,4],[-77,-3],[-36,-13],[-43,11],[-10,15],[-2,37],[10,21],[-12,28],[-16,14],[-4,29],[-11,26],[-25,19],[-23,2],[-21,-4],[-32,10],[-31,56],[-10,5],[-18,-5],[-58,15],[-16,20],[15,23],[17,4],[3,28],[-13,39],[-15,18],[-3,24],[-14,24]],[[5317,5752],[6,-20],[21,-45],[19,-29],[61,-84],[106,-142],[138,-183],[7,-10],[38,28],[67,5]],[[5780,5272],[-2,-65],[2,-161]],[[5779,4798],[-240,-1]],[[5539,4797],[-154,0]],[[5385,4797],[-1,19],[-12,36],[-26,36],[-47,28],[0,107]],[[5299,5023],[47,-1],[1,28],[10,15],[-5,9],[3,19],[-13,10],[0,11],[22,13],[17,19],[-12,34],[-13,14],[-4,71],[8,49],[-1,22],[-17,25],[-32,58],[-12,15],[-5,22],[-13,22],[1,63],[-10,14],[-37,3],[-26,9],[-20,13],[-22,23],[-9,17],[-9,30],[-17,37],[-22,3],[-20,34],[-16,-12],[-22,3],[-18,20],[-24,1]],[[5009,5736],[2,6]],[[7073,8982],[27,0],[58,-8],[44,-10],[0,-7],[91,-22],[142,-31],[76,-9],[53,-1],[41,3],[84,14]],[[7689,8911],[0,-244],[1,-91]],[[10603,4318],[-343,0]],[[5294,4797],[91,0]],[[5539,4797],[0,-207],[-4,-19]],[[5535,4571],[-9,-30]],[[5526,4541],[-188,1],[-28,-7],[-15,1]],[[5295,4536],[0,75],[9,32],[-1,81],[-9,37],[0,36]],[[7299,7672],[2,241]],[[8503,5276],[-244,0],[-80,0]],[[9144,6056],[6,-21],[1,-27]],[[8758,5756],[2,20],[11,20],[20,11],[35,-1],[25,-8],[21,0],[29,17],[25,11]],[[8669,6237],[244,0]],[[8913,6237],[-3,-82]],[[5780,5272],[143,0],[96,-1]],[[5651,8893],[176,30],[71,8],[96,0],[136,-2]],[[6233,8141],[-95,0],[-2,-58],[1,-63],[-50,-1],[-314,2],[-243,1]],[[5530,8022],[0,104],[0,256],[1,60],[44,0],[8,14],[3,141],[59,0],[6,26],[0,242],[0,28]],[[7689,3845],[246,0]],[[7935,3845],[1,-220],[-1,-104],[1,-158]],[[7936,3363],[-248,3]],[[5780,5489],[50,0],[23,-9],[27,-26],[24,-7],[22,5],[16,-3],[30,-16],[48,5],[0,-164]],[[5780,5272],[1,26],[-1,191]],[[11092,3364],[358,1],[14,3],[38,22],[17,19],[16,38],[35,-23],[5,78],[25,12],[4,16],[-9,54],[-6,8],[-6,40],[6,60],[19,19],[28,0],[22,-22],[18,5]],[[11676,3694],[0,-100],[11,-647],[-2,-57]],[[11086,2887],[-1,39],[-18,46],[2,31],[22,33],[7,20],[4,40],[-11,59],[1,209]],[[11678,4800],[-5,-28],[-9,-19],[-72,-65],[-12,-22],[-6,-38],[2,-220],[-2,-15],[0,-74]],[[11574,4319],[-95,0],[-200,-1],[-191,0]],[[10605,3361],[297,2],[190,1]],[[8183,6839],[0,-122],[122,1]],[[8305,6718],[0,-120],[-122,0],[1,-72]],[[4844,4316],[195,1],[262,-1]],[[5301,4316],[217,0]],[[5518,4316],[264,1]],[[6266,4270],[0,-81],[-2,-37],[0,-161],[2,-40],[0,-90]],[[6266,3861],[0,-15]],[[6264,3358],[0,-98],[-6,-80],[0,-143],[1,-157],[0,-156],[-2,-118],[-5,-31],[-18,-43],[-18,-29],[-18,-22],[-79,-77]],[[6119,2404],[-35,15],[-23,2],[-43,-11],[-45,-7],[-210,-2],[-261,-1],[-145,0],[-412,2],[-126,-1]],[[4819,2401],[1,200]],[[7936,3363],[227,0],[14,1]],[[8177,3364],[-1,-145],[-1,-333]],[[7692,2404],[-3,337],[-1,39],[14,7],[11,18],[22,5],[20,15],[11,24],[37,2],[16,10],[9,13],[26,13],[-167,0]],[[7687,2887],[2,374],[-1,105]],[[8179,3844],[242,0]],[[8421,3844],[-1,-241],[-84,0],[-1,-240],[-151,0],[-7,1]],[[8177,3364],[1,270],[1,210]],[[9147,3360],[108,-1],[244,-1],[138,0]],[[9146,2880],[1,195],[0,285]],[[6121,2402],[35,-15],[23,1],[40,12],[22,2],[221,1],[287,-1]],[[6749,2402],[237,2],[224,0]],[[7210,2404],[172,0],[136,1],[174,-1]],[[6266,958],[1,96],[-1,93],[0,297],[-241,-1]],[[6024,1928],[-1,301],[13,64],[14,31],[13,21],[23,27],[35,30]],[[6269,10],[-44,1],[-211,1]],[[8907,3841],[-244,1]],[[8663,3842],[-242,2]],[[8179,3844],[1,107],[0,322],[0,42]],[[9149,4053],[33,-2],[35,-23],[49,-9],[56,-14],[30,3],[27,10],[47,4],[16,10],[29,30],[13,8],[42,2],[23,13],[19,32],[26,13],[40,-2]],[[9636,3838],[-485,2]],[[9637,3358],[0,216],[-1,264]],[[9147,3360],[1,219],[3,261]],[[10603,4318],[3,-377],[0,-101]],[[8923,6490],[-1,-59],[-11,-24],[-4,-42],[4,-22],[2,-106]],[[4448,6898],[45,-9],[53,-18],[59,-24],[265,-115],[32,-13],[50,-15],[56,-10],[65,-5],[226,-1]],[[5299,6688],[4,-183],[-1,-273]],[[8663,3842],[1,-64],[-1,-245],[0,-164],[1,-5]],[[8664,3364],[-1,-4],[-1,-302],[-1,-64],[1,-107]],[[11092,3844],[453,1],[115,1],[16,5]],[[11676,3851],[3,-62],[-3,-95]],[[11092,3364],[0,373],[0,107]],[[5009,5736],[-3,-17],[7,-24],[34,-32],[13,-40],[-1,-32],[-9,-34],[-15,-34],[-6,-27],[0,-65],[-6,-18],[-21,-25],[-27,-11],[-17,-1],[-61,20],[-27,-2],[-28,-15],[-14,-17],[-12,-30],[-3,-18],[2,-42]],[[4815,5272],[1,-120],[-3,-272],[1,-86]],[[4814,4794],[-496,2],[-150,-2],[-87,1],[-238,0]],[[3843,4795],[1,327],[1,345],[1,286],[2,148],[-1,93],[0,118],[-151,0],[-2,25],[4,30],[20,47],[0,19],[10,16],[1,19],[14,14],[0,12],[18,15],[16,20],[14,11],[39,3],[8,11],[-14,33],[2,13],[39,58],[19,-8],[9,4]],[[4957,5272],[46,1],[201,-1],[72,0],[21,-23],[1,-33],[0,-131],[1,-62]],[[5294,4797],[-97,1]],[[5197,4798],[-2,29],[-7,30],[5,49],[-7,34],[-20,33],[-17,50],[-9,13],[-21,13],[-51,0],[-31,11],[-55,66],[-32,22],[-14,27],[-2,29],[7,21],[16,28],[0,19]],[[5781,4598],[-126,2],[-1,-15],[-30,-1],[-23,-13],[-66,0]],[[9795,5279],[81,-3],[5,-28],[17,-6]],[[9898,5242],[0,-16],[1,-335],[1,-93]],[[9900,4798],[-8,0]],[[2641,7309],[122,-1],[166,1],[234,4],[64,-5],[42,-10],[339,-92],[52,-17],[61,-28],[33,-19],[47,-34],[46,-37]],[[3843,4795],[0,-169],[0,-92],[0,-218]],[[6748,2880],[0,238]],[[6748,3118],[48,2],[184,1],[10,43],[0,26],[-11,56],[-13,26],[-1,13],[12,24],[20,12],[12,16],[2,27]],[[7210,3365],[-2,-249],[-3,-13],[-17,-19],[-7,-24],[4,-19],[47,-69],[5,-22],[-10,-28],[-16,-16],[-3,-21]],[[7208,2885],[-2,-12],[1,-378],[3,-91]],[[6749,2402],[-1,434],[0,44]],[[5780,5753],[0,-264]],[[5317,5752],[318,1],[145,0]],[[7499,5487],[-2,11],[-34,-12],[-63,-9],[-47,0],[-34,5],[-77,18],[-20,7]],[[9635,5513],[151,-70],[22,-13],[36,-31],[20,-26],[13,-24]],[[9877,5349],[14,-38],[7,-52],[0,-17]],[[9953,5518],[-199,0],[-27,8],[-14,11],[-28,33],[-16,13],[-33,6]],[[10120,5279],[1,240]],[[5299,6688],[9,0]],[[5308,6688],[194,0],[336,0],[77,2],[264,17],[79,3]],[[6258,6710],[1,-264],[0,-41],[1,-171]],[[6260,6234],[-98,-2],[-115,-1],[-136,2],[-134,-1]],[[5777,6232],[-211,-1],[-59,1],[-205,0]],[[6260,5752],[-7,0],[-325,0],[-148,1]],[[5780,5753],[-1,164],[0,179],[-2,136]],[[6258,6710],[79,1],[356,-14],[51,0]],[[9640,6238],[482,1]],[[9639,6065],[1,173]],[[3847,7547],[157,0],[17,4],[83,34],[27,15],[29,21],[2,33],[5,8],[144,0],[1,-80],[2,-152],[5,-6],[223,-2],[120,1],[26,2],[111,1]],[[4799,7426],[2,-125],[39,-2],[20,-5],[28,-14],[22,-18],[43,-42],[38,-21],[47,-8],[251,0]],[[5289,7191],[8,0]],[[5297,7191],[9,-449],[2,-54]],[[3847,7071],[-2,297],[2,117],[-5,8],[5,22],[0,32]],[[5278,9149],[31,-1],[35,21],[15,-4],[4,-19],[20,-8],[27,14],[9,25],[11,10],[30,-3],[15,-15],[26,-10],[30,-38],[22,-17],[34,5],[35,-2],[26,22],[3,26],[6,13]],[[5657,9168],[-1,-96],[-6,-49],[1,-130]],[[5651,8893],[-155,-25],[-69,-4],[-108,0],[-51,-2]],[[5024,10298],[53,-71]],[[5077,10227],[59,-79],[26,-41],[22,-43]],[[5184,10064],[48,-92],[22,-54],[18,-54],[17,-99],[12,-114],[3,-69]],[[4555,8142],[-138,0],[-104,1],[-59,0],[-408,1]],[[3846,8144],[-3,127]],[[9878,9361],[122,-2],[123,2]],[[6258,6710],[0,285]],[[8305,6718],[121,0]],[[8426,6718],[243,0]],[[8269,6967],[24,-9],[132,0]],[[8425,6958],[1,-240]],[[5218,10069],[-10,-11],[1,-13],[71,-142],[12,-14],[45,-36],[32,-7],[62,0],[54,-3],[29,-4],[28,0],[27,15],[42,3]],[[5611,9857],[2,-27],[12,-22],[20,-23],[5,-16],[1,-187]],[[5651,9582],[-347,0]],[[5184,10064],[34,5]],[[6488,9928],[-41,19],[1,9],[-153,92],[-74,46],[-38,18],[-170,53],[-121,36],[-163,50],[-56,15],[-79,12],[-42,1],[-309,-2],[-47,-2],[-34,-6],[-32,-13],[-53,-29]],[[4811,10581],[90,26],[85,18],[45,6],[60,3],[109,8],[62,6],[58,1],[59,-3],[72,2],[49,-1],[37,-4],[35,-9],[83,-32],[134,-71],[68,-45],[57,-33],[68,-47],[58,-47],[61,-41],[44,-37],[67,-34],[76,-34],[66,-33],[141,-64],[96,-56],[160,0],[148,2]],[[5218,10069],[25,-10],[405,1]],[[5648,10060],[1,-87],[-6,-23],[-23,-39],[-9,-54]],[[7688,9112],[1,-193]],[[7689,8919],[0,-8]],[[10123,6385],[-128,32]],[[1989,7657],[377,163],[26,12],[68,45],[21,11],[36,14],[33,8],[73,1]],[[2623,7911],[0,-64],[-5,-23],[-11,-25],[-41,-65],[-14,-59],[0,-46],[17,-63],[6,-12],[45,-48],[8,-15],[8,-28],[1,-40],[6,-65],[-2,-49]],[[2623,7911],[145,1],[379,-2],[63,6],[48,-6],[69,-21],[31,-3],[33,3],[47,12],[34,5],[129,3],[55,14],[44,22],[40,12],[43,1],[62,-5]],[[3845,7953],[-1,-52],[1,-95],[-2,-144],[4,-115]],[[5267,7901],[80,-1],[46,-2],[48,0],[89,6],[0,118]],[[6287,7459],[-70,-32],[-57,-4],[-119,1],[-195,-1],[-267,1],[-1,-13],[-35,-57],[-15,2],[-10,-24],[13,-39],[1,-232]],[[5532,7061],[-36,16],[-34,28],[-44,49],[-27,22],[-33,13],[-61,2]],[[5289,7191],[-2,469]],[[7206,7671],[93,1]],[[8666,7675],[0,-81],[-22,-6],[-22,-17],[-102,-60],[-150,-85],[-44,-25],[-26,-12]],[[8666,7516],[41,56],[79,104]],[[8786,7676],[9,0]],[[8795,7676],[132,-1]],[[8927,7675],[0,-239]],[[8667,7195],[0,241],[-1,80]],[[8927,7436],[225,1]],[[10245,7681],[122,1]],[[10367,7682],[0,-239]],[[10367,7443],[-122,-1]],[[10245,7442],[0,239]],[[10367,7443],[239,1],[3,1]],[[10609,7203],[-243,-1]],[[10366,7202],[1,241]],[[10367,7682],[243,1]],[[11096,7805],[121,0],[0,121]],[[3846,8144],[-1,-191]],[[7205,7971],[2,-120],[-1,-64],[0,-116]],[[9150,8154],[0,-27]],[[9150,8127],[0,-68],[1,-144]],[[9030,7676],[-103,-1]],[[8795,7676],[-5,5],[357,473],[3,0]],[[9149,8395],[106,1]],[[9255,8396],[84,1]],[[9339,8397],[296,3]],[[9393,8157],[-147,-1]],[[9246,8156],[-58,0],[-13,5],[-25,-34]],[[9150,8154],[0,85]],[[9231,7915],[5,27],[17,20],[2,24],[23,23],[3,24],[-18,35],[-8,28],[-9,60]],[[7689,8919],[130,24],[49,16],[298,127],[11,4]],[[8662,8694],[77,0],[15,4],[150,1]],[[8904,8699],[1,-36]],[[8905,8663],[1,-270]],[[8758,8392],[-94,-2]],[[8904,8873],[243,2]],[[9147,8875],[1,-224]],[[9148,8651],[-30,-5],[-34,0],[-12,11],[-20,7],[-147,-1]],[[8904,8699],[0,174]],[[8902,9114],[2,-241]],[[8904,8873],[-242,-2]],[[11455,8403],[187,-1],[36,-7]],[[11678,8395],[-1,-178],[-5,-106]],[[5657,9168],[10,-9],[42,-14],[12,-18],[4,-23],[21,-17],[16,2],[31,18],[8,9],[-8,13],[12,14],[18,-4],[-2,-20],[55,-16],[27,30],[37,16],[10,24],[15,-28],[14,-13],[30,-2],[26,32],[22,5],[11,-29],[5,-29],[14,-7],[23,-4],[19,6]],[[10302,9847],[-126,0]],[[6119,2404],[2,-2]],[[4818,1925],[1,476]],[[5651,9582],[0,-154]],[[5651,9428],[0,-169],[0,-42],[6,-49]],[[5651,9582],[122,0]],[[5773,9582],[225,1],[20,1]],[[6018,9584],[67,1],[43,7],[54,6]],[[6103,9342],[-75,0],[-12,-14],[-48,1],[-45,13],[-15,1],[-101,0],[-18,4],[-18,13],[-48,56],[-21,12],[-51,0]],[[6749,3359],[-1,-241]],[[6748,2880],[-163,1],[0,55],[-2,22],[-22,55],[-3,44],[-7,41],[8,35],[32,58],[3,23],[-9,52],[1,26],[7,22],[3,44]],[[8503,5276],[9,-47],[-11,-22],[-25,-21],[24,-21],[18,-40],[19,-18]],[[8906,5090],[0,-174],[-4,-20],[-21,-25],[-25,-45],[-1,-30]],[[6666,4269],[-25,-28],[-75,-79],[-161,-162],[-18,-16],[-65,-67],[-56,-56]],[[7935,3845],[58,0]],[[7993,3845],[186,-1]],[[7859,4315],[-11,-49],[1,-13],[21,-35],[17,-15],[39,-8],[21,4],[17,-4],[16,-24],[1,-25]],[[7981,4146],[-36,7],[-34,-9],[-46,4],[-52,-4],[-35,0],[-40,-9],[-45,1]],[[10367,7921],[0,-239]],[[10245,7681],[-121,-1]],[[9637,5849],[-20,1],[-29,10],[-31,4],[-22,-6],[-28,-21],[-15,28]],[[10124,7201],[97,0]],[[10221,7201],[145,1]],[[10366,7202],[1,-122],[6,-56],[11,-46]],[[7687,2887],[-42,-2],[-79,2],[-122,-2]],[[7444,2885],[-8,35],[4,30],[2,37],[16,47],[-3,25],[-8,14],[-27,18],[-9,20],[-2,46],[-18,50],[-1,25],[10,37],[16,23],[22,24],[6,13],[1,36]],[[5518,4316],[7,41],[0,175],[1,9]],[[8666,8039],[46,-3],[33,-11],[70,-34],[-17,-36],[-8,-24],[0,-39],[-62,0],[-43,22],[-19,0]],[[8425,6958],[121,0]],[[8546,6958],[101,0],[21,2]],[[8668,6960],[0,-152],[1,-90]],[[11678,4800],[-1,-31],[-1,-432]],[[11676,4337],[-25,-16],[-45,-3],[-32,1]],[[4814,8],[-88,0],[-78,2],[-153,0],[-27,1],[-117,-2],[-157,0],[-327,-2],[-294,2],[-326,1],[-65,-1],[-194,0],[-34,2],[-68,-3],[-134,5],[-157,1],[-2,-1],[-164,-1],[-21,1]],[[10606,3840],[359,3],[127,1]],[[7993,3845],[1,45],[9,39],[0,20],[-24,58],[-10,53],[3,51],[9,35]],[[9893,4560],[140,-2],[86,1]],[[9147,3360],[-4,-1],[-181,1],[-79,1],[-213,1],[-6,2]],[[4814,4794],[227,4],[156,0]],[[5295,4536],[-2,-114],[-3,-19],[1,-24],[7,-24],[3,-39]],[[4815,5272],[142,0]],[[8786,7676],[-120,-1]],[[9900,4798],[220,0]],[[9877,5349],[15,46],[38,79],[23,44]],[[11677,5759],[0,-240]],[[5532,7061],[100,-2],[112,0],[33,-7],[69,-37],[104,-60],[26,-13],[30,-9],[48,0],[37,12],[75,40],[29,9],[63,1]],[[5786,10061],[228,1],[0,-11],[2,-239],[2,-228]],[[5773,9582],[-1,279],[18,22],[34,8],[4,28],[-2,29],[2,41],[-42,6],[0,66]],[[8269,6967],[61,91],[95,137]],[[8425,7195],[120,0],[0,-68]],[[8545,7127],[1,-29],[0,-140]],[[5786,10061],[-138,-1]],[[8666,7516],[-178,-235],[-63,-86]],[[8039,7187],[19,39],[20,25]],[[5040,7660],[-244,1],[3,-124],[0,-111]],[[8667,7043],[-37,0],[-9,-4],[-27,75],[-26,10],[-23,3]],[[9148,8651],[1,-256]],[[9145,9115],[2,-240]],[[7444,2885],[-58,-7],[-24,2],[-68,14],[-35,2],[-51,-11]],[[10124,7441],[121,1]],[[10245,7442],[0,-166],[-1,-11],[-18,-20],[-5,-15],[0,-29]],[[11680,8633],[-1,-190],[-1,-48]],[[6829,4409],[-22,-32],[-48,-50],[-10,-28],[0,-97]],[[6749,4202],[0,-364]],[[11088,4318],[3,-242],[1,-232]],[[11676,4337],[1,-82],[-1,-172],[0,-232]],[[9262,9117],[0,-51],[22,-26],[17,-42],[3,-26],[3,-95]],[[9307,8877],[-2,-39],[3,-31],[-3,-16],[-15,-19],[0,-43],[24,-27],[2,-16],[-6,-37],[10,-20],[-16,-55],[-13,-23],[4,-31],[-18,-17],[-10,-39],[-4,-43],[-8,-25]],[[9438,8878],[14,170],[4,70]],[[9635,8507],[-24,4],[-31,23],[-16,-2],[-11,20],[-31,33],[-10,23],[-16,19],[-31,28],[-26,39],[-13,10]],[[9426,8704],[-4,3],[16,171]],[[9307,8877],[131,1]],[[9426,8704],[-11,-121],[-9,-49],[-13,-43],[-9,-23],[-23,-41],[-22,-30]],[[6749,4202],[67,0],[49,-12],[39,-24],[38,-39],[38,36],[41,9]],[[7021,4172],[5,-36],[-12,-34],[-10,-53]],[[7004,4049],[-11,-48],[-1,-54],[-8,-31],[-8,-42],[-1,-33]],[[7055,4316],[2,-33],[-6,-21],[-19,-24],[-13,-24],[2,-42]],[[7209,4054],[-41,8],[-24,-3],[-13,-18],[-9,-3],[-76,3],[-42,8]]],"transform":{"scale":[0.000038408877105960143,0.000030360597239177324],"translate":[-95.05649700000001,38.738078]},"objects":{"Geometry\\20-091":{"type":"GeometryCollection","geometries":[{"arcs":[[0,1,2,3]],"type":"Polygon","properties":{"GEOID":"200910533022"}},{"arcs":[[4,5,6,-1]],"type":"Polygon","properties":{"GEOID":"200910533023"}},{"arcs":[[7,8,9,10,11]],"type":"Polygon","properties":{"GEOID":"200910534091"}},{"arcs":[[12,13,14,15,16,17]],"type":"Polygon","properties":{"GEOID":"200910535022"}},{"arcs":[[18,19,20,-14]],"type":"Polygon","properties":{"GEOID":"200910535061"}},{"arcs":[[-21,21,22,23,-15]],"type":"Polygon","properties":{"GEOID":"200910535062"}},{"arcs":[[-24,24,25,26,27,28]],"type":"Polygon","properties":{"GEOID":"200910535071"}},{"arcs":[[-27,29,30,31,32]],"type":"Polygon","properties":{"GEOID":"200910535073"}},{"arcs":[[-26,33,34,-30]],"type":"Polygon","properties":{"GEOID":"200910535074"}},{"arcs":[[-23,35,-34,-25]],"type":"Polygon","properties":{"GEOID":"200910535075"}},{"arcs":[[36,37,38,39,40,41]],"type":"Polygon","properties":{"GEOID":"200910517002"}},{"arcs":[[42,43,44,45]],"type":"Polygon","properties":{"GEOID":"200910534131"}},{"arcs":[[46,47,48,49,50,51,52]],"type":"Polygon","properties":{"GEOID":"200910537112"}},{"arcs":[[53,54,55,56,57]],"type":"Polygon","properties":{"GEOID":"200910530074"}},{"arcs":[[58,59,60,61]],"type":"Polygon","properties":{"GEOID":"200910531052"}},{"arcs":[[62,63,64,65,66,67],[68]],"type":"Polygon","properties":{"GEOID":"200910537012"}},{"arcs":[[69,70,71,72,73,74]],"type":"Polygon","properties":{"GEOID":"200910534221"}},{"arcs":[[75,76,77,78]],"type":"Polygon","properties":{"GEOID":"200910537121"}},{"arcs":[[79,80,81,-66]],"type":"Polygon","properties":{"GEOID":"200910537123"}},{"arcs":[[82,83,84,85,86,87,88,89,90,91,92,93,94,95]],"type":"Polygon","properties":{"GEOID":"200910525021"}},{"arcs":[[96,97,98,99,100]],"type":"Polygon","properties":{"GEOID":"200910524104"}},{"arcs":[[101,102,103,104,105]],"type":"Polygon","properties":{"GEOID":"200910506004"}},{"arcs":[[106,107,108,109]],"type":"Polygon","properties":{"GEOID":"200910531102"}},{"arcs":[[110,111,112,113]],"type":"Polygon","properties":{"GEOID":"200910535101"}},{"arcs":[[114,115,-75,116,117]],"type":"Polygon","properties":{"GEOID":"200910534212"}},{"arcs":[[118,119,-108]],"type":"Polygon","properties":{"GEOID":"200910531091"}},{"arcs":[[120,121,122,123,124]],"type":"Polygon","properties":{"GEOID":"200910521011"}},{"arcs":[[125,126,127,128,129,130,131,132]],"type":"Polygon","properties":{"GEOID":"200910530051"}},{"arcs":[[133,134,135,136]],"type":"Polygon","properties":{"GEOID":"200910528031"}},{"arcs":[[137,138,139,140,141,142,-135]],"type":"Polygon","properties":{"GEOID":"200910528032"}},{"arcs":[[143,144,-48,145]],"type":"Polygon","properties":{"GEOID":"200910537111"}},{"arcs":[[146,147,-52,148,149,150,151]],"type":"Polygon","properties":{"GEOID":"200910537073"}},{"arcs":[[152,153,154,155]],"type":"Polygon","properties":{"GEOID":"200910529043"}},{"arcs":[[156,157,158,159,160,161,162,163]],"type":"Polygon","properties":{"GEOID":"200910529052"}},{"arcs":[[-150,164,165,-77,166]],"type":"Polygon","properties":{"GEOID":"200910537032"}},{"arcs":[[167,-147,168]],"type":"Polygon","properties":{"GEOID":"200910537071"}},{"arcs":[[169,170,-169,171,172]],"type":"Polygon","properties":{"GEOID":"200910537092"}},{"arcs":[[173,174,175,176,177,178,179,180,181]],"type":"Polygon","properties":{"GEOID":"200910503011"}},{"arcs":[[182,183,184,185,186,187,188]],"type":"Polygon","properties":{"GEOID":"200910505003"}},{"arcs":[[189,190,191,192]],"type":"Polygon","properties":{"GEOID":"200910535091"}},{"arcs":[[193,194,195,196,197]],"type":"Polygon","properties":{"GEOID":"200910534151"}},{"arcs":[[198,-198,199,-72]],"type":"Polygon","properties":{"GEOID":"200910534191"}},{"arcs":[[200,201,202,-81]],"type":"Polygon","properties":{"GEOID":"200910537122"}},{"arcs":[[203,204,205,206,207]],"type":"Polygon","properties":{"GEOID":"200910538041"}},{"arcs":[[208,209,210,211,212]],"type":"Polygon","properties":{"GEOID":"200910534182"}},{"arcs":[[213,214,215,216,217]],"type":"Polygon","properties":{"GEOID":"200910524172"}},{"arcs":[[218,219,220,221,222]],"type":"Polygon","properties":{"GEOID":"200910524183"}},{"arcs":[[223,224,225,-39,226]],"type":"Polygon","properties":{"GEOID":"200910516002"}},{"arcs":[[227,228,-223,229,230]],"type":"Polygon","properties":{"GEOID":"200910524193"}},{"arcs":[[231,232,-97,233]],"type":"Polygon","properties":{"GEOID":"200910524102"}},{"arcs":[[234,-100,235,236,237]],"type":"Polygon","properties":{"GEOID":"200910524152"}},{"arcs":[[238,-217,239,240]],"type":"Polygon","properties":{"GEOID":"200910524163"}},{"arcs":[[241,242,243,-156,244,245]],"type":"Polygon","properties":{"GEOID":"200910529102"}},{"arcs":[[246,247,248,249]],"type":"Polygon","properties":{"GEOID":"200910534113"}},{"arcs":[[-45,250,251,-247,252]],"type":"Polygon","properties":{"GEOID":"200910534111"}},{"arcs":[[253,-231,254,255,256,257]],"type":"Polygon","properties":{"GEOID":"200910524192"}},{"arcs":[[258,259,-8,260]],"type":"Polygon","properties":{"GEOID":"200910532032"}},{"arcs":[[261,262,-261,263,264,265]],"type":"Polygon","properties":{"GEOID":"200910532031"}},{"arcs":[[266,267,-262,268]],"type":"Polygon","properties":{"GEOID":"200910532033"}},{"arcs":[[269,270,271,-43,272]],"type":"Polygon","properties":{"GEOID":"200910534141"}},{"arcs":[[273,274,275,276,277,278]],"type":"Polygon","properties":{"GEOID":"200910526041"}},{"arcs":[[279,280,281,282]],"type":"Polygon","properties":{"GEOID":"200910526071"}},{"arcs":[[283,284,285,-274]],"type":"Polygon","properties":{"GEOID":"200910526061"}},{"arcs":[[286,287,288,-157,289,-153]],"type":"Polygon","properties":{"GEOID":"200910529051"}},{"arcs":[[290,291,292,-13,293,-159]],"type":"Polygon","properties":{"GEOID":"200910529084"}},{"arcs":[[294,-58,295,296,297]],"type":"Polygon","properties":{"GEOID":"200910530071"}},{"arcs":[[298,299,300,-19,-293]],"type":"Polygon","properties":{"GEOID":"200910529081"}},{"arcs":[[301,302,-107,303]],"type":"Polygon","properties":{"GEOID":"200910531082"}},{"arcs":[[304,-62,305,306,307]],"type":"Polygon","properties":{"GEOID":"200910531051"}},{"arcs":[[308,309,-118,310,311]],"type":"Polygon","properties":{"GEOID":"200910534032"}},{"arcs":[[312,-115,-310]],"type":"Polygon","properties":{"GEOID":"200910534211"}},{"arcs":[[313,-312,314,315,-22,-20]],"type":"Polygon","properties":{"GEOID":"200910534031"}},{"arcs":[[316,-46,317,318]],"type":"Polygon","properties":{"GEOID":"200910534172"}},{"arcs":[[-73,319,320,321,322]],"type":"Polygon","properties":{"GEOID":"200910534231"}},{"arcs":[[323,324,325]],"type":"Polygon","properties":{"GEOID":"200910538013"}},{"arcs":[[326,327,328,329,330]],"type":"Polygon","properties":{"GEOID":"200910535104"}},{"arcs":[[-32,331,-111,332,-328]],"type":"Polygon","properties":{"GEOID":"200910535102"}},{"arcs":[[-329,-333,-114,333,334]],"type":"Polygon","properties":{"GEOID":"200910535103"}},{"arcs":[[335,336,337,-221]],"type":"Polygon","properties":{"GEOID":"200910524181"}},{"arcs":[[338,339,340,341,-94]],"type":"Polygon","properties":{"GEOID":"200919800031"}},{"arcs":[[342,-318,-253,-250,343,344,-210]],"type":"Polygon","properties":{"GEOID":"200910534181"}},{"arcs":[[-249,345,346,-344]],"type":"Polygon","properties":{"GEOID":"200910534112"}},{"arcs":[[347,348,-193,349,350,351]],"type":"Polygon","properties":{"GEOID":"200910535095"}},{"arcs":[[352,-53,-148,-168,-171]],"type":"Polygon","properties":{"GEOID":"200910537072"}},{"arcs":[[-151,-167,-76,-202]],"type":"Polygon","properties":{"GEOID":"200910537031"}},{"arcs":[[353,-173,354,-80,-65]],"type":"Polygon","properties":{"GEOID":"200910537093"}},{"arcs":[[-149,-51,355,356,-165]],"type":"Polygon","properties":{"GEOID":"200910537052"}},{"arcs":[[-357,357,-78,-166]],"type":"Polygon","properties":{"GEOID":"200910537051"}},{"arcs":[[358,359,360,361,362,-174,363]],"type":"Polygon","properties":{"GEOID":"200910503013"}},{"arcs":[[364,-163,365,366]],"type":"Polygon","properties":{"GEOID":"200910529062"}},{"arcs":[[-41,367,368,369]],"type":"Polygon","properties":{"GEOID":"200910517003"}},{"arcs":[[370,371,372,373]],"type":"Polygon","properties":{"GEOID":"200910518011"}},{"arcs":[[374,375,376,-371,377]],"type":"Polygon","properties":{"GEOID":"200910518013"}},{"arcs":[[378,379,380,381]],"type":"Polygon","properties":{"GEOID":"200910518031"}},{"arcs":[[382,383,384,385]],"type":"Polygon","properties":{"GEOID":"200910518033"}},{"arcs":[[-381,386,387,-384]],"type":"Polygon","properties":{"GEOID":"200910518034"}},{"arcs":[[-385,-388,388,389,390,391]],"type":"Polygon","properties":{"GEOID":"200910518041"}},{"arcs":[[392,393,394,395,396]],"type":"Polygon","properties":{"GEOID":"200910519081"}},{"arcs":[[397,398,399,400,401]],"type":"Polygon","properties":{"GEOID":"200910519071"}},{"arcs":[[402,403,404,-400]],"type":"Polygon","properties":{"GEOID":"200910519072"}},{"arcs":[[405,406,407,408,409,-404]],"type":"Polygon","properties":{"GEOID":"200910519073"}},{"arcs":[[410,411,-287,-244]],"type":"Polygon","properties":{"GEOID":"200910529101"}},{"arcs":[[412,413,414,-237,415,416,417,418,419,420,-133,421,-411,422]],"type":"Polygon","properties":{"GEOID":"200919800011"}},{"arcs":[[-245,-155,423,424,425]],"type":"Polygon","properties":{"GEOID":"200910529041"}},{"arcs":[[426,-366,-162,427,428]],"type":"Polygon","properties":{"GEOID":"200910529061"}},{"arcs":[[429,430,431,-190,-349]],"type":"Polygon","properties":{"GEOID":"200910535092"}},{"arcs":[[432,-331,433,-431]],"type":"Polygon","properties":{"GEOID":"200910535093"}},{"arcs":[[-154,-290,-164,-365,-424]],"type":"Polygon","properties":{"GEOID":"200910529042"}},{"arcs":[[-105,434,435,436,437]],"type":"Polygon","properties":{"GEOID":"200910506005"}},{"arcs":[[-187,438,439,440,441]],"type":"Polygon","properties":{"GEOID":"200910511001"}},{"arcs":[[-409,442,443,444]],"type":"Polygon","properties":{"GEOID":"200910519021"}},{"arcs":[[445,446,-313,447,448]],"type":"Polygon","properties":{"GEOID":"200910530101"}},{"arcs":[[449,450,451,-378,-374,452,453]],"type":"Polygon","properties":{"GEOID":"200910518012"}},{"arcs":[[454,455,456,457,458,459]],"type":"Polygon","properties":{"GEOID":"200910521021"}},{"arcs":[[-458,-125,460,461]],"type":"Polygon","properties":{"GEOID":"200910521022"}},{"arcs":[[462,-359,463,464]],"type":"Polygon","properties":{"GEOID":"200910522011"}},{"arcs":[[465,-465,466,467,468,469]],"type":"Polygon","properties":{"GEOID":"200910522012"}},{"arcs":[[470,471,472,-456,473]],"type":"Polygon","properties":{"GEOID":"200910522021"}},{"arcs":[[474,475,-474,-455,476]],"type":"Polygon","properties":{"GEOID":"200910522022"}},{"arcs":[[477,478,479,480,481,-89]],"type":"Polygon","properties":{"GEOID":"200910523061"}},{"arcs":[[482,483,484,-479]],"type":"Polygon","properties":{"GEOID":"200910523062"}},{"arcs":[[485,486,487,488]],"type":"Polygon","properties":{"GEOID":"200910529071"}},{"arcs":[[489,490,-299,-292]],"type":"Polygon","properties":{"GEOID":"200910529082"}},{"arcs":[[491,-488,492,-300,-491]],"type":"Polygon","properties":{"GEOID":"200910529083"}},{"arcs":[[-434,-330,-335,493,-191,-432]],"type":"Polygon","properties":{"GEOID":"200910535094"}},{"arcs":[[494,495,496,497,498,499,-142]],"type":"Polygon","properties":{"GEOID":"200910535551"}},{"arcs":[[500,-428,-161,501,502,503,504,505]],"type":"Polygon","properties":{"GEOID":"200910535561"}},{"arcs":[[-505,506,507]],"type":"Polygon","properties":{"GEOID":"200910535562"}},{"arcs":[[-499,508,509,510]],"type":"Polygon","properties":{"GEOID":"200910535571"}},{"arcs":[[511,-508,512,-509,-498]],"type":"Polygon","properties":{"GEOID":"200910535572"}},{"arcs":[[513,-511,514,515]],"type":"Polygon","properties":{"GEOID":"200910536012"}},{"arcs":[[516,-110,517,518]],"type":"Polygon","properties":{"GEOID":"200910530092"}},{"arcs":[[519,520,521,522,523]],"type":"Polygon","properties":{"GEOID":"200910518053"}},{"arcs":[[524,-437,525,526,527]],"type":"Polygon","properties":{"GEOID":"200910513001"}},{"arcs":[[528,-429,-501,529,-496]],"type":"Polygon","properties":{"GEOID":"200910535552"}},{"arcs":[[-160,-294,-18,530,531,-502]],"type":"Polygon","properties":{"GEOID":"200910535021"}},{"arcs":[[-459,-462,532,533]],"type":"Polygon","properties":{"GEOID":"200910521023"}},{"arcs":[[534,535,536,-185]],"type":"Polygon","properties":{"GEOID":"200910505001"}},{"arcs":[[537,-438,-525,538,-440]],"type":"Polygon","properties":{"GEOID":"200910506003"}},{"arcs":[[539,540,541,-128]],"type":"Polygon","properties":{"GEOID":"200910530041"}},{"arcs":[[542,-129,-542,543,544,545]],"type":"Polygon","properties":{"GEOID":"200910530042"}},{"arcs":[[-543,546,547,-130]],"type":"Polygon","properties":{"GEOID":"200910530061"}},{"arcs":[[-131,-548,548,-295,549]],"type":"Polygon","properties":{"GEOID":"200910530062"}},{"arcs":[[-296,-57,550,551]],"type":"Polygon","properties":{"GEOID":"200910530072"}},{"arcs":[[552,-551,-56,553,554,555,-487]],"type":"Polygon","properties":{"GEOID":"200910530073"}},{"arcs":[[-69]],"type":"Polygon","properties":{"GEOID":"200910537011"}},{"arcs":[[-197,-319,556,557,558]],"type":"Polygon","properties":{"GEOID":"200910534171"}},{"arcs":[[559,560,561,-178]],"type":"Polygon","properties":{"GEOID":"200910502002"}},{"arcs":[[562,563,564,565,566,-436]],"type":"Polygon","properties":{"GEOID":"200910510001"}},{"arcs":[[567,-470,568,-472]],"type":"Polygon","properties":{"GEOID":"200910522013"}},{"arcs":[[569,570,571,572]],"type":"Polygon","properties":{"GEOID":"200910500004"}},{"arcs":[[-288,-412,-422,-132,-550,-298,573,574]],"type":"Polygon","properties":{"GEOID":"200910529073"}},{"arcs":[[575,-382,-383,576,-443]],"type":"Polygon","properties":{"GEOID":"200910518032"}},{"arcs":[[-28,-33,-327,577]],"type":"Polygon","properties":{"GEOID":"200910535072"}},{"arcs":[[-136,-143,-500,-514,578,579]],"type":"Polygon","properties":{"GEOID":"200910536011"}},{"arcs":[[580,-468,581,582,583,-183,584,-122]],"type":"Polygon","properties":{"GEOID":"200910504003"}},{"arcs":[[-536,585,586,-106,-538,587]],"type":"Polygon","properties":{"GEOID":"200910506001"}},{"arcs":[[588,589,590,-102,-587]],"type":"Polygon","properties":{"GEOID":"200910506002"}},{"arcs":[[591,592,593,594,595,596,597]],"type":"Polygon","properties":{"GEOID":"200910507001"}},{"arcs":[[-597,598,599,600]],"type":"Polygon","properties":{"GEOID":"200910507002"}},{"arcs":[[601,-600,602,603,604,605]],"type":"Polygon","properties":{"GEOID":"200910507003"}},{"arcs":[[606,-606,607,-103,-591]],"type":"Polygon","properties":{"GEOID":"200910507004"}},{"arcs":[[608,-598,-601,-602,-607,-590]],"type":"Polygon","properties":{"GEOID":"200910507005"}},{"arcs":[[609,610,-146,-47,-353,-170,-354,-64]],"type":"Polygon","properties":{"GEOID":"200910537113"}},{"arcs":[[611,612,613,-326,614,615]],"type":"Polygon","properties":{"GEOID":"200910538011"}},{"arcs":[[616,-211,-345,-347,617,618,619,620]],"type":"Polygon","properties":{"GEOID":"200910538032"}},{"arcs":[[-621,621,622]],"type":"Polygon","properties":{"GEOID":"200910538031"}},{"arcs":[[623,624,625,626]],"type":"Polygon","properties":{"GEOID":"200910500001"}},{"arcs":[[627,628,-570,629,-625]],"type":"Polygon","properties":{"GEOID":"200910500002"}},{"arcs":[[630,631,-571,-629]],"type":"Polygon","properties":{"GEOID":"200910500003"}},{"arcs":[[-626,-630,-573,632,633,634]],"type":"Polygon","properties":{"GEOID":"200910500005"}},{"arcs":[[-633,-572,-632,635,636,637,-595,638]],"type":"Polygon","properties":{"GEOID":"200910500006"}},{"arcs":[[639,640,641,642]],"type":"Polygon","properties":{"GEOID":"200910501001"}},{"arcs":[[643,-627,-635,644,645,-641]],"type":"Polygon","properties":{"GEOID":"200910501002"}},{"arcs":[[-642,-646,646,647,648]],"type":"Polygon","properties":{"GEOID":"200910501003"}},{"arcs":[[-637,649,650,651]],"type":"Polygon","properties":{"GEOID":"200910508001"}},{"arcs":[[-596,-638,-652,652,-599]],"type":"Polygon","properties":{"GEOID":"200910508002"}},{"arcs":[[-653,-651,653,654,655,-603]],"type":"Polygon","properties":{"GEOID":"200910508003"}},{"arcs":[[-655,656,657]],"type":"Polygon","properties":{"GEOID":"200910509001"}},{"arcs":[[-656,-658,658,659,660,661]],"type":"Polygon","properties":{"GEOID":"200910509002"}},{"arcs":[[-661,662,663,664]],"type":"Polygon","properties":{"GEOID":"200910509003"}},{"arcs":[[665,-605,666,-564]],"type":"Polygon","properties":{"GEOID":"200910510002"}},{"arcs":[[667,-475,668,-484]],"type":"Polygon","properties":{"GEOID":"200910523051"}},{"arcs":[[-477,669,-485,-669]],"type":"Polygon","properties":{"GEOID":"200910523052"}},{"arcs":[[-670,-460,670,-480]],"type":"Polygon","properties":{"GEOID":"200910523053"}},{"arcs":[[-671,-534,671,672,673]],"type":"Polygon","properties":{"GEOID":"200910523041"}},{"arcs":[[-672,674,675,676]],"type":"Polygon","properties":{"GEOID":"200910523042"}},{"arcs":[[-676,677,678,679,680]],"type":"Polygon","properties":{"GEOID":"200910523043"}},{"arcs":[[-561,-648,681,-593,682]],"type":"Polygon","properties":{"GEOID":"200910502001"}},{"arcs":[[683,-649,-560,-177]],"type":"Polygon","properties":{"GEOID":"200910502003"}},{"arcs":[[-361,684,-643,-684,685]],"type":"Polygon","properties":{"GEOID":"200910502004"}},{"arcs":[[-179,-562,-683,-592,-609,686]],"type":"Polygon","properties":{"GEOID":"200910503021"}},{"arcs":[[-180,-687,-589,-586,687]],"type":"Polygon","properties":{"GEOID":"200910503022"}},{"arcs":[[-467,-464,-364,-182,688,-582]],"type":"Polygon","properties":{"GEOID":"200910504001"}},{"arcs":[[-667,-604,-662,-665,689,-565]],"type":"Polygon","properties":{"GEOID":"200910510003"}},{"arcs":[[-608,-666,-563,-435,-104]],"type":"Polygon","properties":{"GEOID":"200910510004"}},{"arcs":[[-441,690,691,692,693]],"type":"Polygon","properties":{"GEOID":"200910511002"}},{"arcs":[[694,-694,695,696]],"type":"Polygon","properties":{"GEOID":"200910511003"}},{"arcs":[[-188,-442,-695,697,698]],"type":"Polygon","properties":{"GEOID":"200910511004"}},{"arcs":[[699,-692,700,701,-379,702]],"type":"Polygon","properties":{"GEOID":"200910512001"}},{"arcs":[[703,-703,-576,-408]],"type":"Polygon","properties":{"GEOID":"200910512002"}},{"arcs":[[-696,-693,-700,-704,-407,704]],"type":"Polygon","properties":{"GEOID":"200910512003"}},{"arcs":[[-539,-528,705,-691]],"type":"Polygon","properties":{"GEOID":"200910513002"}},{"arcs":[[-706,706,707,-701]],"type":"Polygon","properties":{"GEOID":"200910513003"}},{"arcs":[[-527,708,709,-707]],"type":"Polygon","properties":{"GEOID":"200910513004"}},{"arcs":[[-567,710,711,-526]],"type":"Polygon","properties":{"GEOID":"200910514001"}},{"arcs":[[712,713,714,-232,715,716,-92]],"type":"Polygon","properties":{"GEOID":"200910524101"}},{"arcs":[[-716,-234,717,718]],"type":"Polygon","properties":{"GEOID":"200910524103"}},{"arcs":[[719,720,721,-258,722,-714]],"type":"Polygon","properties":{"GEOID":"200910524111"}},{"arcs":[[-723,-257,723,-715]],"type":"Polygon","properties":{"GEOID":"200910524112"}},{"arcs":[[-680,724,-228,-254,-722]],"type":"Polygon","properties":{"GEOID":"200910524191"}},{"arcs":[[725,726,727,728,-214,729]],"type":"Polygon","properties":{"GEOID":"200910524213"}},{"arcs":[[-255,-230,730,731,-727,732]],"type":"Polygon","properties":{"GEOID":"200910524211"}},{"arcs":[[-545,733,734,-554,-55]],"type":"Polygon","properties":{"GEOID":"200910530081"}},{"arcs":[[735,736,737]],"type":"Polygon","properties":{"GEOID":"200910530082"}},{"arcs":[[738,-734,739,740,741,-304,-517,742,-736]],"type":"Polygon","properties":{"GEOID":"200910530091"}},{"arcs":[[-743,-519,743,744]],"type":"Polygon","properties":{"GEOID":"200910530102"}},{"arcs":[[-448,-309,745]],"type":"Polygon","properties":{"GEOID":"200910530111"}},{"arcs":[[746,747,748,749,-308,750,751]],"type":"Polygon","properties":{"GEOID":"200910531013"}},{"arcs":[[-396,752,753,-748,754]],"type":"Polygon","properties":{"GEOID":"200910531014"}},{"arcs":[[-566,-690,755,756,757,-711]],"type":"Polygon","properties":{"GEOID":"200910514002"}},{"arcs":[[-758,758,-375,759]],"type":"Polygon","properties":{"GEOID":"200910514003"}},{"arcs":[[-712,-760,-452,-709]],"type":"Polygon","properties":{"GEOID":"200910514004"}},{"arcs":[[-664,760,761,-756]],"type":"Polygon","properties":{"GEOID":"200910515001"}},{"arcs":[[-762,762,763,764,-757]],"type":"Polygon","properties":{"GEOID":"200910515003"}},{"arcs":[[-764,765,766,-225,767,768]],"type":"Polygon","properties":{"GEOID":"200910516001"}},{"arcs":[[769,-227,-38,770,-372]],"type":"Polygon","properties":{"GEOID":"200910516003"}},{"arcs":[[-771,-37,771]],"type":"Polygon","properties":{"GEOID":"200910517001"}},{"arcs":[[-391,772,773,774]],"type":"Polygon","properties":{"GEOID":"200910518042"}},{"arcs":[[-390,775,776,777,-773]],"type":"Polygon","properties":{"GEOID":"200910518043"}},{"arcs":[[-774,-778,778,779,-395]],"type":"Polygon","properties":{"GEOID":"200910518044"}},{"arcs":[[780,781,-520,-776]],"type":"Polygon","properties":{"GEOID":"200910518051"}},{"arcs":[[782,783,-521,-782]],"type":"Polygon","properties":{"GEOID":"200910518052"}},{"arcs":[[-373,-772,784,785]],"type":"Polygon","properties":{"GEOID":"200910518061"}},{"arcs":[[-453,-786,786,787]],"type":"Polygon","properties":{"GEOID":"200910518062"}},{"arcs":[[-787,788,789,-784]],"type":"Polygon","properties":{"GEOID":"200910518063"}},{"arcs":[[-785,-42,790,-789]],"type":"Polygon","properties":{"GEOID":"200910518064"}},{"arcs":[[-790,791,792,-522]],"type":"Polygon","properties":{"GEOID":"200910518065"}},{"arcs":[[-724,793,794,-233]],"type":"Polygon","properties":{"GEOID":"200910524141"}},{"arcs":[[-795,-730,795,796,-98]],"type":"Polygon","properties":{"GEOID":"200910524142"}},{"arcs":[[-99,797,-416,-236]],"type":"Polygon","properties":{"GEOID":"200910524151"}},{"arcs":[[-797,798,799,-417,-798]],"type":"Polygon","properties":{"GEOID":"200910524161"}},{"arcs":[[-796,-218,-239,800,-799]],"type":"Polygon","properties":{"GEOID":"200910524162"}},{"arcs":[[801,802,803,804,805]],"type":"Polygon","properties":{"GEOID":"200910531021"}},{"arcs":[[-751,-307,806,-302,-742]],"type":"Polygon","properties":{"GEOID":"200910531081"}},{"arcs":[[-109,807,-199,808]],"type":"Polygon","properties":{"GEOID":"200910531101"}},{"arcs":[[-425,-367,-427,-529,-495,-141]],"type":"Polygon","properties":{"GEOID":"200910529063"}},{"arcs":[[809,810,811,-259,812]],"type":"Polygon","properties":{"GEOID":"200910532022"}},{"arcs":[[-530,-506,-512,-497]],"type":"Polygon","properties":{"GEOID":"200910535553"}},{"arcs":[[-405,-410,-445,813,814,815]],"type":"Polygon","properties":{"GEOID":"200910519022"}},{"arcs":[[816,-815,817,818,819,820]],"type":"Polygon","properties":{"GEOID":"200910519023"}},{"arcs":[[-814,-444,-577,-386,821,-818]],"type":"Polygon","properties":{"GEOID":"200910519024"}},{"arcs":[[822,823,-397,824,825,826]],"type":"Polygon","properties":{"GEOID":"200910519041"}},{"arcs":[[827,828,-824,829]],"type":"Polygon","properties":{"GEOID":"200910519043"}},{"arcs":[[830,-820,831,832,833]],"type":"Polygon","properties":{"GEOID":"200910519091"}},{"arcs":[[-819,-822,-392,834,-832]],"type":"Polygon","properties":{"GEOID":"200910519094"}},{"arcs":[[-835,-775,-394,835]],"type":"Polygon","properties":{"GEOID":"200910519093"}},{"arcs":[[-833,-836,-393,-829]],"type":"Polygon","properties":{"GEOID":"200910519092"}},{"arcs":[[836,-810,837]],"type":"Polygon","properties":{"GEOID":"200910532011"}},{"arcs":[[838,-813,-263,-268,839]],"type":"Polygon","properties":{"GEOID":"200910532021"}},{"arcs":[[840,841,842,-837]],"type":"Polygon","properties":{"GEOID":"200910533012"}},{"arcs":[[843,-3,844,-9,-260,-812]],"type":"Polygon","properties":{"GEOID":"200910533021"}},{"arcs":[[845,846,-834,-828,847,848,849]],"type":"Polygon","properties":{"GEOID":"200910519045"}},{"arcs":[[850,-847,851]],"type":"Polygon","properties":{"GEOID":"200910519044"}},{"arcs":[[-265,852,-271,853]],"type":"Polygon","properties":{"GEOID":"200910534143"}},{"arcs":[[854,-283,855,856]],"type":"Polygon","properties":{"GEOID":"200910527011"}},{"arcs":[[-556,857,-449,-746,-314,-301,-493]],"type":"Polygon","properties":{"GEOID":"200910530112"}},{"arcs":[[858,-369,859,860,-842]],"type":"Polygon","properties":{"GEOID":"200910533013"}},{"arcs":[[861,862,863,-116,-447]],"type":"Polygon","properties":{"GEOID":"200910530105"}},{"arcs":[[-2,-7,864,865,-845]],"type":"Polygon","properties":{"GEOID":"200910533024"}},{"arcs":[[866,867,868,869]],"type":"Polygon","properties":{"GEOID":"200910538015"}},{"arcs":[[870,871,872]],"type":"Polygon","properties":{"GEOID":"200910530133"}},{"arcs":[[873,874,875,876,877,-206]],"type":"Polygon","properties":{"GEOID":"200910538042"}},{"arcs":[[-341,878,879,-414,880,881,882]],"type":"Polygon","properties":{"GEOID":"200910525072"}},{"arcs":[[-681,-721,883]],"type":"Polygon","properties":{"GEOID":"200910523072"}},{"arcs":[[-207,-878,884,-876,-212,-617,-623,885,-868,886]],"type":"Polygon","properties":{"GEOID":"200910538044"}},{"arcs":[[-481,-674,887,888]],"type":"Polygon","properties":{"GEOID":"200910523081"}},{"arcs":[[889,-705,-406,890]],"type":"Polygon","properties":{"GEOID":"200910519112"}},{"arcs":[[-804,891,892,893,-523,-793,894,-859,-841,-838,-839,895,896,897]],"type":"Polygon","properties":{"GEOID":"200910532013"}},{"arcs":[[-857,898,899,900,901]],"type":"Polygon","properties":{"GEOID":"200910527012"}},{"arcs":[[-901,902,903,-610,-63,904]],"type":"Polygon","properties":{"GEOID":"200910527022"}},{"arcs":[[905,906,907,908,909]],"type":"Polygon","properties":{"GEOID":"200910528043"}},{"arcs":[[-908,910,911,912,913]],"type":"Polygon","properties":{"GEOID":"200910528041"}},{"arcs":[[-913,914,915,-137,916,917,918,919,920]],"type":"Polygon","properties":{"GEOID":"200910528054"}},{"arcs":[[921,922,-713,-91]],"type":"Polygon","properties":{"GEOID":"200910523071"}},{"arcs":[[-853,-264,-12,923,-272]],"type":"Polygon","properties":{"GEOID":"200910534142"}},{"arcs":[[924,-918,925,926,927,928]],"type":"Polygon","properties":{"GEOID":"200910536042"}},{"arcs":[[-718,-101,-235,929]],"type":"Polygon","properties":{"GEOID":"200910524105"}},{"arcs":[[-735,-739,-738,930,-555]],"type":"Polygon","properties":{"GEOID":"200910530083"}},{"arcs":[[-872,931,-752,-741,932]],"type":"Polygon","properties":{"GEOID":"200910530131"}},{"arcs":[[933,934,-873,-933,-740,-544]],"type":"Polygon","properties":{"GEOID":"200910530122"}},{"arcs":[[935,-138,-134,-916]],"type":"Polygon","properties":{"GEOID":"200910528033"}},{"arcs":[[936,-96,937,938]],"type":"Polygon","properties":{"GEOID":"200910526111"}},{"arcs":[[-332,939,940,941,-112]],"type":"Polygon","properties":{"GEOID":"200910534252"}},{"arcs":[[942,-139,-936,943]],"type":"Polygon","properties":{"GEOID":"200910528061"}},{"arcs":[[944,945,-619,946]],"type":"Polygon","properties":{"GEOID":"200910534312"}},{"arcs":[[-866,947,948,-10]],"type":"Polygon","properties":{"GEOID":"200910534093"}},{"arcs":[[949,-947,-618,-346]],"type":"Polygon","properties":{"GEOID":"200910534301"}},{"arcs":[[950,951,-126,-421]],"type":"Polygon","properties":{"GEOID":"200910524223"}},{"arcs":[[952,953,954,-515,-510,955,956,-352,957,958,959,-49,-145]],"type":"Polygon","properties":{"GEOID":"200910536032"}},{"arcs":[[-942,960,961,-204,962,963]],"type":"Polygon","properties":{"GEOID":"200910534251"}},{"arcs":[[964,965,966]],"type":"Polygon","properties":{"GEOID":"200910534253"}},{"arcs":[[967,-213,-875,968]],"type":"Polygon","properties":{"GEOID":"200910534281"}},{"arcs":[[969,970,971,-208,-887,-867,972,-613,973]],"type":"Polygon","properties":{"GEOID":"200910538016"}},{"arcs":[[-973,-870,974,-324,-614]],"type":"Polygon","properties":{"GEOID":"200910538014"}},{"arcs":[[-117,-74,-323,975,976,-965,977]],"type":"Polygon","properties":{"GEOID":"200910534264"}},{"arcs":[[978,-558,979,-321]],"type":"Polygon","properties":{"GEOID":"200910534233"}},{"arcs":[[-557,-343,-209,980]],"type":"Polygon","properties":{"GEOID":"200910534183"}},{"arcs":[[-980,-981,-968,981]],"type":"Polygon","properties":{"GEOID":"200910534282"}},{"arcs":[[-924,982,-251,-44]],"type":"Polygon","properties":{"GEOID":"200910534132"}},{"arcs":[[-826,983,-934,-541]],"type":"Polygon","properties":{"GEOID":"200910530121"}},{"arcs":[[984,985,-911,-907]],"type":"Polygon","properties":{"GEOID":"200910528042"}},{"arcs":[[-966,-977,986,987,-205,-962]],"type":"Polygon","properties":{"GEOID":"200910534272"}},{"arcs":[[988,989,-945,990]],"type":"Polygon","properties":{"GEOID":"200910534311"}},{"arcs":[[-909,-914,-921,991,992,993,994]],"type":"Polygon","properties":{"GEOID":"200910528052"}},{"arcs":[[995,-919,-925,996,997]],"type":"Polygon","properties":{"GEOID":"200910528051"}},{"arcs":[[-917,-580,998,-926]],"type":"Polygon","properties":{"GEOID":"200910536041"}},{"arcs":[[-120,999,1000,1001,-194,-808]],"type":"Polygon","properties":{"GEOID":"200910531092"}},{"arcs":[[1002,-910,-995,1003,-611,-904]],"type":"Polygon","properties":{"GEOID":"200910527021"}},{"arcs":[[1004,1005,-494,1006,1007,-971,1008]],"type":"Polygon","properties":{"GEOID":"200910535591"}},{"arcs":[[1009,-944,-915,1010]],"type":"Polygon","properties":{"GEOID":"200910528063"}},{"arcs":[[-574,-297,-552,-553,-486,1011]],"type":"Polygon","properties":{"GEOID":"200910529074"}},{"arcs":[[-807,-306,1012,1013,-1000,-119,-303]],"type":"Polygon","properties":{"GEOID":"200910531093"}},{"arcs":[[-805,-898,1014,-60]],"type":"Polygon","properties":{"GEOID":"200910531054"}},{"arcs":[[-896,-840,-267,1015]],"type":"Polygon","properties":{"GEOID":"200910532012"}},{"arcs":[[1016,1017,1018,1019,1020,-986]],"type":"Polygon","properties":{"GEOID":"200910528073"}},{"arcs":[[-1020,-242,1021,1022]],"type":"Polygon","properties":{"GEOID":"200910528071"}},{"arcs":[[1023,-423,-243,-1019]],"type":"Polygon","properties":{"GEOID":"200910529103"}},{"arcs":[[1024,-892,-803,1025]],"type":"Polygon","properties":{"GEOID":"200910531023"}},{"arcs":[[1026,1027,1028,1029,-1017,-985,-906,1030]],"type":"Polygon","properties":{"GEOID":"200910526093"}},{"arcs":[[1031,1032,1033,-286]],"type":"Polygon","properties":{"GEOID":"200910526132"}},{"arcs":[[-282,1034,1035,1036,-284,-279,1037,1038]],"type":"Polygon","properties":{"GEOID":"200910526072"}},{"arcs":[[1039,-688,-535,-184,-584]],"type":"Polygon","properties":{"GEOID":"200910504002"}},{"arcs":[[-881,-413,-1024,1040]],"type":"Polygon","properties":{"GEOID":"200910525061"}},{"arcs":[[1041,1042,-827,-540,-127,-952]],"type":"Polygon","properties":{"GEOID":"200910524224"}},{"arcs":[[-420,1043,1044,-1042,-951]],"type":"Polygon","properties":{"GEOID":"200910524221"}},{"arcs":[[-645,-634,-639,-594,-682,-647]],"type":"Polygon","properties":{"GEOID":"200910501004"}},{"arcs":[[1045,1046,1047,-1037,1048]],"type":"Polygon","properties":{"GEOID":"200910526122"}},{"arcs":[[-87,1049,-1035,-281,1050]],"type":"Polygon","properties":{"GEOID":"200910526103"}},{"arcs":[[1051,1052,-1046]],"type":"Polygon","properties":{"GEOID":"200910526121"}},{"arcs":[[-482,-889,1053,1054,-922,-90]],"type":"Polygon","properties":{"GEOID":"200910523082"}},{"arcs":[[-777,-524,-894,1055,-779]],"type":"Polygon","properties":{"GEOID":"200910518045"}},{"arcs":[[-900,1056,1057,-903]],"type":"Polygon","properties":{"GEOID":"200910527014"}},{"arcs":[[1058,1059,-1031,-1003,-1058]],"type":"Polygon","properties":{"GEOID":"200910527013"}},{"arcs":[[1060,-938,-95,-342,-883,1061,1062,-1029,1063,-276]],"type":"Polygon","properties":{"GEOID":"200910526081"}},{"arcs":[[1064,-238,-415,-880]],"type":"Polygon","properties":{"GEOID":"200910525071"}},{"arcs":[[-729,1065,-215]],"type":"Polygon","properties":{"GEOID":"200910524173"}},{"arcs":[[1066,1067,1068,1069,-852,-846,1070]],"type":"Polygon","properties":{"GEOID":"200919801001"}},{"arcs":[[1071,-821,-831,-851]],"type":"Polygon","properties":{"GEOID":"200910519122"}},{"arcs":[[1072,1073,1074,1075]],"type":"Polygon","properties":{"GEOID":"200910518082"}},{"arcs":[[1076,-454,1077,1078]],"type":"Polygon","properties":{"GEOID":"200910518074"}},{"arcs":[[1079,-450,-1077,-1074]],"type":"Polygon","properties":{"GEOID":"200910518073"}},{"arcs":[[1080,-768,-224,-770,-377]],"type":"Polygon","properties":{"GEOID":"200910516004"}},{"arcs":[[-856,-1039,1081,-1059,-1057,-899]],"type":"Polygon","properties":{"GEOID":"200910527015"}},{"arcs":[[1082,-879,-340]],"type":"Polygon","properties":{"GEOID":"200910525052"}},{"arcs":[[-93,-717,-719,-930,-1065,-1083,-339]],"type":"Polygon","properties":{"GEOID":"200910525051"}},{"arcs":[[1083,1084,-402,1085,-1069,1086]],"type":"Polygon","properties":{"GEOID":"200919800041"}},{"arcs":[[1087,1088,1089,-697,-890,1090,1091,-1084,1092,-337]],"type":"Polygon","properties":{"GEOID":"200910519111"}},{"arcs":[[-1091,-891,-403,-399,1093]],"type":"Polygon","properties":{"GEOID":"200910519101"}},{"arcs":[[-1092,-1094,-398,-1085]],"type":"Polygon","properties":{"GEOID":"200910519102"}},{"arcs":[[-677,-884,-720,-923,-1055,1094]],"type":"Polygon","properties":{"GEOID":"200910523073"}},{"arcs":[[1095,1096,1097,-220,1098,-725,-679]],"type":"Polygon","properties":{"GEOID":"200910520052"}},{"arcs":[[1099,1100,1101,-1097,1102]],"type":"Polygon","properties":{"GEOID":"200910520062"}},{"arcs":[[-888,-673,-1095,-1054]],"type":"Polygon","properties":{"GEOID":"200910523083"}},{"arcs":[[-533,1103,1104,-675]],"type":"Polygon","properties":{"GEOID":"200910520051"}},{"arcs":[[-765,-769,-1081,-376,-759]],"type":"Polygon","properties":{"GEOID":"200910515002"}},{"arcs":[[1105,1106,-766,-763,-761]],"type":"Polygon","properties":{"GEOID":"200910515004"}},{"arcs":[[1107,-83,-937,-1033]],"type":"Polygon","properties":{"GEOID":"200910526134"}},{"arcs":[[-686,-176,1108,-362]],"type":"Polygon","properties":{"GEOID":"200910503014"}},{"arcs":[[-959,1109,-974,-612,1110]],"type":"Polygon","properties":{"GEOID":"200910538012"}},{"arcs":[[-1105,-1103,-1096,-678]],"type":"Polygon","properties":{"GEOID":"200910520053"}},{"arcs":[[-1048,1111,1112,-1032,-285]],"type":"Polygon","properties":{"GEOID":"200910526133"}},{"arcs":[[1113,1114,1115,-85,1116,-1112]],"type":"Polygon","properties":{"GEOID":"200910526131"}},{"arcs":[[-350,1117,-1005,1118]],"type":"Polygon","properties":{"GEOID":"200910535582"}},{"arcs":[[-931,1119,-862,-446,-858]],"type":"Polygon","properties":{"GEOID":"200910530104"}},{"arcs":[[-1086,-401,-816,-817,-1072,-1070]],"type":"Polygon","properties":{"GEOID":"200910519121"}},{"arcs":[[-744,1120,-70,-864]],"type":"Polygon","properties":{"GEOID":"200910530103"}},{"arcs":[[-192,-1006,-1118]],"type":"Polygon","properties":{"GEOID":"200910535592"}},{"arcs":[[-513,-507,-504,1121,-956]],"type":"Polygon","properties":{"GEOID":"200910536031"}},{"arcs":[[1122,1123,-967,-961,-941]],"type":"Polygon","properties":{"GEOID":"200910534254"}},{"arcs":[[-316,1124,1125,-36]],"type":"Polygon","properties":{"GEOID":"200910534261"}},{"arcs":[[-256,-733,-726,-794]],"type":"Polygon","properties":{"GEOID":"200910524212"}},{"arcs":[[-708,1126,-1073,1127,-702]],"type":"Polygon","properties":{"GEOID":"200910518072"}},{"arcs":[[-754,-1026,-802,1128,-749]],"type":"Polygon","properties":{"GEOID":"200910531012"}},{"arcs":[[1129,1130,1131,-781,-389]],"type":"Polygon","properties":{"GEOID":"200910518054"}},{"arcs":[[-710,-451,-1080,-1127]],"type":"Polygon","properties":{"GEOID":"200910518071"}},{"arcs":[[-1117,-84,-1108,-1113]],"type":"Polygon","properties":{"GEOID":"200910526135"}},{"arcs":[[-113,-964,1132,1133]],"type":"Polygon","properties":{"GEOID":"200910535602"}},{"arcs":[[-927,-999,-579,-516,-955,1134]],"type":"Polygon","properties":{"GEOID":"200910536044"}},{"arcs":[[-1099,-219,-229]],"type":"Polygon","properties":{"GEOID":"200910524182"}},{"arcs":[[1135,-732]],"type":"Polygon","properties":{"GEOID":"200910524214"}},{"arcs":[[1136,1137,1138,-1043,-1045]],"type":"Polygon","properties":{"GEOID":"200910524222"}},{"arcs":[[-588,-439,-186,-537]],"type":"Polygon","properties":{"GEOID":"200910505002"}},{"arcs":[[-737,-745,-863,-1120]],"type":"Polygon","properties":{"GEOID":"200910530106"}},{"arcs":[[1139,1140,-948]],"type":"Polygon","properties":{"GEOID":"200910534092"}},{"arcs":[[-1034,-939,-1061,-275]],"type":"Polygon","properties":{"GEOID":"200910526112"}},{"arcs":[[-877,-885]],"type":"Polygon","properties":{"GEOID":"200910538043"}},{"arcs":[[-172,-152,-201,-355]],"type":"Polygon","properties":{"GEOID":"200910537091"}},{"arcs":[[-82,-203,-79,-358,-356,-50,-960,-1111,-616,1141,-67]],"type":"Polygon","properties":{"GEOID":"200910537124"}},{"arcs":[[-252,1142,-991,-950,-248]],"type":"Polygon","properties":{"GEOID":"200910534302"}},{"arcs":[[-315,-311,-978,-1124,1143,-1125]],"type":"Polygon","properties":{"GEOID":"200910534263"}},{"arcs":[[-200,-559,-979,-320]],"type":"Polygon","properties":{"GEOID":"200910534232"}},{"arcs":[[1144,-273,-317,-196]],"type":"Polygon","properties":{"GEOID":"200910534153"}},{"arcs":[[-976,-322,-982,1145,-987]],"type":"Polygon","properties":{"GEOID":"200910534271"}},{"arcs":[[-994,1146,-997,-929,1147,-953,-144,-1004]],"type":"Polygon","properties":{"GEOID":"200910536033"}},{"arcs":[[1148,-998,-1147,-993]],"type":"Polygon","properties":{"GEOID":"200910528053"}},{"arcs":[[-222,-338,-1093,-1087,-1068,1149,-728,-1136,-731]],"type":"Polygon","properties":{"GEOID":"200919800051"}},{"arcs":[[-1002,1150,-854,-270,-1145,-195]],"type":"Polygon","properties":{"GEOID":"200910534152"}},{"arcs":[[-897,-1016,-269,-266,-1151,-1001,-1014,1151]],"type":"Polygon","properties":{"GEOID":"200910532034"}},{"arcs":[[-1022,-246,-426,-140,-943,-1010]],"type":"Polygon","properties":{"GEOID":"200910528062"}},{"arcs":[[-289,-575,-1012,-489,-492,-490,-291,-158]],"type":"Polygon","properties":{"GEOID":"200910529072"}},{"arcs":[[-518,-809,-71,-1121]],"type":"Polygon","properties":{"GEOID":"200910530093"}},{"arcs":[[-1015,-1152,-1013,-61]],"type":"Polygon","properties":{"GEOID":"200910531053"}},{"arcs":[[-811,-843,-861,1152,-5,-4,-844]],"type":"Polygon","properties":{"GEOID":"200910533011"}},{"arcs":[[-1021,-1023,-1011,-912]],"type":"Polygon","properties":{"GEOID":"200910528072"}},{"arcs":[[-825,-755,-747,-932,-871,-935,-984]],"type":"Polygon","properties":{"GEOID":"200910530132"}},{"arcs":[[-1063,1153,-1041,-1018,-1030]],"type":"Polygon","properties":{"GEOID":"200910526083"}},{"arcs":[[-689,-181,-1040,-583]],"type":"Polygon","properties":{"GEOID":"200910504004"}},{"arcs":[[1154,-1115,1155]],"type":"Polygon","properties":{"GEOID":"200910526102"}},{"arcs":[[-882,-1154,-1062]],"type":"Polygon","properties":{"GEOID":"200910526082"}},{"arcs":[[1156,1157,1158,-1137,-1044]],"type":"Polygon","properties":{"GEOID":"200910524231"}},{"arcs":[[-848,-830,-823,-1139]],"type":"Polygon","properties":{"GEOID":"200910519042"}},{"arcs":[[-86,-1116,-1155,1159,-1052,-1049,-1036,-1050]],"type":"Polygon","properties":{"GEOID":"200910526104"}},{"arcs":[[-1053,-1160,-1156,-1114,-1047]],"type":"Polygon","properties":{"GEOID":"200910526101"}},{"arcs":[[-240,-216,-1066,-1150,-1067,1160,-1157,-419,1161]],"type":"Polygon","properties":{"GEOID":"200910524171"}},{"arcs":[[-1109,-175,-363]],"type":"Polygon","properties":{"GEOID":"200910503012"}},{"arcs":[[-791,-370,-895,-792]],"type":"Polygon","properties":{"GEOID":"200910518066"}},{"arcs":[[-1082,-1038,-278,1162,-1027,-1060]],"type":"Polygon","properties":{"GEOID":"200910526091"}},{"arcs":[[-277,-1064,-1028,-1163]],"type":"Polygon","properties":{"GEOID":"200910526092"}},{"arcs":[[-1161,-1071,-850,1163,-1158]],"type":"Polygon","properties":{"GEOID":"200910524233"}},{"arcs":[[-1102,1164,-336,-1098]],"type":"Polygon","properties":{"GEOID":"200910520063"}},{"arcs":[[-958,-351,-1119,-1009,-970,-1110]],"type":"Polygon","properties":{"GEOID":"200910535581"}},{"arcs":[[-461,1165,-1100,-1104]],"type":"Polygon","properties":{"GEOID":"200910520061"}},{"arcs":[[-547,-546,-54,-549]],"type":"Polygon","properties":{"GEOID":"200910530063"}},{"arcs":[[-473,-569,-469,-581,-121,-457]],"type":"Polygon","properties":{"GEOID":"200910521012"}},{"arcs":[[-35,-1126,-1144,-1123,-940,-31]],"type":"Polygon","properties":{"GEOID":"200910534262"}},{"arcs":[[-920,-996,-1149,-992]],"type":"Polygon","properties":{"GEOID":"200910528055"}},{"arcs":[[-1129,-806,-59,-305,-750]],"type":"Polygon","properties":{"GEOID":"200910531011"}},{"arcs":[[-334,-1134,1166,-1007]],"type":"Polygon","properties":{"GEOID":"200910535603"}},{"arcs":[[-801,-241,-1162,-418,-800]],"type":"Polygon","properties":{"GEOID":"200910524164"}},{"arcs":[[1167,1168,-1130,-387]],"type":"Polygon","properties":{"GEOID":"200910518083"}},{"arcs":[[-1128,-1076,-1168,-380]],"type":"Polygon","properties":{"GEOID":"200910518081"}},{"arcs":[[-780,-1056,-893,-1025,-753]],"type":"Polygon","properties":{"GEOID":"200910531022"}},{"arcs":[[-1075,-1079,-1131,-1169]],"type":"Polygon","properties":{"GEOID":"200910518084"}},{"arcs":[[-1078,-788,-783,-1132]],"type":"Polygon","properties":{"GEOID":"200910518055"}},{"arcs":[[-928,-1135,-954,-1148]],"type":"Polygon","properties":{"GEOID":"200910536043"}},{"arcs":[[1169,-1106,-663,-660]],"type":"Polygon","properties":{"GEOID":"200910509004"}},{"arcs":[[-1164,-849,-1138,-1159]],"type":"Polygon","properties":{"GEOID":"200910524232"}},{"arcs":[[-1122,-503,-532,1170,1171,-348,-957]],"type":"Polygon","properties":{"GEOID":"200910535081"}},{"arcs":[[-1146,-969,-874,-988]],"type":"Polygon","properties":{"GEOID":"200910534273"}},{"arcs":[[-11,1172,-1143,-983]],"type":"Polygon","properties":{"GEOID":"200910534292"}},{"arcs":[[-949,-1141,1173,-989,-1173]],"type":"Polygon","properties":{"GEOID":"200910534291"}},{"arcs":[[-124,1174,1175,-1088,-1165,-1101,-1166]],"type":"Polygon","properties":{"GEOID":"200910520043"}},{"arcs":[[1176,-585,-189,-699,1177,1178]],"type":"Polygon","properties":{"GEOID":"200910520011"}},{"arcs":[[-1167,-1133,-963,-972,-1008]],"type":"Polygon","properties":{"GEOID":"200910535601"}},{"arcs":[[1179,-1179,1180,-1089,-1176]],"type":"Polygon","properties":{"GEOID":"200910520041"}},{"arcs":[[-1178,-698,-1090,-1181]],"type":"Polygon","properties":{"GEOID":"200910520012"}},{"arcs":[[-123,-1177,-1180,-1175]],"type":"Polygon","properties":{"GEOID":"200910520042"}},{"arcs":[[1181,1182,1183,-430,-1172]],"type":"Polygon","properties":{"GEOID":"200910535083"}},{"arcs":[[-531,-17,1184,-1182,-1171]],"type":"Polygon","properties":{"GEOID":"200910535082"}},{"arcs":[[-1185,-16,-29,1185,-1183]],"type":"Polygon","properties":{"GEOID":"200910535084"}},{"arcs":[[-1186,-578,-433,-1184]],"type":"Polygon","properties":{"GEOID":"200910535085"}}]}}}