{"type":"Topology","arcs":[[[2518,3422],[92,2],[153,-10],[27,0]],[[2790,3414],[100,1],[14,7],[141,129]],[[3045,3551],[-1,-128],[-48,-1],[1,-17],[-8,-16],[0,-32],[7,-6],[8,9],[19,9],[22,5],[6,-4]],[[3051,3370],[-12,-25],[-11,-4],[-15,2],[-12,-35],[-1,-35],[8,-10],[1,-27],[-109,-1],[-1,-100],[-1,-270],[-107,-4]],[[2791,2861],[-49,-2],[-110,1]],[[2632,2860],[-37,169],[0,20],[-11,0],[3,49],[-8,14],[6,18],[-8,15],[3,34],[-7,55],[6,6],[7,20],[-21,6],[-7,10],[-12,-6],[-26,36],[-8,17],[-1,20],[6,19],[3,26],[-5,11],[3,23]],[[3051,3370],[11,5],[13,-12],[30,-14],[22,-27],[55,-32],[31,-7],[5,-13],[2,-31],[25,-55],[21,-10],[16,-3],[38,-1],[40,15],[18,2],[29,-5],[13,7],[9,17],[16,8],[13,-7],[26,-7],[15,2],[49,-15],[19,-9],[17,-17],[28,-43],[6,-6],[31,-5],[39,-16],[11,-18],[19,-8],[18,14],[19,-2],[20,-14],[8,-12],[17,-3],[18,-17],[7,1],[11,-12],[2,-17],[-6,-14],[1,-13],[20,-46],[12,-3],[14,21],[12,-9],[-8,-26],[-1,-24],[16,-25],[21,-8],[22,20],[26,-3],[4,-28],[9,-13],[40,-9],[21,28],[9,-7],[5,-25],[14,-26],[12,-67],[2,-19],[7,-17],[26,-35],[15,-22],[20,-4],[18,0],[49,14],[27,-7],[14,-14],[11,-31],[5,-31],[2,-67],[0,-30],[19,-29],[9,-38],[30,-15],[36,-13],[7,-14],[0,-38],[-6,-21],[-24,-25],[-22,-32],[-6,-18],[1,-25],[8,-14],[16,-16],[14,-2],[31,18],[30,10],[10,12],[30,19],[15,-11],[18,3],[20,14],[0,35],[13,-1],[51,-25],[29,-7],[17,-1],[22,-28],[19,-29],[8,-20],[25,-29],[13,-23],[15,-16],[11,-19],[4,-22],[8,-13],[15,-1],[10,-11],[25,0],[26,7],[28,13],[20,14],[27,40],[12,40],[-1,32],[-6,28],[-13,40],[-22,50],[-24,39],[-7,29],[11,14],[45,29],[20,23],[11,25],[16,16],[28,6],[17,-9],[16,-1],[12,10],[17,4],[25,-6],[28,-12],[20,-2],[21,26],[42,44],[15,41],[7,13],[20,55]],[[5209,2626],[1,-125],[1,-5],[1,-174],[0,-276],[0,-230],[1,-292],[0,-354],[1,-393],[2,-272],[0,-79],[1,-396],[-251,-2],[-108,-1],[-271,-3],[-68,-2],[-80,-4],[-66,3],[-97,-1],[-118,0],[-114,-1],[-142,-1],[-103,1],[-23,-1],[-221,-1],[-85,-1],[-368,-6]],[[3102,10],[-4,26],[-19,81],[-4,30],[-7,63],[-2,30],[0,117],[-2,46],[-15,134],[-2,39],[-2,147],[-2,53],[-2,132],[-1,206],[0,56],[6,603],[-1,172],[1,290],[-5,21],[-8,22],[-35,56],[-189,296],[-12,27],[-7,35],[1,76],[0,93]],[[2755,3791],[37,0]],[[2792,3791],[1,-279],[-3,-14],[0,-84]],[[2518,3422],[-53,-2],[4,200],[-1,163],[145,1],[69,8],[73,-1]],[[2750,4539],[131,3],[332,1],[269,1],[178,3],[324,2],[123,2],[196,1],[190,-1],[283,-6],[62,0],[147,2],[226,4],[0,-168],[2,-128],[2,-306],[2,-154],[-1,-96],[3,-92],[1,-94],[-13,-94],[1,-156],[1,-128],[0,-249],[-1,-140],[1,-120]],[[3045,3551],[1,50],[-145,3],[-1,185],[-108,2]],[[2755,3791],[-5,748]],[[2632,2860],[-113,0],[-324,-3],[-51,-2],[-73,-4],[-220,-12],[-117,-5],[-141,2],[-115,-2],[-102,-1],[-167,0],[-97,-1],[-74,0],[-168,-1],[-156,0],[-136,-2],[-114,0],[-66,1],[-85,4],[-49,0],[-103,-2],[-160,-1]],[[1,2831],[-1,231],[1,128],[0,194],[1,364],[0,296],[0,188],[0,304],[71,0],[139,-2],[151,-1],[73,1],[294,0],[358,2],[178,-1],[324,-1],[145,2],[84,2],[119,0],[140,-1],[263,-1],[121,2],[145,1],[18,2],[69,-3],[56,1]],[[3102,10],[-194,-2],[-401,-5],[-174,1],[-179,1],[-138,-1],[-195,0],[-310,-2],[-147,0],[-56,1],[-145,-1],[0,1],[-452,-3],[-212,1],[-56,-1],[-7,2],[-403,-1],[-32,1],[0,34],[0,153],[0,163],[2,403],[0,364],[0,51],[0,152],[-1,431],[0,86],[0,248],[0,227],[0,219],[-1,298]]],"transform":{"scale":[0.000126115134099617,0.0000768743409490324],"translate":[-98.465038,37.383963]},"objects":{"Geometry\\20-095":{"type":"GeometryCollection","geometries":[{"arcs":[[0,1,2,3,4,5]],"type":"Polygon","properties":{"GEOID":"200959612003"}},{"arcs":[[-4,6,7,8]],"type":"Polygon","properties":{"GEOID":"200959611001"}},{"arcs":[[9,10,-1,11]],"type":"Polygon","properties":{"GEOID":"200959612002"}},{"arcs":[[12,-7,-3,13,-10,14]],"type":"Polygon","properties":{"GEOID":"200959611002"}},{"arcs":[[-14,-2,-11]],"type":"Polygon","properties":{"GEOID":"200959612001"}},{"arcs":[[-15,-12,-6,15,16]],"type":"Polygon","properties":{"GEOID":"200959613002"}},{"arcs":[[-16,-5,-9,17]],"type":"Polygon","properties":{"GEOID":"200959613001"}}]}}}