{"type":"Topology","arcs":[[[1825,3931],[43,0],[262,0],[35,1],[153,0],[39,0],[202,0],[234,0],[72,1],[156,-1],[13,2],[62,0],[150,-1],[15,1],[148,-1],[229,5],[0,-81],[-1,-80],[0,-22],[-1,-63],[1,-72],[-1,-126],[-1,-189],[0,-60],[0,-97],[1,-157],[0,-25],[0,-53],[-1,-80],[1,-314],[1,-158],[-1,-22],[2,-4],[-2,-43],[0,-88],[1,-158]],[[3637,2046],[-92,0],[-33,0],[-139,-1],[-43,0],[-176,-1],[-60,-1],[-112,-1],[-191,-1],[-146,1],[-67,0],[-135,-1],[-20,-1],[-20,1],[-79,0],[-139,2]],[[2185,2043],[1,285],[1,187],[-110,1],[-64,-1],[-189,1]],[[1824,2516],[1,172],[1,159],[1,169],[-1,340],[0,187],[-1,235],[0,153]],[[1824,2516],[-71,1],[-294,1],[0,-108],[2,-206],[0,-25],[1,-133]],[[1462,2046],[-68,0],[-121,-1],[-103,0],[-71,-1],[-121,0],[-126,0],[-81,0],[-105,0],[-220,-1],[-162,0],[-111,0],[-46,0],[-124,-2]],[[3,2041],[-1,158],[-1,157],[-1,315],[0,314],[0,157],[1,157],[0,157],[1,158],[0,314],[2,0],[274,0],[61,0],[139,0],[161,1],[13,0],[19,-3],[3,2],[30,0],[23,0],[46,0],[84,-1],[120,2],[119,0],[123,0],[243,3],[212,0],[151,-1]],[[1462,2046],[0,-109],[0,-98],[0,-106],[1,-143],[-1,-15],[120,-1],[102,-1],[139,0]],[[1823,1573],[125,-1],[8,-7],[8,8],[20,-4],[22,3],[80,0],[98,0],[1,146],[-1,79],[1,194],[0,52]],[[3637,2046],[-2,-158],[0,-158],[-1,-42],[0,-115],[-2,-158],[1,-57],[-1,-62],[0,-48],[0,-147],[18,-1],[1,-41],[0,-268],[0,-138],[1,-76],[0,-190],[0,-68],[0,-157],[-119,0],[-1,0],[-104,-4],[-18,-2],[-104,-1],[-15,0],[-64,0],[-56,1],[-16,0],[-49,1],[-81,0],[-202,4],[-125,1],[-18,0],[-106,0],[-3,1],[-125,1],[-233,0]],[[2213,164],[-58,0],[-63,-1],[-121,0],[0,167],[1,164],[0,103],[0,145],[0,49],[-117,0],[-108,-2],[-82,-2],[-54,-2],[0,-157],[-1,-157],[0,-95],[0,-60],[1,-2],[58,1],[122,3],[-1,-148],[1,-89],[0,-79]],[[1791,2],[-60,-2],[0,63],[2,16],[-3,81],[-17,0],[-104,-3],[-2,3],[-146,0],[-77,0],[-141,-1],[-69,1],[-75,1],[-153,-1],[-54,2],[-88,1],[-88,-1],[0,-2],[-41,-1],[-49,-1],[-31,1],[-184,-4],[-119,-2],[-145,1],[-96,-2],[0,32],[-2,12],[3,20],[0,95],[0,117],[0,188],[1,166],[1,159],[-1,46],[1,116],[-49,1],[0,314],[1,105],[0,24],[-2,26],[3,49],[0,105],[-1,157],[-3,157]],[[2185,2043],[-106,1],[-142,0],[-46,0],[-29,0]],[[1862,2044],[0,23],[-83,0],[-1,-46],[9,0],[0,-23]],[[1787,1998],[-58,0],[0,-11],[-26,0],[0,58],[-159,1],[-82,0]],[[1787,1998],[27,-1]],[[1814,1997],[-5,-12],[-10,-12],[-2,-25],[-3,-6],[0,-12],[5,-13],[1,-14],[13,-12],[11,-4],[0,-128],[-1,-186]],[[1814,1997],[9,12],[39,1],[0,34]],[[2213,164],[-1,-107],[1,-48],[-240,-7],[-3,2],[-60,0],[-62,0],[-57,-2]],[[1749,610],[1,-60],[23,-12],[58,2],[-1,93],[-56,-1],[-25,-1],[0,-21]]],"transform":{"scale":[0.00015293647316538646,0.00009243397663788695],"translate":[-98.48063999999998,38.15875]},"objects":{"Geometry\\20-159":{"type":"GeometryCollection","geometries":[{"arcs":[[0,1,2,3]],"type":"Polygon","properties":{"GEOID":"201599671001"}},{"arcs":[[-4,4,5,6]],"type":"Polygon","properties":{"GEOID":"201599671002"}},{"arcs":[[-6,7,8,-2,9,10,11]],"type":"Polygon","properties":{"GEOID":"201599673003"}},{"arcs":[[-3,12,13,14,-5]],"type":"Polygon","properties":{"GEOID":"201599672002"}},{"arcs":[[-15,15,16,-8]],"type":"Polygon","properties":{"GEOID":"201599672003"}},{"arcs":[[17,-13,-9,-17]],"type":"Polygon","properties":{"GEOID":"201599672004"}},{"arcs":[[-18,-16,-14]],"type":"Polygon","properties":{"GEOID":"201599672001"}},{"arcs":[[18,-11],[19]],"type":"Polygon","properties":{"GEOID":"201599673001"}},{"arcs":[[-20]],"type":"Polygon","properties":{"GEOID":"201599673002"}}]}}}