{"type":"Topology","arcs":[[[2252,3254],[-1,-87],[1,-56],[0,-240],[1,-231],[-2,-115],[0,-227]],[[2251,2298],[-236,-1],[-64,1],[-148,-2],[0,50],[5,23],[-6,29],[1,26],[-1,257]],[[1802,2681],[0,92],[1,83],[-1,164],[0,202],[0,29],[29,0],[188,1],[71,2],[26,-1],[136,1]],[[4506,2866],[-150,-2],[-218,-2],[-31,1],[-67,4],[-38,0],[-208,1],[-202,1],[-120,1],[-411,2],[-73,0],[-20,2],[-21,4],[-43,12],[-26,-1],[-47,-9],[-27,-4],[-27,-1],[-73,0]],[[2704,2875],[0,189],[0,191],[-167,-1],[-20,7],[-13,-6],[-26,0],[-226,-1]],[[1802,2681],[-123,0],[-141,2],[-157,0],[-314,2],[-92,0],[-408,1],[-82,0],[-154,-2],[-257,0],[-69,0]],[[5,2684],[1,102],[-1,198],[0,38],[-1,50],[0,298],[0,74],[0,67],[0,84],[-1,186],[0,113],[-1,71],[0,56],[-1,163],[0,277],[0,67],[-1,61],[0,199],[0,126],[1,37],[-1,28],[1,40],[0,34],[0,80],[-1,57],[2,89],[-1,81],[0,130],[0,59],[1,64],[-1,93],[2,4],[-2,26],[105,-2],[129,0],[131,1],[13,2],[12,-2],[87,-1],[33,1],[87,0],[7,-1],[154,1],[5,0],[87,0],[55,1],[108,-1],[45,-1],[66,2],[139,-1],[55,1],[111,0],[40,-1],[117,2],[44,0],[167,-1],[86,1],[25,-1],[144,1],[52,-1],[159,1],[4,-1],[101,0],[76,0],[44,-1],[22,1],[50,-1],[165,1],[2,1],[51,-3],[105,3],[113,0],[19,2],[140,-2],[25,0],[126,-2],[12,2],[91,2],[7,-2],[119,-1],[75,1],[74,0],[106,1],[75,-1],[67,0],[5,1],[60,-2],[55,-1],[1,2],[30,0],[120,-2],[149,1],[32,2],[80,-1],[39,-1],[0,-118],[0,-74],[-2,-23],[3,-142],[0,-64],[-1,-21],[2,-17],[-3,-6],[0,-22],[0,-88],[2,-48],[0,-52],[0,-141],[-2,-11],[1,-21],[0,-168],[1,-186],[-1,-95],[1,-52],[0,-266],[2,-75],[0,-66],[-1,-70],[1,-37],[-1,-67],[1,-70],[0,-55],[1,-38],[-1,-100],[1,-102],[0,-99],[-4,-309],[2,-17],[0,-150]],[[2251,2298],[121,0],[182,1],[0,190],[0,277],[-5,13],[4,11],[1,85],[150,0]],[[4506,2866],[-1,-153],[0,-170],[0,-48],[0,-165],[-1,-110],[0,-63],[0,-103],[0,-57],[-1,-123],[0,-104],[-1,-282],[-1,-116],[-1,-66],[0,-157],[1,-137],[0,-66],[0,-73],[-1,-41],[1,-86],[-2,-300],[0,-238],[0,-177],[-1,-28],[-14,-2],[-127,1],[-96,-1],[-95,0],[-117,-1],[-59,0],[-23,2],[-68,0],[-7,-2],[-52,0],[-90,1],[-24,1],[-126,1],[-98,1],[-84,-1],[-265,0],[-147,0],[-89,2],[-6,-2],[-46,-1],[-43,1],[-262,0],[-24,-1],[-87,1],[-167,1],[-27,1],[-150,0],[-28,-1],[-54,1],[-123,1],[-119,0],[-75,1],[-51,0],[-84,1],[-55,1],[-77,0],[-31,-1],[-96,0],[-37,0],[-53,0],[-16,0],[-64,0],[-16,-1],[-99,1],[-330,-1],[-339,1],[-146,0],[-112,0],[-93,1],[0,85],[0,85],[0,91],[-1,296],[0,107],[-1,54],[1,171],[-1,71],[1,50],[1,143],[-1,37],[1,60],[-1,142],[0,120],[1,63],[-1,58],[0,408],[-1,100],[1,51],[-1,102],[0,271],[1,61],[-1,49]]],"transform":{"scale":[0.00012492014196983234,0.00007582174594877183],"translate":[-99.067115,39.567412]},"objects":{"Geometry\\20-183":{"type":"GeometryCollection","geometries":[{"arcs":[[0,1,2]],"type":"Polygon","properties":{"GEOID":"201834758001"}},{"arcs":[[3,4,-3,5,6]],"type":"Polygon","properties":{"GEOID":"201834759001"}},{"arcs":[[-6,-2,7,-4,8]],"type":"Polygon","properties":{"GEOID":"201834759002"}},{"arcs":[[-5,-8,-1]],"type":"Polygon","properties":{"GEOID":"201834758002"}}]}}}