{"type":"Topology","arcs":[[[7129,9612],[-22,-169],[-2,-71],[-1,-375],[-3,-43],[-11,-61],[-142,-580],[-17,-55],[-25,-59],[-57,-112],[-20,-49],[-18,-66],[-9,-74],[4,-104]],[[6806,7794],[-126,-21],[-149,-21],[-45,-13],[-53,-20],[-33,-8],[-85,-3],[-46,4],[-81,37],[-77,24],[-58,-5],[-41,-21],[-61,-50],[-28,-45],[-3,-46],[-8,-31],[-19,-30],[-55,-65],[-22,-21],[-54,-9],[-44,6],[-60,20],[-25,1],[-33,-14],[-63,-47],[-40,-4],[-26,10],[-67,43],[-26,9],[-112,18],[-40,-11],[-104,-61],[-35,-10],[-44,9],[-83,38],[-33,7],[-176,9],[-33,-1],[-30,-11],[-38,-26],[-29,-9],[-33,7],[-107,45],[-36,22],[-34,33],[-41,19],[-52,15],[-68,32],[-65,44],[-133,38],[-51,26],[-17,2],[-27,21],[-57,34],[-44,32],[-40,19],[-30,2],[-29,13],[-32,33],[-41,25],[-15,23],[4,38],[-22,44],[-31,27],[-50,5],[-9,20]],[[3561,8045],[35,5],[111,31],[54,26],[11,24],[-15,30],[-57,18],[-57,6],[-25,8],[-26,24],[-15,80],[1,60],[-8,28],[-31,26],[-26,1],[-69,-15],[-25,0],[-97,14],[-87,2],[-39,10],[-31,14],[-32,28],[-9,15],[-17,58],[6,40],[46,33],[80,13],[15,10],[10,23],[-10,32],[-53,74],[-4,57],[15,31],[50,15],[92,10],[46,9],[27,15],[9,32],[-59,79],[-5,21],[18,56],[19,30],[4,52],[-15,20],[-44,9],[-85,-12],[-36,6],[-33,16],[-59,14],[-16,9],[-22,52],[7,24],[55,13],[51,34],[37,47],[-3,23],[-41,8],[-57,-8],[-96,26],[-13,10],[-23,37],[9,22],[44,10],[58,48],[29,30],[21,47],[-16,22],[-31,-3],[-86,-46],[-29,-7],[-26,2],[-23,12],[-28,28],[-20,46],[6,29],[22,27],[62,44],[20,24],[37,27],[7,24],[-11,18],[-57,30],[1200,-92],[738,-56],[461,-35],[785,-63],[557,-43],[380,-31]],[[901,6263],[112,-276],[28,-63],[135,-198],[21,-36],[15,-42],[38,-22],[86,-13],[38,-21],[62,-78],[32,-14],[22,6],[161,83],[38,15],[51,8],[73,-11],[23,-8],[100,-46],[24,-8],[28,5],[30,24],[18,3],[39,-12],[72,-58],[59,-13],[65,-5],[27,-15],[23,-45],[6,-57],[16,-28],[17,-10],[76,-28],[54,-39],[72,-38],[105,-48],[47,-6],[25,8],[76,41],[143,53],[45,-2],[183,-68],[22,-12],[81,-61],[15,-17],[73,-119],[42,-34],[80,-60],[26,-31],[45,-89],[20,-28],[119,-134],[27,-18],[60,-20],[39,-26],[107,-91],[24,-12],[29,4],[106,42],[40,12],[58,7],[178,0],[30,-5],[48,-18],[19,0],[19,20],[28,57],[53,31],[234,100],[20,11],[59,44],[91,47],[29,19],[141,130],[18,15],[142,99],[17,18],[10,32],[-1,47],[8,42],[20,43],[11,10],[84,48],[45,48],[36,6],[25,-13],[16,-34],[23,-20],[53,-3],[19,-13],[122,-139],[24,-35],[10,-35],[21,-101],[10,-27],[46,-68],[89,-232],[6,-32],[-3,-74],[26,-154],[56,-117],[30,-45],[45,-33],[32,-47],[29,-12],[48,-1],[47,27],[29,3],[116,27],[41,1],[61,-14]],[[6559,4167],[-17,-27],[-101,-141],[-44,-70],[-37,-72],[-47,-120],[-31,-123],[-44,-218]],[[6238,3396],[-37,14],[-39,51],[-16,42],[-16,81],[-20,36],[-13,58],[-8,68],[-2,50],[-11,45],[-16,34],[-28,38],[-19,17],[-60,32],[-55,1],[-48,-36],[-41,-65],[-11,-46],[-4,-58],[7,-30],[25,-56],[20,-24],[42,-21],[39,-35],[21,-38],[16,-56],[6,-43],[49,-107],[1,-44],[19,-73],[-11,-110],[-22,-65],[-32,-21],[-28,-4],[-43,9],[-59,35],[-46,34],[-1,12],[-40,53],[-40,35],[-36,38],[-36,32],[-8,31],[5,53],[9,32],[27,52],[34,30],[18,51],[3,57],[-5,71],[-12,35],[-36,47],[-50,33],[-43,6],[-58,-3],[-73,-30],[-7,0],[-90,-47],[-31,-25],[-27,-32],[-10,-61],[18,-49],[31,-50],[93,-96],[53,-60],[38,-52],[24,-45],[10,-35],[17,-18],[15,-40],[-3,-38],[-11,-21],[-44,-21],[-40,5],[-47,24],[-39,25],[-25,24],[-37,18],[-27,26],[-43,18],[-71,6],[-60,-17],[-39,-30],[-31,-44],[-51,-116],[-22,-79],[-21,-66],[-23,-46],[-31,-23],[-54,3],[-12,7],[-33,42],[-17,38],[-16,65],[5,23],[-13,96],[-26,74],[-24,38],[-69,89],[-21,31],[-30,32],[-62,24],[-57,2],[-56,-24],[-105,-87],[-39,-39],[-85,-71],[-30,-14],[-34,1],[-33,22],[-42,59],[-15,38],[-35,56],[-33,38],[-18,11],[-28,-3],[-33,-32],[-8,-66],[3,-17],[-5,-69],[-14,-52],[-31,-93],[-15,-11],[-41,-8],[-38,6],[-48,34],[-15,49],[17,163],[-12,54],[-28,28],[-32,6],[-27,14],[-67,11],[-37,-5],[-27,-30],[-16,-49],[-9,-90],[-8,-35],[-39,-97],[-35,-52],[-30,-24],[-78,-39],[-55,-43],[-37,-39],[-12,-18],[-2,-30],[17,-89],[14,-105],[-8,-60],[-24,-21],[-42,-15],[-61,-3],[-67,-12],[-48,-28],[-9,-11],[-6,-48],[5,-47],[17,-77],[4,-60]],[[2956,2220],[-801,1103],[-460,634],[-730,1004],[-293,412],[-567,795],[72,57],[28,30],[7,34],[-104,112],[-39,82],[-29,77],[-40,81],[11,26],[40,17],[31,5],[46,-21],[38,-72],[0,-37],[-29,-60],[5,-28],[50,-19],[50,-10],[89,-7],[46,7],[23,18],[-6,37],[-10,15],[-60,66],[-6,42],[23,25],[56,-3],[21,-21],[5,-61],[6,-32],[32,-58],[31,-30],[18,-9],[66,-5],[105,14],[30,-18],[30,-75],[30,-59],[51,-30],[54,-1],[25,6]],[[6704,6149],[4,66],[8,43],[27,85],[298,710],[35,92],[23,-31],[72,-109],[16,-52],[13,6],[19,-37],[20,-72],[26,-33],[79,-68],[26,-39],[33,-26],[35,-41],[32,-28],[33,-20],[61,-19],[61,-10],[68,-34],[38,-6],[85,-4],[51,9],[43,-1],[20,-7],[37,-30],[46,-56],[17,-30],[7,-48],[-2,-30],[-15,-40],[6,-33],[52,-31],[16,-54],[34,-45],[23,-12],[30,-6],[45,34],[44,6],[49,-24],[41,-13],[21,-15]],[[8381,6096],[-164,-359],[-13,-46],[-10,-67],[-16,-59],[94,-13],[61,-18],[39,-23],[24,-7],[23,4],[39,74],[4,30],[18,20],[33,12],[28,33],[10,3],[24,-30],[29,1],[23,-27],[18,-2],[15,19],[20,7],[16,-10],[51,-14],[85,-35],[95,-19],[31,-16],[36,-3],[43,19],[45,11],[55,26],[76,28],[75,24],[45,78],[43,62],[7,-46],[-2,-32],[-10,-14],[-15,-76],[5,-40],[-2,-35],[13,-92],[-15,-48],[52,-49],[9,-28],[-2,-34],[24,-5],[22,-35],[5,-57]],[[9467,5208],[-52,-31],[-58,-16],[-27,-19],[-4,-16],[-57,-97],[-19,-54],[-8,-89],[3,-37],[-4,-34],[-24,-76],[-41,-91],[-24,-30],[-29,-16],[-81,-27],[-58,-8],[-52,3],[-73,18],[-29,3],[-104,27],[-64,28],[-84,28],[-59,35],[-47,52],[-43,59],[-32,21],[-104,43],[-54,27],[-50,4],[-22,-18],[-15,-32],[-9,-68],[4,-106],[8,-24],[2,-61],[-6,-44],[3,-63],[11,-53],[-2,-29],[-39,-60],[-54,-77],[-24,-14],[-98,-5],[-42,4],[-59,14],[-57,6],[-17,-4],[-154,-72],[-63,-41],[-129,-102],[-13,-4],[-77,-59],[-43,-43]],[[7294,3960],[-189,137],[-77,61],[-45,61],[-24,60],[-24,135],[-13,49],[-61,123],[-10,24],[-18,66],[-24,40]],[[6809,4716],[45,94],[11,41],[2,42],[-4,43],[-105,653],[-5,44],[-46,453],[-3,63]],[[901,6263],[16,10],[29,47],[25,105],[17,34],[46,25],[21,28],[25,8],[43,-13],[27,-24],[35,-14],[17,-20],[3,-27],[-21,-48],[-25,-33],[-25,-21],[-90,-48],[-21,-16],[-26,-48],[-6,-38],[11,-62],[25,-49],[36,-27],[27,7],[29,27],[13,21],[13,104],[7,33],[24,39],[43,8],[17,-5],[32,-25],[73,-94],[49,-46],[80,-38],[46,-15],[66,-26],[65,-30],[51,-9],[28,-1],[48,16],[13,38],[-7,19],[-28,30],[-29,11],[-82,19],[-69,26],[-40,29],[-34,36],[-37,57],[4,26],[38,40],[68,46],[1,29],[-45,112],[-29,38],[-9,39],[10,76],[24,40],[25,19],[25,1],[56,-19],[29,-20],[21,-47],[10,-37],[7,-75],[40,-35],[54,-11],[36,-2],[30,4],[39,30],[-1,43],[-53,76],[5,38],[42,5],[78,-14],[22,-1],[81,35],[34,-1],[31,-10],[20,-16],[20,-51],[-2,-23],[-14,-23],[-114,-94],[-45,-22],[-44,-15],[-50,-25],[-26,-18],[-27,-35],[23,-47],[45,-36],[40,5],[34,19],[29,25],[26,34],[61,95],[40,8],[34,-40],[34,-62],[40,-18],[69,-1],[40,-22],[27,3],[22,36],[-4,16],[-54,61],[-33,75],[-9,34],[5,25],[35,26],[56,5],[75,-11],[74,-1],[40,26],[11,32],[-25,40],[-118,67],[-50,20],[-14,29],[21,25],[58,24],[15,16],[20,74],[9,16]],[[2528,6964],[8,-4],[54,24],[41,-5],[52,-22],[25,-102],[8,-14],[22,-3],[33,70],[29,32],[21,13],[28,-32],[22,-33],[31,-31],[20,-11],[21,4],[63,83],[39,30],[55,27],[19,20],[6,24],[18,23],[31,18],[18,1],[17,-21],[-52,-109],[14,-23],[-3,-63],[8,-9],[53,-17],[46,-28],[42,-12],[43,2],[16,7],[37,32],[53,95],[24,-7],[17,-28],[49,-35],[31,-7],[25,22],[11,70],[10,23],[29,21],[32,1],[20,-14],[16,-29],[18,-67],[28,-41],[49,-48],[37,-47],[5,-30],[-9,-70],[3,-55],[30,-41],[28,10],[3,30],[20,56],[8,42],[35,26],[19,31],[18,-1],[10,-22],[41,-41],[40,-10],[58,9],[23,15],[1,26],[-14,15],[-82,30],[-21,16],[-30,67],[-5,35],[6,20],[30,8],[44,-17],[22,-19],[29,-3],[80,91],[20,1],[33,-18],[18,-28],[5,-135],[11,-36],[26,-22],[31,1],[29,19],[56,5],[56,10],[17,-36],[-2,-25],[13,-17],[-1,-46],[29,-27],[14,-4],[111,51],[45,16],[109,6],[35,8],[52,18],[40,0],[50,-17],[9,-60],[41,-1],[66,9],[11,-118],[7,-19],[69,-134],[27,-33],[45,-16],[21,-15],[48,-56],[18,-47],[47,-55],[34,-74],[9,-11],[66,-50],[31,-37],[19,-66],[50,-48],[29,-54],[15,-15],[59,-27],[16,-22],[22,-5],[61,1],[45,-45],[16,-9],[38,-4],[24,-18],[51,-63],[52,-40],[74,-97],[55,-47],[40,-45],[47,-42],[31,-36],[39,-21],[62,-53],[53,-32],[51,-50],[13,-25],[14,-83],[29,-75],[66,-118],[1,-15],[61,-113],[18,-54],[4,-36]],[[6755,4612],[-24,-49],[-148,-349],[-24,-47]],[[6755,4612],[54,104]],[[7294,3960],[-55,-57],[-46,-28],[-55,-42],[-6,1],[-74,-57],[-40,-66],[-26,-49],[-37,-56],[-19,-15],[-33,-6],[-54,13],[-32,22],[-40,52],[-45,52],[-70,63],[-43,24],[-27,1],[-24,-15],[-19,-45],[-9,-55],[2,-40],[-18,-95],[-29,-50],[-50,-56],[-32,-26],[-67,-25],[-108,-9]],[[9904,3480],[14,30],[6,32],[1,55],[16,63],[54,116],[50,76],[123,151],[22,32],[12,28],[20,115],[31,69],[28,36],[35,38],[21,33],[7,23],[16,102],[-5,82],[15,48],[29,33],[36,83],[40,42],[21,40],[29,104],[0,33],[-9,29],[-28,67],[-7,48],[6,62],[50,166],[9,41],[4,57],[-7,67],[-44,169]],[[10499,5650],[65,27],[40,9],[49,0],[30,-13],[34,-44],[13,-43],[4,-40],[-5,-33],[-37,-49],[-70,-61],[-18,-37],[-12,-9],[-32,-67],[-11,-39],[-25,-59],[-14,-54],[-2,-70],[6,-36],[19,-44],[23,-29],[42,-32],[61,-21],[38,-3],[44,8],[96,40],[38,30],[41,62],[21,45],[18,50],[11,98],[-13,37],[8,78],[11,33],[24,46],[35,44],[45,35],[41,24],[52,24],[50,2],[27,-16],[32,-42],[16,-41],[3,-40],[-15,-111],[-19,-75],[-19,-50],[-18,-22],[-73,-66],[-27,-36],[-27,-59],[-1,-36],[18,-52],[40,-45],[37,-25],[106,-96],[30,-18],[28,-7],[57,-7],[39,16],[27,20],[35,40],[26,61],[11,43],[-3,37],[-39,46],[-81,127],[-59,76],[-23,54],[-7,32],[6,29],[61,46],[112,74],[34,53],[66,76],[46,79],[23,19],[41,15],[34,2],[19,-16],[8,-34],[5,-67],[-17,-151],[6,-120],[23,-35],[56,-58],[45,-24],[51,-5],[73,-27],[65,-19],[13,-10],[28,-1],[27,-13],[91,-26]],[[12256,5054],[103,-50],[83,-103],[24,-46],[35,-118],[52,-62],[70,-41],[30,-21],[12,-22],[17,-55],[-1,-36],[-9,-51],[4,-35],[25,-54],[11,-63],[24,-27],[-22,-138],[-5,-57],[2,-31],[21,-28],[82,5],[75,-16],[29,-14],[62,-13],[11,-20],[-5,-19],[-43,-57],[-82,-77],[-23,-18],[-48,-21],[-52,-45],[-26,-39],[-11,-32],[2,-24],[13,-29],[31,-106],[13,-22],[-20,-122],[-68,-774]],[[12672,2573],[-8,14],[-13,56],[-19,32],[-48,20],[-250,31],[-66,17],[-128,58],[-46,7],[-32,-12],[-72,-38],[-40,91],[-27,20],[-59,1],[-43,23],[-80,28],[-133,69],[-76,26],[-115,33],[-113,29],[-34,-2],[-43,-13],[-146,-12],[-20,4],[-64,29],[-67,80],[-19,16],[-26,0],[-27,-16],[-31,-7],[-131,-1],[-36,23],[-29,50],[-20,65],[-10,18],[-22,17],[-46,16],[-74,11],[-99,-8],[-127,16],[-121,11],[-71,12],[-19,15]],[[10022,3402],[-18,22],[-26,19],[-74,37]],[[10858,9313],[448,-191],[268,-14],[79,-6],[257,-12],[239,-16],[360,-18],[236,-14],[567,-30],[38,-37],[1,-31],[-13,-35],[10,-22],[-5,-31],[-56,-49],[-6,-36],[2,-55],[19,-51],[43,-69],[37,2],[23,-35],[27,-10],[4,-16],[-32,-29],[-12,-20],[10,-17],[-3,-41],[5,-13],[38,-25],[10,-76],[-20,-40],[-4,-35],[21,-50],[20,-13],[-20,-47],[8,-39],[-14,-57],[5,-16],[-19,-26],[-32,-9],[3,-34],[27,-13],[10,-26],[43,-43],[4,-33],[-17,-5],[-35,38],[-29,13],[-4,14],[-40,32],[-39,-16],[-30,10],[-13,-6],[2,-37],[-11,-8],[-13,-37],[-4,-43],[-19,-26],[-26,-2],[-56,-58],[-9,-55],[-47,-24],[-40,5],[-55,-38],[-27,2],[-54,-83],[-349,-498],[-82,-300],[-91,-653],[-140,-1006]],[[10499,5650],[-7,40],[4,24],[20,60],[5,41],[-10,60],[-33,62],[-22,48],[-8,50],[8,63],[17,42],[19,29],[27,30],[98,87],[37,45],[64,116],[16,55],[4,47],[-4,44],[-19,62],[-28,55],[-8,30],[-36,195],[-7,68],[-2,96],[-9,118],[-27,193],[-14,53],[-23,55],[-162,302],[-15,43],[-4,60],[5,26],[19,46],[142,244],[40,84],[82,250],[10,72],[-2,52],[-16,135],[1,63],[4,30],[18,63],[29,57],[69,98],[25,41],[34,73],[18,56]],[[7129,9612],[747,-59]],[[7876,9553],[-25,-209],[30,-27],[13,-40],[40,-66],[1,-27],[26,-54],[-4,-45],[6,-20],[24,-18],[47,-91],[34,-35],[12,-20],[26,-9],[20,9],[37,-72],[35,-99],[59,-63],[62,-70],[2,-35],[-87,-81],[20,-25],[23,-53],[23,-26],[34,-28],[11,-20],[-20,-37],[-17,-64],[-8,-143],[2,-92],[6,-21],[26,-41],[27,-60],[6,-36],[10,-17],[23,-6],[74,-3],[36,2],[65,-14],[24,-33],[1,-84],[25,-53],[-11,-44],[-50,-54],[-2,-12],[25,-58],[8,-34],[31,-27],[28,-32],[5,-21],[-17,-40],[1,-43],[-10,-19],[-21,-15],[-15,-54],[10,-52],[-16,-37],[-13,-65],[-9,-24],[4,-90],[-24,-65],[-22,-21],[-7,-37],[43,-56],[10,-43],[11,-17],[27,-5],[17,-35],[-150,-169],[-20,-28],[-8,-30],[-23,-192],[-16,-45],[-30,-67]],[[6704,6149],[-26,19],[-14,52],[-18,232],[1,100],[4,61],[13,76],[99,404],[20,110],[12,51],[35,119],[3,33],[0,91],[-27,297]],[[9467,5208],[51,-9],[35,-22],[67,-16],[54,-26],[24,-27],[23,-68],[-4,-42],[-11,-32],[-6,-69],[2,-53],[-4,-41],[-3,-79],[9,-54],[8,-17],[41,-45],[31,-13],[49,-6],[50,7],[44,23],[49,38],[32,31],[25,40],[46,97],[72,136],[42,61],[19,42],[25,42],[84,96],[38,68],[27,57],[11,33],[-34,64],[10,71],[20,61],[33,46],[50,37],[23,11]],[[9904,3480],[-27,41],[-33,30],[-41,21],[-22,20],[-39,51],[-29,23],[-63,34],[-68,-48],[-60,-35],[-100,-67],[-46,-18],[-62,-14],[-66,-34],[-95,6],[-36,-27],[-19,-8],[-48,42],[-84,29],[-319,39],[-12,-5],[-13,-121],[-5,-12],[-36,-22],[-56,17],[-19,-26],[-7,-68],[-14,-21],[-47,11],[-50,6],[-18,-7],[-51,12],[-87,1],[-66,-12],[-125,24],[-27,24],[-13,-38],[-44,-34]],[[7957,3294],[-41,32],[-99,64],[-71,35],[-64,14],[-94,60],[-76,63],[-119,56],[-60,37]],[[7333,3655],[62,117],[11,52],[-5,28],[-18,36],[-20,20],[-69,52]],[[7333,3655],[-104,-191],[-14,-37],[-107,-304],[-5,-18]],[[7103,3105],[-45,-57],[-68,-19],[-51,-39],[-105,-23],[-137,-78],[-14,-17],[-6,-37],[-76,-56],[-16,-18],[-88,-60],[-26,-25],[-42,-55],[-74,-38],[-47,-12],[-29,-33],[-44,-86],[-21,-66],[-32,-42],[-8,-34],[8,-23],[-16,-54],[-31,-75],[-16,-58],[-36,-88],[-29,-48],[-37,-52],[-13,-58],[-1,-66],[-9,-74],[-12,-20],[-73,54],[-21,-197],[-18,-77],[-37,-72],[-198,-260],[-23,-32],[-92,-139],[-144,-193],[-26,-32],[-165,-178],[-48,-64],[-65,-103],[-30,-77],[-9,-67]],[[5033,257],[-562,30],[-208,55],[-206,51],[-1282,227],[158,1287],[35,297],[-12,16]],[[9453,575],[28,0],[50,13],[43,26],[79,61],[23,28],[90,157],[19,23],[83,47],[90,41],[42,22],[-26,75],[-12,54],[4,40],[60,217],[-1,23],[-13,9],[-58,12],[-17,16],[7,39],[16,34],[1,39],[16,61],[-8,26],[-48,22],[-17,14],[-13,31],[-51,413],[0,16],[26,91],[-17,45],[1,28],[69,142],[52,97],[-4,26],[-27,27],[-2,21],[14,69],[7,83],[11,50],[-11,53],[7,118],[6,48],[28,42],[13,76],[19,63],[-10,189]],[[12672,2573],[-32,-366],[-98,-1086],[-747,-203],[-442,-122],[-327,-88],[-160,-17],[-659,-60],[-720,-146]],[[9487,485],[0,27],[-9,31],[-25,32]],[[7876,9553],[1358,-109],[1054,-84],[567,-46],[3,-1]],[[7957,3294],[23,-35],[10,-79],[0,-72],[9,-38],[20,-51],[14,-56],[28,-153],[14,-57],[51,-135],[42,-52],[29,-51],[15,-35],[13,-59],[27,-52],[21,-27],[44,-82],[24,-31],[151,-179],[62,-57],[31,-41],[72,-109],[44,-45],[34,-47],[40,-105],[17,-66],[11,-27],[25,-40],[23,-57],[20,-66],[20,-33],[16,-12],[27,-72],[66,-108],[47,-44],[13,-22],[20,-60],[50,-85],[-7,-42],[2,-29],[16,-55],[61,-84],[11,-79],[35,-51]],[[9248,614],[-209,25],[-65,-3],[-229,-40],[-37,-3],[-291,10],[-47,11],[-61,27],[-545,256],[-49,14],[-239,36],[-588,59],[-175,21]],[[6713,1027],[43,53],[567,559],[73,80],[41,53],[53,84],[27,50],[34,72],[17,45],[24,74],[19,79],[9,76],[-8,65],[-17,50],[-36,57],[-34,36],[-46,33],[-216,117],[-28,18],[-36,34],[-29,46],[-15,48],[-57,285],[5,64]],[[2528,6964],[11,20],[23,101],[-20,43],[-82,58],[-28,47],[-11,68],[-2,44],[17,39],[45,26],[38,8],[39,-2],[99,-17],[37,1],[29,10],[37,32],[2,23],[-19,30],[-27,4],[-69,-30],[-33,-8],[-30,2],[-60,25],[-59,78],[-83,62],[-27,36],[3,16],[31,22],[99,24],[48,32],[13,29],[-15,29],[-30,11],[-63,14],[-31,24],[-6,14],[7,29],[19,11],[35,8],[53,3],[58,-7],[33,-13],[28,-22],[98,-92],[31,-17],[32,-8],[77,12],[27,14],[25,31],[-10,39],[-40,22],[-56,23],[-25,18],[-22,28],[-8,29],[2,29],[21,35],[35,36],[19,10],[42,-2],[65,-22],[99,-28],[42,-23],[45,-60],[15,-30],[4,-44],[-11,-28],[-25,-32],[-35,-28],[-40,-22],[-11,-12],[-13,-55],[20,-31],[21,-8],[69,1],[40,12],[60,39],[10,54],[-6,58],[-8,34],[-29,51],[-60,79],[-20,38],[-14,59],[7,13],[33,14],[82,-3],[84,-10],[30,-19],[13,-24],[1,-27],[-11,-70],[2,-77],[22,-47],[23,-14],[35,-3],[15,13],[8,26],[-18,56],[-26,51],[-5,20],[20,61],[21,16],[26,1],[75,-27],[21,-2]],[[9248,614],[99,-14],[74,-20],[32,-5]],[[9487,485],[-621,-169],[-827,-225],[-473,-49],[-120,-9],[-708,-33],[-350,41],[-426,49]],[[5962,90],[234,199],[39,38],[52,58],[341,421],[25,38],[29,68],[31,115]],[[5962,90],[-100,12],[-253,50],[-249,47],[-278,55],[-49,3]]],"transform":{"scale":[0.00003787741026401668,0.000030362062021747677],"translate":[-86.161548,37.148377]},"objects":{"Geometry\\21-099":{"type":"GeometryCollection","geometries":[{"arcs":[[0,1,2]],"type":"Polygon","properties":{"GEOID":"210999702003"}},{"arcs":[[3,4,5,6]],"type":"Polygon","properties":{"GEOID":"210999703011"}},{"arcs":[[7,8,9,10,11]],"type":"Polygon","properties":{"GEOID":"210999703022"}},{"arcs":[[12,13,14,-4]],"type":"Polygon","properties":{"GEOID":"210999703021"}},{"arcs":[[-15,15,-11,16,-5]],"type":"Polygon","properties":{"GEOID":"210999703023"}},{"arcs":[[17,18,19,20,21]],"type":"Polygon","properties":{"GEOID":"210999705003"}},{"arcs":[[22,-19,23]],"type":"Polygon","properties":{"GEOID":"210999701001"}},{"arcs":[[-1,24,25,-8,26]],"type":"Polygon","properties":{"GEOID":"210999702001"}},{"arcs":[[27,-18,28,29,30,-10]],"type":"Polygon","properties":{"GEOID":"210999705004"}},{"arcs":[[-6,-17,-31,31,32,33]],"type":"Polygon","properties":{"GEOID":"210999704004"}},{"arcs":[[34,-21,35,36]],"type":"Polygon","properties":{"GEOID":"210999705002"}},{"arcs":[[37,-24,-28,-9,-26]],"type":"Polygon","properties":{"GEOID":"210999701002"}},{"arcs":[[-32,-30,38,39,40]],"type":"Polygon","properties":{"GEOID":"210999704002"}},{"arcs":[[-2,-27,-12,-16,-14,41]],"type":"Polygon","properties":{"GEOID":"210999702002"}},{"arcs":[[-40,42,-37,43,44]],"type":"Polygon","properties":{"GEOID":"210999704001"}},{"arcs":[[-29,-22,-35,-43,-39]],"type":"Polygon","properties":{"GEOID":"210999705001"}},{"arcs":[[-41,-45,45,-33]],"type":"Polygon","properties":{"GEOID":"210999704003"}}]}}}