{"type":"Topology","arcs":[[[2843,8485],[1138,1025]],[[3981,9510],[-7,-29],[-21,-42],[18,-20],[3,-107],[37,11],[51,-9],[71,-26],[34,2],[40,-16],[26,-26],[3,-26],[-15,-67],[58,-82],[-2,-29],[27,-53],[-28,-27],[-39,-65],[9,-42],[58,-12],[43,18],[32,-22],[54,17],[12,23],[44,23],[38,8],[19,-7],[8,-27],[40,-30],[1,-64],[-8,-13],[-62,-2],[-44,19],[-66,6],[-27,-10],[10,-31],[-11,-73],[-18,-39],[-15,-64],[-30,-43],[-13,-46],[7,-16],[46,-61],[17,2],[14,-26],[35,-41],[67,-56],[67,-22],[40,-23],[15,-18],[44,33],[89,-24],[38,-22],[1,-113],[16,-67],[57,-30],[29,-2],[74,-45],[27,-39],[37,-21],[90,-11],[57,-2],[47,64],[15,-9],[42,6],[76,-5],[60,18],[24,-8],[61,16],[76,-8],[31,-13],[45,6],[40,-6],[24,-14],[43,-59],[8,-26]],[[5770,7846],[9,-25],[-3,-125],[11,-43],[24,-51],[51,-68],[-6,-20],[42,-24],[13,-58],[8,-126],[-29,-12],[-17,-20],[-11,-58],[18,-44],[25,-27],[16,-34],[33,-48],[-56,-28],[-3,-26],[34,-15],[19,-19],[26,-47],[64,-36],[28,7],[24,-11],[0,-51],[46,-47],[7,-74],[8,-14],[-35,-48],[-74,-127],[-32,-38],[-103,-49],[-81,-31],[-94,-57],[-35,-32],[-106,-38],[-97,-51],[-95,-104],[-76,-70],[-108,-92],[-22,-15],[-67,-17],[-182,-83],[-45,-32],[-17,-25],[-2,-26],[8,-89],[-3,-25],[-55,-47],[-47,-26],[-63,-9],[-33,-14],[-37,-40],[-27,-43],[-17,-99],[-13,-33],[-27,-22],[-24,8],[-71,42],[-30,-2],[-66,-36],[-7,-66],[-36,-43],[-71,4],[-12,6],[3,47]],[[4252,5280],[15,60],[-3,19],[-109,70],[-47,15],[-58,12],[-95,-3],[-24,7],[-101,-10],[-56,-21],[-100,-25],[-31,58],[1,27],[29,78],[36,52],[27,57],[41,48],[15,68],[31,74],[8,66],[-13,133],[10,60],[-44,44],[-145,9],[-111,40],[-62,5],[-82,12],[-19,18],[-3,31],[41,128],[2,63],[-3,72],[-16,89],[-20,87],[-17,22],[-41,21],[-28,5],[-71,-10],[-33,-12],[-51,-31],[-43,-17],[-54,-32],[-41,-1],[-6,25],[52,59],[14,24],[39,38],[55,38],[78,33],[75,77],[44,65],[8,34],[-11,42],[-25,49],[-36,43],[-60,35],[-74,13],[-40,-5],[-28,34],[-33,8],[-41,-1],[-48,-66],[-32,-5],[-65,27],[-17,39],[34,36],[-13,48],[-25,17],[-45,3],[-60,19],[-52,-8],[-30,11],[-23,32],[23,57],[-7,57],[21,25],[10,40],[30,46],[13,40],[16,18],[95,52],[58,18],[60,8],[37,17],[13,30],[-15,42],[-43,30],[-62,12],[-72,-2],[-35,-22],[-15,-47],[-19,-11],[-43,-5],[-113,22],[-31,23],[-16,71],[-22,34],[-6,51],[22,22],[20,44],[-12,35],[-2,41],[18,13],[74,-5],[44,6],[31,15],[46,-5],[109,-20],[25,3],[14,24],[13,66],[-10,82],[-29,96],[-19,30]],[[6942,13044],[26,10],[31,35],[32,21],[62,13],[19,-28],[-10,-70],[0,-34],[15,-41],[27,-41],[71,-69],[11,-19],[74,-168],[34,-45],[23,-17],[52,-54],[22,-10],[158,59],[49,27],[77,63],[28,52],[13,56],[53,74],[57,61],[48,72],[51,52],[67,54],[54,-8],[65,-35],[44,-38],[114,-87],[32,-46],[-2,-71],[19,-86],[1,-59],[-8,-31],[-40,-17],[-46,-10],[-20,-42],[-8,-47],[-17,-34],[-33,-16],[-49,-45],[-60,-28],[-81,-6],[-32,-8],[-100,-108],[-20,-27],[-6,-31],[17,-46],[21,-24],[85,-64],[74,-83],[48,-37],[142,-68],[85,-19],[77,-6],[53,8],[46,25],[66,45],[37,7],[23,15],[78,71],[25,27],[9,27],[-8,38],[8,29],[-5,50],[-13,33],[-39,47],[-36,6],[-18,34],[-4,49],[3,64],[8,23],[9,98],[18,50],[29,130],[14,36],[29,45],[32,28],[35,21],[52,-24],[20,6],[50,47],[37,15],[69,16],[35,2],[85,35],[12,-3],[21,-37],[6,-60],[-17,-52],[-18,-31],[-16,-55],[-59,-157],[-44,-105],[-5,-93],[-16,-25],[-34,-85],[-17,-62],[5,-29],[34,-48],[52,-94],[55,-87],[71,-87],[20,-36],[10,-56],[-8,-54],[-23,-18],[-44,-12],[-67,2],[-37,-11],[-98,-42],[-37,-31],[-33,-36],[-55,-75],[0,-45],[47,-50],[40,-76],[43,-12],[29,-34],[21,-5],[48,25],[74,65],[20,12],[58,11],[195,62],[37,2],[48,-14],[54,-29],[11,-79],[14,-27],[47,-36],[31,-45],[26,-49],[30,-71],[31,-107],[21,-46],[37,-55],[58,-100],[17,-62],[14,-87],[20,-85],[18,-37],[94,-66],[26,-48],[4,-75],[-16,-55],[-1,-30],[21,-38],[38,-49],[52,-51],[32,-18],[57,-19],[72,-6],[31,7],[28,18],[21,79],[36,29],[11,23],[-9,63],[-33,75],[-48,69],[-50,64],[-49,45],[-51,61],[-50,86],[-28,42],[-33,79],[-10,65],[8,108],[17,93],[31,84],[27,34],[39,70],[77,167],[49,62],[59,52],[26,43],[14,36],[18,17],[33,2],[82,-10]],[[10507,11628],[-51,-411],[7,-44],[10,-145],[12,-33],[41,-43],[58,-37],[33,-36],[11,-32],[24,-100],[1,-45],[-14,-112],[-20,-59],[3,-60],[42,-47],[-10,-25],[-59,-47],[-8,-30],[-56,-130],[-12,-46],[-57,-49],[-48,-48],[-11,-19],[-73,-190],[-44,-58],[-10,-29],[7,-68],[-4,-29],[-35,-85],[-81,21],[-40,19],[-60,57],[-66,92],[-32,9],[-22,-113],[-6,-88],[10,-70],[76,-310],[14,-90],[3,-47],[7,-255],[4,-88],[-79,-31],[-108,-61],[-61,-44],[-66,-59],[-55,-60],[-40,-50],[-464,-640],[-53,-84],[-26,-56],[-251,-603],[-28,-59],[-41,-68],[44,-44],[2,-37],[-15,-63],[-13,-30],[-93,-146],[-41,-36],[-124,-36],[-30,-19],[-55,-55]],[[8454,6427],[-23,-24]],[[8431,6403],[-32,63],[-32,99],[0,20],[23,57],[-4,26],[-28,47],[-24,21],[-16,41],[-128,195],[-97,129],[-22,9],[-37,-3],[-22,10],[-37,39],[-29,14],[-127,28],[2,74],[-5,280]],[[7816,7552],[-2,662],[-2,247],[-10,208],[-16,256],[4,82],[13,86],[36,117],[43,87],[236,361],[25,58],[16,69],[3,45],[-12,88],[-63,196],[-7,32],[-38,434],[-13,78],[-25,79],[-20,45],[-73,136],[-20,65],[-74,388],[-22,109],[-17,62],[-57,177],[-42,99],[-37,74],[-45,78],[-91,127],[-272,343],[-71,91],[-34,52],[-41,84],[-146,377]],[[5524,3179],[84,68],[67,65],[53,34],[33,57],[20,24],[67,38],[85,21],[35,-2],[58,-23],[35,-5],[71,13],[23,14],[27,37],[17,69],[19,37],[49,55],[20,60],[-5,64],[3,32],[25,40],[55,35],[83,33],[31,30],[15,35],[29,125],[-1,42],[-17,48],[1,58],[19,35],[78,87],[36,72],[58,157],[32,95],[28,64],[38,44],[195,121],[110,45],[72,53],[34,53]],[[7206,5109],[80,-116],[48,-93],[27,-59],[29,-49],[7,-29],[27,-20],[36,-12],[15,-15],[58,-15],[31,-17],[77,3],[24,-11],[30,14],[47,-2]],[[7742,4688],[53,-26],[37,-25],[63,-55],[35,-13],[49,22],[41,11],[36,-2],[39,-21],[97,-77],[78,-44],[176,-153],[134,-98],[29,-32],[48,-43],[27,-14],[61,-3],[90,6],[65,30]],[[8900,4151],[20,3],[123,-20],[64,-19],[87,-46],[68,-26],[115,-13],[51,-13],[63,-35],[78,-25],[95,-3],[286,19],[30,-1],[133,-27],[56,-27],[44,-47],[60,-101],[58,-37],[12,-35],[50,-27],[56,-38],[39,-17],[86,-24],[44,-31],[65,-31],[30,-6],[49,21],[20,-1],[35,16],[28,0],[36,-22]],[[10881,3538],[-18,-43],[-24,-29],[-29,-59],[9,-88],[-20,-72],[10,-61],[115,-177],[18,-42],[18,-79],[-25,-48],[-61,-35],[-79,-19],[-23,2],[-31,27],[-29,55],[-10,52],[-62,141],[-33,29],[-34,-3],[-58,24],[-38,39],[-82,33],[-20,0],[-47,23],[-39,11],[-33,-2],[-25,10],[-27,-22],[-51,-16],[-41,20],[-35,-2],[-8,-20],[-33,-27],[15,-42],[7,-57],[-1,-65],[8,-29],[-27,-58],[-31,-50],[-45,-26],[-34,-30],[-39,-62],[-40,-30],[-89,-13],[-11,-14],[-26,-112],[-19,-48],[-58,1],[-48,63],[-157,-30],[-25,-9],[-80,-46],[-44,4],[-24,-17],[-283,144],[-20,-1],[-39,-27],[-95,113],[-36,-7],[-11,-12],[-2,-43],[-82,34],[-75,12],[-18,10],[-34,39],[-66,62],[-33,104],[-15,22],[-4,39],[-77,-14],[-78,-73],[-15,-52],[-41,-11],[-43,-47],[-29,-12],[-69,21],[-25,-7],[-25,-63],[-2,-34],[-61,-96],[-21,-126],[0,-23],[17,-42],[67,-79],[-8,-14]],[[8045,2307],[-30,12],[-41,50],[-28,7],[-21,24],[-41,15],[-30,-17],[-35,6],[-28,41],[-19,61],[-37,19],[-33,2],[3,34],[-11,22],[-28,24],[-32,49],[-22,13],[-69,9],[-22,-4],[-30,34],[-35,11],[-64,-6],[-59,5],[-52,-27],[-88,21],[-14,15],[-54,-13],[-10,-19],[-28,6],[-68,1],[-15,31],[-33,5],[-52,-11],[-35,16],[-34,-7],[-36,-16],[-52,3],[-42,-10],[-79,34],[-74,7],[-75,-28],[-55,-82],[-49,-46],[-62,50],[-59,32],[-12,30],[2,28],[-11,41],[-39,39],[5,18],[-58,35],[-46,-7],[-11,61],[-28,38],[-22,73],[-66,53],[-26,35],[-22,18],[-71,39],[-68,-37],[-19,-31],[0,-27],[-41,-10],[-33,2],[-55,18],[-80,42],[-42,41]],[[4723,4378],[168,90],[40,50],[45,112],[19,29],[36,35],[96,75],[32,13],[86,-14],[40,16],[79,60],[47,45],[82,51],[49,14],[90,4],[6,130],[-20,114],[0,23],[48,31],[69,69],[59,45],[76,40],[64,24],[36,8],[84,69],[74,-63],[52,-25],[149,-33],[71,-21],[24,0],[62,29],[20,25],[8,40],[64,-2],[58,3],[69,-3],[33,6],[65,24],[71,15],[56,4],[47,-17]],[[6977,5493],[-1,-61],[32,-67],[8,-46],[0,-44],[19,-29],[83,-44],[32,-27],[56,-66]],[[5524,3179],[-21,4],[-42,24],[-35,-6],[-24,36],[-14,41],[-13,76],[14,57],[23,35],[-10,21],[-24,14],[-13,30],[-91,54],[-67,61],[-54,36],[-43,52],[-49,82],[-53,73],[-66,103],[-117,109],[-43,46],[-6,22],[3,46],[-36,53]],[[4743,4248],[-5,43],[-15,48],[0,39]],[[3981,9510],[1047,943],[5,20],[-15,22],[-40,24],[-15,48],[42,21],[6,25],[-9,38],[12,66],[-3,35],[12,43],[6,110],[21,3],[2,27],[-26,53],[-64,24],[-74,-2],[-37,57],[-6,72],[17,31],[30,2],[13,20],[-13,42],[-22,20],[5,19],[52,44],[38,11],[60,-10],[46,-61],[55,15],[5,18],[-23,40],[2,14],[52,-1],[24,-32],[19,-62],[28,-6],[13,-17],[29,8],[42,-4],[43,13],[32,-2],[22,22],[19,39],[21,62],[-1,72],[51,34],[37,-19],[23,20],[66,-30],[27,-36],[42,0],[23,-9],[42,-39],[19,40],[5,63],[-1,93],[17,9],[122,-60],[20,7],[12,28],[-12,88],[-20,39],[-5,29],[26,46],[-20,152],[25,19],[60,-44],[26,12],[13,39],[32,12],[28,-23],[30,13],[52,106],[33,100],[0,16],[89,-47],[30,10],[67,-4],[27,-14],[17,-37],[23,-26],[24,-65],[29,-51],[-3,-32],[9,-34],[44,-56],[30,-21],[34,-9],[38,18],[19,26],[117,105],[29,36],[19,44],[79,136],[25,71],[-24,125],[-15,16],[-70,29],[-30,22],[-20,29],[-16,41],[-6,63],[6,26],[-16,49],[-40,75],[7,115],[22,42],[44,38],[33,88],[41,59],[54,36]],[[7816,7552],[-52,13],[-25,-6],[-36,29],[-56,-4],[-47,20],[-4,30],[-35,14],[-30,-16],[-97,-3],[-78,-28],[-25,-16],[-26,-49],[-55,-8],[-35,33],[-29,9],[-50,-16],[-53,26],[-41,2],[-58,35],[-30,57],[-62,20],[-49,48],[-46,-1],[-61,-29],[-53,35],[-43,5],[-24,-13],[-45,23],[-31,0],[-16,61],[-26,13],[-64,-4],[-33,13],[-75,0],[-75,24],[-32,31],[-39,-6],[-43,21],[-16,-24],[-38,-16],[-59,-3],[-67,-27],[-68,-39],[-119,40]],[[7206,5109],[24,62],[31,40],[79,26],[34,37],[10,58],[194,-33],[96,20],[63,7]],[[7737,5326],[34,4],[-2,-53],[17,-54],[-168,29],[-11,-51],[46,-41],[15,-30],[0,-50],[-13,-70],[4,-73],[26,-52],[23,-77],[-5,-72],[11,-31],[28,-17]],[[7025,5819],[15,-8],[38,-42],[20,-36],[30,-18],[34,-42],[36,-11],[42,-1],[7,-41],[57,-80],[40,-43],[54,-20],[21,-18],[58,17],[29,-14],[67,-10],[5,-19],[158,-22],[31,-10]],[[7767,5401],[-7,-53],[-23,-22]],[[6977,5493],[-4,51],[40,55],[3,112],[9,108]],[[8431,6403],[-116,-117],[-77,-87],[-27,-21],[-76,-37],[-23,-16],[-13,-25],[-36,-121],[-47,-75],[-65,-62]],[[7951,5842],[-83,58],[-61,26],[-115,14],[-78,36],[-31,9],[-40,0],[-9,79],[-379,-61],[-80,-22],[-63,-25],[20,-48],[-7,-89]],[[4723,4378],[-2,82],[9,34],[-14,35],[-8,42],[-5,85],[-17,37],[-27,-7],[-96,-45],[-43,-35],[-13,-27],[-24,-23],[-35,-15],[-103,2],[-63,39],[-78,91],[-17,32],[-27,97],[15,92],[22,69],[0,97],[15,117],[32,63],[8,40]],[[186,3186],[82,-47],[72,-16],[43,-23],[137,-60],[240,-138],[31,-12],[71,175],[6,24],[-1,145],[85,6],[214,-6],[72,-23],[108,-18],[79,17],[-4,59],[5,49],[-39,152],[-10,27],[-15,80],[17,54],[18,16],[133,43],[118,42],[84,62],[62,6],[59,-36],[25,-33],[25,-51],[32,-50],[115,-33],[45,-4],[97,7],[108,0],[118,11],[109,-27],[49,1],[66,17],[24,-2],[94,-41],[74,-2],[192,30],[39,20],[77,25],[9,-27],[-15,-67],[1,-26],[29,-57],[285,262],[7,69],[-8,126],[9,52],[32,67],[127,160],[35,59],[18,73],[33,72],[19,74],[32,86],[44,71],[13,32],[-1,57],[23,93],[21,31],[11,37],[31,50],[86,60],[84,113],[15,37],[15,65],[14,15],[78,58],[38,12],[25,-6]],[[4743,4248],[-35,-85],[-10,-83],[3,-41],[-60,-160],[10,-51],[21,-16],[-8,-31],[-49,-73],[-17,-60],[-19,-17],[-25,-41],[-41,-34],[-62,-41],[-26,-51],[-34,-41],[-17,-62],[-25,-47],[-7,-64],[-29,-33],[8,-71],[-23,-40],[-2,-26],[11,-43],[-10,-51],[14,-37],[-6,-148],[-14,-170],[-13,-48],[-13,-16],[-5,-119],[20,-79],[-9,-32],[-141,-121],[-56,-83],[-50,-13],[-40,-50],[2,-39],[-43,-115],[2,-35],[41,-27],[22,-64],[62,-41],[41,-101],[25,-28],[61,-34],[17,-18],[31,-64],[20,-12],[44,14],[15,-18],[-26,-19],[-100,-100],[-93,-117],[-36,-72],[-51,-133],[-6,-28],[-23,-167],[-16,-77],[-5,-46]],[[3968,729],[-1161,134],[-494,23],[-363,21],[-677,20],[-1027,31],[-12,63],[-24,58],[-8,51],[3,140],[-8,39],[-22,41],[-7,39],[27,41],[4,33],[-28,47],[-62,49],[-17,21],[-2,33],[13,25],[49,42],[15,23],[-1,50],[31,44],[22,15],[-4,68],[-6,14],[-72,53],[-37,61],[-25,19],[-55,-20],[-19,35],[-1,87],[14,19],[93,93],[4,32],[-32,59],[-2,27],[19,33],[-8,34],[22,18],[8,37],[-11,49],[15,48],[-3,58],[29,44],[5,40],[-8,56],[33,62],[25,24],[43,14],[-9,26],[-24,24],[-2,26],[15,35],[-66,52],[-12,39],[0,28],[18,57],[20,23]],[[186,3186],[23,19],[23,45],[43,38],[17,69],[27,64],[6,74],[-22,57],[-55,48],[-45,16],[-68,56],[20,23],[74,45],[15,17],[46,16],[10,29],[-9,29],[45,113],[-15,20],[-84,32],[-46,-1],[-20,14],[-4,32],[37,63],[58,57],[45,14],[17,45],[-11,26],[-78,23],[-32,56],[-8,28],[8,75],[46,67],[14,44],[-5,14],[-84,90],[-17,33],[17,27],[47,13],[48,37],[35,4],[24,25],[6,69],[-15,96],[-29,119],[8,29],[10,121],[44,413],[35,307],[41,375],[1035,932],[677,610],[703,632]],[[7951,5842],[-22,-36],[-37,-129],[-8,-19],[-65,-104],[-34,-39],[-13,-34],[-5,-80]],[[10507,11628],[77,1],[43,-8],[54,-26],[36,-4],[40,8],[45,30],[202,74],[35,8],[43,2],[121,-14],[60,-16],[61,-29],[62,-40],[43,-50],[25,-90],[-1,-106],[-10,-56],[-27,-51],[-29,-41],[-24,-11],[-26,12],[0,27],[35,50],[11,31],[-24,29],[-20,1],[-76,-29],[-87,-8],[-33,-39],[-31,14],[-72,-7],[-16,-17],[-13,-46],[30,-193],[27,-95],[3,-27],[-34,-39],[3,-44],[17,-29],[31,-23],[74,-42],[74,-30],[32,-36],[2,-40],[-18,-107],[-41,-131],[-27,-11],[-15,14],[-38,82],[-49,-17],[-18,-38],[-34,-198],[-5,-44],[17,-27],[45,-43],[14,-35],[-12,-79],[-24,-80],[-14,-30],[-15,-93],[-19,-37],[1,-90],[10,-45],[18,-36],[56,-143],[108,-218],[24,-36],[50,-39],[45,-14],[43,-71],[123,-82],[34,-28],[40,-53],[67,-67],[34,-52],[32,-61],[31,-74],[7,-33],[-7,-39],[-30,-30],[-170,-82],[-48,-37],[-37,-64],[-43,-57],[-9,-31],[-9,-125],[-7,-38],[-46,-76],[7,-44],[-6,-14],[-6,-114],[-15,-33],[-68,-22],[-21,-85],[-5,-45],[10,-49],[20,-45],[29,-8],[62,28]],[[11341,7603],[1,-12],[-36,-117],[-37,-41],[-44,19],[-26,-19],[-34,-10],[-45,-24],[-78,-31],[-42,7],[-50,-6],[-32,3],[-52,-12],[-62,-4],[-124,5],[-22,-6],[-52,1],[-42,-36],[-77,-36],[-37,-36],[-76,-58],[-20,-32],[-64,-140],[-13,-52],[-28,-57],[-22,-17],[-22,-45],[-48,-42],[-14,-46],[-7,-53],[-31,-61],[-20,-23],[-64,-107],[-12,-42],[-41,-60],[-65,-53],[-13,-29],[-37,-22],[-35,-67],[-22,-8],[-109,28],[-64,42],[-29,13],[-32,3],[-79,-18],[-42,7],[-75,-15],[-47,-32],[-75,-64],[-72,-43],[-73,-19],[-56,-55],[-45,-37]],[[8998,6044],[-16,2],[-43,80],[-30,43],[-23,9],[-32,-10],[-26,-20],[-56,-12],[-37,4],[-33,13],[-64,60],[-46,24],[-75,98],[-14,27],[-32,34],[-17,31]],[[10881,3538],[4,66],[16,22],[30,15],[68,55],[56,79],[40,18],[28,26],[65,32],[18,14],[15,89],[18,63],[21,38],[34,14],[18,-6],[63,10],[33,0],[24,13],[22,29],[62,29],[51,-20],[30,3],[32,24],[54,-8],[23,34],[-4,39],[14,32],[18,11],[-1,24],[-23,21],[-45,4],[-34,12],[-16,-5],[-52,6],[-60,35],[-26,31],[-19,80],[-1,27],[17,70],[-16,36],[-2,55],[44,22],[60,-3],[41,12],[51,-7],[29,-23],[25,-81],[53,-88],[51,-33],[55,-5],[52,35],[29,40],[39,118],[35,77],[4,70],[20,25],[31,14],[86,15],[48,0],[21,8],[35,45],[17,31],[13,60],[-13,53],[-41,58],[-23,45],[-28,101],[1,56],[10,57],[35,102],[14,23],[10,43],[15,30],[59,72]],[[12334,5627],[32,-11],[54,0],[11,41],[22,41],[93,108],[765,-172],[153,-70],[273,-405],[355,-328],[193,-805],[-17,-292],[408,-1017],[18,-43],[264,-878],[216,-379],[10,-26],[-24,-27],[-17,-188],[2,-108],[-3,-54],[-9,-51],[-33,-19],[-61,11],[-56,-21],[-44,-43],[-19,-41],[-69,-65],[-90,-117],[-43,-102],[-62,-79],[-81,-194],[-37,-75],[-65,-80],[-58,-109],[-114,-29],[-959,45],[-605,32],[-262,19],[-375,35],[-479,46],[-449,42],[-123,9],[-852,50],[-801,47],[-1191,70]],[[8205,395],[11,13],[20,96],[-4,38],[9,73],[24,26],[12,40],[13,6],[-1,34],[-113,25],[-4,9],[20,87],[-38,16],[-10,15],[16,220],[181,9],[19,-5],[-8,54],[-22,34],[-5,44],[10,9],[-21,54],[-38,43],[-13,33],[-20,-2],[-39,25],[-25,28],[-68,53],[-16,54],[42,16],[52,78],[43,45],[6,19],[15,211],[-101,20],[-33,16],[-74,55],[-44,17],[-54,11],[-123,59],[141,137],[26,34],[33,54],[21,9]],[[11341,7603],[146,55],[77,23],[90,16],[70,22],[75,1],[69,10],[32,0],[29,-45],[16,-11],[44,-2],[32,-17],[15,-27],[-4,-49],[-26,-59],[-26,-39],[-25,-8],[-26,25],[-22,-63],[-19,-39],[24,-57],[-2,-42],[-15,-46],[-36,-72],[-10,-48],[6,-40],[11,-20],[41,-25],[37,12],[36,37],[36,25],[38,1],[69,-62],[9,-35],[17,-24],[69,-40],[54,-24],[1,-49],[-32,-67],[3,-13],[76,-84],[46,-2],[23,-40],[28,-101],[8,-56],[-7,-34],[-20,-28],[-63,-35],[-47,-36],[-45,-4],[-229,40],[-64,-20],[-20,-14],[-76,-84],[-21,-33],[-2,-24],[13,-36],[38,-67],[31,-28],[58,-27],[28,-1],[181,-114],[43,-42],[16,-25],[18,-48],[1,-61],[25,-25],[16,-99],[18,-47],[17,-5]],[[8900,4151],[34,70],[-9,71],[60,51],[47,76],[16,37],[16,14],[-2,29],[-16,27],[12,52],[-3,56],[-14,29],[-3,36],[4,60],[-56,55],[-18,33],[0,57],[-16,34],[-5,38],[-21,51],[0,21],[-43,62],[-20,49],[-22,22],[-28,11],[-30,25],[-45,67],[-31,24],[-34,6],[-64,91],[-22,13],[-43,60],[132,19],[142,23],[195,37],[89,12],[105,5],[36,-3],[-50,144],[-15,19],[-50,38],[-43,46],[-42,10],[-16,16],[-10,53],[16,69],[-42,67],[7,11]],[[8205,395],[-694,64],[-237,11],[-494,39],[-872,63],[-594,50],[-278,23],[-968,73],[-100,11]]],"transform":{"scale":[0.00003094751053740727,0.000023404023470242952],"translate":[-86.419001,36.628493]},"objects":{"Geometry\\21-003":{"type":"GeometryCollection","geometries":[{"arcs":[[0,1,2,3]],"type":"Polygon","properties":{"GEOID":"210039202001"}},{"arcs":[[4,5,6,7,8]],"type":"Polygon","properties":{"GEOID":"210039201002"}},{"arcs":[[9,10,11,12,13,14]],"type":"Polygon","properties":{"GEOID":"210039204001"}},{"arcs":[[15,16,-10,17,18]],"type":"Polygon","properties":{"GEOID":"210039203002"}},{"arcs":[[19,-9,20,-2]],"type":"Polygon","properties":{"GEOID":"210039201001"}},{"arcs":[[21,22,-11]],"type":"Polygon","properties":{"GEOID":"210039204004"}},{"arcs":[[23,24,-22,-17,25]],"type":"Polygon","properties":{"GEOID":"210039203003"}},{"arcs":[[-3,-21,-8,26,27,-26,-16,28]],"type":"Polygon","properties":{"GEOID":"210039203001"}},{"arcs":[[29,-29,-19,30,31]],"type":"Polygon","properties":{"GEOID":"210039206001"}},{"arcs":[[-4,-30,32]],"type":"Polygon","properties":{"GEOID":"210039202002"}},{"arcs":[[33,-24,-28]],"type":"Polygon","properties":{"GEOID":"210039203004"}},{"arcs":[[-6,34,35,36]],"type":"Polygon","properties":{"GEOID":"210039201003"}},{"arcs":[[-14,37,38,39]],"type":"Polygon","properties":{"GEOID":"210039205001"}},{"arcs":[[-36,40,-38,-13,41]],"type":"Polygon","properties":{"GEOID":"210039204002"}},{"arcs":[[-25,-34,-27,-7,-37,-42,-12,-23]],"type":"Polygon","properties":{"GEOID":"210039204003"}},{"arcs":[[-18,-15,-40,42,-31]],"type":"Polygon","properties":{"GEOID":"210039206002"}}]}}}