{"type":"Topology","arcs":[[[2491,705],[19,15],[49,67],[28,27],[48,12],[48,-5],[41,-19],[33,-36],[17,28],[31,-39],[53,-3],[292,25],[43,12]],[[3193,789],[128,-150],[22,-39],[26,-70],[-2,-77],[-14,-194]],[[3353,259],[-470,48],[-601,63]],[[2282,370],[52,85],[158,240],[-1,10]],[[288,1982],[195,175],[65,77],[35,52],[27,51],[98,219],[28,45],[27,29],[155,154]],[[918,2784],[30,-17],[9,5],[46,-26],[14,-19],[-15,-45],[18,-28],[16,-47],[23,-26],[32,-15],[69,2],[26,15],[23,27],[33,3],[126,-54],[60,-21],[48,-34],[120,-77],[135,-96],[17,-22],[5,-34],[16,-37],[37,-36],[62,-92],[11,-9],[55,-23],[61,1],[43,-4],[114,16],[46,13],[14,-91],[43,-93],[7,-32],[2,-38],[-8,-93]],[[2256,1757],[-183,-94],[-37,-32],[-61,-57],[-39,-31],[-27,-9],[-33,-22],[-47,-24],[-94,-67],[-190,-229],[-19,-30],[-46,-21],[3,-30],[-30,-8],[-186,-57],[-37,-14],[-30,-17],[-113,-79],[-29,-14],[-219,-71]],[[839,851],[-2,5],[-286,384],[-202,277],[-37,273],[-24,192]],[[1208,3653],[16,-18],[-10,-52],[-38,-49],[-23,-20],[-28,-74],[10,-52],[-28,-34],[-51,-9],[-22,0],[-46,47],[-34,20],[-34,-53],[-17,-48],[-23,-32],[7,-36],[-39,-19],[-15,-32],[8,-45],[-26,-31],[-36,-14],[-21,4],[-38,-20],[9,-63],[-22,-32],[9,-27],[27,13],[12,-15],[59,-6],[34,-9],[20,12],[30,-8],[-12,-81],[-28,-51],[2,-26],[40,-2],[18,-7]],[[288,1982],[-30,232],[-19,173],[-76,112],[-77,115],[-86,139],[410,576],[105,148],[18,10],[20,33],[4,52],[6,15],[39,51],[29,-1],[44,-40],[57,7],[55,-17],[28,4],[36,15],[89,5],[25,-6],[37,-22],[31,-7],[71,-7],[104,84]],[[2529,5136],[425,414],[720,118],[836,135],[8,-31],[0,-32],[-20,-120],[-8,-71],[-5,-145],[18,-53],[31,-56]],[[4534,5295],[-27,-17],[-9,-24],[27,-26],[28,-41],[57,-92],[8,-53],[-25,-14],[-97,-9],[-18,-8],[-33,-53],[-8,-38],[-47,-72],[-33,-19],[-62,-19],[-47,-21],[-60,-70],[-54,-28],[-78,-55],[-58,-59],[-65,-62],[-35,-22],[-39,-12],[-78,-39],[-28,-24],[-38,-52],[-36,-33],[-51,-53],[-28,-24],[-21,-37],[-59,-81],[-31,-47],[-16,-53],[-37,-32],[-11,-20],[-25,-142]],[[3400,3844],[-6,-28],[-23,-65],[-11,-90],[-9,-49],[-31,-85],[-38,-89],[-101,-208],[-28,-35],[-12,-45],[-23,-53],[-83,-162],[-25,-46]],[[3010,2889],[-19,55],[-240,345],[-15,40]],[[2736,3329],[13,217],[0,53],[-7,70]],[[2742,3669],[-7,68],[-11,46],[-58,111],[-26,74],[-67,328],[-14,60],[-21,115],[-3,27],[5,126],[1,136],[-8,48],[-29,71],[-9,36],[7,48],[28,34],[11,25],[9,53],[-21,61]],[[1634,4232],[101,104],[261,261],[298,303],[235,236]],[[2742,3669],[-36,-2],[-36,-10],[-73,-35],[-41,3],[-29,41],[-50,42],[-16,47],[-28,30],[-17,-8],[-68,0],[-30,-20],[-45,0],[-109,-28],[-53,-47],[-21,29],[-45,39],[-27,-19],[-34,-4],[-46,-26],[-42,18],[-22,18],[-64,6],[-26,11],[-25,-22],[-23,3],[-6,23],[0,52],[-24,26],[-33,5],[-21,-9],[-10,37],[-17,84],[-2,36],[17,75],[35,86],[31,45],[-72,37]],[[5265,3774],[3,42]],[[5268,3816],[6,-16],[35,-30],[39,-21],[31,-8],[51,-2],[31,19],[61,79],[65,79],[43,45],[65,48],[46,22],[81,22],[79,8],[97,0],[33,-4],[31,-11],[35,-31],[30,-53],[2,-21],[-54,-75],[-50,-59],[-75,-99],[-27,-44],[-21,-49],[-23,-68],[-4,-44],[5,-46],[12,-42],[21,-31],[23,-19],[90,-26],[76,-25],[44,-20],[128,-69],[45,-32],[44,-38],[44,-42],[59,-46],[22,-28],[16,-32],[25,-74],[15,-58],[8,-52],[4,-59],[-6,-67],[-56,-107],[-10,-32],[-3,-62],[-17,-60],[-13,-24],[-55,-82],[-34,-63],[-2,-13]],[[6360,2254],[-14,-1],[-28,-66],[-17,-10],[-50,15],[-31,-38],[-67,-38],[-32,2],[-43,12],[-86,8],[-96,0],[-56,-21],[-34,4],[-42,12],[-80,7],[-48,-26],[-28,-25],[-21,-60],[1,-35],[-6,-23],[2,-38],[18,-85],[8,-53],[-4,-49],[5,-40],[-20,-33],[-26,-17],[-33,-63],[7,-43],[17,-16],[60,-26],[20,-18],[2,-34],[11,-29],[-7,-63],[0,-44],[18,-94],[6,-61],[15,-34],[-5,-34],[-12,-19],[-41,-25],[-38,-17],[-22,-17],[-10,-23],[2,-46],[-12,-22],[-34,11],[-35,29],[-38,59],[-15,43],[-11,17],[-42,32],[-23,6],[-57,-4],[-20,15],[-62,79],[-13,12],[-41,21],[-30,-4],[-52,-62],[-50,-33],[-39,-5],[-28,9],[-46,-2],[-16,6],[-49,72],[-59,40],[-67,23],[-25,28],[-131,164],[-72,-60],[-12,-13]],[[4476,1411],[-51,66],[-16,12],[-42,13],[-77,8],[-34,-10],[-50,13],[-53,32],[-81,56],[-34,17],[-23,5]],[[4015,1623],[60,76],[38,60],[7,51],[40,80],[53,83],[12,30],[2,35],[7,30],[44,116],[14,21],[38,40],[8,17],[16,96],[56,32],[56,7],[62,42],[44,16],[72,40],[22,17],[28,40],[22,14],[54,6],[44,15],[-13,51],[-47,126],[-21,117],[-71,179],[-8,50],[42,-7],[40,-16],[28,6],[66,-5],[62,10],[38,24],[49,7],[32,10],[12,21],[35,15],[72,47],[10,13],[57,34],[25,1],[40,42],[26,12],[22,20],[29,2],[23,-10],[30,32],[17,28],[-6,19],[9,50],[-8,25],[24,40],[-3,17],[-20,18],[38,13],[-23,30],[-8,23],[-22,27],[-47,13],[-6,27],[-42,18],[-27,29],[-3,29]],[[3337,962],[53,88],[25,56],[18,55],[26,20],[30,2],[56,13],[121,47],[14,9],[100,91],[10,16],[11,41],[24,16],[34,2],[69,51],[34,42],[-3,25],[-20,28],[3,14],[73,45]],[[4476,1411],[-18,-74],[3,-99],[-5,-30],[-24,-63],[-23,-126],[-8,-31],[-34,-85],[-25,-34],[-138,-121],[-237,-215],[30,-8],[11,-11],[143,-174],[146,-181]],[[4297,159],[-424,45],[-520,55]],[[3193,789],[20,16],[124,157]],[[1208,3653],[389,534],[37,45]],[[2736,3329],[-35,-25],[-27,-68],[-20,-30],[-29,3],[-17,-23],[-45,-156],[-3,-19],[-45,-202],[-130,-37],[61,-80],[9,-15],[55,-196],[7,-13],[44,-14],[20,-13],[-16,-226],[-12,-48],[-7,-52],[2,-36],[53,11],[38,-31],[8,-14],[46,-46],[33,-10],[49,3],[82,14],[20,-13],[34,-7]],[[2911,1986],[1,-34],[13,-138],[1,-30],[-13,-52]],[[2913,1732],[-13,-22],[-45,-55],[-241,25],[-45,5]],[[2569,1685],[-109,15],[-33,29],[-21,43],[-115,1],[-35,-16]],[[3010,2889],[3,-79],[-7,-69],[-41,-235],[22,-22],[35,-12],[29,-21],[14,-31],[-2,-17],[22,-31],[21,-13],[30,-67],[24,-19],[38,-12],[37,-47],[24,1],[-26,-55],[-28,-17],[-16,-23],[-75,-10],[-36,1],[-9,-34],[-15,-26],[-23,-15],[-25,-3],[-23,25],[-20,5],[-14,-16],[-19,-63],[-19,2]],[[3400,3844],[76,-20],[43,-15],[23,2],[116,-85],[-27,-49],[-2,-14],[65,-37],[20,-7],[113,-65],[36,-2],[58,-31],[28,-34],[18,-30],[57,-55],[35,-6],[7,-12],[-14,-30],[32,-64],[5,-29],[18,-31],[42,-6],[25,35],[15,32],[-1,84],[17,58],[-7,50],[13,33],[21,20],[50,0],[16,5],[35,30],[23,28],[34,28],[9,30],[46,43],[45,79],[13,12],[79,42],[84,58],[60,38],[38,8],[66,27],[64,14],[37,11],[69,-3],[93,-27],[20,-9],[21,-21],[46,-79],[51,-63],[34,-13]],[[3337,962],[-109,130],[-159,194],[-18,29],[-69,165],[-9,27],[-42,158],[-11,59],[-7,8]],[[4534,5295],[47,-72],[59,-81],[50,-48],[27,-13],[43,9],[107,91],[153,97],[21,15],[29,6],[36,-15],[50,-42],[62,-39],[60,-25],[53,-27],[82,-51],[53,-29],[86,-28],[45,-33],[48,-91],[60,-67],[8,-18],[-23,-39],[-26,-15],[-44,-12],[-38,-18],[-37,-36],[-10,-48],[0,-112],[-20,-71],[-24,-45],[-50,-82],[-46,-66],[-49,-84],[-17,-33],[-30,-131],[-11,-38],[-24,-51],[-11,-62],[3,-31],[12,-44]],[[6360,2254],[9,-28],[50,-72],[44,-59],[44,-46],[76,-37],[92,3],[36,11],[47,22],[22,30],[7,60],[-9,260],[-5,78],[3,75],[13,48],[19,56],[19,35],[43,56],[59,62],[37,28],[34,19],[34,9],[29,-9],[50,-23],[50,-28],[44,-44],[18,-32],[26,-79],[8,-37],[2,-36],[-14,-48],[-29,-28],[-37,-28],[-45,-28],[-53,-27],[-60,-36],[-28,-21],[-27,-36],[-12,-25],[-13,-62],[3,-40],[22,-53],[32,-21],[41,-5],[97,-3],[36,-22],[37,-34],[30,-13],[185,-45],[54,-18],[101,-45],[126,-60],[20,-12],[17,-23],[-5,-53],[-13,-34],[-22,-36],[-33,-45],[-34,-62],[-14,-45],[-21,-93],[-19,-39],[-52,-68],[-34,-57],[-24,-52],[-23,-60],[-3,-28],[6,-46],[-4,-61],[-15,-55],[-1,-45],[21,-41],[50,-41],[27,-6],[131,-15],[93,-17],[56,-16],[77,-42],[20,-16],[28,-36],[16,-35],[7,-36],[-1,-76],[-10,-43],[-17,-54],[-30,-20],[-36,-5],[-113,9],[-25,-1],[-22,-10],[-15,-30],[-13,-79],[-15,6],[-14,36],[-18,10],[-29,4],[-13,15],[-51,11],[-230,436],[-831,-477],[-688,-395],[-236,23],[-235,26],[-1020,110]],[[2491,705],[-12,157],[-10,96],[13,52],[20,136],[73,434],[-6,105]],[[2282,370],[-1035,109],[-200,20],[-208,352]]],"transform":{"scale":[0.00006019587887925682,0.000045020161985179894],"translate":[-85.34608,38.335586]},"objects":{"Geometry\\21-103":{"type":"GeometryCollection","geometries":[{"arcs":[[0,1,2,3]],"type":"Polygon","properties":{"GEOID":"211030903022"}},{"arcs":[[4,5,6,7]],"type":"Polygon","properties":{"GEOID":"211030903011"}},{"arcs":[[8,-5,9]],"type":"Polygon","properties":{"GEOID":"211030903012"}},{"arcs":[[10,11,12,13,14,15]],"type":"Polygon","properties":{"GEOID":"211030901002"}},{"arcs":[[16,-16,17]],"type":"Polygon","properties":{"GEOID":"211030901001"}},{"arcs":[[18,19,20,21,22]],"type":"Polygon","properties":{"GEOID":"211030904001"}},{"arcs":[[23,-22,24,25,-2,26]],"type":"Polygon","properties":{"GEOID":"211030904003"}},{"arcs":[[27,-18,-15,28,29,30,31,-6,-9]],"type":"Polygon","properties":{"GEOID":"211030902003"}},{"arcs":[[-14,32,-29]],"type":"Polygon","properties":{"GEOID":"211030902001"}},{"arcs":[[-33,-13,33,-23,-24,34,-30]],"type":"Polygon","properties":{"GEOID":"211030902002"}},{"arcs":[[-12,35,-19,-34]],"type":"Polygon","properties":{"GEOID":"211030901003"}},{"arcs":[[-21,36,-25]],"type":"Polygon","properties":{"GEOID":"211030904002"}},{"arcs":[[-31,-35,-27,-1,37]],"type":"Polygon","properties":{"GEOID":"211030903023"}},{"arcs":[[-32,-38,-4,38,-7]],"type":"Polygon","properties":{"GEOID":"211030903021"}}]}}}