{"type":"Topology","arcs":[[[3576,1850],[31,-14],[49,-3],[63,20],[33,21],[33,41],[30,95],[55,131],[29,21],[53,15],[35,-2],[206,-84],[100,-90],[36,-9],[26,44],[-49,171],[-36,72],[-5,37],[7,47],[24,47],[122,119],[97,55],[83,31]],[[4598,2615],[143,43],[61,-30],[19,-29],[11,-82],[19,-35],[51,-16],[54,21],[29,38],[28,56],[29,86],[14,75],[16,40],[10,83],[-14,95],[15,85],[-8,48],[-18,43],[-42,67],[2,33],[29,53],[15,79],[33,30],[34,6],[89,-8],[61,26],[87,59],[107,11],[102,53],[50,14],[112,42],[90,55],[42,6],[129,73]],[[5997,3735],[1020,-373],[-111,-294],[-206,-559],[-152,-420],[-99,-264],[-171,-466],[-302,-931],[-19,-15],[-14,-42],[-26,-1],[-37,34],[-46,5],[-49,16],[-2,43],[-18,29],[-48,1],[-27,33],[-48,3],[-12,24],[-45,11],[-49,1],[-36,-13],[-45,61],[-47,-19],[-7,-44],[6,-31],[-60,-39],[-24,14],[-36,3],[-31,33],[-34,-21],[-37,14],[26,80],[-10,24],[14,51],[42,36],[-1,36],[-13,18],[-44,-8],[-21,-18],[-41,40],[-37,5],[-1,47],[-15,8],[-14,54],[6,42],[-45,41],[27,54],[-3,37],[-17,45],[-50,-3],[-32,14],[-11,45],[-41,-18],[-46,5],[-34,41],[-42,-11],[-3,-32],[-33,-19],[-25,38],[-37,-18],[-28,4],[-38,-39],[-39,-19],[-31,-3],[-29,-48],[-57,-55],[-20,-36],[2,-25],[-32,-20],[-23,-43],[-12,-52],[-255,-271],[-390,-95],[-16,9]],[[3716,469],[-25,39],[-14,50],[7,43],[23,64],[35,56],[29,32],[49,77],[54,32],[120,93],[6,72],[81,89],[11,61],[-20,39],[-14,67],[-25,13],[-38,-29],[-12,-32],[-20,-130],[-16,-45],[-32,-33],[-74,2],[-39,45],[-7,88],[9,47],[24,47],[14,68],[47,107],[-12,28],[-103,37],[-9,35],[39,65],[-18,45],[-33,14],[-48,5],[-66,37],[-31,36],[-41,98],[9,19]],[[3196,3115],[79,53],[16,35],[67,47]],[[3358,3250],[4,-49],[-32,-37],[8,-30],[34,-30],[1,-36],[21,-54],[30,-19],[16,-26],[6,-71],[26,-25],[19,-49],[46,-13],[19,-22],[29,-73],[13,-144],[-12,-37],[-19,-95],[31,-47],[15,-57],[-2,-43],[-31,-74],[-5,-103],[12,-37],[-27,-74],[12,-47],[21,-20],[-11,-25],[-26,13],[-19,-23]],[[3537,1903],[-38,22],[-79,14],[-81,2],[-42,-34],[-20,-41],[-13,-63],[3,-93],[-7,-99],[-9,-25],[-80,-58],[-40,-15],[-99,20],[-106,8],[-51,27],[-48,64],[-8,85],[-16,64],[-22,41]],[[2781,1822],[23,39],[-11,60],[-43,79],[-3,31],[10,51],[33,56],[2,45],[19,21],[85,21],[51,67],[5,57],[15,7],[8,40],[-7,34],[20,47],[-17,84],[0,37],[-24,99],[3,42],[-11,40],[8,115],[18,52],[20,30],[13,52],[14,20],[59,17],[24,19],[51,-2],[50,33]],[[869,2712],[13,22],[96,127],[53,59],[60,41],[167,76],[52,5],[41,-7],[64,-30],[27,-26],[37,-58],[13,-38],[-4,-106],[-12,-48],[-47,-100],[-41,-51],[-50,-36],[-85,-43],[-37,-55],[-5,-82],[14,-60],[43,-34],[63,-13],[96,-4],[135,31],[150,-4],[30,-12],[46,-36],[25,-40],[-2,-66],[-43,-65],[-7,-41],[11,-47],[37,-115],[27,-24],[56,-9],[48,35],[80,126],[25,48],[57,77],[49,26],[84,0],[72,-14],[19,-16],[-2,-68],[-82,-119],[-72,-89],[-10,-83],[21,-90],[9,-85],[13,-52],[30,-29],[41,-20],[83,-29],[51,-25],[41,11],[42,28],[38,76],[19,85],[74,170],[41,55],[30,23],[39,-8],[49,-34]],[[3537,1903],[39,-53]],[[3716,469],[-536,290],[-83,-46],[-35,-29],[-30,-59],[-23,-21],[-10,-38],[-60,-101],[34,-64],[-16,-77],[25,-82],[-5,-80],[-127,-15],[-1357,-141],[-13,33],[-34,-21],[-22,7],[-18,-22],[-26,-3],[-26,52],[-57,48],[-64,34],[-32,-20],[-30,-1],[-51,30],[-20,42],[-31,17],[-34,-15],[-50,5],[-1,41],[-21,17],[-55,4],[-15,20],[-5,36],[-121,16],[-21,12],[-36,64],[1,34],[-13,118],[23,29],[-73,28],[-54,11],[-42,28],[-48,-11],[-67,2],[-65,41],[-18,40],[-45,60],[-30,21],[-51,76],[3,64],[-10,37],[-40,38],[-51,32],[-33,33],[-97,157],[558,963],[311,509]],[[1492,3904],[36,58],[32,13],[13,20],[29,-3],[25,18],[39,5],[55,-12],[25,3],[24,42],[47,45],[37,11],[27,23],[12,104],[49,35],[38,14],[55,0],[37,33],[30,10],[15,46],[47,56],[89,8],[32,22],[31,66],[23,30],[-9,56],[62,56],[19,-15],[38,18],[26,-15],[13,65],[34,23],[18,-17],[26,12],[2,40],[91,5],[17,21],[-13,21],[6,40],[38,41],[44,28],[46,2],[-6,34],[17,36],[53,60],[80,28],[62,7],[33,12],[72,-3],[53,7],[66,-12],[52,-16],[23,6],[78,-4],[13,20],[54,19],[93,46],[65,-78],[46,2],[66,-66],[52,4],[32,-35],[48,-7],[14,-31],[28,-3],[18,-20],[23,15],[64,-11],[26,-36],[14,-66],[35,2],[440,-256],[222,-128],[343,-201],[214,-265],[183,-66],[524,-191]],[[4598,2615],[-3,47],[-16,41],[-21,26],[0,30],[24,8],[-13,29],[13,32],[-40,44],[-28,13],[-19,53],[25,18],[-25,40],[-46,57],[12,33],[-24,19],[-14,-27],[-32,-3],[-60,-25],[-37,-35],[-34,-47],[-23,-14],[-39,3],[-41,-31],[-56,-3],[-27,-26],[-28,26],[-52,80],[-47,98],[-13,66],[-16,49],[-33,61],[-68,91],[-60,-36],[-39,-49],[-31,11],[-65,-9],[-90,-3],[-52,6],[-11,26],[-55,22],[-21,-9],[-37,-39],[2,-38]],[[3196,3115],[-68,-17],[-19,7],[-33,46],[-70,-17],[-56,9],[-139,-34],[-32,-2],[-43,21],[-24,-5],[-29,-24],[-81,11],[-23,-5],[-21,-70],[-24,-14],[-60,13],[18,49],[-10,21],[14,48],[-34,60],[-34,24],[-34,10],[-41,32],[-24,4],[-101,88],[-32,41],[-27,58],[-39,8],[-42,30],[-52,6],[-63,57],[-38,22],[-23,54],[-56,66],[-28,10],[-51,-15],[-40,5],[-56,42],[-16,56],[-33,17],[-79,-6],[-36,31],[-9,40],[-16,12]],[[869,2712],[-57,-5],[-65,48],[-28,53],[6,52],[28,31],[94,89],[64,48],[76,46],[148,120],[99,61],[105,57],[43,1],[89,-39],[122,-33],[31,1],[131,41],[29,24],[29,97],[-11,56],[-34,26],[-64,21],[-35,-8],[-158,336],[-19,69]]],"transform":{"scale":[0.000054619067977768556,0.00004508546017014682],"translate":[-83.90557,37.486953]},"objects":{"Geometry\\21-129":{"type":"GeometryCollection","geometries":[{"arcs":[[0,1,2,3]],"type":"Polygon","properties":{"GEOID":"211299503001"}},{"arcs":[[4,5,6,7]],"type":"Polygon","properties":{"GEOID":"211299501003"}},{"arcs":[[8,-7,9,-4,10]],"type":"Polygon","properties":{"GEOID":"211299502001"}},{"arcs":[[11,-2,12,-5,13]],"type":"Polygon","properties":{"GEOID":"211299501001"}},{"arcs":[[-14,-8,-9,14]],"type":"Polygon","properties":{"GEOID":"211299501002"}},{"arcs":[[-13,-1,-10,-6]],"type":"Polygon","properties":{"GEOID":"211299501004"}}]}}}