{"type":"Topology","arcs":[[[3759,8899],[37,30],[55,21],[73,3],[82,21],[42,45],[82,17],[47,74],[36,6],[28,57],[59,152],[16,21],[55,-54],[91,-81]],[[4462,9211],[71,-70],[187,-222],[39,-42],[149,-148],[137,-132],[66,98],[143,-6],[19,-5],[78,-59],[102,-48],[29,-6],[159,-79],[61,-15],[39,-56],[14,-6],[215,21],[19,21],[94,-42],[17,-3]],[[6100,8412],[-6,-82]],[[6094,8330],[-33,-415]],[[6061,7915],[-182,53],[-66,33],[-350,263],[-5,-19],[59,-162],[38,-61],[-27,-87],[-6,-55],[-28,-58],[-10,-72],[-19,-46],[46,-98],[-10,-46],[21,-27]],[[5522,7533],[-143,3],[-51,-10],[-34,-20],[-112,-85],[-69,-17],[-192,29],[-103,39],[-255,56],[-147,-1],[-103,-50],[-44,-8],[-206,-1],[-131,33],[-100,-6],[-113,6],[-41,-6]],[[3678,7495],[-38,75],[-48,22],[-54,67],[-39,33],[-40,49],[25,35],[-3,128],[-8,36],[-21,18],[1,81],[50,22],[18,81],[6,138],[-16,65],[10,33],[67,135],[61,10],[19,-24],[58,-7],[26,55],[-18,57],[14,44],[-8,37],[-1,72],[17,70],[-23,28],[26,44]],[[6061,7915],[-13,-65],[-97,-358]],[[5951,7492],[-12,-8]],[[5939,7484],[-94,24]],[[5845,7508],[-102,17],[-89,-2],[-37,10],[-95,0]],[[6438,7800],[74,-30],[183,-25],[60,-27],[45,-60],[9,-57],[-17,-56],[-92,-202],[-29,-71],[-18,-71]],[[6653,7201],[-185,10],[-49,21],[-24,25],[-66,90],[-72,73],[-84,35],[-81,2]],[[6092,7457],[20,16],[153,94],[40,29],[89,114],[44,90]],[[6061,7915],[102,-9]],[[6163,7906],[52,-12],[223,-94]],[[6092,7457],[-48,2],[-86,21],[-7,12]],[[8415,11034],[1025,215],[18,3]],[[9458,11252],[-29,-49],[-31,-376],[-30,-96],[-14,-19],[-52,-20],[-31,-21],[-35,-96],[-17,-29],[-12,-103],[-33,-27],[5,-29],[-10,-125],[-4,-87],[-12,-6],[44,-121],[-3,-56],[22,-55],[80,-135],[53,-65],[14,-54],[25,-41],[32,-115],[51,-129],[55,-78],[4,-47],[-15,-74],[27,-126],[14,-115],[64,-263],[1,-33],[-18,-21],[-71,-46],[-52,-52],[-19,-45],[-4,-132],[24,-89]],[[9481,8277],[-168,50],[-114,-22],[-37,-19],[-38,-3],[-112,49],[-49,-12],[-4,41],[-100,159],[-32,70],[-45,31],[-44,55]],[[8738,8676],[-49,56],[50,57],[-48,44],[-17,29],[-47,43],[-95,59],[-32,62],[-122,89],[-100,66],[-30,41]],[[8248,9222],[44,69],[-42,13],[-34,57],[5,45],[-10,47],[17,84],[2,48],[-13,39],[-95,79],[-15,31],[-4,77],[-70,103],[-32,76],[-23,38],[-10,41],[25,58],[14,59],[138,7],[68,13],[94,59],[13,21],[-17,52],[0,40],[88,80],[4,29],[-42,79],[70,61],[51,21],[34,73],[4,31],[-19,50],[2,56],[29,64],[-41,60],[-68,52]],[[9458,11252],[97,15]],[[9555,11267],[39,-25],[43,-49],[57,-39],[82,-23],[22,-34],[-16,-54],[7,-35],[23,-14],[48,-6],[34,-31],[34,-105],[117,-220],[44,-57],[13,-54],[32,-91],[22,-39],[15,-70],[40,-76],[28,-94],[40,-49],[119,-138],[47,-95],[45,-54],[44,-3],[85,-48],[58,-2],[14,-114],[-7,-64],[-49,-71],[19,-40],[96,-84],[39,-60],[20,-11],[63,-12],[127,-86],[9,-67],[34,-66]],[[11042,9087],[-36,-35],[-33,-12],[-74,19],[-38,-28],[2,-35],[22,-56],[-7,-38],[-55,-24],[-71,14],[-49,67],[-67,44],[-46,4],[-20,-19],[-60,-24],[-12,-40],[21,-53],[-21,-59],[14,-20],[88,-41],[104,-97],[68,-100],[7,-47],[-25,-22],[-43,-10],[-144,31],[-117,14],[-36,-18],[-23,-52],[-37,-37],[-33,-10],[-82,5],[-28,61],[-33,28],[-80,13],[-12,22],[-12,75],[-24,39],[-38,-7],[-42,-51],[-3,-70],[44,-110],[0,-43],[22,-54],[11,-51],[-22,-44],[-48,-44],[-28,-15],[-85,-26],[-69,-61],[-33,-11],[-40,10],[-33,21],[-52,8]],[[9634,8098],[-7,43],[-66,26],[-29,26],[-21,46],[-30,38]],[[1211,5824],[50,27],[84,29],[496,125],[88,17],[84,8],[289,15],[58,12],[36,16],[310,153],[56,23],[73,8],[38,-6],[257,-58],[61,-8],[60,1],[122,14],[247,2],[70,10],[98,35],[78,50],[96,72],[15,21],[133,101],[83,85],[9,31]],[[4202,6607],[43,-3],[146,116],[24,-8]],[[4415,6712],[25,-27],[4,-46],[61,-21],[96,-22],[35,-27],[8,-28],[-10,-85],[1,-81],[-11,-43],[-42,-37],[-36,-72],[-66,-30],[-113,-26],[-45,-32],[0,-92],[12,-148],[0,-62],[-14,-96],[-37,-54],[-16,-60],[-25,-37],[83,17],[39,-25],[33,-1],[71,-83],[47,-24],[23,0],[7,-38],[33,-43],[63,-25],[4,-30],[38,-71],[-9,-47],[-46,-52],[-95,-177],[-30,-95]],[[4503,4892],[-97,-41],[-36,-26],[-115,-143],[-33,-32],[-57,-24],[-101,-23],[-40,-20],[-35,-49],[-33,-95],[-40,-52],[-81,-42],[-25,-33],[-38,-78],[-65,-84],[-49,-105],[-94,92],[-32,25],[-23,34],[-43,25],[-19,30],[11,56],[32,91],[-38,67],[35,96],[-6,55],[4,99],[-17,118],[-84,-29],[-32,7],[-28,42],[-46,18],[-76,-12],[-25,-41],[-50,4],[-106,62],[-68,3],[-27,28],[-33,3],[-49,-33],[-36,-63],[0,-44],[29,-48],[14,-46],[-11,-13],[-110,-25],[-16,-60],[5,-21]],[[2719,4565],[-55,-18],[-97,-52],[-50,-18],[-39,49],[-27,3],[-44,-19],[-56,-40],[-15,5],[-14,45],[-50,3],[-16,19],[17,69],[-4,32],[-35,32],[-52,12],[3,24],[31,34],[-15,22],[-62,11],[-74,47],[16,30],[51,8],[33,59],[-26,33],[-32,-2],[-12,18],[2,79],[-14,15],[-86,45],[-46,11],[1,60],[-28,12],[-59,-23],[-58,42],[-13,57],[-31,17],[-41,5],[-38,-16],[-16,35],[4,53],[-44,29],[-83,18],[4,49],[-24,14],[-59,-49],[-49,-26],[-80,75],[29,24],[49,-3],[15,15],[2,72],[-10,16],[-51,-11],[-41,-51],[-51,-47],[-51,-9],[-43,15],[-12,28],[15,26],[81,52],[36,-10],[22,14],[31,54],[-18,22],[-48,4],[-22,38],[-4,94],[-55,8]],[[5939,7484],[7,-11],[-52,-194],[-29,-16],[36,-85],[1,-21],[-49,-39],[-24,-52],[-53,-15],[-34,27],[-6,45],[-14,22],[-48,7]],[[5674,7152],[-22,5],[49,69],[16,65],[20,46],[108,171]],[[5377,4819],[37,23],[26,39],[1,57],[-25,78],[11,128],[-4,50],[17,62],[88,-81],[39,-50],[-21,-59],[8,-25],[58,-86],[89,-67],[88,-38],[55,-15],[55,32],[76,-8],[98,2],[62,-126],[13,-41],[12,-106],[1,-133],[-7,-59],[-20,-82],[44,-96],[18,-26],[54,-41]],[[6250,4151],[-190,-410],[-326,-716]],[[5734,3025],[-97,25],[-168,18],[-21,-7],[-42,-42],[-16,-63],[-24,-35],[-34,-14],[-147,-4],[-44,8],[-55,39],[-41,82],[-6,32],[8,112],[-7,56],[5,36],[35,48],[10,63],[34,76],[52,63],[76,58],[27,55],[-1,38],[-27,148],[-20,29],[-5,83],[-36,69],[-45,148],[3,32],[33,71],[45,76],[-1,34],[57,73],[26,63],[-2,57],[6,125],[9,46],[56,96]],[[9555,11267],[464,74],[818,135],[1565,260],[135,-812],[189,-1127],[-28,-37],[6,-39],[58,-58],[13,-59],[-37,15],[-21,-18],[7,-38],[25,-33],[-34,-41],[-19,-9],[-72,4],[-28,18],[-19,37],[3,25],[-17,27],[-83,36],[-38,-9],[-61,-77],[-22,-10],[-51,10],[-82,82],[-117,38],[-69,-1],[-40,-32],[34,-87],[-7,-59],[-19,-46],[-31,-5],[-120,74],[-30,37],[7,38],[70,60],[16,40],[-3,60],[-18,29],[-67,46],[-23,55],[-47,47],[-36,-12],[-13,-37],[0,-55],[14,-119],[-5,-103],[5,-79],[9,-32],[43,-82],[10,-42],[3,-116],[-37,-53],[-10,-32],[49,-65],[9,-37],[42,-96],[2,-42],[-31,-26],[-32,16],[-16,43],[4,35],[-9,40],[-47,24],[-28,-7],[-43,-51],[-53,-82],[5,-20],[84,-35],[89,-85],[18,-71],[-20,-18],[-54,-6],[-28,-12],[-12,-36],[-1,-67],[-27,-39],[-12,-42],[-18,-17],[-44,4],[-38,105],[-59,37],[-104,11],[-31,14],[-29,33],[6,39],[92,66],[5,79],[-39,79],[14,54],[-16,96],[-16,33],[-22,5],[-31,-17],[-11,-103],[-18,-32],[-82,-71],[-17,-34],[-24,-79],[-2,-72],[-22,-19],[-83,1],[-26,19],[-7,67],[-23,89],[8,107],[23,44],[44,34],[9,25],[-31,14]],[[4415,6712],[71,18],[70,-13],[114,-45],[63,-15],[66,-1],[84,22],[466,184],[71,11],[50,-8],[369,-202]],[[5839,6663],[108,-56],[46,-7],[54,10],[83,49],[77,51],[171,122],[88,73]],[[6466,6905],[25,-28],[25,-55],[45,-52],[48,-78],[54,-26],[53,-92],[6,-52],[-17,-111],[12,-19],[45,-15],[64,-51],[53,-25],[14,-85],[-30,-29],[60,-32],[37,-37],[40,-99],[-1,-32],[51,-96],[27,-78],[58,-30],[60,-52],[26,-87],[57,-13],[34,-33],[15,-32],[86,-65],[38,-47]],[[7451,5454],[-60,-21],[-36,0],[-640,-710],[-414,-461],[-51,-111]],[[5377,4819],[-46,35],[-19,30],[-41,33],[-102,39],[-24,23],[-54,6],[-133,-22],[-34,-15],[-25,-37],[-8,-33],[-1,-97],[-47,-91],[-18,-14],[-47,8],[-55,-30]],[[4723,4654],[-59,38],[-28,32],[-33,80],[-44,47],[-56,41]],[[3081,9060],[53,-31],[33,-31],[43,-24],[95,-22],[100,-5],[126,-28],[86,-23],[68,-27],[74,30]],[[3678,7495],[-101,0],[-34,-8],[-54,-30],[-62,-19],[-34,-2],[-19,-82],[29,-64],[88,-65],[10,-40],[-25,-122],[17,-77],[43,-24],[120,13],[32,20],[42,12],[27,22],[44,-24],[43,8],[72,-25],[84,20],[20,22],[5,63],[22,-15],[57,-2],[31,-13],[66,-8],[-3,-88],[12,-99],[18,-72],[17,-37],[1,-63],[-43,-57],[-1,-32]],[[1211,5824],[-5,26],[45,48],[34,5],[2,24],[-44,45],[12,59],[-57,7],[-13,28],[42,39],[55,18],[10,24],[-57,29],[-26,-23],[-19,-38],[-25,-20],[-67,-20],[-52,15],[-3,49],[-24,55],[6,33],[-16,22],[-36,-17],[0,-50],[-27,-28],[-30,6],[-24,35],[30,67],[-79,95],[-24,54],[-22,5],[-47,-19],[-68,-48],[-37,7],[-48,29],[-36,35],[14,35],[69,37],[-7,57],[-20,21],[-86,45],[-53,-5],[-66,-39],[-33,-9],[-70,7],[-68,44],[-49,42],[-35,43],[-24,50],[8,48],[47,27],[67,-24],[28,7],[54,47],[7,48],[-10,24],[-74,29],[-30,2],[-51,-23],[-48,-3],[-90,33],[-41,55],[1,36],[75,74],[11,33],[-6,28],[-53,67],[-19,41],[-2,36],[21,69],[53,57],[20,60],[0,33],[43,12],[9,-30],[29,-3],[48,34],[23,-31],[19,30],[21,-13],[-18,-33],[20,-12],[40,25],[120,-21],[21,-25],[-3,-21],[-53,5],[-6,-30],[20,-23],[25,-1],[4,32],[134,18],[-23,25],[22,23],[47,24],[51,-4],[-11,36],[44,6],[31,33],[20,5],[42,-32],[41,35],[91,-80],[40,48],[75,58],[-11,26],[13,34],[36,26],[82,-15],[83,32],[39,9],[-35,-107],[19,-17],[41,3],[-20,38],[48,23],[23,36],[39,16],[20,34],[-23,30],[40,47],[63,8],[7,-32],[26,-2],[49,58],[21,7],[57,-9],[43,5],[70,41],[43,13],[4,21],[29,17],[21,-7],[25,22],[48,3],[-62,70],[15,28],[80,0],[13,17],[50,12],[78,5],[40,26],[9,37],[23,12],[24,41],[31,5],[-9,84],[51,-19],[27,20],[23,51],[71,37],[11,67],[56,58],[30,-2],[76,18],[30,-6],[44,22],[33,28],[37,68],[105,103],[-1,22],[-24,45],[-7,43],[15,47],[-30,29],[-25,41],[-5,39],[20,30],[76,-27],[29,2],[57,32],[30,2],[51,-25],[42,-4]],[[6653,7201],[96,-21]],[[6749,7180],[-283,-275]],[[5839,6663],[9,22],[-14,28],[-62,63],[-70,37],[-34,46],[36,130],[10,70],[-7,37],[-33,56]],[[4723,4654],[36,-96],[-1,-32],[-70,-167],[-52,-200],[-26,-76],[-47,-232],[-5,-65],[14,-92],[-7,-43],[-90,-94],[-9,-26],[13,-95],[-230,-3],[-119,-18],[-76,-33],[-100,1],[-81,15],[-46,16],[-32,-4],[-57,-23],[-38,9],[-42,-21],[-25,-29],[24,-94],[12,-20],[77,-75],[-23,-36],[-5,-54],[19,-26],[-76,-26]],[[3661,3015],[-61,14],[-40,20],[-40,39],[-44,27],[-30,45],[-21,13],[-59,10],[-51,-11],[-15,-44],[-26,-9],[-93,21],[-20,-28],[15,-56],[-10,-13],[-59,-21],[-39,9],[-18,27],[-3,63],[37,57],[-25,11],[-10,34],[16,20],[62,24],[-5,67],[55,70],[7,33],[-34,7],[-22,-37],[-30,-15],[-40,26],[-24,35],[9,48],[35,31],[54,-4],[25,30],[-27,99],[15,41],[44,38],[26,11],[25,37],[-8,44],[-34,1],[-44,-20],[-5,36],[16,94],[4,69],[37,118],[32,50],[5,40],[-23,83],[6,52],[31,51],[-12,57],[-49,45],[-25,35],[-102,73],[-66,7],[-59,32],[-20,-1],[-67,-39],[-77,-33],[-61,-13]],[[7383,7700],[91,42],[51,37],[28,48],[56,146],[44,61],[43,36],[91,50]],[[7787,8120],[506,264],[75,42],[89,57],[281,193]],[[9634,8098],[-40,-7],[-24,-31],[-34,-99],[-7,-50],[35,-85],[-9,-15],[-138,-28],[-21,-17],[-16,-47],[-10,-120],[-46,-69],[-68,-32],[-4,-53],[-14,-29],[15,-44],[135,-94],[33,-86],[-9,-41],[-40,-70],[-17,-6],[-61,-51],[-44,-15],[-30,-27],[-51,-25],[-39,-33],[-125,-20],[-79,18],[-51,20],[-77,-17],[-33,-23],[-16,-38]],[[8749,6864],[-83,37],[-50,0],[-133,48],[-25,56],[5,43],[32,90],[-1,39],[-44,80],[-39,32],[-57,11],[-48,38],[-56,59],[-7,45],[-166,21],[-69,90],[-139,-38],[-199,86],[-36,1],[-251,98]],[[6749,7180],[386,375],[88,69],[160,76]],[[8749,6864],[-8,-18],[8,-66],[-17,-50],[-41,-8],[-60,7],[-97,22],[-37,26],[-55,13],[-37,34],[-57,5],[-10,-30],[6,-41],[43,-142],[12,-58],[-22,-80],[3,-23],[37,-28],[61,-19],[85,-59],[20,-44],[-11,-30],[-61,-7],[-15,-11],[-36,-87],[-54,-41],[-92,23],[-49,23],[-121,69],[-78,59],[-90,26],[-39,-4],[-9,-41],[-5,-86],[4,-45],[61,-241],[-24,-64],[-11,-86],[1,-33],[17,-43],[-4,-22],[-102,14],[-31,-13],[-80,-12],[-27,31],[-41,9],[-53,-45],[-54,-66],[-10,-64],[-12,-25],[-64,-19],[-42,-20]],[[6100,8412],[0,3]],[[6100,8415],[91,88],[50,120],[66,93],[90,15],[123,29]],[[6520,8760],[71,-36],[8,-70],[-62,-427]],[[6537,8227],[-54,22],[-41,-122],[10,-38],[-12,-23],[-32,-19],[-90,40],[34,48],[-76,74]],[[6276,8209],[18,40],[-60,21],[-95,9],[3,45],[-48,6]],[[3081,9060],[20,71],[28,31],[64,36],[42,35],[91,-8],[49,28],[36,35],[38,53],[30,22],[11,43],[22,21],[46,-11],[20,56],[-46,24],[-27,-5],[-24,18],[-79,181],[-3,48],[12,113],[-10,36],[9,68],[-24,56],[-3,50],[37,51],[1,36],[36,-5],[69,54],[22,41],[19,13],[27,44],[34,1],[34,-19],[49,33],[36,8],[38,29],[29,57],[-13,21],[9,29],[-11,29],[24,27],[45,-18],[9,-20],[64,-10],[89,24],[32,40],[39,1],[51,40],[21,30],[2,45],[22,9],[18,71],[49,84],[16,66],[37,44]],[[4317,10916],[-32,-42],[47,-67],[13,-47],[68,-108],[-55,-85],[-54,-112],[-28,-49],[-84,-90],[-103,-153],[-42,-44],[-18,-70],[132,10],[39,17],[30,-3],[6,-64],[43,-89],[52,-36],[61,-92],[-3,-46],[63,-45],[37,1],[84,-128],[-38,-16],[-8,-58],[10,-25],[-3,-64]],[[4534,9411],[-31,-2],[-10,-137],[-31,-61]],[[4317,10916],[52,17],[42,27],[37,48],[51,2],[23,43],[64,41],[34,48],[21,45],[47,51],[6,73],[20,60],[-42,75],[-41,49],[-50,23],[-47,9],[-2,36],[-40,5],[974,661],[182,-164],[374,-340],[42,-21],[28,-28],[55,11],[60,-26],[44,-7],[46,-19]],[[6297,11635],[-63,-102],[19,-172],[-4,-20],[-47,-95],[-10,-30],[0,-76],[-84,-43],[-47,6],[-62,-92],[-19,-56],[-81,-60],[52,-97],[64,-208],[1,-25],[-41,-94],[-11,-113],[23,-69],[-2,-16],[-39,-50],[-6,-29],[-4,-125],[-14,-43],[-51,-91],[-49,-63],[-12,-30],[3,-40],[121,-625]],[[5934,9177],[-160,-15],[-57,49],[-42,62],[-52,18],[-102,7],[-32,24],[-96,-23],[-49,9],[-95,-7],[-81,29],[-78,45],[-124,-28],[-48,5],[-384,59]],[[6297,11635],[39,-33],[41,1],[56,-16],[73,-34],[20,-34],[49,-13],[35,-28],[42,1],[182,-61],[39,-39],[42,-16],[45,-36],[48,-77],[86,-80],[19,-25],[27,-9],[16,-26],[36,-25],[21,1],[40,-29],[32,-36],[57,-46],[52,-72],[358,-3],[89,14],[574,120]],[[8248,9222],[-69,-56],[-26,-33],[-37,-112],[-94,-53],[-111,11],[-102,25],[-62,131],[39,55],[-56,97],[-5,39],[-70,71],[-203,18],[-41,-44],[-31,-21],[-101,-27],[-66,2],[-61,-19],[-38,-43],[-46,-37],[-69,-43],[-35,-64],[-41,-135],[-57,-62],[-73,-37],[-91,-35],[-44,7],[-75,-61],[-63,-36]],[[6100,8415],[8,105],[-4,44],[-36,95],[-30,136],[-38,75],[-28,88],[-14,101],[-24,118]],[[6276,8209],[1,-24],[-88,-174],[-9,-58],[-17,-47]],[[6438,7800],[22,47],[31,31]],[[6491,7878],[107,26],[139,44],[181,33],[181,55],[46,21],[69,46],[117,11],[119,32],[264,106],[-13,-56],[22,-40],[29,-25],[35,-11]],[[6537,8227],[-26,-182],[-36,-140],[16,-27]],[[5734,3025],[-123,-268],[-378,-925],[-67,-156],[-393,-855],[-63,-7],[-20,25],[-11,161],[-24,37],[-26,1],[-45,-45],[-17,-6],[-93,58],[-64,-30],[-55,21],[-49,1],[-33,-18],[1,-34],[-51,-52],[-40,-16],[-20,-57],[-34,-48],[9,-110],[42,-59],[0,-44],[-39,-34],[9,-50],[-41,-2],[-10,-37],[49,-119],[49,-85],[19,-80],[-40,-7],[-41,18],[-40,30],[-34,-8],[-19,-21],[-35,-11],[-46,6],[-20,-71],[-3,-77],[-27,-23],[-77,-28],[-20,4],[-78,51],[-30,56],[-56,19],[-63,4],[-64,37],[-101,32],[-23,13],[-17,32],[-36,10],[-30,-29],[-78,68],[-22,-17],[-8,-43],[-43,20],[-54,45],[-13,26],[41,52],[31,11],[1,39],[23,46],[-18,87],[-17,21],[-49,-29],[-14,-46],[4,-75],[-48,-7],[-25,53],[-56,63],[20,35],[40,-2],[22,18],[-16,41],[-41,19],[-55,7],[-29,-19],[7,-41],[-25,-29],[-50,-7],[-26,-20],[-15,-65],[-27,-9],[-36,10],[-56,-19],[-33,54],[-29,9],[-40,-27],[-30,-36],[-32,76],[-10,49],[47,28],[15,80],[-1,54],[23,26],[41,0],[15,18],[26,89],[72,29],[40,55],[47,-5],[13,-52],[38,-6],[19,14],[8,98],[-43,48],[77,29],[22,41],[15,74],[-32,93],[-1,66],[11,30],[32,22],[-26,58],[38,53],[41,28],[-33,31],[-47,-1],[-21,14],[-11,54],[38,62],[-44,40],[20,32],[29,8],[33,40],[37,9],[44,-15],[5,-34],[30,11],[17,31],[48,51],[53,-28],[24,15],[12,41],[-25,27],[-70,9],[1,33],[60,43],[50,27],[7,51],[40,24],[-1,26],[-46,-4],[-55,-53],[-45,-15],[-88,31],[-54,34],[-49,21],[-88,3],[-90,32],[-53,59],[-2,65],[-30,30],[1,34],[28,35],[60,21],[77,-8],[57,26],[34,-4],[39,-37],[62,3],[20,-8],[25,-45],[28,-17],[61,14],[76,53],[38,47],[-5,27],[-48,24],[9,32],[39,5],[-2,43],[53,70],[57,13],[58,23],[16,-9],[19,-39],[-27,-44],[35,-49],[49,-27],[34,-77],[21,-12],[52,3],[8,46],[23,40],[-13,42],[34,42],[-41,60],[-18,45],[-51,20],[-13,34],[12,75],[17,60],[-24,35],[18,58]]],"transform":{"scale":[0.00004633158512720175,0.00003824507318668706],"translate":[-85.742435,37.522955]},"objects":{"Geometry\\21-179":{"type":"GeometryCollection","geometries":[{"arcs":[[0,1,2,3,4,5,6]],"type":"Polygon","properties":{"GEOID":"211799303011"}},{"arcs":[[7,8,9,10,-5]],"type":"Polygon","properties":{"GEOID":"211799303012"}},{"arcs":[[11,12,13]],"type":"Polygon","properties":{"GEOID":"211799303031"}},{"arcs":[[-8,14,15,-14,16]],"type":"Polygon","properties":{"GEOID":"211799303032"}},{"arcs":[[17,18,19,20,21]],"type":"Polygon","properties":{"GEOID":"211799301003"}},{"arcs":[[22,23,24,25,-19]],"type":"Polygon","properties":{"GEOID":"211799301002"}},{"arcs":[[26,27,28,29,30]],"type":"Polygon","properties":{"GEOID":"211799306002"}},{"arcs":[[-10,31,32]],"type":"Polygon","properties":{"GEOID":"211799304003"}},{"arcs":[[33,34,35]],"type":"Polygon","properties":{"GEOID":"211799307001"}},{"arcs":[[36,-24]],"type":"Polygon","properties":{"GEOID":"211799301001"}},{"arcs":[[37,38,39,40,-34,41,42,-29]],"type":"Polygon","properties":{"GEOID":"211799305001"}},{"arcs":[[43,-7,44,-27,45]],"type":"Polygon","properties":{"GEOID":"211799306001"}},{"arcs":[[-32,-9,-17,-13,46,47,-39,48]],"type":"Polygon","properties":{"GEOID":"211799304001"}},{"arcs":[[-43,49,50,-30]],"type":"Polygon","properties":{"GEOID":"211799307003"}},{"arcs":[[51,52,-20,-26,53,54]],"type":"Polygon","properties":{"GEOID":"211799305002"}},{"arcs":[[-48,55,-55,56,-40]],"type":"Polygon","properties":{"GEOID":"211799305003"}},{"arcs":[[57,58,59,60,61,-3]],"type":"Polygon","properties":{"GEOID":"211799303042"}},{"arcs":[[62,63,64,-1,-44]],"type":"Polygon","properties":{"GEOID":"211799302013"}},{"arcs":[[65,66,67,-64]],"type":"Polygon","properties":{"GEOID":"211799302012"}},{"arcs":[[68,-22,69,-59,70,-67]],"type":"Polygon","properties":{"GEOID":"211799302021"}},{"arcs":[[-68,-71,-58,-2,-65]],"type":"Polygon","properties":{"GEOID":"211799302011"}},{"arcs":[[-62,71,-15,-4]],"type":"Polygon","properties":{"GEOID":"211799303044"}},{"arcs":[[72,73,-52,-56,-47,-12]],"type":"Polygon","properties":{"GEOID":"211799303043"}},{"arcs":[[-61,74,-73,-16,-72]],"type":"Polygon","properties":{"GEOID":"211799303041"}},{"arcs":[[-60,-70,-21,-53,-74,-75]],"type":"Polygon","properties":{"GEOID":"211799303051"}},{"arcs":[[-6,-11,-33,-49,-38,-28,-45]],"type":"Polygon","properties":{"GEOID":"211799304002"}},{"arcs":[[-50,-42,-36,75]],"type":"Polygon","properties":{"GEOID":"211799307002"}}]}}}