{"type":"Topology","arcs":[[[6914,4999],[41,-30],[71,-37],[153,-53],[77,-35],[38,-23],[144,-104],[68,-35],[72,-14],[36,0],[147,23],[73,5],[110,-5],[108,-24],[70,-26],[69,-32],[264,-150],[35,-17],[70,-22],[145,-31],[38,-10],[75,-29],[153,-68],[117,-46],[75,-19],[192,-29],[100,-23],[232,-65],[70,-13],[139,-12],[70,-9],[146,-27]],[[10112,4039],[-12,-17],[0,-35],[-38,-35],[10,-44],[-3,-12],[-37,-27],[-6,-33],[23,-52],[0,-44],[-9,-33],[12,-27],[2,-35],[-23,-48],[-13,-15],[-34,-3],[-23,-27],[-6,-32],[4,-45],[-29,-39],[7,-47],[27,-21],[9,-19],[-5,-27],[-23,-30],[-18,-35],[-35,-45],[-17,-10],[-72,12],[-30,-14],[-20,-25],[-27,-54],[-18,-19],[-56,-46],[-48,-17],[-18,-16],[-9,-48],[-38,-136],[-5,-31],[-40,5],[-22,-21],[0,-34],[-11,-22],[-23,-19],[-2,-15],[15,-69],[17,-47],[-29,-93],[-6,-29]],[[9433,2464],[-37,32],[-69,16],[-69,-32],[-72,36],[-49,35],[-53,21],[-48,38],[-28,35],[-21,38],[-27,69],[-64,99],[-10,9],[-18,-11],[-29,12],[-19,-17],[1,-21],[-24,-39],[-55,-44],[-17,-32],[-34,-15],[-12,2],[-29,-21],[-24,-30],[-42,-15],[-46,-27],[-28,5],[-28,-24],[-42,-47],[-21,7],[-40,3],[-25,-9],[-30,-35],[-14,-23],[-29,-21],[-15,2],[-42,20],[-26,3],[-23,-6],[-10,14],[-43,-11],[-48,33],[-18,-10],[-7,-45],[-32,-35],[-46,-4],[-36,-24],[-75,-31],[-31,2],[-32,27],[-13,3],[-22,-13],[-35,-52],[-24,-2],[-31,65],[-10,66],[-17,33],[-39,23],[-61,59],[-21,8],[-39,-12],[-21,5],[-12,16],[-13,40],[-5,46],[-37,43],[-4,35],[20,25],[10,45],[-21,53],[2,21],[-12,35],[-41,23],[-17,-37],[-15,-10],[-53,4],[-29,-19],[-28,-31],[-14,5],[-20,42],[-20,28],[-52,25],[-25,-7],[-12,-35],[7,-26],[18,-26],[2,-23],[-3,-65],[-48,-83],[0,-17],[20,-33],[1,-18],[-50,-38],[-28,-26],[-4,-19],[55,-74],[14,-35],[-12,-22],[-55,-25],[-32,5],[-20,-10],[-27,-28],[-64,-18],[-13,-14],[-7,-37],[-15,-15],[-26,11],[-28,35],[-14,6],[-32,29],[-25,0],[-23,-27],[-19,-8],[-33,0],[-17,17],[-6,51],[-28,46],[-12,7],[-49,-2],[-13,-38],[21,-38],[9,-27],[8,-67],[-25,40],[-37,93],[-1,15],[11,83],[-16,63],[-39,53],[-31,59]],[[6380,2677],[-29,80],[-3,50],[-7,18],[-79,116],[-21,38],[-19,60],[-32,67],[1,14],[38,83],[9,47],[-24,100],[-24,53],[-26,47],[-21,24],[-56,17]],[[6087,3491],[-9,10],[7,31],[19,11],[39,3],[60,40],[40,-5],[21,-16],[12,2],[16,35],[34,38],[10,62],[4,63],[-3,29],[4,35],[22,37],[4,38],[11,11],[27,0],[52,38],[21,32],[27,74],[0,23],[15,20],[5,43],[37,49],[94,-25],[28,4],[53,-2],[10,5],[9,63],[25,51],[25,75],[8,38],[-6,41],[-14,38],[-22,32],[-159,161],[-10,18],[-1,46],[-4,24],[-17,19],[-39,33],[-19,26],[-9,31],[-8,59],[70,9],[97,0],[35,7],[76,34],[32,0],[38,-25],[26,4],[34,39]],[[9433,2464],[-9,-64],[-23,-64],[-3,-22],[10,-79],[-30,-113],[-72,-166],[-15,-23],[0,-26],[26,-28],[6,-20],[-25,-61],[-35,-41],[-10,-19],[10,-32],[-1,-78],[15,-67],[-1,-63],[14,-30],[6,-52],[26,-30],[31,-12],[35,-33],[16,-38],[-31,-16],[-69,-27],[-59,-35],[-23,-28],[-16,-31],[-52,-17],[-22,-45],[-13,-76],[-26,-75],[-48,-52],[-6,-12],[-61,-56],[-64,-26],[-27,-15],[-17,-23],[-34,-97],[-22,-78],[1,-36],[-13,-23],[-9,-56],[-21,-53],[-23,-69],[-19,-42],[-31,-42],[-16,-12],[-37,-53],[-19,-14],[-24,-43],[-9,-6],[-40,-2],[-30,5],[-33,-27],[-40,-18],[-67,11],[-25,-27],[-41,-15],[-21,-37],[-25,-10],[-18,-25],[-41,18],[-13,1],[-883,568],[-412,267],[-285,189],[-534,351],[-342,225],[-469,310],[-6,2]],[[5269,1931],[43,115],[22,32],[35,29],[49,51],[68,141],[19,27],[55,46],[95,90],[47,21],[68,15],[94,34],[27,5],[90,2],[39,9],[65,45],[24,5],[35,-6],[31,1],[85,20],[120,64]],[[7273,10727],[215,-27],[121,-24],[-3,-53],[7,-54],[19,-38],[67,-101],[168,-249],[7,-44],[-5,-74],[-28,-91],[-16,-27],[-51,-41],[-15,-17],[-5,-22],[-19,-256],[-13,-220],[21,10],[47,-41],[116,-93],[67,-27],[122,-54],[14,-11],[52,-75],[37,-40],[52,-30],[31,-23],[54,-29],[44,-5],[130,-3],[88,-4],[43,-30],[89,-10],[55,-26],[44,-30],[37,-15],[75,-44],[35,-37],[59,-47],[26,-33],[74,-163],[37,-51],[42,-16],[-9,-195],[-5,-11],[65,-28],[90,-48],[126,-64],[19,-16],[24,-40],[10,22],[40,-51],[37,-31],[55,-66],[36,-53],[9,-96],[23,-41],[21,-9],[8,-16],[31,-153],[7,-15],[48,-43],[19,-5],[83,23],[22,1],[24,-18],[31,-52],[28,-72],[35,-59],[26,-26],[16,-29],[52,-58],[33,-21],[35,6],[21,-13],[37,-64],[55,-53],[12,-49],[38,-62],[26,-35],[9,13]],[[10450,6935],[-27,-351]],[[10423,6584],[-21,5],[-40,75],[-12,9],[-36,3],[-70,66],[-49,-19],[-44,-9],[-48,29],[-30,-20],[-42,19],[-29,-8],[-33,-22],[-31,14],[-46,-8],[-30,1],[-41,19],[-17,-3],[-48,25],[-27,-7],[-27,-20],[-36,6],[-31,18],[-37,3],[-25,10],[-18,22],[-129,79],[-66,28],[-42,10],[-101,9],[-209,-6]],[[9008,6912],[-77,-26],[-134,-20],[-52,-19],[-64,-38],[-28,-8],[-91,-11],[-24,0],[-74,12],[-32,-1],[-88,-13],[-40,-2],[-54,6],[-78,24],[-48,20],[-143,72]],[[7981,6908],[2,20],[-16,98],[-1,25],[11,71],[21,64],[0,12],[-37,89],[-49,110],[-10,12],[-41,14],[-89,256],[-155,-90],[-72,-51],[-45,-11],[-124,10],[-39,-26],[14,209],[29,417],[4,8],[73,-5],[17,227],[-233,19],[-4,20],[15,254],[9,33],[37,76],[2,28],[-12,144],[10,49],[25,24],[-8,10],[-32,-17]],[[7283,9007],[-59,218],[-24,95],[9,237],[12,161],[0,38],[-58,201],[-4,34],[15,243],[4,57],[6,15],[60,120],[11,30],[8,82],[10,189]],[[7053,11392],[806,-103],[694,-91],[480,-63],[859,-113],[316,-42],[317,-39],[911,-121],[-596,-1334],[-342,-764],[-24,-933],[-24,-854]],[[7273,10727],[8,166],[-5,13],[-42,7],[-6,17],[14,264],[-9,10],[-78,48],[-12,12],[-90,128]],[[1141,5565],[46,-11],[36,-19],[41,-29],[98,-82],[23,-27],[24,-41],[171,83],[130,4],[94,24],[139,0],[152,50],[18,8],[110,32],[102,18],[58,7],[418,6],[13,52],[74,-42],[60,-53],[47,-48],[23,-34],[16,-45],[51,-84],[13,-38],[14,-4],[30,19],[25,-5],[8,-12],[33,-1],[34,-25],[33,-9],[11,-13],[41,-10],[21,16],[35,-5],[16,25],[31,-6],[31,11],[21,-1],[54,18],[10,13]],[[3546,5307],[17,4],[26,-34],[5,-60],[-1,-37],[25,-46],[28,-23],[39,-53],[3,-49],[-13,-15],[-51,-20],[-17,-26],[3,-27],[48,-88],[21,-65],[13,-15],[25,-5],[41,10],[28,14],[18,27],[26,21],[27,-14],[37,-75],[6,-38],[-13,-19],[-1,-65],[15,-38],[18,-4],[12,19],[23,12],[57,19],[25,3],[42,34],[23,47],[26,15],[30,-10],[30,-44],[26,-22],[-6,-57],[-25,-15],[-45,-48],[-70,-1],[-21,-11],[-15,-21],[3,-53],[14,-33],[20,-4],[97,-65],[24,1],[58,-7],[16,5],[52,-11],[39,-16],[10,-14],[23,-147],[12,-34],[21,-35],[12,-36],[32,-22],[50,-21],[45,-36],[12,-19],[3,-41],[-11,-31],[-49,-34],[-31,-16],[-41,-1],[-35,14],[-39,3],[-59,10],[-22,-1],[-24,-15],[-8,-21],[-6,-83],[13,-50],[10,-52],[-5,-26],[-22,-15],[-49,3],[-14,-8],[-45,7],[-30,14],[-27,25],[-30,51],[-36,78],[-53,81],[-5,14],[-21,11],[-31,-17],[-30,-33],[-14,-29],[-18,-60],[-21,-25],[-19,-6],[-39,7],[-31,37],[-17,37],[-11,50],[-16,23],[-22,16],[-37,-30],[-19,-30],[-1,-13],[-60,-140],[-6,-89],[1,-44],[6,-43],[13,-34],[22,-40],[4,-24],[16,-43],[11,-45],[10,-15],[18,-2],[53,19],[19,13],[44,12],[12,-2],[54,30],[20,-1],[26,-28],[8,-60],[11,-39],[-1,-47],[-9,-39],[12,-49],[-6,-52],[-9,-26],[-34,-32],[-29,-17],[-48,-13],[-54,-6],[-49,10],[-71,38],[-12,20],[-43,30],[-30,-8],[-42,14],[-18,-16],[-10,-31],[-5,-45],[2,-22],[21,-50],[18,-26],[77,-74]],[[3551,2768],[-284,139],[-417,201],[-228,118],[-514,259],[-687,348],[-433,220],[153,1512]],[[10423,6584],[-117,-1494],[-25,11],[-7,-8],[1,-39],[8,-14],[31,-21],[21,-35],[11,-49],[-7,-35],[-10,-10],[-56,-29],[-8,-16],[6,-22],[14,-7],[49,-4],[20,-6],[22,6],[18,-5],[3,-30],[-32,-19],[-19,-50],[-23,-16],[-46,21],[-22,4],[-13,-24],[12,-78],[16,-12],[71,-2],[17,-11],[29,-53],[-11,-45],[-30,-41]],[[10346,4451],[-53,-1],[-39,20],[-279,225],[-34,23],[-111,61],[-59,44],[-65,37],[-210,100],[-54,20],[-67,9],[-86,-1],[-58,17],[-33,16],[-46,34],[-177,152]],[[8975,5207],[28,94],[-2,18],[-13,251],[0,37],[16,102],[4,100],[16,87],[20,91],[10,74],[2,70],[-17,82],[-28,103],[-9,145],[-9,100],[4,94],[11,182],[0,75]],[[6933,6176],[54,-14],[48,-23],[41,-33],[61,-60],[53,-37],[139,-61],[27,-11],[47,-10],[48,-3],[50,-10],[296,-95],[154,-74],[66,-25],[51,-11],[337,-67],[51,-14],[57,-31],[178,-129],[51,-44],[113,-110],[120,-107]],[[10346,4451],[-8,-18],[-144,-280],[1,-12],[-55,-79],[-28,-23]],[[6914,4999],[38,49],[24,11],[29,-8],[-84,102],[-29,17],[-60,14],[-51,31]],[[6781,5215],[56,22],[18,12],[27,32],[1,21],[-16,13],[-47,22],[-29,45],[-39,53],[-19,16],[-22,31],[-5,44],[19,24],[43,81],[16,51],[2,24],[-7,21],[-13,3],[-16,22],[-43,42],[-17,31],[3,30],[15,51],[12,19],[29,17],[20,-8],[32,-33],[52,-29],[14,-30],[12,-3],[77,31],[14,33],[2,61],[13,49],[1,35],[-19,62],[-34,66]],[[3407,6078],[340,-90],[67,-21],[67,-29],[266,-123],[678,-314],[73,-27],[77,-20]],[[4975,5454],[55,-9],[107,-6],[289,-9],[302,-10]],[[5728,5420],[-2,-207],[2,-89],[-14,-120],[-67,-542],[-13,-110],[3,-30],[12,-16],[101,-92],[42,-45],[37,-58],[11,-26],[10,-85],[13,-54],[63,-136],[15,-44],[-1,-57],[-12,-67],[0,-52],[11,-33],[17,-16],[52,-19],[41,-23],[38,-8]],[[5269,1931],[-102,52],[-288,142],[-172,83],[-398,194],[-185,90],[-294,142],[-279,134]],[[3546,5307],[-40,28],[-21,38],[7,39],[22,36],[-11,74],[3,48],[13,32],[14,10],[85,0],[37,10],[39,3],[17,29],[6,74],[-7,31],[-65,-5],[-30,13],[-44,12],[-42,20],[-21,24],[-39,30],[-55,76],[-22,39],[-11,66],[5,20],[21,24]],[[5215,6713],[76,-46],[62,-24],[28,-15],[66,-56],[72,-48],[30,-17]],[[5549,6507],[2,-16],[-7,-102],[-70,8]],[[5474,6397],[-190,22]],[[5284,6419],[-55,7]],[[5229,6426],[1,146],[-2,38],[-13,103]],[[1248,6626],[363,-46],[75,-13],[75,-21],[272,-104],[81,-25],[454,-119]],[[2568,6298],[839,-220]],[[1141,5565],[107,1061]],[[5103,6440],[126,-14]],[[5284,6419],[-5,-108],[-9,-85],[17,-63],[-48,-16],[-43,-4],[-98,8]],[[5098,6151],[7,146],[-2,143]],[[7104,6648],[31,-6],[29,1],[73,17],[262,115],[35,14],[252,65],[25,15],[56,51],[28,10],[30,-4],[56,-18]],[[6933,6176],[-12,32],[-7,56],[4,15],[50,24],[34,10],[44,-40],[10,-41],[2,-71],[48,-36],[30,-3],[26,35],[32,9],[15,13],[35,10],[51,22],[6,35],[-42,38],[-37,16],[-33,41],[-10,50],[8,58],[-8,46],[-33,86],[-18,29],[-25,24],[1,14]],[[5474,6397],[-4,-53],[-36,-30],[-9,-85],[-31,-53],[-19,-44],[-12,-18],[-44,-47],[-26,-15],[-39,-1],[-59,-24],[-32,-25],[-23,-6],[-51,4]],[[5089,6000],[9,151]],[[5728,5420],[387,-14],[77,-9],[38,-13],[37,-18],[110,-63],[38,-17],[155,-59],[38,-17],[72,-41],[35,-23],[199,-147]],[[5549,6507],[50,-5],[40,20]],[[5639,6522],[13,-44],[4,-43],[8,-6],[61,4],[26,12],[8,17],[21,-8],[44,-42],[2,-53],[39,-5],[52,10]],[[5917,6364],[15,-110],[-2,-49]],[[5930,6205],[-115,74],[-10,-28],[-28,-13],[-45,10],[-35,28],[-40,22],[-20,1],[-17,-28],[3,-60],[17,-30],[-12,-41],[-60,-73],[-10,-69],[-9,-19],[-51,-40],[-52,-37],[-44,-12],[-35,2],[-32,35],[-23,-16],[5,-60],[-7,-73],[-30,-27],[-52,-26],[-27,-4],[-39,7],[-23,19],[-8,19],[-7,49],[2,25],[11,21],[39,40],[-5,32],[-45,34],[-39,6]],[[5087,5973],[2,27]],[[4961,6893],[71,-67],[183,-113]],[[5103,6440],[-100,9]],[[5003,6449],[-98,-14]],[[4905,6435],[-2,28],[30,7],[3,67],[9,0],[8,157],[8,199]],[[4959,11660],[92,-398],[5,-34],[9,-143],[-2,-41],[-30,-196],[-5,-19],[-32,-84],[-51,-69],[-68,-72],[-51,-78],[-71,-195],[-43,-153],[-21,-59],[-13,-26],[-61,-106],[-14,-33],[-44,-143],[-7,-34],[-31,-234],[-25,-137],[0,-32],[24,-75],[23,-89],[15,-48],[20,-46],[60,-122],[78,-154],[103,-224],[149,-343],[11,-33]],[[4979,8240],[5,-41],[-16,-32],[-24,-18],[-20,-27],[-68,-42],[-49,-9],[-41,-1],[-19,-8],[-27,-24],[-25,-49],[-79,-45],[-16,2],[-24,23],[-42,26],[-32,1],[-44,53],[-30,51],[-31,8],[-36,-29],[-42,-78],[-5,-44],[6,-26],[-16,-35],[6,-36],[0,-52],[-21,-28],[-19,-42],[-20,-29],[13,-20],[4,-43],[-47,-38],[-24,-24],[-5,-36],[-25,-27],[-51,-8],[-38,-30],[-43,-17],[-20,18],[-23,-3]],[[3991,7481],[-15,44],[-26,42],[-31,20],[-19,25],[3,14],[27,24],[12,40],[-9,32],[-4,39],[-1,84],[-18,15],[-18,35],[-46,45],[-43,23],[-30,6],[-14,19],[-3,46],[27,27],[1,11],[-38,53],[-23,66],[7,30],[-13,21],[-6,63],[27,21],[-4,65],[14,39],[1,38],[-11,15],[-16,-2],[-29,47],[-8,46],[6,40],[38,36],[38,43],[24,-6],[27,-27],[33,-12],[14,6],[37,33],[42,-23],[30,-25],[22,6],[-13,29],[-3,121],[-28,85],[-14,66],[-79,217],[6,27],[27,18],[8,22],[-43,128],[-54,-29],[-20,-16],[-91,-79],[-39,35],[-12,23],[-40,96],[-25,88],[-15,18],[-81,53],[-29,26],[-12,20],[-39,89],[-67,168],[-11,62],[-18,41],[-53,43],[-38,12]],[[3213,10008],[3,1],[163,318],[128,242],[137,251],[209,397],[164,314],[124,233],[270,-34],[210,-27],[338,-43]],[[4959,11660],[448,-57],[1207,-155],[213,-26],[226,-30]],[[7283,9007],[-39,-8],[-49,-69],[-85,-61],[-146,8],[-284,18],[-155,13],[-8,-11],[-6,-375],[7,-15],[-25,-31],[-53,18],[-211,23],[-124,12],[-186,8],[-15,-9]],[[5904,8528],[-32,76],[-4,49],[9,130],[-72,8],[-368,33],[-38,0],[-63,-65],[-70,-65],[-14,2],[-66,-18],[-23,1],[-41,-20],[-80,-112],[-19,-66],[3,-46],[-8,-28],[-24,-59],[-4,-76],[-11,-32]],[[5943,6924],[6,138],[0,94],[3,143],[12,55],[43,102]],[[6007,7456],[18,46],[7,32],[0,61],[-28,194],[-12,72],[-38,196],[-4,51],[15,244],[-2,41],[-15,46],[-44,89]],[[7104,6648],[-37,7],[-71,-14],[-38,0],[-134,9],[-94,4],[-150,11],[-27,-1],[-125,-12],[-28,0],[-117,-35],[-125,7],[-52,-5],[-38,-12],[-24,-33],[-53,-59],[-20,-29],[-24,-43],[-41,-5]],[[5906,6438],[-2,74],[31,283],[8,129]],[[1298,7117],[64,633]],[[1362,7750],[14,-20],[13,0],[28,-37],[10,-23],[18,-16],[32,-13],[34,-60],[21,-12],[31,16],[16,21],[49,-12],[40,-6],[23,-15],[18,-1],[19,-21],[19,-8],[27,8],[21,-5],[20,13],[26,-18],[19,1],[24,-26],[19,-6],[21,20],[45,-3],[15,53],[28,14],[25,42],[19,12],[33,34],[31,7],[27,22],[20,-2],[12,19],[38,-4],[22,18],[29,9],[1,21],[24,5],[16,33],[49,-42],[97,-55],[11,-12],[0,-95],[6,-7],[206,-16],[12,2],[108,131],[68,76],[17,13],[80,32],[16,18],[289,-26],[64,-7],[18,-12],[7,-21],[-1,-42],[16,-18],[142,-12],[34,-101],[6,-11],[92,-12],[120,-11],[21,-15],[-1,-48],[15,-14],[146,-11],[29,-8],[11,-11]],[[3987,7475],[-9,-13],[-53,15],[-14,-12],[-26,-83],[-2,-57],[-6,-24],[-17,-18],[-30,-12],[-28,4],[-27,-10],[-44,6],[-18,-32],[-14,-3],[-17,-21],[-6,-27],[24,-55],[21,-26],[36,-23],[25,-41],[-3,-38]],[[3779,7005],[4,-45],[53,-37],[12,-20],[-5,-14],[-42,-4],[-29,11],[-28,-31],[-56,-21],[-8,-33],[-31,-46],[8,-44],[24,-39],[43,-52]],[[3724,6630],[-28,-4],[-33,6],[-82,39],[-38,6],[-342,16],[-38,6],[-155,42],[-83,16],[-248,28],[-111,8]],[[2566,6793],[-138,15],[-433,69],[-72,18],[-590,209],[-35,13]],[[5513,7547],[89,4],[81,-9],[235,-43],[55,-22],[34,-21]],[[5943,6924],[-36,-42],[-40,-32],[-22,-23],[-40,-61],[-80,-72],[-21,-36],[-24,-80],[-13,-26],[-26,-29]],[[5641,6523],[-21,35],[-23,4],[-48,-19],[-46,8],[-31,18],[-17,19],[-26,60],[-2,35],[42,54],[26,98],[-19,31],[-20,22],[-54,-10],[-31,22],[-17,38],[-44,67],[-8,20],[-22,30],[-7,23],[24,16],[50,1],[39,-12],[35,7],[88,-19],[17,3],[18,26],[11,41],[41,41],[22,15],[28,0],[21,17],[18,-2],[28,16],[34,41],[16,45],[-15,14],[-47,7],[-85,27],[-69,15],[-52,28],[-14,27],[7,40],[25,75]],[[1248,6626],[50,491]],[[2566,6793],[13,-73],[41,-199],[30,-122],[-14,-34],[-38,-26],[-30,-41]],[[929,9593],[38,-31],[23,-37],[7,-52],[12,-34],[16,-13],[159,-95],[-1,-22],[-44,-143],[103,-261],[74,-171],[9,-40],[1,-102],[7,-53],[-5,-24],[-57,-124]],[[1271,8391],[-257,145],[-645,359],[-369,206],[118,20],[29,-7],[20,11],[-1,28],[-21,57],[-25,110],[0,25],[31,7],[44,-16],[59,-29],[21,0],[13,11],[8,30],[3,68],[6,62],[6,133],[9,37],[32,33],[63,35],[16,57],[12,14],[17,-11],[7,-79],[-10,-28],[-82,-75],[-7,-26],[6,-23],[29,-48],[16,-9],[17,9],[38,76],[24,34],[19,11],[28,-8],[30,-28],[17,-5],[78,13],[8,-4],[0,-34],[10,-29],[61,-45],[59,-78],[26,-13],[65,-12],[25,1],[32,49],[2,34],[-24,25],[-10,29],[5,80]],[[3407,6078],[13,42],[20,50],[29,10],[36,-8],[43,28],[33,-6],[27,10],[4,11],[-16,110],[1,20],[33,13],[47,-10],[33,15],[12,12],[14,72],[0,67],[13,59],[-5,36],[-20,21]],[[3779,7005],[89,48],[29,30],[73,96],[41,29],[35,11],[155,6],[41,-8],[149,-62],[249,-105],[52,-20],[146,-40]],[[4838,6990],[-7,-120],[-7,-45],[-23,-61],[-27,-44],[-46,-52],[-22,-35],[-24,-60],[-19,-92],[60,-21],[116,-26],[37,-3],[29,4]],[[5003,6449],[-2,-57],[-5,-26],[-62,-184],[89,-23],[75,-8]],[[5087,5973],[-23,-7],[-42,-41],[-27,-40],[-5,-23],[-5,-69],[-13,-15],[-23,3],[-21,19],[-47,87],[-42,64],[-17,7],[-22,-33],[-1,-40],[6,-44],[24,-66],[24,-43],[32,-13],[14,-53],[19,-51],[14,-23],[22,-58],[6,-29],[17,-36],[-2,-15]],[[5906,6438],[11,-74]],[[5639,6522],[2,1]],[[5215,6713],[-27,206],[-8,43],[-66,217],[-6,49],[0,152],[57,-3],[47,20],[125,110],[32,20],[47,15],[97,5]],[[3987,7475],[4,6]],[[4961,6893],[-64,63],[-23,19],[-36,15]],[[1362,7750],[54,560],[-145,81]],[[929,9593],[-21,157],[2,18],[20,9],[35,-22],[40,-37],[17,-7],[18,7],[23,28],[32,8],[33,-11],[23,-15],[8,-23],[19,-101],[30,-109],[12,-30],[28,-39],[43,-13],[33,4],[12,24],[-3,53],[-20,75],[-6,52],[0,81],[6,54],[21,29],[33,15],[33,5],[71,23],[16,1],[48,-19],[21,9],[49,1],[23,16],[16,24],[23,51],[20,16],[43,-7],[35,24],[19,-2],[36,-21],[17,12],[767,-182],[370,158],[239,99]],[[5930,6205],[-10,-45],[-19,-45],[-48,-87],[-31,-64],[-22,-54],[-20,-65],[-15,-61],[-12,-75],[-20,-163],[-5,-126]],[[6933,6176],[-72,16],[-374,120],[-325,105],[-42,6],[-28,-6],[-175,-53]],[[5930,6205],[37,-18],[39,-9],[25,-15],[15,-20],[58,-102],[13,-26],[26,-103],[17,-29],[63,-76],[107,-169],[37,-51],[87,-91],[294,-255],[33,-26]]],"transform":{"scale":[0.000044705054214760177,0.000027312223733424466],"translate":[-85.468206,38.036753]},"objects":{"Geometry\\21-211":{"type":"GeometryCollection","geometries":[{"arcs":[[0,1,2,3,4]],"type":"Polygon","properties":{"GEOID":"212110401012"}},{"arcs":[[-3,5,6]],"type":"Polygon","properties":{"GEOID":"212110401011"}},{"arcs":[[7,8,9,10,11,12]],"type":"Polygon","properties":{"GEOID":"212110401022"}},{"arcs":[[13,-8,14]],"type":"Polygon","properties":{"GEOID":"212110401021"}},{"arcs":[[15,16,17]],"type":"Polygon","properties":{"GEOID":"212110405011"}},{"arcs":[[-10,18,19,20]],"type":"Polygon","properties":{"GEOID":"212110401023"}},{"arcs":[[21,-20,22,-1,23,24]],"type":"Polygon","properties":{"GEOID":"212110401013"}},{"arcs":[[25,26,27,-4,-7,28,-17,29]],"type":"Polygon","properties":{"GEOID":"212110404022"}},{"arcs":[[30,31,32,33,34]],"type":"Polygon","properties":{"GEOID":"212110403022"}},{"arcs":[[35,36,-30,-16,37]],"type":"Polygon","properties":{"GEOID":"212110405012"}},{"arcs":[[38,-34,39,40]],"type":"Polygon","properties":{"GEOID":"212110403011"}},{"arcs":[[41,-11,-21,-22,42]],"type":"Polygon","properties":{"GEOID":"212110401024"}},{"arcs":[[-40,-33,43,44]],"type":"Polygon","properties":{"GEOID":"212110403023"}},{"arcs":[[45,-5,-28]],"type":"Polygon","properties":{"GEOID":"212110404021"}},{"arcs":[[-44,-32,46,47,48,49,50]],"type":"Polygon","properties":{"GEOID":"212110403021"}},{"arcs":[[51,-35,-39,52,53,54]],"type":"Polygon","properties":{"GEOID":"212110403013"}},{"arcs":[[55,56,57,58]],"type":"Polygon","properties":{"GEOID":"212110402013"}},{"arcs":[[59,-15,-13,60,61,-56]],"type":"Polygon","properties":{"GEOID":"212110402011"}},{"arcs":[[62,63,-61,-12,-42,64,65]],"type":"Polygon","properties":{"GEOID":"212110402012"}},{"arcs":[[66,67,68,69,70,71]],"type":"Polygon","properties":{"GEOID":"212110405033"}},{"arcs":[[72,-63,73,74]],"type":"Polygon","properties":{"GEOID":"212110402023"}},{"arcs":[[75,-72,76,-36]],"type":"Polygon","properties":{"GEOID":"212110405032"}},{"arcs":[[77,78]],"type":"Polygon","properties":{"GEOID":"212110405042"}},{"arcs":[[79,-70,80,81,-54,82,-45,-51,83,-26]],"type":"Polygon","properties":{"GEOID":"212110404042"}},{"arcs":[[-74,-66,84,-48,85]],"type":"Polygon","properties":{"GEOID":"212110402022"}},{"arcs":[[-75,-86,-47,-31,86]],"type":"Polygon","properties":{"GEOID":"212110402024"}},{"arcs":[[87,-57,-62,-64,-73,-87,-52,88,-81,-69]],"type":"Polygon","properties":{"GEOID":"212110402021"}},{"arcs":[[-58,-88,-68,89,-78,90]],"type":"Polygon","properties":{"GEOID":"212110405041"}},{"arcs":[[-50,91,-27,-84]],"type":"Polygon","properties":{"GEOID":"212110404041"}},{"arcs":[[-65,-43,92,-85]],"type":"Polygon","properties":{"GEOID":"212110404032"}},{"arcs":[[-71,-80,-37,-77]],"type":"Polygon","properties":{"GEOID":"212110405031"}},{"arcs":[[93,-24,-46,-92]],"type":"Polygon","properties":{"GEOID":"212110404033"}},{"arcs":[[-89,-55,-82]],"type":"Polygon","properties":{"GEOID":"212110403014"}},{"arcs":[[-93,-25,-94,-49]],"type":"Polygon","properties":{"GEOID":"212110404031"}},{"arcs":[[-53,-41,-83]],"type":"Polygon","properties":{"GEOID":"212110403012"}}]}}}