{"type":"Topology","arcs":[[[3096,1783],[41,7]],[[3137,1790],[23,-66],[-35,-9],[51,-151],[237,60],[94,25],[286,74],[1,0]],[[3794,1723],[84,-229],[-73,-56],[-19,-7],[-9,-10],[47,2],[1,-10]],[[3825,1413],[-298,-152],[-156,-79],[-30,-13],[-178,-49],[-108,-28],[-36,-6],[-240,-27],[-147,-16],[-75,-7]],[[2557,1036],[-57,236],[-5,6],[-23,106],[-61,-16],[-19,74],[-38,158],[7,11],[16,9],[-5,19],[-32,44]],[[2340,1683],[18,18],[56,41],[134,50],[114,18],[175,5],[259,-32]],[[3432,2132],[30,18]],[[3462,2150],[34,-58],[38,-58]],[[3534,2034],[-120,-97],[-80,-53],[-155,-83],[-42,-11]],[[3096,1783],[12,58],[0,20],[-50,18],[-16,47]],[[3042,1926],[29,3],[32,8],[17,8],[142,85],[54,32],[116,70]],[[1691,1977],[47,-239],[12,-137],[40,-118],[58,-102],[60,-51],[28,-5],[19,4],[27,14],[91,93],[97,88],[91,84],[79,75]],[[2557,1036],[54,-226],[3,-17],[9,-25],[91,-64],[11,-11],[103,-73],[35,-28],[18,-4],[15,-12],[27,-9],[17,-14],[19,-30],[15,-9],[37,-8],[31,-25],[-3,-32],[-9,-12],[17,-30],[6,-20],[10,-9],[13,-23],[17,-6],[6,-23],[21,-17],[-14,-30],[1,-19],[14,-15]],[[3121,245],[-11,-11],[-22,-5],[-21,6],[-12,-1],[-25,-9],[-27,-5],[-30,1],[-128,49],[-38,20],[-49,33],[-27,20],[-26,-2],[-26,4],[-33,22],[-73,27],[-30,4],[-17,8],[-23,2],[-19,16],[-12,19],[-9,24],[-6,6],[-94,-4],[4,-204],[-443,-10],[-545,-12],[-202,-5],[-141,-5],[-8,437],[-5,0]],[[1023,670],[-1,57],[14,102],[0,66],[-2,161],[0,56],[-6,377],[-54,72],[15,8],[37,14],[0,75],[128,52],[38,18],[-9,22],[300,134],[147,66],[61,27]],[[3396,3815],[874,184],[-92,-592],[-62,-419],[-228,-32],[68,-331],[15,-73],[11,-44],[5,-31],[30,-146],[-117,-46],[-123,-75],[-42,-26],[-64,-49]],[[3671,2135],[-23,46],[-34,60]],[[3614,2241],[61,36],[16,6],[27,18],[-13,21],[-5,-4],[-17,32],[-29,-15],[-56,101],[-38,65],[-25,-13],[-12,22],[55,30],[80,40],[-23,83],[-136,2],[-31,8],[-33,23],[-84,69]],[[3351,2765],[-128,108],[-122,101],[-31,28],[-39,41]],[[3031,3043],[49,15],[11,19],[12,6],[21,0],[16,5],[4,-15],[11,5],[30,46],[-1,52],[6,20],[14,18],[32,21],[9,19],[-1,15],[-15,51],[-23,49],[1,10],[10,18],[50,55],[28,29],[32,17],[22,2],[20,-7],[15,1],[10,7],[-5,27],[-40,69],[2,25],[23,25],[4,18],[-5,25],[-16,19],[2,22],[21,6],[42,-5],[8,6],[2,19],[-26,33],[-10,25]],[[3614,2241],[-31,58],[-158,277],[-41,74],[-22,11],[-17,25],[-7,4]],[[3338,2690],[6,18],[-14,32],[21,25]],[[3614,2241],[-60,-37]],[[3554,2204],[-79,138],[-34,64],[-26,47],[-65,-34]],[[3350,2419],[-64,108],[-7,10],[21,16],[38,137]],[[3462,2150],[31,19]],[[3493,2169],[61,35]],[[3671,2135],[-21,-18]],[[3650,2117],[-116,-83]],[[3038,1925],[-64,-7],[-88,-7],[-13,98],[-4,6],[-38,-4],[-18,171]],[[2813,2182],[41,-5],[27,1],[35,10],[30,16],[52,-160],[40,-119]],[[1253,3358],[12,-2],[12,-59],[37,-33],[27,-9],[14,-71],[26,0],[18,3],[100,10],[49,-17],[-26,-70],[-29,-63],[5,-2],[-79,-210],[-38,-114],[-47,-127],[-54,-4],[-26,-4],[4,-21],[19,-46]],[[1277,2519],[-102,-17],[-97,-12],[-74,4],[-67,21],[-47,34],[-106,145],[-46,93],[-55,223],[-31,158]],[[652,3168],[-12,64],[122,24],[415,87],[76,15]],[[2713,2567],[0,-68],[2,-20],[-11,-51],[7,-14],[-10,-82],[-5,-61],[25,-8],[-10,-62],[1,-7],[101,-12]],[[3038,1925],[4,1]],[[2340,1683],[-43,60],[-7,23],[40,27],[9,97],[9,25],[5,64],[16,146],[10,108],[-30,8],[-17,8],[9,22],[31,90],[20,13],[22,21],[61,15],[79,12],[69,9],[21,29],[69,107]],[[1277,2519],[127,-15],[103,-49],[99,-95],[54,-164],[24,-182],[7,-37]],[[1023,670],[-333,-8],[0,626],[-458,-8],[-1,337],[0,501],[-226,-4],[-5,442],[0,6],[279,206],[95,64],[-18,48],[14,20],[9,20],[10,36],[54,44],[146,115],[63,53]],[[3650,2117],[144,-394]],[[3873,901],[74,2],[7,-422]],[[3954,481],[-35,1],[-71,-3],[-7,5],[-53,2],[-61,31]],[[3727,517],[0,44],[-6,73],[0,35],[-19,47],[-5,6],[70,1],[14,-34],[46,0],[-3,100],[14,7],[-2,65],[2,5],[25,2],[1,29],[9,4]],[[3835,925],[0,-24],[38,0]],[[3727,517],[-30,-1],[-1,83],[-15,21],[-79,-7],[-12,1],[-2,107],[-4,0],[-2,71],[-6,0],[-3,136],[3,5],[40,4],[62,1],[155,-15],[2,2]],[[3493,2169],[-32,53],[-93,163],[-20,33]],[[3348,2418],[2,1]],[[3825,1413],[0,-93],[113,4],[8,-211],[-115,-2],[4,-186]],[[3954,481],[4,-214],[120,-259],[-3,-8],[-28,4],[-24,14],[-20,-1],[-20,-7],[-38,1],[-21,-8],[-22,8],[-23,3],[-17,14],[-7,12],[-15,11],[-22,4],[-60,-6],[-5,24],[-14,27],[-16,18],[-7,13],[-13,6],[-25,0],[-20,7],[-6,17],[9,37],[-18,11],[-11,17],[-37,-15],[-30,-21],[-17,-27],[-18,2],[-14,35],[-25,6],[-14,-3],[-24,-11],[-29,-20],[-16,-2],[-28,22],[-10,-27],[2,-25],[8,-21],[-5,-6],[-30,-7],[-78,3],[-2,17],[1,38],[-1,26],[-28,27],[-19,10],[-8,13],[-16,17],[-46,-14],[-27,2]],[[3432,2132],[-75,128],[-72,124],[63,34]],[[1253,3358],[183,37],[582,125],[351,76],[467,100],[560,119]],[[3031,3043],[-16,4],[-28,24],[-31,7],[-16,18],[-23,-8],[-32,6],[-6,-4],[-15,-33],[-20,-5],[-19,12],[-19,3],[-21,-13],[-3,-18],[-17,9],[-17,-7],[-6,-11],[-22,2],[-6,-12],[-15,-2],[-10,-14],[-8,-23],[16,-30],[51,-83],[29,-53],[47,-75],[-52,-81],[-59,-89]]],"transform":{"scale":[0.00007532646370023566,0.00006933383345836392],"translate":[-90.96375500000002,29.889182]},"objects":{"Geometry\\22-093":{"type":"GeometryCollection","geometries":[{"arcs":[[0,1,2,3,4,5]],"type":"Polygon","properties":{"GEOID":"220930406002"}},{"arcs":[[6,7,8,-1,9,10]],"type":"Polygon","properties":{"GEOID":"220930403001"}},{"arcs":[[11,-5,12,13,14]],"type":"Polygon","properties":{"GEOID":"220930405001"}},{"arcs":[[15,16,17,18,19]],"type":"Polygon","properties":{"GEOID":"220930401002"}},{"arcs":[[-18,20,21]],"type":"Polygon","properties":{"GEOID":"220930401001"}},{"arcs":[[-21,22,23,24]],"type":"Polygon","properties":{"GEOID":"220930402001"}},{"arcs":[[25,26,-23,-17,27,28,-8]],"type":"Polygon","properties":{"GEOID":"220930402004"}},{"arcs":[[29,30]],"type":"Polygon","properties":{"GEOID":"220930403002"}},{"arcs":[[31,32,33]],"type":"Polygon","properties":{"GEOID":"220930404001"}},{"arcs":[[34,-30,35,-10,-6,36]],"type":"Polygon","properties":{"GEOID":"220930404003"}},{"arcs":[[-33,37,-15,38]],"type":"Polygon","properties":{"GEOID":"220930405002"}},{"arcs":[[-9,-29,39,-2]],"type":"Polygon","properties":{"GEOID":"220930406001"}},{"arcs":[[40,41,42]],"type":"Polygon","properties":{"GEOID":"220930407001"}},{"arcs":[[43,-43,44]],"type":"Polygon","properties":{"GEOID":"220930407002"}},{"arcs":[[-24,-27,45,46]],"type":"Polygon","properties":{"GEOID":"220930402002"}},{"arcs":[[-4,47,-45,-42,48,-13]],"type":"Polygon","properties":{"GEOID":"220930407003"}},{"arcs":[[-46,-26,-7,49]],"type":"Polygon","properties":{"GEOID":"220930402003"}},{"arcs":[[50,-20,51,-37,-12,-38,-32]],"type":"Polygon","properties":{"GEOID":"220930404002"}},{"arcs":[[-19,-22,-25,-47,-50,-11,-36,-31,-35,-52]],"type":"Polygon","properties":{"GEOID":"220930403003"}}]}}}