{"type":"Topology","arcs":[[[6062,3892],[169,25],[43,7],[271,40],[31,5],[147,22],[19,3],[137,20]],[[6879,4014],[-16,-47],[-11,-56],[-13,-31],[-1,-9],[11,-39],[44,-145],[40,-130],[2,-13],[-22,-106],[-5,-32],[-7,-60],[-8,-43],[2,-17],[23,-100],[17,-64],[69,12],[51,4],[58,8],[91,17],[16,0]],[[7220,3163],[17,-5],[60,-32],[74,-41],[51,-27],[64,-38],[10,-8],[103,-94],[13,-12],[-39,-1],[-75,-12],[-32,-9],[-44,-15],[-14,-7],[-4,-7],[-14,-37],[-42,-133],[-11,-23],[-73,-103],[-71,-103],[-84,-117]],[[7109,2339],[-32,-5],[-6,30],[-9,15],[0,8],[9,9],[-2,10],[-20,16],[-16,17],[-19,5],[-21,-7],[-32,3],[-12,5],[-15,17],[-21,18],[-10,28],[-18,13],[-6,15],[-31,15],[-22,3],[-21,11],[-5,5],[-17,3],[-24,-17],[-26,6],[-16,-10],[-14,-13],[-9,-2],[-31,4],[0,-20],[5,-9],[39,-3],[16,-6],[7,-24],[15,-29],[-7,-18],[-13,-9],[-16,-1],[-4,7],[-15,5],[-1,-19],[-21,-20],[-8,-4],[-4,-15],[-11,-23],[19,-85],[-15,-3],[-132,-18],[-60,-14]],[[6457,2233],[-1,10],[-15,66],[-41,174],[-39,162],[-28,119],[-54,228],[-30,130]],[[6249,3122],[-58,237],[-15,64],[-71,290],[-13,58],[-25,100],[-5,21]],[[1092,4841],[170,24],[40,7],[139,21],[14,1]],[[1455,4894],[49,9],[66,10],[74,13],[84,13],[29,5],[129,19],[492,64],[423,55]],[[2801,5082],[55,-239],[13,-60],[70,-301],[18,-80],[43,-185],[22,-97],[70,-309],[57,-262],[23,-103]],[[3172,3446],[-422,-65],[-64,-10]],[[2686,3371],[-324,-53],[-195,-32],[-65,-11]],[[2102,3275],[12,31],[23,26],[20,18],[54,93],[-21,3],[-194,-7],[-1,17],[-5,44],[-4,4],[-13,68],[-8,57],[-8,50],[-7,58],[-8,50],[-10,38],[-14,37],[-47,74],[-16,13],[-162,221],[-212,279],[-139,177],[-14,13],[-20,2],[-27,14],[-23,19],[-5,10],[-36,32],[-30,25],[-7,15],[-8,8],[-15,2],[-15,12],[-5,10],[-2,21],[-25,8],[-18,24]],[[4464,1938],[542,82],[62,10],[449,67],[265,41],[48,6],[126,19],[253,37],[169,26],[79,7]],[[6457,2233],[-3,-127],[-1,-86],[-6,-262]],[[6447,1758],[-5,-255],[-2,-117],[-4,-154],[1,-22],[-11,5],[-15,-2],[-10,8],[-21,-5],[-12,-13],[-14,-3],[4,-27],[50,-312],[3,-25],[-8,-138]],[[6403,698],[-186,-36],[-113,-23],[-108,-21],[-200,-39],[-30,-9],[-193,-38],[-228,-44],[-40,-8],[-378,-74],[-132,-26]],[[4795,380],[-8,36],[-110,518],[-14,64],[-82,387],[-27,129],[-14,65],[-76,359]],[[1211,3136],[299,48]],[[1510,3184],[123,19],[95,16],[38,6],[336,50]],[[2686,3371],[77,-273],[126,-443],[118,-414],[36,-127],[19,-63],[12,-47],[107,16],[127,18],[5,-18],[22,-85],[43,-165]],[[3378,1770],[-369,-57],[-242,-37],[-319,-46]],[[2448,1630],[-166,-25],[-356,-51],[-122,-17],[-76,-12],[-282,-41],[-83,430],[-28,142],[-28,147],[-31,158],[-39,202],[-109,561],[83,12]],[[1081,3690],[63,-12],[8,4],[27,26],[6,-18],[58,18],[69,25],[11,-5],[39,-54],[17,-33],[46,-44],[157,-153],[21,-11],[-3,-8],[-57,-154],[-33,-87]],[[1211,3136],[-46,198],[-40,171],[-19,78],[-25,107]],[[8081,4208],[333,53]],[[8414,4261],[15,-28],[24,-28],[13,-11],[21,-11],[38,-5],[7,-6],[5,-18],[-6,-15],[6,-20],[21,-11],[10,-17],[7,-23],[-5,-22],[2,-28],[5,-9],[26,-14],[15,-4],[13,1],[7,9],[15,8],[16,2],[18,-5],[18,-14],[20,-7],[15,-10],[30,-6],[29,-24],[23,-13],[24,-4],[8,1]],[[8854,3929],[4,-28],[-29,-30],[-56,-40],[-22,38],[-6,-4],[-165,-123],[-15,-11],[36,-33],[145,-126],[47,-41],[71,-63],[30,-29]],[[8894,3439],[-17,-17],[-76,-84]],[[8801,3338],[-94,54],[-62,-75],[-27,16],[-21,-23],[-19,11],[-11,-12],[-17,9],[11,13],[-68,37],[-10,-11],[-44,25],[17,19],[-63,36],[-48,-55],[-27,15],[-64,36]],[[8254,3433],[-3,15]],[[8251,3448],[-39,179],[-100,442],[-11,52],[-20,87]],[[4185,3268],[29,-3],[52,-9],[23,-10],[97,-45],[23,-11],[118,-71],[139,-82],[51,-24],[50,-21],[135,-53],[56,-25],[60,10],[14,6],[152,76],[22,8],[14,3],[166,25],[177,21],[112,16],[144,19],[92,15],[100,14],[95,15],[30,3],[21,-3],[92,-20]],[[4464,1938],[-18,82],[0,9],[-25,121],[-43,199],[-64,310],[-57,269],[-107,-15],[-20,98],[106,16],[-36,173],[-15,68]],[[7109,2339],[36,6],[421,63],[195,31],[69,11],[63,9],[168,25]],[[8061,2484],[18,-17],[24,-37],[25,-52],[10,-18],[15,-19],[19,-20],[91,-93],[9,-9],[97,-99],[35,-21],[-40,-24],[-19,-15],[-23,-26],[-13,-22],[-10,-35],[-3,-54]],[[8296,1923],[-108,14],[-37,3],[-62,3],[-54,7]],[[8035,1950],[-95,12],[-44,4],[-90,6],[-29,3],[-155,25],[-101,13],[-83,8],[-66,9],[-69,7],[-39,-1],[-53,-11],[-57,-9],[-107,-16],[-18,-2],[-83,-6],[-34,-6],[-50,-15],[-50,-22],[-49,-37],[-22,-13],[-81,-32],[-26,-15],[-54,-42],[-25,-17],[-21,-9],[-87,-26]],[[10456,2356],[183,249]],[[10639,2605],[66,87],[144,199],[70,96]],[[10919,2987],[75,105],[59,84]],[[11053,3176],[42,-27],[57,-28],[69,-46],[-16,-20],[-71,-101],[-7,-19],[35,-1],[25,-8],[44,-34],[10,-14],[3,-33],[14,-23],[18,-19],[39,-27],[11,-23],[8,-32],[25,-36],[54,-38],[12,-13],[54,-153],[48,-145],[66,-33],[11,-12],[17,-84],[8,-14],[23,-12],[53,-61],[34,-41],[25,-46],[3,-9],[-4,-28],[2,-14],[34,-73],[19,-43],[5,-17],[9,-56],[0,-15],[-8,-5]],[[11824,1773],[-9,11],[-17,24],[-24,26],[-118,77],[-63,38],[-71,47],[-36,21],[-154,77],[-42,20],[-28,9],[-30,4],[-24,-1],[-105,-14],[-53,-7],[-24,-1],[-30,2],[-35,7],[-44,15],[-71,35],[-49,25],[-51,24],[-51,27],[-191,94],[-48,23]],[[11053,3176],[87,126],[235,-119],[126,-63],[114,-58],[217,-108],[66,-32],[124,-63],[407,-202],[-3,-21],[9,-50],[-6,-56],[14,-20],[-9,-19],[-30,-36],[-29,-20],[-20,-36],[-23,-22],[-28,-15],[-41,-20],[-26,-21],[-37,-21],[-51,-33],[-8,-8],[-52,-88],[-22,-37],[24,-114],[14,-59],[-80,-114]],[[12025,1847],[-122,-175],[-3,-5]],[[11900,1667],[-8,33],[-6,14],[-14,17],[-48,42]],[[10700,3363],[48,27],[11,10],[13,21],[45,48],[22,17],[19,8],[66,7],[57,7],[82,14],[57,14],[54,3],[48,6],[33,-4],[32,-9],[18,-8],[25,-14],[38,-24],[51,-38],[33,-27],[39,-38],[29,-43],[13,-15],[29,-18],[42,-15],[121,-27],[122,-27],[72,-16],[32,-14],[81,-55],[34,-18],[193,-98],[42,-22],[26,-18],[22,-20],[55,-52],[63,-58],[10,-10],[24,-15],[124,-42],[36,-4],[25,6],[22,9],[59,28],[35,11],[27,5]],[[12829,2855],[22,-92],[49,-207],[94,-400],[33,-136],[5,-25]],[[13032,1995],[-402,-59],[-605,-89]],[[10919,2987],[-92,48],[57,26],[-136,225],[-48,77]],[[1081,3690],[-43,183],[-68,287],[-57,241],[-50,177],[-47,222]],[[816,4800],[102,15],[174,26]],[[5302,7248],[230,33],[116,17],[148,22],[647,103],[24,3]],[[6467,7426],[9,-45],[119,-543],[20,-96],[36,-162],[32,-149],[21,-98],[21,-92],[57,-266],[6,-24],[30,-143],[21,-95]],[[6839,5713],[-91,-15],[-80,-12],[-539,-85]],[[6129,5601],[-26,30],[-3,8],[-31,124],[-7,10],[-107,110],[-62,50],[-68,58],[-107,99],[-67,62],[-8,6],[-56,27],[-24,24],[-13,7],[-37,11],[-16,2],[-54,4],[-13,26],[-6,31],[1,12],[13,59],[7,35],[29,105],[7,11],[74,65],[-51,48],[-12,14],[-9,16],[-106,273],[-21,78],[-39,164],[-15,78]],[[8061,2484],[116,18],[272,41]],[[8449,2543],[160,25],[136,22],[30,4],[133,21],[268,40],[129,-73]],[[9305,2582],[-18,-18],[-5,-2],[-148,-91],[-119,-73],[-38,-21],[-94,-61],[-22,-26],[-44,-65],[-8,-16],[-21,-32],[-15,-11],[-51,-37],[-30,-21],[-123,-72],[-15,-11],[-24,-19],[-24,-12]],[[8506,1994],[-32,-15],[-21,-18],[-24,-41],[-38,1],[-95,2]],[[9319,3044],[28,-16],[28,16],[-5,7],[-6,24]],[[9364,3075],[97,-58],[14,-18]],[[9475,2999],[-2,0]],[[9473,2999],[-96,-7]],[[9377,2992],[-12,0],[-101,-14]],[[9264,2978],[55,66]],[[10731,3834],[37,28],[10,10],[42,27],[40,30],[23,20],[58,46],[43,28],[50,24],[20,11],[31,23],[20,28],[8,17],[8,31],[3,25],[3,55]],[[11127,4237],[82,-41],[266,-138],[198,-101],[136,-69],[89,-44],[232,-118],[489,-250],[331,-170]],[[12950,3306],[-174,-227],[53,-224]],[[10700,3363],[-10,17]],[[10690,3380],[14,6],[17,14],[11,22],[1,12],[-3,21],[-7,21],[-11,21],[-23,26],[-20,19],[-9,12],[-3,14],[-3,44],[5,42],[7,38],[1,23],[18,40],[35,64],[11,15]],[[17870,18172],[40,-132],[73,-244],[17,-55],[18,-50],[88,-292],[68,-226],[24,-75],[23,-76],[91,-301],[37,-121],[-318,-55],[-62,-9],[-250,-40]],[[17719,16496],[-87,-14],[-219,-36],[-286,-47],[-84,-13],[-84,-14],[-80,-15],[-259,-47],[-20,-4],[-209,-40],[-241,-44]],[[16150,16222],[2,12],[-4,21],[17,36],[14,17],[12,6],[16,22],[23,27],[9,22],[-6,21],[-18,33],[-1,27],[-4,6],[4,20],[6,10],[-4,39],[-17,20],[2,4],[-22,44],[-2,15],[-15,26],[-2,15],[5,11],[-1,47],[-12,32],[-25,29],[-9,14],[-25,68],[-9,63],[-6,21],[-7,12],[-8,26],[-3,25],[-9,29],[-2,22],[-7,13],[-19,14],[-33,32],[-19,36],[-43,29],[-57,44],[-16,22],[-11,33],[-22,17],[-15,16],[-36,29],[-19,20],[-3,9],[-31,38],[-13,20],[-26,23],[-22,10],[-24,7],[-28,19],[-17,15],[-43,25],[-11,13],[-8,17],[-17,24],[-15,15],[-43,33],[-34,21],[-7,9],[-22,15]],[[15388,17682],[-7,17],[-7,4]],[[15374,17703],[207,38],[661,120],[68,12],[153,27],[354,63],[135,24],[204,42],[471,95],[243,48]],[[9580,3136],[11,-46],[16,2],[10,-40]],[[9617,3052],[-31,-15]],[[9586,3037],[-30,-14],[-14,34],[-5,23],[-22,-4],[-2,9]],[[9513,3085],[-8,39],[75,12]],[[5149,3752],[408,63],[164,26],[111,17],[230,34]],[[4185,3268],[-69,322]],[[4116,3590],[238,38],[431,66],[364,58]],[[9178,3663],[56,37],[50,35],[167,113]],[[9451,3848],[-11,-106],[38,-99],[7,-22],[45,-198],[0,-8],[15,-56]],[[9545,3359],[-38,-14],[-20,-4],[-44,-3]],[[9443,3338],[-165,204],[-34,40],[-34,42],[-32,39]],[[9972,2791],[-70,-3],[-59,1]],[[9843,2789],[6,27],[-27,13],[-13,15],[-41,67],[-27,46]],[[9741,2957],[22,13],[103,46],[34,-57],[3,-10],[-5,-29],[-10,-22],[17,-7],[20,-20],[47,-80]],[[10686,3874],[45,-40]],[[10690,3380],[-15,-2],[-66,-1],[-56,-7],[-37,1],[-39,0],[-76,-6],[-37,-5]],[[10364,3360],[-5,27],[2,13],[-9,39]],[[10352,3439],[159,197],[30,30],[7,10],[20,36],[15,39],[13,20],[70,60],[8,13],[12,30]],[[6879,4014],[28,4],[290,47]],[[7197,4065],[177,30],[42,9],[133,19],[152,22],[74,12],[64,13],[64,10],[178,28]],[[8251,3448],[-22,-93],[-86,47],[-11,2],[-132,-10],[-79,-6],[-36,1],[-119,22],[-102,17],[-94,20],[-71,-61],[-81,-66],[-95,-76],[-66,-54],[-37,-28]],[[10329,4186],[71,-62]],[[10400,4124],[256,-224],[30,-26]],[[10352,3439],[-5,7],[-43,208],[-54,-9],[-52,234]],[[10198,3879],[-30,139],[161,168]],[[11122,4562],[22,41]],[[11144,4603],[68,-23],[39,-33],[28,-20],[18,-12]],[[11297,4515],[-6,-8],[-51,-79],[-12,-16],[-7,-18],[-17,-20],[-13,-23],[-30,-41],[-22,-35],[-12,-38]],[[10686,3874],[37,85],[7,11],[67,79],[34,45],[67,100],[51,84],[38,74],[32,63],[37,53],[57,78],[9,16]],[[10762,5023],[213,-56],[8,17]],[[10983,4984],[56,-44],[21,-40],[-1,-41],[-18,-33],[-11,-8],[7,-19],[4,-48],[5,-19],[25,-39],[59,-84],[14,-6]],[[11122,4562],[-101,24],[-9,3],[-65,32],[-40,17],[-57,22],[-68,17]],[[10782,4677],[29,77],[5,20],[7,48],[-1,33],[-8,43],[-15,44],[-37,81]],[[9176,4894],[11,-39],[0,-17],[11,-3],[21,3],[20,-2],[11,-6],[10,5],[6,9],[-9,9],[-12,37],[10,12],[632,115],[87,15],[258,48],[85,15],[142,27],[-8,-19],[34,-9],[171,-45],[106,-26]],[[10782,4677],[-76,-198],[-12,-27],[-19,-29],[-82,-120],[-47,-65],[-20,-23],[-39,-35],[-23,-15],[-64,-41]],[[10329,4186],[-132,115],[-96,84],[-105,90],[-49,24],[-45,-8],[-38,-4],[-258,-39],[-303,-46],[-10,-2]],[[9293,4400],[-59,-10],[-114,-18]],[[9120,4372],[-6,29],[-22,94],[-62,254],[-14,60],[-17,72],[9,9],[9,-11],[13,3],[8,12],[39,11],[18,1],[8,14],[13,9],[26,1],[5,-11],[16,-9],[4,-14],[9,-2]],[[11451,5650],[34,-4],[14,-5],[13,9],[29,12],[13,9],[-30,23],[-8,10]],[[11516,5704],[39,-30],[24,-30],[9,-19],[15,-13]],[[11603,5612],[13,-17],[22,-13],[14,-14],[40,-17],[14,-14],[5,-13],[-1,-9],[-10,-10],[-28,-13],[-28,-21],[-8,-15]],[[11636,5456],[-26,27],[-19,36],[-11,33],[-7,9],[-21,-22],[-34,-14]],[[11518,5525],[-31,-9],[-125,-23],[-19,-4]],[[11343,5489],[7,8],[119,95],[39,30],[-33,18],[-24,4],[0,6]],[[11549,5392],[-11,64],[-10,49],[-10,20]],[[11636,5456],[-8,-25],[5,-21],[20,-30],[26,-22],[27,-25]],[[11706,5333],[43,-34],[30,-32],[12,-21],[6,-26],[-5,-24],[-11,-12],[-15,-11],[-31,-17],[-33,-27],[-16,-18],[-10,-18],[-8,-27],[-3,-18],[1,-26],[4,-19],[14,-50]],[[11684,4953],[-83,-15],[-103,-17]],[[11498,4921],[19,16],[98,90],[12,12],[12,25],[15,76],[10,56],[-1,10],[-18,38],[-52,114],[-36,-6],[-8,40]],[[11273,5437],[22,-20],[15,-1],[30,6],[6,-22],[5,-3],[37,7],[10,-4],[12,3],[9,-32],[130,21]],[[11498,4921],[-113,-18],[-12,-3],[-25,97]],[[11348,4997],[-28,115],[-82,-13]],[[11238,5099],[13,4],[4,11],[-6,28],[-28,202],[-20,2],[-15,7],[-10,9],[97,75]],[[11297,4515],[16,21],[29,32],[53,50],[77,44],[15,7],[22,21],[23,24],[44,40],[31,29],[30,38],[37,62],[9,30],[3,20],[-2,20]],[[11706,5333],[15,1],[49,9],[101,16],[27,6],[212,35],[124,20],[110,18],[110,18],[182,30],[137,23],[96,17],[212,35],[314,49],[104,17],[309,48],[124,21],[3,0],[121,19]],[[14056,5715],[8,-36],[101,-463],[28,-132],[89,-415],[50,-217],[31,-133]],[[14363,4319],[-431,-59],[-281,-39],[-139,-183],[-299,-389],[-263,-343]],[[14363,4319],[5,-27],[34,-145],[112,-502],[58,-255],[27,-119],[59,-270],[84,-396],[73,-338],[-266,-40],[-104,-16],[-504,-77],[-292,-45],[-227,-34],[-219,-35],[-171,-25]],[[9545,3359],[41,16],[66,24],[51,20]],[[9703,3419],[-45,-63],[-25,-40],[10,-5],[20,-84]],[[9663,3227],[-18,-6],[16,-71]],[[9661,3150],[-81,-14]],[[9580,3136],[-10,44],[-20,93],[-2,12],[-32,-5],[-12,8],[-13,-9],[-48,59]],[[9513,3085],[-21,-8],[-13,-13],[-36,25],[-29,18],[-18,21]],[[9396,3128],[3,16],[-9,24],[-13,12],[-24,17],[-7,17],[-15,9],[-29,0],[-73,29]],[[9229,3252],[21,19],[17,9],[92,45],[30,10],[20,2],[34,1]],[[9152,3139],[49,63],[18,34],[10,16]],[[9396,3128],[-3,-10],[6,-15],[12,-9],[10,-14],[39,-36],[23,-14],[11,-3],[3,-26],[-22,-2]],[[9364,3075],[-7,47],[-17,16],[-38,14],[-21,7],[-11,-26],[-24,-47]],[[9246,3086],[-49,29]],[[9197,3115],[-45,24]],[[9661,3150],[98,16],[10,-48]],[[9769,3118],[-51,-23],[-14,-5],[-87,-38]],[[9663,3227],[62,24],[23,9],[59,32],[160,89],[16,6],[42,12],[16,-74],[8,-59],[-6,-27]],[[10043,3239],[-16,-16],[-22,-14],[-23,-9],[-34,-10],[-50,-13],[-29,-12],[-100,-47]],[[9541,2653],[29,51],[36,51],[27,34],[25,35],[12,21],[9,48],[-9,23]],[[9670,2916],[1,-1]],[[9671,2915],[88,-140]],[[9759,2775],[51,-82],[22,-24],[16,-7]],[[9848,2662],[-7,-14],[-23,-19],[-19,-7],[-171,-45],[-30,-7],[-22,-9],[-12,-8],[-17,-22],[-70,-181],[-23,12],[-72,39]],[[9382,2401],[6,61],[22,39],[77,80],[30,38],[24,34]],[[9759,2775],[35,13],[49,1]],[[9972,2791],[23,1],[143,1],[106,2],[19,-5],[156,-75],[110,-55],[110,-55]],[[10456,2356],[-87,43],[-113,55],[-135,70],[-60,30],[-75,35],[-17,12],[-121,61]],[[10594,19306],[31,1],[98,-3],[94,0],[153,-4],[136,-3]],[[11106,19297],[14,-56],[56,-222],[4,-33],[9,-34],[-19,-19],[-15,-27],[-4,-13],[-1,-27],[6,-28],[-1,-15],[-26,-32],[-9,-8],[-30,-18],[-26,-18],[-13,-14],[-7,-17]],[[11044,18716],[-29,24],[-18,5],[-22,3],[-16,10],[-21,18],[-14,27],[-35,42],[-38,29],[-2,7],[-27,24],[-15,16],[-1,12],[-7,21],[-16,26],[-18,24],[-19,4],[-26,15],[-25,26],[-17,11],[-23,13],[-39,36],[-12,6],[-1,19],[3,26],[-15,21],[-16,17]],[[10575,19198],[-7,27],[0,14],[5,12],[10,8],[-3,8],[10,5],[6,14],[-2,20]],[[10983,4984],[37,78],[218,37]],[[11348,4997],[-11,-4],[-14,-18],[-30,-2],[4,-34],[-4,-20],[-7,-15],[-2,-16],[2,-16],[-31,-3],[-39,-7],[1,-11],[-5,-7],[-56,-7],[-2,-19],[-14,-10],[-28,-14],[-11,-13],[12,-29],[51,-110]],[[11164,4642],[-20,-39]],[[11273,5437],[26,20]],[[11299,5457],[33,25],[11,7]],[[17870,18172],[-43,125],[173,35],[75,16],[490,97],[214,42],[282,56],[70,13],[141,28],[69,15],[467,90],[64,11],[162,29],[69,10],[121,22],[226,39],[223,46],[137,30],[105,21],[363,74],[80,-282],[2,0],[14,-52],[63,-239],[15,-53],[31,-118],[26,-95],[9,-29],[23,-91],[12,-40],[36,-146],[20,-70],[7,-24],[27,-93],[6,-24],[38,-140],[21,-77],[25,-91],[57,-212],[31,-111],[62,-243],[32,-119],[28,-112],[23,-84],[36,-138],[67,-252],[9,-43],[47,-158],[24,-86],[39,-135],[76,-274],[82,-282],[32,-114],[48,-171],[78,-289],[77,-316],[39,-155],[17,-73],[8,-27],[69,-277],[30,-125],[-145,-26],[23,-87],[16,-54],[47,-174],[13,-45],[77,-275],[34,-129],[42,-154],[46,-162],[17,-62],[28,-99],[14,-54],[14,-52],[42,-155],[28,-99],[-241,-39],[-125,-20],[-45,-8],[-163,-25],[-104,-17],[-82,-12],[-79,-14],[-132,-21],[-51,2],[-64,-8],[-161,-23],[-161,-22],[-135,-19],[-332,-65],[-94,-12],[-191,-25],[-91,-11],[-171,-23],[-292,-38],[-150,-20],[-3,-2],[-124,-16],[-173,-28],[-79,-12],[-359,-56],[-231,-36],[-87,-15]],[[19120,11299],[-67,246],[-36,144],[-12,43],[-37,60],[-15,68],[-62,249],[-10,42],[-59,233],[-24,93],[-40,163],[-84,320],[-10,40],[-24,81],[-47,166],[-35,125],[-23,83],[-35,125],[-11,42],[-36,123],[-40,143],[-10,31],[-34,128],[-46,174],[-20,72],[-15,58],[-49,182],[-46,167],[-59,204],[-69,251],[-60,217],[-8,28],[-15,64],[-63,256],[-36,144],[-33,135],[-18,71],[-33,133],[-27,105],[-11,33],[-15,51],[-27,104]],[[9229,3252],[-11,4],[-41,23],[-25,20],[-28,31],[-27,18],[-12,14],[-28,16],[-26,38],[-19,15],[-22,5],[-31,12],[-21,19]],[[8938,3467],[70,46],[29,25],[50,57],[28,24],[63,44]],[[8894,3439],[44,28]],[[9152,3139],[-38,-43],[-56,-49],[-17,-22],[-14,-32],[-15,-49]],[[9012,2944],[-46,-6]],[[8966,2938],[-8,22],[-19,14],[5,15],[-2,17],[-7,34],[32,9],[6,-1],[31,38],[15,-7],[14,5],[16,21],[5,13],[-10,15],[-61,38],[13,16],[29,25],[-159,90],[-65,36]],[[13362,17438],[166,32],[243,47],[161,32],[269,51],[248,48],[353,66],[49,9],[155,30],[15,-12],[12,-1],[9,-7],[26,10],[11,-2],[24,4],[15,-4],[12,-10],[20,-9],[44,-12],[7,-7],[40,-17],[31,-10],[25,-12],[50,-17]],[[15347,17647],[26,-15],[9,-10],[24,3],[17,-9],[10,-11],[25,-33],[39,-55],[18,-17],[48,-31],[43,-23],[38,-27],[22,-20],[17,-21],[20,-16],[22,-26],[21,-20],[18,-6],[11,-17],[31,-30],[22,-26],[3,-10],[13,-23],[15,-17],[24,-20],[36,-21],[11,-15],[6,-17],[18,-22],[17,-43],[11,-18],[2,-12],[16,-18],[26,-19],[20,-41],[14,-23],[4,-21],[-2,-12],[3,-20],[15,-36],[10,-17],[0,-9],[28,-35],[6,-18],[3,-34],[11,-37],[2,-20],[10,-44],[26,-55],[14,-32],[2,-20],[-14,-27],[-3,-15],[3,-25],[21,-62],[-1,-13],[-12,-14],[-19,-15],[-7,0],[-20,-11],[-18,-26],[-25,-13],[-22,-19],[-13,-19],[-23,-21],[-18,-40],[3,-42],[-1,-11],[-11,-17],[-12,-6],[-18,-1],[-24,-7],[-44,-19],[-61,-37],[-32,-18],[-18,-17],[-9,-22],[-2,-27],[-12,-28],[-42,-11],[-16,-6],[-15,-10],[-31,-13],[-20,-15],[-13,-21],[-7,-21],[-16,-32],[-4,-30],[-8,-18],[-15,-14],[-17,-6],[-6,-14],[-15,-22],[-16,-14],[-30,-17],[-38,-15],[-42,-23],[-25,-24],[-11,-7],[-20,-19],[-65,-35],[-38,-18],[-13,-9],[-16,-4],[-26,-15],[-47,-58],[-37,-22],[-23,-10],[-9,3],[-7,-9],[-15,-9],[-13,-14],[-28,-18],[-38,-17],[-17,-10],[-21,-18],[-28,-32],[-25,-35],[-26,-31],[-15,-13],[-4,-8],[-38,-33],[-32,-13],[-33,-7],[-31,-12],[-17,-13],[-30,-16],[-9,-12],[-6,0],[-9,-12],[-21,-15],[-8,-2],[-26,-20],[-11,-13],[-25,-17],[-41,-21],[-22,-7],[-17,-13],[-36,-15],[-15,1],[-23,-19],[-9,-12],[-30,-22],[-34,-18],[-15,-11],[-6,-8],[-18,-10],[-13,-16],[-41,-34],[-53,-34],[-37,-15],[-18,-15],[-13,-7],[-13,-20],[-5,-27],[-7,-2],[-3,-13],[-33,-28],[-28,-33],[-5,-11],[-21,-36],[-12,-25],[-1,-15],[-14,-28],[-16,-54],[-12,-21],[-3,-19],[-10,-19],[-3,-21],[-4,-10],[27,-41],[0,-30],[-3,-15],[-11,-21],[-18,-18],[-25,-44],[-26,-16],[-24,-35],[-18,-9],[-13,6],[-13,-4],[-6,-8],[-30,-25],[-14,-2],[-37,11],[-3,9],[-13,10],[-15,6],[-29,-3],[-2,7],[11,17],[-3,18],[8,11],[-1,9],[-14,9],[-12,22],[-4,-1],[11,-22],[18,-10],[-11,-17],[4,-14],[-11,-27],[10,-12],[1,-7],[-28,-2],[-55,-18],[-30,-13],[-22,-6],[-49,-19],[-22,-12],[-20,-23],[-6,-11],[-13,-10],[-12,-14],[-17,-10],[-63,-28],[-45,-29],[-13,-10],[-15,-19],[-16,-11],[-28,-28],[-10,-20],[-23,-24],[-30,-41]],[[13152,13765],[-85,-15],[-128,-24],[-216,-38],[-86,-15],[-215,-40],[-126,-21],[-76,-15],[3,64],[3,128],[5,4],[2,88],[0,11],[9,17],[10,8],[24,6],[1,6],[-25,14],[-17,23],[-3,29],[0,45],[3,66],[5,30],[5,18],[44,131],[53,155],[8,24],[28,82],[91,266],[9,27],[13,64],[4,64],[-6,79],[-3,24],[-24,213],[-7,70],[1,55],[5,34],[5,20],[18,52],[16,31],[177,35],[93,19],[-9,34],[268,36],[120,15],[180,23],[59,7],[239,31],[89,11],[104,21],[-48,173],[-26,99],[-62,227],[-8,33],[-32,114],[-28,97],[-64,235],[-28,99],[-29,103],[-39,141],[-39,142],[-39,138],[-16,60]],[[11584,10966],[63,13],[72,13],[126,25],[53,10],[292,58],[25,5],[326,65],[274,55],[278,55]],[[13093,11265],[0,-159],[1,-250],[0,-99],[0,-197],[0,-199],[79,-361],[17,-83],[10,-41],[28,-132],[6,-34],[47,-212],[23,-104],[1,-10],[33,-148],[10,-52],[7,-19],[28,-145],[21,-109],[20,-104],[94,-489],[23,-119],[23,-118],[30,-191],[36,-224],[13,-83],[9,-52]],[[13652,7531],[-126,-20],[-481,-81],[-113,-19],[-384,-64],[-302,-51],[-64,-10],[-270,-44],[-27,-6],[-241,-40],[-82,-13]],[[11562,7183],[-22,43],[-13,18],[-14,25],[-11,17],[-24,40],[-12,10],[-21,36],[-8,18],[-73,92],[-39,64],[-13,42],[-3,20],[10,66],[11,29],[25,52],[11,31],[4,23],[0,25],[5,31],[18,63],[3,36],[-4,39],[0,15],[8,26],[-2,24],[-9,22],[-20,22],[-16,24],[-4,16],[-29,60],[-1,27],[13,6],[19,0],[14,4],[68,47],[24,12],[34,25],[11,20],[2,13],[-8,32],[-12,20],[-41,42],[-23,14],[-18,26],[-8,48],[-9,23],[2,12],[14,10],[41,0],[13,3],[32,3],[17,-1],[16,7],[6,11],[28,7],[6,13],[27,13],[14,10],[4,33],[-24,15],[-7,11],[-1,15],[6,30],[9,16],[19,20],[12,19],[4,17],[-4,5],[6,18],[10,16],[13,36],[0,12],[8,16],[3,28],[-3,5],[15,11],[15,7],[47,3],[32,-4],[26,-16],[47,-57],[33,-21],[15,-4],[10,-10],[8,4],[1,13],[49,18],[17,9],[22,16],[11,16],[17,36],[30,57],[27,59],[-2,13],[-18,32],[-5,26],[-9,18],[-1,15],[12,25],[0,26],[-5,23],[-7,14],[-18,28],[-7,16],[-11,7],[-28,1],[-20,11],[3,13],[0,15],[5,13],[21,32],[13,36],[9,13],[24,20],[9,26],[-5,24],[-21,30],[-15,17],[-13,26],[-19,29],[-12,15],[-11,18],[-49,48],[-31,22],[-17,14],[-5,21],[-14,45],[-33,28],[-35,22],[1,28],[22,21],[38,73],[24,21],[20,28],[10,20],[4,30],[-1,18],[3,41],[7,12],[22,21],[14,28],[1,9],[11,19],[18,13],[10,15],[21,18],[33,20],[6,20],[7,8],[8,26],[1,15],[9,29],[1,29],[-3,30],[2,20],[10,23],[1,35],[-15,36],[-17,22],[-27,13],[-25,14],[-24,9],[-25,5],[-23,13],[0,5],[-18,21],[-32,32],[-50,24],[-37,10],[-17,2],[-26,10],[-33,20],[-25,21],[-11,23],[-7,4],[-31,44],[-5,13],[3,9],[-10,20],[-15,14],[-9,22]],[[19120,11299],[-107,-15],[-134,-19],[-174,-26],[-372,-55],[-333,-48],[-300,-46],[-495,-75],[-87,-13]],[[17118,11002],[-140,-22],[-35,150],[-25,107],[-72,308],[-31,121],[-23,87],[-23,88],[-78,305],[-46,175],[-22,87],[-31,117],[-9,35],[-27,102],[-46,177]],[[16510,12839],[-35,130],[-35,136],[-17,69],[-66,248],[-19,73],[-68,262]],[[16270,13757],[-33,129],[-49,173],[-72,262],[-54,197],[-96,46],[-33,17],[-66,31],[-196,101],[-128,66],[-148,76],[-281,145],[-84,45],[-44,22],[-126,65]],[[14860,15132],[29,13],[16,12],[39,24],[19,17],[12,5],[33,31],[21,12],[18,5],[30,11],[25,23],[17,29],[15,19],[21,16],[17,10],[32,51],[27,37],[40,24],[39,16],[16,9],[33,28],[13,8],[28,9],[8,6],[42,7],[27,16],[15,22],[21,25],[26,20],[16,6],[36,2],[30,9],[22,14],[14,14],[17,8],[16,17],[11,14],[39,47],[14,27],[1,13],[14,17],[7,15],[41,37],[8,14],[-8,3],[4,24],[16,26],[5,28],[11,17],[15,20],[47,37],[24,17],[23,14],[23,8],[62,10],[17,5],[-1,6],[7,24],[15,19],[20,8],[19,19],[7,3],[15,19],[4,24]],[[13165,13669],[38,36],[34,17],[23,14],[68,61],[9,12],[6,15],[20,24],[43,13],[21,5],[27,-1],[24,-7],[25,-1],[21,6],[46,20],[10,12],[10,5],[41,7],[28,3],[30,10],[8,9],[21,8],[31,1],[19,-4],[14,4],[28,14],[11,13],[23,50],[6,0],[16,11],[10,12],[7,15],[0,12],[-8,24],[30,31],[1,10],[23,41],[20,22],[0,10],[30,28],[27,63],[1,18],[-1,19],[-10,13],[-11,29],[-3,34],[6,21],[14,19],[8,35],[15,31],[4,18],[24,39],[3,15],[11,27],[14,15],[29,21],[2,7],[26,26],[0,7],[13,24],[14,12],[37,11],[29,-9],[33,0],[40,18],[38,35],[14,21],[22,22],[29,26],[21,12],[23,9],[25,14],[20,15],[17,22],[12,43],[16,13],[17,6],[54,41],[16,5],[19,15],[27,10],[13,13],[19,11],[15,18],[-1,7],[31,19],[16,5],[52,-6],[26,5],[15,7]],[[16270,13757],[-66,-4],[-88,1],[-18,-1],[-33,-10],[-14,-9],[-32,-24],[-30,-14],[-26,-5],[-17,0],[-26,5],[-23,10],[-204,122],[-36,20],[-100,47],[-58,28],[-93,37],[-69,27],[-26,5],[-21,2],[-163,2],[-34,4],[-74,20],[-31,-1],[-59,-16],[-25,-3],[-69,-6],[-35,2],[-44,5],[-28,0],[-27,-3],[-41,-9],[-129,-34],[-32,-11],[-52,-22],[-54,-18],[-35,-2],[-70,11],[-40,5],[-71,6],[-42,-4],[-27,-10],[-75,-36],[-30,-21],[-61,-50],[-73,-68],[-18,-50],[-15,-1],[-28,12],[-43,3],[-40,0],[-59,-14],[-48,-14],[-22,-12],[-38,-31],[-71,-57],[-18,-12],[-69,-38]],[[13400,13521],[-9,2],[-101,48],[-33,18],[-36,25],[-31,28],[-25,27]],[[9530,2857],[33,45],[30,27],[19,15],[23,13]],[[9635,2957],[9,5]],[[9644,2962],[7,-16],[19,-30]],[[9541,2653],[-94,17]],[[9447,2670],[41,120],[20,37],[22,30]],[[9741,2957],[-32,-18],[-38,-24]],[[9644,2962],[32,16],[42,21],[42,22],[99,72],[57,52],[17,8],[19,6],[37,2],[17,6],[20,18],[98,57],[24,16],[34,26],[51,29],[46,23],[53,19],[32,5]],[[10721,5852],[12,-14],[15,-3]],[[10748,5835],[46,-29],[-15,-24],[0,-13],[13,-73],[15,-33],[25,-58],[14,-23],[42,-91],[411,-34]],[[9176,4894],[-20,89],[-18,78],[-10,45],[-61,267],[-17,77],[-35,155],[-61,268]],[[8954,5873],[27,10],[14,-2],[19,-16],[17,-27],[30,-55],[-2,-15],[45,-21],[24,-23],[28,-14],[25,-22],[21,6],[18,2],[36,-1],[15,4],[27,11],[45,15],[19,1],[30,-4],[111,-22],[50,-13],[26,-13],[12,-3],[38,1],[21,3],[15,6],[20,25],[26,8],[24,-5],[22,-11],[62,-36],[60,-45],[15,-17],[10,-22],[7,-29],[14,-32],[20,-21],[17,-24],[23,-19],[19,-9],[42,-10],[16,-2],[65,3],[89,-4],[20,5],[48,25],[22,9],[41,11],[13,2],[84,-77],[67,-62],[48,-43],[44,-44],[16,-10],[50,-18],[-50,110],[-19,48],[-15,54],[-7,39],[-3,31],[-21,273],[13,1],[17,7],[18,15],[4,8],[5,23],[8,17],[19,26],[20,12],[63,-41]],[[10748,5835],[24,38],[4,12],[12,17],[9,24],[6,5],[30,9],[38,-10],[20,7],[17,12],[9,15],[29,-25],[23,-8],[18,0],[26,12],[32,19],[22,19],[34,25],[9,2],[44,-17],[17,-12],[1,-10],[13,-12],[13,-28],[9,-18],[18,-15],[22,-12],[16,-27],[-8,-28],[-14,-4],[14,-24],[72,12],[13,-49],[10,-30],[21,-22],[13,-5],[33,-45],[34,-12]],[[10721,5852],[45,66],[26,50],[12,13],[5,14],[16,23],[10,18],[23,30],[9,24],[-9,12],[7,31],[6,17],[14,27],[47,69],[9,24],[0,18],[-13,22],[28,36],[9,17],[19,24],[21,7],[2,13],[-3,40],[2,47],[10,29],[12,22],[17,9],[40,6],[18,-3],[46,-28],[28,-22],[13,-14],[23,-29],[15,-23],[63,-63],[29,-19],[22,-10],[38,-6],[23,-12],[20,-20],[14,-23],[8,-18],[5,-31],[2,-31],[8,-9],[49,-18],[16,-8],[24,-18],[14,-3],[26,2],[8,4],[8,26],[4,31],[9,22],[21,24],[17,29],[-2,20],[-9,21],[-11,18],[-11,29],[-10,68],[-2,42],[-6,24],[-12,8],[9,9],[-18,41],[-27,40],[-14,29],[-19,53],[-12,65],[-13,35],[-13,25],[-6,22]],[[11480,6839],[-1,41],[11,63],[4,14],[2,41],[-3,31],[-13,47],[-4,36],[-12,31],[-5,17],[-8,19],[-13,46],[-12,20],[0,7],[-37,59],[-12,11],[-18,25],[-21,19],[-14,19],[-12,20],[-16,19],[-18,17],[-21,23],[-14,21],[-28,66],[-6,32],[-7,23],[-1,27],[3,54],[-1,15],[4,34],[12,43],[15,62],[4,20],[-5,22],[-4,39],[-17,64],[-8,22],[-40,71],[-9,34],[10,29],[7,16],[18,24],[28,27],[-22,30],[-5,33],[5,31],[4,45],[-2,26],[0,47],[6,25],[22,31],[17,29],[21,24],[11,6],[4,18],[0,30],[-2,18],[-13,46],[-16,30],[-3,22],[4,10],[25,23],[20,11],[30,20],[22,16],[16,7],[20,13],[18,2],[46,1],[27,-2],[12,-5],[29,0],[17,7],[17,11],[11,14],[22,75],[7,13],[0,22],[-5,21],[-31,79],[-5,33],[8,14],[6,28],[10,7],[10,14],[9,20],[9,12],[19,8],[39,4],[14,0],[11,5],[27,36],[16,-1],[21,16],[31,33],[11,3],[4,15],[14,19]],[[11806,9304],[7,5],[4,15],[13,12],[37,55],[5,49],[13,16],[14,27],[6,35],[0,10],[-7,22],[-13,25],[-5,17],[0,16],[-5,17],[-17,21],[-17,7],[-10,8],[-21,12],[-29,27],[-15,19],[-14,9],[-10,14],[-17,16],[-12,24],[-15,36],[-11,17],[-15,37],[-24,23],[-23,42],[-9,24],[1,23],[13,14],[22,12],[57,-1],[21,27],[4,27],[19,21],[8,4],[22,16],[22,28],[12,37],[8,28],[8,15],[22,20],[30,34],[10,18],[3,35],[7,18],[11,45],[-2,33],[-11,43],[-5,29],[-10,33],[-11,15],[-5,30],[-8,12],[-5,19],[-26,51],[-29,38],[-23,22],[-30,20],[-6,7],[-23,5],[-30,13],[-8,9],[-27,18],[-20,19],[-7,15],[-18,27],[-22,26],[-36,57],[-23,25],[-3,7]],[[11528,10955],[-8,10],[11,4],[-17,36],[-23,15],[-10,10],[-20,12],[-11,15],[-15,29],[-5,30],[8,20],[9,42],[1,46],[-3,27],[-8,20],[-18,30],[-6,13],[-11,12],[-4,25],[28,6],[-11,22],[-4,38],[2,37],[-5,18],[3,24],[11,14],[18,12],[6,-1],[15,10],[23,27],[5,40],[6,27],[42,44],[13,29],[2,40],[4,34],[0,19],[-7,34],[-12,42],[-3,25],[0,32],[3,10],[15,18],[13,4],[13,16],[5,33],[-3,30],[1,24],[7,24],[21,34],[8,22],[-1,29],[3,24],[1,33],[-6,29],[4,21],[-2,19],[-9,25],[-4,21],[4,26],[7,6],[10,34],[12,11],[23,8],[18,-3],[18,-10],[21,-19],[7,-17],[25,2],[20,9],[28,24],[11,15],[7,21],[13,24],[15,17],[3,9],[4,41],[-34,26],[-27,10],[-42,1],[-23,26],[-7,39]],[[11716,12640],[7,53],[17,40],[13,17],[22,25],[12,10],[22,9],[2,7],[27,29],[37,21],[0,9],[14,-1],[24,8],[17,0],[23,-9],[63,10],[47,17],[30,20],[18,14],[40,44],[40,18],[14,10],[35,36],[34,48],[45,33],[18,10],[25,7],[11,0],[26,14],[35,36],[18,20],[30,53],[7,4],[15,20],[25,18],[43,19],[19,17],[25,28],[13,20],[14,30],[11,17],[23,19],[31,16],[27,9],[37,6],[48,6],[16,4],[23,12],[36,28],[41,47],[18,14],[20,23],[38,25],[33,16],[40,31],[25,17],[25,26],[8,20],[1,9],[8,16]],[[15347,17647],[41,35]],[[13165,13669],[-26,-23],[-55,-61],[-12,-10],[-29,-14],[-18,0],[-24,-12],[-11,-10],[-8,-13],[-17,-15],[-1,-6],[-32,-29],[-10,-4],[-23,-19],[-21,-32],[-10,-21],[-22,-36],[-40,-51],[-37,-33],[-16,1],[-21,-5],[-33,-14],[-18,-4],[-52,-8],[-33,1],[-34,-3],[-11,-5],[-32,-26],[-9,-29],[-36,-54],[-12,-10],[-28,-12],[-33,-20],[-32,-11],[-23,-14],[-28,-21],[-11,-4],[-16,-18]],[[12291,13024],[-28,-39],[-19,-17],[-25,-13],[-4,-7],[-19,-14],[-20,-11],[-35,-39],[-42,-38],[-21,-7],[-32,-17],[-12,-15],[-8,-19],[-19,-8],[-25,-16],[-18,-22],[-25,-17],[-18,-17],[-14,-8],[-21,2],[-28,-10],[-21,-15],[-8,-14],[-1,-18],[11,-22],[19,-22],[7,-2],[4,-12],[15,-22],[15,-30],[9,-4],[10,-12],[12,-36],[3,-35],[-1,-19],[-15,-50],[-19,-25],[-23,-18],[-16,-4],[-33,-13],[-35,2],[-19,-8],[-56,-46],[-16,-17],[-20,-27],[-8,-24],[-1,-14],[4,-39],[1,-27],[-5,-26],[-1,-24],[-8,-22],[-12,-41],[10,6],[12,17],[23,3],[-10,-16],[-18,-18],[-15,-31],[-1,-10],[-12,-14],[-38,-20],[-9,-28],[9,-31],[-2,-16],[2,-23],[14,-26],[3,-31],[5,-7],[14,-35],[-13,-9],[-8,-24],[-27,-25],[-7,-23],[0,-17],[7,-4],[5,-18],[-4,-25],[-9,-9],[-30,-12],[-16,-18],[-12,-1],[-16,-13],[-18,-18],[-31,-9],[1,-14],[41,27],[28,24],[11,-3],[-15,-18],[-27,-14],[-23,-16],[-6,-16],[4,-37],[-1,-11],[-14,-39],[-5,-44],[2,-10],[14,-13],[10,-13],[10,-38],[-1,-32],[-4,-15],[-1,-22],[-4,-12],[-1,-27],[5,-21],[0,-18],[5,-18],[-1,-17],[11,-24],[30,-33],[18,-15],[25,-25],[14,-21]],[[11562,7183],[21,-35],[9,-9],[20,-30],[7,-19],[5,-25],[9,-31],[-2,-61],[-10,-53],[-1,-47],[9,-41],[1,-44],[-3,-27],[-8,-23],[-4,-17],[3,-44],[11,-28],[12,-24],[10,-26],[14,-29],[6,-23],[21,-46],[16,-32],[10,-37],[0,-11],[-9,-28],[1,-28],[11,-25],[6,-22],[1,-22],[-5,-14],[-13,-19],[-23,-22],[-43,-29],[-6,-9],[-1,-28],[-3,-20],[-20,-9],[-23,-21],[-15,-16],[-26,-33],[-10,-16],[-10,-50],[19,-12],[10,-11],[5,-26],[-5,-33],[4,-19],[10,-28],[-3,-33],[-6,-30],[-10,-19],[-8,-9],[-18,-12],[-29,-16],[-1,-20],[10,-29],[8,-9]],[[8829,6428],[177,27],[111,18],[322,50],[52,10],[242,37],[12,1],[228,35],[277,45],[214,33],[190,31],[69,11],[137,21],[120,19],[92,18],[93,12],[117,16],[108,14],[90,13]],[[8954,5873],[-39,170]],[[8915,6043],[-33,151],[-13,54],[-40,180]],[[8353,8592],[74,13],[349,62],[232,41],[139,30],[280,62],[140,30],[139,32],[158,34],[0,-8],[156,33],[139,27],[247,54],[369,82],[151,33],[163,35],[123,28],[93,19],[93,21],[103,22],[244,50],[61,12]],[[8829,6428],[-18,76],[-34,152],[-16,73],[-12,54],[10,0],[-37,166],[-83,391],[-89,402]],[[8550,7742],[-40,176],[-44,191],[-44,190],[-44,190],[-25,103]],[[8628,14793],[302,59],[282,54],[184,36],[361,73],[107,22],[39,5],[166,30],[90,18],[103,18],[86,17],[196,36],[99,19],[68,-238],[36,-121],[87,-301],[21,-77],[75,-261],[9,-31],[67,-237],[50,-171],[37,-129],[25,-86],[36,-133],[-206,-37],[-161,-31],[-61,-11],[-143,-283],[-57,-115],[76,-18],[122,-28],[122,-29],[201,-46],[176,-42],[177,-41],[178,-42],[138,-32]],[[11528,10955],[-391,-75],[-185,-31],[-259,-42],[-472,-77],[-243,-40],[-114,-22],[-107,-16],[-143,-22],[-53,214],[-45,181],[-43,169],[-42,165]],[[9431,11359],[-41,165],[-38,170],[-89,359],[-9,42],[-28,120],[-20,80],[-9,40],[-38,157],[-28,118],[-28,118],[-27,114],[-18,81],[-37,153],[-49,200],[-19,83],[-18,83],[-38,165],[-49,206],[-27,113],[-19,96],[-38,167],[-67,305],[-69,299]],[[14960,28208],[-111,1],[-434,4],[-207,1],[-132,1],[-118,-1],[-26,-1],[-164,0],[-206,-1],[-260,0],[-171,0],[-160,1],[-79,3],[-2,-23],[4,-82],[-1,-251],[1,-235],[-3,-239],[-1,-230],[-1,-239],[1,-221],[1,-189],[82,0],[-5,-204],[-6,-393],[-3,-78],[0,-79],[2,-169],[-1,-52],[2,-30],[2,-343],[1,-180],[2,-334],[2,-171],[0,-87],[1,-84],[1,-314],[2,-194],[1,-186],[-2,-158],[0,-177],[-1,-196],[211,-2],[525,-4],[225,-3],[216,-6],[140,-3],[102,-3],[208,-5],[263,-7],[70,-2],[187,-5]],[[15118,23038],[-2,-148],[-1,-171],[-1,-152],[-2,-150],[-1,-95],[0,-149],[-2,-149],[-2,-154],[0,-150],[-2,-229],[-2,-92],[0,-142],[-52,1],[-2,-85],[-2,-103],[-1,-8],[-6,-318],[-4,-182],[-1,-45],[-10,-683],[-1,-90],[0,-91],[-1,-150]],[[15023,19503],[-161,2],[-41,1],[-294,3],[-211,4],[-83,0],[-167,3],[-133,1],[-34,2],[-39,-1],[-45,1],[-339,3],[-127,2],[-305,5],[-122,2]],[[12922,19531],[-213,5],[-247,6],[-269,6],[-142,3],[4,-254],[3,-216],[2,-103],[7,-21],[28,-52],[13,-18],[18,-16],[54,-42],[13,-13],[23,-13],[38,-28],[15,-5],[70,-47],[66,-33],[28,-21],[18,-17],[23,-11],[18,-19],[13,-9],[40,-10],[13,-8],[38,3],[40,-1],[12,2],[50,-8],[25,4],[12,-3],[1,-11],[24,-1],[19,-4],[17,-10],[28,-22],[16,-7],[20,-15],[0,-12],[47,-20]],[[12907,18490],[-1,-29],[-1,-331],[-2,-110],[0,-93],[-3,-191],[0,-101],[389,62],[25,-88],[24,-86],[24,-85]],[[8628,14793],[-9,41],[-43,202],[-41,169],[-60,235],[-9,34],[-72,271],[-80,306],[-35,136],[-18,68],[-23,84],[-42,158],[-41,160],[-45,169],[-78,-14],[-202,-38],[-11,-1],[-94,-15],[-114,-19],[-408,-62],[-56,-9],[-185,-29],[-297,-48],[-302,-49],[28,181],[28,173],[9,57],[39,234],[17,113],[5,28],[26,169],[37,228],[21,139],[2,125],[3,205],[1,87],[1,116],[2,173],[0,118],[5,35],[1,109],[2,112],[-46,153],[-88,299],[131,27],[177,36],[229,47],[46,8],[364,75],[386,76],[41,7],[97,21],[133,26],[209,43],[333,65],[1,131],[3,201],[3,225],[1,75],[6,317],[2,294],[1,53],[1,119],[2,173],[5,240],[4,241],[2,120],[6,400],[5,281],[1,81],[3,160],[3,161],[2,121],[2,160],[-1,71],[4,260],[6,355],[0,6],[2,342],[1,86],[2,346],[2,344],[2,230],[-1,116],[1,59],[1,118],[0,119],[-4,218],[-3,229],[-4,171],[-1,86],[1,42],[2,426],[0,85],[1,299],[2,129],[1,259],[1,128],[2,310],[-1,8],[3,241],[2,76],[2,156],[1,37],[2,187],[2,112],[7,263],[6,225],[4,168],[6,244],[-2,260],[0,149],[0,76],[-1,179],[1,26],[2,214],[2,429],[2,212],[5,422],[1,236],[3,383],[2,425],[-1,34],[5,92],[1,143],[0,160],[78,-1],[210,-1],[208,-1],[204,0],[204,0],[192,0],[42,-4],[141,1],[416,0],[331,1],[1,-246],[552,0],[102,0],[220,0],[255,-1],[16,1],[847,-1],[258,0],[292,-1],[133,0],[344,-1],[545,-3],[641,-3],[-2,-175],[0,-79],[-1,-53],[0,-105],[-1,-157],[-2,-79],[0,-77],[1,-105],[-1,-80],[0,-107],[-1,-54],[0,-189],[0,-82],[0,-109],[-1,-165],[2,-248],[0,-55],[0,-83],[0,-109],[1,-55],[1,-163],[0,-55],[0,-132],[-6,0],[-1,-20],[-4,-205],[-1,-57],[-2,-113],[1,-205],[0,-158],[2,-80],[4,-115],[6,-163],[6,-156],[-2,-80],[-3,-82],[-4,-128],[6,-242],[4,-144],[-3,-249],[-1,-89],[4,-101]],[[11106,19297],[31,0],[-38,300],[-106,-11],[-14,43],[-10,14],[-11,38],[-61,-10],[-5,13],[-140,-30],[-133,-27]],[[10619,19627],[-66,-13]],[[10553,19614],[-212,-44],[-321,-68],[-217,-45],[57,-145],[17,-43],[127,-319],[47,8],[45,2],[25,-4],[82,-17],[40,-17],[45,-10],[15,-27],[11,-13],[10,-23],[14,-16],[8,-26],[20,-30],[5,-33],[-4,-19],[10,-22],[19,-17],[13,-4],[9,-10],[26,-18],[2,-28],[2,-9],[24,-13],[7,-16],[3,-22],[-8,-8],[-2,-10],[17,-23],[8,-1],[34,-16],[19,-13],[46,-11],[13,-25],[41,-38],[20,-5],[22,19],[11,5],[50,38],[16,-8],[12,-17],[20,-6],[22,-15],[12,-11],[31,1],[22,-4],[24,6],[26,14],[10,12],[9,19],[7,21],[12,24],[16,28],[16,40],[9,39],[27,95]],[[10198,3879],[-175,-254],[-35,-49],[-19,-21],[-31,-27],[-36,-24],[-24,-13],[-33,-15],[-142,-57]],[[9451,3848],[16,99],[1,13],[-10,82],[-11,112],[-4,11],[-93,145],[-49,71],[-8,19]],[[8414,4261],[37,6]],[[8451,4267],[323,51],[127,19],[219,35]],[[8938,3467],[-8,10],[-4,28],[-11,24],[14,25],[0,25],[-7,14],[-9,54],[5,14],[-3,18],[12,47],[7,19],[-2,5],[-20,20],[-15,8],[-6,10],[-8,22],[3,16],[8,9],[10,36],[-12,19],[1,15],[-11,18],[-11,5],[-17,1]],[[9305,2582],[44,-24]],[[9349,2558],[-42,-37],[-20,-20],[-12,-15],[-10,-22],[-6,-32],[-2,-52],[-1,-10],[-11,-23]],[[9245,2347],[-23,-19],[-43,-26],[-30,-14],[-92,-41],[-28,-14],[-59,-36],[-96,-48],[-12,-8],[-21,-25],[-12,-19],[-23,-44],[-20,-32],[-24,0],[-22,-19],[-35,-22],[-46,-21],[-29,-19],[-14,-12],[-30,-32]],[[8586,1896],[-21,20],[-11,19],[-3,18],[-20,1],[-18,4],[-5,8],[2,13],[-4,15]],[[9329,2864],[28,34],[55,-30],[-10,-24],[31,-17]],[[9433,2827],[-26,-57],[-108,58]],[[9299,2828],[30,36]],[[4384,7113],[540,80],[98,14],[280,41]],[[6129,5601],[-101,-16],[-36,-6],[-182,-28],[-14,-4],[-182,-26],[-112,-17],[-102,-17],[-245,-38],[-221,-34],[-162,-25]],[[4772,5390],[-34,149],[-53,227],[-44,188],[-17,75],[-18,76],[-51,218],[-28,123],[-10,38],[-27,117],[-33,182],[-18,79],[-45,210],[-10,41]],[[10043,3239],[5,-6],[-12,-14],[-11,-8],[-29,-13],[-9,-12],[-14,-7],[-4,6],[-14,-1],[-24,-7],[-28,-16],[-55,-53],[-43,-27],[-54,-40],[-19,-5],[4,-6],[-25,-13],[-25,-10],[-49,-28],[7,-17]],[[9635,2957],[-17,24],[-20,-10],[-13,21],[15,5],[-14,40]],[[9246,3086],[73,-42]],[[9264,2978],[-92,-12]],[[9172,2966],[-66,38],[91,111]],[[9172,2966],[-160,-22]],[[9364,2976],[13,16]],[[9473,2999],[-8,-16],[0,-9],[15,-5],[-9,-11],[15,-10],[-15,-34]],[[9471,2914],[-83,47],[-24,15]],[[3378,1770],[141,21],[237,36],[6,1],[285,45],[97,15],[320,50]],[[4795,380],[-142,-29],[-308,-60],[-583,-111],[-421,-79],[-185,-34],[-261,-49],[-97,-18],[-24,107],[-57,253],[-21,98],[-62,285],[-14,64],[-47,215],[-28,137],[-32,160],[-21,96],[-24,121],[-20,94]],[[9530,2857],[-26,3],[-12,8],[-35,14]],[[9457,2882],[14,32]],[[9349,2558],[45,41],[34,38],[19,33]],[[9382,2401],[-4,-16],[-17,-19],[-11,-7],[-55,-23],[-15,-9]],[[9280,2327],[-35,20]],[[9280,2327],[30,-16]],[[9310,2311],[-18,-34],[-18,-17],[-26,-17],[-30,-27],[-12,-15],[-44,-59],[-12,-12],[-18,-12],[117,-77],[3,-12],[-2,-90],[-5,-270],[-6,-121],[-12,-47],[-1,-36]],[[9226,1465],[1,-63],[2,-22],[8,-77],[4,-45],[9,-88],[-97,-4],[-18,0],[-70,12],[-24,-2],[-47,-8],[-29,-6],[-28,-8],[-66,-10],[-14,-8],[-16,-21],[-7,-19],[-16,-22],[-6,-20],[-12,-18],[-15,-51],[-13,-28],[-21,-28],[-11,-25],[11,-10],[-3,-13],[-35,-27],[-36,-21]],[[8677,833],[-9,2],[-194,61],[-26,15],[-9,9],[-9,19],[-4,13],[1,17],[6,17],[19,35],[1,17],[-6,30],[-7,24],[-9,15]],[[8431,1107],[-16,32],[-27,49],[-9,24],[-2,31],[12,46],[12,26],[24,36],[58,61],[21,28],[12,27],[5,17],[-1,12],[3,158],[0,62],[2,19],[10,38],[2,29],[8,30],[15,30],[26,34]],[[11900,1667],[-9,-13],[-362,-518],[-176,84],[-327,157],[-211,103],[-53,-50],[-192,-178],[-79,-72],[-47,-45],[-113,-75]],[[10331,1060],[-71,155],[-19,43],[-39,85],[-56,125],[-3,14],[9,24],[16,11],[145,71],[-47,23],[73,100],[-242,119]],[[10097,1830],[27,43],[94,150],[41,54],[46,66],[139,197],[12,16]],[[11498,4921],[-60,-50],[-69,-66],[-75,-62],[-112,-85],[-18,-16]],[[2801,5082],[47,7],[482,76],[77,12],[330,54],[83,15],[230,35],[40,6],[156,23],[159,24],[77,13],[290,43]],[[4772,5390],[10,-41],[26,-118],[68,-291],[115,-490],[9,-48],[67,-292],[9,-40],[68,-294],[5,-24]],[[4116,3590],[-354,-55],[-590,-89]],[[2012,8499],[455,71],[204,35],[211,33],[80,14],[276,45],[108,18],[408,65],[8,3],[211,34],[34,6]],[[4007,8823],[87,-400],[6,-25],[33,-155],[39,-177],[4,-9],[22,-103],[102,-462],[29,-127],[18,-85],[10,-41],[27,-126]],[[4384,7113],[-69,-11],[-564,-89],[-253,-40],[-255,-40],[-263,-28],[-305,-21],[-281,-18]],[[2394,6866],[-54,218],[-2,13],[-74,318]],[[2264,7415],[-91,387],[-23,99],[-60,260],[-36,152],[-2,16],[-40,170]],[[2801,5082],[-21,89],[-33,149],[-31,149],[-7,31],[-72,300],[-15,64],[-46,201],[-16,64],[-20,89],[-28,120],[-20,90],[-13,57],[-41,179],[-28,119],[-15,76],[-1,7]],[[4007,8823],[65,11],[126,21],[194,32],[106,18],[285,47],[214,36],[35,5],[35,7],[101,18],[139,26],[211,39],[278,51],[3,2],[148,27],[107,16]],[[6054,9179],[3,-15],[35,-139],[75,-298],[40,-156],[102,-417],[39,-163],[6,-27],[68,-321],[45,-217]],[[6129,5601],[9,-38],[9,-34],[8,-37],[65,-277],[42,-186],[6,-31],[15,-60],[57,-251],[26,-108],[310,49],[173,28],[26,3],[179,29],[9,-39],[19,-73]],[[7082,4576],[2,-11],[33,-136],[25,-118],[27,-118],[14,-55],[14,-73]],[[6839,5713],[244,38],[101,15],[188,30],[151,24]],[[7523,5820],[29,-132],[62,-272],[74,-329],[68,-302],[10,-44],[-223,-53],[-101,-25],[-45,-11],[-107,-26],[-208,-50]],[[6054,9179],[111,18],[86,13],[193,31],[236,36],[145,24],[436,68],[54,9],[189,29],[146,23],[145,22],[43,6],[283,43]],[[8121,9501],[48,-183],[26,-99],[14,-51],[26,-102],[47,-191],[49,-191],[22,-92]],[[8550,7742],[-42,-6],[-115,-18],[-169,-26],[-65,-10],[-125,-19],[-193,-31],[-159,-23],[-64,-10],[-316,-47],[-124,-18],[-252,-39],[-32,-4],[-257,-40],[-170,-25]],[[8915,6043],[-271,-44],[-137,-22],[-269,-43],[-81,-13]],[[8157,5921],[-327,-54],[-9,-1],[-224,-35],[-74,-11]],[[16510,12839],[-31,-6],[-498,-102],[-181,-36],[-203,-41],[-80,-16],[-244,-49],[-99,-19],[-258,-52],[-74,-16],[-162,-32]],[[14680,12470],[-22,26],[-11,15],[-20,44],[-27,9],[-24,22],[-19,11],[-22,21],[-28,20],[-9,10],[-19,35],[-14,16],[-88,68],[-31,20],[-60,30],[-15,9],[-111,84],[-158,119],[-80,59],[-20,18],[-69,100],[-68,96],[-76,88],[-37,41],[-22,-15],[-38,22],[-184,78],[-8,5]],[[14960,28208],[-5,-227],[-2,-220],[-2,-215],[-2,-88],[1,-206],[0,-218],[1,-187],[-1,-92],[0,-107],[22,-37],[44,-82],[10,-22],[-3,-291],[0,-153],[1,-230],[1,-112],[1,-126],[0,-43],[1,-140],[5,-243],[0,-35],[2,-104],[0,-70],[1,-35],[16,-35],[51,-114],[1,-127],[3,-138],[3,-194],[1,-45],[6,-352],[3,-176],[1,-58],[4,-204],[1,-111],[-7,-190],[0,-143]],[[10594,19306],[10,22],[-5,20],[-6,3],[-25,0],[-15,4],[-6,13],[0,24],[7,17],[-2,10],[-15,28],[-2,12],[-10,14],[12,13],[-1,9],[13,19],[12,13],[2,12],[8,11],[5,18],[19,23],[13,2],[7,6],[4,28]],[[10553,19614],[-90,-107],[-49,-57],[-26,-33],[-12,-23],[-2,-13],[3,-24],[15,-25],[96,-89],[27,-41],[9,5],[16,-24],[35,15]],[[2264,7415],[-155,-22],[-62,-12],[-48,-22],[-30,-10],[-29,-14],[-104,-54],[-65,-21],[-32,-15],[-11,-3],[-84,-15],[-52,-3],[-34,-4],[-16,-4],[-38,-18],[-16,-6],[-26,0],[-33,7],[-22,12],[-24,28],[-88,0],[-180,-2],[-17,1],[-28,5]],[[1070,7243],[-10,1],[-34,-19],[-33,-6],[-184,-29],[-141,-24],[-22,-6],[-312,-145],[-42,-22]],[[292,6993],[-63,256],[-42,172],[-25,106],[-79,317],[-7,31],[-39,155],[-37,151],[165,26],[151,25],[75,11],[190,31],[153,24],[344,53],[307,50],[152,23],[344,55],[131,20]],[[12291,13024],[82,-43],[160,-84],[161,-86],[82,-43],[85,-46],[203,-107],[144,-75],[232,-124],[167,-88]],[[13607,12328],[1,-9],[-9,-4],[3,-9],[-10,-23],[3,-41],[14,-25],[3,-22],[-16,-26],[-9,-22],[4,-11],[-13,-8],[1,-29],[-4,-20],[-12,-19],[4,-17],[-16,0],[5,-15],[-3,-17],[5,-15],[-10,-1],[47,-165],[80,-275],[11,-36],[37,-129],[-230,-46],[-238,-48],[-162,-31]],[[14680,12470],[-157,-31],[-70,-13],[-425,-82],[-332,-63],[-89,47]],[[9457,2882],[-24,-55]],[[9329,2864],[-40,22],[75,90]],[[402,6532],[62,9],[30,6],[8,4],[69,14],[36,7],[41,5],[84,15],[77,12],[121,20],[17,5],[35,4],[54,11],[191,31]],[[1227,6675],[1,-14],[14,-172],[12,-57],[9,-64],[25,-119],[13,-46],[13,-25],[97,-127],[20,-24],[75,-77],[16,-11],[143,-76],[69,-37],[17,-12],[16,-18],[10,-24],[0,-32],[-21,-65],[-16,-77],[-12,-26],[-67,-112],[-73,-126],[-20,-34],[-27,-32],[0,-18],[-26,-54],[-38,-99],[-6,-26],[2,-19],[14,-59],[1,-18],[-4,-17],[-20,-46],[-9,-18]],[[816,4800],[-29,129],[-27,114],[-55,231],[-16,68],[-57,234],[-2,11],[-59,236],[-44,191],[-31,133],[-16,65],[-78,320]],[[2394,6866],[-111,-17],[-235,-41],[-91,-14],[-67,-11],[-162,-27],[-169,-29]],[[1559,6727],[-20,34],[-86,134],[-26,34],[-27,9],[-85,14],[-68,7],[-50,10],[-27,10],[-14,8],[-33,25],[-38,28],[-15,35],[-7,67],[-1,19],[9,64],[-1,18]],[[8431,1107],[-188,-40],[-275,-59],[10,-52],[-94,-17]],[[7884,939],[20,40],[3,62],[-1,92],[-2,35],[-1,64],[-9,41],[-2,32],[1,20],[7,19],[38,87],[17,32],[18,44],[27,55],[24,43],[12,29],[11,38],[41,1],[-13,47],[-12,36],[-4,22],[-19,56],[-16,41],[-2,18],[4,24],[9,33]],[[9226,1465],[36,-20],[180,-94],[3,-4],[98,-49],[47,-24],[30,-12],[22,-4],[27,4],[16,-1],[68,-25],[38,-17],[45,-23],[20,-26],[0,-24],[-14,-48],[-10,-25],[-6,-10],[-49,-42],[-27,-20],[-10,-21],[27,-13],[28,-23],[17,-21],[8,-17],[89,-19],[72,-5],[59,-10],[18,0],[126,6]],[[10184,878],[-216,-529],[-14,-34],[-223,38],[-3,-11],[-132,27],[-97,20],[91,215],[-238,49],[-2,9],[-66,-6],[-14,156],[-112,-22],[-5,22],[-10,-3],[-8,26],[-43,-15],[-14,34],[-153,-51],[-140,-46],[-3,19],[-9,20],[-17,19],[-27,14],[-52,4]],[[7884,939],[-269,-52],[-133,-25],[-14,47],[-222,-44],[-653,-129],[-190,-38]],[[9310,2311],[147,-82],[174,-96],[-62,-40],[118,-61],[34,-19],[143,-70],[29,-13],[77,-37],[127,-63]],[[10331,1060],[-99,-67],[-48,-115]],[[11603,5612],[16,27],[-3,22],[-5,11],[15,3],[128,19],[346,50],[28,9],[20,-3],[146,-55],[28,-10],[19,-4],[248,-37],[19,0],[132,6],[32,1],[24,-2],[35,-8],[32,-3],[35,-5],[12,1],[17,8],[72,50],[23,16],[7,10],[39,58],[23,26],[31,46],[14,18],[33,37],[15,22],[6,16],[4,23],[17,96],[7,40],[9,22],[14,14],[45,44],[40,28],[42,39],[56,57],[16,14],[97,47],[43,18],[28,25],[52,43],[21,16],[13,14],[18,24],[23,18],[62,31],[31,10],[21,16],[21,39]],[[13870,6619],[36,-205]],[[13906,6414],[5,-28],[22,-100],[123,-571]],[[8254,3433],[21,-94],[35,-160],[105,-479],[34,-157]],[[13652,7531],[5,-24],[48,-197],[32,-135],[80,-327],[30,-131],[23,-98]],[[9299,2828],[-56,29],[-18,-22],[-27,14],[-10,-13],[-64,35],[-41,-51],[-32,-40],[-56,-69],[-206,26],[-42,9],[-19,6],[-30,17],[76,-4],[19,21],[32,-15],[43,59],[11,-5],[78,62],[9,51]],[[8157,5921],[40,-113],[26,-72],[17,-56],[14,-41],[1,-19],[-10,-60],[-30,-184],[3,-29],[26,-117],[7,-38],[22,-102],[29,-140],[6,-13],[41,-64],[16,-38],[51,-135],[2,-10],[3,-47],[-1,-29],[-8,-57],[-12,-62],[2,-23],[23,-103],[17,-82],[9,-20]],[[17118,11002],[30,-132],[34,-154],[18,-77],[29,-128],[29,-127],[67,-281],[13,-52],[24,-101],[48,-204],[44,-179],[24,-105],[71,-298],[109,-475],[-176,-28],[-828,-131],[-688,-109],[-2,1],[-185,-27],[-143,-21],[-35,-6],[30,-130],[26,-119],[30,-129],[40,-181],[66,-329],[4,-28],[40,-199],[33,-161],[9,-43],[40,-197],[24,-121],[-411,-57],[-427,-67],[-426,-68],[-328,-53],[-445,-72]],[[1227,6675],[153,24],[179,28]],[[8121,9501],[-81,313],[-71,271],[-12,44],[-127,515],[-10,36],[-37,154],[-58,233],[105,17],[27,6],[166,27],[371,62],[129,20],[178,31],[446,80],[284,49]],[[402,6532],[-57,239],[-5,22],[-34,141],[-14,59]],[[12907,18490],[3,126],[3,73],[5,433],[1,127],[1,84],[2,198]],[[15023,19503],[-1,-99],[0,-45],[0,-136],[-2,-182],[0,-274],[-1,-46],[2,-32],[-1,-192],[-2,-49],[0,-167],[-2,-111],[-3,-369],[44,-9],[57,-18],[103,-39],[13,-6],[87,-35],[57,9]]],"transform":{"scale":[0.00006145429687499957,0.00005249345239878936],"translate":[-69.355667,44.644023]},"objects":{"Geometry\\23-019":{"type":"GeometryCollection","geometries":[{"arcs":[[0,1,2,3,4,5]],"type":"Polygon","properties":{"GEOID":"230190100002"}},{"arcs":[[6,7,8,9,10,11]],"type":"Polygon","properties":{"GEOID":"230190130003"}},{"arcs":[[12,13,14,15,16]],"type":"Polygon","properties":{"GEOID":"230190120001"}},{"arcs":[[17,18,-11,19,20,21]],"type":"Polygon","properties":{"GEOID":"230190125001"}},{"arcs":[[22,-18,23]],"type":"Polygon","properties":{"GEOID":"230190130001"}},{"arcs":[[24,25,26,27,28,29,30]],"type":"Polygon","properties":{"GEOID":"230190009001"}},{"arcs":[[31,-5,-13,32]],"type":"Polygon","properties":{"GEOID":"230190110002"}},{"arcs":[[-4,33,34,35,36,-14]],"type":"Polygon","properties":{"GEOID":"230190020004"}},{"arcs":[[37,38,39,40,41]],"type":"Polygon","properties":{"GEOID":"230190090005"}},{"arcs":[[42,43,44,-41]],"type":"Polygon","properties":{"GEOID":"230190090004"}},{"arcs":[[45,46,47,-43,-40,48]],"type":"Polygon","properties":{"GEOID":"230190090003"}},{"arcs":[[-12,-19,-23,49,50]],"type":"Polygon","properties":{"GEOID":"230190130002"}},{"arcs":[[51,52,53,54]],"type":"Polygon","properties":{"GEOID":"230190312002"}},{"arcs":[[55,56,57,58,-35]],"type":"Polygon","properties":{"GEOID":"230190020002"}},{"arcs":[[59,60,61,62,63,64]],"type":"Polygon","properties":{"GEOID":"230190005001"}},{"arcs":[[65,66,67,-46,68,69]],"type":"Polygon","properties":{"GEOID":"230190090002"}},{"arcs":[[70,71,72,73,74]],"type":"Polygon","properties":{"GEOID":"230190255001"}},{"arcs":[[75,76,77,78]],"type":"Polygon","properties":{"GEOID":"230190002004"}},{"arcs":[[79,-6,-32,80,81]],"type":"Polygon","properties":{"GEOID":"230190110001"}},{"arcs":[[82,83,84,85]],"type":"Polygon","properties":{"GEOID":"230190311002"}},{"arcs":[[86,87,88]],"type":"Polygon","properties":{"GEOID":"230190043003"}},{"arcs":[[89,-70,90,91,92]],"type":"Polygon","properties":{"GEOID":"230190050001"}},{"arcs":[[93,94,-31,95,-2]],"type":"Polygon","properties":{"GEOID":"230190100001"}},{"arcs":[[96,97,-93,98,99]],"type":"Polygon","properties":{"GEOID":"230190050002"}},{"arcs":[[100,101,102,-66,-90,103]],"type":"Polygon","properties":{"GEOID":"230190061001"}},{"arcs":[[104,105,-101,106,107]],"type":"Polygon","properties":{"GEOID":"230190062001"}},{"arcs":[[108,-108,109,-97,110,111,112]],"type":"Polygon","properties":{"GEOID":"230190062002"}},{"arcs":[[113,114,115,116,117,118]],"type":"Polygon","properties":{"GEOID":"230190071002"}},{"arcs":[[119,-117,120,121,122,123]],"type":"Polygon","properties":{"GEOID":"230190071003"}},{"arcs":[[124,-124,125,126,127]],"type":"Polygon","properties":{"GEOID":"230190071004"}},{"arcs":[[128,-122,129,130,131,-67,-103]],"type":"Polygon","properties":{"GEOID":"230190080011"}},{"arcs":[[-132,132,-47,-68]],"type":"Polygon","properties":{"GEOID":"230190090001"}},{"arcs":[[133,134,135,136,137,-85]],"type":"Polygon","properties":{"GEOID":"230190003003"}},{"arcs":[[-138,-79,138,139,140]],"type":"Polygon","properties":{"GEOID":"230190004001"}},{"arcs":[[141,-140,142,-61,143,144,145]],"type":"Polygon","properties":{"GEOID":"230190005002"}},{"arcs":[[-137,146,147,-76]],"type":"Polygon","properties":{"GEOID":"230190002003"}},{"arcs":[[148,149,-147,-136]],"type":"Polygon","properties":{"GEOID":"230190003002"}},{"arcs":[[150,151,152,153,154,155]],"type":"Polygon","properties":{"GEOID":"230190042001"}},{"arcs":[[156,-87,157,-38,158,-154]],"type":"Polygon","properties":{"GEOID":"230190043001"}},{"arcs":[[159,160,161,162]],"type":"Polygon","properties":{"GEOID":"230190300002"}},{"arcs":[[163,-127,164,165,-106]],"type":"Polygon","properties":{"GEOID":"230190063002"}},{"arcs":[[166,167,-118,-120,-125]],"type":"Polygon","properties":{"GEOID":"230190071001"}},{"arcs":[[-71,168,169]],"type":"Polygon","properties":{"GEOID":"230190255002"}},{"arcs":[[-86,-141,170,171]],"type":"Polygon","properties":{"GEOID":"230190311003"}},{"arcs":[[-28,172,-171,-142,173,174,175]],"type":"Polygon","properties":{"GEOID":"230190009003"}},{"arcs":[[176,177,178]],"type":"Polygon","properties":{"GEOID":"230190265002"}},{"arcs":[[179,180,181,182]],"type":"Polygon","properties":{"GEOID":"230190225001"}},{"arcs":[[-72,-170,183,184,185,186,187]],"type":"Polygon","properties":{"GEOID":"230190245002"}},{"arcs":[[188,-187,189,190]],"type":"Polygon","properties":{"GEOID":"230190270003"}},{"arcs":[[191,192,193,-151,194,195]],"type":"Polygon","properties":{"GEOID":"230190041002"}},{"arcs":[[-91,-69,-49,-39,-158,-89,196,-152,-194,197]],"type":"Polygon","properties":{"GEOID":"230190043002"}},{"arcs":[[198,199,-167,-128,-164,-105,-109,200,201]],"type":"Polygon","properties":{"GEOID":"230190072001"}},{"arcs":[[202,-119,-168,-200]],"type":"Polygon","properties":{"GEOID":"230190071005"}},{"arcs":[[203,204,205,206,207,-178,208,-73,-188,-189,209,210,-183,211,-114,-203,-199]],"type":"Polygon","properties":{"GEOID":"230199400001"}},{"arcs":[[212,-204,-202,213,214]],"type":"Polygon","properties":{"GEOID":"230190072002"}},{"arcs":[[215,-205,-213,216,217]],"type":"Polygon","properties":{"GEOID":"230190215001"}},{"arcs":[[218,-207,219,220]],"type":"Polygon","properties":{"GEOID":"230190285001"}},{"arcs":[[221,222,223,224,225,-179,-208,-219,226],[-161,227,228,229]],"type":"Polygon","properties":{"GEOID":"230190290001"}},{"arcs":[[-111,-100,230,-134,-84,231]],"type":"Polygon","properties":{"GEOID":"230190311001"}},{"arcs":[[232,233,-112,-232,-83,-172,234,-26]],"type":"Polygon","properties":{"GEOID":"230190311004"}},{"arcs":[[-58,235,236,237,238]],"type":"Polygon","properties":{"GEOID":"230190020001"}},{"arcs":[[239,240,241]],"type":"Polygon","properties":{"GEOID":"230190006002"}},{"arcs":[[242,-55,243,244]],"type":"Polygon","properties":{"GEOID":"230190312003"}},{"arcs":[[-235,-173,-27]],"type":"Polygon","properties":{"GEOID":"230190009002"}},{"arcs":[[-77,-148,-150,245,-193,246]],"type":"Polygon","properties":{"GEOID":"230190002001"}},{"arcs":[[-145,247,-65,248,249]],"type":"Polygon","properties":{"GEOID":"230190005004"}},{"arcs":[[-60,-248,-144]],"type":"Polygon","properties":{"GEOID":"230190005005"}},{"arcs":[[-146,-250,250,-174]],"type":"Polygon","properties":{"GEOID":"230190005003"}},{"arcs":[[251,-63,252,253]],"type":"Polygon","properties":{"GEOID":"230190006001"}},{"arcs":[[254,-17,255,-21]],"type":"Polygon","properties":{"GEOID":"230190125002"}},{"arcs":[[-139,-78,-247,-192,256,257,-253,-62,-143]],"type":"Polygon","properties":{"GEOID":"230190002002"}},{"arcs":[[258,-195,-156,259,260,-237]],"type":"Polygon","properties":{"GEOID":"230190041001"}},{"arcs":[[-238,-261,261,262,263,264,265]],"type":"Polygon","properties":{"GEOID":"230190030002"}},{"arcs":[[-42,-45,266,267,268]],"type":"Polygon","properties":{"GEOID":"230190090006"}},{"arcs":[[-126,269,-165]],"type":"Polygon","properties":{"GEOID":"230190063001"}},{"arcs":[[270,271,-82,272,-9]],"type":"Polygon","properties":{"GEOID":"230190135001"}},{"arcs":[[-10,-273,-81,-33,-255,-20]],"type":"Polygon","properties":{"GEOID":"230190135002"}},{"arcs":[[273,274,275,276,277]],"type":"Polygon","properties":{"GEOID":"230190155001"}},{"arcs":[[-276,-245,-271,278]],"type":"Polygon","properties":{"GEOID":"230190155002"}},{"arcs":[[279,280,-52,-243,-275]],"type":"Polygon","properties":{"GEOID":"230190312001"}},{"arcs":[[-244,281,282,-94,-1,-80,-272]],"type":"Polygon","properties":{"GEOID":"230190180001"}},{"arcs":[[283,284,-282,-54]],"type":"Polygon","properties":{"GEOID":"230190313001"}},{"arcs":[[285,286,-218,287,-281]],"type":"Polygon","properties":{"GEOID":"230190205001"}},{"arcs":[[-288,-217,-215,288,289,-284,-53]],"type":"Polygon","properties":{"GEOID":"230190205002"}},{"arcs":[[-190,-186,290,291]],"type":"Polygon","properties":{"GEOID":"230190270001"}},{"arcs":[[292,-222]],"type":"Polygon","properties":{"GEOID":"230190290002"}},{"arcs":[[-228,-160,293]],"type":"Polygon","properties":{"GEOID":"230190300001"}},{"arcs":[[294,-162,-230]],"type":"Polygon","properties":{"GEOID":"230190300003"}},{"arcs":[[-229,-294,-163,-295]],"type":"Polygon","properties":{"GEOID":"230190300004"}},{"arcs":[[-278,295,296,297]],"type":"Polygon","properties":{"GEOID":"230190150003"}},{"arcs":[[298,299,-180,-211]],"type":"Polygon","properties":{"GEOID":"230190280001"}},{"arcs":[[-210,-191,-292,300,-299]],"type":"Polygon","properties":{"GEOID":"230190270002"}},{"arcs":[[-254,-258,301,-240,302]],"type":"Polygon","properties":{"GEOID":"230190006003"}},{"arcs":[[303,304,-7,-51,305]],"type":"Polygon","properties":{"GEOID":"230190140001"}},{"arcs":[[-296,-277,306,307]],"type":"Polygon","properties":{"GEOID":"230190150002"}},{"arcs":[[-231,-99,-92,-198,-246,-149,-135]],"type":"Polygon","properties":{"GEOID":"230190003001"}},{"arcs":[[-36,-59,-239,-266,308,309]],"type":"Polygon","properties":{"GEOID":"230190020003"}},{"arcs":[[-264,310,311]],"type":"Polygon","properties":{"GEOID":"230190030003"}},{"arcs":[[-37,-310,312,-15]],"type":"Polygon","properties":{"GEOID":"230190020005"}},{"arcs":[[313,-268,314,-311,-263]],"type":"Polygon","properties":{"GEOID":"230190030001"}},{"arcs":[[315,316,317,-130,-121,-116]],"type":"Polygon","properties":{"GEOID":"230190080012"}},{"arcs":[[-96,-30,318,-56,-34,-3]],"type":"Polygon","properties":{"GEOID":"230190100003"}},{"arcs":[[-182,319,-316,-115,-212]],"type":"Polygon","properties":{"GEOID":"230190080013"}},{"arcs":[[-175,-251,-249,-64,-252,-303,-242,320]],"type":"Polygon","properties":{"GEOID":"230190007002"}},{"arcs":[[-285,-290,321,-233,-25,-95,-283]],"type":"Polygon","properties":{"GEOID":"230190313003"}},{"arcs":[[-300,-301,-291,-185,322,-317,-320,-181]],"type":"Polygon","properties":{"GEOID":"230190245001"}},{"arcs":[[-289,-214,-201,-113,-234,-322]],"type":"Polygon","properties":{"GEOID":"230190313002"}},{"arcs":[[323,-307,-279,-8,-305]],"type":"Polygon","properties":{"GEOID":"230190140002"}},{"arcs":[[-197,-88,-157,-153]],"type":"Polygon","properties":{"GEOID":"230190043004"}},{"arcs":[[-220,-206,-216,-287,324]],"type":"Polygon","properties":{"GEOID":"230190215002"}},{"arcs":[[-297,-308,-324,-304,325]],"type":"Polygon","properties":{"GEOID":"230190150001"}},{"arcs":[[326,-224,327,-74,-209,-177,-226]],"type":"Polygon","properties":{"GEOID":"230190265001"}},{"arcs":[[-107,-104,-98,-110]],"type":"Polygon","properties":{"GEOID":"230190062003"}},{"arcs":[[-270,-123,-129,-102,-166]],"type":"Polygon","properties":{"GEOID":"230190061002"}},{"arcs":[[-29,-176,-321,-241,-302,-257,-196,-259,-236,-57,-319]],"type":"Polygon","properties":{"GEOID":"230190007001"}},{"arcs":[[-155,-159,-269,-314,-262,-260]],"type":"Polygon","properties":{"GEOID":"230190042002"}},{"arcs":[[-327,-225]],"type":"Polygon","properties":{"GEOID":"230190310001"}}]}}}