{"type":"Topology","arcs":[[[7549,817],[73,-10],[69,5],[60,19],[99,19],[66,16],[58,30],[51,51],[42,66],[8,56],[15,12],[77,19],[32,26]],[[8199,1126],[54,-10],[-1,-50]],[[8252,1066],[-10,-51],[-51,-105],[-82,-173],[33,-8],[86,-7],[104,9],[34,-7],[71,-35],[59,-42],[0,-24],[-24,-25],[-4,-26]],[[8468,572],[282,-3]],[[8750,569],[-162,-279]],[[8588,290],[-940,-281],[-14,-5],[-57,-1]],[[7577,3],[28,211],[1,36],[-13,65],[-43,55],[-58,55],[-52,44],[-21,45],[1,15],[26,52],[70,171],[33,65]],[[5299,10873],[31,600]],[[5330,11473],[667,-18],[1093,-26],[-9,-39],[184,-969],[176,-918],[94,-494],[99,-415],[194,-986],[212,-1079],[160,-815],[125,-223],[44,-98],[95,-139],[104,-114],[137,-173],[183,-224],[244,-301],[604,-723],[1072,-1302],[69,-83],[17,-33],[26,-67],[22,-96],[32,-166],[167,-678],[165,-668],[-1570,2],[-124,0],[-238,-76],[-347,-117],[-241,-86],[-198,-59]],[[8750,569],[142,250],[177,228],[221,240],[136,182],[100,142]],[[9526,1611],[-108,237],[-13,133],[61,78],[141,96],[84,84],[-25,120],[-430,101],[-213,125],[-149,190],[-143,135],[-94,182],[-226,186],[-163,93],[-188,188],[1,86],[-371,213],[-160,115],[-64,121],[-8,76],[-400,317],[-144,139]],[[6914,4626],[-232,114],[-195,157],[-250,304],[-8,8],[-211,282],[-171,433],[-164,444],[-61,117],[-21,35]],[[5601,6520],[27,116],[84,460],[-41,358],[10,591],[27,173],[78,306],[12,204],[-92,217],[-41,80],[-11,162],[-153,273],[-9,15],[-32,176]],[[5460,9651],[-66,187]],[[5394,9838],[-83,716]],[[5311,10554],[-12,319]],[[8252,1066],[36,-3],[27,5],[30,16],[33,-7],[52,-3],[72,27],[9,15],[-22,23],[-32,16],[-6,104],[-18,23],[-32,15],[-4,23],[40,50]],[[8437,1370],[72,23],[17,9]],[[8526,1402],[13,-15],[39,-8],[5,-14],[40,-55],[3,-27],[-28,-16],[-9,-15],[7,-26],[43,-32],[83,-38],[57,-12],[88,12],[28,-27],[41,-8],[-125,-132],[-70,-83],[-70,-97],[-31,-52],[-43,-42],[-25,-43],[-9,2],[-51,-68],[-22,-24],[-22,-10]],[[8526,1402],[23,19],[12,27],[4,29],[23,24],[81,4],[63,15],[29,2],[84,-19],[45,-6],[26,8],[10,28],[29,-3],[28,16],[-7,51],[60,3],[-8,43]],[[9028,1643],[333,20],[165,-52]],[[8274,1955],[12,-71],[23,-3],[-22,-22],[-7,-29],[36,4],[11,-11],[-40,-11],[-4,-17],[16,-42],[55,4],[4,-14],[28,5],[43,-3],[3,-26],[57,3],[24,-3],[1,62],[10,26],[-5,18],[145,5],[61,51]],[[8725,1881],[42,-23],[0,-45],[4,-40],[26,-45],[-14,-55],[30,-39],[136,3],[79,6]],[[8437,1370],[-9,54],[-23,54],[-23,12],[-18,-1],[-16,-25],[-19,9]],[[8329,1473],[-20,10],[21,35],[-3,19],[-20,28],[-27,16],[4,47],[-29,30],[18,14],[-4,15],[16,24],[-25,49],[-90,-7],[7,11],[54,11],[22,11],[10,33],[-4,28],[16,31],[-5,10],[4,67]],[[8048,2352],[52,-20],[98,-48],[20,-7],[159,-43],[49,-7],[61,-3],[98,0],[75,-72],[12,-30],[21,-36],[12,-38],[16,-99],[4,-68]],[[8274,1955],[-9,31],[18,44],[-11,40],[16,31],[-9,33],[-23,12],[-39,32],[-14,18],[-64,-15],[-10,-7],[-26,21],[-11,21],[-23,1],[-6,96],[-15,39]],[[7665,1953],[107,114],[43,49],[35,48],[18,32],[32,91],[4,67]],[[7904,2354],[115,1],[29,-3]],[[8329,1473],[-59,-30],[-62,-41],[-24,-12]],[[8184,1390],[-17,24],[-43,20],[-94,-1],[-31,5],[-5,35],[-40,190],[-21,49],[-86,100],[-132,113],[-50,28]],[[2739,8978],[46,46],[56,46]],[[2841,9070],[31,41],[12,42]],[[2884,9153],[160,-57],[71,-27],[35,-9],[63,3],[154,40],[32,7],[69,-3],[63,-23],[43,-31],[40,-16],[98,-18],[58,-9],[112,-9],[40,12],[24,23],[27,17],[94,41],[32,4]],[[4099,9098],[10,-78],[8,-29],[345,-979],[-28,-159],[-31,-190],[15,-209],[1,-31]],[[4419,7423],[-61,59],[-45,23],[-63,77],[-53,116],[4,24],[-19,21],[-16,32],[-47,42],[-14,70],[-12,15],[-13,52],[-28,38],[-33,17],[-59,14],[-25,1],[-19,-17],[-53,-18],[-54,-6],[-29,1],[-61,33],[-60,7],[-26,-4],[-21,-14],[-21,2],[-11,12],[-34,5],[-18,-20],[-6,-28],[-13,-13],[-80,-19],[-49,-30],[-7,-40],[-28,-13],[-31,-1],[-41,12],[-34,-1],[-54,-10],[-48,12],[-54,-26],[-15,-21],[-28,7],[-4,12],[-33,-3],[-30,-26],[-40,10],[-50,36],[-23,-13]],[[2860,7850],[-30,28]],[[2830,7878],[-108,97],[-32,35],[-25,51],[-66,233],[-5,31],[3,40],[49,186],[9,62],[3,93],[8,52],[26,86],[18,76],[29,58]],[[669,7631],[183,18],[26,-1],[73,11],[131,11],[66,8],[40,26],[32,13],[70,4],[37,19],[28,21],[56,36],[39,36],[96,137],[32,26],[34,16],[155,60],[62,32],[147,117],[100,103],[23,28],[21,35],[20,48],[31,89],[14,34],[20,25],[145,119],[20,24],[4,17],[-3,56],[5,29],[22,-4],[69,-25],[38,-3],[50,3],[79,-10],[-1,61],[4,33],[18,35],[73,60],[11,0]],[[2830,7878],[-18,-18],[-18,-45],[-15,-56],[-5,-33],[-18,-56],[-29,-42],[-40,-5],[-33,17],[-69,-1],[-31,3],[-53,-20],[-47,-8],[-9,9],[-45,-1],[-12,16],[-23,7],[-47,-18],[-9,-25],[-60,-26],[6,-22],[-76,0],[-26,-11],[31,-43],[-28,-16],[-74,31],[-24,-13],[-16,-20],[-44,-21],[-27,-6],[-7,-19],[91,-34],[16,-13],[-6,-47],[-28,-26],[-33,-2],[-47,15],[-26,2],[-29,-15],[-58,-42],[-20,-4],[-20,6],[-31,35],[-19,7],[-32,-50],[-33,-37],[-16,-41],[-21,-11],[-55,20],[-26,49],[7,19],[56,78],[-1,18],[-49,9],[-55,-13],[-17,-40],[-100,-64],[-22,-89],[-48,-6],[-113,25],[-89,-46],[-25,-52],[-232,-114]],[[883,6973],[-18,53],[-62,90],[-15,27],[-20,75],[-26,55],[-49,60],[-14,33],[7,34],[36,55],[3,32],[-6,38],[-50,106]],[[3309,5317],[42,14],[39,28],[29,13],[101,24],[72,33],[134,69],[83,46],[58,38],[123,79],[32,25],[73,86]],[[4095,5772],[24,-23],[31,-22],[78,-38],[55,-22],[120,-35],[124,-58],[60,-20],[128,-32],[238,-51],[107,-17],[153,-15],[78,-13],[39,-13],[48,-24],[51,-39],[51,-70],[133,-185],[17,-26],[19,-43],[-1,-124],[1,-124],[-2,-37],[3,-47],[14,-46]],[[5664,4648],[20,-35],[34,-41],[71,-74],[44,-42],[255,-268],[77,-78],[37,-30]],[[6202,4080],[-62,-29],[-31,0],[-25,10],[-25,21],[-36,16],[-44,0],[-33,15],[-23,19],[-41,6],[-63,-40],[-35,-69],[-1,-32],[-21,-51],[-53,-40],[-21,-6],[-37,-1],[-63,4],[-28,-6],[-43,-41]],[[5517,3856],[-21,24],[-60,51],[-51,48],[-50,66],[-31,32],[-61,43],[-65,54],[-37,22],[-108,45],[-122,44],[-133,55],[-103,53],[-48,39],[-45,69],[-5,24],[-2,92],[-15,55],[28,25],[27,68],[5,56],[14,45],[-69,29],[-78,40],[-100,34],[-23,12],[-54,41],[-30,30],[-42,53],[-16,14],[-81,55],[-63,13],[-20,-1],[-39,-16],[-57,-9],[-74,6],[-44,-4],[-76,-27],[-49,-4],[-28,-16],[-22,-1],[-37,-16],[-38,-22],[-48,10],[-26,12],[-91,32],[-60,15],[-28,16],[-9,17],[7,35],[-8,79],[-22,24]],[[2860,7850],[74,-88],[20,-28],[20,-43],[7,-48],[-14,-105],[-1,-33],[7,-34],[94,-304],[26,-54],[213,-274],[41,-56],[12,-33],[2,-35],[-9,-94],[7,-58],[25,-39]],[[3384,6524],[-9,-7],[-77,-29],[-32,-22],[-43,-16],[-91,-15],[-54,-2],[-93,2],[-33,-3],[-57,-13],[-89,-5],[-61,-16],[-55,-33],[-55,-44],[-28,-34],[-26,-39],[-66,-86],[-24,-42],[-45,-125],[-12,-69],[-7,-21],[-41,-70],[-19,-22],[-46,-25],[-322,-103],[-59,-7],[-202,14],[-126,21],[-278,51],[-34,2],[-73,-3],[-31,3],[-47,12],[-159,61]],[[990,5839],[43,84],[20,86],[16,32],[28,34],[38,31],[23,30],[14,34],[1,35],[-14,32],[-61,57],[-84,63],[-60,51],[-73,43],[-39,13],[-33,17],[-21,16],[-7,18],[9,42],[29,54],[26,84],[11,55],[16,55],[7,59],[4,109]],[[2897,11712],[32,2],[150,1],[117,-4],[150,3],[184,2]],[[3530,11716],[13,-66],[110,-223]],[[3653,11427],[67,-142],[32,-59]],[[3752,11226],[32,-103],[26,-145],[21,-139],[40,-225],[8,-25],[1,-31],[17,-112]],[[3897,10446],[-28,-28],[-52,-33],[-10,-2],[-78,26],[-13,15],[-48,38],[-47,8],[-31,-13],[-30,-4],[-49,16],[-19,1],[-74,-20],[-39,-22],[-25,-2],[-66,-36],[-42,-12],[-75,-8],[-35,9]],[[3136,10379],[16,49],[5,36],[1,42],[-5,34],[-16,50],[-23,44],[-32,46],[-181,241],[-43,65],[-15,32],[-24,85],[-17,115],[-10,79],[0,95],[5,52],[29,124],[29,69],[42,75]],[[4913,9856],[9,-3],[125,8],[65,-4],[12,-19],[53,-15],[30,15],[187,0]],[[5460,9651],[-90,-30],[-86,-33],[4,-13],[-110,-36],[-34,9],[16,-177],[1,-42],[-21,-48],[-138,-192],[-23,-14]],[[4979,9075],[-22,-2],[-52,6],[-67,-9],[-27,-11],[-35,-30],[-49,-51],[-39,10],[-109,43],[-34,6],[-83,-7],[-21,3],[-66,19],[-45,17],[-117,10],[-72,15],[-42,4]],[[4099,9098],[-49,403],[-32,216]],[[4018,9717],[54,-37],[85,-49],[54,-4],[31,3],[81,18],[40,19],[50,7],[86,32],[33,8],[27,17],[38,14],[57,3],[66,31],[141,15],[46,31],[6,31]],[[669,7631],[-24,67],[-13,55],[24,88],[10,15],[3,30],[21,44],[44,78],[63,72],[14,34],[1,30],[8,38],[15,33],[19,26],[21,41],[4,38],[-15,36],[-8,39],[-9,111],[4,41],[18,106],[16,55],[-4,88],[-66,108],[-40,47],[-18,38],[-31,52],[-27,30],[-27,18],[-49,20]],[[623,9109],[30,48],[23,12],[38,5],[52,-19],[13,-16],[18,15],[31,-9],[97,-17],[42,12],[18,-1],[-8,-33],[13,-22],[62,24],[12,-14],[22,19],[46,-27],[21,1],[54,-22],[40,-1],[83,64],[14,41],[15,11],[53,-1],[63,20],[38,27],[60,76],[54,54],[46,8],[37,47],[30,14],[32,7],[52,-10],[37,-1],[61,22],[43,0],[18,13],[26,-6],[77,-28],[44,-10],[4,-6],[48,-28],[28,-43],[37,-16],[26,-27],[1,-12],[248,-126],[36,-16],[40,-32],[84,-11],[45,20],[79,-29],[35,-16]],[[2351,11868],[52,-44],[157,-121],[16,-5],[256,4],[32,8],[33,2]],[[3136,10379],[-10,-21],[-32,-45],[-269,-301],[-2,-11]],[[2823,10001],[-32,48],[-18,19],[-48,38],[-200,141]],[[2525,10247],[-96,67],[-73,58],[-242,192],[-132,112],[-42,55],[-28,53],[-40,61],[-227,330],[-74,129],[-36,39],[-43,33]],[[1492,11376],[29,36],[25,17],[37,7],[29,32],[10,37],[51,27],[13,33],[20,15],[27,5],[106,-2],[43,-8],[50,9],[23,42],[-12,30],[16,14],[46,11],[43,51],[42,-6],[28,16],[9,27],[13,9],[57,20],[20,15],[45,2],[19,12],[1,18],[34,21],[35,2]],[[3897,10446],[54,-108],[-30,-18],[29,-192]],[[3950,10128],[6,-38],[48,-284],[14,-89]],[[2884,9153],[-15,237],[-9,102],[-17,271],[0,106],[-2,69],[-4,27],[-14,36]],[[2712,3439],[6,30],[51,135],[24,106],[59,151],[19,40],[107,185],[83,130],[37,51],[42,38],[42,61],[9,21],[0,59],[-9,37],[-17,42],[-16,55],[-28,124],[-1,70],[7,29],[-1,89],[11,28],[28,15],[21,27],[49,24],[-7,23],[30,5],[1,18],[-27,-2],[-55,37],[8,18],[-2,27],[42,58],[28,67],[-8,43],[-32,42],[78,-7],[18,2]],[[5517,3856],[15,-36],[-1,-19],[-15,-59],[-8,-53],[-41,-16],[-17,-18],[-22,-50],[-20,-18],[-48,-22],[-39,-31],[-44,-18],[-43,-33],[-63,-38],[-45,-32],[-57,-54],[-45,-54],[112,-35],[10,-26],[24,-17],[-36,-17],[-38,-40],[-2,-35],[-14,-11],[-84,-22],[-26,-4],[-17,-18],[10,-17],[-9,-45],[-5,-106],[-51,-312]],[[4898,2600],[-148,-36],[-99,-13],[-233,-18],[-44,0],[-51,7],[-52,16],[-25,15],[-22,26],[-41,86],[-19,54],[-20,44],[-37,60],[-51,30],[-75,19],[-109,31],[-203,69],[-388,213],[-106,94],[-68,35],[-57,13],[-82,8],[-91,-10],[-78,11],[-15,7],[-72,78]],[[3950,10128],[37,-16],[12,-12],[5,-34],[26,12],[1,31],[28,16],[-12,53],[56,27],[28,8],[58,-19],[21,4],[11,27],[16,6],[25,29],[-7,18],[15,9],[-14,15],[1,33],[8,12],[-6,20],[30,21],[-27,26],[0,35],[13,6],[-6,21],[5,27],[17,44],[9,9],[74,28],[53,29],[57,15],[57,1],[16,4],[-2,23],[8,37],[19,29],[-17,26],[25,19],[36,-6],[34,-29],[21,9]],[[4681,10741],[150,87],[55,26],[15,50],[15,-3],[-12,-41],[62,10],[13,29],[20,0],[-1,-27],[37,4]],[[5035,10876],[264,-3]],[[5311,10554],[-268,-1],[-2,-7],[-50,-7],[-13,-10],[-34,-10],[3,-33],[10,-33],[-34,-13],[-27,-27],[4,-61],[-14,-38],[-27,-24],[24,-68],[11,-17],[8,-78],[-20,0],[-7,-15],[9,-15],[4,-60],[15,-109],[9,-28],[1,-44]],[[4419,7423],[13,-323],[6,-25]],[[4438,7075],[28,-98],[25,-61],[66,-126],[67,-347],[10,-50]],[[4634,6393],[-24,-4],[-19,-16],[-11,-23],[-28,-12],[-63,-2],[-55,-10],[-34,-11],[-49,-32],[-53,-12],[-28,0],[-87,-30],[-54,-23],[-40,-8],[-22,-28],[-27,-13],[-20,0],[-75,-33],[-59,-45],[-40,-19]],[[3846,6072],[-239,309],[-45,39],[-32,19],[-88,42],[-29,18],[-29,25]],[[298,10660],[43,53],[21,41],[3,29],[11,20],[16,-2],[44,-27],[27,-7],[56,22],[12,12],[-1,23],[-15,10],[-38,8],[-67,-4],[-1,64],[8,8],[29,-4],[31,-11],[22,4],[35,18],[23,-3],[9,-45],[37,-22],[29,0],[18,10],[11,27],[-38,32],[10,20],[22,-14],[41,-1],[13,30],[-17,24],[0,22],[18,-1],[25,-19],[44,-26],[45,4],[52,33],[11,22],[-26,6],[-4,13],[29,33],[3,31],[12,12],[19,-46],[15,-8],[38,13],[8,26],[-22,26],[-3,25],[15,45],[17,11],[29,5],[55,-2],[32,18],[30,-4],[71,-1],[39,3],[6,16],[43,2],[22,-15],[32,16],[-4,36],[37,3],[7,-17],[18,-3],[40,15],[13,18],[18,2],[10,16],[32,11],[-4,29],[-22,20],[0,11]],[[2525,10247],[-29,-21],[-60,-19],[-44,-2],[-58,-19],[-51,16],[-24,-8],[-36,-2],[-52,-21],[-36,-8],[-87,-39],[-62,-21],[-29,-34],[-36,-12],[1,-19],[-33,2],[-18,-8],[-55,-1],[-44,-29],[-19,-26],[-23,-6],[-2,-16],[-18,-15],[-29,-40],[-7,-41],[8,-31],[-30,-40],[-56,-52],[-17,-6],[-21,8],[-8,27],[-17,0],[-29,-35],[-21,5],[3,21],[-41,3],[-28,17],[-34,-3],[-103,-40],[-65,-41],[-66,-65],[-36,-54],[-25,-50],[-16,-44],[-36,-17],[-26,-4],[-19,-15],[-45,7],[-24,-40],[-45,28],[-18,-23],[-1,-16],[18,-14],[-19,-16],[-54,5],[-34,10],[-30,-5],[-41,16],[-21,-20],[-62,2],[-28,-21],[9,-16],[-17,-19],[16,-9],[8,-42],[-32,5],[-15,-21],[-58,-11],[-9,-33],[-32,-49]],[[457,9160],[-49,31],[-58,41],[-54,53],[-25,43],[23,214],[-1,72],[14,54],[33,37],[42,40],[68,50],[51,49],[57,114],[-4,66],[-16,28],[-31,24],[-73,22],[-106,6],[-98,-5],[-88,23],[-62,31],[-33,36],[-19,37],[10,50],[42,28],[91,18],[97,17],[74,37],[90,143],[14,53],[-5,21],[-31,17],[-112,50]],[[623,9109],[-73,13],[-79,30],[-14,8]],[[4979,9075],[21,-33],[32,-33],[22,-49],[9,-35],[-2,-35],[37,-23],[14,-17],[15,-42],[36,-66],[36,-96],[39,-86],[5,-32],[80,-28],[31,-5],[4,-60],[-18,-42],[-103,-100],[-21,-25],[-25,-48],[-4,-34],[11,-74],[1,-47],[-8,-30],[3,-22],[42,-47],[0,-18],[-11,-33],[-30,-29],[-35,-9],[-29,-20],[-47,-51],[-35,-56],[-72,-25],[-37,0],[-46,-11],[7,-52],[30,-65],[5,-30],[-20,-53],[-6,-39],[19,-47],[-9,-45],[-32,-50],[-35,-28],[-34,-41],[-9,-47],[-13,-27],[-11,-49],[-81,-25],[-68,-15],[-135,-15],[-64,-11]],[[6202,4080],[68,-39],[54,-21],[68,-16],[178,-26]],[[6570,3978],[-16,-31],[-35,-31],[31,-48],[-32,-69],[-3,-76],[-72,-90],[-25,-48],[-39,-34],[-16,-23],[-4,-33],[-32,-72],[-6,-84],[4,-52],[11,-32],[33,-67],[14,-22],[11,-34],[37,-60],[14,-37],[-24,-99],[8,-74],[-3,-96],[-12,-73],[-15,-37],[-22,-42],[-27,-40],[-32,-28],[-49,-24],[-108,-57],[-60,-40],[-53,-47],[-30,-54],[-68,-89],[-51,-81],[-49,-86],[-29,-97]],[[5821,1971],[-22,41],[-24,27],[-66,40],[-76,22],[-28,20],[-42,12],[-51,23],[-67,48],[-34,29],[-32,37],[-43,65],[-61,66],[-67,47],[-90,83],[-94,63],[-30,16],[-47,-1],[-49,-9]],[[3846,6072],[100,-131],[23,-26],[76,-74],[50,-69]],[[2712,3439],[-20,21],[-46,24],[-29,29],[-24,42],[-30,63],[-19,29],[-23,20],[-48,29],[-34,34],[-47,38],[-28,69],[-51,60],[-14,5],[-127,73],[-165,146],[-158,112],[-199,117],[-181,80],[-38,26],[-15,51],[21,51],[46,71],[5,49],[-6,71],[-15,22],[-229,361],[-167,197],[-33,22],[-166,85],[-44,41],[-9,14],[21,50],[12,40],[25,57],[31,62],[25,59],[25,40],[32,40]],[[5601,6520],[-112,12],[-11,15],[-37,-2],[-15,-15],[-31,4],[-37,-19],[-10,-25],[-24,1],[-10,-16],[-18,0],[1,21],[-21,9],[-22,-10],[17,-12],[-11,-24],[-21,-6],[-1,34],[-25,19],[-12,-23],[-28,-16],[-34,11],[-57,0],[-47,-9],[-36,-19],[-40,-5],[-76,16],[-20,-14],[-41,-17],[-42,1],[-15,-10],[-3,-35],[-56,23],[-46,0],[-26,-16]],[[1338,12883],[439,-337],[23,-19],[144,-109],[408,-315]],[[2352,12103],[-1,-235]],[[1492,11376],[-137,93],[-78,65],[-15,22],[-32,70],[-5,30],[5,96],[43,259],[7,86],[-8,48],[-97,294],[-2,30],[7,34],[19,33],[84,112],[20,30],[14,34],[13,52],[4,50],[-9,83],[13,-14]],[[1320,12941],[7,-38],[11,-20]],[[298,10660],[-41,19],[-65,38],[-57,57],[-30,74],[-3,51],[18,71],[57,85],[31,71],[1,60],[-31,71],[-53,58],[-94,60],[-26,26],[-5,22],[22,53],[62,82],[143,218],[22,38],[-3,65],[-55,126],[-5,46],[21,53],[35,24],[52,1],[151,-2],[64,24],[25,45],[-13,66],[-12,87],[8,59],[-8,30],[-45,44],[6,21],[36,25],[18,22],[3,20],[-39,40],[-2,19],[11,44],[1,23],[23,2],[33,-13],[20,6],[22,32],[21,16],[15,-3],[17,-36],[35,-20],[63,8],[36,-7],[8,13],[27,3],[28,-19],[46,10],[15,26],[55,-1],[12,12],[-17,39],[35,19],[30,0],[29,25],[-26,14],[0,23],[42,24],[64,-13],[21,4],[19,22],[35,12],[30,27],[46,19],[38,1]],[[4346,11119],[228,-45],[141,-30],[95,-34],[47,-12],[151,-28],[26,-2]],[[5034,10968],[-2,-26],[-10,-9],[17,-35],[-4,-22]],[[4681,10741],[-5,13],[22,14],[-15,34],[-8,34],[-49,22],[-39,28],[-17,1],[-18,19],[-3,34],[-20,29],[-27,-1],[-27,-11],[-25,-1],[-30,16],[-19,30],[0,60],[-13,10],[-41,12],[-1,35]],[[8199,1126],[1,33],[-34,25],[-22,42],[0,21],[17,72],[6,58],[17,13]],[[3752,11226],[88,8],[45,-3],[41,-7],[123,-34],[170,-44],[127,-27]],[[4890,11334],[180,-19],[0,-34],[-27,-139],[-1,-41]],[[5042,11101],[-37,-5],[-39,10],[-27,19],[-27,6],[-20,22],[-30,45],[28,136]],[[1320,12941],[41,1],[38,-12],[56,20],[27,39],[25,25],[25,9],[43,7],[34,19],[34,9],[38,-3],[71,12],[48,-2],[45,-11],[42,-27],[43,-4],[51,0],[9,-25],[17,-5],[40,12],[65,5],[78,-7],[57,2],[31,-13],[37,-2],[32,21],[-1,-153],[2,-304],[0,-55],[61,-79],[-62,-66],[5,-251]],[[6414,1364],[239,132],[51,180],[89,116],[24,82],[43,36],[65,13],[11,24],[59,36],[29,6],[153,25],[28,18],[9,20],[26,10],[20,31],[13,51],[-8,18],[3,55],[-12,12],[12,33],[19,27],[0,21],[17,25],[37,13],[4,23],[20,13],[-11,13],[8,24],[56,26],[23,23],[5,26],[-1,47],[8,17],[50,32],[6,39],[22,23],[22,6],[32,25],[23,3],[15,14],[39,9]],[[7662,2711],[89,-65],[39,-35],[32,-36],[31,-44],[24,-47],[24,-81],[3,-49]],[[7665,1953],[-62,-62],[-113,-104],[-20,-25],[-23,-55],[-56,-209],[-12,-30],[-20,-32],[-148,-192],[8,-9]],[[7219,1235],[-19,-6],[-87,-114],[-75,-10],[-156,-10],[-375,-19]],[[6507,1076],[-7,57],[-19,78],[-32,85],[-35,68]],[[6570,3978],[109,-14],[101,-16],[35,-10],[35,-16],[44,-38],[24,-39],[205,-501],[23,-40],[41,-49],[79,-86],[32,-42],[51,-80],[77,-126],[29,-40],[32,-35],[42,-38],[133,-97]],[[6414,1364],[-8,15],[-78,122],[-57,81],[-134,150],[-119,122],[-54,44],[-69,25],[-37,16],[-37,32]],[[7219,1235],[28,29],[39,52],[28,27],[61,36],[37,-48],[106,-52],[-13,-50],[-2,-24],[11,-36],[22,-51],[39,-64],[-3,-52],[18,-53],[-1,-42],[-20,-49],[-20,-41]],[[7577,3],[-184,-3],[-145,45],[-98,53],[-82,77],[-48,68],[-74,176],[-42,83],[-54,56],[-99,46],[-90,15],[-152,-11],[-131,-11],[-28,14],[-21,17],[-5,18],[10,24],[63,100],[77,135],[25,81],[11,66],[-3,24]],[[5664,4648],[96,64],[27,11],[98,22],[51,-4],[114,-42],[45,-4],[58,5],[54,8],[83,-8],[98,-47],[66,-5],[69,-16],[54,-23],[62,20],[23,-4],[252,1]],[[5034,10968],[8,133]],[[4890,11334],[-144,15],[-73,11],[-71,24],[-110,53],[-151,75],[-53,16],[-86,7],[-30,-7],[-48,-20],[-26,-16],[-34,-29],[-31,-20],[-46,-16],[-75,-5],[-26,-18],[-70,21],[-44,-7],[-42,4],[-37,-6],[-40,11]],[[3530,11716],[281,0],[1138,6],[192,-227],[20,-19],[169,-3]]],"transform":{"scale":[0.00003361507164337576,0.00003552598148006447],"translate":[-76.70196,38.305057]},"objects":{"Geometry\\24-009":{"type":"GeometryCollection","geometries":[{"arcs":[[0,1,2,3,4,5,6]],"type":"Polygon","properties":{"GEOID":"240098610032"}},{"arcs":[[7,8,-5,9,10,11,12,13,14,15]],"type":"Polygon","properties":{"GEOID":"240099901000"}},{"arcs":[[16,17,18,-3]],"type":"Polygon","properties":{"GEOID":"240098610031"}},{"arcs":[[19,20,-10,-4,-19]],"type":"Polygon","properties":{"GEOID":"240098610042"}},{"arcs":[[21,22,-20,-18,23,24]],"type":"Polygon","properties":{"GEOID":"240098610043"}},{"arcs":[[25,-22,26]],"type":"Polygon","properties":{"GEOID":"240098610041"}},{"arcs":[[27,28,-27,-25,29,30]],"type":"Polygon","properties":{"GEOID":"240098610033"}},{"arcs":[[31,32,33,34,35,36,37]],"type":"Polygon","properties":{"GEOID":"240098605012"}},{"arcs":[[38,-38,39,40]],"type":"Polygon","properties":{"GEOID":"240098606003"}},{"arcs":[[41,42,43,44,45]],"type":"Polygon","properties":{"GEOID":"240098608011"}},{"arcs":[[-40,-37,46,47,48]],"type":"Polygon","properties":{"GEOID":"240098607011"}},{"arcs":[[49,50,51,52,53,54]],"type":"Polygon","properties":{"GEOID":"240098603001"}},{"arcs":[[55,-14,56,57,58,59]],"type":"Polygon","properties":{"GEOID":"240098603003"}},{"arcs":[[-32,-39,60,61]],"type":"Polygon","properties":{"GEOID":"240098606002"}},{"arcs":[[62,-55,63,64,65,66]],"type":"Polygon","properties":{"GEOID":"240098602002"}},{"arcs":[[-54,67,68,-59,-34,69,-64]],"type":"Polygon","properties":{"GEOID":"240098603002"}},{"arcs":[[70,-46,71,72]],"type":"Polygon","properties":{"GEOID":"240098608013"}},{"arcs":[[73,74,75,-16,76,-60,-69]],"type":"Polygon","properties":{"GEOID":"240098604021"}},{"arcs":[[77,78,79,80,-47,-36]],"type":"Polygon","properties":{"GEOID":"240098607021"}},{"arcs":[[81,-66,82,83]],"type":"Polygon","properties":{"GEOID":"240098602001"}},{"arcs":[[-83,-65,-70,-33,-62,84]],"type":"Polygon","properties":{"GEOID":"240098606001"}},{"arcs":[[-58,85,-78,-35]],"type":"Polygon","properties":{"GEOID":"240098605011"}},{"arcs":[[-72,-45,86,87,88]],"type":"Polygon","properties":{"GEOID":"240098608012"}},{"arcs":[[-48,-81,89,-42,-71,90]],"type":"Polygon","properties":{"GEOID":"240098607031"}},{"arcs":[[-86,-57,-13,91,-79]],"type":"Polygon","properties":{"GEOID":"240098605021"}},{"arcs":[[-15,-56,-77]],"type":"Polygon","properties":{"GEOID":"240098604022"}},{"arcs":[[92,93,-67,94]],"type":"Polygon","properties":{"GEOID":"240098601031"}},{"arcs":[[95,-95,-82,96]],"type":"Polygon","properties":{"GEOID":"240098601033"}},{"arcs":[[97,98,-75,99]],"type":"Polygon","properties":{"GEOID":"240098604032"}},{"arcs":[[-30,-24,-17,-2,100]],"type":"Polygon","properties":{"GEOID":"240098610034"}},{"arcs":[[101,-100,-74,-68,-53]],"type":"Polygon","properties":{"GEOID":"240098604031"}},{"arcs":[[102,103]],"type":"Polygon","properties":{"GEOID":"240098604042"}},{"arcs":[[104,-93,-96]],"type":"Polygon","properties":{"GEOID":"240098601032"}},{"arcs":[[105,106,-28,107,108,109]],"type":"Polygon","properties":{"GEOID":"240098609011"}},{"arcs":[[-88,110,-106,111]],"type":"Polygon","properties":{"GEOID":"240098609021"}},{"arcs":[[-109,112,-7,113]],"type":"Polygon","properties":{"GEOID":"240098609012"}},{"arcs":[[114,-11,-21,-23,-26,-29,-107,-111,-87,-44]],"type":"Polygon","properties":{"GEOID":"240098611001"}},{"arcs":[[-8,-76,-99,115,-103,116,-51,117]],"type":"Polygon","properties":{"GEOID":"240098604041"}},{"arcs":[[-104,-116,-98,-102,-52,-117]],"type":"Polygon","properties":{"GEOID":"240098604043"}},{"arcs":[[-31,-101,-1,-113,-108]],"type":"Polygon","properties":{"GEOID":"240098609013"}},{"arcs":[[-92,-12,-115,-43,-90,-80]],"type":"Polygon","properties":{"GEOID":"240098611002"}}]}}}