{"type":"Topology","arcs":[[[7682,9605],[1,99],[6,35],[14,26]],[[7703,9765],[36,-16],[154,-34]],[[7893,9715],[43,-13],[79,-52]],[[8015,9650],[-45,-33],[-20,-26],[-17,-40],[-23,-25],[-22,-47],[-19,-16],[-193,-73]],[[7676,9390],[-13,130],[4,35],[15,50]],[[8218,10418],[38,-114],[33,-60],[56,-65],[66,-46],[81,-32]],[[8492,10101],[-150,-200],[-6,-13],[-44,47],[-86,-21],[-57,-2],[-51,14],[-59,-15],[-83,-47],[-22,-38],[-13,-63],[-28,-48]],[[7703,9765],[-138,71]],[[7565,9836],[13,58],[14,33],[42,45],[39,28],[43,56],[38,27],[71,96],[17,38],[20,80],[21,27],[57,49],[25,-5],[10,-25],[84,26],[36,14],[123,35]],[[3603,11790],[40,-16],[32,9],[54,-18],[168,-16],[64,3]],[[3961,11752],[-14,-95],[-28,-69],[-48,-58],[5,-25],[-16,-68],[-4,-45],[9,-33],[20,-36],[40,-55],[35,-55],[46,-111],[12,-56],[-5,-204],[-3,-39],[-14,-88],[-1,-36],[13,-116],[18,-37],[67,-56],[40,-41],[12,-29],[23,-99],[17,-31]],[[4185,10270],[-73,56],[-91,55],[-26,11],[-139,41],[-18,2],[-65,-7],[-42,4],[-108,46],[-64,14],[-112,16],[-35,0],[-94,-20],[-40,0],[-22,7],[-70,41],[-68,26],[-51,14]],[[3067,10576],[-28,56],[5,34],[-2,26],[12,24],[-4,39],[-31,31],[78,37],[31,22],[130,174],[20,54],[0,66],[6,32],[30,106],[60,193],[20,39],[52,67],[19,74],[13,17],[65,46],[22,23],[38,54]],[[4947,9839],[10,10],[34,84],[45,79],[8,57],[14,21],[-15,12],[3,40],[11,15],[21,3],[19,35],[-8,19],[9,36],[25,18],[20,50],[2,18]],[[5145,10336],[108,-61],[206,-153],[198,-59],[53,-14],[116,-35],[56,-15],[125,-38],[529,-151],[51,-13],[9,35],[-17,60],[54,0],[5,11],[63,-2]],[[6701,9901],[45,-10],[21,-11],[45,5],[21,-6],[29,-29],[13,-42]],[[6875,9808],[-93,6],[-40,-6],[-45,-22],[-72,-54],[-40,-36],[-38,-27],[-65,-30],[-73,-60],[-40,-3],[-2,-53],[-8,-14],[-40,-10],[-38,-27],[-16,-36],[-26,-24],[-13,-28],[-28,-14],[-23,-39],[2,-24],[17,-23],[25,-16],[29,-52],[-2,-43],[-43,-35],[7,-41],[-5,-56],[14,-40],[36,-45],[46,-8],[13,-18],[42,-13],[20,-24]],[[6376,8893],[-27,4],[-12,-20],[-1,-49],[-12,-27],[-60,-70],[-8,-40],[1,-29],[-13,-56],[5,-17]],[[6249,8589],[-64,14],[-117,-3],[-66,9],[-123,35],[-39,15],[-91,63],[-39,35]],[[5710,8757],[-89,101],[-54,70],[-60,52],[-29,39],[-30,52],[-37,100],[-113,239],[-16,32],[-42,99],[-22,34],[-33,25],[-43,27],[-54,41],[-28,29],[-36,45],[-33,51],[-44,46]],[[4346,10018],[23,-13],[17,-42],[-15,-10],[15,-44],[-24,-36],[20,-24],[30,15],[10,-33],[35,6],[24,-2],[13,-21],[39,-17],[25,-61],[-2,-22],[16,-19],[-16,-27],[26,-23],[38,28],[48,-3],[17,13],[21,-3],[45,-31],[15,-17],[17,-1],[52,21],[35,-11],[23,-22]],[[4893,9619],[-12,-50],[33,-53],[43,-40],[-35,-67],[-98,-121],[-101,-96],[-70,-44],[-95,-47],[-82,-45],[-31,-23],[-52,-58],[-80,-48],[-112,-35],[-214,-36],[-211,-25]],[[3776,8831],[0,21],[-26,65],[-111,73],[11,28],[-30,162],[-27,52],[16,76],[26,46],[24,15],[126,15],[59,16],[28,20],[90,144],[54,60],[23,43],[27,130],[24,30],[43,20],[88,10],[38,16],[48,54],[39,91]],[[6603,10011],[28,21],[0,22],[45,-3],[25,-22],[21,-6],[-10,56],[14,35],[40,29],[44,1]],[[6810,10144],[55,-46],[117,-52],[26,-40],[-26,-113],[20,-22]],[[7002,9871],[-73,-52],[-32,-11],[-22,0]],[[6701,9901],[-17,38],[-32,23],[-49,49]],[[6771,10420],[45,19],[51,42],[27,15],[47,18],[51,26],[58,15],[60,0],[6,-12],[38,-16],[15,-21],[37,-13],[9,-29],[62,8],[51,40],[-1,27],[10,27],[-2,49],[-34,47],[-10,21],[2,22],[16,14],[20,37],[23,20],[25,-14],[23,31],[31,18],[49,16],[16,28],[2,31],[37,88],[-2,22],[86,-27],[183,-67],[69,-61]],[[7871,10841],[-38,-84],[-43,-86],[-7,-21],[8,-20]],[[7791,10630],[-25,-18],[-93,-81],[-15,-33],[-49,-12],[-81,-27],[-37,0],[-13,-41],[-29,-25],[-7,-23],[24,-33],[8,-24],[10,-86],[-30,-60],[-13,-42],[-24,-117],[2,-70],[-9,-22]],[[7410,9916],[-95,49],[-83,62],[-66,36]],[[7166,10063],[-151,74],[-53,38],[-99,106]],[[6863,10281],[3,8],[-32,57],[-41,54],[-22,20]],[[2028,14168],[63,5],[59,-5],[146,-30],[34,2],[53,12],[48,0],[51,-9],[31,-20],[30,-47],[15,-12],[61,-23],[142,-21],[129,9],[20,29]],[[2910,14058],[31,1]],[[2941,14059],[43,-17],[29,-23],[33,-42],[22,-12],[48,14],[68,-13],[91,-36],[131,-33],[41,-4],[45,7],[58,15],[34,-4],[24,-12],[41,-34],[32,-14],[100,-18],[33,-15],[80,-55],[22,-40],[35,-135],[0,-26],[-58,-258],[-14,-46],[-45,-85],[-39,-104],[-24,-34],[-108,-132],[-14,-20],[-16,-45]],[[3633,12838],[-64,33],[-12,-13],[-60,8],[-52,18],[-58,-7],[-100,-44],[-43,2],[-50,31],[-10,72],[0,90],[-43,36],[-67,26],[-51,24],[-27,31],[-40,66],[-24,32],[-8,29],[-15,14],[-148,56]],[[2761,13342],[-34,22]],[[2727,13364],[24,45],[26,18],[-67,58],[-97,70],[-43,35],[-376,325],[-14,14]],[[2180,13929],[21,23],[1,20],[30,23],[13,30],[-50,57],[-22,15],[-22,2],[-60,-11],[-38,-1],[-25,81]],[[4358,11621],[6,9],[-3,47],[9,46],[32,39],[21,48],[2,19],[23,15],[3,30],[-75,92],[21,90],[30,32],[2,38],[-9,22],[-11,75],[-14,25],[-30,34],[62,33]],[[4427,12315],[403,-227],[60,-39],[181,-122],[49,-28],[164,-63],[53,-16]],[[5337,11820],[0,-11],[60,-65],[32,-27],[-6,-29],[6,-51],[-19,-13],[-69,-32],[-72,-75],[-27,-22],[-41,-21],[-27,-21],[-44,-81],[-52,-89],[-15,-32],[-19,-71],[-16,-30],[-121,-131],[-45,-32],[-17,-30],[-5,-30],[4,-59],[18,-41],[31,-35]],[[4893,10792],[-9,-17],[-34,-22],[-8,-15],[5,-36],[-25,4],[-45,60],[-19,38],[4,52],[-24,27],[-6,34],[4,24],[-8,43],[17,16],[-22,21],[-6,58],[-26,15],[-35,33],[-27,1],[-41,33],[-39,48],[-54,46],[-62,28],[-11,24],[-20,17],[-28,43],[-22,20],[-15,31],[-7,49],[2,40],[11,25],[8,83],[7,6]],[[3633,12838],[14,-103],[-3,-15],[-53,-68],[-31,-23],[-10,-15],[-20,-120],[-12,-25],[-34,-42],[-1,-27],[9,-44],[-2,-42],[5,-23],[55,-97],[60,-112],[17,-84],[34,-76],[5,-41],[-37,-47],[-17,-30]],[[3612,11804],[-44,23],[-59,12],[-114,15],[-67,4],[-29,10],[-58,34],[-22,22],[-23,38],[-14,13],[-45,19],[-34,-1],[-85,-14],[-29,-13],[-103,-85],[-104,-72],[-39,-14],[-123,-21],[-68,-17],[-50,-19]],[[2502,11738],[-10,37],[-104,44],[-51,93],[-10,87],[2,52],[15,3],[21,51],[11,66],[15,44],[-1,41],[-7,49],[13,45],[69,95],[13,44],[19,36],[42,52],[44,63],[4,45],[-10,21],[7,17],[-4,33],[21,29],[31,75],[6,31],[30,52],[0,40],[11,24],[-2,43],[9,30],[26,128],[-11,85],[27,29],[33,20]],[[3633,12838],[276,-142]],[[3909,12696],[118,-45],[32,-19],[82,-72],[53,-53],[149,-133],[38,-31],[46,-28]],[[4358,11621],[-21,40],[-22,7],[-31,-7],[-40,3],[-47,15],[-20,13],[-26,36],[-30,28],[-44,13],[-99,-9],[-17,-8]],[[3603,11790],[9,14]],[[7052,9914],[49,95],[25,28],[40,26]],[[7410,9916],[101,-53]],[[7511,9863],[-12,-23],[-20,11],[-7,-23],[-77,-117],[-34,-31],[-9,-47],[38,-6],[42,4],[22,-21],[59,-11],[28,8],[100,12],[41,-14]],[[7676,9390],[-21,3],[-46,-18],[-54,-34],[-56,-16]],[[7499,9325],[-53,-16],[-49,-4],[-54,11],[-17,32],[-48,14],[-14,35],[-13,15],[3,23],[-28,30],[-9,56],[-13,41],[-12,9],[-30,0],[-16,24],[-51,29],[-17,38],[-30,45],[-7,30],[28,43],[27,29],[-8,18],[-2,34],[-18,37],[-16,16]],[[8443,8560],[17,2],[43,-39],[38,-26],[77,-63],[61,8],[57,29],[35,3],[33,33],[43,14],[35,-21],[24,-8],[11,42],[6,52],[26,30],[62,45],[-22,41],[22,29],[4,24]],[[9015,8755],[104,-55]],[[9119,8700],[25,-20],[27,-32],[124,-214],[17,-33],[21,-63],[53,-220],[18,-48]],[[9404,8070],[10,-23]],[[9414,8047],[-38,-17],[-77,-21],[-30,-5],[-76,-24],[-69,-4]],[[9124,7976],[-55,5],[-50,22],[-36,6],[-22,17],[-113,42],[-33,7],[-123,8],[-186,18],[-35,7],[-46,19],[6,34],[-16,71],[-35,98],[-2,24],[6,54],[11,36],[28,52],[20,64]],[[9195,8900],[67,2],[29,6],[61,3],[41,-10],[40,4],[74,-24],[89,58],[17,6],[-9,40],[-1,66],[4,47]],[[9607,9098],[195,-13]],[[9802,9085],[38,-230],[134,-512],[62,-156],[-11,-1]],[[10025,8186],[-81,-14],[-89,3],[-49,-6],[-26,13],[-81,20],[-28,12],[-51,14],[-31,-12],[-50,-51],[-51,-16],[-35,6],[-40,19],[-11,-57],[2,-47]],[[9119,8700],[52,87],[12,36],[12,77]],[[8492,10101],[17,-7],[165,4],[782,297],[78,34]],[[9534,10429],[12,-7],[569,-283],[192,-181],[0,-72],[-307,-302],[-173,-307],[-25,-192]],[[9607,9098],[-32,7],[-66,34],[-25,7],[-39,24],[-24,6],[-85,-50],[-2,4],[-83,-49],[-79,-17],[32,-62],[2,-22],[-11,-80]],[[9015,8755],[-39,44],[-33,64],[-34,42],[-51,42],[-182,117],[-143,80]],[[8533,9144],[-79,33],[-43,32],[-22,24],[-62,104],[-27,40]],[[8300,9377],[-36,59],[-9,23],[-37,38],[-64,46],[-139,107]],[[7676,9390],[17,-149],[-2,-80],[3,-23],[26,-114],[19,-60],[3,-39]],[[7742,8925],[22,-53],[14,-47],[9,-56],[18,-22]],[[7805,8747],[-78,-164],[-16,-30],[-38,-50],[-17,-30],[-6,-36],[-41,10]],[[7609,8447],[-11,18],[-72,47],[-25,42],[-21,11],[-18,31],[-29,-13],[-21,12],[17,55],[-8,33],[8,21],[-20,6]],[[7409,8710],[-19,11],[8,53],[25,15],[0,35],[16,26],[87,77],[-39,102],[86,162],[-68,34],[-6,100]],[[5580,10762],[283,196],[119,56],[80,53],[59,19]],[[6121,11086],[49,-66],[15,0],[166,-128],[28,-23],[37,-40],[171,-234],[111,-130],[73,-45]],[[6863,10281],[-34,-25],[1,-70],[-20,-42]],[[6603,10011],[-14,31],[-50,38],[-87,10],[-22,44],[-5,33],[-10,21],[-43,49],[-3,11],[28,65],[-43,19],[-40,32],[-48,-15],[-15,-22],[-46,-5],[-26,-14],[-40,2],[-29,-6],[-22,-13],[-41,13],[-18,44],[-47,10],[-10,34],[10,19],[-10,18],[-57,30],[-14,32],[-47,32],[-52,8],[-14,30],[-32,46],[-19,49],[-22,30],[-25,56],[-110,20]],[[4365,10102],[33,-24],[97,-42],[83,-29],[84,-22],[95,-44],[165,-87],[25,-15]],[[4947,9839],[-32,-68],[10,-26],[-20,-113],[-12,-13]],[[4346,10018],[19,84]],[[8401,9083],[76,35]],[[8477,9118],[19,-41]],[[8496,9077],[-20,-35],[-22,-14],[-82,-12],[-4,-37],[24,-6],[-4,-40],[25,1],[-8,-74],[30,-1],[0,47],[62,4],[9,-17],[-4,-27],[-25,-87],[-53,-6],[-6,-11],[-37,-8],[-22,6],[-32,-17],[-23,-46]],[[8304,8697],[-89,81],[-60,60],[-81,87]],[[8074,8925],[251,119],[76,39]],[[8477,9118],[56,26]],[[8443,8560],[20,69],[21,51],[14,48],[8,48],[0,41],[11,136],[6,38],[-3,32],[-24,54]],[[7791,10630],[29,-22],[192,19],[61,-13],[67,-40],[38,-48],[40,-108]],[[7565,9836],[-54,27]],[[7742,8925],[34,16],[1,45],[16,25],[59,71],[7,30],[23,19],[35,0],[-4,-27],[9,-27],[18,-15],[36,-1],[41,33],[18,4]],[[8035,9098],[-1,-46],[40,-127]],[[8074,8925],[-114,-60],[-82,-39],[-54,-47],[-19,-32]],[[7052,9914],[-50,-43]],[[8443,8560],[-91,94],[-48,43]],[[9124,7976],[28,-26],[-30,-20],[-26,4],[-8,-22],[-41,-17],[-195,-55],[-96,-36],[-99,-45],[-107,-57],[-47,-36]],[[8503,7666],[-38,49],[-38,25],[-46,18],[-73,13],[-72,23],[-72,46],[-32,54],[-27,37],[-73,80],[-55,28],[-23,0],[-27,22],[-32,-19],[-24,3],[-26,31],[-2,54],[-18,10],[-53,16],[-65,51],[57,53],[6,29],[-19,21],[-58,-17],[-19,16],[5,43],[-16,7]],[[7663,8359],[-10,37],[-43,42],[-1,9]],[[6241,7314],[155,93],[6,-1],[67,46],[45,-42],[15,-1],[46,18],[23,2],[62,-23],[46,-23],[89,-1],[20,4],[39,23],[79,10],[78,29],[50,3],[21,-10],[67,0],[78,-42],[59,-3]],[[7286,7396],[3,-23],[17,-37],[14,1],[81,-23]],[[7401,7314],[98,-32],[62,-9],[109,-28],[33,-17],[43,-52],[41,-38],[27,-13],[155,-39],[32,-5],[138,-9],[58,-1],[98,-8],[14,19],[3,24],[-7,31],[28,-11],[43,14],[47,-16],[31,-17],[50,-1],[33,4],[43,21],[22,28],[24,3],[28,23],[24,31],[3,30],[54,92],[40,57]],[[8775,7395],[47,-10],[17,-16],[8,-28],[-7,-36],[-47,-80],[-38,-53],[-40,-67],[-37,-71],[-24,-59],[-11,-56],[-5,-47],[-2,-66],[2,-95],[9,-124],[17,-65]],[[8664,6522],[0,-159],[5,-373],[1,-256],[2,-150],[-1,-157]],[[8671,5427],[-125,-18],[-84,-46],[-63,-59],[-256,-228],[-98,38],[-131,183],[-96,249],[-160,193],[-83,125],[-35,25],[-32,43],[-158,64]],[[7350,5996],[7,19],[216,0],[40,1],[-21,94],[-27,112],[-19,49],[-44,84],[-75,95],[-105,89],[-36,48],[-13,27],[27,48],[43,21],[60,16],[86,7],[37,20],[2,10],[-52,55],[2,37],[-12,49],[13,37],[-64,37],[-65,18],[-55,27],[-34,43],[-20,-21],[-34,-21],[-150,-70],[-30,-17],[-36,-33],[-56,-65],[-22,-12],[-39,31],[23,39],[-73,50],[-119,102],[-26,7],[-48,-18],[-40,-20],[-124,-44]],[[6467,6947],[-102,230],[-124,137]],[[7350,5996],[-98,15],[-127,-81],[-83,-82],[-118,30],[-101,106],[-207,407],[-121,304],[-28,252]],[[6249,8589],[238,-89],[28,-8],[69,-13],[40,0],[66,8],[67,1],[70,-2],[51,-6],[117,-18],[30,-1],[90,11],[-1,-30],[10,-37],[45,-78],[14,-50],[4,-98],[94,-279],[60,-207],[13,-56],[-3,-59],[-25,-79],[-37,-88],[-3,-15]],[[6241,7314],[-626,484]],[[5615,7798],[40,38],[86,58],[42,-9],[20,3],[141,52],[102,33],[18,-9],[18,15],[19,29],[27,7],[10,19],[22,68],[-11,34],[-31,52],[-14,35],[-22,16],[-44,11],[-49,-1],[-53,20],[-21,26],[-18,7],[-29,63],[-3,45],[-24,27],[-20,8],[-33,50],[-3,63],[-32,30],[-66,11],[23,158]],[[8503,7666],[22,-55],[58,-168],[20,-27],[32,-17],[46,-4],[94,0]],[[7401,7314],[29,22],[45,55],[29,29],[24,12],[44,13],[49,24],[29,26],[23,12],[57,10],[24,65],[69,133],[7,21],[9,81],[1,69],[-7,68],[-34,60],[-19,22],[-20,41],[-87,123],[-10,31],[11,51],[-18,61],[7,16]],[[6376,8893],[49,18],[50,-11],[11,-10],[26,15],[44,15],[32,1],[95,-58],[187,-47],[31,-9],[34,7],[35,-11],[13,-38],[27,-28],[21,-11],[24,9],[10,-12],[33,8],[20,-9],[3,-39],[42,-26],[52,25],[57,9],[53,-13],[43,13],[14,-3],[27,22]],[[4893,10792],[18,19],[16,33],[30,24],[22,-10],[47,8],[16,-3],[76,-40],[43,-10],[59,11],[25,-11],[46,3],[20,20],[40,1],[12,-12],[52,-29],[40,-4],[42,-11],[22,4],[18,-15],[43,-8]],[[5145,10336],[4,25],[17,38],[-9,46],[-13,18],[-6,54],[-55,-12],[-53,-21],[3,38],[-14,46],[-19,27],[-25,61],[-43,71],[-25,49],[-14,16]],[[4365,10102],[-23,15],[-99,78],[-58,75]],[[5337,11820],[69,-32],[252,-139],[45,-32],[19,-20],[199,-278],[25,-33],[175,-200]],[[1846,11615],[81,12],[51,16],[31,15],[36,31],[22,11],[80,28],[32,3],[53,-22],[30,-5],[93,1],[42,5],[105,28]],[[3067,10576],[-68,19],[-30,20],[-11,-35],[-48,-78],[-58,-77],[-35,-71],[-51,11],[-86,66],[-56,74],[-15,11],[-44,49],[-21,-3],[-28,8],[-47,-61],[-27,-50],[-27,-17],[-23,9],[-44,29],[-14,36],[-27,18],[-55,14],[-29,16],[-25,22],[-22,-18]],[[2176,10568],[-22,22],[-35,54],[-60,79],[-43,74],[-8,22],[-25,105],[-9,75],[-22,175],[-28,178],[-53,157],[-22,32],[-3,74]],[[1498,10202],[147,86],[44,1],[33,43],[214,107],[175,86],[74,35],[-9,8]],[[3067,10576],[-3,-25],[-58,-70],[-26,-9],[-7,-21],[-25,-2],[15,-24],[-8,-15],[-25,-12],[1,-25],[15,-24],[2,-44],[21,-23],[21,3],[13,-21],[-10,-36],[31,-49],[57,-87],[44,-89],[22,-67],[47,-134],[52,-174],[11,-46],[29,-283],[7,-108],[-5,-111],[-28,-105],[-14,-39],[-53,-118],[-14,-55],[-50,-72],[-77,-149],[-53,-146],[-51,-107]],[[2948,8289],[-40,-80],[-47,-86],[-48,-125],[-26,-51],[-44,-65],[-116,-286],[-95,112],[-99,296]],[[2433,8004],[76,83],[98,96],[46,59],[27,54],[11,55],[4,52],[-5,15],[59,140],[0,7],[-87,61],[-13,16],[0,57],[-10,151],[-2,12],[-31,35],[-25,16],[-167,37],[-48,31],[-23,31],[-62,30],[-49,15]],[[2232,9057],[44,26],[37,11],[53,28],[74,32],[106,63],[105,83],[57,17],[18,16],[23,58],[0,32],[-69,153],[-11,64],[5,38],[-4,47],[-27,83],[-62,257],[-85,-60],[-166,-128],[-58,-68],[-56,-44],[-87,-50],[-60,102],[-38,38],[-71,38],[-88,31],[-197,85],[-62,45],[-64,69],[-26,52],[-25,27]],[[5615,7798],[-548,210],[-214,45],[-289,-15],[-238,112],[-257,101],[-175,-4],[-187,33]],[[3707,8280],[9,79],[15,93],[52,203],[17,62],[2,46],[-26,68]],[[5393,12723],[29,-20],[31,-39],[72,-72],[37,-26],[32,-11],[31,-3],[35,-47],[9,-33],[24,-25],[110,-51],[38,-36],[11,-39],[-7,-27],[69,-1],[102,-37],[12,-15],[63,-41],[35,-14],[26,-18],[47,-10],[26,-1],[28,-16],[33,-9],[93,-12],[75,11],[15,-11],[60,-6],[50,-35],[34,-18],[31,-29],[18,-2],[40,-20],[16,0],[47,-21],[69,16],[16,-5],[33,-29],[10,-26],[-6,-14],[-61,-45],[-11,-47],[22,9],[21,36],[41,-24],[-19,-11],[-50,-49],[-87,-45],[-36,24],[-50,-80],[-5,-25],[11,-72],[-3,-66],[6,-98],[-12,-32],[-41,-41],[-91,-71],[-86,-48],[-51,-22],[-58,-84],[-69,-32],[-65,-14],[-37,2],[-35,-10]],[[5337,11820],[-3,44],[9,39],[30,56],[8,68],[-14,58],[1,25],[45,139],[4,49],[-6,47],[-38,49],[-3,33],[21,65],[53,35],[-32,1],[10,21],[-24,24],[12,37],[-1,30],[21,33],[-39,34],[2,16]],[[859,8625],[131,24],[226,38],[29,3]],[[1245,8690],[182,-242],[127,-132],[287,-183],[230,-84],[71,-2],[111,6],[180,-49]],[[2948,8289],[166,-35],[151,-3],[210,48],[232,-19]],[[8671,5427],[141,-5],[165,-38],[78,-102]],[[9055,5282],[24,-68],[76,-47],[177,-16],[152,20],[97,-31],[91,-46],[-6,-100],[4,-97],[116,-75],[181,-153],[136,-297],[145,-373],[218,-171],[233,6],[156,-10],[141,-104],[26,-226],[72,-97],[175,0],[163,262],[-79,312],[-145,526],[-38,384],[4,383],[-76,176],[-1,13]],[[11097,5453],[-3,175],[262,380],[0,108],[-179,410],[-319,410],[-492,729],[-341,521]],[[9534,10429],[86,40],[236,101],[162,65],[84,-1],[1067,-1],[124,-635],[7,-31],[26,-73],[493,-1131],[299,-697],[422,-976],[89,-205],[495,-1151],[245,-586],[224,-538],[10,-34],[-66,-458],[-111,-776],[-92,-637],[-112,-693],[-111,-694],[-179,-1113],[-30,-205],[-13,5],[-10,25],[-43,11],[-58,28],[-18,22],[-18,6],[-57,51],[-21,7],[-35,45],[-57,86],[-31,34],[-5,19],[-20,18],[-46,61],[-41,28],[-46,46],[-6,0],[-116,82],[-92,48],[-19,13],[-69,32],[-36,13],[-44,29],[-74,34],[-90,53],[-27,13],[-14,17],[-56,29],[-101,59],[-44,19],[-57,31],[-181,105],[-39,26],[-81,46],[-119,75],[-42,21],[-122,73],[-123,67],[-117,52],[-56,22],[-56,27],[-107,31],[-83,37],[-99,20],[-92,24],[-163,35],[-60,23],[-76,16],[-110,29],[-69,27],[-415,167],[-130,119],[-67,84],[-56,52],[-170,121],[-63,102],[-50,53],[-55,32],[-89,114],[-115,142],[-257,317],[-42,7],[-27,25],[-73,16],[-28,25],[-30,-21],[-17,8],[-82,-11],[-44,3],[-56,15],[-56,25],[-75,13],[-109,33],[-40,23],[-22,5],[-52,26],[-63,23],[-61,29],[-73,44],[-80,39],[-13,1],[3,117],[6,323],[-28,38],[-157,150],[-21,10],[-118,183],[-41,70],[-22,59],[-6,36],[3,60],[7,37],[-6,52],[-22,31],[-18,16],[-92,30],[-70,49],[-67,42],[-112,81],[-39,42],[-20,12],[-36,8],[-95,34],[-61,35],[-7,10],[-47,19],[-60,34],[-27,20],[-69,37],[-34,9],[-17,17],[-40,14],[-8,24],[-66,70],[-16,21],[-53,45],[-8,1],[-88,56],[-56,50],[-87,150],[12,32],[-14,38],[-8,88],[-12,50],[1,20],[-11,31],[6,32],[-33,123],[-21,35],[-10,63],[-106,325],[-5,21],[35,-8],[23,2],[51,-7],[2,15],[-32,17],[-126,2],[-55,5],[-91,24],[-28,2],[-49,17],[-19,-1],[-27,14],[-41,33],[-66,6],[-45,-8],[-45,-15],[-18,2],[-1042,176],[-42,16],[-34,-6],[-28,8],[-37,-3],[-25,8],[-91,12],[-518,42],[-468,39],[-35,0],[-67,18],[-32,17],[-33,4],[-31,14],[-91,22],[-75,3],[-75,0],[-64,-19],[-94,22],[-116,15],[-26,10],[-40,5],[-37,-3],[-127,-22],[-57,15],[-21,1],[-66,-21],[-31,-3],[-52,-18],[-71,-18],[-35,4],[-119,-43],[-73,-21],[-77,-12],[-96,-4],[-172,8],[-92,33],[-24,20],[-51,20],[-54,9],[-55,2],[-25,5],[-59,35],[-19,47],[-14,8],[-58,0],[-38,12],[-107,-3],[328,759],[208,506],[154,371],[57,134]],[[4007,14401],[75,6],[266,64]],[[4348,14471],[145,-289],[4,-61],[-3,-42],[-32,-61],[-14,-44],[10,-44],[26,-23],[123,-68],[135,-101],[108,-97],[38,-43]],[[4888,13598],[-249,-248],[-4,-1]],[[4635,13349],[-42,-44],[-31,1],[-12,-13],[-35,-7],[-40,-16],[-18,-16],[-25,-2],[-12,-12],[-49,-11],[-33,-32],[-16,1],[-29,-23],[-31,-14],[-27,-28],[-40,-51],[-15,-33],[-4,-48],[3,-22],[16,-30],[-1,-57],[-5,-29],[-26,-3],[-46,-40],[-81,-53],[-36,-32],[-31,-47],[-54,17],[-6,-9]],[[2941,14059],[23,7],[51,29],[42,28],[58,34],[1,32],[-16,41],[47,0],[62,-19],[16,7],[29,-5],[22,19],[46,9],[68,46],[6,18],[21,25],[28,2],[67,-36],[24,6],[45,-13],[4,31],[26,17],[40,1],[46,21],[25,1],[33,-9],[82,30],[170,20]],[[552,12569],[226,-78],[41,-23],[28,-27]],[[847,12441],[28,-45],[236,-405],[48,-76],[42,-57],[44,-56],[29,-27],[45,-31],[65,-25],[58,-8],[75,6],[105,30],[32,6],[42,-2],[38,-10],[51,-34],[36,-37]],[[1821,11670],[25,-55]],[[1498,10202],[-84,4],[-35,-10],[-43,-33],[4,-49],[-111,-61],[-114,-66],[-258,-137]],[[857,9850],[-286,795],[-22,33],[-43,46],[-71,37],[-23,102],[8,80],[58,146],[60,234],[9,98],[-12,58],[-40,87],[-47,56],[-122,87],[-146,83],[-117,61],[-48,47],[-15,58],[4,42],[10,35],[31,70],[15,46],[56,-1],[-2,22],[17,5],[-1,28],[31,12],[43,-25],[30,9],[44,22],[9,18],[31,5],[44,20],[24,26],[33,16],[25,30],[43,16],[29,43],[12,47],[3,98],[21,27]],[[11097,5453],[-37,12],[-266,136],[-58,31],[-30,68],[-5,83],[12,38],[34,23],[48,23],[35,56],[56,69],[-20,157],[-12,56],[-19,22],[-39,29],[-50,81],[-24,58],[-45,5],[-9,6],[-20,60],[-7,5],[-93,1],[-3,10],[41,85],[-121,48],[-12,1],[-110,-53],[-29,-30],[-20,-50],[-9,-52],[-12,-17],[-34,-14],[-31,-2],[-25,46],[-36,3],[-21,-5],[-56,-34],[-73,-29],[-43,-11],[-118,6],[-106,-10]],[[9730,6364],[-40,106],[-17,34],[-29,47],[-28,53],[-49,57],[-21,32],[-100,187],[-29,42]],[[9417,6922],[-119,81],[-31,37],[-218,106],[21,53],[23,24],[33,26],[98,43],[81,58],[43,17],[152,35],[56,42],[50,48],[23,7],[74,9],[-46,122],[-59,124],[-76,104],[-29,48],[-79,141]],[[9055,5282],[89,-3],[13,-13],[20,4],[59,-12],[23,-9],[34,15],[23,27],[61,1],[23,33],[18,16],[74,14],[22,12],[172,16],[34,15],[88,97],[41,19],[68,-1],[52,5],[76,43],[95,28],[-28,52],[-48,78],[-9,31],[-9,72],[-19,39],[-97,152],[-39,40],[-22,30],[-15,40],[-12,76],[-25,59],[-18,25],[-47,49],[-22,32]],[[1821,11670],[12,4],[13,40],[-8,18],[18,20],[10,25],[-2,45],[18,54],[-14,28],[66,33],[35,23],[24,28],[5,18],[1,60],[-11,85],[10,50],[23,39],[69,90],[13,35]],[[2103,12365],[26,44],[40,48],[9,108],[14,87]],[[2192,12652],[39,43],[32,24],[32,40],[67,44],[15,23],[23,113],[40,48],[49,47],[13,22],[8,50],[21,51],[23,33],[26,23],[16,44],[3,66],[38,94],[50,-26],[40,-27]],[[4888,13598],[74,-82],[86,-63],[10,-4],[34,-52],[19,-59],[55,-62],[49,-43],[49,-115],[20,-25],[31,-20],[63,-86],[63,-15],[62,8],[55,-6],[39,-12],[47,-30],[71,-80],[264,-184],[138,-60],[125,-42],[35,-26],[25,-52],[26,-84],[28,-74],[32,-36],[35,-13],[65,-6],[158,15],[68,11],[92,30],[42,9],[32,1],[20,-14],[64,-54],[61,-72],[45,-40],[42,-57],[29,-56],[22,-32],[69,-66],[62,-30],[20,-17],[51,-20],[45,-33],[36,-66],[21,-21],[72,-35],[36,-38],[81,-105],[91,-129],[39,-69],[53,-106],[29,-71],[22,-74],[13,-67],[6,-69],[-7,-57],[-17,-70],[-14,-32]],[[5393,12723],[-33,0],[-53,21],[-56,29],[-32,11],[-55,38],[7,36],[48,18],[-64,8],[-16,31],[-27,19],[-68,36],[-14,14],[-45,20],[-45,42],[-24,34],[-29,58],[-4,23],[-18,13],[-40,15],[-85,41],[-51,55],[-43,34],[-11,30]],[[3228,14670],[17,-28],[23,-55],[43,-31],[54,-34],[86,-17],[26,-10],[38,2],[35,14],[4,15],[33,31],[3,28],[15,20],[29,18],[45,-3],[0,-37],[33,-4],[65,0],[-14,-83],[4,-29],[16,-23],[29,-12],[65,-4],[24,7],[37,37],[54,6],[8,-12],[7,-65]],[[2910,14058],[-5,33],[-13,30],[-35,49],[-9,63],[3,46],[6,145],[9,24],[-3,31],[-17,52],[16,42],[36,19],[24,-8],[34,-24],[27,-2],[43,15],[27,32],[45,34],[39,49],[5,35],[16,1],[16,-23],[35,-10],[19,-21]],[[9417,6922],[-34,-12],[-2,-15],[-39,-36],[-31,-16],[-21,-32],[-29,-12],[-33,-49],[-188,-124],[-54,-40],[-125,-78],[-44,47],[-153,-33]],[[3627,14739],[27,-13],[41,-8],[43,-1],[57,-21],[58,7],[45,41],[27,18],[70,30],[54,17],[29,-36],[113,-72],[23,-19],[113,-170],[21,-41]],[[3228,14670],[31,-23],[78,-22],[29,8],[23,-5],[20,11],[51,7],[22,-4],[43,8],[20,23],[36,15],[46,51]],[[2232,9057],[-11,-7],[-44,-67],[-24,-65],[-28,-58],[-73,-3],[-29,-65],[-29,-31],[-39,-17],[-38,-23],[-50,11],[-29,22],[-43,12],[-18,29],[-20,16],[-20,-12],[-14,8],[-75,-56],[-253,-41],[-150,-20]],[[859,8625],[61,138],[1,43],[43,185],[110,224],[7,62],[-15,71],[-62,112],[-74,186],[-73,204]],[[847,12441],[170,88],[10,9],[52,-14],[63,-10],[57,-28],[61,66],[13,23],[-11,52],[1,47],[-23,71],[1,16],[-13,54],[36,-11],[24,-82],[22,-18],[68,-15],[17,0],[60,24],[26,-5],[86,-95],[5,-13],[-5,-49],[8,-27],[93,25],[35,20],[19,-23],[45,-35],[23,-12],[29,-3],[62,-69],[40,-12],[182,-50]],[[1095,13244],[55,110],[58,109],[4,14],[61,116]],[[1273,13593],[20,-32],[37,-21],[21,-1],[100,15],[48,-16],[26,3],[73,-1],[60,15],[45,-18],[15,25],[19,12],[50,10],[44,-6],[82,-17],[69,-7],[86,-56],[25,6],[44,-4],[32,12],[-13,38],[11,28],[-6,74],[-17,44],[11,44],[-5,50],[-17,35],[-35,37],[82,67]],[[2192,12652],[-58,18],[-43,29],[-27,5],[-37,-6],[-40,-33],[-41,-5],[-43,47],[-7,34],[-14,21],[-35,28],[-137,79],[-46,42],[-46,27],[-32,45],[6,19],[-2,62],[-49,82],[1,9],[-111,102],[-131,-29],[-44,-27],[-19,15],[-62,-2],[-80,30]],[[2017,15036],[72,21],[18,15],[38,59],[28,8],[44,3],[44,-5],[48,3],[44,-5],[29,11],[55,-1],[19,6],[65,-17],[33,-14],[44,4],[35,-11],[83,9],[28,-5],[76,-4],[25,7],[72,-16],[70,-1],[81,-26],[45,0],[26,-21],[28,13],[27,-6],[10,-16],[23,4],[19,21],[22,-15],[18,0],[27,-17],[37,-66],[5,-39],[37,-13],[26,-43],[19,-16],[15,13],[29,-18],[24,-49],[20,-12],[-5,-29],[19,-20],[88,-9]],[[2028,14168],[-19,56],[-6,54],[14,758]],[[1273,13593],[20,37],[157,319],[63,124],[37,63],[26,61],[39,68],[104,198],[84,154],[16,18],[84,178],[94,189],[20,34]],[[552,12569],[8,19],[40,32],[75,18],[24,25],[42,71],[14,11],[8,33],[36,51],[19,11],[40,45],[49,21],[10,33],[22,25],[13,41],[43,15],[9,25],[41,37],[16,68],[-10,22],[6,17],[25,30],[13,25]],[[8035,9098],[56,8],[16,15],[42,14],[27,33],[47,19],[33,-76],[52,21],[28,-1],[42,-19],[23,-29]],[[8035,9098],[6,168],[34,26],[127,57],[69,27],[29,1]]],"transform":{"scale":[0.000049469087701242295,0.000041270345191736526],"translate":[-76.874405,37.888468]},"objects":{"Geometry\\24-037":{"type":"GeometryCollection","geometries":[{"arcs":[[0,1,2,3,4]],"type":"Polygon","properties":{"GEOID":"240378760043"}},{"arcs":[[5,6,-2,7,8]],"type":"Polygon","properties":{"GEOID":"240378758032"}},{"arcs":[[9,10,11,12]],"type":"Polygon","properties":{"GEOID":"240378755022"}},{"arcs":[[13,14,15,16,17,18,19]],"type":"Polygon","properties":{"GEOID":"240378755011"}},{"arcs":[[20,21,22]],"type":"Polygon","properties":{"GEOID":"240378754003"}},{"arcs":[[23,24,25,-16,26]],"type":"Polygon","properties":{"GEOID":"240378756021"}},{"arcs":[[27,28,29,30,31,32]],"type":"Polygon","properties":{"GEOID":"240378758034"}},{"arcs":[[33,34,35,36,37,38,39]],"type":"Polygon","properties":{"GEOID":"240378750004"}},{"arcs":[[40,41,42,43]],"type":"Polygon","properties":{"GEOID":"240378756012"}},{"arcs":[[-37,44,45,46]],"type":"Polygon","properties":{"GEOID":"240378752012"}},{"arcs":[[47,48,-41,49,-10,50,-45]],"type":"Polygon","properties":{"GEOID":"240378756011"}},{"arcs":[[51,-31,52,53,-5,54,55]],"type":"Polygon","properties":{"GEOID":"240378760041"}},{"arcs":[[56,57,58,59,60,61]],"type":"Polygon","properties":{"GEOID":"240378759062"}},{"arcs":[[62,63,64,65,-59,66]],"type":"Polygon","properties":{"GEOID":"240378759051"}},{"arcs":[[67,68,-64,69,-67,-58,70,71,72,-3,-7]],"type":"Polygon","properties":{"GEOID":"240378758031"}},{"arcs":[[-55,73,74,75,76,77]],"type":"Polygon","properties":{"GEOID":"240378760031"}},{"arcs":[[78,79,-33,80,-24,81]],"type":"Polygon","properties":{"GEOID":"240378756023"}},{"arcs":[[82,83,-21,84]],"type":"Polygon","properties":{"GEOID":"240378754002"}},{"arcs":[[85,86,87,88,89]],"type":"Polygon","properties":{"GEOID":"240378759031"}},{"arcs":[[-87,90,-71,-57,91]],"type":"Polygon","properties":{"GEOID":"240378759061"}},{"arcs":[[92,-9,93,-53,-30]],"type":"Polygon","properties":{"GEOID":"240378758033"}},{"arcs":[[94,95,96,-75]],"type":"Polygon","properties":{"GEOID":"240378759042"}},{"arcs":[[-94,-8,-1,-54]],"type":"Polygon","properties":{"GEOID":"240378760042"}},{"arcs":[[-32,-52,97,-25,-81]],"type":"Polygon","properties":{"GEOID":"240378756022"}},{"arcs":[[-63,-70]],"type":"Polygon","properties":{"GEOID":"240378759052"}},{"arcs":[[-92,98,-88]],"type":"Polygon","properties":{"GEOID":"240378759032"}},{"arcs":[[-76,-97,-89,-99,-62,99,100,101]],"type":"Polygon","properties":{"GEOID":"240378759041"}},{"arcs":[[102,103,104,105,106,107,108,109]],"type":"Polygon","properties":{"GEOID":"240378761011"}},{"arcs":[[-109,110]],"type":"Polygon","properties":{"GEOID":"240378761013"}},{"arcs":[[-19,111,-103,112,113]],"type":"Polygon","properties":{"GEOID":"240378761012"}},{"arcs":[[-101,114,-105,115]],"type":"Polygon","properties":{"GEOID":"240378761021"}},{"arcs":[[116,-77,-102,-116,-104,-112,-18]],"type":"Polygon","properties":{"GEOID":"240378761022"}},{"arcs":[[-26,-98,-56,-78,-117,-17]],"type":"Polygon","properties":{"GEOID":"240378760032"}},{"arcs":[[117,-82,-27,-15,118]],"type":"Polygon","properties":{"GEOID":"240378755012"}},{"arcs":[[-50,-44,-119,-14,-83,119,-11]],"type":"Polygon","properties":{"GEOID":"240378755021"}},{"arcs":[[120,-79,-118,-43]],"type":"Polygon","properties":{"GEOID":"240378756024"}},{"arcs":[[121,-46,-51,-13,122,123]],"type":"Polygon","properties":{"GEOID":"240378752013"}},{"arcs":[[124,-123,125,126,127,128]],"type":"Polygon","properties":{"GEOID":"240378753002"}},{"arcs":[[-22,-84,-20,-114,129,130]],"type":"Polygon","properties":{"GEOID":"240378754001"}},{"arcs":[[131,-121,132]],"type":"Polygon","properties":{"GEOID":"240378757003"}},{"arcs":[[133,134,-127,135,-130,-113,-110,-111,-108,136,137,138,-65,-69,139]],"type":"Polygon","properties":{"GEOID":"240379900000"}},{"arcs":[[140,141,142,143,-48,-36,144]],"type":"Polygon","properties":{"GEOID":"240378750003"}},{"arcs":[[145,146,147,-124,-125,148,149]],"type":"Polygon","properties":{"GEOID":"240378752021"}},{"arcs":[[-60,-66,-139,150,151,152]],"type":"Polygon","properties":{"GEOID":"240378762002"}},{"arcs":[[153,-151,-138]],"type":"Polygon","properties":{"GEOID":"240378762004"}},{"arcs":[[154,155,156,-38,-47,-122,-148]],"type":"Polygon","properties":{"GEOID":"240378752011"}},{"arcs":[[-143,157,-28,-80,-132,158]],"type":"Polygon","properties":{"GEOID":"240378757002"}},{"arcs":[[-159,-133,-42,-49,-144]],"type":"Polygon","properties":{"GEOID":"240378757001"}},{"arcs":[[159,-145,-35,160]],"type":"Polygon","properties":{"GEOID":"240378750001"}},{"arcs":[[-100,-61,-153,161,-106,-115]],"type":"Polygon","properties":{"GEOID":"240378762003"}},{"arcs":[[162,-141,-160,163]],"type":"Polygon","properties":{"GEOID":"240378750002"}},{"arcs":[[-149,-129,164,-134,165]],"type":"Polygon","properties":{"GEOID":"240378753001"}},{"arcs":[[-155,-147,166]],"type":"Polygon","properties":{"GEOID":"240378752022"}},{"arcs":[[167,168,-39,-157,169]],"type":"Polygon","properties":{"GEOID":"240378751001"}},{"arcs":[[-128,-135,-165]],"type":"Polygon","properties":{"GEOID":"240378753003"}},{"arcs":[[170,-164,-161,-34,171]],"type":"Polygon","properties":{"GEOID":"240378751003"}},{"arcs":[[-172,-40,-169,172]],"type":"Polygon","properties":{"GEOID":"240378751002"}},{"arcs":[[-170,-156,-167,-146,173]],"type":"Polygon","properties":{"GEOID":"240378752023"}},{"arcs":[[-162,-152,-154,-137,-107]],"type":"Polygon","properties":{"GEOID":"240378762001"}},{"arcs":[[-12,-120,-85,-23,-131,-136,-126]],"type":"Polygon","properties":{"GEOID":"240378754004"}},{"arcs":[[174,-90,-96]],"type":"Polygon","properties":{"GEOID":"240378760011"}},{"arcs":[[175,-72,-91,-86,-175]],"type":"Polygon","properties":{"GEOID":"240378760012"}},{"arcs":[[-4,-73,-176,-95,-74]],"type":"Polygon","properties":{"GEOID":"240378760013"}}]}}}