{"type":"Topology","arcs":[[[14805,5134],[31,16],[47,1],[25,-11]],[[14908,5140],[114,-79],[23,-36],[8,-28],[4,-97],[6,-39],[39,-72],[48,-45],[32,-21],[52,-17],[182,-31],[37,-1],[47,16],[121,71],[23,19],[21,40],[4,112],[23,60],[47,39],[40,13]],[[15779,5044],[57,-3],[242,2],[64,5],[135,26],[83,6],[51,-2],[48,-14]],[[16459,5064],[-376,-237]],[[16083,4827],[-489,-309],[-86,-66],[-67,-62]],[[15441,4390],[-269,290],[-116,138],[-56,37],[-60,24],[-39,7],[-53,1]],[[14848,4887],[-36,106],[1,95],[-8,46]],[[15050,5176],[52,13],[54,3],[61,-7],[136,-9],[55,-16],[98,-46],[111,-16],[162,-54]],[[14908,5140],[37,27],[60,-1],[45,10]],[[11810,7158],[53,-16],[94,-7],[159,-33],[43,-22]],[[12159,7080],[50,-42],[67,-76],[97,-164],[14,-36],[8,-62],[8,-14],[84,-62],[22,-24]],[[12509,6600],[-11,-17],[-19,-206],[2,-27]],[[12481,6350],[-132,-26],[-49,-6],[-100,-21],[-281,-35],[-27,-7],[-98,-52],[-59,-27],[-37,-2]],[[11698,6174],[-1,117],[-3,79],[12,53],[22,45],[9,35],[-4,276],[2,126],[12,78],[63,175]],[[12723,8151],[68,-5]],[[12791,8146],[240,-22]],[[13031,8124],[264,-24],[88,5],[61,24]],[[13444,8129],[68,-189],[30,-97],[0,-49]],[[13542,7794],[-60,48],[-35,18],[-28,2],[-86,-22],[-102,12],[-9,-21],[-11,-126],[8,-29],[43,-101],[-132,-52],[-116,-20],[7,-81],[-14,-54],[-23,-122],[-28,-50]],[[12956,7196],[4,52],[-29,37],[-36,14],[-23,37],[-37,120],[7,112],[34,56],[8,49],[-85,65],[-110,213],[-1,40],[35,160]],[[10685,3798],[37,68],[38,91]],[[10760,3957],[50,122],[16,21],[105,102],[160,150]],[[11091,4352],[33,-21],[68,-13],[42,-29],[14,-29],[-2,-54],[80,3],[83,-38],[29,2],[56,32],[64,10],[43,-14],[33,-26]],[[11634,4175],[-74,-94],[-16,-35],[49,-15],[78,13]],[[11671,4044],[-8,-17]],[[11663,4027],[-80,-154],[-104,-205]],[[11479,3668],[-141,52],[-114,25],[-144,7],[-209,3],[-77,11],[-109,32]],[[12481,6350],[100,15]],[[12581,6365],[8,-35],[28,-60],[8,-34],[-2,-55],[-13,-28],[-32,-32],[-52,-36],[-58,-91],[-30,-24]],[[12438,5970],[-22,-8],[-92,-9],[-47,-20]],[[12277,5933],[-11,43],[-61,3],[-66,11],[-109,32],[-61,-4],[-47,-17],[-55,-27]],[[11867,5974],[-49,91],[-51,31],[-65,-5],[-4,83]],[[9369,6829],[123,238],[31,68],[63,107],[130,237]],[[9716,7479],[125,173],[159,137],[35,18],[115,35],[21,10],[169,115],[49,39],[42,46],[157,185],[15,25],[127,251],[15,-1]],[[10745,8512],[63,-8],[131,-20],[-5,-17],[0,-73],[37,-220],[9,-63],[-2,-106],[-43,-173]],[[10935,7832],[-53,-191],[-74,-279],[-27,-258],[-17,-199],[79,9],[52,-65],[22,-282],[70,-276],[32,-109],[4,-39]],[[11023,6143],[-148,-27]],[[10875,6116],[-91,-17],[-206,-29]],[[10578,6070],[-15,89],[-35,58],[-36,33],[-83,43],[-92,81],[-28,59],[-54,89],[-22,22],[-71,39],[-107,33],[-99,49],[-106,14],[-75,30],[-102,24],[-284,96]],[[6690,4199],[72,80],[22,53],[31,39],[38,20],[99,28],[27,-1],[95,-46],[26,-1],[53,16],[67,11],[120,30],[144,62],[76,26],[58,4],[301,122],[20,4],[208,7],[49,4],[95,19],[193,46],[72,19],[235,43],[176,38],[5,3]],[[8972,4825],[-16,-129]],[[8956,4696],[-22,-208],[-56,-151],[-57,-198],[-82,-123],[-102,-142],[-53,-79],[-102,-174],[-59,-81]],[[8423,3540],[-61,-89],[-128,-182],[-96,-103],[-25,-32],[-57,-89],[-16,-14],[-130,-37],[-41,-25],[-34,-77],[8,-89],[-5,-51]],[[7838,2752],[-70,46],[-69,-17],[-17,2],[-22,33],[-59,6],[-19,24],[-52,3],[-48,47],[-74,19],[-29,1],[-36,26],[-120,15],[-85,-7],[-62,16],[-71,-19],[-30,0],[-67,81],[-73,65],[-18,29],[2,34],[75,68],[71,82],[-3,17],[-31,29],[-95,-21],[-75,-22],[-53,6],[-38,75],[14,19],[82,-8],[43,20],[77,24],[24,21],[-14,39],[-22,12],[-71,13],[-97,10],[-61,40],[-41,15],[-42,59],[2,32],[23,18],[6,35],[1,70],[42,33],[26,48],[9,48],[41,74],[-5,42],[16,36],[-8,33],[3,32],[-28,44]],[[11242,6167],[205,9],[147,8],[104,-10]],[[11867,5974],[-83,-69],[7,-70],[-13,-42],[-47,7],[-5,-35]],[[11726,5765],[-63,-47],[-44,-3],[-54,24]],[[11565,5739],[-25,19],[-39,-3],[-22,8]],[[11479,5763],[-69,59],[-17,10],[-14,38],[-35,29],[-11,26],[-41,10],[-36,-5]],[[11256,5930],[5,29],[-13,45],[-6,163]],[[11479,5763],[-30,-20],[-46,-14],[-38,-49],[-13,-42],[-39,-36],[-4,-79],[-78,-62],[-29,-5]],[[11202,5456],[-36,50],[-36,17],[-35,4]],[[11095,5527],[2,56],[11,29],[41,35],[11,25],[0,44],[-27,29],[-10,43],[22,34],[57,24],[54,84]],[[10513,5092],[62,8],[172,-30],[43,-27]],[[10790,5043],[-5,-4]],[[10785,5039],[-18,-32],[-7,-35],[-6,-99],[-14,-29],[-49,-38]],[[10691,4806],[-46,-15],[-27,0],[-40,13],[-47,52],[-60,131],[2,61],[40,44]],[[10790,5043],[147,127],[67,40]],[[11004,5210],[29,-188]],[[11033,5022],[7,-52],[11,-132],[9,-185],[6,-45],[38,-104]],[[11104,4504],[-198,-42],[-50,6],[-40,-10],[-46,43],[-20,49],[-2,34],[17,48],[22,34],[34,30],[31,41],[11,28],[-6,73],[-27,75],[-3,66],[28,17],[7,34],[-34,31],[-43,-22]],[[11091,4352],[25,42],[8,40]],[[11124,4434],[32,6],[124,61],[86,34],[78,23],[86,17]],[[11530,4575],[49,-8],[89,-60],[-32,-56],[-5,-52],[32,-61],[13,-37],[-11,-78],[-31,-48]],[[12493,4772],[64,27],[57,13],[75,2],[44,15],[96,73],[50,10],[45,-19],[15,-16],[23,-73],[32,-30]],[[12994,4774],[-31,-52],[-11,-77],[-10,-103],[-7,-207],[2,-24]],[[12937,4311],[-62,9],[-84,24],[-17,10],[-87,78],[-30,9],[-94,-4],[-44,-9],[-57,4],[-58,26]],[[12404,4458],[31,75],[30,47],[63,64],[3,47],[-38,81]],[[11872,4371],[126,196],[25,46]],[[12023,4613],[42,81],[150,318]],[[12215,5012],[53,-26],[39,25],[16,-3],[108,10],[20,17]],[[12451,5035],[5,-26],[0,-140],[7,-36],[30,-61]],[[12404,4458],[-26,-31],[-60,-30]],[[12318,4397],[-24,42],[-42,38],[-64,37],[-43,16],[-52,-2],[-108,-46],[-25,-15],[-88,-96]],[[13307,4944],[100,-40],[67,-50],[24,-31],[29,-72],[5,-55],[-3,-78]],[[13529,4618],[0,-27]],[[13529,4591],[1,-43],[20,-99]],[[13550,4449],[-68,-48],[-22,-23],[-28,20],[-18,50],[-36,-1]],[[13378,4447],[21,82],[14,15],[-37,18],[-50,55],[25,30],[-1,62],[-9,25],[-27,25],[-53,26],[-33,31],[-51,-56],[-121,121]],[[13056,4881],[-41,31],[-55,25],[-9,37],[30,61],[-1,23],[-21,30],[-13,37],[11,25],[-12,46]],[[12945,5196],[50,-79],[35,-38],[45,-36],[81,-42],[151,-57]],[[12994,4774],[34,51],[28,56]],[[13378,4447],[-12,-19],[-5,-39]],[[13361,4389],[-95,-132],[-168,31],[-144,17],[-17,6]],[[13529,4618],[94,105],[100,104],[38,25],[0,34],[35,51],[87,81],[-10,33],[-21,26],[-24,15],[-25,-23],[-33,-9]],[[13770,5060],[-9,62],[18,9],[38,57],[-9,36],[8,32],[60,-8],[87,109]],[[13963,5357],[30,-54],[197,-259],[124,-156],[21,-34]],[[14335,4854],[-12,-60],[-69,-104],[-49,-37],[-46,-56]],[[14159,4597],[-131,29],[-98,19]],[[13930,4645],[-45,12],[-21,-11],[-169,-6],[-103,-10],[-63,-39]],[[11671,4044],[38,69],[163,258]],[[12318,4397],[10,-40],[-1,-39],[-13,-118],[11,-11],[-2,-67]],[[12323,4122],[-1,-58],[8,-123],[15,-71],[18,-38]],[[12363,3832],[90,-157]],[[12453,3675],[-140,-49],[-29,-49],[-42,-13]],[[12242,3564],[-28,46],[-44,25],[-40,52],[-15,54],[-21,45],[-17,14],[-17,62],[-26,24],[-53,29],[-47,14],[-72,-40],[-23,-4],[-64,40],[-39,11],[-71,53],[-2,38]],[[12242,3564],[-43,-16],[1,-25],[-22,-13],[-44,-5],[-18,-13],[0,-30],[17,-15],[21,-55],[-1,-17]],[[12153,3375],[-129,56]],[[12024,3431],[-54,23],[-93,33],[-189,81],[-209,100]],[[14385,4636],[69,13],[98,-15],[33,-20],[55,-56],[57,-14],[64,6],[32,-11],[47,-50],[24,-14],[45,-6]],[[14909,4469],[3,-22],[44,-97],[19,-31],[51,-44],[70,-70],[116,-83]],[[15212,4122],[-56,-67],[-190,-208]],[[14966,3847],[-16,26],[6,23],[-7,32],[14,38]],[[14963,3966],[-40,43],[21,22],[14,39],[-19,55],[-16,23],[3,31],[-18,19],[17,45],[-119,8],[-29,7],[-93,41],[-93,21],[-67,30],[-101,26]],[[14423,4376],[-23,178],[-15,82]],[[13979,5642],[23,25],[89,61],[38,32],[40,54],[60,116]],[[14229,5930],[26,75],[24,104],[1,72],[17,29]],[[14297,6210],[50,-58],[139,-175],[50,-81],[25,-70]],[[14561,5826],[22,-67],[8,-37],[11,-185],[15,-51],[127,-266],[11,-17]],[[14755,5203],[-79,3],[-48,10],[-22,-7],[-33,-37],[-15,-40],[-1,-48],[-9,-34],[-22,-27],[-73,-64]],[[14453,4959],[-49,40],[-32,50],[-10,69],[21,92],[12,65],[4,81],[-10,43],[-41,57],[-39,29],[-42,16],[-168,44],[-51,24],[-24,19],[-45,54]],[[10745,8512],[172,198]],[[10917,8710],[191,-114],[238,-145],[66,-42],[141,-101],[87,-33],[61,-15],[137,-24],[165,-18]],[[12003,8218],[-37,-76],[-27,-113],[-46,-61]],[[11893,7968],[-25,12],[-87,-9],[-47,6],[-39,-12],[-30,-48],[-52,-41],[-25,10],[-67,62],[-17,27],[-43,-30],[-68,-5],[-76,-53],[-16,-23],[-32,-8],[-67,-3],[-10,13],[-39,4],[-15,-14],[-65,19],[-20,-2],[-55,-50],[-23,-6],[-40,15]],[[13783,9024],[122,24],[44,15],[69,34],[36,26],[43,45],[84,122],[29,30],[60,45],[73,41]],[[14343,9406],[28,-63],[33,-17],[26,-2],[82,29],[58,-21],[48,-39],[21,-36],[8,-37],[26,-39],[44,-22],[47,-4],[61,-31],[76,-66],[88,-24],[12,-28],[5,-53],[-5,-15]],[[15001,8938],[-51,41],[-48,26],[-67,22],[-68,-3],[-72,-28],[-237,-173],[-26,-16],[-194,-139],[3,-6]],[[14241,8662],[-189,-139],[-216,-157]],[[13836,8366],[-4,7]],[[13832,8373],[-7,50],[23,68],[8,82]],[[13856,8573],[6,99],[-6,40],[-34,63],[17,72],[-7,44],[-39,63],[-10,70]],[[13444,8129],[90,71],[72,23]],[[13606,8223],[58,-71],[70,-29],[67,3],[139,-9],[8,-15],[106,-87],[68,-61],[49,-37],[34,-57],[33,-23],[25,-43],[63,-38],[17,0],[28,45],[4,41],[18,8],[27,39],[25,-14],[41,10],[3,19],[-42,47]],[[14447,7951],[51,-35],[36,-11],[26,-27]],[[14560,7878],[-17,-14],[-90,-44],[-32,-31],[-4,-46],[4,-71]],[[14421,7672],[-34,-2]],[[14387,7670],[-47,-15],[-58,6]],[[14282,7661],[-32,6],[-51,34],[-103,40],[-99,14],[-24,-2],[-81,-41],[-54,18],[-123,50],[-23,3],[-89,-12],[-25,3],[-36,20]],[[12581,6365],[177,13],[85,-9]],[[12843,6369],[-84,-164],[-73,-150]],[[12686,6055],[-22,-33],[-17,-4],[-67,-47],[-24,-28],[-55,-7],[-19,21],[-34,-12],[-10,25]],[[11146,9965],[73,-59],[69,-67],[-46,-41],[-53,-18],[-42,-31],[-21,-40],[-3,-59],[14,-41],[24,-29],[60,-28],[55,0],[0,-50],[20,-38]],[[11296,9464],[-39,-36],[-6,-24]],[[11251,9404],[-119,27],[-77,10],[-109,3],[-81,-5],[-119,-17],[-89,-24],[-84,-27]],[[10573,9371],[16,76],[4,73],[-3,138],[8,106],[-1,51],[-13,130],[85,13],[120,44],[47,7],[149,-1],[112,-16],[49,-27]],[[11270,5269],[58,-19],[62,-45],[72,-21],[88,-9],[89,-31]],[[11639,5144],[34,-14],[44,-54],[34,-27]],[[11751,5049],[-20,-49],[-2,-29],[32,-145]],[[11761,4826],[-109,-30],[-32,0],[-47,29]],[[11573,4825],[-28,21],[-106,21],[-41,20],[-39,34],[-45,66],[-57,35],[-32,4],[-192,-4]],[[11004,5210],[117,49],[78,13],[71,-3]],[[12475,859],[115,92],[67,58]],[[12657,1009],[23,-21],[67,-92]],[[12747,896],[-33,-37],[-13,-34],[42,-59],[-20,-47],[-53,-13],[-6,27],[-21,4],[-24,36],[-44,-42]],[[12575,731],[-100,128]],[[12561,1324],[25,-7],[36,-34],[45,-26],[39,-12],[21,12]],[[12727,1257],[291,-165]],[[13018,1092],[-27,-42],[-45,-55],[-34,-34],[37,-23],[51,12],[-12,-54],[-139,-74],[-9,-15]],[[12840,807],[-47,26],[-46,63]],[[12657,1009],[-50,29],[-74,74],[28,212]],[[13018,1092],[277,-149]],[[13295,943],[43,-42],[33,6],[28,-13],[26,4],[23,-30],[59,-14],[78,7],[37,-9]],[[13622,852],[-213,-111],[-61,-45],[-37,-40],[-26,-42],[-17,-43],[-12,-54],[0,-117],[-20,-83]],[[13236,317],[-24,28],[-24,53],[-15,79],[-14,36],[-43,52],[-59,49],[-96,64],[-30,33],[-19,41],[-32,38],[-40,17]],[[11117,1110],[36,47],[-3,20],[68,114],[0,50],[13,85],[17,51],[56,83],[25,-16],[32,85],[37,113]],[[11398,1742],[144,-74],[62,-43],[37,-35],[273,-359]],[[11914,1231],[-20,-32],[-143,-278],[-69,-142],[-53,-88],[-52,-62],[-63,-59]],[[11514,570],[-26,41],[-43,33],[-91,165],[-69,107],[-77,98],[-39,30],[-52,66]],[[15441,4390],[-55,-57],[-94,-111],[-80,-100]],[[14909,4469],[15,171],[-2,19],[-26,57],[-11,51],[-37,120]],[[13796,4100],[44,76],[32,100],[52,215],[6,47],[0,107]],[[14159,4597],[2,-36],[43,-79],[12,-49],[44,-93],[-4,-24],[37,-70],[26,-102],[-2,-64],[-32,-56],[12,-33],[0,-96],[-35,-70],[-5,-39]],[[14257,3786],[-84,39],[-49,19],[-82,39],[-75,46],[-83,72],[-88,99]],[[14335,4854],[18,-54],[32,-164]],[[14423,4376],[13,-116],[-5,-39],[22,-89],[33,-65],[34,-57],[71,-91]],[[14591,3919],[48,-61],[38,-77],[12,-62],[0,-103],[4,-44]],[[14693,3572],[-129,-100]],[[14564,3472],[-50,108],[-23,41],[-42,45],[-120,80],[-72,40]],[[11097,8892],[26,60],[64,101],[58,41],[125,105],[-19,80],[55,66]],[[11406,9345],[253,-139]],[[11659,9206],[164,-90],[133,-58],[131,-40],[77,-15]],[[12164,9003],[-21,-124]],[[12143,8879],[-26,-170],[-37,-188],[-21,-90],[-6,-62]],[[12053,8369],[-33,48],[-15,34],[-64,57],[-20,13],[-27,55],[-13,99],[-18,15],[-10,30],[-35,22],[-32,-19],[-11,-23],[-30,10],[-58,58],[-45,-10],[-32,2],[-38,44],[-44,-20],[-15,6],[-34,-24],[-60,26],[-11,19],[-133,71],[-71,43],[-20,-48],[-87,15]],[[12727,1257],[33,18],[50,-18],[30,-42],[21,-2],[69,16],[41,-3],[26,8],[16,35],[54,52],[50,-19],[29,-37],[22,-61],[12,-13],[43,-17],[20,-62],[-8,-10],[-3,-65],[8,-16],[45,-18],[10,-60]],[[10956,1936],[109,-36],[105,-42],[228,-116]],[[11117,1110],[-22,50],[-19,63],[-6,88],[-96,1],[-31,-7],[-41,-26],[-127,-103],[-49,-31],[-82,-34]],[[10644,1111],[-58,85],[-72,118],[-21,1],[-19,22],[7,40],[189,29],[35,13],[76,16],[40,29],[1,28],[-29,65],[2,34],[38,67],[32,15],[-2,31],[44,38],[58,34],[11,23],[-51,28],[-18,17],[38,55],[11,37]],[[15148,6642],[77,24],[9,38],[48,48],[10,44],[69,45],[37,1],[90,-28],[13,14],[42,75]],[[15543,6903],[6,-28],[-14,-48],[-33,-54],[8,-43],[27,-47],[27,-12],[79,39],[50,-8],[60,17],[55,4],[86,-55],[49,-50],[41,-33],[34,-59],[37,-77],[24,-27],[42,-18],[36,-49],[36,-60],[44,-38],[39,-24],[25,-25],[47,-85],[6,-38],[26,-31],[55,-43],[159,-56],[64,-4],[43,-19],[45,-30],[22,-28],[36,-13],[11,19],[47,1],[57,-25],[47,-5],[46,-26],[56,-77],[16,-14],[59,-19],[88,-3],[22,-12]],[[17253,5700],[-64,-81],[-360,-325],[-98,-73],[-258,-162]],[[16473,5059],[-14,5]],[[15050,5176],[281,268],[25,0],[14,20],[28,4],[24,43],[31,15],[18,23],[23,-5],[17,22],[-72,51],[-1,-20],[-55,-42],[-94,174],[-8,9],[-169,118],[-134,92],[-123,117]],[[14855,6065],[-2,18],[22,61],[-3,54],[4,44],[16,28],[70,37],[25,52],[29,15],[44,38],[20,31],[2,35],[18,52],[16,29],[-12,40],[44,43]],[[14421,7672],[-6,-43],[28,-48],[92,-39],[85,-53],[39,-47],[41,-42],[76,-44],[54,-54],[47,-72],[67,-55],[59,-20],[119,-4],[64,-20],[66,-48],[104,-118],[97,-34],[47,0],[43,-28]],[[15148,6642],[-45,51],[-10,60],[-31,-12],[-15,28],[-31,-11],[-17,-36],[-51,-41],[-45,-2],[-41,-18],[-96,15],[-54,1],[-18,-7],[-23,68],[-65,118],[-24,26],[-51,11],[-64,-25],[-46,-8],[-69,12],[-48,-8],[-21,-14],[-22,-62],[-23,4]],[[14238,6792],[13,57],[-10,27],[10,52],[26,26],[37,107],[-17,38],[-6,82],[15,19],[45,30],[-12,40],[-36,28],[-11,45],[-9,84],[-16,48],[33,75],[18,26],[6,38],[26,18],[47,4],[-10,34]],[[14855,6065],[-12,-39],[-77,-10],[-13,-6],[-18,-43],[-137,-114],[-37,-27]],[[14297,6210],[-96,90],[-30,33]],[[14171,6333],[24,45],[-1,108],[16,48],[-13,31],[11,25],[-14,71],[2,26],[20,38],[22,67]],[[14591,3919],[372,47]],[[14966,3847],[-171,-181],[-102,-94]],[[13668,6313],[21,-5],[47,20],[98,6],[30,-32],[50,-2],[-13,-29],[30,-3],[57,-19],[47,-59],[22,-168],[-14,-40],[12,-45],[-26,-37],[-2,-23],[77,-67],[13,3],[92,111],[20,6]],[[13979,5642],[-6,-8]],[[13973,5634],[-39,44],[-146,179],[-11,19],[-55,144],[-28,148]],[[13694,6168],[-26,145]],[[14335,4854],[118,105]],[[14755,5203],[50,-69]],[[15441,4390],[126,-140],[172,-187],[71,-66]],[[15810,3997],[-119,-105],[-108,-90],[-450,-387],[-135,-86],[-18,33],[-45,101],[59,18],[4,36],[-44,21],[-2,33],[45,-6],[4,36],[-60,12],[-132,-48],[-5,-10],[-89,-33],[-22,50]],[[10917,8710],[102,82],[33,47],[40,36],[5,17]],[[12053,8369],[-5,-27],[-45,-124]],[[12287,8044],[15,-113],[0,-103],[30,-76],[-6,-16],[31,-58],[-4,-33],[-42,-16],[-1,-44],[20,-22],[-2,-51],[50,-52],[-5,-60],[14,-21],[8,-37],[37,-26],[21,-93],[-4,-13],[25,-36],[2,-36],[-24,-54],[24,-66],[-10,-48],[-3,-49],[18,-80],[76,2],[17,-53],[27,-11],[6,-40],[-74,-109]],[[12533,6630],[-24,-30]],[[12159,7080],[13,34],[-23,62],[-4,36],[34,79],[7,29],[-6,31],[-25,48],[-81,112],[-81,176],[-13,54],[2,33],[22,30],[47,36],[30,36],[40,16],[19,33],[-1,29],[10,121],[138,-31]],[[11146,9965],[148,196],[162,210],[34,75],[61,48],[61,63],[14,25],[14,61]],[[11640,10643],[39,-11],[36,11],[54,6],[45,-15],[50,-28],[45,-33],[69,-81],[19,-38],[52,-39],[97,-125]],[[12146,10290],[-78,-65],[-97,-103],[-99,-132],[28,-127],[-12,-85],[4,-35],[23,-56],[-59,-23],[-216,-97],[-18,-2],[-146,-44],[-168,-47],[-12,-10]],[[16473,5059],[36,-13]],[[16509,5046],[-17,-46],[-35,-11],[-27,14],[-33,-10],[-101,-64],[70,-108],[40,-42],[122,-254]],[[16528,4525],[-139,-104],[-63,-43]],[[16326,4378],[-26,24],[-53,96],[-64,56],[-15,21],[-15,59],[-46,137],[-9,50],[-15,6]],[[6450,4864],[59,128],[57,110],[49,126],[15,47],[6,77],[32,86],[16,23],[30,87],[67,87],[45,20],[50,33],[124,94],[30,36],[52,106],[71,180],[81,79],[25,40],[19,53],[78,70],[33,-59],[24,-27],[66,-57],[145,-154],[93,-60],[20,-26],[16,-42],[-2,-22],[97,-11]],[[7848,5888],[31,-113],[55,-138],[27,-48],[42,-60],[39,-45],[44,-41],[64,-47],[202,-123],[472,-284],[187,-110]],[[9011,4879],[-39,-54]],[[6690,4199],[-2,2],[-264,87],[101,538],[-75,38]],[[9597,5595],[15,-21],[55,-144],[39,-59],[77,-102],[44,-83],[29,-89],[6,-43],[-13,-63],[-9,-209],[13,-61],[12,-136],[-20,-65],[-46,-10],[-64,-4],[-5,-184],[10,-20]],[[9740,4302],[-91,53]],[[9649,4355],[21,53],[-16,57],[-49,42],[-21,33],[-26,73],[-1,76],[-15,40],[-17,19],[-49,18],[17,42],[59,38],[-20,46],[-6,134],[-20,44],[-49,62],[-67,-50],[-57,-11],[-42,17],[-64,50]],[[9227,5138],[89,104],[103,135],[90,107],[88,111]],[[10359,5146],[72,22],[21,11],[6,-39],[42,-29],[13,-19]],[[10691,4806],[14,-23],[-13,-111],[3,-32],[-18,-16],[-9,-58],[19,-15],[1,-33],[-11,-43],[14,-47],[4,-36],[-22,-26],[-5,-29],[-52,-25]],[[10616,4312],[-24,28],[-22,41],[-59,35],[19,35],[-25,21],[-50,16],[-60,99],[-28,12],[-13,54],[-35,33],[-81,37],[-4,15],[39,102],[36,20],[19,33],[-1,55],[-33,37],[-1,23],[17,76],[36,27],[13,35]],[[9649,4355],[-47,36],[-68,65],[-62,55],[-137,129],[-112,99],[-63,46],[-149,94]],[[9011,4879],[143,169],[73,90]],[[9846,1351],[45,79],[46,54],[47,32],[142,53],[35,16],[67,45],[44,44],[224,281]],[[10496,1955],[102,-16],[15,-11],[35,4],[48,-6],[73,0],[101,20],[86,-10]],[[10644,1111],[-54,-23],[-151,-43],[-81,-9],[-62,1],[-41,8],[-80,41],[-53,11],[-130,0],[-28,26],[-20,75],[-49,60],[-15,44],[-34,49]],[[11893,7968],[-51,-52],[-18,-29],[-8,-53]],[[11816,7834],[-61,-20],[-14,-16],[-90,-6],[-55,1],[-102,11],[1,-28],[19,-157],[24,-30],[-15,-19],[-7,-51],[30,-25],[37,-17],[4,-48],[24,-55],[57,-46],[21,-29],[50,15],[75,7],[49,-13]],[[11863,7308],[-53,-150]],[[11242,6167],[-114,-4],[-105,-20]],[[6926,7443],[31,16],[167,42],[128,-25],[63,4],[113,21]],[[7428,7501],[21,-84],[26,-75],[46,-116],[68,-177],[180,-721],[31,-151],[28,-199],[20,-90]],[[6450,4864],[-224,103],[-64,147],[-110,50],[-368,295],[9,190],[-90,81],[-50,165],[-95,83],[-93,127]],[[5365,6105],[34,43],[11,51],[48,35],[34,44],[34,17],[4,-21],[50,5],[101,47],[107,63],[70,95],[32,85],[32,42],[70,57],[70,82],[37,92],[43,143],[26,37],[78,67],[36,7],[62,26],[57,44],[39,61],[55,63],[20,15],[125,26],[69,30],[166,66],[51,16]],[[12411,1640],[104,182],[140,252]],[[12655,2074],[124,221],[66,91]],[[12845,2386],[68,70],[57,46],[96,58],[68,33]],[[13134,2593],[84,-99],[33,-65],[19,-61],[92,-255]],[[13362,2113],[-95,-6],[-46,-8],[66,-268],[21,-62],[15,-79],[7,-73],[-52,0],[-1,-24],[22,-64],[2,-56]],[[13301,1473],[10,-44],[-92,-4],[-94,-7],[-48,3],[-72,-17],[-77,4],[-72,-18],[-80,-5],[-34,15],[-53,59],[-74,61]],[[12615,1520],[-39,29],[-80,36],[-85,55]],[[13940,5564],[33,70]],[[13963,5357],[-32,132],[0,42],[9,33]],[[15810,3997],[89,-77],[76,-54],[95,-64],[104,-56],[138,-117],[83,-85]],[[16395,3544],[-53,18],[-31,-16],[-49,-9],[-21,21],[-29,-10],[-34,14],[-72,-127],[-77,-106],[-70,-71],[-60,-47],[-55,-36],[-69,-38],[-107,-73],[-45,-41],[-77,-84],[-47,-65],[-196,-293],[-242,-357]],[[15061,2224],[-32,72],[-12,49],[-39,249],[-70,286],[-31,92],[-30,65],[-95,170]],[[14752,3207],[-14,13],[-42,69],[-67,85],[-65,98]],[[13192,6789],[158,188],[46,67],[31,69],[23,100]],[[13450,7213],[19,-22],[-1,-52],[14,-27]],[[13482,7112],[52,-50],[36,-64],[52,-47],[90,-60]],[[13712,6891],[-65,-76],[-74,-94],[66,-85],[21,-55],[2,-33],[-12,-106],[4,-62],[14,-67]],[[13694,6168],[-109,-18],[-44,10],[-46,32],[-106,4],[-36,31],[-60,35],[-104,35],[-106,21],[-62,-28],[16,-20],[8,-32]],[[13045,6238],[-38,54],[-63,45],[-63,23],[-38,9]],[[12843,6369],[13,22],[77,95],[259,303]],[[12522,5702],[114,-58],[65,-48],[35,-43],[71,-114]],[[12807,5439],[-54,-31],[-29,-39],[-3,-21],[16,-54],[-1,-46],[-43,-84],[-2,-79],[-10,-32],[-61,33],[-55,1],[-70,-22],[-44,-30]],[[12215,5012],[107,230],[74,186],[110,234],[16,40]],[[13236,317],[-15,-35],[-41,-56],[-47,-42],[-75,-39],[-164,-48],[-78,-39],[-83,-58],[-18,18],[-10,34],[9,20],[-6,31],[-20,24]],[[12688,127],[67,80],[-34,27],[-12,40],[-65,89],[-7,19],[4,61],[-11,198],[-9,31],[-46,59]],[[11922,1239],[30,37],[55,53],[104,86],[129,67],[79,53],[51,51],[41,54]],[[12615,1520],[-29,-56],[-8,-28],[-17,-112]],[[12475,859],[-178,-130]],[[12297,729],[-9,20]],[[12288,749],[-31,50],[-335,440]],[[13241,5821],[54,-20],[185,-52],[111,-28]],[[13591,5721],[-40,-81]],[[13551,5640],[-24,-26],[-47,-17],[-77,-1],[-38,-22],[-26,-37],[-27,-75]],[[13312,5462],[-73,20],[-68,57],[19,71],[-3,53],[34,122],[20,36]],[[13045,6238],[35,-97],[58,-153],[24,-75],[25,-34],[54,-58]],[[13312,5462],[2,-46],[21,-28],[69,-59],[21,-37],[3,-54],[-16,-68],[5,-34]],[[13417,5136],[-25,-10],[-28,-32],[-57,-150]],[[12945,5196],[-121,210],[-17,33]],[[12522,5702],[82,176],[25,57],[57,120]],[[11659,9206],[37,47],[42,33],[38,42],[52,-55],[36,-14],[71,-5],[65,-36],[23,-17],[48,50],[33,78],[14,47],[8,148],[12,48],[27,22],[41,-2],[35,34],[23,37],[-4,29],[71,49],[6,35],[-33,60],[-28,37],[22,74]],[[12298,9947],[21,-22],[37,-16],[46,3],[32,13],[18,23],[28,56],[44,19],[65,2],[28,-25],[44,-67],[22,-4],[18,-24]],[[12701,9905],[-28,-49],[27,-55],[25,-74],[33,-149],[88,-115],[76,-165],[56,-95],[24,-192]],[[13002,9011],[-290,-13]],[[12712,8998],[-282,-15],[-121,2],[-145,18]],[[13417,5136],[42,-3],[69,-28],[50,-15]],[[13578,5090],[38,-42],[16,-89],[53,9],[22,12],[38,62],[25,18]],[[7159,11958],[46,10],[33,47],[22,14],[81,9],[31,-14],[37,12],[17,25],[55,39],[39,-12],[26,-44],[90,2],[92,9],[34,-9],[20,-24],[22,1],[33,64],[48,34],[94,33],[50,-25],[16,-24],[35,-31],[69,-23],[25,-18],[0,-21],[19,-44],[43,-69],[30,-35],[59,-31],[16,-23],[28,2],[51,42],[25,7],[108,7],[32,-8],[38,11],[46,-8],[24,9],[-6,26],[-24,17],[17,34],[62,35],[68,4],[17,28],[24,-5],[39,-73],[6,-22],[24,-20],[36,-9],[68,-38],[36,0],[23,14],[43,51],[28,4],[48,-28],[90,-25],[34,-19],[32,-37],[37,-59],[32,-2],[39,-63],[43,-9],[98,-4],[20,-23],[30,-17],[31,-35],[146,-36],[37,-20],[75,-5],[41,26],[43,-20]],[[10030,11542],[-5,-22],[-24,-21],[12,-51],[-40,-27],[-21,-47],[-41,-42],[-45,-63],[-41,-38],[-30,-45],[-24,-53],[-80,-132],[-11,-48],[-21,-37],[-45,-101],[-18,-27],[-56,-47],[-23,-39],[1,-33],[31,-34],[78,-47],[27,-26],[9,-41],[4,-108],[-15,-52],[-50,-59],[-18,-45],[-9,-96],[-53,5],[-16,-144],[-5,-96],[-65,-198],[-17,-88],[2,-161]],[[9421,9479],[-241,34],[-103,13],[-467,66]],[[8610,9592],[-162,24],[-100,27],[-86,37],[-477,252],[-97,44],[-268,105],[-182,69],[-39,11]],[[7199,10161],[-5,73],[103,234],[120,311],[-31,122],[-36,156],[-6,47],[-4,151],[61,27],[25,21],[26,69],[9,42],[28,73],[11,17],[-240,133],[-36,36],[0,71],[-11,94],[-37,43],[-16,38],[-1,39]],[[13361,4389],[9,-28],[-14,-31],[-4,-98],[-10,-45],[-37,-56],[-57,-23],[-15,-16],[-45,-73],[-7,-27],[-56,-40]],[[13125,3952],[-20,52],[-47,92],[-71,-36],[-30,-8],[-53,0],[-32,9],[-52,31]],[[12820,4092],[3,53],[-8,20],[-57,74],[-53,13],[-30,-11],[-21,-20],[-71,-92],[-33,-21],[-67,-13],[-72,28],[-48,4],[-40,-5]],[[13542,7794],[-5,-45],[-44,-259],[-43,-277]],[[13192,6789],[-53,-24],[-52,17],[-44,37],[-77,2],[-25,18]],[[12941,6839],[18,43],[16,62],[0,46],[-23,104],[-2,47],[6,55]],[[8380,8583],[19,-2],[47,13],[25,-8],[61,4],[21,-10],[30,28],[17,-7],[35,15],[39,-12],[-10,-16],[27,-27],[23,-4],[30,-26],[17,0],[74,-30],[20,-44],[26,-19],[53,-53],[13,-63],[50,-22],[55,32],[39,-21],[44,32],[67,8],[17,14],[44,-18],[51,-8],[8,-15],[0,-46],[12,-44],[32,-20],[34,-57],[-33,-34],[4,-27],[32,-36],[30,-19],[34,-53],[28,-12],[15,-26],[26,-13],[32,-41],[-29,-33],[-13,-27],[-52,-26],[-16,-17],[13,-31],[23,-27],[24,-65],[-29,-67],[104,-55],[123,-69]],[[9369,6829],[-96,33],[-173,56],[-71,40],[-113,71],[-40,38],[-108,85],[-25,13],[-90,3],[-147,-7],[-83,6],[-100,-20],[-35,0],[-146,28],[-90,25],[-44,30],[-119,130],[-68,69],[-45,26],[-154,64],[-49,5],[-83,-16],[-62,-7]],[[7428,7501],[-31,126],[-26,81],[-29,130],[-5,72],[8,46],[22,54],[40,59],[47,46],[130,107],[80,53],[248,120],[47,12],[119,6],[88,19],[37,15],[69,43],[108,93]],[[14282,7661],[-32,-26],[-18,-45],[-50,11],[-37,-44],[-72,-16],[-17,-10],[-74,-69],[-62,-17],[-51,-25],[-86,-69],[-82,-56],[-106,-76],[-113,-107]],[[12258,8194],[465,-43]],[[12941,6839],[-3,-32],[-28,-39],[-18,-48],[-28,-20],[-14,13],[-77,-68],[-19,-1],[-88,13],[-17,12],[-31,-10]],[[12618,6659],[0,36],[20,58],[29,33],[70,63],[41,29],[34,13],[-35,97],[-6,32],[11,109],[-18,56],[-122,106],[-48,76],[-1,62],[-13,50],[0,37],[39,57],[7,45],[-13,44],[-46,62],[-33,32],[-71,21],[-42,26],[-19,33],[-6,29],[30,147],[-139,32]],[[12287,8044],[-6,33],[-3,80],[-20,37]],[[13940,5564],[-57,23],[-90,56],[-155,65],[-47,13]],[[14171,6333],[-62,83],[-61,102],[-22,62],[-48,69],[-198,184],[-68,58]],[[6848,8044],[35,-11],[-7,110],[3,104],[6,445],[50,100],[21,62],[24,101],[-8,263],[-38,26],[-16,23],[-61,20],[73,229],[44,196],[2,71],[21,59]],[[6997,9842],[101,199],[63,62],[38,58]],[[8610,9592],[-22,-195],[-2,-67],[6,-58],[13,-62],[-4,-102],[-34,-282],[-14,-48],[-31,-60],[-45,-52],[-97,-83]],[[6926,7443],[-26,133],[-17,127],[-1,116],[-52,30],[-8,32],[12,61],[-2,22],[16,80]],[[10777,5672],[30,-112],[25,-28],[43,-10],[92,-6]],[[10967,5516],[8,-100],[12,-101],[17,-105]],[[10359,5146],[5,34],[-33,25]],[[10331,5205],[29,27],[27,85],[45,77],[42,27],[40,-5],[41,-18],[43,19],[3,25],[48,41],[24,76],[16,18],[2,43],[24,21],[2,27],[44,-6],[16,10]],[[1745,11803],[68,-53],[81,-47],[177,-71],[51,-9],[68,-1],[328,-122],[169,-65],[20,-11],[122,-91],[66,-20],[448,-115],[66,-21],[291,-109],[462,-171],[7,3]],[[4169,10900],[-18,-51],[-36,-63],[-80,-102],[-83,-93],[-199,-173],[-27,-20],[-56,-20],[-52,-28],[-95,-77],[-53,-33]],[[3470,10240],[-61,-21],[-27,-16],[-45,-44],[-79,-86],[-61,-59],[-136,-104],[-33,-46],[-44,-88],[-107,-120],[-79,-55],[-119,-96],[-92,-76],[-43,-44],[-17,-26],[-77,-158],[-58,-146],[-30,-100],[-69,-190],[-30,-74],[-23,-33],[-41,-38],[-45,-51],[-35,-74],[-110,-188],[-34,-64],[-19,-102],[-23,-49]],[[1933,8092],[-20,12],[-16,33],[-37,23],[-5,51],[-23,13],[-11,35],[-31,26],[-61,115],[17,30],[-10,32],[3,40],[13,22],[35,31],[13,21],[8,43],[-85,53],[-6,34],[11,97],[-96,25],[-34,19],[-13,40],[-34,48],[-21,48],[-46,40],[-49,52],[-40,63],[-29,-13],[-57,46],[-72,95],[-96,59],[-50,40],[-56,28],[-31,6],[-27,46],[-16,39],[-51,56],[-35,-5],[-33,-20],[-15,3],[-14,32],[1,40],[-26,33],[-1,41],[-16,43],[-24,30],[-77,12],[-54,33],[-56,100],[-10,35],[-26,162],[-16,47],[-25,27],[-30,55],[-27,15],[-112,135],[-34,65],[-26,64],[-47,49],[-20,49],[-22,87],[-34,59],[-13,44],[-27,41],[4,27],[-11,22],[-33,17],[-40,69],[-11,112],[121,226],[49,13],[83,38],[36,32],[125,93],[132,106],[126,93],[46,41],[30,-53],[29,-16],[55,0],[73,-23],[58,-49],[148,-66],[36,-20],[120,-36],[31,-5],[62,22],[94,58],[88,40],[34,50],[72,73],[23,32],[53,51],[21,40]],[[1745,11803],[16,28],[62,73],[57,33],[8,38],[51,9],[48,38],[106,70],[28,-4],[39,28],[36,10],[14,25],[59,31],[108,7],[77,29],[22,17],[65,-7],[44,38],[24,1],[39,-26],[62,-2],[59,37],[63,6],[29,-13],[47,2],[30,10],[83,55],[61,30],[19,21],[36,13],[31,1],[29,-19],[115,-18],[49,0],[81,-18],[34,-44],[55,5],[53,20],[12,-11],[117,21],[41,-6],[26,-21],[76,-33],[61,-46],[62,5],[40,17],[19,-10],[48,-51],[23,-39],[7,-36],[25,-27],[46,9],[28,-5],[22,11],[40,0],[64,-25],[37,3],[53,-6],[46,-15],[54,-40],[38,-51]],[[4569,11971],[-58,-99],[-55,-118],[-35,-34],[-55,-141],[-20,-73],[-35,-153],[-60,-192],[-66,-197],[-16,-64]],[[4569,11971],[56,-42],[34,27],[61,-1],[50,-11],[213,-20],[23,15],[9,27],[-18,55],[26,36],[33,16],[31,-6],[31,-24],[42,-47],[33,-28],[98,-50],[18,-3],[85,-50],[58,-22],[156,-83],[32,-14],[-9,-30],[11,-15],[-1,-39],[57,-53],[23,-33],[29,-15],[35,24],[28,30],[24,-2],[42,-33],[14,-39],[61,-2],[19,-9],[68,6],[19,29],[0,33],[31,19],[-7,17],[18,31],[78,-46],[80,13],[33,-12]],[[6293,11620],[-10,-31],[-26,-27],[-17,-69],[12,-33],[48,-24],[80,-90],[16,-29],[10,-144],[-66,-520],[-34,-92],[-20,-84],[-66,-163],[-37,-118],[-30,-64]],[[6153,10132],[-321,174],[-5,-46],[20,-52],[-4,-102],[-46,-24],[-52,-48],[-50,-25],[-34,0],[-83,19],[-88,-2],[-117,2],[-143,-10],[-127,-3],[-65,-15],[-43,-44],[-36,-49],[-16,-46],[-43,-37]],[[4900,9824],[-34,22],[-25,0],[-45,-35],[-110,10],[-71,19],[-15,-82],[4,-139],[-31,-145],[-155,46],[-20,16],[-40,57],[-121,77],[-59,61],[-80,53],[-178,116],[-93,57],[-44,22],[-72,-8],[-17,5],[-111,56],[-2,13],[25,54],[-105,83],[-31,58]],[[12618,6659],[-85,-29]],[[14241,8662],[44,-74],[-13,-64],[14,-32],[-34,-26],[-22,-75],[-26,-23],[19,-21]],[[14223,8347],[-43,-39],[-42,-16],[-20,16],[-100,0],[-10,23],[-79,8],[-62,-30],[-31,57]],[[13606,8223],[49,21],[177,129]],[[14223,8347],[19,-30],[69,-19],[11,-55],[42,-18],[25,-38],[32,-27],[-4,-71],[-24,0],[19,-37],[-27,-18],[4,-26],[34,-26],[24,-31]],[[9421,9479],[164,-21],[281,-42],[83,-24],[67,-32],[60,-36],[58,-24],[52,-13],[107,-8],[61,9],[63,19],[156,64]],[[11251,9404],[88,-30],[67,-29]],[[12363,3832],[35,16],[78,9],[81,-12],[88,1],[57,20],[26,28],[16,43],[8,57],[12,24],[56,74]],[[13125,3952],[-69,-24],[-26,-45],[-18,-63],[-60,9],[-188,-118],[-154,-15],[-140,-10],[-17,-11]],[[12024,3431],[-61,-136],[-24,-28],[-27,-15],[-70,-19],[-38,-47]],[[11804,3186],[-28,16],[-38,38],[-45,26],[-66,-97],[-30,-20],[-40,-8],[-40,-36],[-21,-62],[-21,-26],[32,-56]],[[11507,2961],[-49,-50],[-20,-31],[-58,-59]],[[11380,2821],[-21,27],[10,36],[-4,43],[-24,29],[-35,22],[-112,-8],[-19,34],[-29,32],[-33,12]],[[11113,3048],[40,115],[22,50],[52,81],[137,174],[38,55],[77,145]],[[12153,3375],[58,-28],[292,-133],[107,-73],[47,-38],[20,-41],[157,-160],[300,-309]],[[12845,2386],[-26,69],[-29,102],[-11,17],[-58,48],[-58,24],[-78,8],[-136,8],[-38,14],[-51,40]],[[12360,2716],[21,44],[7,83],[-4,34],[-13,26],[-63,85]],[[12308,2988],[21,23],[-14,27],[21,17],[-10,20],[-75,27],[-51,26],[-43,65],[0,61],[11,72],[-15,49]],[[13880,1945],[18,46],[31,37],[62,58],[52,62]],[[14043,2148],[62,76],[129,169],[276,457],[100,159],[103,155],[39,43]],[[15061,2224],[-167,-251],[-59,-121],[-21,-62],[-21,-110],[-16,-247],[-18,-85],[-26,-74],[-40,-79],[-50,-73],[-79,-80]],[[14564,1042],[-289,199],[-304,253],[-64,49],[-151,111]],[[13756,1654],[27,51],[55,147],[42,93]],[[13348,2655],[96,27],[74,31],[43,22],[84,55],[138,110]],[[13783,2900],[42,-57],[31,-62],[26,-91],[34,-137],[43,-192],[36,-145],[10,-29],[38,-39]],[[13880,1945],[-22,-8],[-14,25],[-104,98],[-55,41],[-48,23],[-21,21],[-21,44],[-61,92],[-186,374]],[[13134,2593],[81,27],[133,35]],[[13756,1654],[-140,102],[-52,46],[-51,53],[-43,57],[-69,119],[-39,82]],[[13301,1473],[75,-1],[70,-13],[96,14],[31,-3],[37,-17],[31,59],[41,44],[74,98]],[[14564,1042],[-57,-45],[-61,-37],[-48,-23],[-88,-32],[-54,-11],[-85,-6],[-80,4],[-135,30],[-103,3],[-66,-9],[-61,-16],[-104,-48]],[[11914,1231],[8,8]],[[12288,749],[-65,29],[-42,36],[-48,21],[-33,-43],[-77,-171],[4,-38],[-36,-23],[-5,-54],[-29,-63],[-46,-50],[19,-57]],[[11930,336],[-34,4],[-26,22],[-189,61],[-41,23],[-14,17],[-9,40],[-19,13],[-38,6],[-25,17],[-21,31]],[[11863,7308],[16,47],[54,139],[2,40],[-11,47],[-57,124],[-51,129]],[[12003,8218],[255,-24]],[[9740,4302],[181,-69],[198,-70],[59,-27],[111,-66],[253,-192],[54,-34],[89,-46]],[[10685,3798],[-24,-31],[-81,-73],[-52,-33]],[[10528,3661],[-10,56],[7,96],[-14,48],[-18,25],[-55,40],[-191,105],[-43,16],[-58,4],[-80,-12],[-36,-14],[-62,-38],[-39,-37],[-49,-24],[-91,1],[-38,12],[-143,88],[-115,62],[-168,63],[-46,26],[-39,69],[-47,99],[-39,102],[-130,177],[-68,71]],[[11804,3186],[73,-24],[30,-15],[75,-71],[65,-34],[39,-5],[149,-63],[25,-3],[48,17]],[[12360,2716],[-60,-71]],[[12300,2645],[-23,17],[-22,-11],[-8,-23],[-44,-20],[-31,5],[-30,32],[-19,7],[-13,27],[-3,45],[-21,-2],[-24,-35],[-17,-9],[0,-57],[-25,-17],[-23,44],[-1,39]],[[11996,2687],[-14,81],[-21,53],[1,46],[-16,33],[-34,26],[-91,18],[-33,23],[-62,66]],[[11726,3033],[41,49],[37,104]],[[12146,10290],[33,-37],[9,-79],[-2,-50],[21,-70],[36,-68],[41,-18],[14,-21]],[[12143,8879],[163,20],[1,-120],[33,-71],[21,-14],[74,19],[53,0],[33,-12],[12,-47],[5,-78],[-8,-43],[3,-81],[6,-22],[29,-33],[20,-38],[73,-51],[31,-16],[4,-71],[16,-25],[11,-45]],[[12712,8998],[29,-56],[50,-33],[58,-5],[-15,-114],[-28,-110],[-26,-110]],[[12780,8570],[-17,-106],[-23,-81],[3,-70],[21,-82],[21,-50],[6,-35]],[[12780,8570],[46,-28],[36,-33],[59,-32],[62,-5],[28,-23],[12,-25],[4,-96],[25,-47],[-21,-157]],[[9597,5595],[14,15],[60,38],[142,98],[29,28],[75,110]],[[9917,5884],[15,-37],[61,-58],[33,-49],[39,-17],[6,-53],[17,-37],[-4,-26],[19,-24],[-4,-26],[11,-28],[-20,-17],[32,-24],[-15,-43],[22,-42],[28,-21],[48,-54],[47,-26],[9,-31],[21,-8],[27,-43],[22,-15]],[[10616,4312],[21,-35],[26,-94],[4,-54],[-24,-39],[-1,-53],[44,-69],[74,-11]],[[11104,4504],[20,-70]],[[10578,6070],[20,-45],[32,-32],[35,-50],[38,-64],[22,-50],[36,-113]],[[10761,5716],[16,-44]],[[9917,5884],[26,34],[41,23],[93,12],[125,55],[234,35],[142,27]],[[10875,6116],[17,-69],[41,-197],[3,-64],[-25,-35],[-59,-28],[-29,-6],[-37,7],[-25,-8]],[[11565,5739],[-40,-42],[15,-48],[-15,-58],[-14,-15],[-59,-34],[0,-23],[68,-64],[71,-18],[27,-15],[61,-59],[17,-59],[17,-24]],[[11713,5280],[-59,-89],[-15,-47]],[[11270,5269],[7,88],[-14,46],[-40,29],[-21,24]],[[11761,4826],[23,-52],[52,-46],[122,-73],[65,-42]],[[11530,4575],[0,35],[-47,109],[6,34],[49,24],[35,48]],[[16326,4378],[-66,-47],[-141,-94],[-158,-110],[-65,-50],[-86,-80]],[[16509,5046],[31,-9]],[[16540,5037],[-1,-54],[24,-42],[46,-23],[23,-38],[-4,-22]],[[16628,4858],[-21,-35],[-10,-93],[-23,-42],[-6,-31],[8,-35],[28,-40]],[[16604,4582],[-56,-42]],[[16548,4540],[-20,-15]],[[16628,4858],[39,-6],[36,12],[39,-15],[8,-24],[-19,-39],[42,-61]],[[16773,4725],[-47,-47],[-69,-58],[-53,-38]],[[16540,5037],[72,-5],[93,1],[24,-7],[42,-40],[53,-36],[20,-24],[43,-81]],[[16887,4845],[-114,-120]],[[17253,5700],[23,-12],[71,-83],[59,-81],[86,-17],[40,15],[110,-20],[22,-27],[0,-119]],[[17664,5356],[-97,-40],[-167,-103],[-28,-12],[-123,-26],[-56,-29],[-23,-19],[-125,-121]],[[17045,5006],[-158,-161]],[[17045,5006],[8,-41],[-6,-39],[37,-57],[-64,-39],[47,-110],[14,-109],[67,5],[79,46],[40,11],[1,23],[51,13],[38,-42],[38,-7],[45,-57]],[[17440,4603],[-15,-41],[8,-37],[-9,-25],[14,-14],[-3,-35],[14,-44],[-21,-62],[-24,-22],[-12,-34],[6,-16],[-22,-23],[21,-43],[-18,-24],[-52,-36],[-31,-14],[-90,-7],[-25,-10],[-8,-39],[-18,-33]],[[17155,4044],[-87,73],[-76,55],[-61,3],[-11,19],[-47,126],[-51,-31],[-36,6],[-60,35],[-63,58],[-115,152]],[[17664,5356],[16,-45],[16,-74],[49,-49],[41,-12],[61,-47],[31,-12],[41,1],[28,14],[34,32],[13,-23],[23,-2],[-10,-40],[-31,-26],[-17,-3],[-34,17],[-68,4],[-53,-69],[-40,-11],[-25,-55],[-25,-17],[10,-35],[-13,-17],[-4,-41],[-21,-21],[-22,3],[-24,-33],[-32,-11],[-12,-35],[9,-39],[-12,-38],[-51,-31],[-29,-2],[-42,-33],[-31,-3]],[[12453,3675],[16,-50],[4,-62],[-20,-81],[231,-94],[63,-10],[193,26],[36,11],[95,65],[111,59]],[[13182,3539],[26,-67],[-12,-30],[-73,-99],[-20,-45],[-13,-63],[-1,-163],[7,-245],[196,-95],[27,-23],[29,-54]],[[8423,3540],[28,-26],[30,-41],[98,-185],[66,-81],[42,-44],[96,-93],[161,-115],[39,-23],[163,-87],[54,-33],[31,-34],[79,-115]],[[9310,2663],[-37,-26],[-48,-50],[-54,-34],[21,-31],[2,-19],[-19,-82],[32,-119],[-1,-69],[5,-49],[41,-175],[28,-100],[10,-138],[7,-30],[97,-143]],[[9394,1598],[-78,-39],[-36,-34],[-22,-48],[-26,-27],[-95,-69],[-45,-14],[-89,8],[-65,-26],[-56,-88],[-28,-29],[-28,-8],[-67,9],[-257,146],[-108,60],[-8,13],[24,53],[45,63],[51,60],[88,41],[24,68],[-2,52],[-14,44],[9,23],[90,25],[5,39],[-27,45],[-34,41],[-29,3],[-113,-65],[-20,-3],[-112,15],[-113,25],[-36,18],[-21,78],[-11,22],[-36,19],[-68,7],[-60,-11],[-68,10],[-51,15],[-41,19],[-88,3],[-11,10],[-13,47],[-28,58],[0,101],[48,101],[55,108],[11,83],[22,45],[-24,38]],[[12688,127],[-41,19],[-18,26],[-52,30],[-68,24],[-37,1],[-24,26],[-36,24],[-25,3],[-42,-11],[-96,47]],[[12249,316],[24,72],[34,66],[15,54],[7,68],[-13,101],[-19,52]],[[13182,3539],[-12,47],[12,30],[72,62],[13,50],[-20,42],[-58,49],[-42,66],[-22,67]],[[13550,4449],[30,-76],[45,-73],[118,-142],[53,-58]],[[14564,3472],[-96,-70],[-112,-75],[-147,-95],[-129,-95],[-297,-237]],[[11413,1778],[59,111],[34,57],[49,105],[67,167]],[[11622,2218],[96,-67],[138,-61],[180,-72],[39,4],[30,-26],[76,-26],[8,-15],[-16,-58],[16,-39],[51,-70],[16,-81],[106,-40],[49,-27]],[[11398,1742],[15,36]],[[10802,2363],[72,106],[66,117]],[[10940,2586],[94,-37],[69,-4],[40,-27],[35,-54],[61,-40],[72,-53],[39,-25],[52,-9],[37,-15],[154,-86],[29,-18]],[[11413,1778],[-66,16],[-51,41],[-98,61],[-51,23],[-14,14],[17,105],[2,49],[-12,10],[10,46],[4,87],[-152,56],[-108,32],[-22,17],[-70,28]],[[15001,8938],[-47,-22],[-31,3],[-55,-23],[-47,-33],[-39,-35],[-17,-25],[-14,-47],[4,-115],[7,-59],[-8,-157],[5,-52],[-69,-118],[-13,-57],[-51,-82],[-11,-118],[-18,-39],[-7,-37],[-30,-44]],[[10528,3661],[-60,-16],[-104,-57],[-103,-65],[-20,-22],[-52,-102],[-160,-139],[-110,-122]],[[9919,3138],[-96,-104],[-109,-207],[-92,-164],[-11,-17]],[[9611,2646],[-56,-32],[-17,-21],[-57,-96],[-87,67],[-57,61],[-27,38]],[[9919,3138],[232,-178],[160,-152],[51,-39],[120,-53],[86,-31],[84,-10],[37,-10],[69,-32],[52,-16],[130,-31]],[[10802,2363],[-84,28],[-59,29],[-2,9],[-135,39],[-22,-2],[-40,22],[-86,-21],[-27,8],[-56,-15],[-23,-20],[-54,1],[-105,40],[-29,0],[-33,38],[-50,2],[-19,20],[-67,27],[-19,-5],[-57,5],[-33,29],[-22,2],[-40,19],[-76,9],[-53,19]],[[10802,2363],[-120,-168],[-103,-137],[-83,-103]],[[9846,1351],[-137,61],[-75,40],[-62,46],[-26,56],[-22,73],[-50,15],[-80,-44]],[[5736,8308],[286,9],[150,6],[18,11],[7,40],[32,29],[45,14],[386,-147],[18,-22],[46,-143],[29,-27],[95,-34]],[[5365,6105],[-7,10],[-74,55],[-59,97],[-199,-4],[-57,23],[-35,29],[-29,6],[-87,-23]],[[4818,6298],[-2,67],[6,32],[42,109],[3,58],[-27,277],[2,70],[16,67],[33,45],[116,122],[14,77],[-13,133],[17,56],[45,82],[26,31],[61,39],[31,10],[80,12],[35,14],[32,25],[75,72],[59,75],[61,98],[47,147],[35,84],[71,76],[22,41],[31,91]],[[11726,3033],[-42,-29],[-31,-10],[-117,-22],[-29,-11]],[[11113,3048],[-82,-236],[-40,-112],[-51,-114]],[[11996,2687],[-22,-24],[-58,-1],[-31,80],[-45,-76],[-13,-53],[-46,-39],[-31,-7],[-55,12],[-13,21],[-47,5],[-13,14],[-3,47],[-12,24],[-24,-25],[-27,-5],[-36,13],[-10,87],[-1,49],[-60,-1],[-56,-19],[-13,32]],[[12300,2645],[33,-19],[21,-28],[29,-83],[5,-39],[25,-83],[20,-40],[37,-131],[27,-33],[29,-20],[35,-47],[46,-44],[48,-4]],[[6293,11620],[85,24],[68,50],[71,28],[58,2],[46,-7],[53,2],[85,-3],[59,-12],[25,15],[64,9],[44,-1],[10,51],[63,65],[21,12],[18,32],[31,17],[38,46],[27,8]],[[6997,9842],[-190,60],[-186,62],[-255,78],[-75,18],[-138,72]],[[5736,8308],[44,132],[67,167],[35,137],[16,44],[70,128],[-42,19],[-97,4],[-60,-30],[-93,7],[-89,32],[-59,6],[-29,11],[-65,-16],[-61,-31],[-54,-2],[-69,-12],[-9,-8],[-83,-122],[-13,-4],[-95,67],[-17,2],[-46,-72],[-46,-38],[-100,-2],[-86,21],[-65,67]],[[4690,8815],[3,34],[18,17],[-7,54],[8,11],[-1,54],[10,57],[-8,65],[32,25],[-12,23],[11,30],[-10,17],[8,33],[-16,27],[45,50],[-1,36],[-15,6],[-18,49],[48,36],[38,1],[35,32],[-9,22],[-22,9],[-16,28],[-10,83],[11,40],[34,24],[44,43],[22,47],[3,40],[-15,16]],[[13278,9000],[54,-12],[51,-49],[42,-25],[61,-56],[38,-25],[46,-19],[-26,-21],[-71,-101],[-15,-37],[-16,-81]],[[13442,8574],[1,-47],[69,-171],[48,-55],[46,-78]],[[13444,8129],[-55,158],[-2,36],[-53,152],[-18,72],[-20,106],[-10,74],[-10,122],[-1,101],[3,50]],[[12249,316],[-68,10],[-43,27],[-31,-6],[-91,1],[-49,4],[-37,-16]],[[4690,8815],[-34,32],[-45,21],[-153,47],[-11,1],[-108,-42],[-179,22],[-128,-33],[-99,3],[-187,-154],[-107,-66],[-42,-12],[-149,-84],[-13,13],[-35,-52],[-21,-47],[-27,-39],[-90,-84],[-4,-41],[19,-64],[-17,-3],[-53,-30],[-94,-25],[-30,-30],[-25,-49],[-57,-25],[-23,-37],[-27,-21],[-50,-15],[-148,-194],[-29,-61],[-24,-36],[-41,-41],[-5,-22],[11,-67],[-17,-32]],[[2648,7548],[-14,53],[-36,47],[-23,11],[-91,-12],[-17,-11],[-54,7],[-62,23],[-15,19],[-42,3],[-57,22],[-71,0],[-10,-9],[-36,8],[-44,-9],[-32,77],[-41,15],[-25,-2],[-35,32],[-16,59],[1,36],[18,36],[-7,40],[10,21],[1,47],[-17,31]],[[12277,5933],[-49,-38],[-55,-52],[-19,-48],[6,-46],[31,-37]],[[12191,5712],[-42,-41],[-21,-30],[-31,-67]],[[12097,5574],[-22,31],[-33,0],[-166,12],[-113,103],[-12,42],[-25,3]],[[11751,5049],[10,25],[0,150],[4,22],[31,28],[36,1],[12,41],[85,67],[24,0],[18,43],[-6,34]],[[11965,5460],[49,17],[51,28],[32,69]],[[12097,5574],[13,-31],[-5,-26],[24,-34],[24,-52],[82,-86],[-8,-58],[-41,-38],[-13,1],[0,-50],[19,-37],[-14,-60],[9,-43],[-12,-31],[40,-17]],[[11965,5460],[-59,-20],[-26,-16],[-167,-144]],[[13551,5640],[88,-42],[57,-4],[43,-20],[24,-44],[0,-64],[-20,-55],[-71,-92],[-9,-33],[-9,-83],[-16,-28],[-32,-31],[-28,-54]],[[10967,5516],[28,-2],[70,14],[30,-1]],[[10030,11542],[39,4],[41,-33],[7,-31],[53,-44],[41,-3],[38,37],[-2,22],[-28,24],[-4,33],[2,73],[113,70],[25,8],[48,-4],[38,7],[53,-9],[41,-43],[23,-44],[62,-32],[12,-1],[72,28],[36,-1],[53,24],[98,21],[55,30],[34,-30],[-17,-47],[6,-19],[62,-53],[21,8],[-2,68],[16,18],[64,-24],[64,-85],[13,-81],[20,-22],[40,-73],[15,-11],[24,-46],[5,-34],[25,-87],[11,-20],[65,-48],[33,-42],[11,-27],[4,-59],[-5,-35],[-31,-28],[-24,9],[-26,-8],[-34,-26],[-3,-14],[26,-36],[62,-63],[34,-94],[28,-21],[70,14],[83,-19]],[[17155,4044],[-43,-36],[9,-55],[25,-25],[0,-26],[-28,-19],[-18,-36],[-1,-53],[-23,-30],[5,-42],[-24,-8],[-83,30],[-61,10],[-33,-13],[-20,30],[-82,-23],[-10,-25],[-41,-26],[-31,-35],[-57,-41],[-18,-24],[-37,-9],[-19,-21],[-49,-2],[-32,-27],[-39,-6],[-50,12]],[[13442,8574],[92,2],[177,-8],[128,7],[17,-2]],[[13278,9014],[81,-3],[163,11],[104,-9],[69,1],[88,10]],[[13278,9000],[0,14]],[[13002,9011],[276,3]],[[4818,6298],[-50,39],[-17,50],[-51,20],[-24,-23],[-64,51],[-5,22],[26,30],[7,36],[-14,34],[1,51],[-33,70],[-16,8],[9,31],[-80,69],[-33,64],[-11,36],[-31,30],[-28,-1],[-41,31],[-1,21],[-50,-3],[-15,26],[12,27],[-29,17],[-39,43],[-28,-6],[-71,51],[-76,0],[-51,23],[-24,32],[-14,52],[-65,49],[-56,31],[-54,17],[-71,0],[-24,8],[-97,73],[-113,18],[-48,-2],[-18,20],[-68,28],[-28,29],[-44,32],[-84,6],[-29,14],[-46,2],[-30,22],[-30,9],[-29,-4],[-24,-23],[-13,-40],[-35,-12],[-59,9],[-44,-10],[-37,3],[-29,-7],[-75,32],[-35,-14],[-44,29]],[[12191,5712],[45,28],[62,20],[76,2],[65,-19],[83,-41]],[[12701,9905],[55,-22],[63,6],[37,14],[53,6],[17,-19],[1,-34],[-22,-106],[5,-21],[40,-21],[32,0],[32,17],[47,61],[41,120],[36,67],[79,69],[28,17],[44,14],[52,-8],[32,-16],[52,-79],[27,-66],[34,-63],[37,-39],[37,-16],[51,-1]],[[13611,9785],[16,-21],[8,-33],[-15,-27],[-36,10],[-65,3],[-29,-20],[-9,-46],[-41,-47],[-20,-49],[21,-25],[-28,-92],[-44,-86],[0,-18],[28,-33],[-73,0],[-26,-119],[-15,-97],[-5,-71]],[[13611,9785],[16,15],[2,50],[-9,39],[37,63],[16,50],[26,8],[63,-5],[21,-79],[27,-28],[33,-17],[53,-2],[24,23],[39,11],[36,24],[54,14],[53,-24],[38,-3],[63,-38],[45,-16],[51,10],[78,-23],[40,-26],[6,-15],[31,-12],[37,-98],[-2,-27],[-33,-62],[0,-86],[-19,-41],[-43,-4],[-22,-11],[-34,-44],[5,-25]]],"transform":{"scale":[0.00002723311317089381,0.000021464478671075165],"translate":[-77.187113,39.103142]},"objects":{"Geometry\\24-027":{"type":"GeometryCollection","geometries":[{"arcs":[[0,1,2,3,4,5,6]],"type":"Polygon","properties":{"GEOID":"240276011033"}},{"arcs":[[7,-2,8]],"type":"Polygon","properties":{"GEOID":"240276011032"}},{"arcs":[[9,10,11,12,13]],"type":"Polygon","properties":{"GEOID":"240276023043"}},{"arcs":[[14,15,16,17,18,19]],"type":"Polygon","properties":{"GEOID":"240276023061"}},{"arcs":[[20,21,22,23,24,25,26]],"type":"Polygon","properties":{"GEOID":"240276056022"}},{"arcs":[[-13,27,28,29,30,31]],"type":"Polygon","properties":{"GEOID":"240276054014"}},{"arcs":[[32,33,34,35,36,37,38]],"type":"Polygon","properties":{"GEOID":"240276030043"}},{"arcs":[[39,40,41,42,43]],"type":"Polygon","properties":{"GEOID":"240276051032"}},{"arcs":[[44,-32,45,46,47,48,49]],"type":"Polygon","properties":{"GEOID":"240276055031"}},{"arcs":[[-49,50,51,52]],"type":"Polygon","properties":{"GEOID":"240276055032"}},{"arcs":[[53,54,55,56]],"type":"Polygon","properties":{"GEOID":"240276056011"}},{"arcs":[[-55,57,58,59,60]],"type":"Polygon","properties":{"GEOID":"240276056012"}},{"arcs":[[61,62,63,-23]],"type":"Polygon","properties":{"GEOID":"240276056021"}},{"arcs":[[64,65,66,67]],"type":"Polygon","properties":{"GEOID":"240276066033"}},{"arcs":[[68,69,70,71,-68,72,73]],"type":"Polygon","properties":{"GEOID":"240276066032"}},{"arcs":[[74,75,76,77,78,79,80]],"type":"Polygon","properties":{"GEOID":"240276066041"}},{"arcs":[[81,-79,82,83,-66]],"type":"Polygon","properties":{"GEOID":"240276066042"}},{"arcs":[[84,85,86,87,88,89,-76]],"type":"Polygon","properties":{"GEOID":"240276066062"}},{"arcs":[[-25,90,-74,91,92,93,94,95]],"type":"Polygon","properties":{"GEOID":"240276067011"}},{"arcs":[[-96,96,97,98,-26]],"type":"Polygon","properties":{"GEOID":"240276067012"}},{"arcs":[[99,100,101,102,103,104]],"type":"Polygon","properties":{"GEOID":"240276011082"}},{"arcs":[[105,106,107,108,109,110]],"type":"Polygon","properties":{"GEOID":"240276011052"}},{"arcs":[[111,112,113,114,-35]],"type":"Polygon","properties":{"GEOID":"240276023031"}},{"arcs":[[115,116,117,118,119,120,121]],"type":"Polygon","properties":{"GEOID":"240276026001"}},{"arcs":[[122,123,124,125,126,127,128,-18]],"type":"Polygon","properties":{"GEOID":"240276028001"}},{"arcs":[[-29,129,130,131]],"type":"Polygon","properties":{"GEOID":"240276054013"}},{"arcs":[[132,133,134,135]],"type":"Polygon","properties":{"GEOID":"240276030012"}},{"arcs":[[136,137,138,139,140,-59,141]],"type":"Polygon","properties":{"GEOID":"240276056023"}},{"arcs":[[142,143,144,145]],"type":"Polygon","properties":{"GEOID":"240276069072"}},{"arcs":[[146,147,148,149,-144,150]],"type":"Polygon","properties":{"GEOID":"240276069041"}},{"arcs":[[151,152,153,154,-149]],"type":"Polygon","properties":{"GEOID":"240276069043"}},{"arcs":[[155,156,157,158]],"type":"Polygon","properties":{"GEOID":"240276068053"}},{"arcs":[[-6,159,-101,160]],"type":"Polygon","properties":{"GEOID":"240276011031"}},{"arcs":[[161,-89,162,163]],"type":"Polygon","properties":{"GEOID":"240276067062"}},{"arcs":[[-88,164,-105,165,166,167,168,-163]],"type":"Polygon","properties":{"GEOID":"240276067061"}},{"arcs":[[169,170,171,172,173,174]],"type":"Polygon","properties":{"GEOID":"240276022011"}},{"arcs":[[-152,-148,175]],"type":"Polygon","properties":{"GEOID":"240276069042"}},{"arcs":[[176,-156,177,178]],"type":"Polygon","properties":{"GEOID":"240276068052"}},{"arcs":[[179,180,181,182,-3,-8,183,184]],"type":"Polygon","properties":{"GEOID":"240276011041"}},{"arcs":[[-127,185,-180,186,187]],"type":"Polygon","properties":{"GEOID":"240276027001"}},{"arcs":[[-187,-185,188,-108,189,190]],"type":"Polygon","properties":{"GEOID":"240276027002"}},{"arcs":[[191,-103,192,-167]],"type":"Polygon","properties":{"GEOID":"240276011072"}},{"arcs":[[193,-106,194,195,196]],"type":"Polygon","properties":{"GEOID":"240276023023"}},{"arcs":[[197,-110,198,-7,-161,-100,-165]],"type":"Polygon","properties":{"GEOID":"240276011081"}},{"arcs":[[-184,-9,-1,-199,-109,-189]],"type":"Polygon","properties":{"GEOID":"240276011042"}},{"arcs":[[-193,-102,-160,199,200]],"type":"Polygon","properties":{"GEOID":"240276012031"}},{"arcs":[[201,-175,202,-113]],"type":"Polygon","properties":{"GEOID":"240276022012"}},{"arcs":[[203,204,-11,205]],"type":"Polygon","properties":{"GEOID":"240276023042"}},{"arcs":[[206,207,208,-133]],"type":"Polygon","properties":{"GEOID":"240276030011"}},{"arcs":[[-4,-183,209,210,211,212]],"type":"Polygon","properties":{"GEOID":"240276012042"}},{"arcs":[[213,214,215,-40,216]],"type":"Polygon","properties":{"GEOID":"240276051031"}},{"arcs":[[217,218,219,220]],"type":"Polygon","properties":{"GEOID":"240276055052"}},{"arcs":[[221,-57,222,223]],"type":"Polygon","properties":{"GEOID":"240276056014"}},{"arcs":[[-220,224,225]],"type":"Polygon","properties":{"GEOID":"240276055051"}},{"arcs":[[226,227,-179,228]],"type":"Polygon","properties":{"GEOID":"240276068051"}},{"arcs":[[-115,229,230,231,-14,-45,232,-36]],"type":"Polygon","properties":{"GEOID":"240276023033"}},{"arcs":[[233,234,-214,235,236]],"type":"Polygon","properties":{"GEOID":"240276051042"}},{"arcs":[[237,238,239,240,241,242,243]],"type":"Polygon","properties":{"GEOID":"240276069053"}},{"arcs":[[244,-195,-111,-198,-87,245]],"type":"Polygon","properties":{"GEOID":"240276011051"}},{"arcs":[[-168,-201,246,247,248,249]],"type":"Polygon","properties":{"GEOID":"240276012032"}},{"arcs":[[-104,-192,-166]],"type":"Polygon","properties":{"GEOID":"240276011071"}},{"arcs":[[250,251,252,253,-197,254,255,256]],"type":"Polygon","properties":{"GEOID":"240276023022"}},{"arcs":[[257,258,-71,259]],"type":"Polygon","properties":{"GEOID":"240276066031"}},{"arcs":[[-150,-155,260,261,-145]],"type":"Polygon","properties":{"GEOID":"240276069073"}},{"arcs":[[262,-244,263,-151,-143,264,265,266]],"type":"Polygon","properties":{"GEOID":"240276069071"}},{"arcs":[[267,268,269,270]],"type":"Polygon","properties":{"GEOID":"240276066072"}},{"arcs":[[-131,-256,271,-271,272,273,-81,274,-258,275]],"type":"Polygon","properties":{"GEOID":"240276066011"}},{"arcs":[[276,277,278,279,280,-172]],"type":"Polygon","properties":{"GEOID":"240276021002"}},{"arcs":[[281,282,-85,-75,-274]],"type":"Polygon","properties":{"GEOID":"240276066061"}},{"arcs":[[283,284,285,286,287]],"type":"Polygon","properties":{"GEOID":"240276030031"}},{"arcs":[[-73,-67,-84,288,289,290,-92]],"type":"Polygon","properties":{"GEOID":"240276067041"}},{"arcs":[[-19,291,-251,292,293]],"type":"Polygon","properties":{"GEOID":"240276023062"}},{"arcs":[[294,-33,295,296]],"type":"Polygon","properties":{"GEOID":"240276030041"}},{"arcs":[[-292,-129,297,-252]],"type":"Polygon","properties":{"GEOID":"240276028002"}},{"arcs":[[298,-20,-294,299,300,301]],"type":"Polygon","properties":{"GEOID":"240276023052"}},{"arcs":[[-196,-245,302,-268,-272,-255]],"type":"Polygon","properties":{"GEOID":"240276023021"}},{"arcs":[[-298,-128,-188,-191,303,-253]],"type":"Polygon","properties":{"GEOID":"240276028003"}},{"arcs":[[304,305,-287,306,-297,-234,307]],"type":"Polygon","properties":{"GEOID":"240276030032"}},{"arcs":[[308,309,-58,-54,-222,310,311]],"type":"Polygon","properties":{"GEOID":"240276055021"}},{"arcs":[[312,313,314,315]],"type":"Polygon","properties":{"GEOID":"240276040013"}},{"arcs":[[316,317,-313]],"type":"Polygon","properties":{"GEOID":"240276040012"}},{"arcs":[[-318,318,319,320,321,-314]],"type":"Polygon","properties":{"GEOID":"240276040011"}},{"arcs":[[-301,322,-204]],"type":"Polygon","properties":{"GEOID":"240276023051"}},{"arcs":[[323,324,-119]],"type":"Polygon","properties":{"GEOID":"240276029001"}},{"arcs":[[325,-120,-325,326,-124]],"type":"Polygon","properties":{"GEOID":"240276029002"}},{"arcs":[[-307,-286,327,-135,328,-170,-202,-112,-34,-295]],"type":"Polygon","properties":{"GEOID":"240276030042"}},{"arcs":[[329,-290,330,-94]],"type":"Polygon","properties":{"GEOID":"240276067043"}},{"arcs":[[-291,-330,-93]],"type":"Polygon","properties":{"GEOID":"240276067042"}},{"arcs":[[-99,331,332,333,334,335]],"type":"Polygon","properties":{"GEOID":"240276068031"}},{"arcs":[[336,-240,337,338,339]],"type":"Polygon","properties":{"GEOID":"240276068042"}},{"arcs":[[340,341,-249,342,343,344]],"type":"Polygon","properties":{"GEOID":"240276069011"}},{"arcs":[[345,346,-341,347]],"type":"Polygon","properties":{"GEOID":"240276069012"}},{"arcs":[[348,-348,-345,349,-241]],"type":"Polygon","properties":{"GEOID":"240276069013"}},{"arcs":[[-243,350,-344,351,-153,-176,-147,-264]],"type":"Polygon","properties":{"GEOID":"240276069052"}},{"arcs":[[-158,352,-267,353,354]],"type":"Polygon","properties":{"GEOID":"240276069061"}},{"arcs":[[-232,355,-230,-114,356,-302,-206,-10]],"type":"Polygon","properties":{"GEOID":"240276023041"}},{"arcs":[[-216,-225,-219,357,358,359,-41]],"type":"Polygon","properties":{"GEOID":"240276055041"}},{"arcs":[[360,-339,361,362,363,364]],"type":"Polygon","properties":{"GEOID":"240276068033"}},{"arcs":[[-209,365,-277,-171,-329,-134]],"type":"Polygon","properties":{"GEOID":"240276021001"}},{"arcs":[[-203,-174,366,-299,-357]],"type":"Polygon","properties":{"GEOID":"240276022022"}},{"arcs":[[-281,367,368,-15,-367,-173]],"type":"Polygon","properties":{"GEOID":"240276022021"}},{"arcs":[[369,-16,-369]],"type":"Polygon","properties":{"GEOID":"240276022023"}},{"arcs":[[370,371,-311,-224,372,-21,-358,-218]],"type":"Polygon","properties":{"GEOID":"240276055053"}},{"arcs":[[-223,-56,-61,373,-62,-22,-373]],"type":"Polygon","properties":{"GEOID":"240276056013"}},{"arcs":[[374,375,-312,-372,376]],"type":"Polygon","properties":{"GEOID":"240276055022"}},{"arcs":[[-38,377,-375]],"type":"Polygon","properties":{"GEOID":"240276055023"}},{"arcs":[[-48,378,379,-137,380,-51]],"type":"Polygon","properties":{"GEOID":"240276054031"}},{"arcs":[[-140,381,-69,-91,-24,-64,382]],"type":"Polygon","properties":{"GEOID":"240276056025"}},{"arcs":[[-213,383,-200,-5]],"type":"Polygon","properties":{"GEOID":"240276012043"}},{"arcs":[[384,385,386,387,388,-211]],"type":"Polygon","properties":{"GEOID":"240276012051"}},{"arcs":[[389,390,-387]],"type":"Polygon","properties":{"GEOID":"240276012054"}},{"arcs":[[391,392,-390,-386]],"type":"Polygon","properties":{"GEOID":"240276012053"}},{"arcs":[[-182,393,394,395,-392,-385,-210]],"type":"Polygon","properties":{"GEOID":"240276012052"}},{"arcs":[[-388,-391,-393,-396,396,397,398]],"type":"Polygon","properties":{"GEOID":"240276012062"}},{"arcs":[[-395,399,-397]],"type":"Polygon","properties":{"GEOID":"240276012061"}},{"arcs":[[-95,400,401,-349,-337,-97]],"type":"Polygon","properties":{"GEOID":"240276067082"}},{"arcs":[[-350,-351,-242]],"type":"Polygon","properties":{"GEOID":"240276069051"}},{"arcs":[[-43,402,403,404]],"type":"Polygon","properties":{"GEOID":"240276051062"}},{"arcs":[[-265,-146,-262,405,406]],"type":"Polygon","properties":{"GEOID":"240276069063"}},{"arcs":[[407,-289,-83,-78,408,-164,-169,409,-346,-402]],"type":"Polygon","properties":{"GEOID":"240276067081"}},{"arcs":[[410,411,-263,-353,-157,412]],"type":"Polygon","properties":{"GEOID":"240276068083"}},{"arcs":[[-410,-250,-342,-347]],"type":"Polygon","properties":{"GEOID":"240276069014"}},{"arcs":[[413,414,-411,415]],"type":"Polygon","properties":{"GEOID":"240276068082"}},{"arcs":[[-118,416,-125,-327,-324]],"type":"Polygon","properties":{"GEOID":"240276029003"}},{"arcs":[[-296,-39,-377,-371,-221,-226,-215,-235]],"type":"Polygon","properties":{"GEOID":"240276051041"}},{"arcs":[[-360,417,418,419,-403,-42]],"type":"Polygon","properties":{"GEOID":"240276051061"}},{"arcs":[[420,-414,421,-419]],"type":"Polygon","properties":{"GEOID":"240276051051"}},{"arcs":[[-420,-422,422,-227,423,-404]],"type":"Polygon","properties":{"GEOID":"240276051053"}},{"arcs":[[424,-308,-237,425,426]],"type":"Polygon","properties":{"GEOID":"240276040042"}},{"arcs":[[-356,-231]],"type":"Polygon","properties":{"GEOID":"240276023032"}},{"arcs":[[-205,-323,-300,-293,-257,-130,-28,-12]],"type":"Polygon","properties":{"GEOID":"240276023063"}},{"arcs":[[-304,-190,-107,-194,-254]],"type":"Polygon","properties":{"GEOID":"240276023024"}},{"arcs":[[-365,427,-333]],"type":"Polygon","properties":{"GEOID":"240276068035"}},{"arcs":[[-359,-27,-336,428,-421,-418]],"type":"Polygon","properties":{"GEOID":"240276051052"}},{"arcs":[[-334,-428,-364,429]],"type":"Polygon","properties":{"GEOID":"240276068034"}},{"arcs":[[-335,-430,-363,430,-238,-412,-415,-429]],"type":"Polygon","properties":{"GEOID":"240276068071"}},{"arcs":[[-332,-98,-340,-361]],"type":"Polygon","properties":{"GEOID":"240276068032"}},{"arcs":[[431,-288,-306,432,-320]],"type":"Polygon","properties":{"GEOID":"240276040032"}},{"arcs":[[-321,-433,-305,-425,433,434]],"type":"Polygon","properties":{"GEOID":"240276040033"}},{"arcs":[[435,436,-123,437]],"type":"Polygon","properties":{"GEOID":"240276026002"}},{"arcs":[[-266,-407,438,-354]],"type":"Polygon","properties":{"GEOID":"240276069062"}},{"arcs":[[-331,-408,-401]],"type":"Polygon","properties":{"GEOID":"240276067083"}},{"arcs":[[-315,-322,-435,439,440]],"type":"Polygon","properties":{"GEOID":"240276040031"}},{"arcs":[[-46,-31,441,442,443]],"type":"Polygon","properties":{"GEOID":"240276054012"}},{"arcs":[[444,445,446,-70,-382,-139]],"type":"Polygon","properties":{"GEOID":"240276054042"}},{"arcs":[[-47,-444,-446,447,-379]],"type":"Polygon","properties":{"GEOID":"240276054032"}},{"arcs":[[-270,448,-282,-273]],"type":"Polygon","properties":{"GEOID":"240276066073"}},{"arcs":[[-90,-162,-409,-77]],"type":"Polygon","properties":{"GEOID":"240276067063"}},{"arcs":[[449,-52,-381,-142,-310]],"type":"Polygon","properties":{"GEOID":"240276055034"}},{"arcs":[[-37,-233,-50,-53,-450,-309,-376,-378]],"type":"Polygon","properties":{"GEOID":"240276055033"}},{"arcs":[[450,-207,-136,-328,-285]],"type":"Polygon","properties":{"GEOID":"240276030013"}},{"arcs":[[-212,-389,-399,451,-247,-384]],"type":"Polygon","properties":{"GEOID":"240276012041"}},{"arcs":[[452,-121,-326,-437]],"type":"Polygon","properties":{"GEOID":"240276026004"}},{"arcs":[[453,-122,-453,-436,454]],"type":"Polygon","properties":{"GEOID":"240276026003"}},{"arcs":[[-280,455,-455,-438,-17,-370,-368]],"type":"Polygon","properties":{"GEOID":"240276022024"}},{"arcs":[[-338,-239,-431,-362]],"type":"Polygon","properties":{"GEOID":"240276068041"}},{"arcs":[[-434,-427,456,-440]],"type":"Polygon","properties":{"GEOID":"240276040041"}},{"arcs":[[-275,-80,-82,-65,-72,-259]],"type":"Polygon","properties":{"GEOID":"240276066034"}},{"arcs":[[-443,457,-260,-447]],"type":"Polygon","properties":{"GEOID":"240276054041"}},{"arcs":[[-303,-246,-86,-283,-449,-269]],"type":"Polygon","properties":{"GEOID":"240276066071"}},{"arcs":[[-416,-413,-177,-228,-423]],"type":"Polygon","properties":{"GEOID":"240276068081"}},{"arcs":[[-448,-445,-138,-380]],"type":"Polygon","properties":{"GEOID":"240276054043"}},{"arcs":[[-30,-132,-276,-458,-442]],"type":"Polygon","properties":{"GEOID":"240276054011"}},{"arcs":[[458,459,-456,-279]],"type":"Polygon","properties":{"GEOID":"240276021003"}},{"arcs":[[460,-116,-454,-460]],"type":"Polygon","properties":{"GEOID":"240276021004"}},{"arcs":[[-141,-383,-63,-374,-60]],"type":"Polygon","properties":{"GEOID":"240276056024"}}]}}}