{"type":"Topology","arcs":[[[16622,4606],[-582,-2],[-311,-38],[6,-33],[-280,-51],[-62,443],[-30,211],[-237,-35],[-397,-58],[-699,-102],[-111,-16]],[[13919,4925],[-21,-3]],[[13898,4922],[-4,25]],[[13894,4947],[-105,667],[-8,50]],[[13781,5664],[-149,898]],[[13632,6562],[949,147],[643,99],[941,145],[-11,-40],[3,-13],[32,-34],[-4,-17],[35,-10],[16,-28],[-10,-25],[-21,-24],[-6,-26],[28,-32],[26,-17],[31,-29],[-5,-28],[-27,-16],[-3,-18],[14,-14],[20,-3],[18,-36],[32,-37],[8,-29],[21,-31],[-1,-12],[-32,-13],[-13,-16],[-4,-23],[-15,-30],[14,-19],[-7,-24],[22,-15],[5,-23],[-22,-32],[40,-54],[-14,-15],[13,-31],[-14,-16],[29,-14],[-4,-26],[22,-4],[6,-10],[-13,-26],[2,-29],[39,-18],[10,-18],[1,-25],[-40,-27],[-30,-12],[-4,-26],[27,-44],[21,-18],[21,-5],[-8,-17],[-33,5],[-20,-26],[3,-52],[12,-29],[22,-8],[26,0],[7,-27],[-5,-32],[-10,-18],[9,-17],[-2,-29],[29,-46],[45,-25],[-7,-31],[8,-40],[29,-22],[11,-17],[24,-19],[39,-9],[-17,-22],[-2,-17],[-39,-13],[-10,-23],[20,-18],[1,-31],[14,-33],[0,-27],[12,-15],[-3,-28],[-18,-20],[1,-14],[-20,-26],[0,-31],[14,-22],[27,-17],[-5,-34],[-12,-1],[7,-34],[16,-5],[12,-32],[-46,-22],[-14,-40],[23,-19],[-22,-22],[12,-31],[-26,-4],[5,-12],[33,-25],[21,-24],[28,-8],[18,-13],[-25,-18],[18,-17],[-6,-16],[5,-22]],[[10805,1214],[18,-38],[26,8],[64,-13],[32,3],[9,-53],[54,2],[149,8]],[[11157,1131],[-40,-71],[-10,-22],[-2,-30],[6,-21],[-74,-62],[-10,-22],[-17,-72]],[[11010,831],[-106,30],[-72,31],[-75,51],[-58,55],[-29,57],[-20,98]],[[10650,1153],[32,19],[11,20],[-8,23],[-6,39],[-18,47],[-18,23],[-35,34],[-5,24],[9,18],[29,-45],[41,-48],[19,-39],[43,-25],[23,-4],[38,-25]],[[4962,8713],[561,-133],[2,18],[896,-197],[459,-102],[-6,-36],[229,-55],[-12,-103],[140,23],[-19,-130],[-140,-18],[-19,-123],[206,21],[-16,-191]],[[7243,7687],[-292,-35],[-27,-448],[-48,-816]],[[6876,6388],[-749,-95],[5,183],[-250,-40],[15,529],[-468,-40],[36,529],[-323,-42]],[[5142,7412],[-4,34],[-74,526],[-102,741]],[[12976,1947],[30,54],[21,64],[13,61],[6,92],[1,47],[37,27],[33,10],[64,9],[48,10],[77,7],[-28,161],[-2,22],[25,10],[15,46],[-44,48],[-6,19],[-26,11],[-22,19],[-33,-10],[-23,13],[-23,-5],[-18,14],[-49,3],[37,44],[12,6],[49,-2],[52,1],[38,11],[134,76],[18,14],[42,43],[23,30],[44,11],[46,18],[43,-9],[43,-25],[51,-19],[63,-28],[34,-26],[30,-4],[63,-33],[61,-18],[12,-9],[14,12],[60,33],[50,41],[43,16],[57,9],[24,14]],[[14215,2885],[86,-508]],[[14301,2377],[127,-756]],[[14428,1621],[56,-337]],[[14484,1284],[-1187,-164]],[[13297,1120],[16,39],[15,84],[-31,15],[-16,18],[-13,41],[-9,52],[-27,68],[-24,45],[-21,24],[-15,6],[-61,-7],[-23,-6],[-36,-19],[-8,23],[-21,27],[-17,32],[-32,158],[-21,54],[6,42],[-10,41],[27,90]],[[4375,7310],[767,102]],[[6876,6388],[-84,-1268]],[[6792,5120],[-1052,-158],[26,-416]],[[5766,4546],[-20,22],[-27,-8],[-19,9],[-18,30],[-34,21],[9,20],[-7,12],[-26,8],[-35,-8],[-51,1],[-60,-16],[-52,44],[-30,-11],[-23,-3],[-28,5],[-15,13],[-4,37],[-8,13],[-78,-13],[-30,-36],[-26,-79],[-13,-3],[-10,36],[-9,14],[-32,6],[-37,-8],[-36,-2],[-39,10],[-14,26],[-731,-99]],[[4263,4587],[-137,820],[-174,1043],[-131,783],[554,77]],[[7243,7687],[1326,206],[-39,-661],[-39,-670]],[[8491,6562],[-25,-18],[-13,-23],[-15,12],[-17,-5],[-3,-50],[-8,-33],[-11,-20],[-15,-6],[-11,-20],[-46,22],[-36,5],[-35,12],[-85,10],[-39,-2],[-62,11],[-44,0],[-66,-14],[-18,-27],[-21,-60],[-48,-12],[-23,-31],[-17,-2],[-6,-17],[-3,-52],[-15,-36],[8,-25],[-43,-20],[36,-7],[74,-26],[29,-33],[-4,-29],[18,-15],[6,-34],[-31,-57],[-10,-28],[-2,-44],[-12,-51],[-11,-98],[-4,-18],[5,-63],[-2,-21],[-13,-41],[-5,-70],[3,-32],[16,-28],[24,-17],[43,-18],[67,-38],[12,-16],[11,-36],[13,-25]],[[8037,5316],[-408,-64]],[[7629,5252],[-442,-69],[-395,-63]],[[8491,6562],[-4,-56],[822,122]],[[9309,6628],[-70,-1124]],[[9239,5504],[-74,-11]],[[9165,5493],[-1128,-177]],[[8955,3135],[285,42],[2,-49],[275,-28],[-6,-16],[103,34]],[[9614,3118],[21,-37],[14,-54],[14,-74],[12,-78],[-19,-48]],[[9656,2827],[-21,9],[4,-26],[-28,-13],[-16,4],[-16,18],[-20,-5],[9,-33],[-28,3],[-32,-16],[-21,5],[-12,17],[-30,9],[-30,-7],[-14,-20],[29,-6],[4,-10],[-25,-19],[2,-22],[22,-14],[-5,-17],[-21,-7],[-42,-5],[-15,-8],[-22,-24],[-11,-2],[-54,23],[-23,3],[-23,-10]],[[9217,2654],[-12,17],[-20,-14],[-19,-23]],[[9166,2634],[-14,10],[-24,28],[-21,5],[-8,23],[-20,8],[-31,41],[-27,8],[2,23],[-23,18],[1,39],[-12,0],[-10,27],[-13,16],[-4,28],[-13,14],[10,31],[-28,25],[15,18],[7,52],[-7,15],[-23,7],[0,25],[35,25],[-3,15]],[[16622,4606],[10,-22],[37,-30],[-6,-11],[18,-10],[-8,-24],[7,-32],[14,-13],[15,4],[16,-37],[-13,-15],[11,-10],[-34,-41],[-5,-19],[5,-19],[13,-10],[10,-23],[-14,-17],[-2,-21],[-32,-30],[22,-8],[8,-26],[-15,-7],[42,-41],[-22,-5],[-17,-14],[-18,2],[-16,-19],[16,-14],[2,-25],[12,-32],[-17,-16],[-16,-31],[-3,-22],[-16,-20],[11,-30],[-10,-19],[15,-14],[-3,-20],[-11,-19],[-23,-10],[1,-25],[-19,-15],[11,-25],[-21,-52],[-22,-1],[-17,-17],[8,-19],[-8,-14],[-34,2],[-3,-9],[14,-30],[17,-16],[17,-35],[11,5],[20,-27],[-2,-12],[14,-31],[16,-4]],[[16608,3511],[53,-22],[2,-5],[-21,-36],[-8,-38],[9,-25],[35,-4],[26,-10],[3,-14],[-12,-20],[-8,-47],[10,-9],[37,-12],[13,-11],[33,-2],[-5,-102],[-30,-100],[-2,-19],[-12,-32],[1,-37],[13,-12],[45,-15],[33,-4],[30,-16],[44,-37],[16,-7],[42,-2],[35,-15],[26,-34],[5,-21],[-11,-53],[-1,-66],[13,-25],[32,-20],[52,-14],[37,-5],[25,-24],[10,-28],[-8,-41],[-23,-56],[-36,-45],[2,-37],[16,-18],[1,-31],[-7,-24],[-13,-5],[-32,7],[-36,-25],[-9,-39],[24,-30],[-29,0],[-8,-27],[39,-10],[-2,-27],[10,-27],[2,-31],[34,-115],[2,-47],[-7,-43],[8,-35],[25,-37],[-2,-10],[-30,-11],[-7,-22],[8,-30]],[[17100,1752],[-75,7],[-90,29],[-32,7],[-69,-4],[-29,-13],[-86,30],[-36,5],[-54,19],[-39,22],[-37,61],[-14,36],[-11,12],[-148,102],[-48,32],[-11,20],[-44,40],[-76,86],[-11,15],[-23,66],[-21,30],[-29,12],[-36,30]],[[16081,2396],[-52,46],[-59,21],[-62,15],[2,17],[-6,68],[-23,104],[-58,93],[-39,35],[-10,16],[-23,18],[-53,48]],[[15698,2877],[26,12],[37,36],[53,32],[-203,91],[-30,10],[-125,28],[-34,17],[-65,72],[-32,47],[-27,34],[-30,20],[-20,24],[-33,61]],[[15215,3361],[-25,44],[-25,37],[-60,97],[-7,25],[-4,50],[-20,45],[-16,68],[-8,18],[-50,83],[-19,50],[-23,106],[-12,31],[-54,106],[-16,18],[-41,13],[-84,-11],[-30,5],[-33,12],[-60,10],[-31,20],[-98,75],[-24,12],[-97,35],[-57,32],[-21,18],[-21,29],[-10,26],[-3,32],[-21,87],[-24,62],[-21,40],[-46,57],[-235,232]],[[9165,5493],[13,-26],[16,-15],[28,-10],[14,-14],[38,-23],[9,-42],[-16,-75],[-13,-39],[-1,-20],[7,-57],[-13,-54],[-37,-75],[-4,-19],[5,-63],[5,-12],[49,-75],[4,-26],[-4,-36]],[[9265,4812],[-97,-9],[3,-94],[-150,-14]],[[9021,4695],[-45,56]],[[8976,4751],[-13,33],[137,23],[-2,98],[-4,38],[-28,148],[-23,0],[-1,35],[-225,-34],[0,-15],[-37,-9],[39,-183],[14,-27]],[[8833,4858],[-12,6],[-133,38],[-31,-7],[-28,6],[-15,18],[-21,55],[-8,13],[-66,41],[-39,8],[-52,26],[-36,11],[-57,-7],[-13,1],[-22,17],[-14,35],[-30,25],[-27,39],[-29,29],[-75,20],[-19,19],[-17,25],[-39,26],[-13,14]],[[15514,1256],[24,29],[5,56],[13,65],[1,21],[10,15],[29,10],[31,0],[57,-33],[22,-1],[6,10],[-1,44],[7,28],[41,48],[54,77],[50,69],[15,45],[19,80],[-35,43],[-17,42],[-1,105],[-9,44],[22,5]],[[15857,2058],[39,19],[20,71],[34,9],[28,21],[20,33],[7,36],[-2,23],[14,63],[24,33],[40,30]],[[17100,1752],[3,-56],[23,-27],[20,-97],[-9,-36],[3,-37],[-23,-32],[-1,-28],[-6,-14],[9,-31],[3,-33],[-10,-33],[-30,-26],[6,-30],[-37,-92],[0,-17],[33,-25],[3,-22],[-12,-39]],[[17075,1077],[-8,-18],[-34,-12],[-100,1],[-15,-5],[-29,-29],[-21,-29],[-30,-24],[-2,-42],[16,-47],[-7,-35],[-27,-51],[-54,-1],[-11,-5],[1,-20],[-15,-24],[-45,-44],[-33,0],[-19,25],[-11,28],[-29,12],[-25,-7],[-49,-86],[-33,-22],[-24,13],[-33,8],[4,16],[18,8],[9,14],[-42,9],[-21,-11],[-7,-17],[1,-35],[8,-69],[26,-32],[20,-71],[-1,-32],[-28,-17],[8,-27],[43,8],[16,-1],[26,-28],[7,-35],[9,-16],[-10,-10],[-39,12],[-10,-7],[1,-27],[15,-58],[13,-34],[7,-5],[39,-3],[9,-7],[-871,-120],[-174,1188]],[[12557,6526],[4,-60],[31,-67],[9,-47]],[[12601,6352],[-3,-71],[25,-78],[-24,-10],[-20,0],[-43,28],[-36,-10]],[[12500,6211],[15,176],[-145,-17]],[[12370,6370],[10,15],[-2,23],[-12,31],[1,22],[40,13],[21,-4],[65,-2],[6,20],[-4,32],[34,10],[28,-4]],[[14862,2501],[71,1],[64,13],[28,-7],[32,-35],[38,-10],[100,33]],[[15195,2496],[-35,-59],[-13,-33],[-10,-78],[-9,-56],[-9,-27],[-38,-72],[-12,-44],[7,-72],[19,-49],[25,-26],[2,-18],[-56,7],[-28,-11],[-45,-44],[-17,-26],[-12,-51],[-22,-54],[-1,-31],[14,-30],[3,-32],[-41,-3],[-23,-21],[-26,-16],[-23,-4],[-17,5],[-12,16],[-26,14],[-58,2],[-36,-3],[-30,8],[-30,0],[-51,-22],[-39,-15],[-29,-4],[-69,-18],[-20,-8]],[[14301,2377],[25,1],[90,19],[39,21],[18,4],[73,-19],[42,-2],[49,3],[77,11],[25,13],[31,27],[52,38],[40,8]],[[15215,3361],[-45,35],[-47,26]],[[15123,3422],[-29,25],[-19,7],[-101,7],[-59,15],[-119,11],[-41,-9],[-109,-28],[-29,-3],[-80,0],[-28,11],[-71,53],[-130,106],[-18,24],[-20,49],[-26,31],[-81,58],[-56,27],[-44,1]],[[14063,3807],[-82,553]],[[13981,4360],[-83,562]],[[15123,3422],[-33,-26],[-15,-28],[-28,-16],[-31,-49],[-12,-30],[-2,-31],[-10,-59],[9,-52],[-28,-81],[4,-26],[22,-43],[10,-37],[-31,-19],[-36,-44],[-26,-16],[-34,-14],[-25,-23],[-66,-7],[4,-25],[-37,-43],[-5,-28],[3,-18],[-23,-45],[39,-6],[5,-11],[-57,-69],[-12,-41],[26,-5],[25,10],[36,-9],[30,5],[36,-20],[1,-15]],[[14215,2885],[-129,766]],[[14086,3651],[-23,156]],[[8928,2245],[114,111]],[[9042,2356],[31,-27],[52,-11],[-8,-21],[123,16],[54,3]],[[9294,2316],[18,-111],[-1,-6],[-90,-17],[-11,9],[-4,40],[-122,-19],[-3,-18],[0,-151],[-12,8],[-25,34],[-25,17],[-9,-25],[-25,15],[9,24],[-15,15],[-16,38],[-29,-28],[-47,-32],[-14,12],[25,28],[-9,19],[-21,18]],[[8868,2186],[60,59]],[[15698,2877],[-41,-16],[-14,-12],[-19,-51],[-9,-13],[-46,-39],[-17,-19],[-33,-21],[-77,-28],[-46,-26]],[[15396,2652],[-101,-57],[-30,-22],[-20,-22],[-22,-33],[-28,-22]],[[11359,1784],[18,17]],[[11377,1801],[16,-47],[-3,-22],[-82,-205]],[[11308,1527],[-82,-193],[-40,-112],[-18,-70],[-11,-21]],[[10805,1214],[-11,35],[21,45],[10,116],[11,157],[15,19],[34,7],[249,33],[36,22],[62,43],[75,57],[52,36]],[[15857,2058],[-220,157],[-48,41],[-30,39],[-17,32],[-126,261],[-20,64]],[[15514,1256],[-23,163],[-1007,-135]],[[11308,1527],[40,-14],[49,-40],[66,-90],[60,-67]],[[11523,1316],[14,-26],[50,-55],[4,-10]],[[11591,1225],[-2,-34],[-18,-42],[-11,-54],[-3,-132]],[[11557,963],[-20,-9],[-47,-2],[-14,-5],[-95,-4],[-10,28],[-17,143],[-12,52],[-128,-29],[-57,-6]],[[12446,5570],[41,7],[21,202],[53,5],[40,13]],[[12601,5797],[45,16]],[[12646,5813],[45,-185],[60,7]],[[12751,5635],[8,-94]],[[12759,5541],[-255,-159],[-79,-51]],[[12425,5331],[21,239]],[[12530,6634],[244,32],[27,5],[54,25],[89,25]],[[12944,6721],[0,-6],[-20,-101],[-18,-130],[-19,-113],[-2,-46],[2,-26]],[[12887,6299],[-62,-25],[1,17],[-22,0],[-22,10],[-5,11],[-20,7],[-17,-5],[-19,16],[-36,16],[-55,-3],[-29,9]],[[12557,6526],[-27,108]],[[10115,4052],[60,9],[-13,51],[26,14]],[[10188,4126],[17,-41],[20,-38],[32,-32],[13,16],[56,47],[7,10]],[[10333,4088],[7,-3],[16,-37],[24,-65],[18,-14]],[[10398,3969],[-21,-8],[8,-50],[-68,-12],[-13,21],[-45,40]],[[10259,3960],[-31,27],[-60,-49],[-46,-3]],[[10122,3935],[1,36],[-8,81]],[[9217,2654],[36,-45],[-20,-61]],[[9233,2548],[-19,-22],[-101,-101],[-71,-69]],[[8928,2245],[-14,26],[-26,-23],[-46,31],[42,47],[-39,73],[-31,21],[-85,80],[11,22],[17,18],[34,23],[21,27],[36,11],[-2,46],[85,9],[7,-43],[143,20],[17,-1],[42,-15],[26,17]],[[9656,2827],[34,-8],[-32,-72],[-11,-41],[-41,-19],[-25,-42]],[[9581,2645],[-12,-12],[-30,-7],[-51,-33],[2,-24],[-20,9],[-42,-14],[-30,-31],[-29,-58]],[[9369,2475],[-61,-10],[-22,-12],[-53,95]],[[11557,963],[6,-56],[6,-17]],[[11569,890],[-414,-53],[-82,-12],[-63,6]],[[12646,5813],[123,42],[-23,52]],[[12746,5907],[20,12],[5,53],[-7,31],[61,24],[33,-15]],[[12858,6012],[-1,-11]],[[12857,6001],[-8,-54],[-18,-62],[-25,-54],[-3,-30]],[[12803,5801],[-4,-37],[-12,-48],[2,-80]],[[12789,5636],[-38,-1]],[[12759,5541],[30,17],[3,-43],[-10,-121]],[[12782,5394],[-14,-118],[-1,-110],[-4,-90],[2,-31]],[[12765,5045],[-9,-4],[-10,-26],[-39,-64],[-19,-17],[-55,-9],[-119,0],[-53,-7],[-29,-12],[-44,-27]],[[12388,4879],[30,292],[-24,-3],[8,154],[23,9]],[[12789,5636],[1,-31],[95,-1],[-1,-46],[161,-4]],[[13045,5554],[179,-4]],[[13224,5550],[-33,-162],[-23,-102]],[[13168,5286],[-4,-33]],[[13164,5253],[-16,-139],[-14,4],[-11,24],[-91,136],[-40,55],[-33,31],[-40,11],[-137,19]],[[13224,5550],[15,94],[3,30],[12,42],[23,169],[18,75]],[[13295,5960],[27,195],[12,125],[7,55],[6,20],[17,28],[-4,25],[-13,25]],[[13347,6433],[4,11],[90,-4],[41,37],[81,49],[39,35],[23,38]],[[13625,6599],[7,-37]],[[13781,5664],[-31,-12],[-60,-1],[3,-43],[12,-65],[10,-23],[4,-32],[-5,-67],[13,-23],[-25,-34],[-35,-19],[-27,-29],[-30,5],[-33,-10],[-34,-36],[-34,-5]],[[13509,5270],[-11,15],[-70,70],[-46,-38],[-87,-63],[-127,32]],[[13894,4947],[-40,26],[-165,87],[-30,19],[-55,50],[-66,93],[-29,48]],[[13981,4360],[-305,186],[-38,24],[-41,41],[-18,27],[-192,308],[-87,137],[-136,170]],[[14063,3807],[-77,0],[-58,-8],[-60,21],[-114,25],[-29,1],[-35,-4],[-36,1],[-62,16],[-45,18],[-36,8],[-1,10],[-24,35],[-45,53],[-28,30],[-32,49],[-66,53],[-31,52],[-21,56],[-18,59],[-29,43],[-17,40],[-14,46],[6,89],[-5,47],[-14,36],[-15,15],[-16,-3],[-336,-8],[-24,0]],[[12781,4587],[6,52],[-12,75],[1,64],[9,59],[1,62],[-14,40],[1,54],[-8,52]],[[12451,4010],[91,-6],[54,-23],[12,-14],[17,6],[21,20],[20,47],[9,57]],[[12675,4097],[11,135],[22,196],[19,53],[20,32],[34,74]],[[14086,3651],[-342,-30],[-19,-4],[-79,-46],[-109,-18],[-66,-32],[-70,-40],[-104,84],[-25,33],[-38,-32],[-79,9],[-59,27],[-82,-24],[-262,-99],[-75,28],[-51,-36],[-26,-14]],[[12600,3457],[-76,64],[-92,18]],[[12432,3539],[-66,465]],[[12366,4004],[34,9],[51,-3]],[[12451,4010],[4,42],[-44,-1],[-20,12],[-7,13],[3,26],[19,30],[-3,52],[14,13],[5,42],[8,21],[35,23],[22,-12],[20,-38],[57,2],[15,-16],[-4,-27],[7,-42],[22,-1],[15,-10],[11,-26],[20,-14],[25,-2]],[[11660,1998],[134,-37],[14,0],[56,25]],[[11864,1986],[34,2],[57,-32]],[[11955,1956],[11,-148],[69,-283]],[[12035,1525],[-41,98],[-45,-36],[-29,30],[47,39],[-58,51],[-34,62],[-26,40],[-16,-23],[-13,-54],[-11,-20],[-26,-19],[-14,17],[-21,48],[-46,89],[-43,48],[-27,16]],[[11632,1911],[13,32],[15,55]],[[11429,1702],[30,-28],[9,-22],[15,-2],[77,-46],[23,0],[14,-8],[15,7],[17,-9],[16,3],[25,-11],[42,-49],[35,-29],[10,-24],[-33,-34],[78,-83],[11,-21],[-64,-26],[-9,12],[-24,-13],[39,-55],[-44,-14],[-44,3],[3,-46],[-47,3],[-16,14],[-16,1]],[[11523,1316],[33,6],[-8,111],[-13,40],[-34,65],[-4,21],[-76,113],[-10,8],[18,22]],[[11377,1801],[-7,48],[13,65],[16,41],[39,78]],[[11438,2033],[107,-14],[90,-18],[25,-3]],[[11632,1911],[-20,-42],[-19,-22],[-48,-29],[-23,-6],[-46,8],[-47,-13],[-40,-4],[20,-33],[9,-54],[11,-14]],[[10706,5647],[-16,111],[-10,45],[-8,68],[7,22],[53,74],[9,19],[12,-5],[50,-41],[34,-18],[35,-30],[25,30],[5,25],[17,15],[54,21],[32,17],[26,28],[15,61],[-2,107],[29,17],[20,-4],[32,23],[23,-8]],[[11148,6224],[1,-5],[75,-122],[19,-51],[-5,-28],[-20,-30],[-35,-93],[-19,-61]],[[11164,5834],[-15,-63],[-28,-103],[-8,-61],[1,-58],[12,-65],[9,-31],[34,-91],[22,-51],[13,-55],[9,-50],[1,-36],[-4,-48]],[[11210,5122],[-13,-50],[-25,-63],[-21,-29],[-29,-32],[-44,-30],[-29,-14],[-91,-24],[-49,-9],[-58,-6],[-68,0],[-217,22]],[[10566,4887],[6,53],[22,17],[-6,18],[-15,-5],[7,33],[69,21],[6,13],[-8,20],[12,14],[4,21],[20,19],[14,2],[9,23],[35,-10],[1,30],[24,21],[36,8],[19,32],[-11,30],[14,6],[-1,26],[-14,11],[17,31],[-19,2],[4,25],[-17,26],[-11,27],[-23,82],[-37,6],[-6,12],[-1,38],[13,29],[-19,57],[-4,22]],[[9236,4457],[8,44]],[[9244,4501],[40,-26],[159,-15],[81,-15],[39,1],[92,-19],[12,10]],[[9667,4437],[15,-64],[23,-41]],[[9705,4332],[-46,17],[-18,-38],[10,-21],[20,-14],[-1,-42],[-9,-29],[-79,26],[-58,21],[-49,39],[-36,44],[-30,-1],[-64,20],[-44,11],[-44,-11],[-75,-5],[-68,-32],[-34,-5]],[[9080,4312],[1,15],[20,29],[15,58],[97,40],[23,3]],[[9256,4717],[45,3],[39,-8],[131,-74],[55,-28],[42,-34],[60,-28],[29,-49],[10,-62]],[[9244,4501],[2,114],[10,102]],[[9265,4812],[-9,-95]],[[9236,4457],[-24,12],[-84,110],[-107,116]],[[10068,4257],[73,-34],[33,2]],[[10174,4225],[14,-99]],[[10115,4052],[-33,4]],[[10082,4056],[8,19],[-32,47],[-5,43],[-19,31],[-22,23],[56,38]],[[9654,4026],[19,13],[64,-6],[15,50],[40,43],[-19,28],[23,24],[48,43],[11,18],[9,44]],[[9864,4283],[0,41],[8,30]],[[9872,4354],[74,-42],[122,-55]],[[10082,4056],[-17,-34],[-29,-25],[-45,12],[-37,17],[-46,30],[-71,-66],[-5,-36]],[[9832,3954],[-23,4],[-71,-51],[-37,-1],[-32,10],[-22,16]],[[9647,3932],[-22,25],[-1,18],[40,28],[-10,23]],[[10490,4503],[18,-20]],[[10508,4483],[-73,-80],[-54,-89],[-36,-79],[-11,-45],[0,-57]],[[10334,4133],[-34,-16],[-47,49],[-22,30],[-20,6],[-37,23]],[[10174,4225],[-9,78],[70,47],[34,15],[13,-19],[126,91],[82,66]],[[10334,4133],[-1,-45]],[[10040,3702],[24,17],[74,67],[8,25],[1,37],[43,33],[-2,25],[48,25],[23,29]],[[10398,3969],[95,-111],[-4,-19],[-86,-114],[-40,-11],[-13,-17],[-30,-20],[-133,81],[-43,-58],[-2,-27],[-9,-16],[-25,0],[-68,45]],[[10122,3935],[-14,1],[-32,-24],[-51,-16],[9,-26],[-8,-17],[22,-17],[-4,-18],[-52,-52],[-19,18],[-9,34],[-5,37],[9,67],[-13,22],[-26,8],[-22,-14],[-15,-32],[-28,12],[-14,25],[-18,11]],[[9865,3607],[42,15],[34,16],[99,64]],[[10508,4483],[14,-12],[112,-80],[95,-55],[112,-52],[40,-10],[87,-16],[67,-19],[50,-11],[73,-9],[55,-10],[26,-17],[13,-15],[33,-61],[6,-49],[-3,-27],[-25,-44],[-30,-33],[-40,-23],[-28,-9],[-75,-17],[-22,-17],[-37,-68]],[[11031,3829],[-44,-104],[-48,-80],[-67,-87],[-37,-42],[-177,-224],[-57,-100],[-23,-64]],[[10578,3128],[-77,-2],[-41,-4],[-31,-11],[-26,-18],[-54,-25],[-67,-49],[-15,-19],[-29,-20],[-22,-7],[-89,8],[-32,13],[-18,14],[-29,38],[-75,-96],[-35,119]],[[9938,3069],[22,24],[22,46],[-1,61],[9,34],[-83,70],[-95,139],[3,31],[-13,31],[18,49],[29,23],[25,9],[-9,21]],[[9614,3118],[170,57],[61,-39],[57,-58],[36,-9]],[[10578,3128],[-5,-45],[11,-34],[30,-36]],[[10614,3013],[-74,-54],[-425,-307],[-267,-699],[-125,-334],[-11,-31]],[[9712,1588],[-20,60],[-9,61],[4,56],[23,74],[4,44],[-5,18],[-29,44]],[[9680,1945],[-16,27],[3,33],[27,62],[10,59],[12,40],[32,78],[17,30],[4,22],[-4,102],[-89,-12]],[[9676,2386],[-11,39],[14,7],[4,54],[-20,26],[0,36],[-30,29],[-40,58],[-12,10]],[[9326,2398],[34,-12]],[[9360,2386],[21,-7],[-7,-31],[15,-38],[11,-3],[63,10],[5,-9],[171,23],[10,-1],[27,56]],[[9680,1945],[-20,-54],[-60,-83],[-30,-37]],[[9570,1771],[8,39],[-26,21],[-24,48],[13,25],[19,14],[-1,26],[-20,37],[-7,33],[5,31],[-28,57],[-11,63],[-9,10],[-29,-3],[-13,11],[-15,33],[-16,17],[-19,4],[-14,12],[12,26],[-42,62],[-27,61]],[[9360,2386],[30,2],[243,32],[7,-38],[36,4]],[[9326,2398],[14,38],[29,39]],[[8897,1228],[21,157],[2,65],[-8,57],[-7,20]],[[8905,1527],[9,-2],[79,-46],[70,-33],[63,-24],[69,-17],[31,1],[36,-58],[16,-46],[13,-50],[-28,3],[-86,-14],[-280,-43],[0,30]],[[9326,2398],[-14,5],[-22,-59],[4,-28]],[[12781,4587],[-212,7],[-160,1],[-50,-4]],[[12359,4591],[29,288]],[[10871,3065],[159,187],[171,173],[249,77],[186,44],[102,-19],[473,54],[111,-45],[110,3]],[[12600,3457],[2,-47],[-79,-56],[-55,-19],[-30,-47],[-33,-22],[-31,-8],[-42,-40],[-17,-27],[4,-75],[-11,-30],[-5,-34],[-18,-31],[-44,-21],[-83,-20],[-93,-48],[-129,-63],[-51,-21],[70,-892]],[[11864,1986],[-25,26],[-17,35],[7,15],[-8,29],[-36,16],[-17,-5],[-13,24],[-1,59],[-9,8],[-30,10],[-14,18],[-17,-1],[-10,-16],[-36,-13],[-42,5],[-29,-15],[-74,17]],[[11493,2198],[58,65],[41,204],[1,28],[-8,105],[-11,37],[-20,45],[-45,50],[-64,160],[-34,-6],[-133,21],[-33,2],[-63,-3],[-31,6],[-50,21],[-41,8],[-70,5],[-60,1],[-18,5],[-21,22],[-9,62],[-11,29]],[[11493,2198],[-9,-15],[-39,0],[2,-22],[-15,-47],[30,-8],[-24,-73]],[[11359,1784],[-41,34],[-5,34],[-22,20],[1,17],[-12,18],[-23,9],[-7,38],[-17,4],[-3,29],[-24,21],[-11,2],[-24,31],[-22,1],[-3,-16],[-20,6],[0,41],[-25,16],[-16,22],[6,16],[-22,32],[-27,23],[-21,9],[-27,0],[-27,51],[-13,6],[1,18],[-19,14],[14,42],[-4,21],[-43,46],[12,12]],[[10915,2401],[8,10],[17,49],[8,73],[-12,139],[0,20],[-14,45],[-10,16],[-8,35],[-1,33],[-10,45],[-29,35],[-44,46],[-21,13],[-110,22]],[[10689,2982],[103,44],[79,39]],[[12035,1525],[66,-273],[70,-283]],[[12171,969],[-26,-4],[-576,-75]],[[10650,1153],[-8,25],[-37,57],[-37,36],[-66,40],[-69,36],[-36,24],[-28,42],[-10,100],[3,25],[61,173],[51,132],[27,60],[68,106],[34,66],[24,31],[24,47],[88,107],[12,11],[164,130]],[[5923,2150],[658,102],[1034,161]],[[7615,2413],[52,-56],[75,-69],[14,-1],[18,-28],[46,-44],[23,-11],[-3,-53],[-7,-27],[5,-21],[21,-50],[14,-63],[4,-72],[-10,-51],[-4,-45],[22,-13],[102,-43],[15,-44],[39,-3],[55,-15],[47,-1],[20,-8],[57,-39],[12,48],[23,55],[31,35],[34,18],[47,12],[20,-11],[33,2],[33,-13],[8,-11],[-8,-25],[-7,-55],[17,-20]],[[8463,1691],[1,-18],[-58,-61],[-35,-30],[-63,-24],[-28,-15],[-24,-27],[-76,-95],[-26,-37],[-19,-33],[-36,-78],[-57,-69],[-30,38],[-42,-22],[-51,-20],[-60,-3]],[[7859,1197],[-70,3],[-16,-71],[-28,-43],[-36,3],[-84,-15],[-48,4],[-3,5],[-163,105],[-62,20],[-28,14],[-57,14],[-65,7],[-47,37],[-25,8],[-43,31],[-26,43],[-48,33],[-24,47],[-64,54],[-38,48],[-38,23],[2,27],[-29,29],[-27,17],[-63,50],[-19,-22],[-42,-21],[-17,2],[-8,-23],[-17,-5],[-10,-33],[-15,-17],[-33,-13],[-72,27],[-21,-3],[-32,5],[-30,25],[-11,-13],[54,-70],[-41,-10]],[[6415,1519],[-3,46],[-446,-55],[-20,294]],[[5946,1804],[-7,125],[-16,221]],[[7859,1197],[-24,-99],[-2,-20],[26,-56],[9,-37],[17,-36],[13,-45],[38,-63],[41,-58],[11,-35],[-5,-181],[-16,-101],[2,-39],[12,-56],[1,-36],[-3,-60],[2,-76]],[[7981,199],[-473,104],[-167,36],[-640,140],[-25,513],[-230,1],[-31,526]],[[9705,4332],[9,-7],[37,-12],[113,-30]],[[9654,4026],[-42,29],[-23,27],[-25,7],[-12,-8],[-17,-27],[-49,-15],[-16,-13],[-12,-34],[14,-22],[-11,-18],[-17,-1],[-29,11],[-14,11]],[[9401,3973],[-13,15],[-36,66],[-17,66],[4,32],[-24,28],[-24,5],[-22,-10],[-14,2],[-33,34],[16,36],[-7,14],[-38,9],[-42,-3],[-21,7],[-18,20],[-26,4],[-6,14]],[[8833,4858],[12,-11],[101,-69],[30,-27]],[[9080,4312],[-26,0],[7,-15],[19,-4],[-21,-28],[-59,-36],[-50,-59],[-93,-93],[-65,-78],[-22,-16],[-37,-19],[-18,-17],[-34,-50],[-31,-21],[-45,-39],[-14,-23],[-56,-44],[-53,-47],[-16,-6]],[[8466,3717],[-82,-19],[-41,-15],[-63,-17],[-18,2],[-33,15],[-23,21],[-26,8],[-59,-13],[-65,-9],[-50,-15],[-24,6],[-52,31],[-35,-7],[-15,3],[-14,22],[-42,-4],[-27,8],[-40,-2],[-26,20],[-33,10]],[[7698,3762],[-8,139],[-22,503],[-39,848]],[[4054,2062],[326,339],[-5,92],[-20,367],[-32,594],[-50,916]],[[4273,4370],[-10,217]],[[5766,4546],[38,-580],[54,-822],[65,-994]],[[5946,1804],[-1008,-129]],[[4938,1675],[-47,51],[-26,35],[-21,13],[-58,23],[-45,51],[-17,36],[-2,24],[-25,39],[-16,-28],[-21,-19],[-33,-9],[-118,-18],[-87,-7],[-23,-61],[-11,38],[-38,36],[-24,39],[-38,26],[-64,24],[-27,7],[-24,15],[-27,6],[-39,17],[-46,39],[-7,10]],[[4938,1675],[-23,-3],[-155,-241],[-63,-164],[-38,-97],[-83,-202],[-53,38],[-312,221],[-570,405],[93,97],[320,333]],[[2080,9209],[884,-197],[668,-148],[709,-158],[260,99]],[[4601,8805],[361,-92]],[[4375,7310],[-797,145],[-537,96],[-1273,230]],[[1768,7781],[106,523],[38,-7],[168,912]],[[12803,5801],[125,-110],[24,-53],[102,-4]],[[13054,5634],[-9,-80]],[[8466,3717],[92,8],[190,0],[62,-5],[41,-10],[33,9],[16,13],[65,36],[36,23],[35,7],[27,-5],[49,11],[65,25],[33,24],[41,22],[41,13],[29,1],[34,-10],[25,-13],[18,-3],[-10,83],[0,18],[13,9]],[[9647,3932],[-15,6],[-27,-10],[1,-25],[-20,-3],[-4,-12],[15,-23],[-27,-36],[-15,-29],[-19,-73]],[[9536,3727],[-29,2],[-28,-14],[-12,-23],[25,-55],[21,-3],[6,-18],[-5,-23]],[[9514,3593],[14,-33],[17,-7],[14,-20],[39,0],[27,-15],[14,29],[18,20],[26,16],[71,27],[-21,18],[-31,1],[10,-20],[-13,-8],[-27,-3],[-22,9],[-12,22],[21,10],[44,12],[35,20],[7,22],[-53,28],[11,31],[51,-20],[19,-2],[57,6],[88,13],[-18,-45],[-45,-65],[-26,-20],[-6,-21],[42,9]],[[8955,3135],[-1221,-182]],[[7734,2953],[-31,674],[-5,135]],[[7615,2413],[141,21],[-12,294]],[[7744,2728],[263,45],[46,-30],[42,-21],[58,0],[39,8],[59,-18],[41,-1],[37,-55],[16,-13],[3,-30],[32,-66],[29,-30],[19,17],[28,-1],[10,-11],[47,-3],[28,-12],[14,8],[17,-10],[24,7],[11,13],[18,-7],[13,-44],[-3,-24],[21,6],[34,-37],[4,-17],[-19,-25],[-17,-41],[-16,-10],[-17,-23],[-5,-42],[8,-43],[-30,-2],[0,-25],[-22,-10],[3,-12],[-21,-12],[121,-105]],[[8679,2052],[62,-54]],[[8741,1998],[-43,-21],[-60,-22],[-33,-22],[-21,-37],[-24,-88],[-16,-44],[-32,-49],[-26,-24],[-23,0]],[[4273,4370],[-224,-33],[-19,270],[-638,43],[-719,49],[-619,-523],[-461,-390],[-27,-10],[-14,-16],[0,-31],[-6,-14],[-27,-14],[-6,-19],[4,-21],[-7,-20],[-29,-14],[-20,-23],[11,-37],[-29,-12],[-24,4],[-41,-14],[-20,7],[-23,28],[-35,33],[-12,24],[-24,30],[-1,12],[-37,48],[-15,13],[-13,-4],[-26,-58],[-23,-14],[-35,-3],[-32,32],[-35,0],[-34,-12],[-25,-32],[-18,1],[-58,16],[-44,21],[-20,16],[-26,32],[-21,35],[-46,42],[-66,41],[-9,14],[1,29],[-11,47],[3,17],[-26,46],[-26,3],[-31,-16],[-32,-10],[-20,0],[-29,39],[-34,18],[-21,2],[-41,35],[-13,23],[-30,26],[-57,33],[-39,16],[-24,18],[-56,34],[-63,36],[-33,315],[-42,518],[-56,683],[64,245],[266,-57],[237,-53],[568,-125],[190,-41],[60,236],[43,202],[175,818],[122,571],[43,206]],[[8679,2052],[57,22],[32,22],[27,34],[49,33],[24,23]],[[9570,1771],[-24,-35],[-46,-22],[-24,-16],[-9,-12],[-144,-23],[-127,-17],[-74,-16],[-55,-5],[-44,-8],[-17,75],[-3,25],[1,64],[-10,-2]],[[8994,1779],[-253,219]],[[13297,1120],[-612,-85],[-513,-67],[-1,1]],[[11955,1956],[42,-24],[26,-10],[57,-11],[52,-7],[41,-19],[45,-30],[116,69],[42,27],[138,101],[23,10],[73,17],[74,22],[46,2],[81,-23],[20,-15],[145,-118]],[[9309,6628],[928,134],[4,17],[160,7],[856,235],[103,-16]],[[11360,7005],[75,-254],[34,-70],[20,-66],[13,-58],[7,-65],[-13,-122],[-9,-34],[-23,-36],[-24,-19],[-29,-14],[-28,-4],[-26,5],[-31,23],[-49,23],[-36,3],[-33,-2],[-28,-11],[-16,-20],[-18,-41],[2,-19]],[[10706,5647],[-22,6],[-48,2],[-71,6],[-53,2],[-30,5],[-40,23],[-62,53],[-21,12],[-47,10],[-81,35],[-36,8],[-29,-198],[-11,3],[-17,-115],[-8,-43],[-64,-240]],[[10066,5216],[-84,403],[-743,-115]],[[18644,3518],[157,51],[9,-57],[1156,231],[13,-5],[-18,-24],[-16,-78],[5,-17],[-10,-93],[19,-36],[-12,-31],[-20,-16],[-45,-25],[-17,-24],[-4,-60],[-7,-33],[5,-18],[-5,-42],[139,12],[175,-96],[-16,-68],[-73,-106],[-115,-76],[-17,-377],[-118,11],[6,-58]],[[19835,2483],[-1,-17],[-49,-54],[-79,-57],[-20,-22],[-35,-50],[-25,-21],[-29,-10],[-45,-8],[-41,-30],[-12,-17],[-28,18],[-7,19],[-29,23],[-31,-7],[-31,-27],[-17,-4],[-38,16]],[[19318,2235],[36,60],[135,205],[4,9],[-57,27],[-25,0],[-92,-13],[-31,81],[-11,19],[-34,28],[-23,28],[-19,8],[-27,-1],[-27,9]],[[19147,2695],[-70,27],[-34,7],[-52,4],[-20,-7],[-37,-4],[-67,-39],[-19,-30],[-43,-42],[-51,-63],[-45,-68],[-27,-26],[-36,-15],[-102,-80],[-20,-10]],[[18524,2349],[-15,25],[-21,91],[-9,87],[-1,26],[-14,79],[3,20],[25,78],[17,73],[-2,49],[-14,56],[17,72],[-10,68],[-6,86],[-15,59],[-13,60],[1,79],[12,24],[47,18],[40,7],[73,-32],[4,25],[-15,27],[-5,37],[23,43],[-2,12]],[[9514,3593],[49,0],[39,18],[-13,20],[-53,96]],[[11164,5834],[44,1],[16,21],[18,-14],[20,12],[47,11],[50,67],[15,-43],[30,-36],[8,-18],[2,-36],[37,-109],[-2,-34],[10,-33],[105,-31],[181,-59],[18,-2],[130,61],[75,36],[116,54],[32,8],[-10,-164]],[[12106,5526],[-64,-46],[-51,-14],[-324,-85],[-25,-5],[1,-37],[-19,-80],[-27,-13],[-34,-25],[-61,-25],[-55,-32],[-18,-19],[-47,-71],[-58,-34]],[[11324,5040],[-84,-25],[-18,0],[20,72],[-1,24],[-31,11]],[[10566,4887],[-79,10],[-172,31],[-53,2],[-132,-17]],[[10130,4913],[-53,139],[23,5],[-28,131]],[[10072,5188],[-6,28]],[[11360,7005],[49,8],[812,125]],[[12221,7138],[-37,-498]],[[12184,6640],[-23,-294],[209,24]],[[12500,6211],[0,-8],[-54,-633]],[[12446,5570],[-61,-1],[-67,5],[-113,-9],[-24,-6],[-75,-33]],[[11031,3829],[65,-24],[33,-29],[11,-16],[17,3],[15,19],[-7,31],[16,17],[27,9],[7,-20],[15,9],[29,-7],[20,33],[-19,6],[-3,21],[20,54],[40,30],[12,22],[-24,18],[1,8],[38,-5],[-19,28],[-29,22],[13,13],[27,-3],[-1,16],[-25,21],[14,10],[-20,14],[-1,12],[19,32],[-12,47],[-18,19],[1,16],[38,8],[35,30],[28,4],[22,34],[-9,29],[10,14],[-20,17],[-41,11],[-3,37],[-20,403],[-9,198]],[[12359,4591],[-61,-601],[68,14]],[[10689,2982],[-48,10],[-27,21]],[[10490,4503],[-24,87],[-15,35],[-15,15],[-52,33],[-36,11],[-154,22],[-59,11],[-51,-1],[-33,-8],[-16,1],[-20,16],[-6,20],[5,47],[14,37],[18,28],[56,45],[28,11]],[[7744,2728],[-10,225]],[[10072,5188],[-51,8],[9,-49],[-6,-41],[-9,-23],[-40,-66],[-28,15],[-34,-5],[0,-49],[33,-11],[-17,-63],[0,-42],[-14,-94],[-1,-23],[-27,-81],[-4,-33],[-9,-19],[-45,-41],[-26,-16],[-7,-17],[27,1],[-60,-139],[38,-10],[71,-36]],[[2080,9209],[249,1235],[-243,47],[84,422],[733,-139],[602,-114],[962,-182],[5,-277],[28,-171],[120,-22],[-113,-524],[94,-679]],[[16608,3511],[19,39],[23,31],[47,22],[14,-15],[-2,-48],[16,-11],[26,18],[7,18],[0,26],[-9,22],[-16,18],[-31,-6],[-19,8],[12,14],[56,3],[7,18],[-32,12],[-12,27],[7,11],[23,-1],[35,-34],[15,2],[50,22],[23,31],[30,25],[24,60],[11,11],[46,1],[57,6],[31,13],[26,4],[8,12],[-2,23],[7,11],[-1,27],[34,40],[23,12],[47,10],[27,-2],[6,-30],[12,-3],[18,29],[8,27],[-4,88],[-19,52],[5,34],[9,10],[20,2],[7,-40],[12,-7],[17,10],[16,22],[-4,14],[-31,34],[-1,16],[28,68],[50,7],[9,31],[-17,26],[-2,16],[10,24],[20,26],[39,44],[60,84],[23,5],[27,-13],[18,22],[2,25],[-7,50],[3,25],[19,6],[14,-21],[28,-6],[16,11],[16,-2],[8,14],[24,5],[33,16],[28,0],[9,9],[-13,18],[17,10],[2,17],[56,-11],[19,27],[28,23],[8,22],[62,32],[19,-5],[28,7],[25,31],[51,21],[20,5],[14,15],[16,-3],[1,-18],[21,6],[2,23],[26,-6],[14,5],[101,-2],[67,-465],[67,10],[33,-207],[-68,-9],[62,-403],[63,-392],[139,46]],[[18524,2349],[15,-4],[30,-70],[0,-17],[19,-14],[19,-27],[0,-14],[-18,-20],[3,-18],[39,-34],[57,-108],[-1,-15],[-18,-17],[16,-19],[11,-28],[25,-24],[33,1]],[[18754,1921],[-32,-5],[-47,-28],[-33,-41],[-118,-105],[-21,-12],[0,-25],[24,-32],[18,-16],[7,-18],[10,-58],[17,-30]],[[18579,1551],[-54,-15],[-91,-80],[-84,56],[-730,-250],[-139,-47],[-406,-138]],[[18754,1921],[69,7],[-3,54],[36,71],[26,73],[5,22],[-1,50],[81,42],[28,4],[46,-15],[24,-3]],[[19065,2226],[-8,-21],[20,-17],[0,-11],[-16,-23],[-4,-24],[12,-33],[35,-17],[-2,-13],[8,-33],[-20,-46],[-10,-55],[6,-29],[0,-89],[-16,-21],[-66,-26],[-49,-1],[-28,-17],[25,-22],[45,-28],[10,-11]],[[19007,1689],[26,-18],[24,-28],[28,-14]],[[19085,1629],[-183,-268],[-248,-16],[-54,228],[-21,-22]],[[19147,2695],[-6,-22],[-1,-76],[-12,-119],[11,-49]],[[19139,2429],[-17,-15],[0,-26],[-22,-31],[16,-14],[-3,-17],[-33,-23],[0,-11],[19,-21],[-34,-45]],[[19007,1689],[39,32],[45,44],[87,61],[22,37],[13,58],[15,39],[21,38],[35,48],[26,157],[8,32]],[[19835,2483],[34,-351],[117,-15],[-9,-96],[6,-8],[18,-144],[-96,10],[-6,43],[-76,-12],[-73,-99],[-601,-92],[-64,-90]],[[19139,2429],[2,-45],[13,-17],[101,-51],[-12,-54],[34,-8],[41,-19]],[[12221,7138],[309,50],[733,108],[224,38],[138,-735]],[[13347,6433],[-24,22],[-47,27],[-68,61],[-26,19],[-40,59],[-17,70],[-11,30],[-125,7],[-45,-7]],[[12530,6634],[-128,-18],[-50,-19],[-42,-33],[-126,76]],[[12858,6012],[2,58],[6,49],[17,49],[10,61],[-6,70]],[[13295,5960],[-71,20],[-114,6],[-43,5]],[[13067,5991],[-116,15],[-46,-9],[-48,4]],[[12746,5907],[-11,16],[-26,6],[-96,-29],[-30,-4],[0,-18],[18,-81]],[[13054,5634],[24,189],[-11,79],[-12,27],[12,62]],[[8905,1527],[-17,35],[-2,37],[11,27],[26,37],[28,64],[43,52]],[[9712,1588],[-109,-289],[-262,-67]],[[9341,1232],[-464,-65],[20,61]],[[9341,1232],[-53,-262],[-477,-101],[15,-120],[36,-244],[41,-296],[7,-50],[-13,-96],[-2,-63],[-914,199]]],"transform":{"scale":[0.00004290098175327202,0.000034146339228443744],"translate":[-73.068508,42.183398]},"objects":{"Geometry\\25-015":{"type":"GeometryCollection","geometries":[{"arcs":[[0,1,2,3,4,5]],"type":"Polygon","properties":{"GEOID":"250158202053"}},{"arcs":[[6,7,8,9]],"type":"Polygon","properties":{"GEOID":"250158211014"}},{"arcs":[[10,11,12,13]],"type":"Polygon","properties":{"GEOID":"250158226071"}},{"arcs":[[14,15,16,17,18,19]],"type":"Polygon","properties":{"GEOID":"250158209001"}},{"arcs":[[20,-13,21,22,23,24]],"type":"Polygon","properties":{"GEOID":"250158226074"}},{"arcs":[[-12,25,26,27,28,-22]],"type":"Polygon","properties":{"GEOID":"250158226072"}},{"arcs":[[29,30,31,32,-27]],"type":"Polygon","properties":{"GEOID":"250158226073"}},{"arcs":[[33,34,35,36,37]],"type":"Polygon","properties":{"GEOID":"250158224025"}},{"arcs":[[-1,38,39,40,41,42,43]],"type":"Polygon","properties":{"GEOID":"250158202052"}},{"arcs":[[-33,44,45,46,47,48]],"type":"Polygon","properties":{"GEOID":"250158217004"}},{"arcs":[[49,50,-41,51,52]],"type":"Polygon","properties":{"GEOID":"250158202051"}},{"arcs":[[53,54,55,56]],"type":"Polygon","properties":{"GEOID":"250158203002"}},{"arcs":[[57,58,-17,59]],"type":"Polygon","properties":{"GEOID":"250158202061"}},{"arcs":[[-44,60,61,62,63,-2]],"type":"Polygon","properties":{"GEOID":"250158202072"}},{"arcs":[[64,-60,-16,65,66,-62]],"type":"Polygon","properties":{"GEOID":"250158202073"}},{"arcs":[[67,68,69,70]],"type":"Polygon","properties":{"GEOID":"250158224022"}},{"arcs":[[-61,-43,71,72,-58,-65]],"type":"Polygon","properties":{"GEOID":"250158202071"}},{"arcs":[[73,74,75,-7,76]],"type":"Polygon","properties":{"GEOID":"250158211013"}},{"arcs":[[-42,-51,77,-72]],"type":"Polygon","properties":{"GEOID":"250158202062"}},{"arcs":[[-73,-78,-50,78,-18,-59]],"type":"Polygon","properties":{"GEOID":"250158202063"}},{"arcs":[[79,80,81,82,-76]],"type":"Polygon","properties":{"GEOID":"250158211011"}},{"arcs":[[83,84,85,86,87,88]],"type":"Polygon","properties":{"GEOID":"250158205007"}},{"arcs":[[89,90,91,-54,92]],"type":"Polygon","properties":{"GEOID":"250158203004"}},{"arcs":[[93,94,95,96,97,98]],"type":"Polygon","properties":{"GEOID":"250158219043"}},{"arcs":[[-37,99,100,-68,101]],"type":"Polygon","properties":{"GEOID":"250158224023"}},{"arcs":[[-36,102,103,104,-100]],"type":"Polygon","properties":{"GEOID":"250158224024"}},{"arcs":[[-83,105,106,-8]],"type":"Polygon","properties":{"GEOID":"250158211012"}},{"arcs":[[107,108,109,110,111,112,-86]],"type":"Polygon","properties":{"GEOID":"250158205004"}},{"arcs":[[-88,113,114,115,116]],"type":"Polygon","properties":{"GEOID":"250158205005"}},{"arcs":[[-113,117,118,119,120,121,-114,-87]],"type":"Polygon","properties":{"GEOID":"250158206001"}},{"arcs":[[122,123,124,125,-5,126,127,-120]],"type":"Polygon","properties":{"GEOID":"250158207001"}},{"arcs":[[-4,128,-127]],"type":"Polygon","properties":{"GEOID":"250158207002"}},{"arcs":[[-128,-129,-3,-64,129,-121]],"type":"Polygon","properties":{"GEOID":"250158207003"}},{"arcs":[[-122,-130,-63,130,131,-115]],"type":"Polygon","properties":{"GEOID":"250158208011"}},{"arcs":[[132,133,-131,-67,134,135,136,137]],"type":"Polygon","properties":{"GEOID":"250158208012"}},{"arcs":[[-133,138]],"type":"Polygon","properties":{"GEOID":"250158208021"}},{"arcs":[[139,140,141,142,143]],"type":"Polygon","properties":{"GEOID":"250158210001"}},{"arcs":[[144,-81,145]],"type":"Polygon","properties":{"GEOID":"250158210002"}},{"arcs":[[146,147,-144,148,-146,-80,-75]],"type":"Polygon","properties":{"GEOID":"250158210003"}},{"arcs":[[149,150,151,152,153]],"type":"Polygon","properties":{"GEOID":"250158215001"}},{"arcs":[[154,155,156,157,158]],"type":"Polygon","properties":{"GEOID":"250158216021"}},{"arcs":[[159,-156,160]],"type":"Polygon","properties":{"GEOID":"250158216022"}},{"arcs":[[161,-161,-155,162,-46]],"type":"Polygon","properties":{"GEOID":"250158217002"}},{"arcs":[[163,164,-94,165,166]],"type":"Polygon","properties":{"GEOID":"250158219012"}},{"arcs":[[167,168,169,-167,170,171,172]],"type":"Polygon","properties":{"GEOID":"250158219011"}},{"arcs":[[173,174,175,176]],"type":"Polygon","properties":{"GEOID":"250158219041"}},{"arcs":[[-176,177,-95,-165]],"type":"Polygon","properties":{"GEOID":"250158219042"}},{"arcs":[[178,-97,179]],"type":"Polygon","properties":{"GEOID":"250158219033"}},{"arcs":[[-166,-99,180,-171]],"type":"Polygon","properties":{"GEOID":"250158220001"}},{"arcs":[[181,-180,-96,-178,-175,182,183,184,185]],"type":"Polygon","properties":{"GEOID":"250158222001"}},{"arcs":[[-103,-35,186,-185,187,188,189,190,191]],"type":"Polygon","properties":{"GEOID":"250158223001"}},{"arcs":[[192,193,-191,194,195]],"type":"Polygon","properties":{"GEOID":"250158223002"}},{"arcs":[[196,-194]],"type":"Polygon","properties":{"GEOID":"250158223003"}},{"arcs":[[197,-104,-192,-197,-193]],"type":"Polygon","properties":{"GEOID":"250158223004"}},{"arcs":[[198,199]],"type":"Polygon","properties":{"GEOID":"250158224013"}},{"arcs":[[-105,-198,200,-69,-101]],"type":"Polygon","properties":{"GEOID":"250158224021"}},{"arcs":[[-116,-132,201,202]],"type":"Polygon","properties":{"GEOID":"250158208013"}},{"arcs":[[203,-136,204,-141,205,206]],"type":"Polygon","properties":{"GEOID":"250158213002"}},{"arcs":[[-207,207,-147,-74,208,209,210]],"type":"Polygon","properties":{"GEOID":"250158213003"}},{"arcs":[[-143,211,212,-106,-82,-145,-149]],"type":"Polygon","properties":{"GEOID":"250158210004"}},{"arcs":[[-209,-77,-10,213]],"type":"Polygon","properties":{"GEOID":"250158213001"}},{"arcs":[[214,215,216,217,218,219]],"type":"Polygon","properties":{"GEOID":"250158225003"}},{"arcs":[[220,221,-218]],"type":"Polygon","properties":{"GEOID":"250158225001"}},{"arcs":[[-158,222,-168,223,224]],"type":"Polygon","properties":{"GEOID":"250158216023"}},{"arcs":[[-28,-49,225,-47,-163,-159,226,227,228]],"type":"Polygon","properties":{"GEOID":"250158217001"}},{"arcs":[[229,230,-24,231,-220,232,233]],"type":"Polygon","properties":{"GEOID":"250158226011"}},{"arcs":[[-206,-140,-148,-208]],"type":"Polygon","properties":{"GEOID":"250158212001"}},{"arcs":[[-234,234]],"type":"Polygon","properties":{"GEOID":"250158226012"}},{"arcs":[[235,236,-14,-21,237,238]],"type":"Polygon","properties":{"GEOID":"250158227002"}},{"arcs":[[239,240,-118,-112]],"type":"Polygon","properties":{"GEOID":"250158205003"}},{"arcs":[[-228,241,-224,-173,242,243,244,-186,-187,-34,245,246]],"type":"Polygon","properties":{"GEOID":"250158222003"}},{"arcs":[[247,248,249,250,-216]],"type":"Polygon","properties":{"GEOID":"250158225002"}},{"arcs":[[-238,-25,-231,251]],"type":"Polygon","properties":{"GEOID":"250158227003"}},{"arcs":[[252,-70,-201,-196,253,254,-250]],"type":"Polygon","properties":{"GEOID":"250158224014"}},{"arcs":[[-20,255,-212,-142,256]],"type":"Polygon","properties":{"GEOID":"250158209002"}},{"arcs":[[-227,-225,-242]],"type":"Polygon","properties":{"GEOID":"250158222002"}},{"arcs":[[257,258,-150,259,260,-31]],"type":"Polygon","properties":{"GEOID":"250158215003"}},{"arcs":[[261,262,263,264,265]],"type":"Polygon","properties":{"GEOID":"250158201012"}},{"arcs":[[266,-243,-172,-181,-98,-179,-182,-245]],"type":"Polygon","properties":{"GEOID":"250158219031"}},{"arcs":[[267,268,269,-152]],"type":"Polygon","properties":{"GEOID":"250158214002"}},{"arcs":[[-267,-244]],"type":"Polygon","properties":{"GEOID":"250158219032"}},{"arcs":[[-154,270,271,272,-260]],"type":"Polygon","properties":{"GEOID":"250158215002"}},{"arcs":[[273,274,275,-56,276,277,-268,-151,-259]],"type":"Polygon","properties":{"GEOID":"250158214003"}},{"arcs":[[-184,278,-269,-278,-89,-117,-203,279,-137,-204,-211,280,-188]],"type":"Polygon","properties":{"GEOID":"250158214004"}},{"arcs":[[-135,-66,-15,-257,-205]],"type":"Polygon","properties":{"GEOID":"250158209003"}},{"arcs":[[-271,-153,-270,-279,-183,-174,281]],"type":"Polygon","properties":{"GEOID":"250158214001"}},{"arcs":[[-38,-102,-71,-253,-249,282,-246]],"type":"Polygon","properties":{"GEOID":"250158224011"}},{"arcs":[[-32,-261,-273,283,-169,-223,-157,-160,-162,-45]],"type":"Polygon","properties":{"GEOID":"250158216011"}},{"arcs":[[-236,284]],"type":"Polygon","properties":{"GEOID":"250158227001"}},{"arcs":[[285,-266,286,287,288,-52,-40]],"type":"Polygon","properties":{"GEOID":"250158201011"}},{"arcs":[[289,290,291,292,-288]],"type":"Polygon","properties":{"GEOID":"250158201013"}},{"arcs":[[-265,293,294,-290,-287]],"type":"Polygon","properties":{"GEOID":"250158201014"}},{"arcs":[[295,-263,296,-292]],"type":"Polygon","properties":{"GEOID":"250158201021"}},{"arcs":[[-295,297,-296,-291]],"type":"Polygon","properties":{"GEOID":"250158201022"}},{"arcs":[[-264,-298,-294]],"type":"Polygon","properties":{"GEOID":"250158201023"}},{"arcs":[[-275,298,-125,299,-90,300]],"type":"Polygon","properties":{"GEOID":"250158203001"}},{"arcs":[[-226,-48]],"type":"Polygon","properties":{"GEOID":"250158217003"}},{"arcs":[[-301,-93,-57,-276]],"type":"Polygon","properties":{"GEOID":"250158203003"}},{"arcs":[[301,-91,-300,-124,302,303,-110]],"type":"Polygon","properties":{"GEOID":"250158203005"}},{"arcs":[[-277,-55,-92,-302,-109,304,-84]],"type":"Polygon","properties":{"GEOID":"250158204001"}},{"arcs":[[305,-303,-123,-119,-241]],"type":"Polygon","properties":{"GEOID":"250158205001"}},{"arcs":[[-111,-304,-306,-240]],"type":"Polygon","properties":{"GEOID":"250158205002"}},{"arcs":[[-200,306,-254,-195,-190,307,308]],"type":"Polygon","properties":{"GEOID":"250158224012"}},{"arcs":[[-108,-85,-305]],"type":"Polygon","properties":{"GEOID":"250158205006"}},{"arcs":[[-217,-251,-255,-307,-199,-309,309,-221]],"type":"Polygon","properties":{"GEOID":"250158225004"}},{"arcs":[[-202,-134,-139,-138,-280]],"type":"Polygon","properties":{"GEOID":"250158208014"}},{"arcs":[[-272,-282,-177,-164,-170,-284]],"type":"Polygon","properties":{"GEOID":"250158216012"}},{"arcs":[[-29,-229,-247,-283,-248,-215,-232,-23]],"type":"Polygon","properties":{"GEOID":"250158226031"}}]}}}