{"type":"Topology","arcs":[[[2305,3240],[48,0],[63,22]],[[2416,3262],[-1,-92]],[[2415,3170],[0,-44]],[[2415,3126],[-55,18]],[[2360,3144],[0,67],[-55,0]],[[2305,3211],[0,29]],[[2360,3144],[0,-44]],[[2360,3100],[-55,2],[0,26],[-22,1],[-1,48],[-39,2]],[[2243,3179],[1,31],[61,1]],[[3144,3111],[49,85],[97,100]],[[3290,3296],[85,-46]],[[3375,3250],[18,-16]],[[3393,3234],[42,-36],[11,-23],[122,-3],[7,-30],[-22,-50],[9,-54],[32,-39],[7,-23]],[[3601,2976],[-249,8],[-54,0],[-86,4]],[[3212,2988],[-7,28],[-41,-3],[0,19],[-20,79]],[[1340,3386],[174,0],[394,-3]],[[1908,3383],[5,-18],[-35,-1],[0,-24],[22,0],[-1,-64],[37,2]],[[1936,3278],[-2,-70]],[[1934,3208],[-37,0],[1,31],[-15,-1],[-29,-12],[-26,-21],[-11,-36]],[[1817,3169],[-24,7],[-62,2],[-24,16],[-25,1],[-58,-18],[-123,1],[-60,-26],[-51,3],[-30,18],[-23,5]],[[1337,3178],[3,208]],[[3271,2517],[225,-2]],[[3496,2515],[28,-74],[25,-11],[28,-22],[12,-20],[-4,-75],[15,-17],[8,-22],[38,-25]],[[3646,2249],[-21,7],[-18,13],[-36,13],[-49,-1],[-9,-5],[-19,-39],[-39,1],[-78,16],[14,-25],[4,-34],[24,-15],[40,12],[26,-8],[39,8],[11,-6],[-5,-16],[-13,-10],[2,-19],[-28,-12],[-33,5],[-10,13],[-56,1],[-11,-23],[-14,-9],[15,-31],[-30,2]],[[3352,2087],[-13,24],[-3,21],[-13,25]],[[3323,2157],[4,15],[-14,22],[8,19],[-6,10],[-42,-17],[-14,3],[-13,16],[-5,31],[11,22],[-7,19],[4,13],[21,25],[2,89],[-1,93]],[[9,1133],[3,-1],[192,0],[20,-6],[-1,-68],[9,-25],[-5,-49],[2,-7],[38,-27],[61,-67],[19,-16],[27,-7],[5,22],[61,86],[7,19],[47,65],[4,10],[2,47],[30,21]],[[530,1130],[234,-3],[42,3],[16,-3],[497,-4]],[[1319,1123],[1,-118],[0,-304],[8,-16],[42,-41],[12,-19],[3,-21],[-6,-28],[12,-74],[-2,-22],[-66,-61],[-12,-18],[-1,-20],[10,-33],[-2,-341]],[[1318,7],[-293,2],[-147,0],[-220,2],[-110,0],[-222,-1],[-109,0],[-217,1],[2,185],[0,186],[2,153],[1,395],[1,149],[3,54]],[[3215,1766],[43,-5],[18,17],[48,24],[32,10]],[[3356,1812],[18,6],[41,-8],[14,2]],[[3429,1812],[37,2],[58,-2],[36,3],[99,41],[70,14],[46,-9],[61,12],[68,0],[101,-9],[30,5],[37,-2],[8,-7],[135,0],[23,15],[30,1],[20,31],[6,36],[-21,23],[1,32],[30,22],[48,-5],[31,29],[54,-2],[30,19],[25,7],[40,3],[33,-2],[25,11],[27,-8],[43,1],[12,16],[23,-6],[45,4],[52,-19],[31,-25],[270,-231],[78,-60],[26,-24],[37,-47],[28,-14]],[[5262,1667],[-1,-92],[3,-397],[-2,-161],[-2,-95],[0,-186]],[[5260,736],[-26,27],[-39,26],[-55,23],[-28,6],[-38,15],[-86,1],[-168,3],[-439,1],[1,71],[-7,17],[-15,5],[-197,-1],[-225,0]],[[3938,930],[2,186],[-3,461],[-1,97],[-219,0],[-310,1],[-21,-8],[-67,-3],[-40,11],[-17,0]],[[3262,1675],[-29,80],[-18,11]],[[3010,4831],[110,-6],[106,2],[57,-3]],[[3283,4824],[-1,-32],[2,-109],[0,-86],[-19,-55],[-42,-48],[-39,-56],[-79,-84],[-7,-33],[12,-26],[0,-36],[-8,-14],[-41,-50],[18,2],[0,-20],[-9,-17],[105,-106]],[[3175,4054],[-170,-166]],[[3005,3888],[-161,50],[-8,2],[-97,-3],[-34,9],[-11,11],[-41,22],[-149,41]],[[2504,4020],[0,2],[159,313],[-36,44],[-39,7],[-67,28],[-35,32],[-25,30],[-11,27],[5,43],[10,49],[6,11],[51,45],[31,17],[38,26],[45,12],[59,-12],[25,-10],[40,-37],[28,-3],[75,-4],[76,-14],[71,205]],[[3429,1812],[32,22],[10,29],[26,26],[11,26],[20,22],[-1,21],[11,13],[33,11],[34,25],[26,10],[30,20],[6,24],[15,35],[2,19],[-7,21],[12,48],[-6,23],[-37,42]],[[3496,2515],[16,-6],[113,-79],[127,-86],[22,-3],[53,19],[31,26],[21,8],[61,-5],[31,-13],[37,-9],[26,2],[38,10],[64,-19],[137,-3],[80,-3],[28,-11],[71,-58],[10,-12],[-3,162],[15,59],[-3,11],[-23,28],[-1,22],[22,39],[1,56],[14,58],[3,89]],[[4487,2797],[4,110]],[[4491,2907],[2,213],[8,51],[-1,56],[-8,26],[0,80]],[[4492,3333],[0,21],[146,-1],[128,0],[31,-3],[20,-15],[228,95],[52,13],[24,1],[142,-2]],[[5263,3442],[-3,-284],[1,-196],[1,-175],[-2,-189],[0,-288],[-2,-86],[1,-183],[2,-124],[1,-250]],[[3356,1812],[2,31],[-25,29],[-3,11],[-1,58],[-22,28],[4,17],[32,3],[24,27],[-12,45],[-3,26]],[[5260,736],[-3,-127],[-2,-237],[-2,-78],[-2,-292],[-376,2],[-244,0],[-145,-2],[-115,1],[-164,-1],[-286,0]],[[3921,2],[2,139],[4,206],[5,213],[5,278],[1,92]],[[2727,931],[384,1],[361,-1],[245,1],[221,-2]],[[3921,2],[-26,0],[-363,-2],[-170,1],[-107,-1],[-167,1],[-256,-1]],[[2832,0],[2,387],[0,93],[-19,53],[0,11],[17,34],[4,298],[8,9],[-117,-1],[0,47]],[[1532,2010],[41,32],[15,9],[28,5],[138,-1]],[[1754,2055],[0,-184],[2,-189]],[[1756,1682],[-221,2]],[[1535,1684],[-1,128],[-1,196],[-1,2]],[[1385,1964],[50,0],[33,8],[64,38]],[[1535,1684],[-217,1],[-2,222],[5,6],[64,51]],[[1756,1682],[0,-186],[2,-279],[-1,-94]],[[1757,1123],[-163,0],[-275,0]],[[1319,1123],[-2,176],[-36,2],[-26,10],[-148,1],[-21,7],[-66,43],[-22,17],[-2,14],[25,79],[14,28],[25,69],[35,112],[1,8],[-1,169],[-17,19],[-204,4],[-7,1]],[[867,1882],[263,77],[52,9],[203,-4]],[[549,1697],[-8,35],[0,79],[2,75]],[[543,1886],[193,-3]],[[736,1883],[121,-2],[10,1]],[[530,1130],[19,6],[18,17],[55,76],[8,19],[1,58],[-7,32],[-6,67],[-10,21],[-35,51],[-14,27],[-15,127],[8,49],[-3,17]],[[2288,3357],[216,663]],[[3005,3888],[-36,-242]],[[2969,3646],[-175,0],[-51,4],[-23,-3],[-28,8],[-51,-1],[-5,-15],[2,-151],[-18,-30],[-40,-20],[-49,-21],[-70,-49],[-1,-41],[-7,-18]],[[2453,3309],[-37,-47]],[[2305,3240],[0,17],[-17,100]],[[3722,5679],[-115,-5],[-50,0],[4,-38],[-166,-2],[-114,1],[-1,-381],[3,-287],[0,-143]],[[3010,4831],[-81,6],[-101,-79],[-61,12],[-103,154],[136,168],[146,151],[87,141],[6,206],[56,78],[39,157],[-6,156],[321,134],[43,87],[261,31],[35,-39],[140,-462],[-50,-47],[-156,-6]],[[2453,3309],[223,-2],[159,-6]],[[2835,3301],[-44,-83]],[[2791,3218],[-147,15],[-9,8],[-139,0],[7,-9],[0,-63]],[[2503,3169],[-88,1]],[[2969,3646],[-134,-345]],[[2791,3218],[-4,-35]],[[2787,3183],[-159,-14],[-125,0]],[[3919,4468],[148,3],[157,-1]],[[4224,4470],[-31,-59],[-47,-63],[-20,-21],[-38,-24],[-40,-37],[-24,-34],[-91,-175],[-16,-29],[-41,-43],[-29,-21],[-16,-16],[-29,-45],[-119,-109],[-7,-11],[-55,-115],[-103,-213],[-24,-39],[-31,-30],[-47,-67],[-12,-40],[-29,-29]],[[3290,3296],[-3,121],[-49,102],[35,149],[70,123],[98,57],[181,80],[107,102],[9,124],[87,115],[40,114],[54,85]],[[3601,2976],[315,0],[246,-1],[28,1],[65,-4],[17,3],[53,0],[1,-93],[56,0],[30,5],[33,16],[46,4]],[[4487,2797],[-186,0],[-331,2],[-151,-119],[-36,28],[-24,5],[-22,-11],[-8,-13],[5,-33],[-39,3],[-19,21],[-79,28],[-14,1],[-15,26],[-51,15],[-94,1],[-39,-10],[-26,1],[-86,-4]],[[3272,2738],[-24,21],[-13,33],[11,39],[0,14],[-34,143]],[[2168,3374],[11,12],[21,41],[30,86],[15,71],[14,96],[-3,45],[-45,263],[-2,57],[14,68],[52,130],[42,98],[129,295],[11,29],[7,50],[-6,55],[-5,11],[-19,81],[-16,56],[-4,32],[7,51],[15,32],[34,49],[138,176],[36,48],[40,69],[43,90],[25,77],[17,64],[18,94],[9,93],[16,355],[19,351],[71,431],[546,633],[211,257],[301,-739],[97,-238],[61,-139],[59,-154],[23,-87],[22,-189],[-6,-54],[-1,-147],[4,-84],[15,-163],[-5,-34],[-25,-78],[-32,-74],[-33,-53],[-61,-111],[-37,-103],[-36,-143],[-23,-121],[-25,-111],[-37,-117],[-40,-117],[-44,-99],[-64,-127],[-39,-72],[186,2]],[[3144,3111],[-113,-7],[-173,18]],[[2858,3122],[-69,35],[-2,26]],[[3175,4054],[357,218],[56,170],[118,527],[-15,247],[31,463]],[[2288,3357],[-122,2]],[[2166,3359],[2,15]],[[1757,1123],[222,0],[552,-3],[0,-190],[3,0]],[[2534,930],[193,1]],[[2832,0],[-199,1],[-271,1],[-222,1],[-85,-1],[-124,2],[-176,0],[-220,2],[-217,1]],[[2415,3126],[17,-3],[253,-81],[107,-37]],[[2792,3005],[-6,-17],[10,-33],[42,-92],[1,-55],[-5,-193]],[[2834,2615],[-113,-4]],[[2721,2611],[-87,-1]],[[2634,2610],[1,232],[-221,2],[1,140],[-55,0]],[[2360,2984],[0,116]],[[2792,3005],[34,49],[32,68]],[[3272,2738],[15,-20],[10,-27],[24,-27],[6,-17],[-1,-36],[-55,0]],[[3271,2611],[-43,-10],[-57,4],[-65,8],[-272,2]],[[2243,3179],[-61,0]],[[2182,3179],[-46,0]],[[2136,3179],[-30,0]],[[2106,3179],[0,60]],[[2106,3239],[3,29],[42,-1],[15,92]],[[2360,2984],[-56,1],[-1,-140]],[[2303,2845],[-120,1]],[[2183,2846],[0,21],[9,120],[12,168],[-22,24]],[[2037,3009],[70,0],[1,24],[30,0],[0,46]],[[2138,3079],[-2,100]],[[2183,2846],[-108,1],[-45,-9],[-38,-18],[-15,-15]],[[1977,2805],[-2,16],[3,89],[10,13],[41,23],[6,11],[2,52]],[[1934,3208],[0,-15],[55,0],[-1,-15],[19,0]],[[2007,3178],[1,-60],[25,0]],[[2033,3118],[-1,-38]],[[2032,3080],[-48,-1],[-6,-33],[-12,-21],[-52,-55],[-35,-51]],[[1879,2919],[-9,11],[2,96],[-96,-46],[-13,-14]],[[1763,2966],[-50,5],[-51,14],[-64,35],[-14,3],[14,55],[9,5],[96,-1],[15,5],[25,26],[44,22],[30,34]],[[1936,3278],[53,3],[-1,-42],[118,0]],[[2106,3179],[-99,-1]],[[2138,3079],[-41,1],[0,53],[-65,0],[1,-15]],[[1908,3383],[11,-2],[249,-7]],[[2037,3009],[2,71],[-7,0]],[[1436,2619],[19,57],[9,15],[69,55]],[[1533,2746],[0,-221]],[[1533,2525],[0,-187],[1,-68],[25,-26],[194,-3]],[[1753,2241],[1,-186]],[[1385,1964],[8,283],[-31,147],[14,40],[-13,46]],[[1363,2480],[-3,29],[6,33],[23,34],[38,24],[9,19]],[[444,2827],[3,3],[0,70]],[[447,2900],[29,0],[16,-19],[35,-24],[45,-3],[13,-4],[130,-2],[17,11],[22,0],[182,-225],[79,-5],[6,-4]],[[1021,2625],[-18,-15],[-17,-33],[-30,-72],[0,-22],[7,-23],[-3,-15],[-37,-56],[-53,-43],[-8,-13],[15,-46],[-28,-21],[-80,-23],[-20,-11],[-45,4],[-24,-3]],[[680,2233],[-6,23],[-16,15],[-58,25],[-25,23],[-5,16],[0,47],[14,21],[35,32],[-2,23],[-28,38],[-4,13],[19,42],[21,36],[-3,8],[-38,28],[-29,12],[-21,2],[-91,3],[4,183],[-3,4]],[[1533,2525],[220,-3]],[[1753,2522],[0,-281]],[[1861,2647],[15,-5],[8,-27],[197,-1],[-7,-43],[1,-35],[8,-24],[4,-96],[15,-16],[64,-12],[14,38],[13,94]],[[2193,2520],[220,-2],[0,93]],[[2413,2611],[221,-1]],[[2721,2611],[4,-149],[-1,-82],[111,0],[-3,-141]],[[2832,2239],[-384,-1],[-81,1],[-265,0],[-13,-33],[-10,-66],[-5,-9]],[[2074,2131],[-73,-64],[-28,-12],[-219,0]],[[1753,2522],[3,44],[15,16],[84,48],[6,17]],[[736,1883],[22,22],[-5,59],[36,44],[20,16],[31,11],[41,-4],[50,42],[41,7],[11,29],[20,2],[8,29],[32,-1],[6,28],[28,13],[7,30],[12,32],[-25,43],[1,36],[-10,32],[10,17],[23,7],[2,41],[-22,38],[19,31],[269,-7]],[[1865,2709],[85,-1],[23,12],[4,85]],[[2303,2845],[1,-6]],[[2304,2839],[-48,-29],[-48,-46],[-8,-22],[7,-29],[1,-41],[7,-17],[-7,-21],[-15,-114]],[[1861,2647],[4,62]],[[1533,2746],[17,6],[30,0],[27,6],[48,16],[21,16],[33,36],[40,24],[7,20],[4,88],[3,8]],[[1879,2919],[-13,-39],[-3,-30],[2,-141]],[[2832,2239],[109,-2],[112,1],[1,-98],[169,1],[49,13],[28,-1],[23,4]],[[3215,1766],[-37,12],[-23,-2],[-65,35],[-19,18],[-102,75],[-58,20],[-43,-5],[-61,-11],[-66,-17],[-12,0],[-44,19],[-105,1],[-22,-6],[-40,-19],[-51,0],[-31,-11],[-81,49],[-17,12],[-101,84],[-16,10],[-99,49],[-20,18],[-28,34]],[[3262,1675],[-144,1],[-14,3],[-96,48],[-78,7],[-17,-15],[-18,8],[-10,-12],[-19,0],[-20,14],[-21,7],[-31,-29],[-30,-20],[-16,7],[1,20],[-19,8],[-43,7],[-22,17],[-23,-1],[-16,-10],[-39,-3],[-35,27],[-9,16],[-21,7],[-17,-11],[5,-30],[-4,-17],[-21,-28],[11,-14],[45,-17],[27,-18],[29,-26],[8,-24],[24,-16],[19,-37],[18,-18],[31,-19],[16,-31],[18,-15],[19,-37],[17,-12],[-9,-16],[3,-38],[9,-11],[-30,-21],[-36,-16],[-19,-14],[-28,-10],[-15,-10],[8,-32],[-12,-24],[2,-40],[-8,-6],[-6,-30],[3,-29],[-39,-25],[-14,-28],[-22,-30],[-2,-23],[-19,-27],[5,-35],[-4,-17]],[[2,1696],[153,2],[56,-1],[338,0]],[[9,1133],[-8,187],[0,189],[1,187]],[[3271,2517],[0,94]],[[3393,3234],[41,9],[53,3],[60,-2],[169,0],[100,-3],[80,-1],[33,4],[29,12],[20,13],[79,82],[214,1],[26,-1]],[[4297,3351],[36,-2],[159,-16]],[[4224,4470],[74,-1]],[[4298,4469],[2,-294],[-2,-171],[-1,-653]],[[680,3375],[357,5],[132,3],[171,3]],[[1337,3178],[-1,-186]],[[1336,2992],[-7,-124],[-7,-12],[8,-236]],[[1330,2620],[-228,6]],[[1102,2626],[4,179],[-22,6],[-6,11],[5,176],[-29,1],[5,137],[-22,31],[-21,-1],[-62,21],[-279,6]],[[675,3193],[5,182]],[[1533,2746],[1,81],[13,12],[4,21],[-14,18],[5,113],[-206,1]],[[4298,4469],[433,-2],[25,-157],[31,-166],[19,-66],[22,-25],[40,-20],[62,-8],[57,5],[40,14],[67,15],[35,-3],[13,-8],[14,-24],[18,-57],[15,-34],[75,-73],[-1,-418]],[[675,3193],[-111,2],[-3,-171],[-28,-4],[-20,-11],[-19,-24],[-30,-23],[-14,-34],[-3,-28]],[[444,2827],[-8,-2],[-208,4],[-1,44],[-44,34],[-19,30],[-46,-11],[-99,3]],[[19,2929],[6,310],[4,40],[0,95],[206,-1],[223,0],[222,2]],[[2,1886],[263,-1],[147,2],[131,-1]],[[2,1696],[-1,65],[1,125]],[[1102,2626],[-65,2],[-16,-3]],[[680,2233],[-19,-4],[-31,-23],[-62,-30],[-20,-20]],[[548,2156],[-8,1],[-46,-13],[-30,-18],[-12,-1],[-76,23],[-18,-11],[0,-23],[-18,-11],[-48,0],[-28,-4],[-24,-10],[-26,-16],[-213,1]],[[1,2074],[7,388],[3,185],[8,282]],[[1330,2620],[106,-1]],[[543,1886],[1,253],[4,17]],[[2413,2611],[1,192],[-52,1],[-16,7],[-43,-5]],[[2303,2806],[1,33]],[[2,1886],[-1,188]],[[2303,2806],[0,-194],[110,-1]]],"transform":{"scale":[0.00009212879939209727,0.00007777544757033257],"translate":[-85.817802,44.512122]},"objects":{"Geometry\\26-055":{"type":"GeometryCollection","geometries":[{"arcs":[[0,1,2,3,4,5]],"type":"Polygon","properties":{"GEOID":"260555510003"}},{"arcs":[[-5,6,7,8]],"type":"Polygon","properties":{"GEOID":"260555512002"}},{"arcs":[[9,10,11,12,13,14]],"type":"Polygon","properties":{"GEOID":"260555501011"}},{"arcs":[[15,16,17,18,19,20]],"type":"Polygon","properties":{"GEOID":"260555515001"}},{"arcs":[[21,22,23,24,25]],"type":"Polygon","properties":{"GEOID":"260555502003"}},{"arcs":[[26,27,28,29]],"type":"Polygon","properties":{"GEOID":"260555503004"}},{"arcs":[[30,31,32,33,34,35,36]],"type":"Polygon","properties":{"GEOID":"260555502002"}},{"arcs":[[37,38,39,40,41]],"type":"Polygon","properties":{"GEOID":"260555509002"}},{"arcs":[[42,-23,43,44,45,46,47,-33]],"type":"Polygon","properties":{"GEOID":"260555502001"}},{"arcs":[[-24,-43,-32,48]],"type":"Polygon","properties":{"GEOID":"260555502004"}},{"arcs":[[-35,49,50]],"type":"Polygon","properties":{"GEOID":"260555503001"}},{"arcs":[[51,-51,52,53]],"type":"Polygon","properties":{"GEOID":"260555503002"}},{"arcs":[[54,55,56,57]],"type":"Polygon","properties":{"GEOID":"260555505004"}},{"arcs":[[58,-58,59]],"type":"Polygon","properties":{"GEOID":"260555505003"}},{"arcs":[[-60,-57,60,61,62,63]],"type":"Polygon","properties":{"GEOID":"260555505001"}},{"arcs":[[64,65,66,-63,-28,67]],"type":"Polygon","properties":{"GEOID":"260555505002"}},{"arcs":[[68,-41,69,70,71,-1,72]],"type":"Polygon","properties":{"GEOID":"260555509003"}},{"arcs":[[73,-38,74]],"type":"Polygon","properties":{"GEOID":"260555509004"}},{"arcs":[[-72,75,76,77,78,-2]],"type":"Polygon","properties":{"GEOID":"260555510001"}},{"arcs":[[79,-76,-71]],"type":"Polygon","properties":{"GEOID":"260555510002"}},{"arcs":[[80,81,-78]],"type":"Polygon","properties":{"GEOID":"260555510004"}},{"arcs":[[82,83,-11,84]],"type":"Polygon","properties":{"GEOID":"260555501022"}},{"arcs":[[-14,85,-45,86,87]],"type":"Polygon","properties":{"GEOID":"260555501012"}},{"arcs":[[88,-85,-10,89,90,-81,-77,-80,-70,-40,91,-75,-42,-69,92,93]],"type":"Polygon","properties":{"GEOID":"260559900000"}},{"arcs":[[-62,94,95,-54,96,-29]],"type":"Polygon","properties":{"GEOID":"260555503003"}},{"arcs":[[-7,-4,97,98,99,100,101,102]],"type":"Polygon","properties":{"GEOID":"260555511002"}},{"arcs":[[103,-90,-15,-88,104,105,-99]],"type":"Polygon","properties":{"GEOID":"260555511003"}},{"arcs":[[-3,-79,-82,-91,-104,-98]],"type":"Polygon","properties":{"GEOID":"260555511001"}},{"arcs":[[-93,-73,-6,-9,106,107,108,109,110]],"type":"Polygon","properties":{"GEOID":"260555512001"}},{"arcs":[[-107,-8,-103,111,112,113]],"type":"Polygon","properties":{"GEOID":"260555512003"}},{"arcs":[[114,115,-108,-114,116,117]],"type":"Polygon","properties":{"GEOID":"260555514002"}},{"arcs":[[-19,118,119,120,121,122,123]],"type":"Polygon","properties":{"GEOID":"260555514001"}},{"arcs":[[-18,124,-110,125,-119]],"type":"Polygon","properties":{"GEOID":"260555515002"}},{"arcs":[[-74,-92,-39]],"type":"Polygon","properties":{"GEOID":"260555509001"}},{"arcs":[[-126,-109,-116,126,-120]],"type":"Polygon","properties":{"GEOID":"260555514004"}},{"arcs":[[127,-94,-111,-125,-17]],"type":"Polygon","properties":{"GEOID":"260555515003"}},{"arcs":[[-115,128,-121,-127]],"type":"Polygon","properties":{"GEOID":"260555514003"}},{"arcs":[[129,130,131,132,-55,-59,133,134]],"type":"Polygon","properties":{"GEOID":"260555507022"}},{"arcs":[[135,136,137,138]],"type":"Polygon","properties":{"GEOID":"260555508023"}},{"arcs":[[139,140,-132]],"type":"Polygon","properties":{"GEOID":"260555507021"}},{"arcs":[[141,142,143,-101,144,145,146,-133,-141,147]],"type":"Polygon","properties":{"GEOID":"260555506023"}},{"arcs":[[-134,-64,-67,148]],"type":"Polygon","properties":{"GEOID":"260555508011"}},{"arcs":[[149,-117,-113,150,151,-142,152]],"type":"Polygon","properties":{"GEOID":"260555513022"}},{"arcs":[[153,-123,154,-153,-148,-140,-131]],"type":"Polygon","properties":{"GEOID":"260555507023"}},{"arcs":[[-146,155,-25,-49,-31,156]],"type":"Polygon","properties":{"GEOID":"260555506011"}},{"arcs":[[-147,-157,-37,157,-95,-61,-56]],"type":"Polygon","properties":{"GEOID":"260555506022"}},{"arcs":[[-36,-52,-96,-158]],"type":"Polygon","properties":{"GEOID":"260555506031"}},{"arcs":[[158,-68,-27,159]],"type":"Polygon","properties":{"GEOID":"260555504012"}},{"arcs":[[-105,-87,-44,-22,160]],"type":"Polygon","properties":{"GEOID":"260555501013"}},{"arcs":[[161,162,-46,-86,-13]],"type":"Polygon","properties":{"GEOID":"260555501014"}},{"arcs":[[-84,163,164,-162,-12]],"type":"Polygon","properties":{"GEOID":"260555501023"}},{"arcs":[[165,-21,166,167,168,169,170]],"type":"Polygon","properties":{"GEOID":"260555507011"}},{"arcs":[[-122,-129,-118,-150,-155]],"type":"Polygon","properties":{"GEOID":"260555513011"}},{"arcs":[[-20,-124,-154,171,-167]],"type":"Polygon","properties":{"GEOID":"260555507013"}},{"arcs":[[172,-47,-163,-165]],"type":"Polygon","properties":{"GEOID":"260555501021"}},{"arcs":[[-171,173,-136,174,175]],"type":"Polygon","properties":{"GEOID":"260555504023"}},{"arcs":[[176,-65,-159,177]],"type":"Polygon","properties":{"GEOID":"260555504011"}},{"arcs":[[-170,178,-137,-174]],"type":"Polygon","properties":{"GEOID":"260555508022"}},{"arcs":[[-175,-139,179,180,181]],"type":"Polygon","properties":{"GEOID":"260555504021"}},{"arcs":[[-180,-138,-179,-169,182,-135,-149,-66,183]],"type":"Polygon","properties":{"GEOID":"260555508021"}},{"arcs":[[-151,-112,-102,-144,184,185]],"type":"Polygon","properties":{"GEOID":"260555513031"}},{"arcs":[[-100,-106,-161,-26,-156,-145]],"type":"Polygon","properties":{"GEOID":"260555506021"}},{"arcs":[[-172,-130,-183,-168]],"type":"Polygon","properties":{"GEOID":"260555507012"}},{"arcs":[[-181,-184,-177,186]],"type":"Polygon","properties":{"GEOID":"260555504022"}},{"arcs":[[-186,187,-143,-152]],"type":"Polygon","properties":{"GEOID":"260555513021"}},{"arcs":[[-185,-188]],"type":"Polygon","properties":{"GEOID":"260555513032"}}]}}}