{"type":"Topology","arcs":[[[3233,1696],[195,1],[-1,91],[255,1],[26,5],[15,-6],[92,1]],[[3815,1789],[3,-410],[9,-32],[-3,-34],[-14,-20],[-29,-25],[-10,-38],[0,-147],[-3,-24],[-39,-79],[-5,-32],[1,-94]],[[3725,854],[-97,0],[-1,38],[-77,-1],[-23,-30],[-18,-10],[-79,-2],[-191,1]],[[3239,850],[-1,200],[-9,32],[8,34],[-3,412],[0,115],[3,31],[-4,22]],[[2654,442],[144,5],[250,12],[-1,202],[194,1]],[[3241,662],[24,1],[25,-14],[22,-2],[12,7],[35,9],[76,1],[2,-185]],[[3437,479],[1,-191],[193,2],[0,-189],[97,1]],[[3728,102],[97,1]],[[3825,103],[0,-91]],[[3825,12],[-97,-2],[-293,-2],[-269,-1],[-24,-3],[-158,0],[-69,2],[-61,-1],[-123,0]],[[2731,5],[-1,3],[-9,85],[-32,0],[-13,25],[-20,10],[-2,314]],[[3815,1789],[309,1],[19,-9],[14,-19],[23,-11],[31,0],[50,-17],[0,49],[7,7],[331,2]],[[4599,1792],[2,-275],[0,-95],[1,-366],[-10,-9],[-136,1],[1,-190]],[[4457,858],[-145,0],[-126,0],[-17,-19],[-20,2],[-24,16],[-104,-2]],[[4021,855],[-83,-1],[-11,-6],[-4,-30],[-15,-11],[-86,0],[0,48],[-97,-1]],[[1645,2346],[21,2],[16,14],[30,7],[35,1],[34,-3],[32,4],[49,-18]],[[1862,2353],[-1,-10]],[[1861,2343],[0,-42],[-66,-29],[-23,-16],[-58,-56],[-26,-45]],[[1688,2155],[-19,0],[-1,150],[-24,-1],[1,42]],[[1417,2459],[37,75]],[[1454,2534],[22,-5],[4,-15],[16,-25],[31,-8],[6,-26],[-6,-22],[17,-16]],[[1544,2417],[0,-20],[22,-4],[9,-9]],[[1575,2384],[-17,-8],[0,-33],[-53,-1],[-2,-95],[-104,-2]],[[1399,2245],[0,136],[5,38],[13,40]],[[1279,1777],[4,72],[11,33],[99,198],[6,24],[1,48],[-9,43],[8,50]],[[1575,2384],[12,-9]],[[1587,2375],[4,-40],[-22,-55],[-12,-17],[2,-18],[20,-27],[0,-37],[16,-73],[-7,-27],[-12,-12],[-19,4],[-10,-25],[-21,-8],[-13,-13],[-1,-22],[11,-22]],[[1523,1983],[8,-15],[-9,-19],[4,-13],[0,-159],[2,-89]],[[1528,1688],[-87,-2],[-23,-3],[-138,-1],[-1,95]],[[4002,3674],[-2,366]],[[4000,4040],[162,0],[404,0],[360,2],[48,-1],[1,-178],[2,-141],[2,-265],[2,-440]],[[4981,3017],[-36,0],[-4,-36],[-11,-8],[-50,-2],[-14,24],[-16,16],[-16,5],[-44,0],[-4,33],[-135,-129],[-29,-25],[-32,3],[-30,-25],[-14,9],[-153,-1],[-109,-3],[-134,0],[-1,182]],[[4149,3060],[1,19],[21,30],[-47,0],[-10,7],[3,21],[-17,17],[-2,236],[-98,0],[-1,87],[3,197]],[[2623,4031],[202,2],[195,1],[779,5],[201,1]],[[4002,3674],[-198,-1],[-260,-2],[-130,-1]],[[3414,3670],[-97,-1],[-292,0],[2,-189],[-292,-2]],[[2735,3478],[-1,141],[-88,0],[-12,6],[-7,15],[0,98],[-4,293]],[[1862,2353],[25,-9],[47,2],[25,11],[31,29],[30,37],[67,37],[44,33],[23,30],[30,48],[-3,16],[21,10],[-1,27],[-9,16],[10,22],[31,26],[10,15],[3,19],[-1,95]],[[2245,2817],[0,47]],[[2245,2864],[173,2],[118,0],[0,-44],[3,-4],[97,0]],[[2636,2818],[-2,-29],[-20,-42],[1,-40],[20,-19],[2,-341]],[[2637,2347],[0,-85],[-6,-15],[2,-262],[6,-25],[1,-35]],[[2640,1925],[-1,-30],[-7,-15],[1,-26],[8,-25],[-5,-40]],[[2636,1789],[-13,-6],[-176,-1],[-1,222],[-43,-34],[-151,-1],[-3,377],[-189,-1],[-95,-1],[-34,-11],[-46,3],[-24,7]],[[1523,1983],[9,11],[24,0],[13,24],[10,2],[14,-42],[15,-1],[-2,-20],[14,-22],[-1,-20],[12,-18],[22,19],[17,0],[0,119],[5,23],[7,63],[6,34]],[[2636,1789],[5,-10],[1,-87]],[[2642,1692],[1,-85],[2,-14],[-98,4],[3,-189]],[[2550,1408],[-144,2],[-342,-2],[-193,-2],[-194,1],[-147,-1]],[[1530,1406],[-2,282]],[[2550,1408],[96,0],[3,-283],[3,-327],[-97,0],[0,-40]],[[2555,758],[-12,-7],[-89,0],[-7,-5],[-11,-31],[-23,-24],[-55,-21],[-22,-13]],[[2336,657],[-209,-1],[-222,-2],[-421,-3]],[[1484,651],[-1,189],[-3,188],[0,187]],[[1480,1215],[27,110],[23,81]],[[3823,478],[32,0],[-1,64]],[[3854,542],[167,26]],[[4021,568],[2,-89],[-1,-188],[-174,-1],[-24,1]],[[3824,291],[-1,187]],[[3756,468],[25,0],[0,9],[42,1]],[[3824,291],[1,-188]],[[3728,102],[-1,188],[25,1],[-1,94],[-24,-1]],[[3727,384],[-1,61],[30,0],[0,23]],[[3437,479],[29,3],[114,17]],[[3580,499],[49,7]],[[3629,506],[1,-122],[97,0]],[[3725,854],[1,-188]],[[3726,666],[-24,0],[0,-41],[-25,-6],[3,-11]],[[3680,608],[-51,-3],[0,-37],[-49,-8],[0,-61]],[[3241,662],[-2,188]],[[3680,608],[5,-22],[41,9],[17,-12]],[[3743,583],[0,-35],[7,-22]],[[3750,526],[-121,-20]],[[4021,855],[1,-187]],[[4022,668],[-199,-1],[0,-24]],[[3823,643],[-48,0]],[[3775,643],[-1,23],[-48,0]],[[4022,668],[-1,-100]],[[3854,542],[-31,-4]],[[3823,538],[0,105]],[[1404,4025],[0,-45],[-4,-5],[-62,1],[-2,-32],[-6,-165],[8,-24],[-58,1],[-10,-7],[1,-88],[2,-281],[2,-25],[-2,-71],[2,-197],[1,-85]],[[1276,3002],[-198,-3],[-239,0],[0,-85],[-17,-10],[-38,0]],[[784,2904],[-366,-1],[-112,0]],[[306,2903],[-7,375],[-5,376],[-6,359],[789,7],[327,5]],[[3414,3670],[1,-187],[2,-279],[4,-286]],[[3421,2918],[-302,-2],[-9,3],[-14,23],[-17,9],[-26,1],[-21,8],[-52,-1],[-13,-10],[-13,-34],[-216,-1]],[[2738,2914],[2,11],[-3,305],[0,57],[-2,191]],[[1221,1084],[5,-9]],[[1226,1075],[62,-113],[3,-311]],[[1291,651],[-194,0],[-350,0]],[[747,651],[-54,0]],[[693,651],[12,34],[39,26],[47,22],[21,30],[37,12],[8,30],[-21,37],[3,12],[18,1],[15,-25],[28,-10],[20,12],[23,24],[17,45],[30,9],[18,-5],[17,5],[22,31],[4,28],[13,14],[15,1],[22,-16],[29,3],[34,25],[12,16],[9,53],[18,14],[18,5]],[[1673,2531],[15,16],[5,34],[-2,19],[23,24],[20,-12],[0,24],[16,16],[-14,18],[10,17],[25,10],[7,25],[23,6],[18,12],[-8,19],[30,-3],[24,13],[-12,18],[14,9],[15,-1],[6,17],[17,3]],[[1905,2815],[1,-89],[-4,-5],[-43,-2],[1,-187],[-111,0],[-23,-10],[-12,-27],[1,-77],[-14,-16],[-60,-1],[4,-55]],[[1645,2346],[-21,9],[-20,34]],[[1604,2389],[-1,22],[17,1],[10,19],[12,6],[14,20],[11,34],[6,40]],[[1544,2417],[11,9],[-1,104],[53,1]],[[1607,2531],[66,0]],[[1604,2389],[-17,-14]],[[1226,1075],[37,25],[16,36],[42,17],[62,15],[97,47]],[[1484,651],[-193,0]],[[1276,3002],[1,-95],[159,0]],[[1436,2907],[-7,-19],[4,-10],[-6,-22],[-15,-13],[17,-21],[2,-14],[-14,-7],[-11,-17],[12,-15],[2,-30],[32,-17],[-2,-10],[-39,-41],[-1,-9],[29,-12],[-11,-41],[-12,-18],[17,-21],[6,-18],[15,-18]],[[1417,2459],[-128,-5],[-29,-10],[-32,-23],[-25,-28],[-22,-10],[-51,1],[-30,-10],[-13,-26],[0,-105],[-196,3],[-94,0]],[[797,2246],[-48,3],[0,141]],[[749,2390],[0,102],[-3,221],[145,0],[-1,84],[-6,10],[-88,-1],[-11,14],[-1,84]],[[1436,2907],[127,1]],[[1563,2908],[2,-42],[1,-86],[-5,-17],[6,-14],[1,-130],[38,0],[1,-88]],[[1563,2908],[-2,189],[195,0]],[[1756,3097],[1,-183],[1,-6],[194,1]],[[1952,2909],[2,-93]],[[1954,2816],[-49,-1]],[[3775,643],[-1,-60],[-31,0]],[[4599,1792],[194,0],[2,-88],[192,-1]],[[4987,1703],[1,-281],[0,-233],[1,-306]],[[4989,883],[-155,-50],[-66,-29],[-68,-37],[-1,91],[-242,0]],[[3823,538],[-73,-12]],[[316,515],[6,7],[68,27],[14,17],[13,37],[26,23],[27,11],[46,12],[54,0],[31,17],[33,6],[15,-10],[14,-23],[23,-2],[7,14]],[[747,651],[-30,-32],[-7,-15],[-1,-113],[-3,-242],[-3,-37],[3,-20],[0,-107],[-69,-1],[-1,-84]],[[636,0],[-173,1],[-48,-1],[-102,1],[-193,1],[-115,0],[-5,11],[7,14],[15,1],[33,-21],[15,1],[5,17],[-16,33],[-13,11],[-29,14],[-1,13],[24,17],[5,10],[1,37],[13,26],[-7,32],[8,19],[91,45],[46,37],[25,12],[8,11],[19,67],[16,23],[23,6],[5,14],[-11,23],[13,25],[21,15]],[[3756,468],[-1,33],[-5,25]],[[1954,2816],[187,0],[104,1]],[[1404,4025],[245,2],[220,-2]],[[1869,4025],[5,-46],[-5,-33],[2,-189],[-122,0],[4,-283],[3,-377]],[[1869,4025],[169,0],[196,2],[99,1],[290,3]],[[2738,2914],[-2,-88],[-2,-4],[-61,-1],[-37,-3]],[[2245,2864],[0,26],[8,30],[29,70],[49,109],[-351,-2],[-29,0],[1,-188]],[[1484,651],[0,-256],[0,-119]],[[1484,276],[-194,-1],[0,-274]],[[1290,1],[-448,0],[-171,0],[-35,-1]],[[2336,657],[-102,-67],[-75,-66],[-38,-48],[1,-197],[-243,-1],[1,-95],[-46,0],[-25,35],[-77,25],[-47,11],[-63,22],[-138,0]],[[4149,3060],[-77,-49],[-45,-26],[-79,-28],[-116,-38],[-26,0]],[[3806,2919],[-190,0],[-195,-1]],[[749,2390],[-47,-4],[-14,-10],[-29,-49],[-16,-9],[-40,-1],[-14,21],[-55,50],[-54,25],[-21,-4],[-14,-12],[-67,-9],[-67,0]],[[311,2388],[-4,327],[-1,188]],[[1279,1777],[-142,0],[0,46],[-96,1],[-50,-16],[-47,-4],[-52,-9]],[[892,1795],[-45,-8]],[[847,1787],[-1,178],[-43,0],[-5,8],[-1,273]],[[847,1787],[-49,-9],[-244,1],[-23,8],[-24,-8],[-190,1]],[[317,1780],[-5,468],[-1,140]],[[892,1795],[3,-279],[-3,-13],[66,-52],[40,-52],[116,-159],[7,-27],[25,-17],[50,-68],[25,-44]],[[316,515],[0,322],[-1,276],[0,89],[-2,197],[3,130],[1,251]],[[2555,758],[0,-37],[23,-26],[26,-42],[9,-31],[-15,-29],[55,-28],[1,-123]],[[2731,5],[-270,1],[-184,-2],[-191,0],[-394,-2],[-239,0],[-163,-1]],[[2642,1692],[202,1],[1,-33],[51,-5],[62,9],[90,31],[185,1]],[[4989,883],[1,-279],[0,-496],[-1,-96],[-67,-1],[-94,2],[-99,-1],[-198,1],[-121,-1],[-195,0],[-193,-2],[-197,2]],[[2637,2347],[22,2],[101,1],[173,190],[295,1],[2,-377]],[[3230,2164],[1,-94],[-373,-2],[-16,4],[2,-145],[-204,-2]],[[4692,2575],[1,-51],[42,-20],[25,-1],[-6,-24],[5,-20],[25,-21],[23,-30],[31,-3],[5,-17],[1,-70],[-50,-52],[-2,-95]],[[4792,2171],[-195,-1],[-31,15]],[[4566,2185],[7,53],[13,24],[9,40],[-2,149],[46,7],[0,91],[10,6],[8,29],[35,-9]],[[4981,3017],[1,-264],[-1,-17]],[[4981,2736],[-99,-49],[-42,-42],[-9,-3],[-43,-2],[0,-29],[-70,-1],[-16,-38],[-10,3]],[[4566,2185],[-29,-16],[-87,1],[-1,79],[27,64],[-219,-4],[-3,47],[-72,-2],[-170,-2],[1,-94],[-197,1],[-2,-2]],[[3814,2257],[-1,375],[-2,95],[-5,192]],[[3814,2257],[-238,3],[-150,-1],[1,-94],[-197,-1]],[[3814,2257],[2,-374],[-1,-94]],[[4792,2171],[193,-2]],[[4985,2169],[2,-281],[0,-185]],[[4981,2736],[1,-17],[2,-230],[1,-320]]],"transform":{"scale":[0.00010015591182364855,0.00007734166254329563],"translate":[-85.791837,41.758946]},"objects":{"Geometry\\26-149":{"type":"GeometryCollection","geometries":[{"arcs":[[0,1,2,3]],"type":"Polygon","properties":{"GEOID":"261490415002"}},{"arcs":[[4,5,6,7,8,9,10]],"type":"Polygon","properties":{"GEOID":"261490415003"}},{"arcs":[[11,12,13,14,-2]],"type":"Polygon","properties":{"GEOID":"261490416001"}},{"arcs":[[15,16,17,18]],"type":"Polygon","properties":{"GEOID":"261490402002"}},{"arcs":[[19,20,21,22,23]],"type":"Polygon","properties":{"GEOID":"261490403001"}},{"arcs":[[24,-23,25,26,27,28]],"type":"Polygon","properties":{"GEOID":"261490403002"}},{"arcs":[[29,30,31,32]],"type":"Polygon","properties":{"GEOID":"261490410001"}},{"arcs":[[33,-30,34,35,36]],"type":"Polygon","properties":{"GEOID":"261490410002"}},{"arcs":[[37,38,39,40,41,42,43,-17]],"type":"Polygon","properties":{"GEOID":"261490412001"}},{"arcs":[[44,-18,-44,45,46,47,48,-28]],"type":"Polygon","properties":{"GEOID":"261490412002"}},{"arcs":[[-48,49,50,51,52,53]],"type":"Polygon","properties":{"GEOID":"261490412003"}},{"arcs":[[54,55,56,57]],"type":"Polygon","properties":{"GEOID":"261490405002"}},{"arcs":[[58,-58,59,-8,60,61]],"type":"Polygon","properties":{"GEOID":"261490405003"}},{"arcs":[[62,63,64,-61,-7]],"type":"Polygon","properties":{"GEOID":"261490406001"}},{"arcs":[[-3,65,66,67,-63,-6,68]],"type":"Polygon","properties":{"GEOID":"261490407001"}},{"arcs":[[69,70,71,-64,-68]],"type":"Polygon","properties":{"GEOID":"261490407003"}},{"arcs":[[-15,72,73,74,75,-66]],"type":"Polygon","properties":{"GEOID":"261490408001"}},{"arcs":[[76,-56,77,78,-74]],"type":"Polygon","properties":{"GEOID":"261490408002"}},{"arcs":[[79,80,81,82]],"type":"Polygon","properties":{"GEOID":"261490409001"}},{"arcs":[[-36,83,84,85]],"type":"Polygon","properties":{"GEOID":"261490410003"}},{"arcs":[[86,87,88,89,90]],"type":"Polygon","properties":{"GEOID":"261490411013"}},{"arcs":[[91,92,93,94]],"type":"Polygon","properties":{"GEOID":"261490404001"}},{"arcs":[[95,96,-95,97,-26,-22]],"type":"Polygon","properties":{"GEOID":"261490401003"}},{"arcs":[[98,-53,99,-88]],"type":"Polygon","properties":{"GEOID":"261490411014"}},{"arcs":[[-98,-94,-19,-45,-27]],"type":"Polygon","properties":{"GEOID":"261490402001"}},{"arcs":[[-81,100,101,-20,102,103,104]],"type":"Polygon","properties":{"GEOID":"261490411021"}},{"arcs":[[105,106,-96,-21,-102]],"type":"Polygon","properties":{"GEOID":"261490401001"}},{"arcs":[[107,108,109,110,-92,-97,-107]],"type":"Polygon","properties":{"GEOID":"261490401002"}},{"arcs":[[-76,111,-70,-67]],"type":"Polygon","properties":{"GEOID":"261490407002"}},{"arcs":[[112,113,114,-13]],"type":"Polygon","properties":{"GEOID":"261490416002"}},{"arcs":[[-112,-75,-79,115,-71]],"type":"Polygon","properties":{"GEOID":"261490408003"}},{"arcs":[[116,-90,117,118]],"type":"Polygon","properties":{"GEOID":"261490414001"}},{"arcs":[[-116,-78,-55,-59,119]],"type":"Polygon","properties":{"GEOID":"261490405001"}},{"arcs":[[-111,120,-38,-16,-93]],"type":"Polygon","properties":{"GEOID":"261490404002"}},{"arcs":[[121,122,-108,-106,-101,-80]],"type":"Polygon","properties":{"GEOID":"261490409002"}},{"arcs":[[123,-37,-86,124,-40,125,-109,-123]],"type":"Polygon","properties":{"GEOID":"261490409003"}},{"arcs":[[-39,-121,-110,-126]],"type":"Polygon","properties":{"GEOID":"261490409004"}},{"arcs":[[-89,-100,126,127,128,-118]],"type":"Polygon","properties":{"GEOID":"261490414002"}},{"arcs":[[-52,129,-127]],"type":"Polygon","properties":{"GEOID":"261490414003"}},{"arcs":[[-35,-33,130,131,-84]],"type":"Polygon","properties":{"GEOID":"261490410004"}},{"arcs":[[-82,-105,132,133]],"type":"Polygon","properties":{"GEOID":"261490411022"}},{"arcs":[[-103,-24,-25,134,135,136]],"type":"Polygon","properties":{"GEOID":"261490411023"}},{"arcs":[[-133,-104,-137,137,138]],"type":"Polygon","properties":{"GEOID":"261490411024"}},{"arcs":[[-138,-136,139,-91,-117,140]],"type":"Polygon","properties":{"GEOID":"261490411012"}},{"arcs":[[-130,-51,141,-11,142,-128]],"type":"Polygon","properties":{"GEOID":"261490414004"}},{"arcs":[[143,-4,-69,-5,-142,-50,-47]],"type":"Polygon","properties":{"GEOID":"261490415001"}},{"arcs":[[-72,-120,-62,-65]],"type":"Polygon","properties":{"GEOID":"261490406002"}},{"arcs":[[-135,-29,-49,-54,-99,-87,-140]],"type":"Polygon","properties":{"GEOID":"261490411011"}},{"arcs":[[-57,-77,-73,-14,-115,144,-9,-60]],"type":"Polygon","properties":{"GEOID":"261490416003"}},{"arcs":[[145,146,-42]],"type":"Polygon","properties":{"GEOID":"261490413012"}},{"arcs":[[147,148,149]],"type":"Polygon","properties":{"GEOID":"261490413023"}},{"arcs":[[-131,-32,150,151,-150,152,153]],"type":"Polygon","properties":{"GEOID":"261490413021"}},{"arcs":[[-125,-85,-132,-154,154,-146,-41]],"type":"Polygon","properties":{"GEOID":"261490413011"}},{"arcs":[[-147,-155,155,-1,-144,-46,-43]],"type":"Polygon","properties":{"GEOID":"261490413013"}},{"arcs":[[-153,-149,156,157,-113,-12,-156]],"type":"Polygon","properties":{"GEOID":"261490413024"}},{"arcs":[[-152,158,-157,-148]],"type":"Polygon","properties":{"GEOID":"261490413022"}}]}}}