{"type":"Topology","arcs":[[[1990,3864],[2,393]],[[1992,4257],[167,0],[2,163],[164,1]],[[2325,4421],[164,1]],[[2489,4422],[3,-70],[13,-79],[-2,-90]],[[2503,4183],[-6,-63],[-2,-62],[-13,-66],[-3,-146],[125,0],[46,5],[156,0]],[[2806,3851],[5,-82],[-3,-164]],[[2808,3605],[-280,0],[-375,-1],[-165,0]],[[1988,3604],[2,260]],[[2806,3851],[42,0],[42,-27],[93,-2]],[[2983,3822],[-29,-135],[-19,-83]],[[2935,3604],[-127,1]],[[840,3604],[304,1]],[[1144,3605],[150,0],[200,-2]],[[1494,3603],[-2,-163],[6,-8],[43,4],[108,-2],[6,6],[166,0],[2,165]],[[1823,3605],[165,-1]],[[2808,3605],[2,-123],[-3,-533]],[[2807,2949],[-2,-492],[3,-328],[4,-326],[-1,-164]],[[2811,1639],[-48,0]],[[2763,1639],[-578,2],[-202,0],[-243,2],[-302,-1],[-331,2],[-272,0]],[[835,1644],[-1,163],[7,979],[0,163],[2,164],[0,164],[-3,327]],[[2153,7378],[13,37],[-2,113]],[[2164,7528],[17,41],[45,38],[4,26]],[[2230,7633],[2,61]],[[2232,7694],[100,0],[37,-14]],[[2369,7680],[-26,-20],[-27,-34],[-54,-97]],[[2262,7529],[-53,-93],[-69,-127]],[[2140,7309],[-5,32],[18,37]],[[4512,9312],[79,0]],[[4591,9312],[84,1]],[[4675,9313],[-2,-41],[1,-164]],[[4674,9108],[-42,3]],[[4632,9111],[-10,11],[0,109],[10,0],[0,49],[-80,1],[0,-9],[-39,-1],[-1,41]],[[2641,8040],[21,2],[33,14],[27,-6],[22,-21],[25,-9]],[[2769,8020],[206,1]],[[2975,8021],[1,-164]],[[2976,7857],[-60,5],[-43,9],[-34,0],[-56,-18],[-138,1]],[[2645,7854],[-17,57],[0,26],[12,37],[1,66]],[[6926,6034],[133,2],[210,0]],[[7269,6036],[3,-24],[20,-57],[4,-32],[-7,-49]],[[7289,5874],[-365,0]],[[6924,5874],[2,160]],[[4592,9557],[41,0],[0,-9],[63,-4],[-6,67],[16,26],[24,21]],[[4730,9658],[32,-48],[42,-79]],[[4804,9531],[-19,-10],[-23,-2],[-3,-84],[-84,-1]],[[4675,9434],[-83,1]],[[4592,9435],[0,122]],[[1661,7602],[8,58],[17,40],[37,43],[35,25],[143,66],[66,43]],[[1967,7877],[15,-24]],[[1982,7853],[-36,-14],[-17,-16],[5,-12],[45,-50],[7,-23],[0,-44]],[[1986,7694],[0,-21]],[[1986,7673],[-33,12],[-23,1],[-16,-32],[-50,19],[-44,-6],[-38,-15],[-87,-55],[-17,-15],[4,-47]],[[1682,7535],[-22,1]],[[1660,7536],[1,66]],[[4674,9108],[92,-3],[64,18],[33,20]],[[4863,9143],[8,-25],[22,-42],[39,-99],[27,-29],[10,-26],[-24,-4],[-25,18],[-40,9]],[[4880,8945],[-1,41],[16,0],[-16,41],[-205,0]],[[4674,9027],[0,81]],[[2443,9420],[15,-9],[91,-69],[40,-34],[20,-10],[70,-12]],[[2679,9286],[23,-22],[10,-25],[0,-23],[-11,-85],[18,-57],[13,-21],[81,-83],[51,-56],[56,-89]],[[2920,8825],[-50,0],[-29,-5],[-76,0],[-48,5],[-73,1]],[[2644,8826],[-138,0]],[[2506,8826],[-362,1]],[[2144,8827],[-39,57],[6,22],[41,36],[67,48],[57,52],[20,58],[12,21],[34,33],[75,35],[28,29],[14,23],[1,23],[-17,31],[-36,35],[-19,24],[-3,17],[8,23],[50,26]],[[3803,9641],[250,-1]],[[4053,9640],[1,-223],[-1,-102]],[[4053,9315],[-221,0],[-19,-6],[-73,0]],[[3740,9309],[24,128],[8,21],[23,27],[9,25],[-1,131]],[[4053,9720],[165,0]],[[4218,9720],[-1,-25],[-14,-38],[-3,-43],[19,-56],[0,-122]],[[4219,9436],[0,-122]],[[4219,9314],[-166,1]],[[4053,9640],[0,80]],[[1444,7449],[49,-16],[22,5],[15,-12],[16,-26]],[[1546,7400],[-48,-68],[-44,-74],[-33,-47]],[[1421,7211],[-3,0]],[[1418,7211],[-88,1]],[[1330,7212],[0,40],[-9,32],[-20,37],[-8,25],[4,32],[20,41],[11,6],[50,-1],[20,5],[46,20]],[[435,6464],[83,2],[150,-1]],[[668,6465],[15,-49],[25,-66]],[[708,6350],[-15,-3],[-70,0],[-43,-11],[-21,-15],[-13,-25],[-26,-18],[-48,-9],[-38,-10]],[[434,6259],[1,205]],[[1982,7853],[31,6],[222,-1]],[[2235,7858],[1,-61],[-3,-72]],[[2233,7725],[-37,5],[-20,21],[-52,-8],[-54,-18],[-43,-27],[-41,-4]],[[1493,5399],[65,3],[47,37],[33,15],[21,1],[18,-9],[16,-27],[18,-9],[112,-2]],[[1823,5408],[2,-171]],[[1825,5237],[-91,16],[-45,-6],[-58,-1],[-25,-17],[-15,-39]],[[1591,5190],[-35,1],[-34,-22],[-27,-3]],[[1495,5166],[-2,233]],[[2370,4584],[119,0]],[[2489,4584],[0,-162]],[[2325,4421],[0,162],[45,1]],[[4052,10128],[68,-1]],[[4120,10127],[13,-162]],[[4133,9965],[-80,0]],[[4053,9965],[-1,163]],[[3803,9842],[83,0],[0,-13],[84,0],[42,14],[41,0]],[[4053,9843],[0,-123]],[[4053,9720],[-34,-1],[-48,-34],[-33,5],[-15,23],[-18,9],[-102,0]],[[3803,9722],[0,81]],[[3803,9803],[0,39]],[[3141,4140],[1,198]],[[3142,4338],[330,0],[0,-146]],[[3472,4192],[-50,-29],[-116,-27],[-42,-21],[-18,-14],[-45,-55],[-23,-17],[-37,-6]],[[3141,4023],[0,117]],[[4301,10126],[93,0]],[[4394,10126],[80,-117]],[[4474,10009],[3,-39],[-10,-6],[-48,0]],[[4419,9964],[-118,0]],[[4301,9964],[1,122],[-1,40]],[[2983,3822],[155,-1]],[[3138,3821],[-1,-82],[2,-136]],[[3139,3603],[-204,1]],[[3150,9714],[17,-27],[55,-99],[10,-54],[-4,-56]],[[3228,9478],[-82,2],[-170,0]],[[2976,9480],[0,79],[47,0],[0,58],[68,46],[25,15],[12,-39],[15,0],[-3,56],[10,19]],[[4801,8515],[51,-1]],[[4852,8514],[114,0]],[[4966,8514],[66,-3]],[[5032,8511],[-19,-163]],[[5013,8348],[-212,0]],[[4801,8348],[0,167]],[[4301,9964],[-168,1]],[[4120,10127],[181,-1]],[[4986,8875],[124,-1],[6,63],[61,1]],[[5177,8938],[38,-115],[5,0],[7,-70],[-3,-128]],[[5224,8625],[-98,7],[-83,0],[-1,-51],[-10,-70]],[[4966,8514],[-1,82],[-12,37],[1,122],[-7,47],[13,26],[37,15],[-11,32]],[[3554,10131],[89,0]],[[3643,10131],[0,-148]],[[3643,9983],[-77,-77],[-14,-23]],[[3552,9883],[-76,1],[2,25],[-12,7],[2,55],[-8,16]],[[3460,9987],[17,21],[-20,15],[22,28],[50,21],[38,47],[-13,12]],[[59,6703],[81,-1],[16,3],[54,32],[31,13]],[[241,6750],[19,-68],[18,-34],[-4,-22],[-18,-20],[1,-35]],[[257,6571],[3,-78],[8,-31],[1,-74]],[[269,6388],[-33,-11],[-18,-14]],[[218,6363],[-18,13],[-22,44],[-74,57],[-19,27],[-35,109],[7,44],[2,46]],[[241,6750],[32,12],[35,-2],[2,14],[96,27]],[[406,6801],[3,-43],[8,-49],[3,-44]],[[420,6665],[-22,3],[-13,-33],[-25,-9],[1,-56],[-93,-2],[-11,3]],[[405,6817],[32,-3],[41,5],[95,28],[98,22]],[[671,6869],[-3,-123]],[[668,6746],[-42,1],[-18,-7],[-41,-41],[-27,-31],[-74,-102],[-32,-47]],[[434,6519],[-13,81],[-1,65]],[[406,6801],[-1,16]],[[847,6703],[321,-3]],[[1168,6700],[0,-40],[8,-20],[48,-22],[12,-27],[0,-52]],[[1236,6539],[-139,1],[-66,11],[-32,-10],[-25,5],[-44,21],[-84,6]],[[846,6573],[1,130]],[[2233,7725],[-1,-31]],[[2230,7633],[-30,0],[-27,8],[-67,-1],[-28,5],[-93,-1]],[[1985,7644],[1,29]],[[2351,8409],[48,-15],[68,0],[-8,-10],[0,-77],[-21,-7]],[[2438,8300],[-42,3],[-77,-1],[-11,5],[43,102]],[[2375,8469],[61,159],[26,71],[17,58],[27,69]],[[2644,8826],[-2,-99],[3,-53],[-1,-164]],[[2644,8510],[-118,0],[0,-19],[-33,-5],[-52,-28],[-31,-5],[-31,3],[-4,13]],[[2367,7530],[95,0]],[[2462,7530],[10,-31],[27,-21],[18,-23],[4,-21],[-8,-35],[-32,-33],[-9,-28],[6,-42],[2,-91]],[[2480,7205],[-166,-2]],[[2314,7203],[3,25],[24,50],[-2,20],[-24,65],[7,42],[31,31],[14,37],[0,57]],[[2462,7530],[85,1],[29,3],[69,0]],[[2645,7534],[1,-172]],[[2646,7362],[3,-77],[0,-80]],[[2649,7205],[-169,0]],[[1819,7534],[166,-2]],[[1985,7532],[-2,-154]],[[1983,7378],[-164,1],[0,155]],[[3641,9152],[0,158]],[[3641,9310],[99,-1]],[[4219,9314],[21,-44],[53,-80],[20,-47],[1,-29]],[[4314,9114],[0,-3]],[[4314,9111],[-93,2],[-100,-1],[-45,-21],[-24,-28],[0,-77]],[[4052,8986],[-20,-55],[-53,-107],[-341,3]],[[3638,8827],[3,325]],[[1029,5074],[136,0]],[[1165,5074],[0,-97]],[[1165,4977],[0,-158],[6,-71]],[[1171,4748],[-106,-1],[-223,1]],[[842,4748],[-3,43],[-12,46],[-33,65],[-82,171]],[[712,5073],[5,2],[312,-1]],[[1244,5562],[81,0]],[[1325,5562],[85,0]],[[1410,5562],[10,-30],[28,-20],[38,-42],[6,-18],[1,-53]],[[1493,5399],[-83,0],[-51,-6],[-29,5],[-175,1]],[[1155,5399],[-16,83],[38,18],[27,26],[42,26],[-2,10]],[[1410,5562],[412,0]],[[1822,5562],[1,-154]],[[1994,6652],[2,72]],[[1996,6724],[-3,26],[29,64],[15,69]],[[2037,6883],[1,2]],[[2038,6885],[121,0],[164,-4]],[[2323,6881],[0,-21],[-9,-59],[5,-43],[5,-86],[1,-84]],[[2325,6588],[1,-125]],[[2326,6463],[-35,8],[-81,-8]],[[2210,6463],[-63,15],[-68,-3]],[[2079,6475],[-34,0],[-50,-12],[-1,56]],[[1994,6519],[0,133]],[[1820,6519],[174,0]],[[2079,6475],[-3,-57],[-27,-15],[-14,-16],[17,-19],[1,-45],[-18,-14],[-7,-28],[-12,-11],[-26,-1],[0,-51]],[[1990,6218],[-167,-1]],[[1823,6217],[-2,37],[-3,143],[2,122]],[[5782,5548],[656,2],[331,-1]],[[6769,5549],[0,-112],[4,-215],[-2,-327],[1,-63],[-4,-265],[1,-488],[-1,-490]],[[6768,3589],[-330,1],[-330,-1],[-32,-1],[-396,0]],[[5680,3588],[24,31],[68,74],[71,71],[151,154],[-215,0],[0,326],[0,202],[8,30],[-8,32],[2,1035],[1,5]],[[4378,6877],[24,0]],[[4402,6877],[73,-1],[321,-2]],[[4796,6874],[308,1]],[[5104,6875],[50,-41],[113,-47],[85,5],[97,63],[53,15],[89,-1],[77,-22],[54,-21],[52,-25]],[[5774,6801],[3,-272],[4,-215],[0,-39]],[[5781,6275],[-82,29],[-164,78],[-41,29],[-52,28],[-53,9],[-64,4],[-16,8],[-44,4],[-42,-9],[-41,-31],[100,-72],[-1,-167],[-41,17],[-29,6],[-415,5],[-323,-1],[3,313],[-2,11],[-56,211],[-40,130]],[[7597,6169],[165,1]],[[7762,6170],[2,-16],[0,-189]],[[7764,5965],[-32,2],[-37,15],[-51,38],[-48,16]],[[7596,6036],[1,133]],[[1985,7644],[0,-112]],[[1819,7534],[-47,0]],[[1772,7534],[-90,1]],[[17,6702],[42,1]],[[218,6363],[-28,-39],[-1,-46]],[[189,6278],[-25,1],[-20,-10],[-33,-38],[-6,-16]],[[105,6215],[-87,2]],[[18,6217],[-1,81],[0,404]],[[7559,6036],[37,0]],[[7764,5965],[0,-90]],[[7764,5875],[-168,-1]],[[7596,5874],[-104,0]],[[7492,5874],[0,103],[-4,52],[41,0],[27,-4],[3,11]],[[2811,1639],[330,-1],[330,-1],[495,-2],[434,-1],[49,-9],[38,10],[237,-1]],[[4724,1634],[2,-75],[-2,-261],[1,-203],[-1,-92]],[[4724,1003],[-6,-69],[-2,-263],[-1,-326],[8,-164],[-1,-165],[-93,0],[-142,3],[-118,-4],[-290,2],[-190,-4],[-131,1],[-105,-5],[-66,3],[-134,-6],[-172,-3],[-42,-3],[-84,3],[-82,-1],[-164,3],[-157,-1]],[[2752,4],[4,456],[0,198],[2,300],[3,150],[0,206],[-3,67],[5,258]],[[4631,5559],[2,193],[163,1],[0,-31],[148,-2],[4,-164],[503,-5],[331,-3]],[[5680,3588],[-227,5],[-222,7],[-27,-1],[-106,4],[-64,-9],[-63,-1],[-180,2]],[[4791,3595],[3,90],[2,565],[2,544],[-1,149],[2,46],[-1,406],[-167,0],[0,164]],[[3802,10130],[0,81],[83,-1],[0,-81],[47,0]],[[3932,10129],[2,-163]],[[3934,9966],[-131,1]],[[3803,9967],[-2,63],[1,100]],[[3411,7313],[20,38],[12,124],[-2,53]],[[3441,7528],[56,-2],[137,8]],[[3634,7534],[13,-45],[-10,-45],[-2,-240]],[[3635,7204],[-83,0],[-50,5],[-81,-5]],[[3421,7204],[-21,35],[-7,34],[18,40]],[[3643,10131],[159,-1]],[[3803,9967],[-160,1]],[[3643,9968],[0,15]],[[1490,5884],[65,2]],[[1555,5886],[97,-1],[3,4]],[[1655,5889],[167,-1]],[[1822,5888],[0,-164]],[[1822,5724],[-23,0],[0,44],[-100,1],[-24,-7],[-49,-25]],[[1626,5737],[-14,-1],[-122,0]],[[1490,5736],[0,148]],[[3803,9967],[0,-125]],[[3803,9803],[-161,2]],[[3642,9805],[1,163]],[[4674,9027],[-1,-122]],[[4673,8905],[-41,1],[-6,40],[-1,125],[7,40]],[[7534,6530],[5,3],[38,-61],[13,0],[36,-44],[36,-62],[56,-120],[39,-13]],[[7757,6233],[-1,-35],[6,-28]],[[7597,6169],[-54,2],[-177,128],[-7,-16],[-1,-82]],[[7358,6201],[-270,1],[-163,-1]],[[6925,6201],[-1,246],[274,-2],[31,-16],[26,-25],[1,103],[28,-36],[31,-24],[9,-16],[39,-34],[171,133]],[[7764,5875],[1,-85]],[[7765,5790],[2,-62]],[[7767,5728],[-66,-42],[-57,-40],[-43,-13]],[[7601,5633],[-3,12],[-2,229]],[[1494,3603],[0,36],[46,-1],[69,-34],[214,1]],[[2480,7205],[7,-16],[31,-15],[-1,-24],[-26,-26],[2,-33],[-27,4],[-21,23],[-22,-5],[-20,-17],[-20,-4],[-70,4]],[[2313,7096],[1,107]],[[4763,9685],[-33,-27]],[[4592,9557],[-21,0]],[[4571,9557],[1,40],[-1,122]],[[4571,9719],[40,1],[6,75],[-81,107],[-18,41],[-44,66]],[[4394,10126],[130,0],[105,-163],[50,-163],[84,-115]],[[4571,9719],[-103,1]],[[4468,9720],[-42,0]],[[4426,9720],[0,145],[-7,78],[0,21]],[[4763,9685],[36,-49],[165,-85],[74,-75],[58,-138],[8,-41]],[[5104,9297],[-91,-21],[-25,-15],[-125,-118]],[[4863,9143],[-18,87]],[[4845,9230],[-1,79],[-12,96],[-18,102],[-10,24]],[[4845,9230],[-8,28],[-39,13],[1,41],[-124,1]],[[4675,9313],[0,121]],[[5104,9297],[27,-146],[27,-164],[19,-49]],[[4986,8875],[-108,0],[1,30],[-164,1]],[[4715,8906],[0,41],[165,-2]],[[4852,8514],[-7,44],[-1,75],[-35,0],[0,43],[-56,0],[0,32],[24,1],[2,159],[-65,1],[1,37]],[[4656,8194],[20,54]],[[4676,8248],[23,0],[52,18],[253,1]],[[5004,8267],[-9,-84]],[[4995,8183],[-59,3],[-10,-20],[-28,-14],[-95,-29],[-13,1],[-46,18],[-13,-5],[-15,-28],[-31,-7]],[[4685,8102],[-31,36],[-7,25],[9,31]],[[3552,9883],[-31,-74],[-21,-86],[-14,-45],[-25,-37]],[[3461,9641],[-153,0],[4,245],[39,33],[-6,7],[47,44],[0,-21],[26,10],[42,28]],[[1326,5890],[80,0],[1,-4],[83,-2]],[[1490,5736],[0,-90],[-16,-44],[-24,-19],[-31,-3],[-9,-18]],[[1325,5562],[1,328]],[[185,5230],[10,1],[6,-45],[17,-14],[13,-50],[-19,-31],[8,-17],[64,2],[45,-21],[22,11],[37,1],[20,54],[17,32],[120,4],[118,-1],[10,-38]],[[673,5118],[-57,-141],[-15,-55]],[[601,4922],[-78,24],[-15,-8],[-33,1],[-21,-17],[-59,2],[-17,19],[4,42],[-41,4],[-19,-11],[-51,0],[-18,16],[2,26],[-32,5],[-6,-35],[-13,-12],[-19,-82]],[[185,4896],[0,334]],[[737,5404],[14,98],[14,60]],[[765,5562],[479,0]],[[1155,5399],[-207,0]],[[948,5399],[-169,1],[-42,4]],[[4053,9843],[0,122]],[[4301,9964],[0,-244]],[[4301,9720],[-83,0]],[[4301,9720],[125,0]],[[4468,9720],[0,-162]],[[4468,9558],[-84,0]],[[4384,9558],[-28,11],[-16,-15],[-38,-1]],[[4302,9553],[-1,167]],[[1328,7045],[171,-1],[25,-12],[55,15]],[[1579,7047],[14,-18],[-5,-31],[-20,-25],[8,-45],[-18,-25],[-18,-7],[2,-19],[-61,-5],[-47,-28],[-21,2],[-45,21],[-39,6]],[[1329,6873],[-1,172]],[[1163,7059],[37,9],[42,16],[87,56]],[[1329,7140],[-1,-95]],[[1329,6873],[-80,-3],[-80,1],[-54,3]],[[1115,6874],[7,35],[36,54],[5,18],[0,78]],[[1663,7824],[-2,-222]],[[1661,7602],[-12,-47],[-34,-56],[-69,-99]],[[1444,7449],[-4,28],[-21,34],[-10,29],[-22,13],[-7,41],[78,54],[205,176]],[[1329,6873],[3,-86],[-2,-228]],[[1330,6559],[-47,-20],[-47,0]],[[1168,6700],[-15,58],[4,53],[-9,20],[-28,26],[-5,17]],[[1579,7047],[4,9],[5,60],[-10,15],[-31,12],[-4,10],[0,54]],[[1543,7207],[116,0]],[[1659,7207],[-1,-328],[87,2]],[[1745,6881],[24,0],[-199,-174],[-206,-177],[-34,-26]],[[1330,6504],[0,7]],[[1330,6511],[0,48]],[[846,6553],[0,20]],[[1330,6511],[-59,-38],[-123,-69],[-33,-22]],[[1115,6382],[-238,-2],[-31,-4]],[[846,6376],[0,52],[6,63],[-6,62]],[[847,6795],[29,12],[32,25],[35,9],[82,36],[13,3]],[[1038,6880],[27,0],[50,-6]],[[847,6703],[0,92]],[[668,6746],[29,-1],[-10,-40],[160,-2]],[[846,6553],[-9,-36],[-11,13],[-134,3],[0,-30],[9,-12],[0,-26],[-33,0]],[[668,6465],[-8,76],[8,205]],[[671,6869],[143,30],[28,12]],[[842,6911],[4,-22],[1,-94]],[[435,6464],[-1,55]],[[186,5564],[149,0]],[[335,5564],[179,-1]],[[514,5563],[251,-1]],[[737,5404],[-22,-170]],[[715,5234],[-16,-52],[-26,-64]],[[185,5230],[1,334]],[[515,5890],[129,-2]],[[644,5888],[-15,-52],[10,-31],[-23,-1],[-13,-28],[19,-39],[20,-5],[23,6],[14,15],[1,29],[21,18],[-15,31],[-3,57]],[[683,5888],[25,-3],[51,-27]],[[759,5858],[22,-178],[0,-47],[-16,-71]],[[514,5563],[-11,35],[0,26],[16,61],[-4,205]],[[205,6213],[229,5]],[[434,6218],[0,-55],[4,-28]],[[438,6135],[6,-21],[40,-82]],[[484,6032],[14,-27]],[[498,6005],[-27,-4],[-22,7],[-27,28],[-20,13],[-47,4]],[[355,6053],[-32,5],[-35,23],[-50,2],[-15,8],[-17,29],[-1,93]],[[438,6135],[78,0],[68,16]],[[584,6151],[21,-29],[29,-14]],[[634,6108],[0,-44],[-35,-16],[-32,3],[-14,-27],[-21,5],[-22,-5],[-26,8]],[[2038,6885],[23,62],[13,50],[-8,56],[0,38],[19,29],[34,3],[24,15],[5,17],[1,49]],[[2149,7204],[165,-1]],[[2313,7096],[1,-104],[-4,-56],[13,-55]],[[1341,6397],[34,14],[193,15],[23,4]],[[1591,6430],[4,-24],[-7,-39],[-9,-14],[-4,-36],[17,-12],[18,-28],[5,-60]],[[1615,6217],[-41,0]],[[1574,6217],[-22,1],[-22,14],[-22,22],[-17,5]],[[1491,6259],[-46,25],[-87,87],[-17,26]],[[2369,7680],[42,-17],[26,5],[39,21],[19,5],[150,0]],[[2645,7694],[0,-160]],[[2367,7530],[-105,-1]],[[2082,7204],[58,105]],[[2149,7204],[-67,0]],[[3141,8183],[103,-1]],[[3244,8182],[195,-1],[28,10]],[[3467,8191],[66,-132],[106,-1]],[[3639,8058],[-1,-158],[2,-27]],[[3640,7873],[-18,-17]],[[3622,7856],[-259,0]],[[3363,7856],[-131,0]],[[3232,7856],[0,33],[-18,39],[-26,23],[-9,22],[-28,17],[-9,13],[-1,54]],[[3141,8057],[0,126]],[[3206,8506],[0,-61],[57,0],[23,-31],[1,-34],[-39,-30],[-4,-13],[0,-155]],[[3141,8183],[-167,1]],[[2974,8184],[3,86],[-1,110],[1,132],[155,-1],[74,-5]],[[2644,8354],[25,1],[20,17],[15,-2],[25,-21],[1,-27],[37,-1]],[[2767,8321],[-72,-135]],[[2695,8186],[-54,0]],[[2641,8186],[2,17],[1,151]],[[3035,7345],[45,-14],[38,1],[66,-21],[31,4],[41,26],[27,-6],[24,-19],[27,-7],[48,16],[29,-12]],[[3421,7204],[-206,2],[-44,-7],[-30,1],[-56,24],[-31,3],[-40,-16],[-53,-6]],[[2961,7205],[7,47],[29,33],[38,60]],[[105,6215],[-3,-14],[1,-252],[-15,-29],[-42,-23],[-25,-1]],[[21,5896],[-3,321]],[[1007,5253],[8,-6],[147,0]],[[1162,5247],[3,-173]],[[1029,5074],[-3,49],[-14,19],[17,19],[-3,20],[-21,4],[-2,32],[-12,16],[16,20]],[[673,5118],[33,-33],[6,-12]],[[842,4748],[0,-80]],[[842,4668],[-77,-2]],[[765,4666],[-33,7],[-30,15],[-38,37],[-18,24],[-57,-1]],[[589,4748],[7,130],[5,44]],[[1495,5166],[1,-94]],[[1496,5072],[-331,2]],[[1162,5247],[-1,112],[-6,40]],[[1007,5253],[-16,18]],[[991,5271],[7,21],[-18,47],[-30,38],[-2,22]],[[2072,5683],[0,206]],[[2072,5889],[77,0]],[[2149,5889],[-2,-60],[2,-104],[4,-22],[1,-142]],[[2154,5561],[-83,0]],[[2071,5561],[1,122]],[[2326,6463],[-1,-61],[-7,-33],[7,-42],[-3,-109]],[[2322,6218],[-194,1]],[[2128,6219],[0,32],[35,3],[10,11],[-5,28],[0,80],[10,23],[18,5],[14,62]],[[2814,5606],[0,70],[10,58]],[[2824,5734],[97,0],[-2,-42],[16,-8],[41,-2]],[[2976,5682],[2,-121]],[[2978,5561],[-100,-1],[-60,-5]],[[2818,5555],[-4,0]],[[2814,5555],[0,51]],[[2976,5682],[4,12]],[[2980,5694],[36,0],[45,5],[16,-7],[35,0],[32,-7],[-2,-85],[-21,-24],[-2,-19]],[[3119,5557],[-70,4],[-71,0]],[[2985,6052],[163,0]],[[3148,6052],[-2,-167]],[[3146,5885],[-164,0]],[[2982,5885],[3,167]],[[3139,3603],[0,-42],[0,-288],[0,-326]],[[3139,2947],[-332,2]],[[6769,5549],[163,-1]],[[6932,5548],[247,-1]],[[7179,5547],[-2,-262],[-4,-18],[-18,-31],[-62,-54],[-3,-288],[-1,-328],[331,0],[328,1]],[[7748,4567],[332,-3],[329,-2],[0,307],[-17,48],[8,35]],[[8400,4952],[10,20],[1,511],[1,63]],[[8412,5546],[322,-2],[6,-11],[0,-480],[-1,-590],[0,-555],[-1,-327]],[[8738,3581],[-3,-1],[-981,5],[-331,0],[-328,2],[-327,2]],[[8738,3581],[-1,-327],[2,-329],[0,-323],[1,-387],[-1,-176],[-2,-13],[-2,-236],[1,-162],[-18,-11],[-46,0],[-31,10],[-181,0],[-379,3],[-638,-1],[-645,0],[-32,2]],[[6766,1631],[-2,5],[0,973],[2,239],[0,415],[2,326]],[[3256,8914],[24,-4],[87,2],[41,-3],[29,20],[38,9],[4,89],[-12,48],[7,27],[49,22],[22,22],[16,6],[80,0]],[[3638,8827],[-74,-2],[-302,0]],[[3262,8825],[-7,44],[1,45]],[[4995,8183],[-8,-58],[-14,-47],[-58,-106],[-28,-26]],[[4887,7946],[-70,-18],[-54,-33],[-45,-38],[-17,22],[-20,50],[-4,36],[5,21],[17,32],[3,37],[-25,-2]],[[4677,8053],[19,13],[-11,36]],[[3102,9781],[42,42],[46,94],[14,48],[14,82],[53,82],[283,2]],[[3461,9641],[-26,-63],[-15,-60],[-13,-41]],[[3407,9477],[-33,3],[-120,0],[-26,-2]],[[3150,9714],[-48,67]],[[2976,9480],[0,-164]],[[2976,9316],[-121,0],[-55,-6],[-95,-21],[-26,-3]],[[2443,9420],[17,2],[46,-21],[59,0],[52,18],[74,48],[122,34],[48,24],[37,41],[41,61],[39,42],[124,112]],[[2137,8041],[86,101],[29,44],[176,-1]],[[2428,8185],[133,-1],[80,2]],[[2695,8186],[-16,-29],[-37,-49]],[[2642,8108],[-51,-59]],[[2591,8049],[-29,2],[-3,-39],[-9,-30],[-33,-5],[-18,15],[-7,29],[-20,0],[-44,14],[-9,-23],[-28,10],[-53,0],[-42,30],[-39,0],[-24,12],[-30,-35]],[[2203,8029],[-35,12],[-31,0]],[[3141,8057],[-11,-19],[-21,-9],[-51,-9],[-83,1]],[[2975,8021],[-1,163]],[[8412,6235],[74,-5],[99,-30],[157,-143],[182,-89],[149,-75],[42,-31],[124,-100],[99,-69],[60,-24],[37,-10],[172,-83],[43,-37],[73,-47],[-1,-449],[-6,-332],[-1,-188],[3,-135],[7,-163],[-8,-327],[1,-169],[5,-153],[-165,0],[-165,-1],[-327,4],[-328,2]],[[8412,5546],[2,326],[-2,363]],[[644,5888],[39,0]],[[2489,4584],[57,-1],[31,-30],[5,-44],[54,1],[32,-8],[31,12]],[[2699,4514],[12,-35],[0,-58]],[[2711,4421],[-121,0]],[[2590,4421],[-101,1]],[[2128,6219],[-138,-1]],[[1663,7824],[1,260]],[[1664,8084],[90,32],[23,12],[24,27],[-36,72],[-10,34],[13,35],[34,10],[41,-5],[66,16],[16,7],[39,50],[21,38],[32,99],[39,98],[8,15],[75,116],[16,44],[-11,43]],[[2375,8469],[-24,-60]],[[2438,8300],[0,-79],[-10,-36]],[[2137,8041],[-74,-85],[-52,-46],[-44,-33]],[[1660,7536],[-1,-329]],[[1543,7207],[-122,4]],[[2558,4789],[114,0],[12,4]],[[2684,4793],[17,-40],[-7,-16],[-28,-18],[-2,-10],[0,-87],[-33,-10]],[[2631,4612],[-34,43],[-39,78],[0,56]],[[1822,5888],[168,1]],[[1990,5889],[-1,-107]],[[1989,5782],[-61,-2],[-1,-42],[-12,-14],[-93,0]],[[3148,6052],[12,16],[2,43],[50,0],[0,-35],[68,1],[0,35],[24,0]],[[3304,6112],[9,-35],[-1,-123],[-3,-18],[-22,-48]],[[3287,5888],[-141,-3]],[[3334,9317],[56,0],[103,-7],[148,0]],[[3256,8914],[6,47],[22,72],[22,50],[1,18],[0,165],[27,51]],[[3642,9805],[-1,-495]],[[3334,9317],[19,32],[34,41],[5,42],[15,45]],[[4219,9436],[42,0],[0,-78],[4,-30]],[[4265,9328],[-46,-14]],[[4669,8514],[132,1]],[[4801,8348],[-100,0]],[[4701,8348],[1,34],[-22,47],[-11,85]],[[5224,8625],[-1,-23],[-13,-93],[-28,-136],[-10,-102]],[[5172,8271],[-37,3],[-14,10],[-33,7],[-42,-9],[-42,-15]],[[5004,8267],[9,81]],[[4887,7946],[0,-25],[-85,-157],[-47,-83],[-52,18],[-7,-9]],[[4696,7690],[-26,56],[-41,45],[-208,164]],[[4421,7955],[12,39],[97,44],[147,15]],[[4744,7350],[15,-72],[26,-75],[9,-45],[2,-39],[0,-245]],[[4402,6877],[37,238],[14,45],[15,27],[28,31],[53,34],[195,98]],[[4294,8474],[22,5],[45,25],[31,3]],[[4392,8507],[-1,-63],[1,-80]],[[4392,8364],[2,-100],[-1,-82],[191,3]],[[4584,8185],[31,0],[41,9]],[[4421,7955],[-120,92]],[[4301,8047],[3,17],[-26,84],[-9,74],[15,62],[2,64],[11,63],[-3,63]],[[1329,6437],[40,5],[27,19],[95,2],[33,17],[18,18],[76,107],[34,27],[48,16],[68,8],[55,0]],[[1823,6656],[-3,-137]],[[1820,6519],[-42,-1],[-18,-6],[-49,-41],[-120,-41]],[[1341,6397],[-12,40]],[[3803,9722],[0,-81]],[[4392,8364],[51,-6],[66,2],[41,-11],[24,0],[-2,-78],[11,-32],[1,-54]],[[1574,6217],[0,-164]],[[1574,6053],[-1,-164],[-18,-3]],[[1490,5884],[0,49],[-11,23],[0,95],[11,27],[1,181]],[[1740,6053],[83,0]],[[1823,6053],[-1,-165]],[[1655,5889],[1,26],[25,39],[19,9],[37,0],[3,90]],[[899,5771],[21,-15],[28,-10],[61,-10],[13,10],[26,4],[47,20],[40,3],[28,9],[1,109]],[[1164,5891],[48,0],[39,-12],[27,5],[8,12]],[[1286,5896],[40,-6]],[[759,5858],[47,-24],[25,-20],[28,-30],[40,-13]],[[1418,7211],[-40,-37],[-49,-34]],[[1163,7059],[1,150],[166,3]],[[3368,6054],[4,0]],[[3372,6054],[199,1],[21,-13]],[[3592,6042],[-30,-33],[-42,-80],[-22,-19],[-23,-9],[-53,-10],[-128,-3]],[[3294,5888],[74,166]],[[3304,6112],[-14,45],[3,21],[41,122]],[[3334,6300],[14,-3],[83,0],[25,-8]],[[3456,6289],[-34,-79],[-54,-156]],[[3294,5888],[-7,0]],[[2203,8029],[6,-9],[22,-79],[4,-83]],[[5172,8271],[-1,-15],[13,-72],[83,-329],[20,-92],[-6,-31],[-33,-35],[-136,-211],[-47,-93],[-32,-97],[-17,-97],[-2,-71],[29,-114],[30,-84],[31,-55]],[[4744,7350],[-32,180],[-10,65],[0,55],[-6,40]],[[7269,6036],[290,0]],[[7492,5874],[-203,0]],[[1659,7207],[108,-1]],[[1767,7206],[215,-2],[100,0]],[[2082,7204],[-18,-25],[-84,-98],[-53,-55],[-161,-140]],[[1766,6886],[-21,-5]],[[4676,8248],[2,40],[23,60]],[[1822,5724],[0,-86]],[[1822,5638],[-56,1],[-32,22],[-20,8],[-70,2],[-3,28],[-15,38]],[[3638,8384],[23,-9],[41,-27],[60,-65],[50,-35],[93,-44],[50,-16]],[[3955,8188],[-5,-21],[2,-33],[13,-29],[22,-30],[8,-21],[0,-32],[12,-22],[9,-67],[28,-43],[0,-16],[-59,-61],[-8,-15],[-2,-75],[-17,-11]],[[3958,7712],[-33,-7],[-45,-23],[-46,-10],[-38,-31],[-125,-17],[-33,-22]],[[3638,7602],[2,271]],[[3639,8058],[-1,149]],[[3638,8207],[0,139],[7,25],[-7,13]],[[1985,7532],[110,-1],[69,-3]],[[2153,7378],[-35,22],[-51,5],[-28,13],[-9,-40],[-47,0]],[[3635,7204],[1,-326]],[[3636,6878],[-257,-1]],[[3379,6877],[42,63],[14,60],[-1,53],[11,65],[-2,37],[-22,49]],[[4571,9557],[-62,0]],[[4509,9557],[-41,1]],[[4592,9435],[-83,1]],[[4509,9436],[0,121]],[[2645,7534],[51,0],[32,-3],[164,-1],[135,1]],[[3027,7531],[11,-90]],[[3038,7441],[4,-72],[-7,-24]],[[3035,7345],[-40,17],[-88,0],[-37,6],[-68,0],[-22,-6],[-134,0]],[[498,6005],[16,-53],[1,-62]],[[335,5564],[-25,103],[-6,42],[1,43],[-5,61],[-11,33],[4,15],[38,39],[19,34],[11,31],[-6,38],[0,50]],[[1994,6652],[-39,-17],[-54,-2],[-23,7]],[[1878,6640],[2,8],[2,82],[24,44],[11,6],[56,-1],[9,-9],[1,-43],[13,-3]],[[1767,7206],[-10,83],[1,145],[5,53],[9,47]],[[3635,7204],[342,-2],[219,1],[34,11]],[[4230,7214],[50,-85],[29,-73],[67,-179]],[[4376,6877],[-226,1],[-173,-1],[-328,2],[-13,-1]],[[1766,6886],[62,0]],[[1828,6886],[-5,-230]],[[1329,6437],[1,67]],[[2644,8510],[0,-156]],[[2645,7694],[0,160]],[[2976,7857],[1,-225],[9,-26],[30,-34],[11,-41]],[[2591,8049],[-28,-56],[-12,-49],[1,-90],[-5,-30],[-20,-43],[-16,-18],[-31,-23],[-111,-60]],[[1326,5890],[1,334],[2,167],[12,6]],[[4384,9558],[1,-122],[21,0]],[[4406,9436],[-2,-51],[-37,-26],[-23,-10],[-42,-9]],[[4302,9340],[0,213]],[[1823,6053],[0,164]],[[1990,6218],[0,-329]],[[4509,9436],[-103,0]],[[7269,6036],[7,21],[61,33],[20,30],[1,81]],[[3206,8506],[99,5]],[[3305,8511],[11,-18],[35,-30],[0,-22],[55,-81],[37,-83],[16,-64],[8,-22]],[[4265,9328],[37,12]],[[4302,9340],[0,-26],[210,-2]],[[4632,9111],[-86,2],[-79,-1],[-153,2]],[[3958,7712],[21,-11],[28,-34],[66,-43],[27,-39],[25,-91],[29,-77],[23,-53],[37,-115],[16,-35]],[[3634,7534],[-7,26],[11,42]],[[647,7430],[16,-113],[7,-292]],[[670,7025],[1,-156]],[[405,6817],[-58,17],[-345,106]],[[2,6940],[1,285],[37,26],[26,10],[103,3],[86,-7],[156,46],[103,66],[66,36],[67,25]],[[1115,6382],[-114,-99]],[[1001,6283],[-149,-132]],[[852,6151],[-77,-68],[-17,-18]],[[758,6065],[5,64],[-6,76]],[[757,6205],[-16,62],[-33,83]],[[708,6350],[66,17],[72,9]],[[1115,6382],[49,1],[0,-237]],[[1164,6146],[-46,2],[-28,26],[-41,12],[-26,16],[-23,3]],[[1000,6205],[1,78]],[[634,6108],[47,-9],[14,-18],[0,-23],[-10,-26],[69,-20]],[[754,6012],[-3,-90],[8,-64]],[[647,7430],[59,27],[18,16],[19,55],[16,23],[37,19],[84,6],[52,6],[66,17],[115,39],[141,41],[24,19],[40,62],[13,13],[140,110],[72,100],[66,64],[55,37]],[[1163,7059],[-56,-10],[-67,-19],[-29,-13]],[[1011,7017],[-27,-10],[-69,-43],[-73,-53]],[[842,6911],[-15,53],[1,19],[31,36],[15,31],[-3,23],[-16,22],[-28,-28],[-50,-34],[-20,-2],[-27,20],[-18,0],[-42,-26]],[[2920,8825],[75,0]],[[2995,8825],[-7,-69]],[[2988,8756],[-23,-71],[-97,-177],[-101,-187]],[[4293,8987],[21,58],[1,43]],[[4315,9088],[-1,23]],[[4673,8905],[-41,-11],[-96,14],[-72,-7],[-35,2],[-94,10],[-47,29]],[[4288,8942],[5,45]],[[4052,8986],[85,2],[17,-8],[22,-21],[38,-11],[52,-1],[22,-5]],[[4288,8942],[-12,-45],[-43,-111],[-14,-57],[4,-19],[42,-44]],[[4265,8666],[16,-32],[11,-83],[-1,-46],[3,-31]],[[4301,8047],[-56,46],[-25,16],[-92,41],[-86,21],[-87,17]],[[3638,8384],[0,127],[-2,301],[2,15]],[[3638,8207],[-29,-5],[-117,-1],[-25,-10]],[[3305,8511],[-41,76],[-12,17]],[[3252,8604],[16,22],[8,80],[-1,36],[-13,83]],[[3522,7721],[23,33],[36,43],[41,59]],[[3441,7528],[-10,48],[9,39],[53,64],[29,42]],[[4378,6877],[-2,0]],[[3238,7705],[36,-7],[37,-22],[27,-7],[29,9],[41,31],[9,33]],[[3417,7742],[45,6],[33,-11],[27,-16]],[[3441,7528],[-142,3],[-74,0]],[[3225,7531],[-10,36],[10,20],[0,66],[11,22],[2,30]],[[2037,6883],[-8,3],[-201,0]],[[17,6702],[0,178],[-17,0],[2,60]],[[2649,7205],[4,-246],[-1,-80]],[[2652,6879],[-194,1],[-135,1]],[[2652,6879],[168,0]],[[2820,6879],[0,-47],[10,0],[56,21],[9,-3],[7,-30],[-1,-30],[-18,0],[-7,-29],[5,-38],[-10,-18],[-28,0],[0,20],[-22,-6],[1,-172]],[[2822,6547],[-30,-2],[0,-30],[30,0],[-1,-57],[-39,-28]],[[2782,6430],[-28,94],[-20,28],[-20,12],[-57,9]],[[2657,6573],[-2,220],[-3,86]],[[2820,6879],[155,1],[390,-2],[14,-1]],[[5781,6275],[-3,-391],[4,-336]],[[4631,5559],[-220,2],[-33,-3],[-143,1],[-120,10],[-167,0],[-63,-6],[-114,1],[-298,-2],[-212,-7],[-107,2]],[[3154,5557],[22,48],[36,45],[10,22],[0,23],[-12,53],[10,43],[32,27],[12,17],[23,53]],[[3592,6042],[44,13],[338,-5],[2,271]],[[3976,6321],[1,57],[-106,-1],[-62,5],[-238,-2],[-43,21],[-20,17]],[[3508,6418],[-87,47],[-62,-1]],[[3359,6464],[-39,0],[-3,25],[-118,-1],[-51,13],[-25,35],[-27,4]],[[3096,6540],[-155,6],[-58,-5],[-61,6]],[[1878,6640],[-34,14],[-21,2]],[[2657,6573],[-4,-30],[-31,-32],[-13,-24]],[[2609,6487],[-12,1],[-16,19],[-34,6],[1,28],[-14,42],[-1,23],[-73,1],[-26,28],[-46,-27],[-37,-15],[-26,-5]],[[435,6464],[-26,-9],[-16,3],[-10,-16],[-56,-36],[-58,-18]],[[1286,5896],[-44,26],[-83,80]],[[1159,6002],[5,34],[0,110]],[[2649,7205],[312,0]],[[3096,6540],[-25,-39],[-38,-30],[-15,-23],[-5,-30],[11,-36],[-10,-46],[-5,-56],[-20,-33]],[[2989,6247],[-64,-4],[-59,-12],[-45,-15]],[[2821,6216],[0,165],[-13,20],[-18,0],[-8,29]],[[434,6259],[0,-41]],[[205,6213],[-16,65]],[[852,6151],[73,-43],[37,-29],[39,-20]],[[1001,6059],[45,-18],[36,-10]],[[1082,6031],[0,-110]],[[1082,5921],[-35,6],[-47,0],[-23,6],[-20,15]],[[957,5948],[-51,35],[-36,2],[-38,12],[-78,15]],[[754,6012],[4,53]],[[957,5948],[-35,-76],[-4,-21],[7,-29],[-8,-34],[-18,-17]],[[7765,5790],[60,-2],[0,200],[21,0],[-2,159],[1,51],[-4,24]],[[7841,6222],[138,9],[52,7],[23,16],[86,44],[36,9],[32,-4],[204,-68]],[[8412,5546],[-554,2]],[[7858,5548],[-28,46],[-17,6]],[[7813,5600],[-8,45],[-38,83]],[[2711,4421],[115,-1],[43,2],[21,8],[27,21],[89,102],[26,17],[25,7],[86,1]],[[3143,4578],[-1,-240]],[[3141,4140],[-36,-1],[-12,-22],[-15,2],[-49,-11],[-13,2],[-19,-25],[-66,-42],[-41,-1],[-17,-23],[-22,-1],[-23,-12],[-15,-16]],[[2813,3990],[-29,62],[-44,63],[-15,28],[-32,95],[-37,93]],[[2656,4331],[-9,18],[-49,52],[-8,20]],[[3138,3821],[0,26]],[[3138,3847],[165,-1],[1,69],[11,14],[156,-1]],[[3471,3928],[503,-3],[52,0],[-58,-186],[-1,-141],[166,-1]],[[4133,3597],[0,-327],[-163,0],[-500,1],[2,-326],[-333,2]],[[2988,8756],[231,-123],[33,-29]],[[2974,8184],[-158,0],[-49,2]],[[2767,8186],[-72,0]],[[3456,6289],[51,-17],[53,16],[76,1],[44,9],[20,-2],[20,-14],[26,-56]],[[3746,6226],[-323,-134],[-35,-21],[-16,-17]],[[715,5234],[54,-3],[33,18],[48,14],[24,14],[3,-32],[52,3],[39,24],[23,-1]],[[7289,5874],[3,-152],[13,-93],[1,-82]],[[7306,5547],[-127,0]],[[6932,5548],[-8,326]],[[3119,5557],[35,0]],[[4791,3595],[-327,0],[-223,2],[-108,0]],[[3471,3928],[1,264]],[[3143,4578],[2,331],[-2,326],[-325,0]],[[2818,5235],[0,320]],[[3138,3847],[3,176]],[[2230,5236],[261,1]],[[2491,5237],[-1,-151]],[[2490,5086],[-35,10],[-49,6],[-7,8],[-73,20],[-62,21],[-33,4]],[[2231,5155],[-1,81]],[[2752,4],[-90,0]],[[2662,4],[-63,241],[-12,1],[0,-81],[-163,-1],[-1,-81],[-139,2],[0,12],[-108,4],[-1,26],[-123,1],[1,82],[-42,0],[0,21],[-21,0],[0,20],[-59,-4],[-1,89],[-59,0],[1,-85],[-110,-1],[2,-245]],[[1764,5],[-64,1],[-140,6],[-88,-3],[-92,3],[-149,0],[-176,5],[-148,-3],[-125,5],[2,162],[-1,978],[1,165],[-1,164],[2,156],[50,0]],[[3417,7742],[-37,5],[-22,29],[-3,43],[8,37]],[[2976,9316],[144,1],[214,0]],[[3262,8825],[-261,0]],[[3001,8825],[15,196],[13,70],[8,29],[-61,-3],[0,199]],[[2322,6218],[166,-1]],[[2488,6217],[0,-135]],[[2488,6082],[-1,-190]],[[2487,5892],[-74,-2],[-92,-1]],[[2321,5889],[1,329]],[[186,5564],[-164,0],[-1,332]],[[2149,5889],[172,0]],[[2487,5892],[0,-164]],[[2487,5728],[1,-168]],[[2488,5560],[-334,1]],[[4791,3595],[1,-411],[-4,-249],[-3,-320],[1,-172],[0,-281],[11,-9],[2,-193],[1,-325]],[[4800,1635],[-76,-1]],[[1216,3766],[21,52],[12,58],[0,54]],[[1249,3930],[165,0]],[[1414,3930],[182,0],[65,-17]],[[1661,3913],[-1,-143]],[[1660,3770],[-126,0],[-87,-4],[-231,0]],[[183,4086],[82,7],[233,-1],[201,19]],[[699,4111],[12,-36],[0,-32],[7,-31],[0,-34],[-25,-30],[23,-17],[286,0]],[[1002,3931],[247,-1]],[[1216,3766],[-72,-161]],[[840,3604],[-166,0],[-494,-3],[3,485]],[[699,4111],[209,20],[25,0],[69,-9]],[[1002,4122],[0,-191]],[[3359,6464],[0,-75],[-6,-31],[-19,-58]],[[3334,6300],[-70,26],[-28,18],[-27,6],[-53,-10],[-17,-10],[-32,-37],[-46,-46],[-72,0]],[[589,4748],[-89,-1],[-314,0]],[[186,4747],[-1,149]],[[1082,6031],[55,-13],[22,-16]],[[1164,5891],[-46,24],[-36,6]],[[1255,4418],[7,115],[-5,51]],[[1257,4584],[164,-1],[17,-11],[44,21]],[[1482,4593],[21,-10],[489,0]],[[1992,4583],[0,-326]],[[1992,4257],[-163,0],[0,-81],[-165,0]],[[1664,4176],[-248,-1]],[[1416,4175],[-132,-1],[-32,5]],[[1252,4179],[1,157],[2,82]],[[1992,4583],[1,326]],[[1993,4909],[165,0]],[[2158,4909],[330,3]],[[2488,4912],[1,-79]],[[2489,4833],[-43,-1],[-36,10],[-37,-5],[0,-38],[-21,0],[4,-23],[21,-30],[12,-27],[-17,-9],[14,-26],[-14,-56],[-2,-44]],[[2488,4912],[198,0]],[[2686,4912],[9,-13],[-5,-26],[-23,-21],[4,-32],[13,-27]],[[2558,4789],[-23,12],[-46,-2]],[[2489,4799],[0,34]],[[2503,4183],[27,-4],[31,17],[1,33],[-11,29],[-4,36],[50,20],[59,17]],[[2813,3990],[4,-19],[-1,-66],[-10,-54]],[[1823,6217],[-208,0]],[[1989,5782],[0,-93]],[[1989,5689],[-55,0],[-22,-5],[-68,-42],[-22,-4]],[[1822,5638],[0,-76]],[[1989,5689],[-1,-128]],[[1988,5561],[-166,1]],[[1988,5561],[83,0]],[[2154,5561],[1,-128]],[[2155,5433],[-104,0],[-18,-6],[-30,-23],[-55,-30]],[[1948,5374],[-22,38],[-9,-3],[-94,-1]],[[2609,6487],[-17,-53],[-17,-21],[-62,-28],[-23,-32]],[[2490,6353],[-42,18],[-24,19],[-17,27],[-17,3],[-11,21],[-53,22]],[[2490,6353],[-3,-17],[1,-119]],[[2821,6216],[-333,1]],[[5774,6801],[14,0],[164,-50],[159,24],[233,102],[37,53],[41,40],[47,30],[56,7],[53,-14],[40,-26],[48,-41],[69,-48],[39,-23],[82,-18],[52,-7],[72,-1],[41,3],[99,18],[87,3],[47,-5],[22,-7],[43,-23],[27,-23],[23,-32],[67,-71],[99,-151],[-1,-11]],[[6925,6201],[1,-167]],[[2491,5237],[327,-2]],[[2818,5235],[1,-323],[-133,0]],[[2488,4912],[2,174]],[[2157,5062],[18,-15],[22,-34],[20,-10],[72,0],[-5,27],[-28,23],[-5,12],[-1,55],[-19,35]],[[2158,4909],[-1,153]],[[7754,5384],[1,42],[7,44],[37,77],[14,53]],[[7858,5548],[120,-161],[22,-28],[81,-81],[319,-326]],[[7748,4567],[2,325],[0,182],[4,310]],[[842,4668],[6,-36],[20,-23],[98,-66],[26,-27],[23,-13],[73,0],[30,-4],[40,-17],[49,-35],[22,-24],[26,-5]],[[1252,4179],[0,-19]],[[1252,4160],[-15,14],[-193,158],[-21,16],[-38,19],[-68,18],[-25,12],[-29,34],[-25,80],[-66,119],[-7,36]],[[1171,4748],[108,-1],[-16,-37],[-11,-63],[5,-63]],[[4633,8675],[1,-73],[3,-15],[32,-73]],[[4669,8514],[-24,-2],[-253,-5]],[[4265,8666],[8,4],[84,6],[20,-6],[37,-30],[42,5],[105,4],[40,26],[32,0]],[[7601,5633],[-80,-31]],[[7521,5602],[-32,-16],[-31,-27],[-34,-11],[-118,-1]],[[7754,5384],[-119,0],[0,35],[-6,25],[7,48],[-7,37],[-36,-6],[-45,20],[-27,59]],[[2985,6052],[1,77],[-3,17],[0,72],[6,29]],[[2985,6052],[-124,0],[-35,2]],[[2826,6054],[-7,43]],[[2819,6097],[2,119]],[[1011,7017],[37,-97],[-10,-40]],[[1825,5237],[1,-184]],[[1826,5053],[-92,-28]],[[1734,5025],[-22,26],[-47,4],[-38,-1],[-35,10],[-3,21],[-1,98],[3,7]],[[1496,5072],[2,-120]],[[1498,4952],[-38,-26],[-81,-73],[-35,45],[-1,23],[-53,0],[-26,31],[-51,7],[-26,16],[-22,2]],[[2156,5326],[183,140],[15,10],[39,9],[96,0]],[[2489,5485],[2,-248]],[[2230,5236],[-74,0]],[[2156,5236],[0,90]],[[2824,5889],[71,-4],[87,0]],[[2982,5885],[-6,-54],[0,-54],[5,-26],[-1,-57]],[[2824,5734],[0,115]],[[2824,5849],[0,40]],[[3232,7856],[-21,0]],[[3211,7856],[-235,1]],[[2488,6082],[14,0],[26,-18],[79,-1]],[[2607,6063],[4,-35],[-9,-13],[28,-28],[6,-22],[-21,-2],[-17,-16],[-1,-24],[15,-19],[24,-15]],[[2636,5889],[-149,3]],[[1740,6053],[-166,0]],[[3038,7441],[80,1],[50,-22],[22,-3],[43,12],[15,9],[-2,18],[14,23],[-8,36],[-27,16]],[[3211,7856],[-9,-22],[-27,-12],[-21,-35],[4,-18],[20,-28],[2,-15],[24,-1],[34,-20]],[[3225,7531],[-198,0]],[[1000,6205],[1,-146]],[[2767,8186],[2,-166]],[[2641,8040],[1,68]],[[2631,4612],[40,-47],[28,-51]],[[2489,4584],[0,215]],[[1482,4593],[19,37],[0,116],[-3,206]],[[1498,4952],[41,15],[195,58]],[[1826,5053],[37,20],[15,34],[15,17],[56,43]],[[1949,5167],[22,-18],[9,-17],[0,-138],[-14,-29],[25,-6],[2,-50]],[[1252,4153],[0,7]],[[1416,4175],[-2,-245]],[[1249,3930],[3,223]],[[7757,6233],[48,-14],[36,3]],[[4293,8987],[-36,0],[-11,26],[-11,46],[-19,26],[17,21],[39,0],[43,-18]],[[1660,3770],[165,0],[-2,-165]],[[587,6219],[131,-1],[39,-13]],[[584,6151],[-5,30],[8,38]],[[434,6218],[153,1]],[[1948,5374],[-34,-38],[-5,-14],[3,-58],[23,-24],[0,-52],[14,-21]],[[2488,5560],[1,-75]],[[2156,5326],[-1,107]],[[1990,3864],[-274,36],[-55,13]],[[1661,3913],[3,263]],[[4715,8906],[-42,-1]],[[2819,6097],[-22,-12],[-56,-3],[-35,-19],[-99,0]],[[3456,6289],[40,94],[12,35]],[[3976,6321],[-230,-95]],[[2826,6054],[-2,-165]],[[2824,5889],[-188,0]],[[2824,5849],[-43,-1],[-95,-65],[-57,-47],[-12,-4]],[[2617,5732],[-31,-5],[-99,1]],[[1990,5889],[82,0]],[[2072,5683],[-36,0],[-47,6]],[[4591,9312],[1,123]],[[2617,5732],[15,-43],[34,-14],[25,9],[22,-10],[20,4],[26,15],[8,-14],[-10,-20],[4,-50],[53,-3]],[[2814,5555],[-47,-2],[-199,0],[-80,7]],[[3934,9966],[119,-1]],[[6766,1631],[-84,-3]],[[6682,1628],[-248,0],[-128,3],[-48,-3],[-482,3],[-82,-1],[-655,3],[-239,2]],[[5119,2940],[410,-2],[-2,325],[-232,1],[-82,48],[40,-48],[-132,1],[-2,-325]],[[1252,4153],[-24,20],[-139,-1],[-27,-8],[-47,-37],[-13,-5]],[[183,4086],[0,50],[1,299],[2,149],[0,163]],[[4673,8905],[-11,-35],[-23,-27],[-7,-19],[1,-149]],[[2662,4],[-240,0],[-357,3],[-194,1],[-33,-4],[-74,1]],[[6682,1628],[0,-326],[-1,-181],[4,-72],[-44,-5],[-22,13],[-31,-55],[-139,-70],[-43,-17],[-35,-5],[-115,30],[-22,-5],[-31,-37],[-48,-72],[-21,-17],[-35,1],[-25,35],[2,16],[18,36],[-18,60],[-10,23],[-41,19],[-48,9],[-35,-26],[-142,1],[-52,54],[-52,24],[-38,12],[-49,4],[-223,-29],[-33,-22],[-43,-16],[-36,-2],[-31,11],[-92,-6],[-48,-20],[-30,-2],[-29,13],[-57,13],[-8,32],[-23,10],[-5,-22],[-23,-19],[-41,-18],[-20,-1],[-40,-22],[-30,-1],[-47,8],[-26,19]],[[3001,8825],[-6,0]],[[1949,5167],[207,159]],[[2156,5236],[1,-174]],[[3932,10129],[120,-1]]],"transform":{"scale":[0.00006148010282776315,0.00004427950249730732],"translate":[-93.329784,44.471149]},"objects":{"Geometry\\27-037":{"type":"GeometryCollection","geometries":[{"arcs":[[0,1,2,3,4,5,6,7]],"type":"Polygon","properties":{"GEOID":"270370609021"}},{"arcs":[[8,9,10,-6]],"type":"Polygon","properties":{"GEOID":"270370609043"}},{"arcs":[[11,12,13,14,-7,15,16,17,18,19]],"type":"Polygon","properties":{"GEOID":"270370615011"}},{"arcs":[[20,21,22,23,24,25,26]],"type":"Polygon","properties":{"GEOID":"270370607354"}},{"arcs":[[27,28,29,30,31]],"type":"Polygon","properties":{"GEOID":"270370604012"}},{"arcs":[[32,33,34,35,36]],"type":"Polygon","properties":{"GEOID":"270370607271"}},{"arcs":[[37,38,39,40]],"type":"Polygon","properties":{"GEOID":"270370611061"}},{"arcs":[[41,42,43,44,45]],"type":"Polygon","properties":{"GEOID":"270370603013"}},{"arcs":[[46,47,48,49,50,51,52]],"type":"Polygon","properties":{"GEOID":"270370607211"}},{"arcs":[[53,54,55,56]],"type":"Polygon","properties":{"GEOID":"270370604023"}},{"arcs":[[57,58,59,60,61,62]],"type":"Polygon","properties":{"GEOID":"270370606051"}},{"arcs":[[63,64,65,66]],"type":"Polygon","properties":{"GEOID":"270370601042"}},{"arcs":[[67,68,69,70,-65,71]],"type":"Polygon","properties":{"GEOID":"270370601051"}},{"arcs":[[72,73,74,75,76]],"type":"Polygon","properties":{"GEOID":"270370607471"}},{"arcs":[[77,78,79,80]],"type":"Polygon","properties":{"GEOID":"270370607451"}},{"arcs":[[81,82,83,-49]],"type":"Polygon","properties":{"GEOID":"270370607501"}},{"arcs":[[84,85,86,87,88]],"type":"Polygon","properties":{"GEOID":"270370608192"}},{"arcs":[[89,90,-3,91]],"type":"Polygon","properties":{"GEOID":"270370609061"}},{"arcs":[[92,93,94,95]],"type":"Polygon","properties":{"GEOID":"270370601013"}},{"arcs":[[96,97,98,99,100]],"type":"Polygon","properties":{"GEOID":"270370601041"}},{"arcs":[[101,102,103,104]],"type":"Polygon","properties":{"GEOID":"270370609051"}},{"arcs":[[105,106,107,108,109]],"type":"Polygon","properties":{"GEOID":"270370602012"}},{"arcs":[[-10,110,111,112]],"type":"Polygon","properties":{"GEOID":"270370609042"}},{"arcs":[[113,114,115]],"type":"Polygon","properties":{"GEOID":"270370606042"}},{"arcs":[[116,117,118,119,120,121]],"type":"Polygon","properties":{"GEOID":"270370605032"}},{"arcs":[[-110,122,-94,123]],"type":"Polygon","properties":{"GEOID":"270370601011"}},{"arcs":[[124,125,126,-119,127]],"type":"Polygon","properties":{"GEOID":"270370605024"}},{"arcs":[[128,129,130,131,132]],"type":"Polygon","properties":{"GEOID":"270370606031"}},{"arcs":[[133,134,135,136,137]],"type":"Polygon","properties":{"GEOID":"270370607092"}},{"arcs":[[138,139,140,-135]],"type":"Polygon","properties":{"GEOID":"270370607093"}},{"arcs":[[141,142,143,144,-140,145]],"type":"Polygon","properties":{"GEOID":"270370607102"}},{"arcs":[[146,147,148,149]],"type":"Polygon","properties":{"GEOID":"270370607131"}},{"arcs":[[-50,-84,150,-23,151,152]],"type":"Polygon","properties":{"GEOID":"270370607502"}},{"arcs":[[153,154]],"type":"Polygon","properties":{"GEOID":"270370607252"}},{"arcs":[[155,-61,156,157]],"type":"Polygon","properties":{"GEOID":"270370607261"}},{"arcs":[[158,159,160,161]],"type":"Polygon","properties":{"GEOID":"270370607332"}},{"arcs":[[162,163,164,165,-160]],"type":"Polygon","properties":{"GEOID":"270370607333"}},{"arcs":[[166,167,168]],"type":"Polygon","properties":{"GEOID":"270370607352"}},{"arcs":[[169,170,-66,-71,171,172,173,174,175]],"type":"Polygon","properties":{"GEOID":"270370605054"}},{"arcs":[[176,177,178,179,180,181]],"type":"Polygon","properties":{"GEOID":"270370608151"}},{"arcs":[[182,183,184,185,186]],"type":"Polygon","properties":{"GEOID":"270370608162"}},{"arcs":[[187,188,-85,-185]],"type":"Polygon","properties":{"GEOID":"270370608191"}},{"arcs":[[189,190,191,192,193,194,195,196,197,198]],"type":"Polygon","properties":{"GEOID":"270370608221"}},{"arcs":[[199,-198,200,201,202]],"type":"Polygon","properties":{"GEOID":"270370608241"}},{"arcs":[[203,204,205,206]],"type":"Polygon","properties":{"GEOID":"270370610012"}},{"arcs":[[207,208,209,210,211,212]],"type":"Polygon","properties":{"GEOID":"270370610031"}},{"arcs":[[213,214,215,216]],"type":"Polygon","properties":{"GEOID":"270370611021"}},{"arcs":[[-153,217,-167,218,219,-51]],"type":"Polygon","properties":{"GEOID":"270370607212"}},{"arcs":[[220,-138,221,222,223,224]],"type":"Polygon","properties":{"GEOID":"270370607091"}},{"arcs":[[225,-216,226,227,228,229]],"type":"Polygon","properties":{"GEOID":"270370611051"}},{"arcs":[[-18,230,231,232,233]],"type":"Polygon","properties":{"GEOID":"270370615021"}},{"arcs":[[234,-207,235,236]],"type":"Polygon","properties":{"GEOID":"270370610011"}},{"arcs":[[237,238,239,240]],"type":"Polygon","properties":{"GEOID":"270370601021"}},{"arcs":[[241,242,243,244,245]],"type":"Polygon","properties":{"GEOID":"270370607321"}},{"arcs":[[246,-241,247,248,-130]],"type":"Polygon","properties":{"GEOID":"270370601022"}},{"arcs":[[249,250,251,252,253,254,255]],"type":"Polygon","properties":{"GEOID":"270370608122"}},{"arcs":[[-248,256,-101,257,258]],"type":"Polygon","properties":{"GEOID":"270370601031"}},{"arcs":[[-31,-57,259,260]],"type":"Polygon","properties":{"GEOID":"270370604022"}},{"arcs":[[261,262,-214,263,264,265]],"type":"Polygon","properties":{"GEOID":"270370611023"}},{"arcs":[[-228,266,267,268,269]],"type":"Polygon","properties":{"GEOID":"270370611052"}},{"arcs":[[270,-14]],"type":"Polygon","properties":{"GEOID":"270370615012"}},{"arcs":[[-161,271,272]],"type":"Polygon","properties":{"GEOID":"270370607342"}},{"arcs":[[273,-42,274,275,276,-107,277]],"type":"Polygon","properties":{"GEOID":"270370602021"}},{"arcs":[[-108,-277,278,279,280]],"type":"Polygon","properties":{"GEOID":"270370602022"}},{"arcs":[[281,282,283,284,-43,-274]],"type":"Polygon","properties":{"GEOID":"270370603012"}},{"arcs":[[-44,-285,285,286]],"type":"Polygon","properties":{"GEOID":"270370603014"}},{"arcs":[[-55,-283,287,-125,288,289]],"type":"Polygon","properties":{"GEOID":"270370604021"}},{"arcs":[[-289,-128,-118,290]],"type":"Polygon","properties":{"GEOID":"270370605023"}},{"arcs":[[291,292,293,294,295]],"type":"Polygon","properties":{"GEOID":"270370605034"}},{"arcs":[[-132,296,297]],"type":"Polygon","properties":{"GEOID":"270370606034"}},{"arcs":[[298,-256,299,-184,300]],"type":"Polygon","properties":{"GEOID":"270370608121"}},{"arcs":[[301,302,303,304]],"type":"Polygon","properties":{"GEOID":"270370608132"}},{"arcs":[[305,306,-187,307,308]],"type":"Polygon","properties":{"GEOID":"270370608141"}},{"arcs":[[309,-95,-123,310,311,-68,-98]],"type":"Polygon","properties":{"GEOID":"270370601052"}},{"arcs":[[312,-280,313,314,315,316]],"type":"Polygon","properties":{"GEOID":"270370602013"}},{"arcs":[[317,318,319]],"type":"Polygon","properties":{"GEOID":"270370607142"}},{"arcs":[[320,321,-320,322,323]],"type":"Polygon","properties":{"GEOID":"270370607382"}},{"arcs":[[324,325,-73,326]],"type":"Polygon","properties":{"GEOID":"270370607482"}},{"arcs":[[-323,327,328,-148,329]],"type":"Polygon","properties":{"GEOID":"270370607381"}},{"arcs":[[-319,330,331,332,333,334,335,-328]],"type":"Polygon","properties":{"GEOID":"270370607141"}},{"arcs":[[336,-149,-329,-336,337,338,339]],"type":"Polygon","properties":{"GEOID":"270370607132"}},{"arcs":[[340,341,-330,-147,342]],"type":"Polygon","properties":{"GEOID":"270370607371"}},{"arcs":[[343,-150,-337,344,345]],"type":"Polygon","properties":{"GEOID":"270370607111"}},{"arcs":[[346,347,-343,-344,-143]],"type":"Polygon","properties":{"GEOID":"270370607112"}},{"arcs":[[-144,-346,-78,348]],"type":"Polygon","properties":{"GEOID":"270370607101"}},{"arcs":[[349,350,351,-306,352,353,-302,354]],"type":"Polygon","properties":{"GEOID":"270370608131"}},{"arcs":[[355,356,357,358,-352,359]],"type":"Polygon","properties":{"GEOID":"270370607462"}},{"arcs":[[360,361,362,363,364,365]],"type":"Polygon","properties":{"GEOID":"270370607392"}},{"arcs":[[366,367,368,-363]],"type":"Polygon","properties":{"GEOID":"270370607452"}},{"arcs":[[369,370,-273,371,-193]],"type":"Polygon","properties":{"GEOID":"270370607341"}},{"arcs":[[372,373,374,375,376]],"type":"Polygon","properties":{"GEOID":"270370608063"}},{"arcs":[[377,378,-163,-159,379,-25]],"type":"Polygon","properties":{"GEOID":"270370607292"}},{"arcs":[[380,-26,-380,-162,-371,381]],"type":"Polygon","properties":{"GEOID":"270370607331"}},{"arcs":[[382,383,384,385,386,387,388,389,390]],"type":"Polygon","properties":{"GEOID":"270370607281"}},{"arcs":[[391,-383,392,393]],"type":"Polygon","properties":{"GEOID":"270370607171"}},{"arcs":[[394,395,396,397]],"type":"Polygon","properties":{"GEOID":"270370607262"}},{"arcs":[[398,-246,399,400]],"type":"Polygon","properties":{"GEOID":"270370607313"}},{"arcs":[[-224,401,402]],"type":"Polygon","properties":{"GEOID":"270370607393"}},{"arcs":[[403,404,-177,405]],"type":"Polygon","properties":{"GEOID":"270370608142"}},{"arcs":[[-303,406,-181,407,408,409,410]],"type":"Polygon","properties":{"GEOID":"270370608152"}},{"arcs":[[-186,-89,411,412,-405,413]],"type":"Polygon","properties":{"GEOID":"270370608161"}},{"arcs":[[-308,-414,-404,414,415]],"type":"Polygon","properties":{"GEOID":"270370608143"}},{"arcs":[[416,417,418,419,420]],"type":"Polygon","properties":{"GEOID":"270370608291"}},{"arcs":[[-196,421,422,423]],"type":"Polygon","properties":{"GEOID":"270370608231"}},{"arcs":[[424,425,426,427,428,429]],"type":"Polygon","properties":{"GEOID":"270370610071"}},{"arcs":[[430,431,432,-427]],"type":"Polygon","properties":{"GEOID":"270370610072"}},{"arcs":[[433,434,435,436]],"type":"Polygon","properties":{"GEOID":"270370610051"}},{"arcs":[[-11,-113,437,438,-16]],"type":"Polygon","properties":{"GEOID":"270370609041"}},{"arcs":[[439,440,441,442,443,444,445,-205]],"type":"Polygon","properties":{"GEOID":"270370614011"}},{"arcs":[[-446,446,447]],"type":"Polygon","properties":{"GEOID":"270370614021"}},{"arcs":[[448,-176,449,450]],"type":"Polygon","properties":{"GEOID":"270370606061"}},{"arcs":[[-295,451,452,453]],"type":"Polygon","properties":{"GEOID":"270370605093"}},{"arcs":[[454,-133,-298,455,456,-114,457]],"type":"Polygon","properties":{"GEOID":"270370606033"}},{"arcs":[[-458,-116,458,459,-58,460]],"type":"Polygon","properties":{"GEOID":"270370606041"}},{"arcs":[[461,462,-397,463,464,465,466]],"type":"Polygon","properties":{"GEOID":"270370607161"}},{"arcs":[[-393,-391,467,468]],"type":"Polygon","properties":{"GEOID":"270370607282"}},{"arcs":[[469,-445,470]],"type":"Polygon","properties":{"GEOID":"270370614012"}},{"arcs":[[471,-357]],"type":"Polygon","properties":{"GEOID":"270370607461"}},{"arcs":[[472,473,474,475,-91]],"type":"Polygon","properties":{"GEOID":"270370609072"}},{"arcs":[[-197,-424,476,-201]],"type":"Polygon","properties":{"GEOID":"270370608232"}},{"arcs":[[477,478,-62,-156,479,-155,480,-462,481,-47,-325]],"type":"Polygon","properties":{"GEOID":"270370607253"}},{"arcs":[[-326,-53,482,-332,483,-74]],"type":"Polygon","properties":{"GEOID":"270370607472"}},{"arcs":[[484,485,486]],"type":"Polygon","properties":{"GEOID":"270370609071"}},{"arcs":[[487,488,489,-253]],"type":"Polygon","properties":{"GEOID":"270370608281"}},{"arcs":[[490,491,492,-435]],"type":"Polygon","properties":{"GEOID":"270370610081"}},{"arcs":[[493,-170,-449,494]],"type":"Polygon","properties":{"GEOID":"270370606062"}},{"arcs":[[-456,-297,-131,-249,-259,495,-494,496]],"type":"Polygon","properties":{"GEOID":"270370606032"}},{"arcs":[[-109,-281,-313,-311]],"type":"Polygon","properties":{"GEOID":"270370602011"}},{"arcs":[[497,498,-70]],"type":"Polygon","properties":{"GEOID":"270370601053"}},{"arcs":[[-286,-284,-54,-30]],"type":"Polygon","properties":{"GEOID":"270370604011"}},{"arcs":[[499,-122,500,501]],"type":"Polygon","properties":{"GEOID":"270370605022"}},{"arcs":[[-120,-127,502,503,504]],"type":"Polygon","properties":{"GEOID":"270370605031"}},{"arcs":[[-453,505,506,507]],"type":"Polygon","properties":{"GEOID":"270370605092"}},{"arcs":[[508,-209,509]],"type":"Polygon","properties":{"GEOID":"270370605081"}},{"arcs":[[510,511,512,513,-296,-454,-508,514,515]],"type":"Polygon","properties":{"GEOID":"270370605071"}},{"arcs":[[516,517,518,-373,519]],"type":"Polygon","properties":{"GEOID":"270370608062"}},{"arcs":[[-258,-100,520,-67,-171,-496]],"type":"Polygon","properties":{"GEOID":"270370601032"}},{"arcs":[[-99,-72,-64,-521]],"type":"Polygon","properties":{"GEOID":"270370601043"}},{"arcs":[[521,-513]],"type":"Polygon","properties":{"GEOID":"270370605072"}},{"arcs":[[-376,522,523,-250,524]],"type":"Polygon","properties":{"GEOID":"270370608112"}},{"arcs":[[525,526,-252,527]],"type":"Polygon","properties":{"GEOID":"270370608113"}},{"arcs":[[528,529,530,-301,-183,-307,-359,531]],"type":"Polygon","properties":{"GEOID":"270370607421"}},{"arcs":[[-76,532,-321,533]],"type":"Polygon","properties":{"GEOID":"270370607481"}},{"arcs":[[534,535,536,537]],"type":"Polygon","properties":{"GEOID":"270370610092"}},{"arcs":[[-492,538,539,540,-538,541]],"type":"Polygon","properties":{"GEOID":"270370610082"}},{"arcs":[[-482,-467,542,-82,-48]],"type":"Polygon","properties":{"GEOID":"270370607491"}},{"arcs":[[-506,-452,-294,-504,543,-210,-509,544]],"type":"Polygon","properties":{"GEOID":"270370605091"}},{"arcs":[[545,-230,546,-39]],"type":"Polygon","properties":{"GEOID":"270370611062"}},{"arcs":[[547,548,549,550,-333]],"type":"Polygon","properties":{"GEOID":"270370607441"}},{"arcs":[[-501,-121,-505,-293,551]],"type":"Polygon","properties":{"GEOID":"270370605033"}},{"arcs":[[-254,552,553]],"type":"Polygon","properties":{"GEOID":"270370608123"}},{"arcs":[[554,555,556,557,-386,558,559]],"type":"Polygon","properties":{"GEOID":"270370605082"}},{"arcs":[[560,-21,561,-168]],"type":"Polygon","properties":{"GEOID":"270370607353"}},{"arcs":[[-245,562,563,564]],"type":"Polygon","properties":{"GEOID":"270370607322"}},{"arcs":[[-279,-276,565,566,-314]],"type":"Polygon","properties":{"GEOID":"270370602023"}},{"arcs":[[-566,-275,-46,567,568]],"type":"Polygon","properties":{"GEOID":"270370603021"}},{"arcs":[[569,570,571,572,-164]],"type":"Polygon","properties":{"GEOID":"270370607312"}},{"arcs":[[-365,573,-360,-351,574]],"type":"Polygon","properties":{"GEOID":"270370607391"}},{"arcs":[[-190,575,576]],"type":"Polygon","properties":{"GEOID":"270370608052"}},{"arcs":[[-219,-169,-562,-27,-381,-549,577]],"type":"Polygon","properties":{"GEOID":"270370607351"}},{"arcs":[[578,579,580,-563]],"type":"Polygon","properties":{"GEOID":"270370605084"}},{"arcs":[[-334,-551,581,582,-517,583]],"type":"Polygon","properties":{"GEOID":"270370608061"}},{"arcs":[[-152,-22,-561,-218]],"type":"Polygon","properties":{"GEOID":"270370607503"}},{"arcs":[[-158,584,-398,-463,-481,-154,-480]],"type":"Polygon","properties":{"GEOID":"270370607251"}},{"arcs":[[585,-36,586,-570,-379]],"type":"Polygon","properties":{"GEOID":"270370607291"}},{"arcs":[[-466,587,-24,-151,-83,-543]],"type":"Polygon","properties":{"GEOID":"270370607162"}},{"arcs":[[-377,-525,-299,588]],"type":"Polygon","properties":{"GEOID":"270370608111"}},{"arcs":[[-316,589,590,591]],"type":"Polygon","properties":{"GEOID":"270370603023"}},{"arcs":[[592,-202,593,-488,-527]],"type":"Polygon","properties":{"GEOID":"270370608242"}},{"arcs":[[-315,-567,-569,594,-590]],"type":"Polygon","properties":{"GEOID":"270370603022"}},{"arcs":[[-264,-217,-226,-546,595]],"type":"Polygon","properties":{"GEOID":"270370611022"}},{"arcs":[[596,597,-384,-392]],"type":"Polygon","properties":{"GEOID":"270370607172"}},{"arcs":[[-483,-52,-220,-578,-548]],"type":"Polygon","properties":{"GEOID":"270370607431"}},{"arcs":[[-499,598,599,-32,600,-172]],"type":"Polygon","properties":{"GEOID":"270370605062"}},{"arcs":[[-557,601,-579,-244,602]],"type":"Polygon","properties":{"GEOID":"270370605083"}},{"arcs":[[603,604,-142,605,606]],"type":"Polygon","properties":{"GEOID":"270370607104"}},{"arcs":[[-339,607,608,609,610,611,612]],"type":"Polygon","properties":{"GEOID":"270370607114"}},{"arcs":[[-608,613,614,615]],"type":"Polygon","properties":{"GEOID":"270370607542"}},{"arcs":[[616,617,-358,-472,-356,-574,-364,-369]],"type":"Polygon","properties":{"GEOID":"270370607456"}},{"arcs":[[618,-478,-327,-77,-534,619,620,621,-604]],"type":"Polygon","properties":{"GEOID":"270370607484"}},{"arcs":[[-60,622,623,624,-395,-585,-157]],"type":"Polygon","properties":{"GEOID":"270370607263"}},{"arcs":[[625,626,-173,-601,-261,627,628]],"type":"Polygon","properties":{"GEOID":"270370605063"}},{"arcs":[[-175,629,630,631,-516,632,-555,633]],"type":"Polygon","properties":{"GEOID":"270370605052"}},{"arcs":[[-450,-634,-560,634,-598,635,636]],"type":"Polygon","properties":{"GEOID":"270370607174"}},{"arcs":[[-312,-317,-592,-599,-498,-69]],"type":"Polygon","properties":{"GEOID":"270370601054"}},{"arcs":[[637,-387,-558,-603,-243,638]],"type":"Polygon","properties":{"GEOID":"270370607523"}},{"arcs":[[-633,-515,-507,-545,-510,-208,639,-580,-602,-556]],"type":"Polygon","properties":{"GEOID":"270370605085"}},{"arcs":[[640,641,-639,642,643]],"type":"Polygon","properties":{"GEOID":"270370607521"}},{"arcs":[[-533,-75,-484,-331,-318,-322]],"type":"Polygon","properties":{"GEOID":"270370607143"}},{"arcs":[[-382,-370,-192,644,-582,-550]],"type":"Polygon","properties":{"GEOID":"270370607344"}},{"arcs":[[-606,-146,-139,-134,-221,645]],"type":"Polygon","properties":{"GEOID":"270370607103"}},{"arcs":[[-272,-166,646,647,-372]],"type":"Polygon","properties":{"GEOID":"270370607343"}},{"arcs":[[648,649,650,651,652]],"type":"Polygon","properties":{"GEOID":"270370608403"}},{"arcs":[[653,-564,-581,-640,-213,654,-235,655,656,-542,-537,657,658,659,660,661,-650]],"type":"Polygon","properties":{"GEOID":"270370610032"}},{"arcs":[[-645,-191,-577,662,-583]],"type":"Polygon","properties":{"GEOID":"270370608053"}},{"arcs":[[-648,-653,663,664,-194]],"type":"Polygon","properties":{"GEOID":"270370608401"}},{"arcs":[[-141,-145,-349,665,-136]],"type":"Polygon","properties":{"GEOID":"270370607094"}},{"arcs":[[-338,-335,-584,-520,-589,-531,666,667,-614]],"type":"Polygon","properties":{"GEOID":"270370607543"}},{"arcs":[[668,-400,-565,-654,-649,-647]],"type":"Polygon","properties":{"GEOID":"270370607314"}},{"arcs":[[-651,-662,669,670,671]],"type":"Polygon","properties":{"GEOID":"270370610102"}},{"arcs":[[-137,-666,-81,672,-361,673,-222]],"type":"Polygon","properties":{"GEOID":"270370607395"}},{"arcs":[[-610,674,675,676,677,678,679]],"type":"Polygon","properties":{"GEOID":"270370607531"}},{"arcs":[[-679,680,-532,-618]],"type":"Polygon","properties":{"GEOID":"270370607422"}},{"arcs":[[681,682,-471,683,684,685,-268]],"type":"Polygon","properties":{"GEOID":"270370611092"}},{"arcs":[[-475,686,687,-102,688,689,690]],"type":"Polygon","properties":{"GEOID":"270370609073"}},{"arcs":[[691,692,693,694,-438,-112]],"type":"Polygon","properties":{"GEOID":"270370609053"}},{"arcs":[[-396,-625,695,-636,-597,-394,696,697]],"type":"Polygon","properties":{"GEOID":"270370607176"}},{"arcs":[[698,699,-535,-541]],"type":"Polygon","properties":{"GEOID":"270370610093"}},{"arcs":[[-354,700,-415,-406,-182,-407]],"type":"Polygon","properties":{"GEOID":"270370608145"}},{"arcs":[[-40,701,702,-441,703]],"type":"Polygon","properties":{"GEOID":"270370611111"}},{"arcs":[[-428,-433,704,-656,-237,705,-694,706,-103,-688,707,708]],"type":"Polygon","properties":{"GEOID":"270370610014"}},{"arcs":[[-104,-707,-693,709]],"type":"Polygon","properties":{"GEOID":"270370609052"}},{"arcs":[[710,711,712,713]],"type":"Polygon","properties":{"GEOID":"270370608323"}},{"arcs":[[-19,-234,714,715,716]],"type":"Polygon","properties":{"GEOID":"270370615023"}},{"arcs":[[-388,-638,-642,717]],"type":"Polygon","properties":{"GEOID":"270370607522"}},{"arcs":[[718,-495,-451,719,720]],"type":"Polygon","properties":{"GEOID":"270370606052"}},{"arcs":[[721,722,723,724,725]],"type":"Polygon","properties":{"GEOID":"270370608412"}},{"arcs":[[-402,-223,-674,-366,-575,-350,726]],"type":"Polygon","properties":{"GEOID":"270370607394"}},{"arcs":[[727,-725,728,729,730,-419]],"type":"Polygon","properties":{"GEOID":"270370608292"}},{"arcs":[[-439,-695,-706,731,732,-231,-17]],"type":"Polygon","properties":{"GEOID":"270370615013"}},{"arcs":[[733,734,735,736,737]],"type":"Polygon","properties":{"GEOID":"270370608364"}},{"arcs":[[738,739,740,-734,741,-12,742]],"type":"Polygon","properties":{"GEOID":"270370608353"}},{"arcs":[[743,744,-740]],"type":"Polygon","properties":{"GEOID":"270370608351"}},{"arcs":[[-661,745,746,-670]],"type":"Polygon","properties":{"GEOID":"270370610101"}},{"arcs":[[-304,-411,747,748]],"type":"Polygon","properties":{"GEOID":"270370608133"}},{"arcs":[[749,-667,-530,750,-677]],"type":"Polygon","properties":{"GEOID":"270370607532"}},{"arcs":[[751,752,753,754,755,756,757,758]],"type":"Polygon","properties":{"GEOID":"270370608372"}},{"arcs":[[759,760,761,762,763,-92,-2,-755]],"type":"Polygon","properties":{"GEOID":"270370609063"}},{"arcs":[[764,765,-485,766,767,-763]],"type":"Polygon","properties":{"GEOID":"270370609074"}},{"arcs":[[768,-690,769,-5]],"type":"Polygon","properties":{"GEOID":"270370609023"}},{"arcs":[[-519,-203,770,-374]],"type":"Polygon","properties":{"GEOID":"270370608064"}},{"arcs":[[-490,771,772,-553]],"type":"Polygon","properties":{"GEOID":"270370608282"}},{"arcs":[[-255,-554,773,-188,-300]],"type":"Polygon","properties":{"GEOID":"270370608124"}},{"arcs":[[-773,774,775,-774]],"type":"Polygon","properties":{"GEOID":"270370608283"}},{"arcs":[[-776,776,-420,777,778,779,-189]],"type":"Polygon","properties":{"GEOID":"270370608301"}},{"arcs":[[-665,780,781,-195]],"type":"Polygon","properties":{"GEOID":"270370608402"}},{"arcs":[[-782,782,-722,-422]],"type":"Polygon","properties":{"GEOID":"270370608411"}},{"arcs":[[-781,-664,-652,-672,783,-783]],"type":"Polygon","properties":{"GEOID":"270370608413"}},{"arcs":[[784,-266,785,-41,-704,-440,-204,-655,-212]],"type":"Polygon","properties":{"GEOID":"270370610013"}},{"arcs":[[-309,-416,-701,-353]],"type":"Polygon","properties":{"GEOID":"270370608144"}},{"arcs":[[-712,786,787,-765,788]],"type":"Polygon","properties":{"GEOID":"270370608322"}},{"arcs":[[789,-713,-789,-762,790]],"type":"Polygon","properties":{"GEOID":"270370608324"}},{"arcs":[[791,-685,792,-443,793]],"type":"Polygon","properties":{"GEOID":"270370611102"}},{"arcs":[[-409,794,-759,795,796]],"type":"Polygon","properties":{"GEOID":"270370608341"}},{"arcs":[[-180,797,-752,-795,-408]],"type":"Polygon","properties":{"GEOID":"270370608153"}},{"arcs":[[798,799,-511,-632,800]],"type":"Polygon","properties":{"GEOID":"270370605061"}},{"arcs":[[-547,-229,-270,801,802,-702]],"type":"Polygon","properties":{"GEOID":"270370611112"}},{"arcs":[[-269,-686,-792,803,-802]],"type":"Polygon","properties":{"GEOID":"270370611121"}},{"arcs":[[-747,-539,-491,-434,804]],"type":"Polygon","properties":{"GEOID":"270370610112"}},{"arcs":[[-671,-805,805,806,807]],"type":"Polygon","properties":{"GEOID":"270370610111"}},{"arcs":[[-621,808,-341,-348]],"type":"Polygon","properties":{"GEOID":"270370607373"}},{"arcs":[[-663,-576,-199,-200,-518]],"type":"Polygon","properties":{"GEOID":"270370608051"}},{"arcs":[[-87,809,810,811]],"type":"Polygon","properties":{"GEOID":"270370608194"}},{"arcs":[[-413,812,813,-178]],"type":"Polygon","properties":{"GEOID":"270370608164"}},{"arcs":[[814,815,-711,816,817]],"type":"Polygon","properties":{"GEOID":"270370608311"}},{"arcs":[[818,819,-431,-426,820,821]],"type":"Polygon","properties":{"GEOID":"270370610074"}},{"arcs":[[-468,-390,822,823,-35]],"type":"Polygon","properties":{"GEOID":"270370607283"}},{"arcs":[[-115,-457,-497,-719,-459]],"type":"Polygon","properties":{"GEOID":"270370606043"}},{"arcs":[[-800,-502,-552,-292,-514,-522,-512]],"type":"Polygon","properties":{"GEOID":"270370605073"}},{"arcs":[[824,825,826,-724]],"type":"Polygon","properties":{"GEOID":"270370608382"}},{"arcs":[[-375,-771,-593,-526,827,-523]],"type":"Polygon","properties":{"GEOID":"270370608114"}},{"arcs":[[-345,-340,-613,-79]],"type":"Polygon","properties":{"GEOID":"270370607113"}},{"arcs":[[-572,828,-643,-242,-399]],"type":"Polygon","properties":{"GEOID":"270370607324"}},{"arcs":[[-824,829,-644,830,-587]],"type":"Polygon","properties":{"GEOID":"270370607512"}},{"arcs":[[-609,-616,831,-675]],"type":"Polygon","properties":{"GEOID":"270370607544"}},{"arcs":[[-464,-698,832,-33,833]],"type":"Polygon","properties":{"GEOID":"270370607272"}},{"arcs":[[-767,-487,834,-473,835]],"type":"Polygon","properties":{"GEOID":"270370609075"}},{"arcs":[[-620,-324,-342,-809]],"type":"Polygon","properties":{"GEOID":"270370607372"}},{"arcs":[[-831,-829,-571]],"type":"Polygon","properties":{"GEOID":"270370607323"}},{"arcs":[[836,837,-811,838,839,-760,-754]],"type":"Polygon","properties":{"GEOID":"270370608331"}},{"arcs":[[840,-796,-758,841,-735,842]],"type":"Polygon","properties":{"GEOID":"270370608371"}},{"arcs":[[843,-682,-267,-227,-215,-263]],"type":"Polygon","properties":{"GEOID":"270370611091"}},{"arcs":[[-626,844]],"type":"Polygon","properties":{"GEOID":"270370605051"}},{"arcs":[[-738,845,-271,-13,-742]],"type":"Polygon","properties":{"GEOID":"270370608361"}},{"arcs":[[846,-611,-680,-617,-368,847]],"type":"Polygon","properties":{"GEOID":"270370607455"}},{"arcs":[[848,-848,-367,-362]],"type":"Polygon","properties":{"GEOID":"270370607453"}},{"arcs":[[-780,849,-839,-810,-86]],"type":"Polygon","properties":{"GEOID":"270370608302"}},{"arcs":[[-678,-751,-529,-681]],"type":"Polygon","properties":{"GEOID":"270370607423"}},{"arcs":[[-88,-812,-838,-813,-412]],"type":"Polygon","properties":{"GEOID":"270370608193"}},{"arcs":[[-731,850,-815,851,-778]],"type":"Polygon","properties":{"GEOID":"270370608313"}},{"arcs":[[-756,-1,852,853]],"type":"Polygon","properties":{"GEOID":"270370608365"}},{"arcs":[[-757,-854,-736,-842]],"type":"Polygon","properties":{"GEOID":"270370608362"}},{"arcs":[[-627,-845,-629,-630,-174]],"type":"Polygon","properties":{"GEOID":"270370605053"}},{"arcs":[[-56,-290,854,-260]],"type":"Polygon","properties":{"GEOID":"270370604024"}},{"arcs":[[-784,-808,855,-825,-723]],"type":"Polygon","properties":{"GEOID":"270370608381"}},{"arcs":[[-703,-803,-804,-794,-442]],"type":"Polygon","properties":{"GEOID":"270370611122"}},{"arcs":[[-265,-596,-38,-786]],"type":"Polygon","properties":{"GEOID":"270370611024"}},{"arcs":[[856,-659,857,-699]],"type":"Polygon","properties":{"GEOID":"270370610095"}},{"arcs":[[-856,-807,858,859,-826]],"type":"Polygon","properties":{"GEOID":"270370608383"}},{"arcs":[[-827,-860,-822,860,861,-729]],"type":"Polygon","properties":{"GEOID":"270370608391"}},{"arcs":[[-489,862,-417,863,-772]],"type":"Polygon","properties":{"GEOID":"270370608285"}},{"arcs":[[-864,-421,-777,-775]],"type":"Polygon","properties":{"GEOID":"270370608284"}},{"arcs":[[-476,-691,-769,-4]],"type":"Polygon","properties":{"GEOID":"270370609022"}},{"arcs":[[-45,-287,-29,864]],"type":"Polygon","properties":{"GEOID":"270370603011"}},{"arcs":[[-862,865,-430,866,-730]],"type":"Polygon","properties":{"GEOID":"270370608393"}},{"arcs":[[-240,867,-310,-97,-257]],"type":"Polygon","properties":{"GEOID":"270370601044"}},{"arcs":[[-615,-668,-750,-676,-832]],"type":"Polygon","properties":{"GEOID":"270370607541"}},{"arcs":[[-477,-423,-726,-728,-418,-863,-594]],"type":"Polygon","properties":{"GEOID":"270370608233"}},{"arcs":[[-236,-206,-448,868,869,-732],[870]],"type":"Polygon","properties":{"GEOID":"270370614024"}},{"arcs":[[-689,-105,-710,-692,-111,-9,-770]],"type":"Polygon","properties":{"GEOID":"270370609044"}},{"arcs":[[-766,-788,-708,-687,-474,-835,-486]],"type":"Polygon","properties":{"GEOID":"270370609076"}},{"arcs":[[-660,-857,-540,-746]],"type":"Polygon","properties":{"GEOID":"270370610094"}},{"arcs":[[-748,-410,-797,-841,871,-744,-739,872]],"type":"Polygon","properties":{"GEOID":"270370608342"}},{"arcs":[[-622,-347,-605]],"type":"Polygon","properties":{"GEOID":"270370607483"}},{"arcs":[[-872,-843,-741,-745]],"type":"Polygon","properties":{"GEOID":"270370608352"}},{"arcs":[[-80,-612,-847,-849,-673]],"type":"Polygon","properties":{"GEOID":"270370607454"}},{"arcs":[[-628,873,-801,-631]],"type":"Polygon","properties":{"GEOID":"270370605064"}},{"arcs":[[874,-716]],"type":"Polygon","properties":{"GEOID":"270370615022"}},{"arcs":[[-733,-870,875,-232]],"type":"Polygon","properties":{"GEOID":"270370614022"}},{"arcs":[[-460,-721,876,-623,-59]],"type":"Polygon","properties":{"GEOID":"270370606053"}},{"arcs":[[-877,-720,-637,-696,-624]],"type":"Polygon","properties":{"GEOID":"270370607175"}},{"arcs":[[-861,-821,-425,-866]],"type":"Polygon","properties":{"GEOID":"270370608392"}},{"arcs":[[-871]],"type":"Polygon","properties":{"GEOID":"270370614023"}},{"arcs":[[-768,-836,-90,-764]],"type":"Polygon","properties":{"GEOID":"270370609062"}},{"arcs":[[-814,-837,-753,-798,-179]],"type":"Polygon","properties":{"GEOID":"270370608163"}},{"arcs":[[877,-818,878,-791,-761,-840]],"type":"Polygon","properties":{"GEOID":"270370608332"}},{"arcs":[[-867,-429,-709,-787,-816,-851]],"type":"Polygon","properties":{"GEOID":"270370608312"}},{"arcs":[[-573,-401,-669,-165]],"type":"Polygon","properties":{"GEOID":"270370607311"}},{"arcs":[[-588,-465,-834,-37,-586,-378]],"type":"Polygon","properties":{"GEOID":"270370607293"}},{"arcs":[[-697,-469,-34,-833]],"type":"Polygon","properties":{"GEOID":"270370607273"}},{"arcs":[[-855,-291,-117,-500,-799,-874]],"type":"Polygon","properties":{"GEOID":"270370605021"}},{"arcs":[[-828,-528,-251,-524]],"type":"Polygon","properties":{"GEOID":"270370608115"}},{"arcs":[[-823,-389,-718,-641,-830]],"type":"Polygon","properties":{"GEOID":"270370607511"}},{"arcs":[[-591,-595,-568,-865,-28,-600]],"type":"Polygon","properties":{"GEOID":"270370603024"}},{"arcs":[[-806,-437,-819,-859]],"type":"Polygon","properties":{"GEOID":"270370610052"}},{"arcs":[[-436,-493,-657,-705,-432,-820]],"type":"Polygon","properties":{"GEOID":"270370610073"}},{"arcs":[[-858,-658,-536,-700]],"type":"Polygon","properties":{"GEOID":"270370610091"}},{"arcs":[[-684,-444,-793]],"type":"Polygon","properties":{"GEOID":"270370611101"}},{"arcs":[[-853,-8,-15,-846,-737]],"type":"Polygon","properties":{"GEOID":"270370608363"}},{"arcs":[[-817,-714,-790,-879]],"type":"Polygon","properties":{"GEOID":"270370608321"}},{"arcs":[[-779,-852,-878,-850]],"type":"Polygon","properties":{"GEOID":"270370608303"}},{"arcs":[[879,-96,-868,-239]],"type":"Polygon","properties":{"GEOID":"270370601012"}},{"arcs":[[-559,-385,-635]],"type":"Polygon","properties":{"GEOID":"270370607173"}}]}}}