{"type":"Topology","arcs":[[[3067,6460],[88,2],[47,-2],[30,2],[36,-5],[524,-9],[529,1],[542,-3],[238,-1],[27,1],[153,-1],[355,-1],[98,0],[77,-1],[99,1],[0,-207],[-2,-107],[0,-76],[-4,-266],[-2,-108],[0,-109],[-5,-217],[1,-41],[-2,-99],[-1,-79],[1,-244],[-1,-222],[0,-20],[-1,-219],[-1,-217],[0,-434],[-894,-5],[-219,0]],[[4780,3774],[-144,-1],[-305,1],[-156,-1],[-182,1],[-4,-3],[0,-27],[-2,-241],[-262,-8]],[[3725,3495],[0,211],[2,33],[9,20],[18,26],[10,29],[5,105],[1,118],[-3,87],[0,66],[-1,101],[2,137],[-110,2]],[[3658,4430],[12,39],[10,12],[41,16],[7,23],[-5,19],[11,9],[19,0],[5,25],[-6,16],[14,18],[14,44],[-10,19],[7,12],[20,-12],[4,-13],[14,8],[-23,32],[15,9],[0,19],[7,3],[33,-14],[17,5],[-2,18],[-25,18],[-16,38],[-11,17],[1,15],[22,11],[0,7],[-31,29],[-8,31],[-9,21],[2,24],[18,40],[-7,15],[7,23],[15,16],[15,10],[7,12],[32,27],[25,33],[43,4],[18,6],[39,-5],[29,3],[42,29],[26,20],[12,-2],[13,12],[29,5],[7,16],[-2,14],[19,20],[-5,31],[-16,34],[-3,21],[-16,40],[6,12],[-12,10],[-38,3],[-19,21],[-18,4],[-42,17],[-21,16],[-14,6],[-19,16],[0,10],[-19,20],[-11,27],[-9,11],[-10,27],[-29,21],[-7,19],[5,13],[-20,50],[-19,-1],[-44,7],[-19,15],[4,92],[-207,4],[-114,3],[-195,6],[-254,3],[-16,2],[11,32],[46,90],[11,37],[5,56],[0,212],[1,227]],[[2947,3497],[131,-3],[3,-189],[6,-81],[119,-5],[7,8],[-1,46],[193,4],[91,0],[232,-1],[-3,219]],[[4780,3774],[1,-124],[-1,-163],[3,-225],[1,-219],[1,-65],[-1,-69],[2,-165],[0,-236]],[[4786,2508],[-237,0],[-5,7],[-19,-1],[-3,6],[12,19],[-11,26],[-18,17],[-14,6],[-18,-3],[-24,-17],[2,-18],[-18,-12],[-13,-29],[-15,-21],[-12,-10],[-27,-9],[-44,-7],[-62,-43],[-11,1],[-10,10],[4,11],[-2,22],[-11,16],[-35,29],[0,125],[-1,49],[-112,-56],[-75,-36],[-8,14],[-1,19],[-227,-1],[-353,-1],[-204,-1]],[[3214,2620],[-261,-1]],[[2953,2619],[-1,105]],[[2952,2724],[-4,290],[5,25],[-6,4],[0,110],[-2,81],[-15,30],[13,44],[2,32],[2,157]],[[1095,2191],[175,-5],[100,-3],[82,-1],[198,-4],[252,0],[17,-11]],[[1919,2167],[-13,-24],[-1,-80],[1,-177],[1,-232],[1,-25],[6,-28],[-5,-47],[0,-30],[-14,-2],[-151,-2],[-92,-1],[0,-217],[1,-104],[0,-108]],[[1653,1090],[-51,3],[-11,4],[-37,-1],[-164,10]],[[1390,1106],[-269,16],[1,151],[1,14],[8,16],[17,16],[-11,5],[-276,11],[-4,2],[-3,114],[-6,169],[-7,367],[264,-22],[-8,173],[-2,53]],[[3216,1210],[0,9]],[[3216,1219],[13,4],[34,-7],[49,-21],[34,-18],[24,4],[9,-5],[0,-23],[-8,-26],[20,-16],[24,-10],[16,2],[24,-5],[15,-13],[21,-11],[16,-20],[23,-9],[28,-2],[27,7],[7,11],[2,30],[11,8],[63,-1],[46,21],[21,17],[32,19],[29,11],[15,-10],[51,-25],[29,-10],[40,-25],[23,-28],[12,-7],[23,-5],[14,4],[14,13],[12,3],[18,-14],[13,-22],[-4,-11],[-14,-9],[16,-16],[18,-5],[19,-18],[8,-4],[36,-2],[22,-10],[13,4],[-13,32],[26,32],[16,13],[0,16],[12,7],[12,-3],[27,20],[8,14],[2,28],[-7,6],[-1,30],[-15,15],[-10,19],[1,9],[19,19],[27,20],[24,1],[7,-8],[52,7],[3,-7],[25,1],[30,15],[43,-2],[0,-40],[4,-18],[18,-18],[26,-10],[19,-14],[-1,44],[13,2],[242,-1],[7,7]],[[4790,1205],[2,-117],[-1,-304],[-1,-133],[2,-160],[1,-53],[-1,-153],[0,-274],[2,-9],[-341,-1],[-182,-1],[-117,2],[-212,1],[-7,-1],[-193,3],[-393,-1],[-133,2]],[[3216,6],[1,408],[-1,247],[-1,215],[1,61],[0,119],[0,154]],[[1653,1090],[0,-107],[2,-2],[272,3],[214,4],[284,5],[0,94],[1,66],[198,0],[337,2],[8,7],[34,-9],[82,-2],[2,31],[30,-1],[51,-6],[6,1],[42,34]],[[3216,6],[-262,-1],[-260,1],[-84,0],[-465,-1],[-91,1],[-145,-2],[-151,0],[-106,-1]],[[1652,3],[0,387],[0,155],[0,110],[-264,13],[1,76],[0,232],[1,130]],[[3658,4430],[-167,4],[-304,0],[-209,2],[0,-219]],[[2978,4217],[-164,1],[-114,1],[-36,-2],[-124,-10],[-132,-9],[-250,13],[-172,4],[-157,3],[-20,3],[-23,10],[-42,21],[-22,1],[-65,-26],[-35,-7],[-350,-1],[-177,-1]],[[1095,4218],[0,172],[0,246],[0,255],[2,123],[2,60],[0,142],[-1,81],[0,199],[2,186],[0,134],[1,24],[3,324],[-1,107],[4,107],[285,11],[426,21],[860,43],[44,2],[278,6],[67,-1]],[[2947,3497],[3,189],[4,18],[17,9],[54,46],[13,17],[25,4],[-1,59],[-14,27],[-16,19],[-12,25],[-6,67],[-6,23],[-21,60],[-8,40],[-1,31],[0,86]],[[2953,2619],[-1,-123],[1,-82],[0,-147],[-16,-40]],[[2937,2227],[-85,-8],[-51,-1]],[[2801,2218],[-51,1],[-25,9],[-12,13],[-8,22],[-20,20],[-31,6]],[[2654,2289],[-30,0],[-58,-2],[-148,-1]],[[2418,2286],[4,115],[3,139],[1,77],[196,2],[-2,-161],[24,-1],[-3,13],[5,17],[19,29],[13,11],[2,21],[-19,-4],[-14,8],[6,26],[16,18],[24,15],[20,20],[15,4],[39,27],[52,17],[20,27],[42,8],[26,-2],[25,3],[20,9]],[[2418,2286],[-145,-1],[-16,1],[-24,9],[-9,-15],[0,-69],[-3,-11],[-19,-18],[-23,-6],[-125,1],[-66,2],[-45,-2],[-24,-10]],[[1095,2191],[0,230],[-4,125],[-9,60],[0,15],[8,57],[1,31],[7,140],[-183,10],[-213,12],[-55,3],[-56,3],[-198,4],[-73,2],[-262,7],[-48,2]],[[10,2892],[-5,214],[-5,219],[1,218],[9,241],[290,4],[272,2],[263,-3],[263,-6],[-1,234],[-2,203]],[[2654,2289],[2,-16],[-12,-14],[9,-27],[1,-20],[-4,-16],[-12,-18],[1,-23],[-12,-16],[6,-7],[26,-6],[12,-9],[5,-15],[24,-15],[11,-21],[54,-30],[15,-21],[13,-6],[31,2]],[[2824,2011],[27,-9],[12,-8],[5,-15],[-2,-16],[17,-19],[-3,-16],[18,-25],[26,-11],[5,-14],[-1,-24],[-7,-12],[18,-22],[17,-3],[16,6],[16,0],[-4,22],[4,18],[52,42],[33,38],[14,9],[14,22],[19,2],[18,22],[2,19],[7,8],[2,16],[15,14],[49,10]],[[3213,2065],[0,-185],[0,-206],[3,-455]],[[3214,2620],[1,-114],[-2,-172],[1,-136],[-1,-133]],[[2824,2011],[-1,9]],[[2823,2020],[2,14],[13,21],[42,38],[16,17],[9,19],[14,58],[18,40]],[[4786,2508],[1,-331],[1,-126],[0,-298],[1,-262],[1,-286]],[[1652,3],[-196,8],[-181,7],[-98,3],[-398,14],[-394,12],[-178,7],[-141,3],[-2,97],[0,122],[-5,223],[-9,221],[-9,224],[-6,208],[-8,202],[-4,231],[-4,222],[-7,217],[-2,381],[0,52],[-2,227],[2,208]],[[2823,2020],[-2,12],[1,79],[-20,0],[0,66],[-1,41]]],"transform":{"scale":[0.00007866632825719074,0.00006637929433611945],"translate":[-93.518902,45.730517]},"objects":{"Geometry\\27-065":{"type":"GeometryCollection","geometries":[{"arcs":[[0,1,2,3]],"type":"Polygon","properties":{"GEOID":"270654801004"}},{"arcs":[[4,-2,5,6,7,8,9]],"type":"Polygon","properties":{"GEOID":"270654801002"}},{"arcs":[[10,11,12,13]],"type":"Polygon","properties":{"GEOID":"270654802002"}},{"arcs":[[14,15,16,17]],"type":"Polygon","properties":{"GEOID":"270654804004"}},{"arcs":[[-13,18,-18,19,20]],"type":"Polygon","properties":{"GEOID":"270654804002"}},{"arcs":[[-4,21,22,23]],"type":"Polygon","properties":{"GEOID":"270654801001"}},{"arcs":[[-22,-3,-5,24]],"type":"Polygon","properties":{"GEOID":"270654801003"}},{"arcs":[[-9,25,26,27,28,29]],"type":"Polygon","properties":{"GEOID":"270654803001"}},{"arcs":[[-23,-25,-10,-30,30,-11,31,32]],"type":"Polygon","properties":{"GEOID":"270654802001"}},{"arcs":[[-31,-29,33,34,35,-15,-19,-12]],"type":"Polygon","properties":{"GEOID":"270654804001"}},{"arcs":[[-26,-8,36,-35,37,38]],"type":"Polygon","properties":{"GEOID":"270654803003"}},{"arcs":[[-37,-7,39,-16,-36]],"type":"Polygon","properties":{"GEOID":"270654804003"}},{"arcs":[[-32,-14,-21,40]],"type":"Polygon","properties":{"GEOID":"270654802003"}},{"arcs":[[-27,-39,41]],"type":"Polygon","properties":{"GEOID":"270654803002"}},{"arcs":[[-28,-42,-38,-34]],"type":"Polygon","properties":{"GEOID":"270654803004"}}]}}}