{"type":"Topology","arcs":[[[6982,516],[155,1],[380,1],[167,-1],[0,25],[232,-1],[4,1]],[[7920,542],[34,-83],[16,-34],[10,-30],[-48,0],[-47,-12],[-125,-52],[1,-82],[-2,-203],[-3,-23],[-9,-18]],[[7747,5],[-5,1],[-242,-2],[-77,-2],[-293,1],[-146,2]],[[6984,5],[-1,172],[0,263],[-1,76]],[[5084,4947],[400,1],[210,-1],[81,-1]],[[5775,4946],[-1,-232],[-2,-105],[2,-99],[-1,-77]],[[5773,4433],[-107,0],[-309,2],[-104,2],[-140,0],[-204,-3]],[[4909,4434],[-1,119],[173,2],[-1,203],[4,189]],[[4388,4939],[312,4],[248,3],[136,1]],[[4909,4434],[-139,-2],[-39,-1],[-117,2],[-30,-2],[-197,-2]],[[4387,4429],[1,77],[0,262],[0,171]],[[2998,8169],[56,0],[203,1],[261,2],[116,-2],[259,0],[141,2],[354,-1]],[[4388,8171],[1,-223],[1,-479],[-1,-318],[87,-3],[20,-11],[34,-31],[48,-14],[46,-15],[-11,-70],[-11,-27],[-28,-29],[-12,-33],[0,-347],[0,-383],[1,-19],[15,-24],[54,-45],[11,-14],[8,-22],[-3,-36],[-23,-50],[-5,-20],[-2,-27],[14,-91],[0,-46],[-40,0],[-204,-3],[0,-256],[0,-132],[0,-464]],[[4387,4429],[1,-175],[0,-166],[-114,0],[-117,0],[-113,-1],[-263,-1],[-82,1]],[[3699,4087],[-250,1],[-304,2],[-260,0],[-219,2],[-261,4]],[[2405,4096],[-77,2]],[[2328,4098],[1,333],[-2,232],[-2,428],[-1,6],[1,183],[0,204],[2,361],[2,289]],[[2329,6134],[16,-7],[33,-22],[48,-36],[25,-10],[52,-5],[157,-3],[3,106],[-3,321],[-146,1],[-26,-4],[-29,-1],[-53,-11],[-28,-23],[-24,-4],[-30,15],[-22,0],[1,20],[-12,18],[-1,28],[-13,8],[0,11],[-16,8],[-10,15],[-27,9]],[[2224,6568],[10,3],[54,3],[29,-3],[42,2],[10,23],[13,11],[-3,33],[7,10],[40,-5],[44,6],[37,30],[70,29],[27,15],[88,77],[26,14],[18,3],[32,20],[30,32],[43,26],[-119,7],[-62,-3],[-1,85],[15,0],[58,150],[-13,17],[92,120],[-21,15],[-5,-5],[-19,16],[26,26],[16,-13],[-16,-21],[21,-14],[188,244],[21,37],[13,31],[8,28],[3,48],[-9,287],[-6,42],[-25,100],[-7,45],[-1,30]],[[4388,8171],[682,1],[181,2],[250,4],[269,5],[196,2],[116,3],[96,1],[281,-2],[367,-2]],[[6826,8185],[-17,-42],[-2,-12],[3,-169],[2,-149],[2,-262],[-4,-397],[1,-154],[4,-193],[0,-190],[-2,-62],[2,-90],[0,-95]],[[6815,6370],[0,-59]],[[6815,6311],[-169,0],[-6,-5],[1,-57],[-7,-8],[-69,-2],[-10,-9],[1,-81],[-7,-9],[-87,0],[-176,3],[-189,-1],[-284,-3],[-19,0],[-8,-23],[-13,-19],[-29,-31],[-15,-28],[-50,-172],[-12,-39],[49,-26],[63,-1],[-1,-149],[0,-296],[0,-131],[-3,-278]],[[6826,8185],[102,0],[281,-2],[102,0],[102,-2],[86,-1]],[[7499,8180],[2,-68],[7,-154],[2,-107],[211,-2],[136,5]],[[7857,7854],[166,0],[178,-1],[355,0]],[[8556,7853],[0,-100],[0,-277],[-2,-536],[0,-181],[1,-271],[-3,-326]],[[8552,6162],[-52,-16],[-191,-1],[-527,1],[-162,1],[-103,1]],[[7517,6148],[-167,1],[-175,-3],[-10,8],[1,150],[-2,73],[-5,9],[-21,14],[-16,1],[-162,-4],[-50,-17],[-40,-3],[-55,-7]],[[7499,8180],[93,0],[83,-1],[246,0]],[[7921,8179],[0,-84],[15,-44],[-4,-37],[-54,-102],[-6,-26],[-13,-14],[-2,-18]],[[7921,8179],[42,-1],[340,1],[43,1],[210,0],[0,-327]],[[1953,6235],[38,66],[36,92],[17,15],[23,55],[47,-19],[38,90],[37,13],[35,21]],[[2329,6134],[-30,6],[-226,-1],[-60,-1],[-29,11]],[[1984,6149],[-61,35],[30,51]],[[6382,1028],[76,0],[13,13],[0,158],[129,0],[20,-6],[21,-21],[23,-47],[13,-11],[142,-71],[17,-7],[28,-5],[303,2],[274,-2],[64,-2],[-1,-44],[7,-33],[12,-23],[19,-23],[16,-13],[25,-13],[86,-28],[53,-20],[68,-33],[23,-19],[18,-23],[25,-57],[64,-158]],[[6982,516],[-123,0],[-23,7],[-23,24],[-5,18],[0,30],[-9,26],[-19,16],[-65,38],[-29,11],[-77,0],[-223,0],[-1,166],[-3,176]],[[3699,4087],[0,-256],[1,-96],[-1,-170],[0,-137],[-2,-174],[1,-43],[1,-130],[-1,-73],[-9,-19],[-28,-24],[-11,-17],[-10,-47],[-13,-24],[-27,-39],[-52,-118],[-11,4],[-184,4],[-1,-161],[1,-147],[2,-221],[1,-22]],[[3356,2177],[-83,19],[-22,9],[-24,17],[-113,114],[-32,17],[-23,3],[-203,5],[-33,9],[-94,53],[-30,5],[-29,-6],[-14,-11],[-176,-100],[-36,-16],[-44,-14],[-72,-15]],[[2328,2266],[-1,62],[1,157],[-8,16],[-105,58],[-14,4],[-36,-1],[-9,8],[0,387],[-1,210],[0,289],[11,19],[142,1],[14,6],[5,11],[0,86],[12,7],[145,-3],[7,13],[0,166],[1,178],[-3,33],[-40,23],[-14,11],[-24,3],[-5,8],[-1,78]],[[1953,6235],[-75,43],[-27,10],[-1,-16],[-8,-12]],[[1842,6260],[2,12],[-24,52],[-36,34],[-81,12],[-40,32],[14,38],[61,81],[20,9],[30,-5],[64,-26],[54,-3],[62,-13],[31,7],[14,16],[21,67],[38,76],[16,81],[1,50],[-4,18],[19,36],[47,65],[60,73],[27,20],[30,16],[13,14],[12,37],[2,27],[-90,67],[-7,22],[14,23],[31,11],[47,8],[5,28],[49,2],[11,12],[6,41],[-5,84],[-11,57],[6,68],[9,29],[25,27],[2,35],[-4,27],[-16,69],[-17,62],[-11,20],[-14,6],[-19,-1],[-42,-14],[-44,6],[-14,10],[-32,35],[-54,27],[-12,26],[-1,21],[7,30],[15,53],[-14,47],[-25,28],[-28,9],[-23,-4],[-65,-20],[-17,-2],[-21,5],[-7,19],[15,33],[5,27],[10,30],[1,21],[10,1],[333,-3],[119,1],[218,-2],[223,0],[7,1],[128,1]],[[1984,6149],[-1,-8],[0,-122],[-130,-1],[-5,38],[-21,13],[-14,-23],[-8,-5],[-57,-120],[-28,-54],[-6,-34],[-21,-6],[-21,-19],[-22,15],[-7,-12]],[[1643,5811],[-15,26],[4,42],[0,49],[-53,40],[-12,17],[1,27],[10,15],[20,9],[25,4],[8,6],[-11,18],[-28,12],[-43,-5],[-35,4],[0,13],[30,48],[34,1],[61,38],[85,60],[89,-18],[23,22],[6,21]],[[7517,6148],[-1,-75],[6,-58],[48,-183],[4,-25],[18,-56],[53,-283]],[[7645,5468],[-129,1],[-299,-5],[-19,-2],[-21,-16],[-8,-16],[-1,-51],[-89,-1],[2,10],[-1,153],[-1,156],[-1,107],[-259,-4],[-1,172],[-3,179],[0,160]],[[8552,6162],[-1,-130],[-1,-295],[1,-270]],[[8551,5467],[-111,2],[-171,-3],[-152,3],[-138,-1],[-334,0]],[[4392,1024],[442,1],[294,2],[46,-2],[23,-10],[184,-125],[13,-12],[42,-49],[2,29],[171,0],[92,-1],[47,-2],[36,2],[0,171],[344,0]],[[6128,1028],[254,0]],[[6984,5],[-213,5],[-198,-4],[-150,-3],[-51,1],[-63,-2],[-298,5],[-2,-3],[-169,3],[-58,-1],[-464,1],[-268,-1],[-65,1],[-236,0],[-53,-2],[-303,-5],[1,237],[-1,60],[-1,256],[0,172],[2,43],[-2,65],[0,191]],[[6125,2391],[4,0],[366,-1],[223,0],[63,-4],[34,4],[127,1],[82,-1],[265,0],[17,1],[21,11],[59,-104],[35,5],[207,0],[26,6],[19,10],[19,16],[11,17],[35,82],[56,5],[24,-8],[25,-27],[5,-23],[0,-61],[83,-26],[27,-21],[27,-35],[34,-17],[4,-7],[1,-80],[159,-1],[9,-4],[2,-30],[3,-206],[6,-8],[54,-3],[61,-2],[222,-4]],[[8540,1876],[0,-87],[2,-516],[2,-40],[-1,-72],[-1,-461],[-1,-11],[0,-170],[0,-399],[-1,-113],[-150,0],[-156,1],[-76,-1],[-372,0],[-39,-2]],[[6128,1028],[2,359],[-2,322],[0,186],[-2,154],[-1,342]],[[1187,4184],[15,-18],[18,-39],[0,-16],[9,-8],[21,14],[45,-11],[17,-7],[12,3],[13,30],[17,7],[14,13],[6,51],[25,5],[11,16],[16,11],[27,31],[20,-3],[31,-13],[15,5],[19,16],[88,-5],[13,-4],[21,-16],[40,-12],[39,-20],[16,-21],[5,-20],[0,-38],[26,-18],[50,-2],[30,-17],[182,1],[280,-1]],[[2328,2266],[-204,-42],[29,-12],[47,-32],[24,-27],[13,-32],[15,-67],[22,-155],[11,-16],[10,-4],[35,0],[0,-77],[-78,-29],[-59,-24],[-45,-32],[-27,-6],[-88,1],[1,-38],[3,-18],[10,-20],[13,-14],[56,-41],[24,-19],[10,-16],[9,-25],[2,-169],[0,-165],[0,-158]],[[2161,1029],[-172,1],[-261,5],[-87,0],[-163,-12],[-350,2]],[[1128,1025],[0,73],[-2,683],[4,42],[32,180],[34,188],[5,60],[-3,40],[-28,224],[-4,20],[-20,46],[-29,41]],[[1117,2622],[3,12],[46,103],[42,106],[16,32],[35,38],[12,16],[2,46],[-31,40],[-6,17],[26,50],[0,21],[8,24],[37,42],[69,3],[17,13],[14,45],[-2,19],[-39,72],[-3,29],[3,17],[22,35],[26,17],[21,0],[20,-11],[29,-33],[16,-8],[15,5],[8,11],[23,56],[32,46],[2,21],[-9,24],[-31,54],[-20,44],[-55,61],[-71,54],[-23,10],[-70,6],[-42,9],[-43,23],[-29,34],[-17,42],[-3,24],[7,14],[56,51],[11,29],[-9,21],[-20,9],[-18,-10],[-20,-50],[-17,-19],[-28,-5],[-18,3],[-21,15],[-12,30],[5,50],[-3,32],[-8,23],[0,22],[18,16],[20,10],[65,40],[12,12]],[[1128,1025],[-39,-1],[-90,3],[-214,2],[-209,0],[-150,-2],[-102,2],[-97,-1],[-10,11],[-26,4],[-52,-2],[-8,-8],[-28,-7],[-38,12],[-12,20],[1,21],[11,19],[41,41],[28,35],[25,50],[10,13],[37,-5],[55,-48],[17,17],[7,18],[1,23],[-3,31],[-24,56],[-22,23],[-31,39],[-52,57],[-30,9],[-32,-9],[-45,-36],[-16,-3],[-20,4],[-11,14],[2,41],[58,79],[42,32],[15,9],[44,17],[25,21],[12,32],[5,50],[7,23],[9,6],[43,9],[24,14],[-1,21],[-10,6],[-60,24],[-10,8],[0,17],[10,26],[28,41],[40,29],[28,16],[39,9],[76,-5],[36,0],[7,14],[12,36],[9,38],[3,42],[20,66],[20,45],[25,31],[29,25],[12,20],[4,16],[-22,58],[19,11],[27,7],[50,19],[19,12],[45,42],[18,7],[40,-5],[47,-1],[20,8],[17,16],[19,30],[18,45],[15,20],[29,28],[45,34],[25,6],[75,-6],[8,6]],[[8551,5467],[0,-389],[0,-199],[-1,-260],[0,-129],[0,-243],[-1,-142],[2,-401],[-1,-142],[-4,-124],[0,-181],[-3,-184],[0,-70],[-2,-250],[-1,-224],[-1,-103],[2,-38],[0,-409],[-1,-103]],[[6125,2391],[0,257],[0,279],[0,248],[-10,29],[-38,45],[-43,66],[-21,23],[6,17],[5,68],[4,20],[14,38],[2,13],[-4,99],[0,131],[-6,28],[-14,18],[-56,52],[-10,17],[-3,22],[-3,230],[-173,0],[-2,342]],[[4392,1024],[-166,-1],[-349,2],[-172,-1]],[[3705,1024],[-1,129],[0,203],[-2,287],[-2,179],[-8,28],[-59,64],[-13,16],[-21,47],[-9,14],[-24,15],[-38,4],[-38,18],[-77,66],[-39,35],[-10,13],[-8,35]],[[1187,4184],[7,7],[5,23],[-3,16],[-19,65],[-16,23],[-75,26],[-13,9],[-13,16],[-2,39],[13,24],[27,16],[25,9],[29,1],[27,-7],[49,-33],[11,7],[7,41],[-5,33],[-9,21],[-21,33],[-21,18],[-21,12],[-26,5],[-24,0],[-32,-8],[-24,-18],[-33,-14],[-12,9],[-4,25],[7,22],[19,21],[19,7],[59,-12],[55,-13],[24,2],[19,10],[29,4],[24,10],[15,19],[15,47],[4,31],[-1,81],[-8,33],[-10,53],[2,12],[-14,53],[-24,22],[-25,11],[-10,18],[2,16],[82,63],[32,18],[50,-1],[27,-9],[33,-7],[16,4],[13,31],[8,49],[11,57],[0,31],[5,21],[21,37],[36,83],[17,67],[4,40],[-2,23],[1,46],[8,32],[28,70],[38,127]],[[3705,1024],[-33,-1],[-312,0],[-322,-1],[-55,1],[-197,-3],[-184,6],[-41,-4],[-140,0],[-19,3],[-241,4]]],"transform":{"scale":[0.000058539270687236775,0.00004251459274636694],"translate":[-94.025162,44.195836]},"objects":{"Geometry\\27-079":{"type":"GeometryCollection","geometries":[{"arcs":[[0,1,2,3]],"type":"Polygon","properties":{"GEOID":"270799504004"}},{"arcs":[[4,5,6,7]],"type":"Polygon","properties":{"GEOID":"270799505001"}},{"arcs":[[8,-8,9,10]],"type":"Polygon","properties":{"GEOID":"270799505002"}},{"arcs":[[11,12,-11,13,14,15,16,17,18]],"type":"Polygon","properties":{"GEOID":"270799501023"}},{"arcs":[[19,20,21,22,-5,-9,-13]],"type":"Polygon","properties":{"GEOID":"270799501022"}},{"arcs":[[23,24,25,26,27,28,-21]],"type":"Polygon","properties":{"GEOID":"270799501021"}},{"arcs":[[29,30,-25]],"type":"Polygon","properties":{"GEOID":"270799501011"}},{"arcs":[[31,-26,-31]],"type":"Polygon","properties":{"GEOID":"270799501012"}},{"arcs":[[32,-18,33,34]],"type":"Polygon","properties":{"GEOID":"270799502002"}},{"arcs":[[35,-1,36]],"type":"Polygon","properties":{"GEOID":"270799504002"}},{"arcs":[[-15,37,38,39]],"type":"Polygon","properties":{"GEOID":"270799506003"}},{"arcs":[[-19,-33,40,41]],"type":"Polygon","properties":{"GEOID":"270799502001"}},{"arcs":[[-41,-35,42,43]],"type":"Polygon","properties":{"GEOID":"270799502003"}},{"arcs":[[-29,44,45,-22]],"type":"Polygon","properties":{"GEOID":"270799503002"}},{"arcs":[[-28,46,47,-45]],"type":"Polygon","properties":{"GEOID":"270799503003"}},{"arcs":[[48,49,-37,-4,50]],"type":"Polygon","properties":{"GEOID":"270799504001"}},{"arcs":[[51,52,-2,-36,-50,53]],"type":"Polygon","properties":{"GEOID":"270799504003"}},{"arcs":[[54,-16,-40,55,56,57,58]],"type":"Polygon","properties":{"GEOID":"270799506002"}},{"arcs":[[-58,59]],"type":"Polygon","properties":{"GEOID":"270799506001"}},{"arcs":[[-46,-48,60,-52,61,-6,-23]],"type":"Polygon","properties":{"GEOID":"270799503001"}},{"arcs":[[-14,-10,-7,-62,-54,-49,62,63,-38]],"type":"Polygon","properties":{"GEOID":"270799505003"}},{"arcs":[[-43,-34,-17,-55,64]],"type":"Polygon","properties":{"GEOID":"270799502004"}},{"arcs":[[-39,-64,65,-56]],"type":"Polygon","properties":{"GEOID":"270799506004"}}]}}}