{"type":"Topology","arcs":[[[962,4569],[88,0],[44,5],[79,16],[86,5]],[[1259,4595],[2,-131],[2,-114],[6,-53],[9,-47],[0,-31]],[[1278,4219],[-253,-2]],[[1025,4217],[0,65],[-4,57],[-11,33],[-41,171],[-7,26]],[[3314,2049],[59,38]],[[3373,2087],[39,-55]],[[3412,2032],[-60,-39]],[[3352,1993],[-38,56]],[[3412,2032],[20,-31]],[[3432,2001],[43,-58]],[[3475,1943],[-38,-17],[0,-18],[-33,-10],[-26,-13]],[[3378,1885],[-24,36]],[[3354,1921],[-11,19],[-36,-7]],[[3307,1933],[-13,21],[58,39]],[[4508,3342],[252,-1]],[[4760,3341],[-63,-124]],[[4697,3217],[-58,-114],[-1,-10]],[[4638,3093],[-165,1]],[[4473,3094],[-4,24],[-14,22],[-9,5]],[[4446,3145],[37,16],[15,20],[5,27],[3,56],[-5,17],[-26,47],[33,14]],[[1579,3830],[189,3]],[[1768,3833],[0,-249]],[[1768,3584],[-189,-2]],[[1579,3582],[0,248]],[[2487,8124],[144,0],[361,-1]],[[2992,8123],[3,-291]],[[2995,7832],[-506,-6]],[[2489,7826],[-2,298]],[[2264,2594],[250,-1]],[[2514,2593],[0,-62]],[[2514,2531],[0,-31]],[[2514,2500],[-125,0]],[[2389,2500],[-125,0]],[[2264,2500],[0,94]],[[2352,5342],[106,0],[50,18]],[[2508,5360],[23,-12],[52,-2],[40,6],[41,-12],[51,-5],[55,-15],[74,4],[113,3],[54,0]],[[3011,5327],[1,-232]],[[3012,5095],[-95,1]],[[2917,5096],[-221,0],[-365,0],[-74,-2]],[[2257,5094],[2,66],[64,132],[29,50]],[[4132,2380],[126,0]],[[4258,2380],[2,-167]],[[4260,2213],[-126,1],[-2,166]],[[1510,1850],[0,14]],[[1510,1864],[63,-3],[189,0]],[[1762,1861],[-1,-128]],[[1761,1733],[-251,1]],[[1510,1734],[0,116]],[[1258,987],[251,-1]],[[1509,986],[0,-124],[-251,0]],[[1258,862],[0,125]],[[1987,7573],[90,1]],[[2077,7574],[415,3]],[[2492,7577],[1,-246],[2,-248],[1,-57],[10,-34],[17,-25],[62,-67]],[[2585,6900],[63,-71],[-150,4],[-126,-1]],[[2372,6832],[-378,-3]],[[1994,6829],[-2,248],[-3,264],[-2,232]],[[5015,4084],[249,0]],[[5264,4084],[0,-38],[-25,-15],[-1,-40],[27,0],[-1,-156]],[[5264,3835],[63,2],[187,1]],[[5514,3838],[-3,-249]],[[5511,3589],[-246,0]],[[5265,3589],[-252,-1]],[[5013,3588],[0,247],[2,249]],[[5143,6384],[40,74]],[[5183,6458],[16,-6],[9,7],[25,-2],[9,-33],[11,-16],[21,-11],[20,-5],[17,4],[13,27],[22,-10],[22,-19],[11,-25],[-10,-40],[2,-27],[11,-15],[21,-7],[44,6],[24,-1],[30,-7],[15,-11],[19,-24],[30,-14],[40,7],[18,37],[17,19],[24,8],[20,0],[38,8],[29,-12],[33,-4],[7,-9],[39,-16],[24,-4],[41,5],[35,-35],[45,-60],[0,-25],[15,-17],[21,-6]],[[6011,6125],[1,-39]],[[6012,6086],[-78,-1]],[[5934,6085],[-174,0],[-252,-2]],[[5508,6083],[0,165],[-92,0],[0,25],[-49,-4],[-13,35],[-4,23],[10,25],[-9,31],[-19,3],[-38,-16],[-39,25],[-16,-8],[-27,0],[-41,-10],[-28,7]],[[3060,1568],[109,155],[19,18],[67,73],[73,55],[24,-5],[26,21]],[[3378,1885],[11,-19],[6,-25],[21,-41],[51,-83],[35,-54],[32,-24],[21,-46]],[[3555,1593],[-43,4],[0,29],[-19,0],[0,21],[-15,5],[-29,-1],[-63,-20],[1,-180]],[[3387,1451],[-42,-4],[-123,0]],[[3222,1447],[-1,59],[27,32],[-15,13],[-13,1],[-76,-43],[-29,-24]],[[3115,1485],[-10,31],[-45,52]],[[3755,3337],[62,1]],[[3817,3338],[63,1]],[[3880,3339],[0,-62]],[[3880,3277],[2,-62],[-64,-1]],[[3818,3214],[-62,0]],[[3756,3214],[-1,123]],[[1383,2030],[127,0]],[[1510,2030],[0,-166]],[[1510,1850],[-86,0]],[[1424,1850],[-93,2]],[[1331,1852],[0,10],[51,3],[1,165]],[[227,6819],[213,6]],[[440,6825],[-20,-13],[-10,-43]],[[410,6769],[-5,-25],[11,-53],[0,-92],[13,-20],[26,-2],[18,-8],[7,-16],[3,-128],[2,-70],[8,-18]],[[493,6337],[-8,-7],[-126,-3],[-64,0],[-61,-4]],[[234,6323],[-3,0],[-2,73],[1,55]],[[230,6451],[-2,121],[0,123]],[[228,6695],[-1,124]],[[4760,2969],[1,124]],[[4761,3093],[125,0]],[[4886,3093],[0,-92],[31,0],[0,-60],[32,-29],[0,-67]],[[4949,2845],[-223,0]],[[4726,2845],[-1,44],[35,2],[0,78]],[[3819,3090],[103,2]],[[3922,3092],[1,-124],[-1,-124]],[[3922,2844],[-103,-1]],[[3819,2843],[1,31],[-1,216]],[[1608,5090],[394,1]],[[2002,5091],[-30,-66],[-19,-101],[0,-24]],[[1953,4900],[-102,41],[-36,23],[-21,8],[-37,-3],[2,-147]],[[1759,4822],[-253,0]],[[1506,4822],[0,67],[8,53],[14,39],[16,32],[23,31],[41,46]],[[2767,3088],[252,0]],[[3019,3088],[0,-101]],[[3019,2987],[-126,0],[-126,-1]],[[2767,2986],[0,102]],[[883,2330],[0,33]],[[883,2363],[123,-59]],[[1006,2304],[1,-249]],[[1007,2055],[-125,-1]],[[882,2054],[-1,239],[2,37]],[[1007,987],[251,0]],[[1258,862],[-191,1]],[[1067,863],[-60,124]],[[1762,1861],[95,-4]],[[1857,1857],[12,-34],[36,-160],[12,-39],[9,-18]],[[1926,1606],[-38,0]],[[1888,1606],[-127,1]],[[1761,1607],[0,126]],[[1510,1359],[125,-1]],[[1635,1358],[126,0]],[[1761,1358],[0,-156]],[[1761,1202],[0,-31]],[[1761,1171],[-126,1],[0,62],[-125,0]],[[1510,1234],[0,125]],[[4217,4149],[22,48],[36,72]],[[4275,4269],[80,1],[235,-3],[170,1]],[[4760,4268],[0,-183]],[[4760,4085],[-116,1],[-35,11],[-84,43],[-18,6]],[[4507,4146],[-17,3],[-257,-2],[-16,2]],[[2492,7577],[253,1],[126,2]],[[2871,7580],[50,1],[40,-13],[-8,-16],[30,-37]],[[2983,7515],[-44,-35],[-37,-23],[-19,-48],[-20,-23],[-39,-76],[-44,-51],[-10,-34],[-11,-14],[-26,-24],[-14,-19],[-14,-43],[-14,-32],[-3,-28],[7,-35],[15,-22],[23,-11],[91,-18],[40,-5],[28,-6],[28,-15],[15,-12],[49,-59],[11,-18],[7,-32],[1,-45]],[[3003,6787],[1,-208]],[[3004,6579],[-194,8],[-68,0]],[[2742,6587],[-2,5]],[[2740,6592],[-38,114],[50,-1],[-2,191],[-165,4]],[[1592,2467],[169,1]],[[1761,2468],[1,-124]],[[1762,2344],[-169,-1]],[[1593,2343],[-1,124]],[[3460,1450],[72,1]],[[3532,1451],[108,1]],[[3640,1452],[2,-205]],[[3642,1247],[-108,0],[0,29],[-73,0]],[[3461,1276],[-1,174]],[[3254,3518],[65,0],[8,-8],[1,-39],[9,-57],[-26,-37],[-33,-19],[-24,-1]],[[3254,3357],[0,161]],[[224,7316],[252,7]],[[476,7323],[3,-248]],[[479,7075],[-252,-7]],[[227,7068],[-3,248]],[[1761,1607],[-126,0]],[[1635,1607],[-126,1]],[[1509,1608],[1,126]],[[4131,2696],[59,14],[67,18]],[[4257,2728],[-1,-132],[63,0]],[[4319,2596],[0,-61],[-62,-1]],[[4257,2534],[-126,1]],[[4131,2535],[0,161]],[[4885,2598],[126,-1]],[[5011,2597],[125,0]],[[5136,2597],[1,-216]],[[5137,2381],[-125,0]],[[5012,2381],[-125,0]],[[4887,2381],[-2,217]],[[2389,2500],[0,-155]],[[2389,2345],[-125,0]],[[2264,2345],[0,155]],[[2514,2531],[253,1]],[[2767,2532],[0,-62]],[[2767,2470],[-126,-1]],[[2641,2469],[-127,0]],[[2514,2469],[0,31]],[[1384,1359],[126,0]],[[1510,1234],[0,-124]],[[1510,1110],[-126,0]],[[1384,1110],[0,249]],[[1511,2812],[0,32]],[[1511,2844],[157,-31]],[[1668,2813],[-2,-57],[-38,-1],[1,-124],[-38,0],[0,-40]],[[1591,2591],[1,-124]],[[1593,2343],[-82,0]],[[1511,2343],[1,153],[-2,94]],[[1510,2590],[1,222]],[[13,6690],[25,0],[190,5]],[[230,6451],[-99,-3],[-21,-3],[-93,-2]],[[17,6443],[-4,247]],[[2641,2160],[63,1],[0,-62],[63,0]],[[2767,2099],[1,-69]],[[2768,2030],[-126,2]],[[2642,2032],[-1,128]],[[4003,3679],[12,11],[12,28],[29,32],[15,10],[95,58],[37,17],[16,3],[288,1]],[[4507,3839],[0,-249]],[[4507,3590],[-135,0],[-369,-1]],[[4003,3589],[0,90]],[[3818,3214],[1,-124]],[[3819,2843],[-62,0]],[[3757,2843],[0,153]],[[3757,2996],[-1,218]],[[1868,1855],[20,4],[0,239]],[[1888,2098],[125,0]],[[2013,2098],[0,-66]],[[2013,2032],[1,-175]],[[2014,1857],[0,-8]],[[2014,1849],[-63,0],[-63,2],[-20,4]],[[2202,2160],[143,0]],[[2345,2160],[1,-62]],[[2346,2098],[0,-66]],[[2346,2032],[-81,-1]],[[2265,2031],[-63,1]],[[2202,2032],[0,128]],[[2346,2098],[170,0],[0,-66]],[[2516,2032],[-63,0]],[[2453,2032],[-107,0]],[[4802,3589],[211,-1]],[[5013,3588],[0,-124]],[[5013,3464],[-253,1]],[[4760,3465],[0,66],[42,58]],[[4373,6336],[5,39],[17,-2],[53,34],[29,24],[75,67],[67,66],[4,-7],[1,-41],[-5,-6],[0,-42],[40,-50],[94,-1],[0,94]],[[4753,6511],[46,-81],[75,-218],[-373,-173],[0,-14],[-50,-26],[-6,11],[-44,-28]],[[4401,5982],[0,66],[3,41],[-29,0],[1,211],[-3,36]],[[1511,2958],[11,10],[-1,39],[3,16],[238,4],[1,176]],[[1763,3203],[2,133]],[[1765,3336],[53,0],[12,18],[1,107]],[[1831,3461],[130,2],[0,-29],[56,0]],[[2017,3434],[0,-15],[13,-18],[55,-24],[17,-23],[1,-14]],[[2103,3340],[-4,-20],[-14,-12],[-31,-13],[-15,-14],[-12,-25],[-3,-18],[23,-34],[-6,-29],[-26,-21],[-7,-14],[-1,-18],[9,-32],[-1,-133]],[[2015,2957],[-253,-2],[-251,-3]],[[1511,2952],[0,6]],[[4660,2381],[50,1]],[[4710,2382],[177,-1]],[[4887,2381],[-1,-138]],[[4886,2243],[-127,17],[-42,12],[-25,14],[-30,3],[-2,92]],[[725,7573],[126,0],[127,-4]],[[978,7569],[1,-132],[3,-382],[1,-35],[-27,23],[-40,27],[-23,23],[-62,84],[-23,23],[-152,124]],[[656,7324],[72,0],[-3,249]],[[1201,310],[31,-19],[19,-7],[38,-3],[31,4],[64,24],[0,57]],[[1384,366],[30,0],[158,102],[-19,28]],[[1553,496],[58,38],[19,-28],[194,125]],[[1824,631],[15,-22],[108,78],[36,32],[59,57],[37,29],[13,-45],[20,-50],[25,-41],[63,-91]],[[2200,578],[-188,-169],[-60,-64],[-62,-93],[-56,-63],[-73,-36],[-121,-35],[-64,-17],[-113,-73],[-79,-28],[-89,0],[-70,32],[14,45],[-1,53],[20,94],[-33,9],[-74,2]],[[1151,235],[50,75]],[[4634,2839],[16,6],[76,0]],[[4949,2845],[-1,-53],[-188,0],[-1,-70]],[[4759,2722],[-126,0],[1,117]],[[4949,2845],[63,0]],[[5012,2845],[-1,-88]],[[5011,2757],[0,-36]],[[5011,2721],[-252,1]],[[4735,5101],[8,50],[24,121],[11,67],[-26,3],[0,124],[126,0],[0,124]],[[4878,5590],[66,-1]],[[4944,5589],[1,-19],[8,-11],[39,-8],[12,-20],[1,-190],[252,-1]],[[5257,5340],[-3,-45],[-11,-29],[-34,-55],[-10,-29],[-1,-15],[2,-75]],[[5200,5092],[-411,1],[-38,-20]],[[4751,5073],[-16,28]],[[5167,4579],[23,126],[3,122]],[[5193,4827],[-3,95],[3,55],[7,40],[0,75]],[[5200,5092],[13,0],[-2,21],[88,13],[92,-2],[104,-14],[0,-18],[14,0]],[[5509,5092],[3,-263]],[[5512,4829],[0,-61]],[[5512,4768],[-251,-3],[2,-185]],[[5263,4580],[1,-308]],[[5264,4272],[-37,-4],[-56,-2],[-70,0]],[[5101,4266],[18,32],[16,34],[9,34],[5,121],[18,92]],[[4756,4827],[253,-1],[184,1]],[[5167,4579],[-156,-1],[-250,1]],[[4761,4579],[-5,248]],[[5509,5587],[252,0]],[[5761,5587],[0,-233]],[[5761,5354],[-149,0],[-91,-1],[-12,-5],[0,239]],[[1555,8130],[228,-3],[145,0]],[[1928,8127],[0,-17],[10,-32],[1,-116],[-12,-34],[-34,1],[-16,-11],[86,-82],[16,-27],[5,-24],[2,-78],[1,-134]],[[1987,7573],[-257,-1]],[[1730,7572],[4,8],[0,51],[-3,313],[-104,-1],[-35,14],[-26,23],[-11,21]],[[1555,8001],[-4,18],[-1,80],[5,31]],[[3493,6088],[62,-5],[190,1],[251,0],[250,0],[2,19],[1,233]],[[4249,6336],[124,0]],[[4401,5982],[-141,-130],[71,-120],[35,-48],[8,-19],[2,-17],[-7,-57]],[[4369,5591],[-352,1]],[[4017,5592],[-97,0],[-25,22],[-16,7],[-53,5],[-25,7],[-28,19],[-20,24],[-9,4]],[[3744,5680],[-27,36],[-225,1],[1,371]],[[5026,8115],[103,0],[25,-1],[144,-2],[145,0],[98,-1]],[[5541,8111],[-5,-135],[10,-68],[48,-127],[23,-49],[38,-121],[2,-47],[-7,-34],[-53,-113],[-22,-52],[-33,-51],[-36,-1]],[[5506,7313],[0,197],[-42,-19],[-27,-46],[-20,-22],[-38,-68],[-17,-36],[-106,-46],[-63,-12],[-60,3],[-39,25]],[[5094,7289],[-67,132],[-46,135],[2,27],[-14,67],[0,43],[14,25],[-7,43],[-28,51],[-2,15],[12,108],[15,36],[25,14],[9,15],[2,79],[4,16],[13,20]],[[3630,3336],[125,1]],[[3756,3214],[-62,-44],[-63,-42]],[[3631,3128],[-1,208]],[[3583,7508],[29,2],[34,-18],[22,-32],[82,-49],[4,70],[-2,66],[0,84],[2,16],[-1,176],[265,1],[-2,299]],[[4016,8123],[115,0],[91,-1],[12,-2]],[[4234,8120],[9,-46],[1,-497],[1,-250],[3,-465]],[[4248,6862],[0,-30]],[[4248,6832],[-63,0],[-28,11],[-8,8],[-84,93],[-11,22],[-60,7],[-40,0],[-38,15]],[[3916,6988],[-7,41],[-41,14],[-25,4],[-47,-1],[-53,-9],[1,23],[9,30],[-4,27],[-1,56],[-12,57],[-10,20],[-25,30],[-27,42],[-41,22],[-22,19],[7,42],[-1,31],[-8,25],[-26,47]],[[3477,3334],[153,2]],[[3631,3128],[-61,-28],[0,-13],[-64,-1],[-64,-7]],[[3442,3079],[-3,133],[-4,122]],[[3435,3334],[42,0]],[[4017,5592],[0,-71],[6,-18],[28,-50],[1,-28],[-10,-17],[-34,-23],[-16,-30],[1,-117],[-212,0],[-17,-12],[-22,-3]],[[3742,5223],[0,369],[2,88]],[[4369,5591],[-60,-88],[-29,-36],[-59,-59],[18,-98],[-5,-88],[-51,-126]],[[4183,5096],[-393,0],[-48,0]],[[3742,5096],[0,127]],[[4250,6584],[77,0]],[[4327,6584],[125,0],[83,-3],[218,1]],[[4753,6582],[0,-71]],[[4249,6336],[1,248]],[[1510,2203],[252,2]],[[1762,2205],[79,2],[172,-3]],[[2013,2204],[0,-76]],[[2013,2128],[0,-30]],[[1888,2098],[-126,0],[0,-65]],[[1762,2033],[-252,-3]],[[1510,2030],[2,55],[-2,118]],[[1387,2799],[70,13],[54,0]],[[1510,2590],[-127,0]],[[1383,2590],[1,198],[3,11]],[[2521,3828],[114,1],[30,-21],[27,-2],[21,-9],[21,-21],[24,-10],[33,-4],[45,-24],[113,-41],[30,-22],[41,-16]],[[3020,3659],[0,-74]],[[3020,3585],[-93,-1]],[[2927,3584],[-156,-1],[-151,0],[-46,-2],[-53,2]],[[2521,3583],[0,245]],[[1926,1606],[11,-19],[22,-24],[22,-18],[25,-15],[47,-35],[2,-13],[82,0],[-31,-33],[-18,-23],[-13,-24],[-15,-45]],[[2060,1357],[-46,0]],[[2014,1357],[-88,0]],[[1926,1357],[-38,0]],[[1888,1357],[0,249]],[[5510,3216],[3,49],[-2,76],[0,248]],[[5511,3589],[504,10]],[[6015,3599],[-1,-160]],[[6014,3439],[-53,-19],[-32,-14],[-337,-160],[-63,-31]],[[5529,3215],[-19,-8]],[[5510,3207],[0,9]],[[4751,7206],[253,-1],[23,21],[22,0],[45,63]],[[5506,7313],[0,-54]],[[5506,7259],[-250,-105]],[[5256,7154],[-126,-33],[-127,-30],[0,-10],[-126,1],[0,-21],[-126,-30]],[[4751,7031],[0,175]],[[2345,2160],[170,0],[0,32]],[[2515,2192],[126,1],[0,-33]],[[2642,2032],[-126,0]],[[4539,2970],[221,-1]],[[4634,2839],[-109,-40]],[[4525,2799],[0,43],[24,45],[2,29],[-12,54]],[[1608,5090],[64,75],[18,25],[22,36],[14,31],[23,79],[7,45],[3,35],[1,171]],[[1760,5587],[-1,91]],[[1759,5678],[-1,24],[-9,133],[-1,44],[-4,25],[-21,74]],[[1723,5978],[54,-21],[84,-10],[27,-6],[112,-34]],[[2000,5907],[3,-319],[1,-200]],[[2004,5388],[1,-275],[-3,-22]],[[2992,8123],[279,0],[209,-2],[134,2],[138,-2],[105,2],[61,-1],[98,1]],[[3583,7508],[-16,20],[-72,53],[-39,15],[-52,-2],[-20,5],[-24,16],[-33,-3],[-12,-8],[-38,-47],[-12,-9],[-40,-15],[-24,-5],[-48,0],[-14,-2],[-40,-17],[-19,1],[-44,8],[-28,3],[-25,-6]],[[2871,7580],[-1,125],[126,2],[-1,125]],[[1054,6577],[84,0],[37,3],[126,1],[189,0],[264,0]],[[1754,6581],[-11,-12],[4,-432],[-3,-38],[-18,-61],[-3,-19],[0,-41]],[[1723,5978],[-46,29],[-108,89],[-45,29],[-51,18],[-30,3]],[[1443,6146],[-349,18],[-52,0]],[[1042,6164],[19,227],[1,43],[-8,143]],[[4234,8120],[33,2],[64,0],[120,-3]],[[4451,8119],[4,-23],[15,-25],[35,-37],[33,-24],[9,-31],[10,-25],[18,-53],[13,-20],[27,-21],[10,-18],[-1,-109],[14,-31],[29,-31],[11,-16],[73,-140],[0,-309]],[[4751,7031],[0,-15]],[[4751,7016],[-243,-58],[-13,7],[-92,-22],[-30,-10],[-37,-18]],[[4336,6915],[-88,-53]],[[1995,6589],[31,-1],[82,1],[40,-1],[52,-4],[88,2]],[[2288,6586],[70,6],[50,1],[108,-2],[115,-1],[36,2],[73,0]],[[2742,6587],[63,-191]],[[2805,6396],[-120,2],[6,-26],[-26,-91],[-13,-56],[-21,-30],[-10,-39],[5,-26],[-7,-18],[-12,-7],[-62,-2],[-59,-4],[-52,-12],[-56,0]],[[2378,6087],[-19,69],[-28,58],[-15,17],[-35,19],[-23,29],[-9,41],[-17,12],[-64,2],[-170,-1]],[[1998,6333],[-1,170],[-2,80]],[[1995,6583],[0,6]],[[3004,6579],[4,-492]],[[3008,6087],[0,-94]],[[3008,5993],[-10,25]],[[2998,6018],[-10,10],[-68,59],[-14,18],[-9,21],[-92,270]],[[3008,6087],[485,1]],[[3742,5096],[-138,1],[-75,-15]],[[3529,5082],[-37,-1],[-1,16],[0,248],[-49,0],[-432,-1]],[[3010,5344],[0,247],[-1,393],[-1,9]],[[2769,3335],[252,0]],[[3021,3335],[-1,-92]],[[3020,3243],[-65,-1],[-20,-2],[-108,-19],[-59,-12],[-47,-20],[-52,-39],[-78,-62]],[[2591,3088],[-14,0],[1,62],[64,0],[0,61],[19,3],[21,11],[11,13],[22,48],[54,49]],[[2514,2593],[0,96]],[[2514,2689],[219,-15],[34,-5]],[[2767,2669],[0,-20]],[[2767,2649],[0,-117]],[[5013,3464],[251,1]],[[5264,3465],[-1,-25],[-19,-38],[-19,-62]],[[5225,3340],[-212,0]],[[5013,3340],[0,124]],[[2767,2470],[0,-124]],[[2767,2346],[-126,-1]],[[2641,2345],[0,124]],[[4247,5095],[307,-1]],[[4554,5094],[-19,-47],[-8,-26],[-44,-192],[-24,-59],[-42,-101],[-34,-57],[-16,-31]],[[4367,4581],[-364,-1]],[[4003,4580],[-4,180],[-2,69],[254,-2],[-4,268]],[[3253,3584],[175,-1]],[[3428,3583],[1,-39],[5,-148],[1,-62]],[[3435,3334],[-181,1]],[[3254,3335],[0,22]],[[3254,3518],[-1,66]],[[4756,4827],[-3,194],[6,22],[-8,30]],[[675,1610],[205,0]],[[880,1610],[0,-249]],[[880,1361],[-105,-1],[-9,-59],[-16,-57],[-2,-28],[15,-16],[8,-16],[-13,-18],[-29,-13],[-10,-57],[5,-50]],[[724,1046],[-59,0]],[[665,1046],[-4,65],[39,249],[-25,250]],[[882,2018],[125,0],[-1,-166]],[[1006,1852],[-125,-1]],[[881,1851],[1,167]],[[1007,2055],[115,-1]],[[1122,2054],[-1,-203]],[[1121,1851],[-115,1]],[[882,2018],[0,36]],[[469,7944],[95,0],[23,-16],[34,-17],[133,-42],[47,-9],[106,-13],[70,-12],[0,-138]],[[977,7697],[-253,0],[-6,21],[-13,-5],[-57,-3],[-29,-11],[-21,-2],[-2,125],[-126,0]],[[470,7822],[-1,122]],[[10,6959],[27,10],[22,0],[11,-26],[12,-3],[9,16],[19,2],[12,-16],[10,-39],[29,-8],[36,15],[30,-11],[0,-80]],[[13,6690],[-2,185],[-1,84]],[[880,1610],[127,1]],[[1007,1611],[0,-63]],[[1007,1548],[0,-93]],[[1007,1455],[0,-94]],[[1007,1361],[-127,0]],[[881,1205],[126,0]],[[1007,1205],[0,-93]],[[1007,1112],[0,-65]],[[1007,1047],[-201,-1]],[[806,1046],[0,65],[75,0],[0,94]],[[1007,1361],[0,-156]],[[881,1205],[-1,156]],[[440,6825],[23,3],[16,21],[0,226]],[[479,7075],[252,1],[3,-250],[273,0]],[[1007,6826],[11,-37],[16,-74],[7,-53],[6,-85],[7,0]],[[1042,6164],[-7,0]],[[1035,6164],[-128,-12],[-96,-7]],[[811,6145],[-11,10],[-16,28],[13,15],[6,16],[-4,20],[-17,30],[-38,23],[2,25],[17,35],[-2,22],[-13,22],[-13,5],[-47,35],[-35,38],[18,16],[10,15],[-1,24],[-23,17],[-19,48],[-25,13],[-16,21],[1,12],[-13,12],[-4,18],[19,59],[-49,25],[7,15],[-1,16],[8,10],[-18,14],[-32,1],[-10,-14],[-29,-7],[-21,-15],[-45,0]],[[1067,863],[47,-97],[118,-182],[26,-7]],[[1258,577],[0,-32]],[[1258,545],[-119,-4],[-24,10],[-18,19],[-8,19],[-3,26],[1,122],[-12,37],[-14,16],[-28,16],[-27,4]],[[1006,810],[1,177]],[[1268,5482],[20,34],[19,9],[26,-1],[41,-10],[27,-2],[32,6],[34,24],[45,14],[31,24],[19,7],[198,0]],[[1608,5090],[-102,0],[-255,1]],[[1251,5091],[-1,236],[3,13],[18,20],[6,15],[-5,26],[-11,24],[-3,28],[10,29]],[[1428,5853],[12,-15],[94,-77],[16,-22],[15,-52],[66,10],[57,-4],[71,-15]],[[1268,5482],[-32,-3],[-34,-15],[-16,-2],[-63,0]],[[1123,5462],[0,124]],[[1123,5586],[-5,247],[93,1],[23,-3],[30,-12],[27,-5],[26,2],[63,16],[48,21]],[[1509,4584],[127,-6],[125,-5]],[[1761,4573],[4,-299],[3,-21],[-2,-31]],[[1766,4222],[-240,-2]],[[1526,4220],[-6,0]],[[1520,4220],[-2,48],[-7,30],[-3,39],[4,69],[-3,178]],[[2346,5593],[168,-2],[180,-1],[92,-3],[1,-15],[-31,2],[0,-53],[-13,-23],[-18,-10],[-19,-3],[-40,0],[-16,-3],[-31,-15],[-111,0],[0,-107]],[[2352,5342],[28,50]],[[2380,5392],[4,19],[0,49],[-12,29],[-26,24],[-7,15],[-1,26],[8,39]],[[2378,6087],[-1,0]],[[2377,6087],[-378,-2]],[[1999,6085],[-1,248]],[[1384,578],[173,1]],[[1557,579],[-41,-27],[37,-56]],[[1384,366],[0,101]],[[1384,467],[0,111]],[[2998,6018],[-11,-10],[-4,-25],[-18,-20],[-459,0],[-116,-1]],[[2390,5962],[-5,62],[-8,63]],[[974,8133],[87,-2],[109,1],[79,-1],[132,0],[174,-1]],[[1555,8001],[-45,-26],[-25,-19],[-9,-24],[-15,-17],[-36,-8],[-15,13],[-17,-4],[-21,3],[-27,-12],[-11,14],[-26,-3],[-4,-14],[-40,-35],[-14,-19],[-18,-1],[-29,-33],[-17,-2],[-2,-34],[-10,-58],[-21,-15],[-29,-12],[5,-20],[-19,-21],[-34,-11],[-12,-19],[9,-15],[-10,-39]],[[1063,7570],[-78,-1]],[[985,7569],[0,71],[-2,112],[-1,194],[-6,0],[-2,187]],[[2389,5787],[5,16],[4,45],[-6,65],[-2,49]],[[3010,5344],[1,-17]],[[2346,5593],[32,152],[11,42]],[[1510,2867],[28,-9],[17,2],[18,15],[10,18],[23,12],[60,0],[18,-5],[43,-34],[13,-6],[22,0],[182,2],[71,-12]],[[2015,2850],[-1,-106]],[[2014,2744],[-189,36],[-63,14]],[[1762,2794],[-94,19]],[[1511,2844],[-1,23]],[[3486,2207],[13,-3],[14,-20]],[[3513,2184],[-16,-15],[-92,-60]],[[3405,2109],[-34,53]],[[3371,2162],[29,14],[21,-10],[14,4],[51,37]],[[3513,2184],[20,-29],[-74,-51]],[[3459,2104],[-34,-23],[-20,28]],[[503,2438],[29,10],[22,4],[38,-35],[38,-20],[9,-10],[30,-47],[167,1],[17,10],[30,-21]],[[881,1851],[-1,-241]],[[675,1610],[4,122],[13,125],[-48,236],[-38,89],[-103,71],[-1,115],[1,70]],[[3816,3586],[57,2],[130,1]],[[4003,3589],[2,-248]],[[4005,3341],[-40,-4],[-22,3],[-63,-1]],[[3817,3338],[-1,248]],[[4751,6957],[268,-1]],[[5019,6956],[0,-66],[-16,-25],[0,-34],[64,0],[0,-124]],[[5067,6707],[-7,0]],[[5060,6707],[-284,0],[2,38],[-7,25],[-19,10],[-1,177]],[[5517,1564],[157,3],[27,-2],[29,-8],[34,-15],[85,-51]],[[5849,1491],[-6,-10],[-24,-3],[3,-34],[14,-38],[-3,-19],[-15,-38],[-20,4],[-281,-6]],[[5517,1347],[0,217]],[[4751,7016],[0,-59]],[[5060,6707],[-1,-124]],[[5059,6583],[-306,-1]],[[4327,6584],[-2,38],[0,91],[11,202]],[[1761,908],[15,14],[45,0],[27,11],[8,12],[14,54],[25,46],[11,44],[13,19],[12,60],[3,33]],[[1934,1201],[0,78],[-8,78]],[[2014,1357],[-1,-250],[-26,-57],[-16,-86],[-23,-90],[-1,-15],[-43,-43],[-43,-40],[-71,-45]],[[1790,731],[-29,-19]],[[1761,712],[-13,33],[13,20],[0,143]],[[1201,310],[29,39],[41,38],[50,39],[63,41]],[[5263,4580],[251,2]],[[5514,4582],[0,-188],[-2,-109]],[[5512,4285],[-149,-2],[-99,-11]],[[4369,5591],[379,0],[-7,-26],[11,-2],[0,-24],[-22,-13],[-7,-28],[76,0],[20,92]],[[4819,5590],[59,0]],[[4735,5101],[-8,-8],[-173,1]],[[4247,5095],[-64,1]],[[5541,8111],[95,1],[184,-1],[196,0],[2,-168],[1,-355],[-1,-187]],[[6018,7401],[-47,-6],[-207,-34],[-36,-10],[-35,-13],[-131,-55]],[[5562,7283],[-56,-24]],[[3475,1943],[204,95]],[[3679,2038],[27,-71],[9,-31],[54,-140],[54,-135],[18,-48],[19,-58],[8,-42]],[[3868,1513],[-32,28],[-53,33],[-42,29],[-57,45],[-49,28]],[[3635,1676],[-7,20],[-73,122],[-31,52],[-49,73]],[[5517,1100],[331,6],[41,3],[127,1],[5,-6]],[[6021,1104],[1,-242]],[[6022,862],[-500,-9]],[[5522,853],[-5,247]],[[2767,2210],[42,-13],[27,-1],[2,27],[-1,93],[98,0],[0,31]],[[2935,2347],[83,0]],[[3018,2347],[-2,-117],[5,-22],[9,-10],[-45,-79]],[[2985,2119],[-30,25],[-27,16],[-49,-3],[-44,6],[-40,3],[-28,5]],[[2767,2171],[0,39]],[[2517,4323],[500,5]],[[3017,4328],[1,-164],[2,-36]],[[3020,4128],[-122,0],[-37,3],[-57,12],[-178,48],[-41,6],[-67,-1]],[[2518,4196],[-1,127]],[[504,2766],[156,-87]],[[660,2679],[1,-77],[-5,-25],[1,-58],[24,-33],[59,-49],[37,-24],[106,-50]],[[503,2438],[1,328]],[[3203,2201],[29,-37]],[[3232,2164],[-58,-40],[39,-56]],[[3213,2068],[-65,-43],[-41,4],[-34,32]],[[3073,2061],[20,32],[19,41],[13,19],[19,16],[41,20],[18,12]],[[3203,2201],[75,52],[20,15]],[[3298,2268],[73,-106]],[[3371,2162],[-35,-23]],[[3336,2139],[-59,-38]],[[3277,2101],[-45,63]],[[3432,2001],[31,28],[32,21],[-36,54]],[[3486,2207],[16,23]],[[3502,2230],[31,1],[57,19]],[[3590,2250],[28,-53],[61,-159]],[[5012,2845],[0,106],[83,51],[42,20]],[[5137,3022],[-1,-265]],[[5136,2757],[-125,0]],[[22,6090],[43,-9],[65,-6],[45,-2],[62,1]],[[237,6074],[8,-53],[-2,-192],[2,-27],[-1,-97]],[[244,5705],[-2,-123]],[[242,5582],[-216,-4]],[[26,5578],[1,95],[-3,213],[-2,99],[0,105]],[[3417,4232],[41,3],[56,-4],[27,-4],[112,-27],[47,-5],[50,0]],[[3750,4195],[2,-361]],[[3752,3834],[-125,-1]],[[3627,3833],[-3,247],[-125,-1],[-80,0]],[[3419,4079],[-2,153]],[[3627,3833],[-125,-2],[-80,1]],[[3422,3832],[-2,111],[-1,136]],[[1762,2344],[252,1]],[[2014,2345],[-1,-122]],[[2013,2223],[0,-19]],[[1762,2205],[0,139]],[[1768,3833],[252,4]],[[2020,3837],[-2,-248]],[[2018,3589],[-250,-5]],[[4451,8119],[19,-1],[279,-2],[73,1],[66,-2],[138,0]],[[2287,1178],[30,29],[91,85],[59,57]],[[2467,1349],[1,-120],[-14,-15],[39,-33],[-27,-19],[-29,-24]],[[2437,1138],[-40,-38],[-8,7],[-92,0],[1,61],[-11,10]],[[4760,4268],[341,-2]],[[5264,4272],[0,-39],[-11,-4],[0,-21],[10,-5],[1,-119]],[[5015,4084],[-255,1]],[[5512,4285],[2,-124],[-1,-123]],[[5513,4038],[0,-1]],[[5513,4037],[-186,-150],[-63,-52]],[[5514,4582],[249,5]],[[5763,4587],[0,-155],[64,1],[0,-29]],[[5827,4404],[-67,-54],[-29,-16],[-30,-13]],[[5701,4321],[-125,-35],[-64,-1]],[[5701,4088],[0,-145],[13,-39],[-18,-26],[-8,-20],[1,-17]],[[5689,3841],[-175,-3]],[[5514,3838],[-1,199]],[[5513,4038],[60,48],[128,2]],[[5761,5587],[96,1]],[[5857,5588],[156,1]],[[6013,5589],[-1,-183],[3,-101],[-3,-188]],[[6012,5117],[-42,0],[-17,-4],[-23,-18],[-13,-3],[-107,0],[-40,9],[-9,18],[0,235]],[[2768,2030],[0,-106]],[[2768,1924],[-125,-1]],[[2643,1923],[-1,109]],[[4936,5874],[15,30],[66,176],[2,6]],[[5019,6086],[236,-1]],[[5255,6085],[1,-248]],[[5256,5837],[-226,2],[-39,2],[-30,15],[-25,18]],[[2198,2714],[66,-6],[250,-19]],[[2264,2594],[-66,0],[0,120]],[[2917,5096],[-6,-11],[-16,-6],[-46,-6],[-53,-17],[-37,-19],[-43,-33],[-201,-205],[1,-225]],[[2516,4574],[-211,0],[-41,-6],[-38,-18]],[[2226,4550],[-15,24],[-14,62],[-1,55],[-5,44],[18,46],[10,16],[41,46],[-3,251]],[[2768,2030],[103,0],[-1,-45],[5,-7]],[[2875,1978],[-21,-3],[-53,-36],[-33,-15]],[[2516,4574],[249,1]],[[2765,4575],[250,1]],[[3015,4576],[2,-248]],[[2517,4323],[-1,251]],[[2193,3834],[7,7],[64,9],[5,6],[0,224]],[[2269,4080],[250,-5]],[[2519,4075],[2,-247]],[[2521,3583],[-287,4]],[[2234,3587],[-42,0]],[[2192,3587],[1,247]],[[3020,4080],[399,-1]],[[3422,3832],[-171,0],[2,-248]],[[3253,3584],[-233,1]],[[3020,3659],[0,174],[-1,177],[1,70]],[[3072,4948],[151,-1],[22,-6],[91,-1],[31,7],[30,-1],[8,-123],[-2,-90],[-6,-52],[-6,-21]],[[3391,4660],[-49,19],[-21,3],[-45,-8],[-17,-9],[-28,-23]],[[3231,4642],[-8,48],[-16,42],[-53,73],[-44,58],[-22,38],[-16,47]],[[3752,3834],[250,3],[16,-6]],[[4018,3831],[-9,-27],[-2,-22],[-4,-103]],[[3816,3586],[-63,1]],[[3753,3587],[-106,-2]],[[3647,3585],[-2,35],[-14,40],[-3,95],[-1,78]],[[2956,1679],[29,19],[74,52],[109,78],[40,28],[57,31],[89,34]],[[3060,1568],[-37,41],[-67,70]],[[3277,2101],[-28,-8],[-36,-25]],[[5261,2597],[251,-1]],[[5512,2596],[0,-217]],[[5512,2379],[-250,1]],[[5262,2380],[-1,217]],[[5512,2379],[1,-152],[-1,-67]],[[5512,2160],[-95,18],[-120,20],[-34,4]],[[5263,2202],[-1,178]],[[237,6074],[5,0]],[[242,6074],[246,5],[45,3]],[[533,6082],[8,-22],[5,-34],[-4,-68]],[[542,5958],[-67,0],[1,-124],[16,0],[1,-79],[-17,-4],[-41,-29],[-6,-13]],[[429,5709],[-185,-4]],[[493,5586],[33,0]],[[526,5586],[89,1],[17,6],[23,21],[13,3],[39,0]],[[707,5617],[-3,-34],[24,-62],[16,-66],[1,-23],[1,-94],[-121,0]],[[625,5338],[-131,0]],[[494,5338],[-1,248]],[[1443,6146],[8,-66],[7,-70],[-4,-28],[-29,-88],[-2,-30],[5,-11]],[[1123,5586],[-125,0],[0,5]],[[998,5591],[0,92],[-3,13],[-2,97],[20,140],[9,86],[13,145]],[[1251,5091],[-252,0]],[[999,5091],[-1,246],[126,1],[-1,124]],[[1766,4222],[-2,-30],[3,-112],[1,-247]],[[1579,3830],[-56,-1]],[[1523,3829],[3,105],[0,286]],[[3298,2268],[28,23],[22,12],[35,2]],[[3383,2305],[36,-17],[45,-42],[38,-16]],[[6014,3439],[0,-214]],[[6014,3225],[-126,-2],[0,-124],[-252,-4]],[[5636,3095],[-17,37],[-17,16],[-39,27],[-23,22],[-11,18]],[[806,1046],[-82,0]],[[234,6323],[3,-198],[5,-51]],[[22,6090],[-5,353]],[[220,7566],[26,-4],[31,-17],[27,-8],[32,1],[12,5],[23,27],[102,2]],[[473,7572],[1,-96]],[[474,7476],[2,-153]],[[224,7316],[-4,250]],[[10,7063],[32,0],[185,5]],[[10,6959],[0,104]],[[1121,1851],[11,0]],[[1132,1851],[0,-241]],[[1132,1610],[-125,1]],[[1007,1611],[-1,241]],[[1006,738],[0,72]],[[1258,545],[0,-55],[-41,-8],[-25,7],[-60,0]],[[1132,489],[-126,-1],[0,250]],[[1509,1608],[-80,0]],[[1429,1608],[0,76],[-7,11],[0,77],[13,0],[0,36],[-37,0],[6,17],[20,25]],[[2004,5388],[66,0],[71,-4],[71,0],[44,1],[0,6],[124,1]],[[2257,5094],[-255,-3]],[[2200,8126],[287,-2]],[[2489,7826],[3,-249]],[[2077,7574],[-1,27],[22,41],[0,37],[-5,33],[-6,11],[-17,10],[11,28],[-1,25],[5,17],[14,19],[4,13],[-1,63],[-17,67],[-15,30],[23,11],[14,0],[64,-9],[23,11],[3,17],[-5,32],[7,30],[1,39]],[[2389,5787],[-162,50],[-126,39],[-101,31]],[[2000,5907],[-1,178]],[[1557,579],[133,85],[71,48]],[[1790,731],[34,-100]],[[4501,2598],[157,0]],[[4658,2598],[1,-92],[47,-1],[0,-93],[4,-30]],[[4660,2381],[-150,0]],[[4510,2381],[-9,0]],[[4501,2381],[2,12],[-2,205]],[[1635,1607],[0,-249]],[[1510,1359],[-1,249]],[[4802,3589],[24,37],[3,13],[-7,75],[-20,122],[-42,1]],[[4760,3837],[0,248]],[[3018,2347],[-1,109]],[[3017,2456],[2,66],[-8,39],[0,41]],[[3011,2602],[162,-1],[44,0]],[[3217,2601],[0,-42],[-22,-113],[1,-9],[44,-84]],[[3240,2353],[58,-85]],[[3073,2061],[-15,-19]],[[3058,2042],[-9,27],[-37,-34],[-38,32],[39,31],[-28,21]],[[3568,2839],[64,1]],[[3632,2840],[125,1]],[[3757,2841],[-1,-247]],[[3756,2594],[-90,-1]],[[3666,2593],[-99,-1],[0,49],[8,17],[-21,29],[13,25],[1,127]],[[3373,2087],[-37,52]],[[3387,2418],[-10,-74],[6,-39]],[[3240,2353],[26,16],[48,34],[16,9],[26,7],[31,-1]],[[3387,2418],[152,-1],[16,23],[63,54],[47,1],[1,98]],[[3756,2594],[101,1]],[[3857,2595],[-23,-40],[-52,-25],[-49,-32],[-11,-59],[5,-70],[35,22],[35,-35]],[[3797,2356],[-21,-9],[-36,-9],[-20,-10],[-17,-14],[-46,-30],[-67,-34]],[[3797,2356],[42,-36],[24,-24],[30,-36],[42,-26],[27,-8],[34,-5],[74,-4]],[[4070,2217],[48,-82],[45,-66]],[[4163,2069],[-23,-26],[-23,-35]],[[4117,2008],[-29,-43]],[[4088,1965],[-130,64],[-106,27],[-173,-18]],[[3640,1452],[70,-2]],[[3710,1450],[-19,-39],[5,-34]],[[3696,1377],[9,-61],[21,-123],[103,0]],[[3829,1193],[3,0],[0,-89]],[[3832,1104],[-189,2]],[[3643,1106],[-1,141]],[[4117,2008],[123,-45],[89,-27],[52,28],[35,11],[123,47],[67,21],[27,7]],[[4633,2050],[10,-19],[32,-32],[48,-30],[28,-27],[16,-26],[68,-157],[36,-80],[14,-25],[30,-34]],[[4915,1620],[65,-73],[24,-32],[30,-56],[38,-54],[98,-149],[12,-22],[16,-42],[42,-123],[13,-46],[12,-57]],[[5265,966],[8,-71],[8,-44],[15,-63],[14,-41],[28,-106],[31,-103],[10,-41],[12,-106],[7,-29],[55,-187],[16,-59]],[[5469,116],[-328,-1],[-113,114],[-250,129],[-182,249],[-76,248],[-160,247]],[[4360,1102],[19,0],[26,14],[-11,14],[-23,93],[12,102],[26,61],[6,139],[-12,100],[-54,132],[-113,124],[-148,84]],[[4163,2069],[18,-14],[78,1],[1,157]],[[4260,2213],[50,1],[80,7],[72,11],[57,6],[57,5],[44,1]],[[4620,2244],[11,-24],[4,-21],[0,-94]],[[4635,2105],[-8,0],[0,-35],[6,-20]],[[5013,2138],[102,-1],[21,-10],[17,-19],[15,-6],[95,0]],[[5263,2102],[2,-168]],[[5265,1934],[-12,-6],[-27,-3],[-20,4],[-37,15],[-14,0],[-33,-17],[-20,-28]],[[5102,1899],[-34,19],[-27,9],[-26,2],[-2,176]],[[5013,2105],[0,33]],[[5512,2596],[228,2],[-2,50],[-10,17],[31,26],[0,32],[-59,0],[1,139]],[[5701,2862],[198,94],[19,11],[95,63]],[[6013,3030],[-2,-241],[2,-116],[0,-195],[2,-63],[0,-317]],[[6015,2098],[-111,-1],[-71,5],[-35,6],[-98,23],[-120,20],[-68,9]],[[6014,3225],[0,-124],[-1,-71]],[[5701,2862],[-59,-35],[-9,6],[-1,27],[4,26],[0,209]],[[4886,2243],[-7,-34],[-99,20],[1,-123]],[[4781,2106],[-146,-1]],[[4620,2244],[-9,19],[-1,23],[-49,3],[-51,0],[0,92]],[[4258,2380],[243,1]],[[5512,4768],[2,-186]],[[4658,2598],[101,0]],[[4759,2598],[126,0]],[[5701,4088],[63,1],[250,6]],[[6014,4095],[0,-247]],[[6014,3848],[-250,-5],[-1,-124],[-62,-1],[0,124],[-12,-1]],[[1762,2794],[-1,-202]],[[1761,2592],[-170,-1]],[[3428,3583],[76,0],[143,2]],[[3647,3585],[-47,-39],[-22,-25],[-10,-20],[-46,-74],[-17,-44],[-28,-49]],[[2389,2345],[126,0]],[[2515,2345],[0,-124]],[[2515,2221],[-171,1],[-80,-1]],[[2264,2221],[0,124]],[[3422,3832],[1,-113],[5,-136]],[[5200,3216],[263,1],[47,-1]],[[5510,3207],[-64,-28],[-78,-41],[-98,-46],[-133,0]],[[5137,3092],[0,31],[62,0],[1,93]],[[3387,1451],[73,-1]],[[3461,1276],[0,-81],[-71,0]],[[3390,1195],[0,35],[-127,2]],[[3263,1232],[1,12],[-41,0],[0,68]],[[3223,1312],[-1,135]],[[4007,2846],[250,0]],[[4257,2846],[0,-116]],[[4257,2730],[0,-2]],[[4131,2696],[-34,-7],[-93,-5]],[[4004,2684],[3,162]],[[4319,2596],[182,2]],[[4258,2380],[-1,154]],[[3880,3277],[125,1],[1,-61]],[[4006,3217],[0,-124]],[[4006,3093],[-84,-1]],[[977,7697],[1,-128]],[[725,7573],[-252,-1]],[[473,7572],[-3,250]],[[1259,2030],[95,0]],[[1354,2030],[29,0]],[[1331,1852],[-73,-1]],[[1258,1851],[1,179]],[[1761,4573],[251,-11]],[[2012,4562],[4,-339]],[[2016,4223],[-145,0],[-105,-1]],[[3981,2479],[25,17],[3,7],[-1,55],[-4,86],[0,40]],[[4131,2535],[0,-63],[-145,0],[-5,7]],[[3916,6988],[-52,6],[-67,-6],[-14,-6],[-53,-30],[-79,-27],[-18,-12],[-31,-77],[-14,-20],[-15,-12],[-114,-40],[-10,-1],[-28,8],[-86,15],[-61,3],[-15,5],[-17,20],[-25,7],[-38,-11],[-36,-5],[-47,-3],[-42,-13],[-51,-2]],[[2771,1604],[0,31]],[[2771,1635],[45,43],[54,53],[63,58]],[[2933,1789],[0,-59],[7,-30],[16,-21]],[[3060,1568],[-82,-115],[-90,-127],[-155,-74]],[[2733,1252],[-29,91],[-3,41],[13,35],[16,12],[42,41],[-1,132]],[[660,2679],[95,-53]],[[755,2626],[377,-209]],[[1132,2417],[1,-132],[-7,-35]],[[1126,2250],[-120,54]],[[1761,1109],[0,62]],[[1761,1202],[173,-1]],[[1761,908],[0,201]],[[1926,1606],[89,-1]],[[2015,1605],[218,-1]],[[2233,1604],[-1,-64],[34,7],[0,-192]],[[2266,1355],[-206,2]],[[6022,862],[0,-104],[3,-123],[0,-117],[1,-147],[1,-254],[-500,-1]],[[5527,116],[3,28],[-1,169],[-1,141],[-6,399]],[[3119,1311],[104,1]],[[3263,1232],[1,-124],[-143,1]],[[3121,1109],[-2,202]],[[2467,1349],[0,5]],[[2467,1354],[2,29],[0,170],[5,6],[50,21],[6,23]],[[2530,1603],[241,1]],[[2733,1252],[-120,-47],[-87,-48],[-65,-49]],[[2461,1108],[-24,30]],[[6015,2098],[5,-291],[-2,-131],[1,-59],[1,-227]],[[6020,1390],[-171,101]],[[5517,1564],[0,79]],[[5517,1643],[-2,198]],[[5515,1841],[-1,136]],[[5514,1977],[-2,120]],[[5512,2097],[0,63]],[[3012,5095],[1,-147]],[[3013,4948],[-224,-3],[-21,-10],[-6,-18],[3,-342]],[[656,7324],[-55,47],[-127,105]],[[971,5592],[27,-1]],[[999,5091],[-73,0]],[[926,5091],[22,156],[5,57],[6,159],[12,129]],[[508,3579],[252,-1]],[[760,3578],[-1,-123]],[[759,3455],[-32,1],[-94,-1]],[[633,3455],[-126,0]],[[507,3455],[1,124]],[[3013,4948],[59,0]],[[3231,4642],[-60,-53],[-35,-14],[-121,1]],[[3015,4576],[-2,372]],[[4003,4580],[0,-150],[-1,-69],[0,-134]],[[4002,4227],[-66,-25],[-37,-6],[-149,-1]],[[3750,4195],[-2,383],[-6,518]],[[4367,4581],[-12,-46],[-7,-64],[-7,-39],[-19,-58],[-22,-53],[-25,-52]],[[4275,4269],[-134,1],[-31,-3],[-45,-13],[-63,-27]],[[3391,4660],[25,-10]],[[3416,4650],[-2,-106],[1,-93]],[[3415,4451],[-69,-1],[-105,1],[10,-56],[22,-68],[4,-21],[10,-113],[56,22],[27,8],[47,9]],[[3020,4080],[0,48]],[[4217,4149],[-28,-63],[-20,-38],[-26,-42],[-96,-130],[-29,-45]],[[5255,6085],[253,-2]],[[5508,6083],[1,-248]],[[5509,5835],[-211,2]],[[5298,5837],[-42,0]],[[5257,5340],[0,249]],[[5257,5589],[41,0]],[[5298,5589],[211,-2]],[[6012,5117],[0,-118]],[[6012,4999],[-32,15],[-28,21],[-49,15],[-136,24],[-7,-19],[-29,16],[-69,10],[-48,11],[-105,0]],[[242,5582],[251,4]],[[494,5338],[-252,-2]],[[242,5336],[0,62],[0,184]],[[506,4077],[55,36],[20,20]],[[581,4133],[1,-58],[437,-1],[245,1]],[[1264,4075],[0,-247]],[[1264,3828],[-251,-1]],[[1013,3827],[-253,0]],[[760,3827],[-62,0],[-3,35],[3,26],[-128,0],[-63,-2]],[[507,3886],[-1,191]],[[4257,2730],[69,24],[35,14],[58,47],[56,57],[27,46],[11,52]],[[4513,2970],[14,24]],[[4527,2994],[12,-24]],[[4525,2799],[-1,-91],[-19,-47],[-4,-31],[0,-32]],[[2454,1914],[63,0],[0,9],[126,0]],[[2875,1978],[12,19],[42,28],[36,5],[3,13],[0,44],[17,32]],[[3058,2042],[1,-4]],[[3059,2038],[-51,-51],[-79,-86],[-24,-22],[-38,-28],[-98,1]],[[2769,1852],[-145,0]],[[2624,1852],[-169,0]],[[2455,1852],[-1,62]],[[1511,2343],[-65,0]],[[1446,2343],[-1,216],[-62,0],[0,31]],[[2453,2032],[1,-118]],[[2455,1852],[-190,1]],[[2265,1853],[0,178]],[[2014,1857],[3,-4],[60,1],[188,-1]],[[2455,1852],[0,-88]],[[2455,1764],[-189,1]],[[2266,1765],[-63,2],[-189,1]],[[2014,1768],[0,81]],[[1132,1851],[38,1],[88,-1]],[[1258,1851],[0,-242]],[[1258,1609],[-126,1]],[[1132,2417],[110,-61],[16,-7]],[[1258,2349],[41,-7],[54,0]],[[1353,2342],[0,-111],[-82,5],[0,-20]],[[1271,2216],[-44,2],[-50,11],[-51,21]],[[2455,1764],[0,-69]],[[2455,1695],[31,-18],[31,-30]],[[2517,1647],[-53,-34],[-2,-10]],[[2462,1603],[-196,1]],[[2266,1604],[0,161]],[[1271,2216],[51,-25],[-1,-27],[32,-4],[-1,-102],[2,-28]],[[1259,2030],[0,23],[-137,1]],[[1122,2054],[-1,158],[5,38]],[[5383,2808],[47,-1],[45,-5],[35,-17]],[[5510,2785],[2,-189]],[[5261,2597],[0,66],[-4,18],[43,8],[23,9],[14,13],[22,31],[15,31],[9,35]],[[5136,2757],[55,26],[30,11],[30,8],[123,7],[9,-1]],[[5261,2597],[-125,0]],[[5136,2597],[0,160]],[[506,3189],[105,-84],[54,-35],[113,-47]],[[778,3023],[24,-8],[53,-8]],[[855,3007],[129,-18],[79,-13],[182,-24],[49,-3],[217,3]],[[1511,2952],[-1,-85]],[[1387,2799],[-129,-5],[-125,-2],[-1,-202],[126,0]],[[1258,2590],[0,-241]],[[755,2626],[0,86],[-24,69],[19,30],[6,42],[9,15],[20,19],[9,55],[-36,5],[-91,28],[-32,14],[0,-64],[-54,-26],[-77,-10]],[[504,2889],[2,300]],[[504,2766],[0,123]],[[1383,2590],[-125,0]],[[1446,2343],[-93,-1]],[[1761,2592],[0,-124]],[[2014,2744],[0,-149]],[[2014,2595],[-253,-3]],[[2014,2595],[0,-93]],[[2014,2502],[0,-32]],[[2014,2470],[-253,-2]],[[2014,2470],[0,-125]],[[2014,2744],[125,-24],[59,-6]],[[2264,2500],[-125,1]],[[2139,2501],[-125,1]],[[2514,2469],[1,-124]],[[2139,2501],[0,-156]],[[2139,2345],[-125,0]],[[2641,2345],[-126,0]],[[2767,2346],[137,1]],[[2904,2347],[31,0]],[[2767,2210],[0,136]],[[2013,2128],[63,1],[0,30],[126,1]],[[2202,2032],[-189,0]],[[2767,2099],[0,72]],[[3797,2356],[132,88]],[[3929,2444],[53,-69]],[[3982,2375],[21,-27],[66,0],[0,-30],[-34,-1],[-5,-3],[76,-99],[-36,2]],[[3929,2444],[52,35]],[[4132,2380],[-145,-1],[-5,-4]],[[5012,2381],[1,-243]],[[5013,2105],[-98,-1],[-27,3],[-107,-1]],[[5137,2381],[125,-1]],[[5263,2202],[0,-99]],[[5263,2103],[0,-1]],[[5512,2097],[-27,5],[-222,1]],[[1429,1608],[-45,1]],[[1384,1609],[-126,0]],[[1762,2033],[0,-172]],[[1857,1857],[11,-2]],[[2014,1768],[1,-163]],[[4760,4268],[1,311]],[[6012,4999],[1,-129]],[[6013,4870],[-15,6],[-16,-9],[-14,28],[-33,13],[5,-14],[-32,-3],[-42,-8],[-8,42],[-20,-11],[-9,18],[0,27],[-68,-1],[1,-124]],[[5762,4834],[-250,-5]],[[5510,2785],[0,60],[0,362]],[[6020,1390],[1,-286]],[[5517,1100],[0,11]],[[5517,1111],[0,236]],[[4507,3590],[295,-1]],[[4760,3465],[0,-124]],[[4508,3342],[-1,248]],[[5514,1977],[-13,-3],[-11,-20],[-33,-9],[-9,-7],[-24,9],[-13,22],[-25,-5],[-8,-20],[-25,5],[-29,-16],[3,-21],[-17,-4],[-36,12],[-9,14]],[[2266,1604],[-33,0]],[[2624,1852],[0,-46],[-40,-1],[13,-18],[-32,-22],[-47,0],[0,-60],[-9,-10],[-54,0]],[[3059,2038],[5,-31],[11,-23],[22,-21]],[[3097,1963],[-11,-18],[-75,-82],[-54,-53],[-24,-21]],[[2771,1635],[-2,166]],[[2769,1801],[0,51]],[[3097,1963],[40,-28],[39,-11],[56,-6],[75,15]],[[4360,1102],[-197,0]],[[4163,1102],[-36,64],[-21,31],[-55,68],[-53,46]],[[3998,1311],[19,16],[-44,68],[-42,58],[-28,30],[-35,30]],[[1258,1609],[0,-63]],[[1258,1546],[-251,2]],[[1258,1546],[0,-93]],[[1258,1453],[-251,2]],[[1258,1453],[0,-93]],[[1258,1360],[-251,1]],[[1258,1360],[0,-249]],[[1258,1111],[-251,1]],[[1384,1359],[0,250]],[[3115,1485],[4,-39],[0,-135]],[[3121,1109],[-129,1],[-474,-3],[-60,0]],[[2458,1107],[3,1]],[[3635,1676],[2,-12],[0,-76],[3,-136]],[[3532,1451],[1,69],[16,25],[2,43],[4,5]],[[3710,1450],[74,-24],[43,-17],[106,-47],[13,-8],[52,-43]],[[4163,1102],[-331,2]],[[3829,1193],[2,31],[-2,153],[-133,0]],[[3643,1106],[-124,1],[-129,0],[0,88]],[[5102,1899],[-21,-12],[4,-30],[-20,-24],[27,-38],[-16,-26],[-1,-9],[-20,-14],[-24,-30],[-65,-15],[-20,-26],[2,-16],[-19,-36],[-14,-3]],[[5515,1841],[-125,0]],[[5390,1841],[-156,1],[-28,4],[-104,53]],[[5517,1643],[-63,0],[-25,7],[-37,1],[-2,190]],[[5517,1111],[-31,18]],[[5486,1129],[-18,17],[-30,8],[-17,24],[-35,17],[-15,1],[-30,-8],[-11,2],[-15,25],[-25,10],[-18,12],[-14,39],[0,26],[-7,15],[2,31],[-28,44],[-4,19],[17,16],[10,1],[23,-10],[9,3],[35,26],[6,25],[-10,24],[-4,21],[-10,16],[27,20],[21,8],[31,4],[141,-1]],[[5265,966],[34,5],[27,20],[26,27],[41,25],[70,72],[23,14]],[[5527,116],[-58,0]],[[1509,986],[1,124]],[[1510,1110],[251,-1]],[[1384,578],[0,98],[-114,1],[-7,13],[8,21],[2,33],[21,15],[-9,14],[-27,7],[0,82]],[[1384,578],[-126,-1]],[[1258,1111],[126,-1]],[[1258,987],[0,124]],[[1201,310],[-13,7],[-56,9]],[[1132,326],[0,163]],[[5449,6933],[10,35],[18,83],[14,55],[28,67],[43,110]],[[6018,7401],[-1,-30],[2,-187]],[[6019,7184],[-20,12],[-53,22],[-59,-3],[-60,-20],[-46,-21],[-45,-33],[-5,-15],[-10,-57],[-9,-10],[-29,-11],[-26,-31],[-9,-20],[-8,-42],[0,-20],[-191,-2]],[[5019,6086],[26,64],[46,124],[25,59],[27,51]],[[6012,6086],[1,-77],[0,-420]],[[5857,5588],[1,22],[9,25],[29,25],[9,21],[0,25],[-23,15],[-3,20],[-35,-4],[-5,27],[0,92],[9,19],[-15,15],[21,22],[-24,23],[-7,17],[0,55],[79,0],[21,-13],[11,18],[0,73]],[[5761,5587],[0,249],[-205,-1]],[[5556,5835],[-47,0]],[[5509,5587],[0,33],[32,-1],[3,90],[-4,86],[16,40]],[[5298,5589],[0,248]],[[5257,5589],[-313,0]],[[4819,5590],[42,213],[46,37],[29,34]],[[5256,6707],[0,248]],[[5256,6955],[0,199]],[[5449,6933],[-22,-68],[-30,-68],[-41,-64],[-69,-91],[-39,-60]],[[5248,6582],[-15,0],[22,40],[1,85]],[[5059,6583],[0,-64],[50,-1],[0,-31],[54,0],[15,-8],[-11,-21],[16,0]],[[641,6105],[73,23],[44,10],[53,7]],[[971,5592],[3,26],[-19,-1],[-85,2],[-163,-2]],[[707,5617],[31,51],[6,31],[-3,259]],[[741,5958],[-2,124],[-60,-1],[-27,11],[-11,13]],[[4759,2722],[0,-124]],[[1514,3458],[253,2]],[[1767,3460],[64,1]],[[1765,3336],[-253,-3]],[[1512,3333],[0,63],[2,62]],[[1384,1359],[-126,1]],[[5183,6458],[65,124]],[[6019,7184],[-7,-1054],[-1,-5]],[[4250,6584],[-2,248]],[[5256,6955],[-237,1]],[[4250,6584],[-202,-1],[-193,2],[-79,-2]],[[3776,6583],[-118,-1],[-58,-1],[-107,0]],[[3493,6581],[-189,2],[-152,-4],[-148,0]],[[3493,6581],[-2,-246],[2,-247]],[[3776,6583],[3,-33],[-1,-103],[8,-11],[-5,-11],[0,-28],[9,-19],[60,-22],[35,-20],[113,1],[251,-1]],[[1730,7572],[-248,-2],[-252,1],[-167,-1]],[[1928,8127],[150,0],[122,-1]],[[2288,6586],[-1,26],[8,32],[24,36],[5,22],[0,41],[5,12],[39,58],[4,19]],[[1995,6589],[1,67],[-2,173]],[[1995,6583],[-27,0],[-214,-2]],[[1007,6826],[8,0],[-13,58],[-7,53],[-4,75],[-2,126],[-1,199],[-3,232]],[[985,7569],[-7,0]],[[469,7944],[-1,71],[-4,20],[-14,25],[-47,45],[-24,21],[-20,9]],[[359,8135],[220,-1],[288,-2],[107,1]],[[265,8136],[94,-1]],[[220,7566],[0,44],[8,32],[41,50],[-2,220],[-2,224]],[[926,5091],[-179,-1]],[[747,5090],[-1,124],[-94,0],[-26,25],[9,16],[3,44],[-15,13],[2,26]],[[747,5090],[-252,1]],[[495,5091],[-1,247]],[[542,5958],[199,0]],[[526,5586],[-2,124],[-95,-1]],[[533,6082],[72,13],[36,10]],[[1264,4075],[2,67],[11,56],[1,21]],[[1278,4219],[242,1]],[[1523,3829],[-259,-1]],[[581,4133],[45,46],[27,21],[33,14],[38,6],[47,-1],[164,3],[53,-4],[37,-1]],[[1506,4822],[3,-238]],[[1259,4595],[-8,496]],[[1953,4900],[6,-21],[34,-77],[13,-40],[4,-39],[2,-161]],[[1761,4573],[-2,249]],[[2012,4562],[41,0],[39,3],[27,-2],[65,-25],[26,3],[16,9]],[[2226,4550],[30,-31],[9,-18],[2,-235],[7,-49]],[[2274,4217],[-46,5],[-84,4],[-128,-3]],[[2518,4196],[-55,-1],[-57,3],[-132,19]],[[3020,4080],[-251,-3],[-250,-2]],[[2519,4075],[-1,121]],[[4507,3839],[253,-2]],[[4507,4146],[0,-307]],[[6013,4870],[0,-193],[0,-126]],[[6013,4551],[-186,-147]],[[5763,4587],[-1,247]],[[6013,4551],[-1,-84],[1,-123],[0,-155]],[[6013,4189],[-124,-3],[0,-31],[-187,-4],[-1,170]],[[6013,4189],[1,-94]],[[1888,1357],[-127,1]],[[1761,1358],[0,249]],[[2062,1138],[77,0],[1,124],[126,-1]],[[2266,1261],[0,-61],[21,-22]],[[2287,1178],[-23,-21],[-194,-184],[-8,165]],[[2060,1357],[-5,-41],[0,-30],[7,-148]],[[2458,1107],[-2,0],[-80,-125],[-21,-124],[-21,-73],[-70,-143],[-27,-31],[-37,-33]],[[2266,1355],[0,-94]],[[2462,1603],[68,0]],[[2467,1354],[-201,1]],[[2517,1647],[58,36],[33,24],[56,37],[61,35],[44,22]],[[1132,326],[-40,8],[-29,14],[-12,16],[-36,18],[-9,8],[-37,52],[-12,23],[-1,34],[18,80],[2,34],[-3,19],[-21,35],[-36,33],[-10,12],[-6,25],[106,1]],[[1007,1047],[0,-60]],[[1151,235],[-30,2],[-115,28],[-74,98],[-11,65],[4,46],[-38,109],[-37,30],[-124,86],[-40,64],[-19,246],[-2,37]],[[7,7538],[62,4],[28,14],[27,7],[96,3]],[[10,7063],[-1,247],[-1,63],[-1,165]],[[495,5091],[-251,-2]],[[244,5089],[-1,40],[0,137],[1,60],[-2,10]],[[244,5089],[-215,-1],[-1,368],[-2,29],[0,93]],[[641,6105],[-26,44],[-51,149],[-15,27],[-15,5],[-24,0],[-17,7]],[[2269,4080],[-250,5]],[[2019,4085],[-3,138]],[[2020,3837],[173,-3]],[[2192,3587],[-174,2]],[[2020,3837],[-1,248]],[[1514,3458],[7,63],[1,61]],[[1522,3582],[57,0]],[[1768,3584],[-1,-124]],[[1522,3582],[-320,-2],[-189,-1],[0,248]],[[760,3578],[0,249]],[[1512,3333],[-28,-4],[-60,2],[-31,-6],[-61,3],[-73,-7],[-1,6],[-113,3],[-135,2]],[[1010,3332],[1,123],[-252,0]],[[1010,3299],[0,33]],[[1512,3333],[-1,-130]],[[1511,3203],[-1,-118]],[[1510,3085],[-273,-1]],[[1237,3084],[-228,-1],[1,216]],[[508,3579],[-1,307]],[[3529,5082],[-24,-8],[-39,-21],[-25,-25],[-23,-38],[-7,-24],[-2,-46],[7,-56],[0,-214]],[[3415,4451],[2,-219]],[[3021,3335],[233,0]],[[3442,3079],[-93,-11],[-43,-3]],[[3306,3065],[-51,3],[0,5],[-51,15],[-185,0]],[[3019,3088],[1,155]],[[2307,2982],[100,21],[75,24],[32,16]],[[2514,3043],[0,-173]],[[2514,2870],[0,-30]],[[2514,2840],[-199,1]],[[2315,2841],[1,127],[-9,14]],[[4007,2969],[125,0],[0,-15],[63,0],[0,15],[63,0]],[[4258,2969],[-1,-123]],[[4007,2846],[0,123]],[[5013,3340],[-253,1]],[[5011,2597],[0,124]],[[5137,3022],[0,70]],[[4697,3217],[315,-1]],[[5012,3216],[-1,-124]],[[5011,3092],[-125,1]],[[4761,3093],[-123,0]],[[3401,2613],[27,100],[12,58],[1,65]],[[3441,2836],[38,2],[89,1]],[[3387,2418],[3,62],[11,133]],[[2264,2345],[-125,0]],[[2767,2669],[46,-10],[48,-14],[65,-25],[33,-11],[52,-7]],[[3017,2456],[-113,87]],[[2904,2543],[-137,106]],[[3857,2595],[-2,80],[149,9]],[[2904,2543],[0,-196]],[[1510,2203],[1,140]],[[2013,2223],[63,-1],[188,-1]],[[2515,2221],[0,-29]],[[4446,3145],[-16,1],[-21,9],[-36,45],[-30,29],[-41,22],[-16,17],[-7,16],[-6,37],[-8,21],[-134,-1]],[[4131,3341],[-126,0]],[[5256,6707],[-189,0]],[[2017,3434],[1,155]],[[2234,3587],[-2,-187],[35,-48],[0,-15]],[[2267,3337],[0,-84],[25,-40],[0,-102],[-2,-23]],[[2290,3088],[-13,20],[-32,4],[-11,5],[-12,20],[-2,37],[-14,49],[-12,17],[-17,15],[-7,13],[-3,36],[-12,14],[-52,22]],[[6014,3848],[1,-249]],[[3019,2987],[0,-22]],[[3019,2965],[-1,-93]],[[3018,2872],[-251,-1]],[[2767,2871],[0,115]],[[5013,3340],[-1,-124]],[[2767,3088],[-176,0]],[[2514,3043],[77,45]],[[2767,2871],[-126,-1],[0,-29],[-64,0],[1,29],[-64,0]],[[3757,2996],[-126,-2]],[[3631,2994],[0,134]],[[3757,2843],[0,-2]],[[3632,2840],[-1,154]],[[3441,2836],[2,87],[-1,156]],[[4006,3093],[252,0]],[[4258,3093],[0,-124]],[[4007,2969],[-1,124]],[[4006,3217],[126,0],[-1,124]],[[4473,3094],[-215,-1]],[[4473,3094],[3,-48],[15,-22],[36,-30]],[[4513,2970],[-255,-1]],[[2015,2850],[0,107]],[[2015,2957],[63,-1]],[[2078,2956],[-1,-114],[238,-1]],[[2514,2840],[0,-151]],[[2078,2956],[88,2],[47,4],[94,20]],[[3018,2842],[1,-185],[-8,-55]],[[2767,2669],[0,172],[251,1]],[[4007,2846],[-85,-2]],[[3018,2872],[0,-30]],[[3255,2964],[54,0],[0,31],[34,0],[-13,33],[-24,37]],[[3401,2613],[-39,8],[-33,1],[-74,-20],[-38,-1]],[[3217,2601],[0,29],[39,-1],[-1,335]],[[3019,2965],[236,-1]],[[5187,3216],[38,124]],[[5264,3465],[1,124]],[[5200,3216],[-13,0]],[[3755,3337],[-2,250]],[[5012,3216],[175,0]],[[5137,3092],[-126,0]],[[7,7538],[1,112],[-1,159],[-7,29],[8,35],[2,265],[124,0],[64,-2],[67,0]],[[1010,3299],[-36,0],[-37,-18],[-48,-16],[-52,-7],[-38,3]],[[799,3261],[-41,57],[-27,34],[-18,16],[-35,25],[-44,28],[-1,34]],[[1237,3084],[-85,-33],[-24,-5],[-29,1],[-22,5],[-104,36],[-7,6]],[[966,3094],[-77,57],[-24,9],[-18,43],[-48,58]],[[966,3094],[-107,-80],[-4,-7]],[[778,3023],[23,37],[-29,17],[-28,8],[-19,34],[-13,29],[27,35],[-5,51],[21,13],[44,14]],[[506,3189],[1,266]],[[1511,3203],[252,0]],[[1511,2958],[-1,127]],[[2521,3583],[-3,-248]],[[2518,3335],[-251,2]],[[2518,3335],[-4,-248]],[[2514,3087],[-224,1]],[[2514,3087],[0,-44]],[[3020,3585],[1,-250]],[[2769,3335],[22,27],[8,16],[23,73],[3,23],[-17,48],[14,17],[22,-17],[13,-26],[2,-18],[16,-3],[51,28],[1,81]],[[2769,3335],[-251,0]],[[962,4569],[-460,2]],[[502,4571],[-3,239],[-3,70],[-2,145],[1,66]],[[3277,2101],[37,-52]],[[506,4077],[-4,494]]],"transform":{"scale":[0.00004047237431558214,0.000029139100516097016],"translate":[-93.228119,44.887399]},"objects":{"Geometry\\27-123":{"type":"GeometryCollection","geometries":[{"arcs":[[0,1,2,3]],"type":"Polygon","properties":{"GEOID":"271230413022"}},{"arcs":[[4,5,6,7]],"type":"Polygon","properties":{"GEOID":"271230342014"}},{"arcs":[[-7,8,9,10,11,12,13]],"type":"Polygon","properties":{"GEOID":"271230342012"}},{"arcs":[[14,15,16,17,18,19]],"type":"Polygon","properties":{"GEOID":"271230307041"}},{"arcs":[[20,21,22,23]],"type":"Polygon","properties":{"GEOID":"271230419001"}},{"arcs":[[24,25,26,27]],"type":"Polygon","properties":{"GEOID":"271230407061"}},{"arcs":[[28,29,30,31,32,33]],"type":"Polygon","properties":{"GEOID":"271230324002"}},{"arcs":[[34,35,36,37,38,39]],"type":"Polygon","properties":{"GEOID":"271230407043"}},{"arcs":[[40,41,42]],"type":"Polygon","properties":{"GEOID":"271230345002"}},{"arcs":[[43,44,45,46,47]],"type":"Polygon","properties":{"GEOID":"271230352002"}},{"arcs":[[48,49,50]],"type":"Polygon","properties":{"GEOID":"271230375006"}},{"arcs":[[51,52,53,54,55,56]],"type":"Polygon","properties":{"GEOID":"271230407071"}},{"arcs":[[57,58,59,60,61,62,63]],"type":"Polygon","properties":{"GEOID":"271230424023"}},{"arcs":[[64,65,66,67,68,69]],"type":"Polygon","properties":{"GEOID":"271230403011"}},{"arcs":[[70,71,72,73,74,75]],"type":"Polygon","properties":{"GEOID":"271230371004"}},{"arcs":[[76,77,78,79,80,81]],"type":"Polygon","properties":{"GEOID":"271230306023"}},{"arcs":[[82,83,-44,84,85,86]],"type":"Polygon","properties":{"GEOID":"271230350001"}},{"arcs":[[87,88,89,90,91,92,93]],"type":"Polygon","properties":{"GEOID":"271230411052"}},{"arcs":[[94,95,96,97,98]],"type":"Polygon","properties":{"GEOID":"271230317022"}},{"arcs":[[99,100,101,102]],"type":"Polygon","properties":{"GEOID":"271230310003"}},{"arcs":[[103,104,105,106,107]],"type":"Polygon","properties":{"GEOID":"271230414003"}},{"arcs":[[108,109,110,111]],"type":"Polygon","properties":{"GEOID":"271230308002"}},{"arcs":[[112,113,114,115,116]],"type":"Polygon","properties":{"GEOID":"271230333003"}},{"arcs":[[117,-51,118,119]],"type":"Polygon","properties":{"GEOID":"271230375003"}},{"arcs":[[-46,120,121,122,123,124]],"type":"Polygon","properties":{"GEOID":"271230353004"}},{"arcs":[[125,126,127,128,129,130]],"type":"Polygon","properties":{"GEOID":"271230365001"}},{"arcs":[[131,132,133,134,135]],"type":"Polygon","properties":{"GEOID":"271230423022"}},{"arcs":[[136,137,138,139,140,141,142,-54]],"type":"Polygon","properties":{"GEOID":"271230406013"}},{"arcs":[[143,144,145,146]],"type":"Polygon","properties":{"GEOID":"271230322002"}},{"arcs":[[147,148,149,150,151]],"type":"Polygon","properties":{"GEOID":"271230372003"}},{"arcs":[[152,153]],"type":"Polygon","properties":{"GEOID":"271230305004"}},{"arcs":[[154,155,156,157]],"type":"Polygon","properties":{"GEOID":"271230410022"}},{"arcs":[[-47,-125,158,159,160]],"type":"Polygon","properties":{"GEOID":"271230352003"}},{"arcs":[[161,162,163,164,165]],"type":"Polygon","properties":{"GEOID":"271230317012"}},{"arcs":[[166,167,168,169,170,171]],"type":"Polygon","properties":{"GEOID":"271230347011"}},{"arcs":[[-33,172,173,174]],"type":"Polygon","properties":{"GEOID":"271230325002"}},{"arcs":[[175,176,177,178,179,-31]],"type":"Polygon","properties":{"GEOID":"271230326002"}},{"arcs":[[180,-131,181,182,183]],"type":"Polygon","properties":{"GEOID":"271230364002"}},{"arcs":[[184,185,186,187,-147,188,189,190]],"type":"Polygon","properties":{"GEOID":"271230321001"}},{"arcs":[[191,-93,192,193]],"type":"Polygon","properties":{"GEOID":"271230411042"}},{"arcs":[[194,195,196,197]],"type":"Polygon","properties":{"GEOID":"271230340002"}},{"arcs":[[198,199,200,201]],"type":"Polygon","properties":{"GEOID":"271230423021"}},{"arcs":[[-81,202,-103,203,204,205]],"type":"Polygon","properties":{"GEOID":"271230310004"}},{"arcs":[[206,207,208,209,210,211]],"type":"Polygon","properties":{"GEOID":"271230353001"}},{"arcs":[[212,213,214,215,216,217]],"type":"Polygon","properties":{"GEOID":"271230338001"}},{"arcs":[[218,219,220,-215]],"type":"Polygon","properties":{"GEOID":"271230339001"}},{"arcs":[[221,222,223,224]],"type":"Polygon","properties":{"GEOID":"271230307031"}},{"arcs":[[225,226,227]],"type":"Polygon","properties":{"GEOID":"271230405033"}},{"arcs":[[228,229,230,231,232,233,234,235]],"type":"Polygon","properties":{"GEOID":"271230302023"}},{"arcs":[[236,237,238,239]],"type":"Polygon","properties":{"GEOID":"271230346024"}},{"arcs":[[240,241,242]],"type":"Polygon","properties":{"GEOID":"271230409023"}},{"arcs":[[243,244,245,246,247,248]],"type":"Polygon","properties":{"GEOID":"271230376041"}},{"arcs":[[249,-98,250,251]],"type":"Polygon","properties":{"GEOID":"271230317024"}},{"arcs":[[252,253,254,255,-251]],"type":"Polygon","properties":{"GEOID":"271230318015"}},{"arcs":[[256,257,258,259,260,261]],"type":"Polygon","properties":{"GEOID":"271230404025"}},{"arcs":[[262,263,264,265,266,267,268,269,270]],"type":"Polygon","properties":{"GEOID":"271230424013"}},{"arcs":[[271,-263,272,273]],"type":"Polygon","properties":{"GEOID":"271230424014"}},{"arcs":[[274,275,276]],"type":"Polygon","properties":{"GEOID":"271230404023"}},{"arcs":[[277,278,279,280,281]],"type":"Polygon","properties":{"GEOID":"271230407053"}},{"arcs":[[282,283,-228,284,285,286,287]],"type":"Polygon","properties":{"GEOID":"271230406051"}},{"arcs":[[288,289,290,291]],"type":"Polygon","properties":{"GEOID":"271230401022"}},{"arcs":[[292,-82,293,294]],"type":"Polygon","properties":{"GEOID":"271230306013"}},{"arcs":[[295,296,297,298,299,300]],"type":"Polygon","properties":{"GEOID":"271230406014"}},{"arcs":[[301,-295,302,303,304]],"type":"Polygon","properties":{"GEOID":"271230306014"}},{"arcs":[[-287,305,306]],"type":"Polygon","properties":{"GEOID":"271230406062"}},{"arcs":[[-306,-286,307,308,309]],"type":"Polygon","properties":{"GEOID":"271230406063"}},{"arcs":[[310,311,312,-226,-284,313]],"type":"Polygon","properties":{"GEOID":"271230405032"}},{"arcs":[[314,315,316,317,-208,318,319,320]],"type":"Polygon","properties":{"GEOID":"271230334004"}},{"arcs":[[321,-191,322,323]],"type":"Polygon","properties":{"GEOID":"271230321003"}},{"arcs":[[324,325,326,327,328]],"type":"Polygon","properties":{"GEOID":"271230416023"}},{"arcs":[[-123,329,330,331,332,333]],"type":"Polygon","properties":{"GEOID":"271230366004"}},{"arcs":[[334,335,336,337,338,339]],"type":"Polygon","properties":{"GEOID":"271230424025"}},{"arcs":[[340,-291,341,342,343,344]],"type":"Polygon","properties":{"GEOID":"271230401023"}},{"arcs":[[345,346,-198,347,-219,-214]],"type":"Polygon","properties":{"GEOID":"271230339002"}},{"arcs":[[348,-99,-250,349,350]],"type":"Polygon","properties":{"GEOID":"271230317025"}},{"arcs":[[351,352,353,354,355,356,-104]],"type":"Polygon","properties":{"GEOID":"271230408042"}},{"arcs":[[-26,357,-296,358,-138,359]],"type":"Polygon","properties":{"GEOID":"271230406015"}},{"arcs":[[360,361,362,363,364]],"type":"Polygon","properties":{"GEOID":"271230408013"}},{"arcs":[[365,366,-345,367,368,369,-298]],"type":"Polygon","properties":{"GEOID":"271230401012"}},{"arcs":[[370,371,-142,372,373,374,375,376]],"type":"Polygon","properties":{"GEOID":"271230407082"}},{"arcs":[[-141,377,378,379,380,-373]],"type":"Polygon","properties":{"GEOID":"271230407093"}},{"arcs":[[381,-288,-307,-310,382,383,384,-379]],"type":"Polygon","properties":{"GEOID":"271230406052"}},{"arcs":[[385,386,387,388]],"type":"Polygon","properties":{"GEOID":"271230304004"}},{"arcs":[[389,390,391,392,-176,-30]],"type":"Polygon","properties":{"GEOID":"271230326004"}},{"arcs":[[393,394,395,396]],"type":"Polygon","properties":{"GEOID":"271230307026"}},{"arcs":[[-178,397,398,399]],"type":"Polygon","properties":{"GEOID":"271230326003"}},{"arcs":[[400,401,402,403]],"type":"Polygon","properties":{"GEOID":"271230423013"}},{"arcs":[[404,405,406,407,-153,408]],"type":"Polygon","properties":{"GEOID":"271230305005"}},{"arcs":[[-261,-264,-272,409]],"type":"Polygon","properties":{"GEOID":"271230424015"}},{"arcs":[[410,411,412,413,414]],"type":"Polygon","properties":{"GEOID":"271230430015"}},{"arcs":[[415,416,417]],"type":"Polygon","properties":{"GEOID":"271230349004"}},{"arcs":[[-116,418,419,420,-416,421]],"type":"Polygon","properties":{"GEOID":"271230349003"}},{"arcs":[[422,423,424]],"type":"Polygon","properties":{"GEOID":"271230409013"}},{"arcs":[[425,-94,-192,426]],"type":"Polygon","properties":{"GEOID":"271230411043"}},{"arcs":[[427,428,429,430,431,-412]],"type":"Polygon","properties":{"GEOID":"271230430011"}},{"arcs":[[432,433,434,435,436]],"type":"Polygon","properties":{"GEOID":"271230430012"}},{"arcs":[[-432,437,-433,438]],"type":"Polygon","properties":{"GEOID":"271230430014"}},{"arcs":[[439,440,441,-365,442,443,444,-89]],"type":"Polygon","properties":{"GEOID":"271230411054"}},{"arcs":[[-120,445,446,447,448]],"type":"Polygon","properties":{"GEOID":"271230376014"}},{"arcs":[[449,-352,450,451]],"type":"Polygon","properties":{"GEOID":"271230408041"}},{"arcs":[[452,-353,-450,453,454,455]],"type":"Polygon","properties":{"GEOID":"271230408054"}},{"arcs":[[456,457,458,459,460]],"type":"Polygon","properties":{"GEOID":"271230414005"}},{"arcs":[[461,-35,462,463]],"type":"Polygon","properties":{"GEOID":"271230407044"}},{"arcs":[[-375,464,465,466]],"type":"Polygon","properties":{"GEOID":"271230407081"}},{"arcs":[[467,468,-245,469,470]],"type":"Polygon","properties":{"GEOID":"271230376032"}},{"arcs":[[-374,-381,471,472,-465]],"type":"Polygon","properties":{"GEOID":"271230407092"}},{"arcs":[[473,-282,474,475,476]],"type":"Polygon","properties":{"GEOID":"271230407052"}},{"arcs":[[477,-472,-380,-385,478,-36,-462,479]],"type":"Polygon","properties":{"GEOID":"271230407045"}},{"arcs":[[480,481,482,483,-186,484]],"type":"Polygon","properties":{"GEOID":"271230302022"}},{"arcs":[[485,486,487,488]],"type":"Polygon","properties":{"GEOID":"271230342033"}},{"arcs":[[-487,489,490]],"type":"Polygon","properties":{"GEOID":"271230342032"}},{"arcs":[[491,-117,-422,-418,492,-411,493]],"type":"Polygon","properties":{"GEOID":"271230430021"}},{"arcs":[[494,495,496,-78,497]],"type":"Polygon","properties":{"GEOID":"271230306025"}},{"arcs":[[498,499,500,501]],"type":"Polygon","properties":{"GEOID":"271230405043"}},{"arcs":[[502,503,504]],"type":"Polygon","properties":{"GEOID":"271230425043"}},{"arcs":[[-369,505,-502,506,507,-312,508]],"type":"Polygon","properties":{"GEOID":"271230405044"}},{"arcs":[[509,510,-332,511,512,513]],"type":"Polygon","properties":{"GEOID":"271230366005"}},{"arcs":[[-470,-244,514]],"type":"Polygon","properties":{"GEOID":"271230376042"}},{"arcs":[[515,516,517,-269]],"type":"Polygon","properties":{"GEOID":"271230426014"}},{"arcs":[[518,519,-257,520,-401,521,-308]],"type":"Polygon","properties":{"GEOID":"271230406061"}},{"arcs":[[-290,522,523,524,-342]],"type":"Polygon","properties":{"GEOID":"271230401021"}},{"arcs":[[525,526,527,528]],"type":"Polygon","properties":{"GEOID":"271230361003"}},{"arcs":[[529,530,531,532]],"type":"Polygon","properties":{"GEOID":"271230425032"}},{"arcs":[[533,534,535,536,537]],"type":"Polygon","properties":{"GEOID":"271230337002"}},{"arcs":[[538,539,540,541]],"type":"Polygon","properties":{"GEOID":"271230416014"}},{"arcs":[[542,543,-113,-492,544]],"type":"Polygon","properties":{"GEOID":"271230332003"}},{"arcs":[[545,546,547,548]],"type":"Polygon","properties":{"GEOID":"271230342042"}},{"arcs":[[549,550,551,552,553,-546]],"type":"Polygon","properties":{"GEOID":"271230342041"}},{"arcs":[[554,-490,-486,555,556,557,-526,-10]],"type":"Polygon","properties":{"GEOID":"271230342013"}},{"arcs":[[558,559,560,-254]],"type":"Polygon","properties":{"GEOID":"271230318014"}},{"arcs":[[561,562,563,564,565]],"type":"Polygon","properties":{"GEOID":"271230411063"}},{"arcs":[[566,567,568,569,570]],"type":"Polygon","properties":{"GEOID":"271230422025"}},{"arcs":[[-570,571,572]],"type":"Polygon","properties":{"GEOID":"271230422024"}},{"arcs":[[573,574,575,-316,576]],"type":"Polygon","properties":{"GEOID":"271230334002"}},{"arcs":[[577,578,579,-22]],"type":"Polygon","properties":{"GEOID":"271230418001"}},{"arcs":[[580,-292,-341,-367]],"type":"Polygon","properties":{"GEOID":"271230401011"}},{"arcs":[[581,582,583]],"type":"Polygon","properties":{"GEOID":"271230368003"}},{"arcs":[[584,-270,585,-58,586,-134]],"type":"Polygon","properties":{"GEOID":"271230424022"}},{"arcs":[[-586,-518,587,588,589,-59]],"type":"Polygon","properties":{"GEOID":"271230427004"}},{"arcs":[[590,591,592,593,-517]],"type":"Polygon","properties":{"GEOID":"271230426012"}},{"arcs":[[594,595,596,-589,597]],"type":"Polygon","properties":{"GEOID":"271230427005"}},{"arcs":[[-276,598,599,600,601]],"type":"Polygon","properties":{"GEOID":"271230404024"}},{"arcs":[[-197,602,603,604]],"type":"Polygon","properties":{"GEOID":"271230355003"}},{"arcs":[[605,606,607,608]],"type":"Polygon","properties":{"GEOID":"271230403024"}},{"arcs":[[609,-390,-29,610]],"type":"Polygon","properties":{"GEOID":"271230324003"}},{"arcs":[[-39,611,612,613]],"type":"Polygon","properties":{"GEOID":"271230415004"}},{"arcs":[[614,615,-603]],"type":"Polygon","properties":{"GEOID":"271230355002"}},{"arcs":[[616,617,618,-539,619]],"type":"Polygon","properties":{"GEOID":"271230416013"}},{"arcs":[[620,621,622,-329,623,624,625]],"type":"Polygon","properties":{"GEOID":"271230417004"}},{"arcs":[[626,-573,627,628,-326,629]],"type":"Polygon","properties":{"GEOID":"271230422012"}},{"arcs":[[630,631,632]],"type":"Polygon","properties":{"GEOID":"271230421015"}},{"arcs":[[-569,633,634,-202,-495,635,636,637]],"type":"Polygon","properties":{"GEOID":"271230422023"}},{"arcs":[[638,-12,-71,639]],"type":"Polygon","properties":{"GEOID":"271230360003"}},{"arcs":[[-554,640,-547]],"type":"Polygon","properties":{"GEOID":"271230342043"}},{"arcs":[[641,642,643,644]],"type":"Polygon","properties":{"GEOID":"271230347024"}},{"arcs":[[-644,645,646,647]],"type":"Polygon","properties":{"GEOID":"271230347021"}},{"arcs":[[648,649,650,651,652,-563]],"type":"Polygon","properties":{"GEOID":"271230411062"}},{"arcs":[[653,654,655,656,657]],"type":"Polygon","properties":{"GEOID":"271230411075"}},{"arcs":[[-443,-364,658,-456,659,660]],"type":"Polygon","properties":{"GEOID":"271230408052"}},{"arcs":[[-454,-452,661,662]],"type":"Polygon","properties":{"GEOID":"271230408053"}},{"arcs":[[-459,663,-21,664,665]],"type":"Polygon","properties":{"GEOID":"271230418002"}},{"arcs":[[666,667,-556,-489,-551]],"type":"Polygon","properties":{"GEOID":"271230342031"}},{"arcs":[[-338,668,669,670]],"type":"Polygon","properties":{"GEOID":"271230425012"}},{"arcs":[[-439,-437,671,-413]],"type":"Polygon","properties":{"GEOID":"271230430013"}},{"arcs":[[-193,-92,672,-649,-562,673]],"type":"Polygon","properties":{"GEOID":"271230411041"}},{"arcs":[[674,675,676,-155,677]],"type":"Polygon","properties":{"GEOID":"271230410023"}},{"arcs":[[678,-157,-440,-88,-426,679]],"type":"Polygon","properties":{"GEOID":"271230411055"}},{"arcs":[[-421,680,681,682,683]],"type":"Polygon","properties":{"GEOID":"271230349001"}},{"arcs":[[684,-448,685,686]],"type":"Polygon","properties":{"GEOID":"271230376015"}},{"arcs":[[-85,-48,-161,687,688]],"type":"Polygon","properties":{"GEOID":"271230351003"}},{"arcs":[[689,-463,-40,690,-357]],"type":"Polygon","properties":{"GEOID":"271230407042"}},{"arcs":[[691,-28,692,-53,693]],"type":"Polygon","properties":{"GEOID":"271230407064"}},{"arcs":[[-363,-354,-453,-659]],"type":"Polygon","properties":{"GEOID":"271230408051"}},{"arcs":[[-466,-473,-478,694,695]],"type":"Polygon","properties":{"GEOID":"271230407091"}},{"arcs":[[696,-513,697,-246,-469]],"type":"Polygon","properties":{"GEOID":"271230376031"}},{"arcs":[[698,699,-237,700,701,702]],"type":"Polygon","properties":{"GEOID":"271230346022"}},{"arcs":[[-160,703,-126,704]],"type":"Polygon","properties":{"GEOID":"271230365002"}},{"arcs":[[-587,-64,-222,705,706]],"type":"Polygon","properties":{"GEOID":"271230424021"}},{"arcs":[[-536,707,708,709,710,711,-550,-549,712,713]],"type":"Polygon","properties":{"GEOID":"271230428001"}},{"arcs":[[714,715,716,717,718]],"type":"Polygon","properties":{"GEOID":"271230315001"}},{"arcs":[[-552,-488,-491,-555,-9,-6,719]],"type":"Polygon","properties":{"GEOID":"271230342011"}},{"arcs":[[720,-667,-712,721]],"type":"Polygon","properties":{"GEOID":"271230428002"}},{"arcs":[[722,-718,723,724,725,-557,-668,-721]],"type":"Polygon","properties":{"GEOID":"271230330001"}},{"arcs":[[-726,726,727,728,729,730,-558]],"type":"Polygon","properties":{"GEOID":"271230344001"}},{"arcs":[[731,732,733,734,735,736,-150]],"type":"Polygon","properties":{"GEOID":"271230372004"}},{"arcs":[[737,738,739,740,741,742,-730]],"type":"Polygon","properties":{"GEOID":"271239800001"}},{"arcs":[[743,744,745,746,-738,-729]],"type":"Polygon","properties":{"GEOID":"271230346011"}},{"arcs":[[747,748,749,750,751]],"type":"Polygon","properties":{"GEOID":"271230374021"}},{"arcs":[[752,753,754,755,-646,-643]],"type":"Polygon","properties":{"GEOID":"271230425014"}},{"arcs":[[-670,756,-754,757]],"type":"Polygon","properties":{"GEOID":"271230425013"}},{"arcs":[[-701,-240,758,759,-746,760]],"type":"Polygon","properties":{"GEOID":"271230346023"}},{"arcs":[[761,-702,-761,-745,-42]],"type":"Polygon","properties":{"GEOID":"271230346013"}},{"arcs":[[762,-516,-268]],"type":"Polygon","properties":{"GEOID":"271230426013"}},{"arcs":[[763,764,-172,-238,-700]],"type":"Polygon","properties":{"GEOID":"271230346021"}},{"arcs":[[765,766,767,-595]],"type":"Polygon","properties":{"GEOID":"271230427002"}},{"arcs":[[-484,768,769,-187]],"type":"Polygon","properties":{"GEOID":"271230322001"}},{"arcs":[[770,771,-305,-406]],"type":"Polygon","properties":{"GEOID":"271230306012"}},{"arcs":[[-174,772,773,774,775]],"type":"Polygon","properties":{"GEOID":"271230335001"}},{"arcs":[[776,-405,-628]],"type":"Polygon","properties":{"GEOID":"271230422011"}},{"arcs":[[777,-340,778,779]],"type":"Polygon","properties":{"GEOID":"271230307022"}},{"arcs":[[-74,780,-152,781,782,783,784]],"type":"Polygon","properties":{"GEOID":"271230371003"}},{"arcs":[[785,786,787,-162,788,789]],"type":"Polygon","properties":{"GEOID":"271230316002"}},{"arcs":[[-164,790,-703,-762,791]],"type":"Polygon","properties":{"GEOID":"271230346012"}},{"arcs":[[-80,792,793,794,-100,-203]],"type":"Polygon","properties":{"GEOID":"271230310001"}},{"arcs":[[-424,795,-241,796,797]],"type":"Polygon","properties":{"GEOID":"271230409011"}},{"arcs":[[798,799,-87,800,801]],"type":"Polygon","properties":{"GEOID":"271230350002"}},{"arcs":[[802,803,804,-458]],"type":"Polygon","properties":{"GEOID":"271230414002"}},{"arcs":[[805,-789,-166,806]],"type":"Polygon","properties":{"GEOID":"271230331001"}},{"arcs":[[-359,-301,807,-139]],"type":"Polygon","properties":{"GEOID":"271230406011"}},{"arcs":[[808,809,810,-640,811,812]],"type":"Polygon","properties":{"GEOID":"271230360001"}},{"arcs":[[813,814,815,816,-114,-544]],"type":"Polygon","properties":{"GEOID":"271230332001"}},{"arcs":[[817,-129,818,-510,819]],"type":"Polygon","properties":{"GEOID":"271230366001"}},{"arcs":[[820,821,822,823,-330]],"type":"Polygon","properties":{"GEOID":"271230367001"}},{"arcs":[[-532,824,825]],"type":"Polygon","properties":{"GEOID":"271230425031"}},{"arcs":[[826,-784,827,828]],"type":"Polygon","properties":{"GEOID":"271230370002"}},{"arcs":[[829,830,831,-813,832,833,-583]],"type":"Polygon","properties":{"GEOID":"271230369002"}},{"arcs":[[-756,834,835,-503,836,837,838,839,840]],"type":"Polygon","properties":{"GEOID":"271230425041"}},{"arcs":[[-38,841,842,-617,-612]],"type":"Polygon","properties":{"GEOID":"271230416011"}},{"arcs":[[-797,-243,843,-676]],"type":"Polygon","properties":{"GEOID":"271230409022"}},{"arcs":[[844,-660,-455,-663,845,846]],"type":"Polygon","properties":{"GEOID":"271230411072"}},{"arcs":[[847,848,849,850,851]],"type":"Polygon","properties":{"GEOID":"271230420021"}},{"arcs":[[852,-633,853,854]],"type":"Polygon","properties":{"GEOID":"271230421014"}},{"arcs":[[-309,-522,-404,855,856,857]],"type":"Polygon","properties":{"GEOID":"271230421022"}},{"arcs":[[-403,858,859,-856]],"type":"Polygon","properties":{"GEOID":"271230423012"}},{"arcs":[[-854,-632,860,861,862,-571,-627,863,-540,-619]],"type":"Polygon","properties":{"GEOID":"271230421013"}},{"arcs":[[-857,-860,-132,864,-634,-568]],"type":"Polygon","properties":{"GEOID":"271230422021"}},{"arcs":[[865,866,867,868,-608]],"type":"Polygon","properties":{"GEOID":"271230403023"}},{"arcs":[[869,870,871,-277,-602,872,873,-265,-260]],"type":"Polygon","properties":{"GEOID":"271230404022"}},{"arcs":[[874,-658,875,876]],"type":"Polygon","properties":{"GEOID":"271230411074"}},{"arcs":[[877,878,879,880,881,882,883]],"type":"Polygon","properties":{"GEOID":"271230413012"}},{"arcs":[[-788,884,885,886,-351,887,-791,-163]],"type":"Polygon","properties":{"GEOID":"271230317011"}},{"arcs":[[888,-604,-616,889,-714,890,891,892,893,894]],"type":"Polygon","properties":{"GEOID":"271230358001"}},{"arcs":[[-323,-190,895,896]],"type":"Polygon","properties":{"GEOID":"271230321002"}},{"arcs":[[-216,-221,897,-895,898,899]],"type":"Polygon","properties":{"GEOID":"271230429002"}},{"arcs":[[900,-899,901,902,903,904,-211]],"type":"Polygon","properties":{"GEOID":"271230429003"}},{"arcs":[[905,906,907,-682]],"type":"Polygon","properties":{"GEOID":"271230351001"}},{"arcs":[[908,909,910,911,-816]],"type":"Polygon","properties":{"GEOID":"271230332002"}},{"arcs":[[-903,912,913,914,915,916]],"type":"Polygon","properties":{"GEOID":"271230357002"}},{"arcs":[[-912,917,-799,918,919]],"type":"Polygon","properties":{"GEOID":"271230333001"}},{"arcs":[[920,921,-642,922]],"type":"Polygon","properties":{"GEOID":"271230318022"}},{"arcs":[[923,-923,924,925]],"type":"Polygon","properties":{"GEOID":"271230318023"}},{"arcs":[[926,927,928,929,-485,-185,-322,930,931,-909,-815,932,933]],"type":"Polygon","properties":{"GEOID":"271230319001"}},{"arcs":[[-933,-814,-543,934]],"type":"Polygon","properties":{"GEOID":"271230319002"}},{"arcs":[[-324,935,-931]],"type":"Polygon","properties":{"GEOID":"271230320001"}},{"arcs":[[-936,-897,936,-910,-932]],"type":"Polygon","properties":{"GEOID":"271230320002"}},{"arcs":[[-770,937,-144,-188]],"type":"Polygon","properties":{"GEOID":"271230322003"}},{"arcs":[[-483,938,939,-769]],"type":"Polygon","properties":{"GEOID":"271230323001"}},{"arcs":[[-940,940,941,942,-938]],"type":"Polygon","properties":{"GEOID":"271230323002"}},{"arcs":[[-943,943,-574,-145]],"type":"Polygon","properties":{"GEOID":"271230323003"}},{"arcs":[[-939,944,-611,-34,945,946,-941]],"type":"Polygon","properties":{"GEOID":"271230324001"}},{"arcs":[[-32,-180,947,-773,-173]],"type":"Polygon","properties":{"GEOID":"271230325001"}},{"arcs":[[-942,-947,948,949,-944]],"type":"Polygon","properties":{"GEOID":"271230325003"}},{"arcs":[[-179,-400,950,-948]],"type":"Polygon","properties":{"GEOID":"271230326001"}},{"arcs":[[951,952,-534,953]],"type":"Polygon","properties":{"GEOID":"271230337001"}},{"arcs":[[954,-218,955,-209,-318]],"type":"Polygon","properties":{"GEOID":"271230338002"}},{"arcs":[[-537,-890,-615,-196,956]],"type":"Polygon","properties":{"GEOID":"271230340001"}},{"arcs":[[957,958,959,-727]],"type":"Polygon","properties":{"GEOID":"271230344002"}},{"arcs":[[960,-807,-165,-792,-41,961,-959]],"type":"Polygon","properties":{"GEOID":"271230345001"}},{"arcs":[[-43,-744,-728,-960,-962]],"type":"Polygon","properties":{"GEOID":"271230345003"}},{"arcs":[[-239,-171,962,-752,963,-759]],"type":"Polygon","properties":{"GEOID":"271230347012"}},{"arcs":[[-170,964,-648,965,966,-748,-963]],"type":"Polygon","properties":{"GEOID":"271230347013"}},{"arcs":[[-647,-841,967,-966]],"type":"Polygon","properties":{"GEOID":"271230347022"}},{"arcs":[[-925,-645,-965,-169]],"type":"Polygon","properties":{"GEOID":"271230347023"}},{"arcs":[[-417,-684,-428,-493]],"type":"Polygon","properties":{"GEOID":"271230349002"}},{"arcs":[[-919,-802,-906,-681,-420]],"type":"Polygon","properties":{"GEOID":"271230350003"}},{"arcs":[[-801,-86,-689,968,969,-907]],"type":"Polygon","properties":{"GEOID":"271230351002"}},{"arcs":[[-320,970,-45,-84]],"type":"Polygon","properties":{"GEOID":"271230352001"}},{"arcs":[[971,-212,-905,972,-821,-122]],"type":"Polygon","properties":{"GEOID":"271230353003"}},{"arcs":[[-319,-207,-972,-121,-971]],"type":"Polygon","properties":{"GEOID":"271230353002"}},{"arcs":[[-273,-271,-585,973]],"type":"Polygon","properties":{"GEOID":"271230424011"}},{"arcs":[[-874,974,975,976,-266]],"type":"Polygon","properties":{"GEOID":"271230424012"}},{"arcs":[[-339,-671,-758,-753,-922,977]],"type":"Polygon","properties":{"GEOID":"271230425011"}},{"arcs":[[-504,-836,978,-530,979,980]],"type":"Polygon","properties":{"GEOID":"271230425042"}},{"arcs":[[-597,-60,-590]],"type":"Polygon","properties":{"GEOID":"271230427001"}},{"arcs":[[981,-225,982,-15,983]],"type":"Polygon","properties":{"GEOID":"271230307033"}},{"arcs":[[-968,-840,984,-749,-967]],"type":"Polygon","properties":{"GEOID":"271230374023"}},{"arcs":[[-956,-217,-900,-901,-210]],"type":"Polygon","properties":{"GEOID":"271230429001"}},{"arcs":[[-220,-348,-605,-889,-898]],"type":"Polygon","properties":{"GEOID":"271230355001"}},{"arcs":[[-904,-917,985,-822,-973]],"type":"Polygon","properties":{"GEOID":"271230357001"}},{"arcs":[[-902,-894,986,-913]],"type":"Polygon","properties":{"GEOID":"271230358003"}},{"arcs":[[-892,987,988,-810,989,990]],"type":"Polygon","properties":{"GEOID":"271230359001"}},{"arcs":[[-989,991,-13,-639,-811]],"type":"Polygon","properties":{"GEOID":"271230360002"}},{"arcs":[[-743,992,993,994,-527,-731]],"type":"Polygon","properties":{"GEOID":"271230361001"}},{"arcs":[[-683,-908,995,996,-429]],"type":"Polygon","properties":{"GEOID":"271230363001"}},{"arcs":[[-997,997,998,-430]],"type":"Polygon","properties":{"GEOID":"271230363002"}},{"arcs":[[-999,999,1000,-431]],"type":"Polygon","properties":{"GEOID":"271230363003"}},{"arcs":[[-438,-1001,1001,1002,-434]],"type":"Polygon","properties":{"GEOID":"271230363004"}},{"arcs":[[-969,-688,-705,-181,1003]],"type":"Polygon","properties":{"GEOID":"271230364004"}},{"arcs":[[-833,-812,-76,1004,-829,1005,1006]],"type":"Polygon","properties":{"GEOID":"271230370003"}},{"arcs":[[-529,1007,-149,1008,-72,-11]],"type":"Polygon","properties":{"GEOID":"271230371001"}},{"arcs":[[1009,-994,1010,-735,1011,-733]],"type":"Polygon","properties":{"GEOID":"271230372001"}},{"arcs":[[-782,-151,-737,1012]],"type":"Polygon","properties":{"GEOID":"271230372002"}},{"arcs":[[-1012,-734]],"type":"Polygon","properties":{"GEOID":"271230372005"}},{"arcs":[[-760,-964,-751,1013,-739,-747]],"type":"Polygon","properties":{"GEOID":"271230374022"}},{"arcs":[[-750,-985,-839,1014,1015]],"type":"Polygon","properties":{"GEOID":"271230374031"}},{"arcs":[[-1015,-838,1016]],"type":"Polygon","properties":{"GEOID":"271230374032"}},{"arcs":[[-505,-981,1017,1018]],"type":"Polygon","properties":{"GEOID":"271230374033"}},{"arcs":[[1019,-1018,-980,-533,-826,1020,-741]],"type":"Polygon","properties":{"GEOID":"271230374034"}},{"arcs":[[-1016,-1017,-837,-1019,-1020,-740,-1014]],"type":"Polygon","properties":{"GEOID":"271230374035"}},{"arcs":[[-50,1021,1022,-820,-514,-697,-468,1023]],"type":"Polygon","properties":{"GEOID":"271230375001"}},{"arcs":[[-119,-1024,1024,-446]],"type":"Polygon","properties":{"GEOID":"271230375002"}},{"arcs":[[1025,-183,-1022,-49,1026]],"type":"Polygon","properties":{"GEOID":"271230375005"}},{"arcs":[[-686,-447,-1025,-471,-515,1027,1028]],"type":"Polygon","properties":{"GEOID":"271230376011"}},{"arcs":[[1029,-524,1030,1031]],"type":"Polygon","properties":{"GEOID":"271230402001"}},{"arcs":[[1032,-70,-866,-607]],"type":"Polygon","properties":{"GEOID":"271230403012"}},{"arcs":[[-68,1033,-600,1034]],"type":"Polygon","properties":{"GEOID":"271230403021"}},{"arcs":[[-69,-1035,-599,1035,1036,-867]],"type":"Polygon","properties":{"GEOID":"271230403022"}},{"arcs":[[-1036,-275,1037]],"type":"Polygon","properties":{"GEOID":"271230404011"}},{"arcs":[[-868,-1037,-1038,-872,1038]],"type":"Polygon","properties":{"GEOID":"271230404012"}},{"arcs":[[-609,-869,-1039,-871,1039,-258,-520,1040]],"type":"Polygon","properties":{"GEOID":"271230404013"}},{"arcs":[[-1040,-870,-259]],"type":"Polygon","properties":{"GEOID":"271230404021"}},{"arcs":[[1041,1042,-343,-525,-1030,1043,1044]],"type":"Polygon","properties":{"GEOID":"271230405021"}},{"arcs":[[-227,-313,-508,1045,-65,-1033,-606,-1041,-519,-285]],"type":"Polygon","properties":{"GEOID":"271230405031"}},{"arcs":[[1046,-444,-661,-845,1047,1048,1049]],"type":"Polygon","properties":{"GEOID":"271230412001"}},{"arcs":[[-350,-252,1050,-764,-699,-888]],"type":"Polygon","properties":{"GEOID":"271230317021"}},{"arcs":[[1051,1052,-231,1053,1054]],"type":"Polygon","properties":{"GEOID":"271230302012"}},{"arcs":[[-996,-970,-1004,1055,-1000,-998]],"type":"Polygon","properties":{"GEOID":"271230364001"}},{"arcs":[[1056,-1044,-1032,1057,-66]],"type":"Polygon","properties":{"GEOID":"271230402002"}},{"arcs":[[-370,-509,-311,1058,-299]],"type":"Polygon","properties":{"GEOID":"271230405041"}},{"arcs":[[-344,-1043,1059,-499,-506,-368]],"type":"Polygon","properties":{"GEOID":"271230405042"}},{"arcs":[[-808,-300,-1059,1060,1061,1062,-140]],"type":"Polygon","properties":{"GEOID":"271230406012"}},{"arcs":[[-1063,1063,-382,-378]],"type":"Polygon","properties":{"GEOID":"271230406031"}},{"arcs":[[-1062,1064,-283,-1064]],"type":"Polygon","properties":{"GEOID":"271230406032"}},{"arcs":[[-281,1065,-475]],"type":"Polygon","properties":{"GEOID":"271230407051"}},{"arcs":[[-27,-360,-137,-693]],"type":"Polygon","properties":{"GEOID":"271230407062"}},{"arcs":[[1066,-694,-52,-279]],"type":"Polygon","properties":{"GEOID":"271230407063"}},{"arcs":[[-55,-143,-372,1067]],"type":"Polygon","properties":{"GEOID":"271230407072"}},{"arcs":[[-56,-1068,-371,1068]],"type":"Polygon","properties":{"GEOID":"271230407073"}},{"arcs":[[-476,-1066,-280,-57,-1069,-377,1069,-361,-442,1070]],"type":"Polygon","properties":{"GEOID":"271230408011"}},{"arcs":[[-1070,-376,-467,-696,-355,-362]],"type":"Polygon","properties":{"GEOID":"271230408012"}},{"arcs":[[-477,1071,-796,-423,1072,1073]],"type":"Polygon","properties":{"GEOID":"271230409012"}},{"arcs":[[-844,-242,-1072,-1071,-441,-156,-677]],"type":"Polygon","properties":{"GEOID":"271230409021"}},{"arcs":[[1074,-1073,-425,-798,-675,1075]],"type":"Polygon","properties":{"GEOID":"271230410011"}},{"arcs":[[-656,-1048,-847,1076,1077]],"type":"Polygon","properties":{"GEOID":"271230411071"}},{"arcs":[[-657,-1078,1078,1079]],"type":"Polygon","properties":{"GEOID":"271230411073"}},{"arcs":[[1080,-1049,-655,1081,-652]],"type":"Polygon","properties":{"GEOID":"271230412002"}},{"arcs":[[1082,-1050,-1081,-651]],"type":"Polygon","properties":{"GEOID":"271230412003"}},{"arcs":[[1083,1084,-460,-666,1085,-880]],"type":"Polygon","properties":{"GEOID":"271230413011"}},{"arcs":[[1086,-3,-1084,-879]],"type":"Polygon","properties":{"GEOID":"271230413013"}},{"arcs":[[-451,-108,1087,-461,-1085,-2,1088]],"type":"Polygon","properties":{"GEOID":"271230413021"}},{"arcs":[[1089,-803,1090,-106]],"type":"Polygon","properties":{"GEOID":"271230414001"}},{"arcs":[[-107,-1091,-457,-1088]],"type":"Polygon","properties":{"GEOID":"271230414004"}},{"arcs":[[1091,1092,1093,-804]],"type":"Polygon","properties":{"GEOID":"271230415001"}},{"arcs":[[-691,-614,-1092,-1090,-105]],"type":"Polygon","properties":{"GEOID":"271230415002"}},{"arcs":[[-613,-620,-542,1094,-1093]],"type":"Polygon","properties":{"GEOID":"271230415003"}},{"arcs":[[-855,-618,-843]],"type":"Polygon","properties":{"GEOID":"271230416012"}},{"arcs":[[-541,-864,1095,1096]],"type":"Polygon","properties":{"GEOID":"271230416021"}},{"arcs":[[-1096,-630,-325,-623]],"type":"Polygon","properties":{"GEOID":"271230416022"}},{"arcs":[[-572,-638,-771,-777]],"type":"Polygon","properties":{"GEOID":"271230422022"}},{"arcs":[[-402,-521,-262,-410,-274,-974,-133,-859]],"type":"Polygon","properties":{"GEOID":"271230423011"}},{"arcs":[[1097,-706,-982,-200]],"type":"Polygon","properties":{"GEOID":"271230423023"}},{"arcs":[[-635,-865,-136,1098,-199]],"type":"Polygon","properties":{"GEOID":"271230423024"}},{"arcs":[[-135,-707,-1098,-1099]],"type":"Polygon","properties":{"GEOID":"271230423025"}},{"arcs":[[1099,1100,-592,1101,-976]],"type":"Polygon","properties":{"GEOID":"271230426021"}},{"arcs":[[-593,-1101,1102,1103]],"type":"Polygon","properties":{"GEOID":"271230426022"}},{"arcs":[[-594,-1104,1104,-766,-598,-588]],"type":"Polygon","properties":{"GEOID":"271230427003"}},{"arcs":[[-1056,-184,-1026,-1002]],"type":"Polygon","properties":{"GEOID":"271230364003"}},{"arcs":[[-130,-818,-1023,-182]],"type":"Polygon","properties":{"GEOID":"271230365003"}},{"arcs":[[-124,-334,1105,1106]],"type":"Polygon","properties":{"GEOID":"271230366003"}},{"arcs":[[1107,1108,1109]],"type":"Polygon","properties":{"GEOID":"271230367002"}},{"arcs":[[-512,-331,1110,-1110,-584,-834,-1007,1111,-247,-698]],"type":"Polygon","properties":{"GEOID":"271230367003"}},{"arcs":[[-824,1112,-1108,-1111]],"type":"Polygon","properties":{"GEOID":"271230367004"}},{"arcs":[[-986,-916,1113,-831,1114,-823]],"type":"Polygon","properties":{"GEOID":"271230368001"}},{"arcs":[[-1113,-1115,-830,-582,-1109]],"type":"Polygon","properties":{"GEOID":"271230368002"}},{"arcs":[[1115,-990,-809,-832,-1114,-915]],"type":"Polygon","properties":{"GEOID":"271230369001"}},{"arcs":[[-687,-1029,1116]],"type":"Polygon","properties":{"GEOID":"271230376012"}},{"arcs":[[-414,-672,-436,1117,-449,-685,-1117,-1028,-249,1118]],"type":"Polygon","properties":{"GEOID":"271230376013"}},{"arcs":[[-1061,-314,-1065]],"type":"Polygon","properties":{"GEOID":"271230406033"}},{"arcs":[[-695,-480,-464,-690,-356]],"type":"Polygon","properties":{"GEOID":"271230407041"}},{"arcs":[[1119,-678,-158,-679,1120]],"type":"Polygon","properties":{"GEOID":"271230410021"}},{"arcs":[[-876,-1080,1121,1122]],"type":"Polygon","properties":{"GEOID":"271230411031"}},{"arcs":[[-565,-877,-1123,1123]],"type":"Polygon","properties":{"GEOID":"271230411032"}},{"arcs":[[-445,-1047,1124,-90]],"type":"Polygon","properties":{"GEOID":"271230411051"}},{"arcs":[[-91,-1125,-1083,-650,-673]],"type":"Polygon","properties":{"GEOID":"271230411053"}},{"arcs":[[-653,-1082,-654,-875,-564]],"type":"Polygon","properties":{"GEOID":"271230411061"}},{"arcs":[[-1094,-1095,-1097,-622,1125,1126]],"type":"Polygon","properties":{"GEOID":"271230417001"}},{"arcs":[[1127,-626,1128,-579]],"type":"Polygon","properties":{"GEOID":"271230417002"}},{"arcs":[[-1126,-621,-1128,1129]],"type":"Polygon","properties":{"GEOID":"271230417003"}},{"arcs":[[-805,-1127,-1130,-578,-664]],"type":"Polygon","properties":{"GEOID":"271230418003"}},{"arcs":[[1130,1131,-23,1132,-1052]],"type":"Polygon","properties":{"GEOID":"271230419002"}},{"arcs":[[-881,-1086,-665,-24,-1132,1133]],"type":"Polygon","properties":{"GEOID":"271230419003"}},{"arcs":[[1134,-882,-1134,-1131,-1055,1135,1136,-849]],"type":"Polygon","properties":{"GEOID":"271230420011"}},{"arcs":[[1137,-1136,1138,1139,1140,1141]],"type":"Polygon","properties":{"GEOID":"271230420012"}},{"arcs":[[-883,-1135,-848,1142]],"type":"Polygon","properties":{"GEOID":"271230420022"}},{"arcs":[[-384,1143,-861,-631,-853,-842,-37,-479]],"type":"Polygon","properties":{"GEOID":"271230421011"}},{"arcs":[[1144,-863]],"type":"Polygon","properties":{"GEOID":"271230421012"}},{"arcs":[[-383,-858,-567,-1145,-862,-1144]],"type":"Polygon","properties":{"GEOID":"271230421021"}},{"arcs":[[-387,1145,-407,-304,1146,1147,1148]],"type":"Polygon","properties":{"GEOID":"271230305002"}},{"arcs":[[1149,1150,1151,1152,1153]],"type":"Polygon","properties":{"GEOID":"271230312001"}},{"arcs":[[1154,1155,-786,1156]],"type":"Polygon","properties":{"GEOID":"271230316003"}},{"arcs":[[-435,-1003,-1027,-118,-1118]],"type":"Polygon","properties":{"GEOID":"271230375004"}},{"arcs":[[-224,-397,1157,-983]],"type":"Polygon","properties":{"GEOID":"271230307032"}},{"arcs":[[-255,-561,-926,-168,1158]],"type":"Polygon","properties":{"GEOID":"271230318012"}},{"arcs":[[-256,-1159,-167,-765,-1051]],"type":"Polygon","properties":{"GEOID":"271230318013"}},{"arcs":[[1159,-779,-978,-921,-924,-560]],"type":"Polygon","properties":{"GEOID":"271230318021"}},{"arcs":[[1160,1161,1162,-96,1163,-17]],"type":"Polygon","properties":{"GEOID":"271230307043"}},{"arcs":[[1164,1165,-719,-723,1166]],"type":"Polygon","properties":{"GEOID":"271230330002"}},{"arcs":[[-946,-175,1167,-949]],"type":"Polygon","properties":{"GEOID":"271230325004"}},{"arcs":[[1168,-709,1169,1170,-392]],"type":"Polygon","properties":{"GEOID":"271230327002"}},{"arcs":[[1171,-806,-961,-958,-725]],"type":"Polygon","properties":{"GEOID":"271230331002"}},{"arcs":[[-817,-920,-419,-115]],"type":"Polygon","properties":{"GEOID":"271230333002"}},{"arcs":[[-1171,1172,-952,-398,-177,-393]],"type":"Polygon","properties":{"GEOID":"271230327001"}},{"arcs":[[-189,-146,-577,-315,1173]],"type":"Polygon","properties":{"GEOID":"271230334001"}},{"arcs":[[-937,-896,-1174,-321,-83,-800,-918,-911]],"type":"Polygon","properties":{"GEOID":"271230334003"}},{"arcs":[[-576,1174,-775,1175,-346,-213,-955,-317]],"type":"Polygon","properties":{"GEOID":"271230335002"}},{"arcs":[[-950,-1168,-776,-1175,-575]],"type":"Polygon","properties":{"GEOID":"271230335003"}},{"arcs":[[-951,-399,-954,-538,-957,-195,-347,-1176,-774]],"type":"Polygon","properties":{"GEOID":"271230336001"}},{"arcs":[[-201,-984,-20,1176,1177,-496]],"type":"Polygon","properties":{"GEOID":"271230306021"}},{"arcs":[[-159,-1107,-127,-704]],"type":"Polygon","properties":{"GEOID":"271230365004"}},{"arcs":[[-1060,-1042,1178,-500]],"type":"Polygon","properties":{"GEOID":"271230405023"}},{"arcs":[[-977,-1102,-591,-763,-267]],"type":"Polygon","properties":{"GEOID":"271230426011"}},{"arcs":[[1179,-1129,-625,1180,1181,1182,-233]],"type":"Polygon","properties":{"GEOID":"271230303004"}},{"arcs":[[-596,-768,1183,-336,-61]],"type":"Polygon","properties":{"GEOID":"271230424024"}},{"arcs":[[-111,1184,1185,1186,1187]],"type":"Polygon","properties":{"GEOID":"271230308003"}},{"arcs":[[-1158,1188,-1161,-16]],"type":"Polygon","properties":{"GEOID":"271230307042"}},{"arcs":[[-388,-1149,-109,1189]],"type":"Polygon","properties":{"GEOID":"271230308001"}},{"arcs":[[1190,-1190,-112,-1188,1191,-1151]],"type":"Polygon","properties":{"GEOID":"271230308004"}},{"arcs":[[-294,-206,1192,1193]],"type":"Polygon","properties":{"GEOID":"271230309001"}},{"arcs":[[-1193,-205,1194,-716,1195]],"type":"Polygon","properties":{"GEOID":"271230309002"}},{"arcs":[[-303,-1194,-1196,-715,-1166,1196]],"type":"Polygon","properties":{"GEOID":"271230309003"}},{"arcs":[[1197,1198,-1155,1199]],"type":"Polygon","properties":{"GEOID":"271230311002"}},{"arcs":[[1200,-1177,-19,1201,-1198,-794]],"type":"Polygon","properties":{"GEOID":"271230311001"}},{"arcs":[[-1202,1202,-886,1203,-1199]],"type":"Polygon","properties":{"GEOID":"271230311003"}},{"arcs":[[1204,1205,1206,-1153,1207,-610,-945,-482]],"type":"Polygon","properties":{"GEOID":"271230312002"}},{"arcs":[[1208,-1154,-1207]],"type":"Polygon","properties":{"GEOID":"271230312003"}},{"arcs":[[1209,-1169,1210]],"type":"Polygon","properties":{"GEOID":"271230313001"}},{"arcs":[[-795,-1200,-1157,1211,-101]],"type":"Polygon","properties":{"GEOID":"271230310002"}},{"arcs":[[-1152,-1192,-1187,1212,-1211,-391,-1208]],"type":"Polygon","properties":{"GEOID":"271230313002"}},{"arcs":[[1213,-1147,-1197,-1165,1214,1215]],"type":"Polygon","properties":{"GEOID":"271230314001"}},{"arcs":[[-1213,-1186,1216,-1216,-710,-1210]],"type":"Polygon","properties":{"GEOID":"271230314002"}},{"arcs":[[-1195,-204,-102,-1212,-790,-1172,-724,-717]],"type":"Polygon","properties":{"GEOID":"271230315002"}},{"arcs":[[-1156,-1204,-885,-787]],"type":"Polygon","properties":{"GEOID":"271230316001"}},{"arcs":[[1217,-395,1218,-62,-335,-778,1219]],"type":"Polygon","properties":{"GEOID":"271230307021"}},{"arcs":[[-497,-1178,-1201,-793,-79]],"type":"Polygon","properties":{"GEOID":"271230306022"}},{"arcs":[[-636,-498,-77,1220]],"type":"Polygon","properties":{"GEOID":"271230306024"}},{"arcs":[[1221,-1220,-780,1222,-1162]],"type":"Polygon","properties":{"GEOID":"271230307023"}},{"arcs":[[-396,-1218,-1222,-1189]],"type":"Polygon","properties":{"GEOID":"271230307024"}},{"arcs":[[-63,-1219,-394,-223]],"type":"Polygon","properties":{"GEOID":"271230307025"}},{"arcs":[[-18,-1164,-95,-349,-887,-1203]],"type":"Polygon","properties":{"GEOID":"271230317023"}},{"arcs":[[-1163,-1223,-1160,-559,-253,-97]],"type":"Polygon","properties":{"GEOID":"271230318011"}},{"arcs":[[-75,-785,-827,-1005]],"type":"Polygon","properties":{"GEOID":"271230370001"}},{"arcs":[[-1009,-148,-781,-73]],"type":"Polygon","properties":{"GEOID":"271230371002"}},{"arcs":[[-507,-501,-1179,-1045,-1057,-1046]],"type":"Polygon","properties":{"GEOID":"271230405022"}},{"arcs":[[-1076,-1120,1223]],"type":"Polygon","properties":{"GEOID":"271230410012"}},{"arcs":[[-850,-1137,-1138,1224,1225]],"type":"Polygon","properties":{"GEOID":"271230301001"}},{"arcs":[[-1142,1226,1227,-1225]],"type":"Polygon","properties":{"GEOID":"271230301002"}},{"arcs":[[-987,-893,-991,-1116,-914]],"type":"Polygon","properties":{"GEOID":"271230358002"}},{"arcs":[[-1106,-333,-511,-819,-128]],"type":"Polygon","properties":{"GEOID":"271230366002"}},{"arcs":[[-1228,1228,-928,1229]],"type":"Polygon","properties":{"GEOID":"271230301004"}},{"arcs":[[-851,-1226,-1230,-927,1230]],"type":"Polygon","properties":{"GEOID":"271230301005"}},{"arcs":[[-580,-1180,-232,-1053,-1133]],"type":"Polygon","properties":{"GEOID":"271230302011"}},{"arcs":[[-235,-1205,-481,-930]],"type":"Polygon","properties":{"GEOID":"271230302021"}},{"arcs":[[1231,-229,1232,-1140]],"type":"Polygon","properties":{"GEOID":"271230302013"}},{"arcs":[[-1227,-1141,-1233,-236,-929,-1229]],"type":"Polygon","properties":{"GEOID":"271230301003"}},{"arcs":[[-1054,-230,-1232,-1139]],"type":"Polygon","properties":{"GEOID":"271230302014"}},{"arcs":[[-624,1233,1234,-1181]],"type":"Polygon","properties":{"GEOID":"271230303001"}},{"arcs":[[-1235,1235,1236,-1182]],"type":"Polygon","properties":{"GEOID":"271230303002"}},{"arcs":[[-1183,-1237,1237,-1150,-1209,-1206,-234]],"type":"Polygon","properties":{"GEOID":"271230303003"}},{"arcs":[[-327,1238,-386,1239]],"type":"Polygon","properties":{"GEOID":"271230304001"}},{"arcs":[[-328,-1240,1240,-1234]],"type":"Polygon","properties":{"GEOID":"271230304002"}},{"arcs":[[-1236,-1241,-389,-1191,-1238]],"type":"Polygon","properties":{"GEOID":"271230304003"}},{"arcs":[[-629,-409,-154,-408,-1146,-1239]],"type":"Polygon","properties":{"GEOID":"271230305001"}},{"arcs":[[-110,-1148,-1214,-1217,-1185]],"type":"Polygon","properties":{"GEOID":"271230305003"}},{"arcs":[[-772,-637,-1221,-293,-302]],"type":"Polygon","properties":{"GEOID":"271230306011"}},{"arcs":[[-528,-995,-1010,-732,-1008]],"type":"Polygon","properties":{"GEOID":"271230361002"}},{"arcs":[[-1079,-1077,-846,-662,-1089,-1,1241,1242]],"type":"Polygon","properties":{"GEOID":"271230413024"}},{"arcs":[[-548,-641,1243,-8,-14,-992,-988,-891,-713]],"type":"Polygon","properties":{"GEOID":"271230342016"}},{"arcs":[[-553,-720,-5,-1244]],"type":"Polygon","properties":{"GEOID":"271230342015"}},{"arcs":[[-1242,-4,-1087,-878,1244]],"type":"Polygon","properties":{"GEOID":"271230413023"}},{"arcs":[[-1170,-708,-535,-953,-1173]],"type":"Polygon","properties":{"GEOID":"271230327003"}},{"arcs":[[-1215,-1167,-722,-711]],"type":"Polygon","properties":{"GEOID":"271230428003"}}]}}}