{"type":"Topology","arcs":[[[11365,12035],[111,70],[129,89],[-6,0],[122,86],[171,116],[45,36],[30,36],[31,54],[8,-22],[3,-47],[-1,-122],[7,-30],[8,-13],[25,-27],[12,-28],[0,-30],[-12,-39],[-10,-15],[-36,-40],[-6,-27],[-11,-109],[84,-13],[59,0],[20,-8],[22,-28],[30,-80],[21,-67],[4,-29],[1,-123],[-60,24],[-427,240],[-50,26],[-69,31],[-255,89]],[[15648,16998],[232,0],[163,-2],[297,-1],[279,-1],[181,0],[88,2],[139,-1],[55,1],[172,0],[142,0],[459,-4],[5,2],[210,2],[17,-69],[-8,-56],[-18,-68],[-14,-37],[1,-28],[14,-24],[31,-44],[55,-41],[35,-21],[34,-31],[11,-32],[5,-44],[-4,-39],[-19,-44],[-19,-34],[-15,-47],[1,-51],[22,-63],[56,-132],[21,-41]],[[18276,16050],[-45,-34],[-23,-39],[-53,24],[-16,4],[-236,0],[-125,-1],[-1,-12],[3,-216],[2,-284],[6,-282],[3,-207],[-333,1],[-97,0],[-213,0],[1,-108],[3,-372],[0,-21],[219,1],[1,-323],[2,-211],[1,-219]],[[17375,13751],[-3,1],[-205,1],[0,-171],[67,-84],[-43,5],[-198,0],[-59,-1],[-70,1],[-187,-2],[-109,-2],[-265,-1],[-128,5],[-251,-4],[-109,-3],[-153,-1]],[[15662,13495],[-3,513],[-2,215],[0,248],[-3,316],[-1,221],[2,219],[0,269],[-2,231],[0,269]],[[15653,15996],[-1,323],[-2,395],[-1,189],[-1,95]],[[175,8463],[185,-2],[236,-1],[0,-159],[0,-202],[-4,-79],[-10,-55],[455,0],[395,-2],[-2,83],[3,47],[14,103],[114,-36],[68,-30],[37,-33],[14,-8],[132,0],[138,-1],[76,-3],[43,5],[15,9],[8,16],[0,99],[337,0],[217,-1],[13,-4],[73,-55],[5,-1],[0,-61],[-1,-543],[0,-83]],[[2736,7466],[0,-523],[-1,-222]],[[2735,6721],[-1,-236],[0,-425],[-1,-250],[3,-23],[-4,-430]],[[2732,5357],[-1,-91],[-4,-634],[0,-151]],[[2727,4481],[-10,0],[-401,7],[-423,-5],[-225,-1],[-208,1],[-421,3],[-113,0],[-554,4],[-69,-4],[-134,0],[-3,3],[2,455],[1,295],[-1,247],[2,481],[2,512],[2,945],[1,247],[0,231],[0,331],[0,230]],[[19923,10150],[163,-1],[83,-2],[23,-88]],[[20192,10059],[-45,-30],[-17,-6],[-97,2]],[[20033,10025],[-94,-1],[-27,8]],[[19912,10032],[9,15],[2,103]],[[6449,13481],[103,54],[29,1],[250,0]],[[6831,13536],[-1,-267]],[[6830,13269],[-142,29],[-54,21],[-23,13],[-50,39],[-112,110]],[[2735,6721],[105,3],[158,6],[149,5],[-4,-645],[0,-102],[89,3],[0,-42],[-9,-45],[-17,-33],[-22,-29],[27,-19],[79,-66],[16,-18],[-34,-2],[75,-34],[9,-16],[1,-564],[-8,-7],[-115,-2],[-12,-7],[-12,-51],[-18,-40],[-19,-26],[-38,-11],[-14,10],[-31,7],[-30,34],[-82,69],[-27,10],[-126,-5],[1,182],[-24,5],[-43,62],[-27,4]],[[3286,16957],[10,0],[522,7],[270,0]],[[4088,16964],[1,-294],[11,-68],[15,-41],[49,-95],[-33,-23],[-68,-35],[-40,-10],[-38,-20],[-40,-12],[-30,-18],[-7,-10],[-5,-36],[2,-74],[3,-223],[0,-99],[4,-224]],[[3912,15682],[-34,0]],[[3878,15682],[-303,-5],[-6,37]],[[3569,15714],[-13,79],[-31,102],[-13,63],[-40,134],[-11,38],[-161,540],[-12,53],[-8,89],[1,69],[5,76]],[[3912,15682],[65,2]],[[3977,15684],[3,-259],[33,-3],[2,-210],[-98,-1]],[[3917,15211],[-43,0],[-1,349],[8,19],[-2,16],[-1,87]],[[3917,15211],[-3,-52],[-14,-49]],[[3900,15110],[-19,-64],[-3,-26],[0,-61],[-193,0],[-242,2],[0,225],[-2,365],[-4,13],[-61,96],[-32,46],[18,9],[49,-1],[158,0]],[[19440,9650],[149,5],[12,2]],[[19601,9657],[82,0],[71,8],[63,-1]],[[19817,9664],[-1,-139]],[[19816,9525],[-161,2],[-38,-1],[-79,2],[-100,0]],[[19438,9528],[2,122]],[[19816,9343],[102,-1],[74,23],[38,1]],[[20030,9366],[86,-2],[24,4]],[[20140,9368],[-2,-156]],[[20138,9212],[0,-84],[3,-18],[-14,-31]],[[20127,9079],[-27,45],[-24,18],[-48,8]],[[20028,9150],[-96,-1],[-36,5],[-50,22],[-31,4]],[[19815,9180],[1,163]],[[19043,9885],[41,-19],[284,-68],[20,-8],[58,-11],[1,151],[1,43],[12,50],[37,6],[107,-2]],[[19604,10027],[-1,-125]],[[19603,9902],[-2,-245]],[[19440,9650],[-236,-9],[-77,-2],[-26,2],[-145,16]],[[18956,9657],[2,5],[1,93],[10,45],[13,22],[61,63]],[[19604,10027],[214,-3]],[[19818,10024],[0,-124]],[[19818,9900],[-27,0]],[[19791,9900],[-188,2]],[[19791,9900],[0,-129],[1,-58],[25,0],[0,-49]],[[19818,9900],[21,0],[21,-10],[38,-42],[19,-9],[42,-2]],[[19959,9837],[0,-140],[-35,0],[1,-33]],[[19925,9664],[-25,3],[-83,-3]],[[19818,10024],[80,1],[14,7]],[[20033,10025],[2,-58],[12,-47],[35,-66]],[[20082,9854],[-34,-17],[-89,0]],[[20192,10059],[17,-70],[19,11],[58,47]],[[20286,10047],[54,-144]],[[20340,9903],[-63,-45],[-34,66],[-73,-52]],[[20170,9872],[-71,-50],[-17,32]],[[20170,9872],[17,-37],[84,-158],[4,-23]],[[20275,9654],[-80,13],[-27,1],[-122,0],[-121,-4]],[[19600,10303],[15,-13],[31,-18],[19,1],[40,16],[4,-17],[1,-73],[45,6],[32,11],[19,0],[31,15],[25,-5],[62,-31],[-1,-45]],[[19604,10027],[-4,276]],[[19011,11994],[35,103],[28,80],[19,39],[7,24]],[[19100,12240],[15,-2],[248,-2],[96,1]],[[19459,12237],[8,-52],[25,-92],[6,-39],[4,-68]],[[19502,11986],[-180,-2],[-284,4],[-27,6]],[[20140,9368],[26,13],[100,70],[21,12]],[[20287,9463],[94,29],[16,9]],[[20397,9501],[-8,-39],[3,-13],[0,-91]],[[20392,9358],[1,-150]],[[20393,9208],[-54,-1],[-89,1],[-17,3],[-95,1]],[[6831,13536],[82,-1],[1,197],[-1,91],[2,73],[8,120],[1,48],[-3,147],[164,-2],[21,13],[1,205],[2,284],[16,-2],[177,-2],[16,6],[6,20],[2,204],[17,19],[61,1]],[[7404,14957],[136,-1],[72,2],[141,0],[-1,-117],[1,-117],[-1,-54],[-5,-21],[-12,-16],[-27,-26],[-15,-22],[-2,-16],[11,-125],[13,-25],[25,-29],[11,-24],[2,-22],[0,-489],[-7,-17],[-13,-6],[-45,0],[12,-34],[10,-13],[13,-36],[24,-31],[13,-8],[-20,-16],[-17,-35],[1,-18],[23,-16],[30,10],[-10,-34],[-15,-9],[-9,-16],[-13,3],[-2,-21],[19,1],[10,-10],[24,2],[1,-18],[18,-5],[30,11],[-4,-15],[-21,-2],[-11,-22],[13,-15],[-9,-14],[30,-8]],[[7828,13463],[14,-28],[-5,-13],[12,-11],[-4,-18],[-15,-4],[2,-17],[26,-30],[-7,-12],[6,-18],[-11,-15],[19,-20],[15,-54],[1,-31]],[[7881,13192],[-287,12],[-28,2],[-494,21],[-69,8],[-173,34]],[[17375,13751],[34,-20],[19,-32],[26,-67],[17,-16],[31,-1],[34,-14],[24,-24],[23,-39],[20,-23],[22,-9],[54,-3],[-5,-40],[5,-40],[18,-98],[1,-28],[1,-178],[-1,-149],[1,-184],[2,-250],[18,-74],[90,32],[160,2],[270,0]],[[18239,12496],[0,-209],[1,-144],[-1,-103],[1,-185],[-2,-135],[0,-100]],[[18238,11620],[1,-256],[-15,-24],[74,-120]],[[18298,11220],[37,-78],[67,-147],[22,-42],[32,-57],[36,-57],[27,-48],[46,-100],[17,-31],[22,-34]],[[18604,10626],[-15,-5]],[[18589,10621],[-224,0],[-152,-1],[-57,0],[-84,-1],[-23,-4],[-12,5],[-94,-121]],[[17943,10499],[-34,-3],[-132,1],[-371,2],[-122,0],[-61,-2],[-48,2],[-37,-12],[6,-28],[0,-40],[-8,-48],[-1,-80],[-1,-233],[-1,-21],[-14,-42],[-23,-56],[-5,8],[-211,172],[-317,262],[-139,112],[-149,-3],[-55,136],[-31,64],[-42,53],[-65,-32],[-10,-7],[-53,-85]],[[16019,10619],[-98,111],[-39,48],[-46,50],[-33,31],[-34,27],[-102,75]],[[15667,10961],[0,73],[-2,58],[0,376],[-1,208],[-2,140],[0,94],[-2,352],[3,265],[-1,717],[0,251]],[[19704,8778],[122,0],[29,-2],[172,-1]],[[20027,8775],[-1,-234],[-6,-447],[0,-69]],[[20020,8025],[0,-357],[-1,-142],[-3,-55],[-6,-47]],[[20010,7424],[-107,10],[-79,9],[-203,20],[-34,2]],[[19587,7465],[4,65],[-1,280],[0,69],[0,239],[5,44],[9,19],[86,108],[8,21],[3,33],[3,435]],[[19816,9525],[0,-182]],[[19815,9180],[-126,1],[-34,28],[-19,8],[-71,3],[-113,2]],[[19452,9222],[4,137],[-2,47],[-13,61],[-3,61]],[[19405,8900],[17,43],[12,68],[15,152],[3,59]],[[19815,9180],[0,-124],[-66,1],[-10,3],[-20,-19],[-10,-19],[-3,-148],[-2,-96]],[[19704,8778],[-47,4],[-15,-3],[-64,3],[-11,6],[-57,55],[-50,34],[-55,23]],[[18724,7444],[138,258],[45,93],[100,237],[18,46],[83,264],[36,111],[20,52]],[[19164,8505],[19,37],[27,45],[83,131],[82,130],[30,52]],[[19587,7465],[-63,-1],[-203,-5],[-41,0],[-173,-7],[-266,-6],[-117,-2]],[[19098,13502],[2,-316],[0,-103],[1,-121],[2,-375],[0,-330],[-3,-17]],[[19011,11994],[-14,-45],[-2,-19],[1,-127]],[[18996,11803],[-18,0],[0,18],[-76,2],[0,-82],[-64,2],[-1,61],[-63,0],[2,-31],[-27,-1],[-6,19],[-46,1],[-2,-26],[-23,0],[-2,-144],[-60,-1],[-321,0],[-51,-1]],[[18239,12496],[0,89],[-4,359],[1,554],[155,2],[77,2],[38,-1],[136,2],[147,-1],[65,1],[244,-1]],[[19098,13502],[305,-6],[191,-2],[182,-4]],[[19776,13490],[-44,-24],[-33,-6],[-44,-20],[-37,-53],[-13,-65],[5,-142],[10,-323],[3,-25],[-6,-46],[-12,-24],[-21,-30],[-29,-34],[-18,-26],[-20,-20],[-16,-27],[-17,-36],[-10,-32],[-4,-172],[-11,-148]],[[20340,9903],[41,-108],[67,-87],[32,-21]],[[20480,9687],[-19,-16],[-63,-39],[-60,-1],[-31,-19]],[[20307,9612],[-17,37],[-15,5]],[[20307,9612],[-72,-50],[52,-99]],[[20030,9366],[2,33],[1,125]],[[20033,9524],[7,0],[0,64],[-10,25],[-13,17],[-55,26],[-37,8]],[[19531,10320],[23,101],[19,52]],[[19573,10473],[6,12],[30,9],[33,22],[40,14],[71,38],[11,9],[103,110],[31,36],[2,15]],[[19900,10738],[44,-8],[50,-26],[15,-13],[16,-30],[40,10],[15,12]],[[20080,10683],[41,-36],[48,-49],[24,-63],[13,-40],[17,-36],[11,-46],[18,-195],[11,-93],[23,-78]],[[19600,10303],[-64,-38],[-20,-23],[15,78]],[[13019,13225],[284,5],[-1,184],[5,12],[37,38],[18,9],[605,0]],[[13967,13473],[-18,-293],[-9,-127],[-5,-58],[24,-27],[37,-71],[31,-41],[97,-106],[19,-24],[9,-40],[1,-182],[2,-156],[7,-335],[3,-25],[11,-27],[59,-92],[12,-28],[2,-27],[-35,-7],[-29,21],[-27,2],[-41,-21],[9,-38],[-7,-42],[18,-7],[39,14],[33,-2],[9,-14],[-2,-42],[-24,-104],[-10,-33],[-24,-128],[-10,-29],[-1,-28],[12,-27],[4,-23],[-4,-33],[-10,-37],[-21,-42],[-49,-30],[-62,-12],[-68,-8],[-66,-14],[-21,-10],[4,-25],[-7,-50],[-25,-62],[3,-52],[29,-81],[18,-39],[26,-41],[23,-42],[17,-41],[10,-31],[9,-62],[3,-92],[-5,-21],[-128,-7]],[[13839,10474],[-12,4],[-225,3],[3,-157],[-11,-23],[-36,-9],[-17,-39],[-7,-6],[-73,-3],[-27,12],[-24,3],[-9,-6],[-9,-32],[-4,-231],[-158,-9],[-77,0]],[[13153,9981],[-102,8],[-41,0],[-147,-10],[-98,-8]],[[12765,9971],[-1,253],[222,1],[17,-5],[26,-21],[59,-25],[72,-2],[36,-3],[-1,66],[4,42],[11,28],[75,128],[18,23],[6,67],[-2,449],[-167,-5],[1,69],[-3,26],[69,80],[23,15],[43,10],[31,17],[3,11],[25,4],[11,11],[21,4],[58,1],[14,34],[-117,66],[-225,129],[1,26],[58,-14],[26,-1],[68,12],[56,7],[3,9],[58,47],[19,28],[205,-23],[182,-25],[-3,64],[13,53],[0,15],[-10,91],[-29,137],[-6,17],[-17,27],[-63,69],[-39,35],[-37,9],[-25,-12],[-19,11],[-19,61],[6,39],[2,86],[3,22],[-2,229],[5,14],[-35,3],[2,23],[-12,10],[-16,-8],[-18,34],[-28,14],[-25,36],[-13,29],[-25,10],[-98,92],[-32,10],[-21,16],[0,44],[-9,15],[-10,56],[-15,26],[-37,14],[-9,14],[-44,-6],[-21,-35],[-19,-17],[-22,-8],[-98,-4],[0,41],[8,41],[-3,42],[1,22],[27,58],[-6,13],[4,24],[36,22],[15,-4],[20,12],[6,13],[-4,24],[8,18],[-25,14],[-3,9],[10,31]],[[12880,13972],[-4,6],[79,7],[45,16],[35,25],[27,34],[19,41],[36,187],[17,49],[15,30],[137,233],[45,73],[26,49],[75,105],[73,99],[63,83],[48,64],[32,48],[38,64],[88,172],[13,28],[-4,40],[12,73],[18,47],[20,-3],[9,18],[-9,20],[7,23],[19,6],[6,31],[-4,27],[12,5],[-4,17],[19,21],[-5,36],[4,16],[-30,20],[-15,27],[-4,34],[11,9],[18,-20],[11,9],[5,19],[22,5],[-8,41],[-16,21],[-14,7],[-7,14],[-12,-3],[-14,23],[24,42],[-26,6],[-5,21],[-12,13],[-14,0],[-14,13],[1,15],[-13,7],[6,20],[-10,16],[15,15],[5,27],[26,0],[7,13],[13,-6],[10,11],[23,-4],[33,11],[-2,26],[19,11],[62,-37],[19,0],[11,10],[10,-19],[14,2],[9,-16],[22,28],[18,-17],[21,22],[36,-1],[51,-6],[8,-11],[23,-9],[13,29],[21,-18],[28,17],[15,3],[0,25],[12,10],[13,-4],[5,16],[-15,32],[13,27],[18,3],[-7,22],[15,1],[1,-182],[0,-174],[23,3],[62,0],[328,1],[69,1],[359,10],[378,2],[78,1]],[[15662,13495],[-130,-3],[-100,-1],[-100,-5],[-120,-3],[-112,-2],[-202,-5],[-158,-1],[-142,-4],[-237,3],[-76,-1],[-318,0]],[[13019,13225],[6,31],[20,8],[-10,33],[3,10],[31,26],[-19,20],[-11,49],[-26,35],[-4,42],[5,18],[35,18],[2,19],[-20,37],[-26,16],[-8,45],[-23,-2],[-42,2],[-22,-3],[-24,2],[-18,16],[-11,29],[3,25],[40,33],[54,23],[34,17],[24,19],[34,4],[5,13],[-15,22],[-8,29],[-15,2],[-4,45],[-13,3],[-20,15],[-19,-2],[-13,11],[-17,-36],[-16,10],[-7,23],[-24,40]],[[10322,16953],[211,3],[290,5],[179,-1],[117,1],[176,4],[139,-3],[185,2],[134,0],[220,-7],[175,-1],[19,-5],[152,5],[161,8],[123,5],[216,-3],[258,2],[207,7],[86,1],[163,5],[102,5],[175,6],[198,6],[170,1],[403,1],[210,-3],[125,0],[299,0],[192,1],[241,0]],[[12880,13972],[-35,-4],[-6,-31],[-15,-32],[-19,-20],[-154,-116],[-47,-36],[-85,-63],[-226,-170],[-24,-22],[-44,-2],[-199,-4],[-174,-4],[-183,-6],[-36,2],[-48,-5],[-354,-7],[-128,-1],[-354,3],[-82,1],[-157,-8],[-162,-3],[-240,0]],[[10108,13444],[-1,157],[1,71],[1,261],[-20,59],[-6,26],[-3,120],[34,20],[68,56],[104,83],[-9,33],[-11,2],[-13,15],[-13,46],[6,29],[-2,35],[-35,17],[-11,-1],[-29,-17],[-1,24],[42,90],[-5,14],[14,25],[1,16],[12,15],[18,5],[16,21],[-4,20],[13,16],[-7,24],[8,7],[-23,27],[-54,-1],[-22,11],[-26,3],[-55,-37],[-32,-37],[-18,-5],[19,63],[35,132],[6,40],[2,33],[-1,358],[84,2],[-11,36],[-44,83],[18,0],[26,98],[16,33],[109,145],[17,44],[2,67],[-1,122],[-2,96],[2,53],[1,107],[-1,93],[0,201],[-1,453]],[[9971,3488],[-1,-239],[-2,-260],[423,-1],[70,-3],[1,-71],[-2,-14],[18,-9],[33,-43],[-44,13],[-33,2],[-32,-8],[4,-208],[-1,-173],[9,-17]],[[10414,2457],[-8,-26],[1,-194],[-1,-122],[0,-138],[-2,-102],[1,-109],[-2,-273]],[[10403,1493],[-153,-1],[-272,5],[-152,1]],[[9826,1498],[-30,56],[-21,34],[-77,94],[-35,59],[-6,-2],[-26,28],[4,33],[-108,224],[-21,44],[-90,185],[-19,34],[-27,37],[-31,36],[-195,212],[-36,39],[-35,65],[-99,237],[-33,72],[-32,51],[-24,27],[-45,39],[-220,129],[-26,20],[-31,40],[-15,33]],[[8548,3324],[12,4],[114,2],[20,9],[11,24],[77,70],[-9,-21],[33,-1],[117,-27],[44,-4],[59,0],[30,3],[45,18],[28,22],[147,131],[33,19],[51,21],[77,29],[2,-29],[-1,-88],[12,-11],[260,-3],[147,-3],[114,-1]],[[18276,16050],[6,-20],[13,-90],[9,-36],[17,-41],[24,-31],[12,-7],[42,-42],[52,-38],[27,-22],[39,-26],[20,-18],[41,-75],[62,-48],[38,-8],[17,-11],[91,-88],[20,-10],[45,-14],[42,-8],[92,-44],[47,-13],[87,-6],[118,-35],[17,-30],[11,-121],[-2,-19],[-58,-87],[-45,-41],[-80,-25],[-14,-17],[-12,-26],[-4,-22],[7,-51],[7,-74],[11,-53],[37,-68],[35,-55],[104,-114],[76,-28],[19,-19],[10,-28],[18,-84],[36,-158],[46,-228],[16,-113],[-1,-75],[7,-59],[7,-39],[16,-35],[30,-27],[42,-23],[35,-5],[39,9],[37,19],[53,43],[82,42],[47,16],[45,-17],[14,-8],[8,-25],[0,-28],[-9,-34],[-19,-32],[-53,-51],[-76,-39]],[[7828,13463],[241,-5],[35,-12],[42,-30],[31,-11],[449,-71],[37,-5],[143,-22],[226,-35],[6,184],[1,121],[-2,33],[6,80],[7,9],[44,2],[90,-3],[109,-1],[123,-1],[83,1],[6,2],[35,-41],[8,-19],[5,-30],[6,-152],[34,-1],[24,-11],[289,-4],[202,3]],[[10108,13444],[-1,-159],[0,-367],[-2,-267],[13,-20],[-23,-39],[-34,-1],[-66,3],[-10,-58],[-2,-33],[3,-8],[28,-6],[25,-40],[2,-50],[-6,-26],[2,-112],[2,-17],[25,13],[22,-5],[12,-29],[33,-8],[21,4],[23,29],[20,-7],[42,-6],[37,25],[19,26],[27,10],[1,-140],[-1,-193],[-1,-173],[0,-111],[0,-245],[-193,6],[-204,4],[-22,0],[-1,-288],[-2,-269],[-4,-267],[-6,-81],[-1,-94]],[[9886,10445],[-121,3],[-93,1],[-94,3],[-161,0],[-409,2],[-40,1],[-254,0],[-7,2],[-82,1],[-40,5],[-42,2],[-54,-7],[-239,2],[-362,0]],[[7888,10460],[-189,1]],[[7699,10461],[35,114],[8,64],[4,53],[2,204],[-1,45],[2,142],[3,390],[-3,361],[137,3],[2,28],[30,1],[11,15],[-15,38],[-3,47],[-7,13],[1,22],[-21,-9],[-11,9],[-10,29],[-23,37],[-10,28],[4,16],[32,-9],[2,19],[-19,4],[-4,22],[19,16],[13,39],[34,38],[13,8],[11,-18],[17,6],[-9,28],[-30,27],[-16,27],[-32,37],[-27,10],[-22,-8],[-33,-56],[-24,-26],[-11,-17],[-5,-49],[-17,-10],[-22,13],[-18,57],[9,46],[17,40],[-4,20],[-29,33],[-26,18],[-4,20],[7,14],[35,33],[0,35],[29,19],[3,27],[-36,48],[6,31],[-14,40],[5,32],[6,6],[-3,25],[-8,15],[-18,13],[-17,-6],[-17,-16],[-9,7],[1,19],[33,28],[27,7],[15,16],[12,38],[28,24],[8,17],[18,16],[24,-25],[2,16],[26,22],[0,24],[10,20],[1,21],[32,37],[15,13],[-13,10],[1,22],[20,-19],[13,5],[4,15],[-14,35],[0,62]],[[4088,16964],[141,0],[15,-9],[245,5],[33,5],[215,0],[428,-9]],[[5165,16956],[0,-284],[1,-33],[0,-194],[-1,-112],[-3,-95],[2,-115],[3,-81],[0,-71],[-137,-2],[-183,-7],[-111,-1],[3,-377],[-1,-124],[173,4],[20,-5],[18,-20],[4,-19],[2,-58],[9,-37],[58,-108],[64,-183],[22,-67],[2,-32],[-13,-24],[-32,-37],[-4,-31],[1,-45],[10,-28],[79,-119],[16,-12],[1,-194],[3,-29]],[[5171,14416],[-65,34],[-126,71],[-215,117],[-360,198],[-233,127]],[[4172,14963],[27,0],[-1,259],[-13,8],[4,87],[-3,16],[16,3],[9,-21],[16,4],[8,21],[-3,33],[-22,5],[-20,12],[-5,35],[24,41],[33,23],[12,14],[-7,13],[-28,-5],[-9,41],[-14,17],[-10,43],[-18,31],[-15,17],[-12,27],[-100,-3],[-64,0]],[[13205,7255],[13,30],[27,22],[10,14],[6,37],[1,136],[192,5],[58,0],[259,4],[305,2],[186,4],[1,-2]],[[14263,7507],[0,-28],[-19,-124],[-15,-112],[-1,-26],[-6,-263],[2,-21],[11,-27],[20,-20],[33,-11],[132,-3],[21,-7],[27,-21],[18,-39],[34,-161],[13,-35],[10,-14],[28,-26],[49,-34],[129,-92],[20,-28],[7,-33],[0,-101],[2,-139],[20,-9],[1,-207],[2,-59]],[[14801,5867],[-33,-1],[-53,-19],[-93,-45],[-10,-1],[-182,-86],[-49,-17],[-41,-4],[-77,4],[-302,70],[-2,-13],[-44,10],[-237,-10],[-45,2],[-337,39]],[[13296,5796],[2,53]],[[13298,5849],[5,141],[-98,1],[0,304],[76,22],[30,16],[89,53],[-1,4],[-3,225],[-6,346],[0,141],[-10,13],[-179,3],[3,122],[1,15]],[[20403,8024],[46,-2],[106,0],[70,-4],[77,1],[17,2],[40,-3],[49,1],[21,10]],[[20829,8029],[2,-23],[-20,-52],[-15,-20],[-30,-30],[-14,-55],[-5,-60],[8,-97],[-4,-28],[4,-74],[-8,-21],[-16,-29],[7,-50],[32,-73],[3,-15],[-7,-100],[6,-28],[7,-10],[32,-15],[47,-33],[38,-61],[14,-28],[16,-49],[24,-21],[35,-41],[23,-23],[37,-28],[18,-10],[40,-45],[20,-32],[43,-28],[22,-5],[32,4],[27,-13],[61,-35],[23,-16],[42,-46],[69,-104],[4,-18],[28,-63],[32,-49],[44,-47],[32,-26],[25,-11],[18,-19],[13,-42],[-3,-74],[4,-50],[-3,-39],[-7,-65],[-1,-38],[-16,-46],[-12,-11],[-16,-87],[-1,-30],[6,-35],[9,-15],[21,-19],[32,-11],[49,-7],[7,-11],[24,-21],[18,-8],[53,-33],[17,-5],[41,1],[32,-8],[69,-43],[41,-11],[28,-22],[24,-58],[15,-26],[19,-48],[-1,-21],[-13,-39],[-19,-27],[-13,-27],[3,-37]],[[22045,5389],[-33,-19],[-2,-19],[-13,-13],[-35,-4],[-40,12],[-11,-11],[-11,6],[-14,-16],[1,-39],[12,-23],[29,-37],[2,-17],[21,-38],[-12,-2],[-38,45],[-101,138],[-55,76],[-32,54],[-43,54],[-70,84],[-22,-2],[-105,0],[-152,2],[-90,3],[-7,-7],[-3,-59],[-40,-88],[-13,-24],[-84,98],[-122,144],[-110,145]],[[20852,5832],[-32,36],[-66,58],[-48,36],[-164,109],[-12,11],[-37,75],[-28,23]],[[20465,6180],[11,46],[49,242],[5,49],[0,166],[1,57],[0,104],[2,166],[1,4],[2,79],[3,51],[10,30],[24,66]],[[20573,7240],[25,60],[9,49],[-1,38],[-6,36],[-55,139],[-53,148],[-13,38],[-49,140],[-13,50],[-14,86]],[[5165,16956],[146,9],[9,2],[53,-1],[114,1],[86,0],[151,1],[48,5],[37,0],[258,-2],[389,-3],[144,-4],[4,-2],[473,-4],[687,-7]],[[7764,16951],[-12,-371],[0,-98],[-2,-85],[1,-169],[-2,-176],[1,-95],[-129,-1],[-213,-3],[-27,2],[-74,27],[-2,-10],[5,-68],[50,-68],[24,-25],[9,-62],[-8,-30],[-24,-28],[34,-87],[7,-34],[-3,-61],[-6,-39],[-17,-43],[-37,-57],[-9,-24],[-2,-22],[14,-69],[8,-14],[10,-43],[-7,-31],[38,-36],[10,-45],[-2,-24],[6,-37],[-7,-42],[6,-26]],[[6449,13481],[-30,-14],[-18,-1],[-237,1],[-494,1],[-111,-1],[-25,-6],[-39,-21],[-62,-27],[-49,-17]],[[5384,13396],[-61,-17],[-29,-2],[-66,23],[-59,23],[1,170],[2,74],[-1,256],[1,238],[-1,55],[-5,0],[7,174],[-2,26]],[[7764,16951],[345,-7],[297,-5],[34,0],[498,4],[101,-1],[241,1],[199,-1],[151,5],[48,-6],[455,8],[189,4]],[[174,10439],[201,0],[220,-4],[13,-2],[19,37],[15,43],[4,27],[4,320],[7,31],[8,16],[29,26],[32,7],[662,8],[285,0],[18,2],[19,12],[22,-20],[6,-278],[8,-24],[143,-190],[45,-1],[344,3],[56,0],[258,-2],[157,-1],[485,0],[179,2],[194,-1],[57,1],[320,3],[97,0],[214,1],[20,2],[136,1],[289,0],[346,1],[80,1]],[[5166,10460],[294,-2],[192,1],[463,-2],[94,1],[59,-2],[211,-1],[393,3],[140,1],[411,2],[276,0]],[[7888,10460],[-26,-122],[-36,-145],[-4,-24],[-13,-153],[-11,-146],[-8,-180],[-7,-93],[115,-1],[64,1],[75,-1],[115,2],[17,-15],[-2,-112],[0,-99],[-2,-231],[-1,-164],[-2,-144],[0,-55],[-1,-300],[-57,0],[-42,14],[-28,25],[-8,-21],[21,-21],[17,-30],[-2,-28],[21,-81],[4,-41],[12,-45],[-9,-27],[4,-34],[-10,-21],[-14,-11],[12,-23],[-8,-11],[9,-18],[12,11],[3,24],[13,-6],[0,-23],[-11,-24],[9,-24],[18,-25],[-14,-10],[-25,2],[25,-37],[-17,-11],[-11,-53],[6,-13],[-24,-7],[-16,-12],[-12,-21],[-16,-7],[-9,-35],[-10,-7],[-4,-32],[-18,0],[-10,-9],[5,-16],[15,-2],[6,-41],[-7,-21],[-12,-5],[-3,-24],[7,-9],[-9,-17],[-21,-19],[-1,-20],[-23,-23],[20,-16],[1,-12],[-22,-5],[-4,-26],[-20,-5],[-5,-27],[-8,-15],[102,-2],[95,0],[4,-49],[-8,-28],[16,-18],[-14,-41],[-34,-54],[-29,-84],[-17,-15],[-5,-21],[2,-40],[9,-10],[3,-21],[-12,-50],[-26,-28],[-18,-33],[-109,-2]],[[7850,6987],[2,147],[0,65],[-3,43],[3,241],[-72,1],[-218,0],[-249,-2],[-346,3],[-248,0],[-372,0],[-215,0],[1,249],[-439,1],[-80,0],[-328,-5],[-1,-150],[-1,-53],[-9,-22],[9,-22],[-116,1],[-75,-4],[-74,-1],[-575,-1],[-206,-1],[-102,-2],[-519,-3],[-40,0],[-397,-7],[-159,0],[-285,1]],[[175,8463],[0,341],[1,127],[0,151],[-3,198],[3,213],[-2,288],[0,163],[-1,130],[1,365]],[[17862,4548],[1,218],[0,278],[430,3],[1,496],[0,326],[-2,120],[2,62],[3,446],[2,48]],[[18299,6545],[327,-16],[114,-3],[194,-3],[210,0],[150,-1],[51,-2],[158,-2],[26,5],[18,11],[21,26],[1,-31],[-1,-164],[0,-291],[-2,-179],[259,1],[139,0],[30,-8],[57,86],[27,27],[38,27],[151,68],[83,36],[21,5],[53,3],[28,19],[13,21]],[[20852,5832],[0,-290],[-1,-222],[0,-211],[-1,-107],[0,-308],[1,-188]],[[20851,4506],[-259,5],[3,-163],[-3,-15],[-58,-139],[-12,-48],[3,-133],[-105,3],[-1,80],[2,92],[6,29],[-4,37],[-9,14],[-148,3],[-44,5],[-10,10],[-4,185],[1,47],[-274,3],[-160,3],[-33,1],[-221,2],[-71,0],[-8,-16],[-68,-62],[-29,-32],[-21,-29],[-5,-16],[-24,-14],[-7,-14],[-18,-7],[-19,10],[-87,-3],[-29,-6],[-27,5],[-36,15],[-21,3],[-21,-5],[-14,4],[-27,-4],[-23,-11],[-64,-16],[-57,-39],[-31,-16],[-6,26],[-35,2],[-60,-76],[-18,-9],[-17,-35],[-22,-29],[-84,-104]],[[18572,4049],[-257,-3],[-242,-1],[-164,2],[-19,7],[-23,25],[-9,23],[-1,40],[1,152],[4,254]],[[20020,8025],[164,0],[90,-1],[129,0]],[[20573,7240],[-26,37],[-49,52],[-51,31],[-39,17],[-50,12],[-348,35]],[[15667,10961],[-43,33],[-54,-97],[-6,-16],[-3,-33],[2,-148],[-2,-27],[-10,-33],[-41,-98],[-4,-41],[6,-29],[-137,-2],[-13,-13],[-44,-182],[-19,-16],[-90,3],[-63,-1],[-34,-2],[-76,-14],[-61,-6],[-15,1],[-31,11],[-25,2],[-16,-11],[-50,-42],[-19,-8],[-61,3],[-29,10],[-19,22],[-11,32],[-36,-2],[-64,1],[-12,4],[-79,-106],[-37,-53],[-72,-1],[-28,-8],[-28,-17],[-35,-38],[-52,-10],[-40,3],[-39,-22],[-19,-6],[-51,-6],[-43,6],[-45,-20],[-17,0],[8,33],[-17,103],[-1,29],[19,60],[5,33],[15,115],[12,77],[-9,5],[-22,-16],[-35,-8],[-58,2],[-33,18],[-31,30],[-16,9]],[[12765,9971],[-205,5],[-215,11],[-623,18],[-241,3],[-86,3],[6,29],[76,240],[13,38],[18,42],[19,37],[36,56],[-47,2],[-264,-5],[-48,-23],[-27,-9],[-107,-42],[3,-119],[-33,-78],[-7,-45],[3,-125],[-170,-13],[-154,-10],[-236,-17],[-51,-3],[-436,-3],[5,173],[-1,151],[-3,154],[-104,4]],[[7850,6987],[-1,-187],[0,-243],[-1,-193],[-3,-371],[369,3],[26,-3],[19,-24],[2,-21],[-3,-709],[2,-274],[-1,-62],[3,-403]],[[8262,4500],[-280,2],[-136,0]],[[7846,4502],[-176,-1],[-59,3],[-43,-4],[-555,3],[-199,0],[-163,1],[-512,0],[-384,2],[-246,0],[-572,-2],[-610,-4],[-82,-1],[-436,-5],[-904,-9],[-140,-4],[-38,0]],[[7842,2509],[32,6],[43,19],[397,244],[155,94],[34,30],[31,49],[8,24],[7,40],[-3,277],[-4,21],[6,11]],[[9826,1498],[-326,-1],[-458,14],[-81,1],[-137,-2],[-120,0],[-141,-2],[-243,-2],[-141,0],[-64,2],[-272,2],[-1,100],[1,131],[-1,768]],[[20393,9208],[1,-56],[-12,-86],[-8,-80]],[[20374,8986],[-9,-89],[-11,-123]],[[20354,8774],[-73,-1]],[[20281,8773],[-18,44],[-62,119],[-74,143]],[[4172,14963],[-87,48],[-86,45],[-99,54]],[[14801,5867],[63,4],[51,19]],[[14915,5890],[-2,-23],[-10,-38],[-12,-22],[-38,-54],[-35,-26],[-37,-15],[-40,-27],[-27,-64],[-5,-22],[-26,-62],[-12,15],[-42,12],[-21,11],[-35,-1],[-17,-16],[-12,-26],[-14,-77],[-30,-14],[-35,-37],[-24,-48],[-84,-55],[-57,-11],[-9,24],[-36,6],[-36,-2],[-66,63],[-36,28],[-56,51],[-40,0],[-128,-30],[-31,-32],[-27,-57],[-5,-32],[-35,-34],[-28,-54],[-13,-17],[-17,-12],[-29,0],[-20,6],[-89,-10],[-51,-1],[-62,-5]],[[13486,5182],[-61,122],[-22,48],[-5,25],[3,34],[12,45],[3,29],[-9,20],[-17,10],[-40,10],[-14,9],[-11,17],[-17,71],[-12,59],[0,115]],[[19816,9525],[217,-1]],[[5384,13396],[11,-130],[-3,-25],[-12,-16],[-16,-7],[-160,-3],[-12,-13],[-14,-65],[-8,-6],[3,-652],[-2,-188],[6,-30],[-7,-12],[1,-114],[0,-223],[1,-65],[-21,-10],[-5,-11],[1,-143],[26,-9],[1,-42],[-5,-197],[1,-124],[2,-129],[-1,-222],[0,-224],[-4,-59],[-1,-217]],[[174,10439],[-174,-1],[5,998],[2,162],[2,338],[1,669],[1,330],[-1,387],[-1,132],[-2,550],[-1,112],[0,201],[-1,447],[-1,238],[0,932],[1,192],[-2,808],[237,2],[159,3],[201,0],[217,0],[129,1],[312,6],[403,3],[30,-5],[24,6],[124,0],[51,2],[64,-2],[18,3],[210,0],[74,2],[322,0],[143,2],[54,0],[33,-4],[41,6],[19,-7],[37,5],[124,-1],[77,6],[180,-5]],[[8262,4500],[381,-7],[48,1],[0,87],[-4,331],[0,82],[170,-2],[20,-20],[8,-29],[20,-29],[50,-29],[21,-3],[30,-13],[41,-10],[21,5],[56,2],[57,-11],[13,2],[34,29],[23,-7],[50,36],[23,2],[72,-23],[44,-10],[30,-2],[42,4],[32,24],[4,-404],[0,-49],[30,31],[123,117],[51,1],[332,2],[323,1]],[[10407,4609],[-2,-147],[0,-114]],[[10405,4348],[1,-85],[-2,-351],[-2,-398],[-3,-35],[-270,6],[-86,1],[-72,2]],[[7842,2509],[0,138],[-1,115],[-1,239],[2,447],[-1,230],[2,227],[-2,272],[1,116],[4,209]],[[20480,9687],[81,-71],[55,-73],[53,-103],[4,-13]],[[20673,9427],[-47,-1]],[[20626,9426],[-21,9],[-38,0],[1,-75]],[[20568,9360],[-58,0]],[[20510,9360],[-2,115],[-39,75],[-72,-49]],[[20626,9426],[0,-64],[-58,-2]],[[20028,9150],[2,-5],[-1,-134],[0,-104],[-2,-132]],[[14263,7507],[12,9],[73,84],[63,78],[22,20],[58,43],[102,75],[27,25],[13,18],[47,79],[6,-13],[4,-41],[5,-17],[16,-23],[10,-32],[45,-48],[10,-6],[30,-1],[9,-13],[0,-48],[-3,-165],[8,-15],[323,1],[159,-6],[-4,133],[-2,190],[0,55],[129,1],[48,15],[33,6],[5,9],[1,84],[7,13],[106,1],[99,-1]],[[15724,8017],[0,-319],[-1,-98],[-1,-370],[1,-366],[-1,-92],[8,-453],[1,-88]],[[15731,6231],[-48,-6],[-165,-34],[-48,-13],[-174,-64],[-154,-54],[-53,-20],[-57,-48],[-76,-79],[-41,-23]],[[15731,6231],[99,7],[28,0],[63,-9],[84,-15]],[[16005,6214],[2,-27],[-12,-21],[-88,-10],[-35,-12],[-25,-4],[-3,-21],[4,-42],[-11,-45],[1,-78],[-7,-21],[-20,-18],[-5,-18],[15,-5],[8,-15],[1,-55],[13,-34],[-8,-16],[0,-39],[28,-71],[18,-7],[17,-37],[39,-2],[29,32],[11,0],[39,-10],[26,-13],[30,-22],[57,-18],[29,8],[15,-10],[9,4],[12,44],[37,17],[7,-5],[21,-40],[20,-10],[21,-17],[20,0],[39,-42],[3,-9],[24,-23],[38,-15],[15,-18],[17,0],[35,-18],[37,1],[-1,-32],[-9,-27],[-55,-98],[-14,-32],[-9,-47],[0,-51],[-2,-42],[1,-21],[9,-15],[43,-40],[21,-29],[7,-34],[6,-72],[31,-114],[-83,-2],[-425,-12],[-104,-2]],[[15944,4782],[-205,-3],[-103,-3],[-1,-162],[0,-68],[-7,-15],[-13,-7],[-118,0],[-146,-3],[-111,1],[-153,0],[-238,-3],[-170,-4],[-287,0],[-175,-3],[-151,-3],[-20,-6],[-4,-18],[4,-208],[-10,-15],[-244,2],[-123,0],[-11,9],[-23,-8],[-211,-11]],[[13424,4254],[-5,69],[-20,89],[-13,36],[-7,5],[-15,33],[-27,13],[-12,21],[-5,18],[4,19],[-5,35],[-16,31],[131,6],[51,22],[31,-8],[81,0],[22,-2],[-5,264],[-2,30],[-12,35],[-17,13],[-52,23],[-22,27],[-5,22],[-1,76],[-7,30],[-10,21]],[[13032,7488],[21,-14],[10,-21],[2,-41],[73,-42],[-8,-14],[8,-21],[43,-30],[24,-50]],[[13298,5849],[-101,-26],[-5,-4],[-206,-55],[-65,-15],[-33,-2],[-177,-5],[-151,-4],[-144,-4],[-67,-12],[-56,-18],[-31,-15],[-115,-65],[-135,-79],[-99,-55],[-32,-15],[-29,-9],[-97,-21],[-191,-37],[-52,-10],[-112,-23],[-72,-13],[-77,-18],[-212,-61],[-134,-40],[-377,-109],[-36,-13],[-24,-16],[-34,-40],[-17,-45],[-6,-48]],[[10411,4972],[-4,43],[-1,392],[1,130],[-2,81],[2,71],[0,185],[0,94],[429,7],[11,9],[58,103],[21,13],[130,0],[96,-2],[23,5],[84,47],[45,13],[90,20],[141,32],[17,2],[191,3],[3,7],[-276,210],[-30,23],[-32,16],[-151,48],[-1,68],[23,1],[55,26],[43,-3],[10,13],[16,8],[18,19],[27,5],[7,9],[64,8],[19,-8],[11,-15],[29,-3],[25,20],[17,-4],[15,11],[12,-9],[21,5],[8,-7],[37,-4],[19,-7],[21,0],[26,15],[13,23],[12,0],[31,-15],[44,-14],[37,-43],[27,-12],[5,-10],[18,0],[11,17],[16,-13],[12,19],[14,12],[15,60],[7,16],[-2,28],[5,18],[-35,8],[-12,43],[-13,22],[2,18],[27,27],[-11,16],[21,60],[12,5],[6,31],[-51,68],[3,18],[-7,13],[-3,23],[-38,22],[-14,20],[3,40],[16,19],[0,13],[-14,16],[-4,38],[-13,20],[-11,4],[2,153],[154,2],[364,10],[440,15],[164,6]],[[13153,9981],[-13,-29],[-9,-43],[5,-50],[60,-163],[11,-34],[4,-42],[5,-265],[0,-65],[-4,-228],[-3,-25],[1,-50]],[[13210,8987],[-44,3],[-24,-2],[-85,-1],[-27,-4],[-29,-28],[-9,-33],[-1,-42],[-4,-368],[0,-33],[5,-260],[5,-200],[0,-68],[-3,-132],[-5,-301],[25,-22],[18,-8]],[[10411,4972],[-3,-55],[-1,-308]],[[19027,9896],[23,33],[43,38],[16,31],[-1,26],[-6,36],[3,37]],[[19105,10097],[7,11],[22,2],[26,41],[0,24],[11,12],[33,4],[12,-15],[35,7],[34,-17],[21,-31],[18,-2],[17,9],[15,43],[11,10],[22,2],[32,22],[37,38],[21,17],[25,27],[27,19]],[[19043,9885],[-16,11]],[[18435,8931],[215,152],[35,17],[49,17],[34,16],[97,64],[23,12],[37,9],[29,1]],[[18954,9219],[0,-181],[-2,-144],[215,18]],[[19167,8912],[-1,-299],[-2,-108]],[[18724,7444],[-153,-6],[-108,-2],[-75,8],[-54,16],[-27,11]],[[18307,7471],[-64,36],[-48,38],[-26,25]],[[18169,7570],[29,13],[28,1],[20,-6],[59,-29],[1,32],[5,449],[1,349],[1,43],[-101,-1],[13,28],[22,77],[-7,29],[-15,26],[-39,42],[-12,-2],[-29,20],[-17,26],[-9,39],[228,162],[88,63]],[[20354,8774],[92,0],[84,10],[22,-2],[4,44],[35,43],[37,11],[13,16],[33,13]],[[20674,8909],[-11,-53],[7,-56],[1,-28],[-7,-29],[-27,-74],[-16,-11],[-16,11],[-77,0],[-10,-36],[3,-44],[13,-21],[35,-28],[25,-29],[31,-123],[15,-17],[40,-59],[18,-15],[1,-69],[19,-27],[28,-10],[22,-17],[57,-103],[4,-42]],[[20403,8024],[-42,283],[-28,174],[-31,205],[-6,36],[-15,51]],[[19167,8912],[2,315]],[[19169,9227],[217,-5],[66,0]],[[15745,1023],[82,-3],[41,-7],[31,-9],[43,-19],[77,-54],[40,-18],[33,-1],[22,6],[32,18],[21,22],[46,56],[41,28],[44,6],[108,-17],[69,-5]],[[16475,1026],[183,3],[221,4],[48,8],[65,15],[215,43],[224,43],[43,8],[26,0],[72,-10],[36,-18],[27,-24],[37,-65],[175,0],[78,2],[280,13],[79,2]],[[18284,1050],[13,-1],[144,-40],[25,2],[26,15],[10,-40],[32,-21],[26,14],[26,3],[39,-8],[7,-6],[34,8],[20,-5],[34,-30]],[[18720,941],[-21,-30],[-23,-17],[-33,-5],[-69,25],[-56,0],[-49,-17],[-84,-63],[-10,-27],[26,-64],[18,-56],[8,-54],[-9,-26],[-27,-15],[-33,-9],[-46,-9],[-13,-10],[-6,-27],[-9,-6],[14,-474],[-222,-12],[-213,-21],[-213,5],[-208,1],[-436,-5],[-53,-2],[-313,-8],[-276,-10],[-171,-5],[-63,0],[-209,8],[-175,9],[-1,30],[3,226],[-1,293],[-2,457]],[[19502,11986],[5,-113],[7,-98],[-9,-44],[-17,-46],[-2,-29],[2,-27],[8,-29],[21,-57],[17,-33]],[[19534,11510],[-14,-12],[-44,-17],[-336,4],[-144,5]],[[18996,11490],[0,76],[0,237]],[[18589,10621],[0,-129],[-2,-348],[-2,-169],[-14,-82],[2,-17],[18,-54]],[[18591,9822],[-40,-18],[-46,-24],[-25,-19],[-12,-14]],[[18468,9747],[-19,9],[-46,-21],[-26,-1],[-61,6],[-1,321],[1,181],[-1,167],[-18,15],[-183,-2],[-17,5],[-61,62],[-19,5],[-56,1],[-18,4]],[[18361,9380],[22,28],[115,35],[29,-12],[32,-35],[16,-1],[17,13],[14,31],[23,15],[12,0],[76,-23],[30,-4],[16,15],[-3,16],[10,72],[19,30],[14,6],[38,-15],[15,18],[-4,17],[-11,9],[-47,-7],[-20,8],[-6,21],[13,26],[36,31],[139,-17]],[[18956,9657],[-1,-104],[1,-11]],[[18956,9542],[-3,-222],[1,-101]],[[18435,8931],[-13,31],[-3,172],[0,105],[0,90],[5,25],[-23,7],[-40,19]],[[13424,4254],[-182,-8],[-67,-1],[-64,2],[-126,1]],[[12985,4248],[-1,255],[-6,-5],[-114,4],[-43,13],[-8,12],[-22,57],[-7,10],[-30,24],[-23,9],[-211,-7],[-34,5],[-58,20],[-26,-1],[-58,-22],[-108,-5],[-150,-2],[-25,-2],[-19,-12],[-15,-29],[-14,-42],[-19,-18],[-35,-9],[-70,-10],[-204,0],[-420,-8],[4,-79],[-6,-29],[-17,-16],[-15,-4],[-177,-4],[-41,-4],[-33,-10],[-49,-19],[-90,-9],[-27,-1],[-22,6],[-61,31],[-54,3],[-235,-1],[-37,-1]],[[18984,11234],[22,-8],[110,-105],[18,-11],[95,-4],[18,-13],[31,-41],[27,-18],[12,-13],[54,-41],[144,-5],[20,-10],[30,-33],[27,-10],[112,-21],[167,-152],[29,-11]],[[19573,10473],[-101,2],[-160,5],[-190,4]],[[19122,10484],[0,96],[-1,28],[-8,25],[-12,18],[-140,161],[-15,24],[-6,37],[25,303],[19,58]],[[12985,4248],[0,-43],[-2,-111],[0,-112],[3,-187],[1,-249],[2,-67],[-1,-47],[2,-68],[0,-113],[53,-10],[29,-26],[21,-10],[19,0],[29,-12],[15,-20],[21,-42],[11,-31],[14,-1],[-1,-85],[0,-263]],[[13201,2751],[-50,5],[-14,-2],[-195,-3],[-170,-2],[-88,-3],[-13,14],[-1,97],[-9,11],[-52,-3],[-15,16],[-12,58],[1,37],[-17,8],[-107,0],[-86,-3],[-21,-13],[-23,12],[-122,1],[-70,4],[-13,-2],[-153,1],[-29,-14],[-8,-32],[0,-279],[-3,-158],[-5,-22],[-12,-15],[-15,15],[-33,11],[-120,2],[-422,5],[-55,-1],[-183,-6],[-157,-2],[-56,1],[-208,-1],[-212,0],[-27,-14],[-12,-17]],[[18298,11220],[17,14],[31,10],[145,2],[74,-1],[104,1],[123,-3],[165,-2],[27,-7]],[[19122,10484],[-147,3]],[[18975,10487],[-215,5],[-17,-6]],[[18743,10486],[-10,19],[-98,86],[-31,35]],[[15724,8017],[281,9],[176,3],[91,1],[97,2],[176,2],[123,0],[277,-2],[80,0],[12,3],[17,16],[8,19],[11,46],[10,29],[59,135],[56,202],[34,127]],[[17232,8609],[15,-30],[32,-53]],[[17279,8526],[32,-39],[56,-49],[159,-121],[117,-88],[52,-48],[20,-22],[36,-49],[55,-70]],[[17806,8040],[-44,-66],[-24,-28],[-37,-30],[-42,-25],[-47,-25],[-180,-97],[-53,-35],[-43,-39],[-42,-47],[-39,-58],[-17,-30],[-107,-232],[-121,-267],[-14,-36],[-11,-46],[-3,-61],[4,-564],[-1,-32],[-9,-43],[-8,-26],[-21,-40],[-25,-34],[-30,-28],[-36,-22],[-48,-14],[-29,-3],[-291,22],[-75,4],[-134,12],[-26,3],[-60,17],[-114,30],[-74,14]],[[16019,10619],[56,-53],[87,-72],[50,-45],[23,-25],[21,-32],[19,-55],[9,-72],[24,-217],[7,-36],[12,-39],[32,-58],[95,-127],[53,-70],[149,-197]],[[16656,9521],[-36,-38],[-14,26],[-15,15],[-27,13],[-181,4],[-225,2],[-306,-19],[-110,-6],[-146,-2],[-37,15],[-15,16],[-15,40],[-37,121],[-12,25],[-27,23],[-27,6],[-82,-1],[-105,0],[-119,1],[-89,3],[-17,-3],[-35,-17],[-151,-91],[-12,-10],[-18,-28],[-15,-64],[-21,-35],[-32,-16],[-26,-2],[-84,2],[-95,-3],[2,53],[-3,17],[-15,33],[-68,86],[-19,12],[-1,-25],[-18,-18],[-15,-2],[-15,-11],[-18,-25],[-33,-16],[-23,-16],[-28,-9],[-18,-17],[-5,-27],[-15,-32],[0,-22],[6,-38],[-4,-10],[7,-48],[-4,-25],[-15,8],[-6,29],[-4,58],[-24,19],[-3,10],[-123,1],[-124,-2],[-55,1],[-215,0],[-2,-81],[-12,-16],[-40,-32],[-19,-28],[-21,-48],[-19,-50],[-8,-40],[-36,-63],[0,-28],[12,-73],[-5,-27],[-17,-4],[-102,-3],[-160,-3],[-30,1]],[[17340,4540],[3,-14],[193,74],[22,4],[65,-2],[24,-9],[20,-28],[20,-16],[26,-4],[149,3]],[[18572,4049],[30,0],[1,-284],[-2,-236],[-8,-558],[-7,-416],[1,-131],[2,-51],[5,-194],[-18,-15],[-281,5],[-7,-5],[0,-253],[-1,-170],[-1,-495],[-2,-196]],[[16475,1026],[-3,266],[-9,37],[-16,20],[-51,40],[-19,32],[-5,33],[-1,315],[-2,283],[1,221],[0,243],[-2,255],[-1,145],[0,57],[9,32],[24,28],[35,11],[140,4],[152,3],[13,3],[26,17],[14,22],[5,18],[3,37],[0,239],[-3,650],[6,301],[-5,55],[-33,143],[117,2],[80,-2],[155,4],[235,0]],[[17266,9754],[307,27],[37,-16],[20,9],[56,-30],[159,-84],[255,-136]],[[18100,9524],[107,-57],[86,-50],[68,-37]],[[18361,9380],[-17,-27],[-31,-14],[-22,6],[-13,17],[-26,21],[-19,1],[-21,-22],[-2,-17],[10,-27],[-18,-33],[-13,-8],[-83,6],[-5,7],[-39,-14],[-21,-21],[-34,-23],[-31,-17],[-39,-34],[-25,-6],[-3,-48],[-7,-19],[-6,-34],[-12,-11],[-16,7],[-36,43],[-19,7],[-21,-7],[-18,-26],[-3,-28],[11,-34],[-10,-19],[-12,-7],[-41,-10],[-35,6],[-27,-18],[-4,-17],[3,-20],[34,-27],[12,-32],[-1,-13],[-12,-24],[-13,-10],[-23,-3],[-31,-11],[-16,8],[-24,-1],[-21,-21],[-23,-12],[-17,-18],[-2,-15],[11,-43],[-1,-25],[-16,-28],[-53,-43],[-12,-1],[-38,25],[-49,24],[-31,-11],[-12,-22],[-3,-60],[-6,-18],[-30,-33]],[[17232,8609],[-34,65],[-38,77],[-80,157],[-63,117],[-45,71],[-54,74],[-54,69],[-126,171]],[[16738,9410],[69,1],[0,65],[55,2],[-1,-53],[214,0],[57,1],[0,-10],[23,-2],[189,2],[3,20],[-14,7],[-6,19],[1,23],[-11,12],[-15,-2],[-18,26],[-9,30],[-18,13],[-2,34],[6,31],[-7,19],[0,31],[12,42],[0,33]],[[20673,9427],[24,-77],[-2,-72],[-29,-84]],[[20666,9194],[-41,9],[-12,-77],[-6,-8],[-28,-5],[-10,-15],[-28,-1],[-3,53],[-21,26],[-7,34]],[[20510,9210],[0,150]],[[20374,8986],[109,0],[-1,223]],[[20482,9209],[28,1]],[[20666,9194],[-2,-37],[9,-117],[6,-43],[0,-45],[-5,-43]],[[16656,9521],[82,-111]],[[18996,11490],[0,-170],[0,-48],[-12,-38]],[[15944,4782],[-3,-10],[2,-114],[10,-5],[88,0],[12,-8],[18,7],[284,8],[17,-1],[9,-10],[12,-38],[42,-31],[21,-8],[46,19],[49,10],[24,34],[22,19],[18,-21],[23,-11],[63,-10],[21,-10],[21,-19],[56,3],[18,6],[110,70],[38,20],[54,9],[23,23],[35,66],[9,10],[244,0],[13,-109],[1,-35],[-1,-93],[-3,-13]],[[15745,1023],[-1,254],[-2,252],[-211,-5],[-193,-2],[-328,-9],[-150,-2],[-67,0],[-103,-2],[-413,-2],[-40,2],[-187,0],[-235,-3],[-52,0],[-171,-2],[-182,-1],[-188,2],[-24,1]],[[13198,1506],[3,123],[-1,113],[-2,53],[1,55],[1,160],[2,150],[0,304],[-1,287]],[[19534,11510],[36,-98],[80,-186],[18,-83],[15,-50],[47,-109],[20,-21],[95,-69],[30,-33],[28,-22],[27,-36],[41,-41],[83,-62],[26,-17]],[[19105,10097],[-24,7],[-34,16],[-53,-1],[-15,5],[3,38],[-2,73],[-6,26],[1,226]],[[18468,9747],[-42,-72],[-22,-24],[-30,-22],[-49,-17],[-141,-1],[-22,-4],[-27,-16],[-20,-27],[-15,-40]],[[17266,9754],[-117,-10],[-34,-4],[-44,-15],[-258,-87],[-86,7],[-9,-40],[-10,-24],[-18,-24],[-34,-36]],[[17806,8040],[121,-159],[24,-29],[106,-142],[83,-107],[29,-33]],[[18307,7471],[-2,-79],[0,-164],[-3,-380],[-3,-303]],[[20392,9358],[118,2]],[[20482,9209],[-89,-1]],[[19169,9227],[0,163],[2,147],[-191,2],[-24,3]],[[20851,4506],[147,-2],[27,12],[27,0],[32,-13],[79,-2],[9,-9],[0,-72],[3,-9],[-35,-41],[-18,-28],[-30,-66],[-23,-28],[-51,-36],[-26,-33],[-7,-33],[0,-137],[-6,-30],[-23,-222],[1,-169],[-8,-38],[-13,-21],[-43,-29],[-25,-21],[-16,-39],[-1,-171],[1,-262],[-2,-205],[1,-349],[2,-454],[0,-247],[-90,1],[-41,-5],[-30,-14],[-181,-89],[-34,-23],[-34,-34],[18,-20],[10,-35],[-1,-37],[-19,-53],[-17,-57],[93,26],[16,13],[20,-2],[17,7],[9,13],[25,9],[21,21],[77,-3],[16,-10],[43,-45],[11,-19],[13,-58],[6,-50],[11,-39],[45,-111]],[[20857,1138],[-355,-357],[-36,-34],[-21,-2],[-21,18],[-19,2],[-24,-12],[-7,-22],[2,-51],[-6,-21],[-12,-6],[-43,-2],[-33,20],[-20,8],[-36,4],[-24,-7],[-39,-21],[-45,4],[-49,40],[-17,25],[-3,16],[5,69],[6,22],[-9,22],[-19,11],[2,35],[-3,16],[-17,14],[19,31],[-9,22],[-24,10],[-8,11],[-4,50],[-5,11],[-37,20],[-14,21],[-42,45],[-17,12],[-5,31],[-13,31],[-25,17],[-29,-6],[-21,-13],[-22,-2],[-42,31],[-33,13],[-24,-6],[-32,-46],[-25,-9],[-34,19],[-37,-2],[-37,-13],[-15,-12],[-34,-41],[-19,-11],[-30,5],[-7,8],[6,33],[-29,19],[-17,-9],[0,-25],[-29,-1],[-22,23],[-23,-21],[-37,-8],[-16,-9],[-24,-2],[-12,-8],[-35,-51],[-18,-50],[-13,-20],[-16,-12],[-26,-12],[-17,-1],[-26,10],[-14,-1],[-101,-35],[-35,-1],[-44,-7],[-32,-9],[-32,-15],[-10,0],[-30,17],[-17,-20]],[[22045,5389],[12,-17],[17,-1],[67,16],[53,25],[48,-6],[15,-11],[26,-9],[13,-12],[20,-33],[12,-28],[6,-25],[0,-47],[17,-43],[15,-18],[34,-15],[52,10],[22,7],[42,27],[68,58],[16,9],[21,3],[20,-5],[24,-28],[17,-58],[8,-49],[8,-100],[-1,-82],[18,-50],[1,-17],[12,-29],[-26,-17],[-23,6],[-20,18],[-34,7],[-30,-75],[-44,-15],[-8,-9],[17,-36],[-6,-28],[11,-7],[5,-20],[-9,-24],[-1,-51],[-25,-11],[2,-36],[-12,-15],[-23,-5],[-7,13],[-19,-10],[-25,-43],[-17,-38],[-1,-29],[-23,-12],[7,-21],[-18,2],[6,-22],[-14,-3],[-5,-24],[-15,9],[-14,-2],[-10,-27],[16,4],[8,-23],[-18,-8],[13,-20],[-14,-21],[9,-23],[-18,2],[-16,-11],[-1,-28],[-11,-11],[-10,14],[-12,-15],[15,-41],[-3,-28],[15,-1],[5,-13],[-10,-23],[9,-34],[18,-6],[-2,-33],[-19,-5],[-16,-51],[-4,-31],[-10,-5],[-10,16],[-16,-12],[4,-23],[-25,-21],[-6,-19],[6,-18],[-21,-33],[-23,4],[-1,-26],[-17,-6],[11,-15],[-9,-24],[-19,-15],[15,-14],[1,-23],[-14,-3],[-17,19],[-10,-14],[-8,-27],[-15,-16],[22,-19],[4,-18],[-8,-16],[-12,7],[-14,-8],[8,-38],[-13,-25],[6,-14],[-10,-10],[2,-20],[-12,-23],[-30,-4],[1,-20],[-12,-22],[-27,-15],[-35,-26],[-2,-20],[-19,4],[-1,17],[-16,0],[-12,-24],[-1,-17],[13,-57],[-3,-35],[25,-16],[21,-6],[2,-35],[-21,-9],[-24,-2],[-12,-16],[15,-18],[1,-14],[-14,-20],[12,-13],[13,-27],[12,-7],[31,-3],[16,-11],[6,-18],[-9,-12],[-17,4],[-17,-43],[26,9],[4,-15],[-13,-28],[20,-19],[11,-18],[-12,-11],[2,-21],[-44,-6],[-20,-25],[4,-11],[24,-3],[-11,-27],[-14,-2],[-12,20],[-11,4],[-29,-7],[-7,-16],[7,-29],[-13,-41],[-14,-14],[2,-26],[-16,-9],[9,-21],[-2,-11],[-27,-5],[6,-18],[-7,-12],[-17,-5],[-3,-20],[10,-21],[1,-23],[-9,-9],[-27,8],[-10,-37],[7,-21],[-4,-11],[-18,-8],[4,-25],[-38,-11],[-15,-25],[2,-18],[15,-19],[8,-26],[14,-12],[24,-8],[-6,-27],[6,-33],[35,-17],[36,-38],[1,-22],[-9,-18],[-36,-38],[-9,-17],[-4,-34],[-9,-14],[-22,-7],[-38,30],[-22,6],[-47,2],[-22,-37],[-37,-16],[-50,-30],[-49,-36],[-61,-80],[-12,-19],[-16,-37],[-9,-33],[-25,-46],[-26,-36],[-24,-64],[-7,-44],[-8,-8],[-26,-43],[-84,-83],[-93,-92],[-263,-264]],[[18591,9822],[130,60],[63,27],[34,6],[124,9],[20,16]],[[18962,9940],[6,-6],[59,-38]],[[13198,1506],[-152,2],[-259,6],[-137,-2],[-90,-2],[-123,-1],[-353,-7],[-204,-3],[-80,1],[-274,-6],[-190,-3],[-312,6],[-103,1],[-518,-5]],[[18962,9940],[-32,53],[-51,75],[-39,75],[-52,84],[-26,64],[-9,38],[-5,53],[1,81],[-6,23]],[[19169,9227],[-31,-1],[-45,-7],[-31,-1],[-108,1]]],"transform":{"scale":[0.00004803920274551166,0.000029001294117647262],"translate":[-95.139856,45.282298]},"objects":{"Geometry\\27-145":{"type":"GeometryCollection","geometries":[{"arcs":[[0]],"type":"Polygon","properties":{"GEOID":"271450104021"}},{"arcs":[[1,2,3,4,5]],"type":"Polygon","properties":{"GEOID":"271450102002"}},{"arcs":[[6,7,8,9,10]],"type":"Polygon","properties":{"GEOID":"271450109004"}},{"arcs":[[11,12,13,14]],"type":"Polygon","properties":{"GEOID":"271450009012"}},{"arcs":[[15,16,17]],"type":"Polygon","properties":{"GEOID":"271450106001"}},{"arcs":[[18,-9]],"type":"Polygon","properties":{"GEOID":"271450109001"}},{"arcs":[[19,20,21,22,23]],"type":"Polygon","properties":{"GEOID":"271450115003"}},{"arcs":[[-22,24,25,26]],"type":"Polygon","properties":{"GEOID":"271450115006"}},{"arcs":[[-23,-27,27,28]],"type":"Polygon","properties":{"GEOID":"271450115004"}},{"arcs":[[29,30,31,32,33]],"type":"Polygon","properties":{"GEOID":"271450006011"}},{"arcs":[[34,35,36,37,38,39,40]],"type":"Polygon","properties":{"GEOID":"271450006013"}},{"arcs":[[41,42,43,-30,44,45]],"type":"Polygon","properties":{"GEOID":"271450007011"}},{"arcs":[[46,47,48,49,-43]],"type":"Polygon","properties":{"GEOID":"271450007012"}},{"arcs":[[-50,50,-31,-44]],"type":"Polygon","properties":{"GEOID":"271450007013"}},{"arcs":[[-49,51,52,53,-51]],"type":"Polygon","properties":{"GEOID":"271450007014"}},{"arcs":[[54,-14,55,56,-52,-48]],"type":"Polygon","properties":{"GEOID":"271450008012"}},{"arcs":[[-13,57,58,59,60,-56]],"type":"Polygon","properties":{"GEOID":"271450008013"}},{"arcs":[[-57,-61,61,62,-53]],"type":"Polygon","properties":{"GEOID":"271450008011"}},{"arcs":[[63,-15,-55,-47,64]],"type":"Polygon","properties":{"GEOID":"271450009013"}},{"arcs":[[65,66,67,68]],"type":"Polygon","properties":{"GEOID":"271450101011"}},{"arcs":[[69,70,71,72,73,-37]],"type":"Polygon","properties":{"GEOID":"271450003012"}},{"arcs":[[74,75,76,77,-17]],"type":"Polygon","properties":{"GEOID":"271450106002"}},{"arcs":[[-4,78,79,80,81,82,83,84,85,86]],"type":"Polygon","properties":{"GEOID":"271450102003"}},{"arcs":[[87,88,89,90,91]],"type":"Polygon","properties":{"GEOID":"271450004021"}},{"arcs":[[-33,92,-41,93,94]],"type":"Polygon","properties":{"GEOID":"271450006012"}},{"arcs":[[95,-94,96,97]],"type":"Polygon","properties":{"GEOID":"271450004011"}},{"arcs":[[98,99,-98,-92,100]],"type":"Polygon","properties":{"GEOID":"271450004012"}},{"arcs":[[101,-66,102,103,-80,104]],"type":"Polygon","properties":{"GEOID":"271450101012"}},{"arcs":[[105,106,-67,-102]],"type":"Polygon","properties":{"GEOID":"271450101013"}},{"arcs":[[-60,107,108,109,-62]],"type":"Polygon","properties":{"GEOID":"271450008014"}},{"arcs":[[-63,-110,110,-70,-36,111,112]],"type":"Polygon","properties":{"GEOID":"271450006022"}},{"arcs":[[113,114,115,116,-58,-12,-64,117]],"type":"Polygon","properties":{"GEOID":"271450009011"}},{"arcs":[[118,119,120,121,122]],"type":"Polygon","properties":{"GEOID":"271450104012"}},{"arcs":[[123,-5,124,-119,125]],"type":"Polygon","properties":{"GEOID":"271450104032"}},{"arcs":[[126,-6,-124,127,128]],"type":"Polygon","properties":{"GEOID":"271450104031"}},{"arcs":[[129,130,131,132,133]],"type":"Polygon","properties":{"GEOID":"271450110003"}},{"arcs":[[134,-106,-105,-79,-3]],"type":"Polygon","properties":{"GEOID":"271450102001"}},{"arcs":[[-77,135,136,137,138,139]],"type":"Polygon","properties":{"GEOID":"271450105001"}},{"arcs":[[140,141,142,143,-25,-21]],"type":"Polygon","properties":{"GEOID":"271450115002"}},{"arcs":[[144,145,146,147,148]],"type":"Polygon","properties":{"GEOID":"271450113022"}},{"arcs":[[149,150,151,152,153,154]],"type":"Polygon","properties":{"GEOID":"271450114002"}},{"arcs":[[155,156,-75,-16,157,158,-142]],"type":"Polygon","properties":{"GEOID":"271450106003"}},{"arcs":[[159,-129,-136,-76,-157]],"type":"Polygon","properties":{"GEOID":"271450105003"}},{"arcs":[[160,161,-139,162,163,-7,164]],"type":"Polygon","properties":{"GEOID":"271450109002"}},{"arcs":[[165,166,-153,167,168,169]],"type":"Polygon","properties":{"GEOID":"271450114001"}},{"arcs":[[170,-155,171,-90]],"type":"Polygon","properties":{"GEOID":"271450004022"}},{"arcs":[[-125,-87,172,-120]],"type":"Polygon","properties":{"GEOID":"271450104011"}},{"arcs":[[-128,-126,-123,173,-137],[-1]],"type":"Polygon","properties":{"GEOID":"271450104022"}},{"arcs":[[-19,-8,-164,174,175,176,-10]],"type":"Polygon","properties":{"GEOID":"271450109003"}},{"arcs":[[177,-133,178]],"type":"Polygon","properties":{"GEOID":"271450110002"}},{"arcs":[[-74,179,180,181,182,-38]],"type":"Polygon","properties":{"GEOID":"271450003011"}},{"arcs":[[-26,-144,183,-28]],"type":"Polygon","properties":{"GEOID":"271450115005"}},{"arcs":[[-147,184,185,186]],"type":"Polygon","properties":{"GEOID":"271450113024"}},{"arcs":[[187,-112,-35,-93]],"type":"Polygon","properties":{"GEOID":"271450006023"}},{"arcs":[[-24,-29,-184,-143,-159,188,-161,189]],"type":"Polygon","properties":{"GEOID":"271450115001"}},{"arcs":[[-176,190,191,192,-134,-178,193]],"type":"Polygon","properties":{"GEOID":"271450110001"}},{"arcs":[[-109,194,195,196,197,198,-71,-111]],"type":"Polygon","properties":{"GEOID":"271450116003"}},{"arcs":[[-54,-113,-188,-32]],"type":"Polygon","properties":{"GEOID":"271450006021"}},{"arcs":[[199,-197]],"type":"Polygon","properties":{"GEOID":"271450116001"}},{"arcs":[[-40,200,-88,-97]],"type":"Polygon","properties":{"GEOID":"271450004013"}},{"arcs":[[201,202,203,-185,-146]],"type":"Polygon","properties":{"GEOID":"271450113023"}},{"arcs":[[-158,-18,-78,-140,-162,-189]],"type":"Polygon","properties":{"GEOID":"271450105002"}},{"arcs":[[-186,-204,204,205,206,207]],"type":"Polygon","properties":{"GEOID":"271450113021"}},{"arcs":[[208,-149,209,210]],"type":"Polygon","properties":{"GEOID":"271450111021"}},{"arcs":[[-138,-174,-122,211,212,-211,213,-191,-175,-163]],"type":"Polygon","properties":{"GEOID":"271450111022"}},{"arcs":[[214,215,-118,-65,-42,216]],"type":"Polygon","properties":{"GEOID":"271450010033"}},{"arcs":[[217,218,219,-99,220,221,222]],"type":"Polygon","properties":{"GEOID":"271450005022"}},{"arcs":[[223,224,-150,225,-182]],"type":"Polygon","properties":{"GEOID":"271450003042"}},{"arcs":[[226,227,-96,-100,-220]],"type":"Polygon","properties":{"GEOID":"271450005023"}},{"arcs":[[228,229,230,231]],"type":"Polygon","properties":{"GEOID":"271450112013"}},{"arcs":[[-69,232,233,234,-103]],"type":"Polygon","properties":{"GEOID":"271450101032"}},{"arcs":[[-84,235,236,237]],"type":"Polygon","properties":{"GEOID":"271450010023"}},{"arcs":[[238,239,240,-218,241]],"type":"Polygon","properties":{"GEOID":"271450005012"}},{"arcs":[[-214,-210,-148,-187,-208,242,243,-192]],"type":"Polygon","properties":{"GEOID":"271450111013"}},{"arcs":[[244,-115,245,246]],"type":"Polygon","properties":{"GEOID":"271450101041"}},{"arcs":[[-201,-39,-183,-226,-171,-89]],"type":"Polygon","properties":{"GEOID":"271450004023"}},{"arcs":[[-193,-244,247,248,-130]],"type":"Polygon","properties":{"GEOID":"271450111012"}},{"arcs":[[249,-247,250,251,252,-82]],"type":"Polygon","properties":{"GEOID":"271450101042"}},{"arcs":[[253,254,255,256,-205,-203]],"type":"Polygon","properties":{"GEOID":"271450113062"}},{"arcs":[[-121,-173,-86,257,258,-212]],"type":"Polygon","properties":{"GEOID":"271450113052"}},{"arcs":[[259,-170,260,-230,261]],"type":"Polygon","properties":{"GEOID":"271450112012"}},{"arcs":[[262,263,264,-255,265,266]],"type":"Polygon","properties":{"GEOID":"271450113083"}},{"arcs":[[-198,-200,-196,267,268,269]],"type":"Polygon","properties":{"GEOID":"271450116002"}},{"arcs":[[270,271,-269,272,-224,-181]],"type":"Polygon","properties":{"GEOID":"271450003043"}},{"arcs":[[-259,273,-266,-254,-202,-145,-209,-213]],"type":"Polygon","properties":{"GEOID":"271450113051"}},{"arcs":[[-104,-235,274,-250,-81]],"type":"Polygon","properties":{"GEOID":"271450101043"}},{"arcs":[[-243,-207,275,-262,-229,276,277,-248]],"type":"Polygon","properties":{"GEOID":"271450112011"}},{"arcs":[[-234,278,-116,-245,-275]],"type":"Polygon","properties":{"GEOID":"271450101031"}},{"arcs":[[-251,-246,-114,-216,279]],"type":"Polygon","properties":{"GEOID":"271450010032"}},{"arcs":[[-85,-238,280,-263,281,-258]],"type":"Polygon","properties":{"GEOID":"271450113082"}},{"arcs":[[-257,282,-222,283,-166,-260,-276,-206]],"type":"Polygon","properties":{"GEOID":"271450113061"}},{"arcs":[[-221,-101,-91,-172,-154,-167,-284]],"type":"Polygon","properties":{"GEOID":"271450114003"}},{"arcs":[[284,-270,-272,285,-73]],"type":"Polygon","properties":{"GEOID":"271450003032"}},{"arcs":[[-199,-285,-72]],"type":"Polygon","properties":{"GEOID":"271450003031"}},{"arcs":[[-286,-271,-180]],"type":"Polygon","properties":{"GEOID":"271450003041"}},{"arcs":[[-45,-34,-95,-228,286,-240]],"type":"Polygon","properties":{"GEOID":"271450005013"}},{"arcs":[[-169,287,288,-231,-261]],"type":"Polygon","properties":{"GEOID":"271450112021"}},{"arcs":[[-168,-152,289,-288]],"type":"Polygon","properties":{"GEOID":"271450112022"}},{"arcs":[[-265,-242,-223,-283,-256]],"type":"Polygon","properties":{"GEOID":"271450113081"}},{"arcs":[[-237,290,291,-217,-46,-239,-264,-281]],"type":"Polygon","properties":{"GEOID":"271450010021"}},{"arcs":[[-249,-278,292,-131]],"type":"Polygon","properties":{"GEOID":"271450111011"}},{"arcs":[[-252,-280,-215,-292,293]],"type":"Polygon","properties":{"GEOID":"271450010031"}},{"arcs":[[-83,-253,-294,-291,-236]],"type":"Polygon","properties":{"GEOID":"271450010022"}},{"arcs":[[-282,-267,-274]],"type":"Polygon","properties":{"GEOID":"271450113071"}},{"arcs":[[-287,294,-241]],"type":"Polygon","properties":{"GEOID":"271450005011"}},{"arcs":[[-295,-227,-219]],"type":"Polygon","properties":{"GEOID":"271450005021"}}]}}}