{"type":"Topology","arcs":[[[18722,19763],[147,-88],[186,-115],[211,-125],[457,-277],[9,-4],[246,-150]],[[19978,19004],[-69,-70],[-41,-23],[-51,-20],[-177,-60],[-58,-27],[-126,-75],[-29,-26],[-73,-91],[-53,-46],[-36,-17],[-54,-12],[-219,-6],[-311,-3]],[[18681,18528],[-2,170],[0,186],[-4,7],[-172,2],[62,164],[5,40],[-23,54],[-26,27],[-38,25],[239,560]],[[17595,18910],[32,105],[30,113],[36,117],[78,241],[86,275],[54,164],[53,135],[53,128]],[[18017,20188],[124,-76],[332,-199],[44,-23],[107,-69],[98,-58]],[[18681,18528],[-110,-1]],[[18571,18527],[-101,0],[-131,50],[-95,22],[-31,-67],[-31,14]],[[18182,18546],[-209,102],[-115,108],[-63,69],[-43,34],[-30,13],[-127,38]],[[19978,19004],[101,-59],[66,-34],[96,-45],[126,-45],[126,-44],[23,-135],[16,-120],[15,-59],[39,-99],[9,-76],[-26,-29],[-17,-44],[-19,-104],[-16,-52],[-25,-44],[-67,-25],[-12,-22],[5,-97]],[[20418,17871],[-104,-3],[-367,-3],[-443,-1],[-241,3],[-4,-55],[6,-44],[22,-48],[50,-74]],[[19337,17646],[-62,-9],[-134,1],[-40,-3],[-214,-3],[-95,1],[-82,-3],[-35,5]],[[18675,17635],[-42,92],[-11,53],[-25,64],[-43,96],[-33,66],[-38,86],[-50,101],[-3,53],[59,147],[83,-39],[-1,173]],[[17372,18202],[71,231],[152,477]],[[18182,18546],[-62,-150],[-35,-120],[-188,-449],[-25,-49],[-55,-123],[-100,-242]],[[17717,17413],[-59,12],[-67,3],[-270,-25],[-42,1],[-156,16],[43,133],[38,122],[168,527]],[[18675,17635],[7,-24],[-4,-443],[7,-48],[3,-64],[-6,-81],[0,-192],[-110,-57],[-58,-5],[-45,-21],[-41,-36],[-20,-46],[13,-60],[-6,-26],[-22,-25],[-47,-22],[-30,-32],[-61,-43],[-32,-14],[-113,-6],[-44,-16],[-72,0],[-95,23],[-4,70],[-20,109],[-13,53],[-17,100],[-14,119],[-12,156],[-4,80],[9,73],[135,247],[2,27],[-65,-38],[-44,-5],[-135,25]],[[15834,7171],[15,-6],[51,-46],[41,-5],[21,-35],[-13,-45],[41,-30],[49,-23],[39,3],[40,-22],[-2,-45],[5,-29],[27,-34],[15,-6],[38,19],[40,-4],[10,-17],[65,-30],[74,2],[54,10],[51,-20],[18,-14],[10,-36],[22,-13],[75,-58],[50,11],[9,18],[69,-18],[20,-27],[-10,-30],[-3,-41],[9,-50],[28,-20],[24,6],[36,-15],[190,0],[68,37],[59,44],[25,37],[77,50],[70,34],[128,16],[15,-1],[27,22],[21,54],[20,92],[-3,56],[13,46],[17,-41],[51,-15],[17,17],[50,17],[28,37],[37,35],[34,-7],[36,-39],[55,-15],[91,-14],[35,-23],[22,-4],[57,28],[76,61],[15,18],[34,17],[96,18],[36,46],[6,35],[-6,25],[34,33],[83,28],[18,32],[123,20],[16,30],[22,-13],[31,0],[24,19],[96,-18],[22,7],[90,0],[49,-28],[57,3],[13,-31],[20,-14],[39,-74],[-10,-19],[-1,-58],[11,-31],[31,3],[44,-49],[-15,-28],[40,-37],[31,3],[41,-23],[6,-55],[31,-32],[19,0],[7,-25],[23,-24],[41,-19],[17,29],[41,3],[16,11],[3,31],[29,7],[19,-18],[-4,-19],[16,-41]],[[19522,6807],[30,-77],[20,-25],[12,22],[35,-34],[5,-37],[32,-2],[26,13],[11,-21],[44,-16],[14,-49],[40,-15],[15,-18],[27,-84],[38,32],[25,-9],[-10,-26],[-25,1],[-19,-19],[-4,-34],[10,-28],[-19,-37],[10,-24],[-10,-33],[3,-30],[-29,-3],[2,-36],[22,-11],[-15,-31],[18,-29],[-3,-30],[-34,-17],[3,-27],[21,-26],[-1,-20],[43,-26],[46,-16],[1,-15],[-46,-9],[-18,13],[-24,-4],[31,-36],[33,-4],[51,-59],[28,-10],[-20,-45],[21,-8],[29,26],[-6,-47],[-29,-24],[24,-10],[27,2],[31,26],[-6,-51],[8,-18],[33,17],[3,-29],[-20,-42],[23,-23],[15,-58],[27,8],[9,-31],[29,-14],[16,6],[-4,47],[10,9],[52,-47],[48,2],[9,-36],[-19,-19],[10,-35],[73,15],[5,-36],[23,0],[3,-42],[-5,-52],[-30,-30],[-28,-52],[-1,-36],[-12,-29],[-44,-39],[-62,-3],[-11,-33],[22,-30],[11,-29],[-13,-59],[39,-9],[15,-30],[-40,-46],[-16,-37],[29,-53],[43,5],[17,-10],[-9,-62],[7,-67],[-29,-17],[14,-33],[-5,-38],[28,-9],[28,20],[21,-63],[-15,-13],[-35,9],[-22,-29],[20,-43],[68,-36],[26,-37],[1,-60],[-11,-26],[6,-20],[39,6],[27,32],[25,-30],[30,-17],[0,-22],[36,1],[55,-66],[31,-24],[20,-29],[43,-6],[25,-26],[76,-20],[60,-37],[22,-37],[15,-9],[33,34],[19,-4],[28,-48],[27,24],[33,-58],[23,1],[20,-35],[29,33],[21,-5],[19,-43],[27,-10],[30,37],[12,-9],[-5,-34],[19,-10],[-11,-37],[9,-27],[28,36],[22,15],[32,-27],[12,-26],[54,7],[37,-37],[38,-1],[5,-18],[71,-122],[11,-64],[17,-20],[45,-19],[-3,-19],[-33,-15],[8,-28],[-13,-34],[-51,-46],[8,-18],[35,-3],[27,-14],[19,-26],[-6,-18],[-30,-15],[-3,-37],[56,21],[8,-56],[-27,-34],[7,-15],[30,11],[32,-27],[28,22],[23,6],[19,-26],[27,5],[-16,-38],[12,-34],[64,23],[11,-60],[17,-25],[27,9],[29,40],[18,-23],[24,28],[13,-29],[27,8],[18,-23],[23,0],[10,-35],[34,10],[-11,-37],[25,-21],[-13,-41],[15,-24],[20,30],[22,-18],[-33,-31],[-12,-66],[29,-16],[21,-29],[-9,-29],[6,-42],[55,-23],[20,-3],[13,-25],[-43,-40],[23,-20],[-16,-50],[-23,-20],[20,-25],[-18,-67],[41,0],[17,-13],[-17,-53],[8,-44],[16,-38],[18,-24],[17,-1],[27,36],[11,-34],[4,-85],[-12,-16],[53,-66],[12,27],[-10,36],[1,42],[26,15],[63,15],[62,-14],[19,-10],[35,-37],[-20,-31],[79,-2],[-9,31],[66,58],[16,3],[53,-22],[77,-82],[1,-37],[28,-10],[64,66],[14,-7],[6,-34],[-19,-65],[39,-34],[16,-70],[-2,-16],[-33,2],[-31,-54],[23,-9],[33,-29],[15,-2],[9,32],[24,-8],[13,-38],[9,-53],[36,-14],[-3,-36],[41,2],[49,-20],[-5,-32],[21,-6],[9,36],[26,32],[8,32],[14,7],[61,-1],[30,-14],[9,-35]],[[23322,1721],[-57,-52],[-109,-141],[-196,-378],[-109,23],[-112,-24],[-79,27],[-182,11],[-161,-19],[-262,-214],[-101,-52],[-156,-1],[-507,0],[-116,4],[-710,5],[-879,9],[-1356,0],[-120,3],[-789,5],[-144,-2]],[[17177,925],[112,270],[49,122],[-40,699],[-24,746],[-51,758],[-58,793],[-4,69],[-47,15],[-55,7],[-40,-6],[-126,-63],[-43,-10],[-47,-4],[-36,-27],[-57,1],[-20,-7],[-44,-59],[-38,-37],[-46,-23],[-33,-25],[-50,-8]],[[16479,4136],[-11,124],[-26,169],[-37,194],[-260,783],[-322,1087],[-38,181],[-9,145],[9,139],[17,101],[32,112]],[[19522,6807],[18,19],[188,249],[60,73],[78,-83],[144,-102],[37,-36],[125,-166],[113,-108],[105,-114],[80,-89],[54,-84],[17,14],[67,90],[45,47],[155,128],[39,23],[107,49],[7,7],[174,-5],[53,7],[106,63],[73,38],[78,51],[52,7],[133,-18],[49,-18],[101,-52],[41,-17],[194,-12],[37,8],[222,231],[303,94],[124,30],[72,43],[31,12],[26,-5],[30,12],[13,29],[6,60],[18,77],[5,77],[-22,66],[9,68],[-11,79],[0,87],[-12,40],[4,24],[72,165],[11,49],[11,17],[28,12],[71,-12],[38,11],[30,-2],[27,9],[30,44],[11,78],[-12,73],[-1,30],[21,33],[66,76],[30,92],[29,39],[23,17],[120,3],[89,-1],[28,20],[14,24],[16,57],[39,79],[6,59],[-4,39],[-14,34],[5,38],[16,39],[16,60],[3,111],[-40,3],[-178,70],[-30,22],[-47,53],[-48,37],[-42,20],[-130,42],[-72,36],[-135,86],[8,20],[43,37],[23,35],[-8,27],[-21,9],[-31,-4],[-12,21],[-2,49],[16,48],[52,28],[34,-2],[26,-19],[22,48],[59,18],[27,22],[8,43],[25,31],[1,30],[19,21],[-7,19],[35,58],[-8,18],[20,22],[-3,28],[13,24],[26,1],[14,47],[-3,48],[12,30],[33,8],[28,-39],[12,6],[7,34],[-17,37],[9,11],[34,-6],[22,28],[22,-15],[35,21],[22,63],[20,18],[-2,145],[40,-3],[30,10],[7,60],[-21,50],[-35,14],[-29,46],[2,30],[34,-2],[13,21],[41,-15],[5,27],[20,7],[25,-11],[43,9],[25,27],[15,35],[19,1],[6,-57],[71,-29],[25,-1],[13,26],[4,58],[14,20],[20,0]],[[23967,10853],[10,-64],[18,-37],[16,-11],[27,19],[19,58],[24,46],[26,32],[35,26],[40,3],[96,-39],[34,-64],[19,-15],[53,1],[59,29],[54,-2],[83,-43],[23,-27],[111,-17],[39,-38],[43,3],[24,16],[43,67],[43,103],[38,56],[15,50],[37,38],[25,13],[48,-9],[27,-20],[15,-90],[31,-52],[29,-9],[55,1],[60,13],[27,11],[47,35],[35,45],[-4,41],[19,85],[-28,54],[4,36],[27,26],[24,0],[35,-16],[58,-57],[44,-54],[28,-21],[76,0],[53,-21],[78,-41],[18,4],[36,40],[14,29],[14,61],[31,28],[47,-12],[22,-32],[6,-41],[17,-18],[39,5],[28,-6],[34,-25],[84,-39],[32,-26],[66,-12],[60,24],[35,3],[60,-38],[46,-55],[44,-12],[60,24],[66,47],[26,8],[70,4],[28,-4],[60,-25],[80,-6],[59,-20],[27,-34],[24,-86],[38,-44],[57,-31],[44,-50],[6,-35],[-24,-64],[1,-17],[26,-81],[4,-83],[10,-57],[-12,-76],[10,-52],[40,-52],[17,-11],[57,-3],[29,-16],[5,-29],[-35,-89],[-40,-39],[-22,-38],[1,-28],[29,-19],[48,-7],[32,3],[52,32],[21,4],[23,-23],[-6,-48],[-21,-19],[-31,-7],[-16,-44],[71,-66],[22,-10],[42,1],[65,22],[39,45],[71,15],[63,-7]],[[27758,9776],[10,-42],[2,-54],[35,-68],[93,-69],[105,-113],[256,-252],[85,-94],[52,-151],[60,-65],[52,-9],[40,15],[81,82],[151,91],[72,-5],[63,-34],[195,-151],[133,-139],[47,-114],[-4,-40],[-20,-68],[-22,-56],[-43,-12],[-28,3],[-42,88],[-51,93],[-49,63],[-62,31],[-39,7],[-57,-19],[-47,-65],[-31,-84],[-1,-55],[67,-137],[19,-80],[-10,-76],[-54,-76],[-65,-50],[-81,-117],[-100,-134],[-94,-96],[-106,-94],[-109,-115],[-51,-103],[-15,-115],[-28,-70],[-14,-140],[12,-60],[93,-90],[60,-99],[103,-85],[68,-68],[37,-74],[42,-99],[75,-129],[82,-27],[82,-5],[235,16],[198,-10],[156,10],[76,3],[86,19],[107,27],[73,27],[59,31],[63,25],[82,11],[58,-10],[47,-40],[26,-82],[7,-81],[8,-195],[7,-82],[15,-56],[66,-115],[35,-33],[24,-36],[8,-45],[-2,-67],[-33,-88],[-42,-67],[-88,-103],[-21,-36],[-34,-101],[-23,-94],[-33,-43],[-44,-46],[-87,-27],[-77,-7],[-60,2],[-47,20],[-21,51],[-12,52],[1,90],[5,65],[-19,81],[-46,72],[-37,13],[-38,0],[-45,-41],[-23,-78],[-50,-98],[-44,-47],[-73,-61],[-42,-89],[-11,-63],[20,-78],[30,-35],[27,-47],[66,-72],[56,-102],[27,-135],[21,-41],[73,-70],[21,-54],[16,-60],[5,-58],[-12,-80],[-56,-100],[-157,31],[-96,121],[-140,98],[-225,-170],[-76,-40],[-164,-151],[-88,-101],[-39,-83],[-201,-50],[-322,49],[-115,-89],[-135,-11],[-194,-84],[-130,-162],[-62,-55],[-174,-51],[-61,0],[-270,-199],[-146,-220],[-138,-89],[-226,-79],[-139,-16],[-103,-51],[-74,-71],[-391,-128],[-144,-25],[-203,17],[-160,2],[-172,-84],[-144,-5],[-163,-70],[-97,36],[-184,0],[-18,-25],[-146,-57],[-158,-97],[-105,-20],[-161,-113],[-83,-28],[-63,-40],[-27,0],[-75,-67],[-44,-64],[-89,-70],[0,-6],[-67,-55]],[[15834,7171],[26,60],[33,64],[62,101],[113,149],[62,109],[55,131],[27,95],[22,153],[60,724],[48,558],[16,245]],[[16358,9560],[18,294]],[[16376,9854],[197,-2],[48,-3],[58,-25],[35,-8],[67,8],[78,40],[45,12]],[[16904,9876],[24,-7],[59,-35],[48,-35],[84,-78],[24,-31],[11,-35],[3,-107],[-1,-104],[34,-28],[88,-27],[108,-56],[198,-114],[148,-82],[76,-56],[107,-87],[70,-68],[52,-18],[8,41],[-32,1],[-18,25],[2,21],[-46,57],[-10,86],[-19,17],[-13,35],[-30,36],[11,37],[-23,29],[10,37],[-48,48],[23,31],[-8,21],[-28,21],[-28,-3],[-18,53],[5,19],[-63,75],[-40,18],[-17,17],[-7,28],[-24,8],[-8,49],[6,41],[-13,12],[8,44],[-17,42],[7,74],[-9,18],[34,28],[-10,31],[4,38],[-35,31],[-97,102],[-48,67],[-22,55],[0,50],[18,51],[-12,25],[6,63],[-11,96],[-7,24],[-42,75],[-3,24],[-34,56],[-3,36],[19,13],[30,37],[-26,53],[-42,26],[-71,78],[-45,98],[-37,39],[-18,32]],[[17146,11174],[481,2],[183,-1],[-2,244],[2,18],[-36,47],[-42,35],[1,73],[-176,2],[-118,7],[0,68],[11,28],[37,51],[58,45],[32,78],[1,57],[-13,38],[3,19],[40,66],[16,45],[-10,71],[29,66],[42,21],[25,1],[27,15],[0,59],[14,5]],[[17751,12334],[9,-21],[25,10],[16,26],[32,3],[20,-16],[19,10],[17,-24],[75,-8],[15,34],[40,-11],[17,18],[33,10],[-1,31],[38,24],[18,-14],[21,20],[-12,28],[36,-2],[3,-35],[45,-11],[5,-26]],[[18222,12380],[37,-5],[32,37],[44,-18],[13,-28],[19,19],[52,-13],[36,-42],[32,17],[72,-51],[-26,-26],[6,-28],[32,10],[13,-20],[21,10],[31,31],[11,29],[46,-14],[32,-19],[22,56],[18,-8],[20,-45],[47,0],[0,-56],[41,12],[-7,46],[25,21],[8,-38],[30,32],[19,-4],[44,-55],[25,22],[45,-1],[30,-27],[36,22],[17,-20],[40,22],[51,-3],[4,47],[48,9],[15,28],[32,-30],[5,-30],[30,-6],[27,10],[0,23],[24,29],[37,-21],[44,-9],[40,-24],[21,23],[19,-21],[21,16],[26,-17],[19,19],[-6,26],[45,21],[-2,-45],[8,-8],[34,24],[-6,-41],[11,-6],[33,50],[11,-1],[31,-38],[3,-51],[23,-18],[24,13],[50,-19],[28,24],[18,52],[16,6],[12,-43],[17,-10],[22,25],[2,22],[43,9],[72,-20],[42,8],[7,-42],[49,36],[64,22],[27,44],[-12,36],[18,10],[37,-21],[21,4],[14,19],[2,32],[75,69],[33,-9],[12,9],[13,76],[61,30],[37,30],[21,36],[60,-26],[43,8],[34,19],[22,1],[134,30],[18,44],[60,68],[37,-21],[42,-1],[38,-25],[58,-5],[28,10],[16,30],[11,42],[40,-23],[31,21],[52,-28],[6,-45],[11,-13],[59,-24],[8,55],[25,29],[27,14],[52,-10],[17,15],[10,29],[25,17],[38,-22],[-2,-50],[-15,-165],[5,-57],[28,-87],[20,-23],[65,-17],[35,-3],[25,13],[43,48],[21,-5],[24,-23],[24,-38],[45,-95],[16,-18],[35,-8],[44,9],[36,-32],[-5,-32],[16,-45],[26,-22],[30,10],[7,22],[-3,61],[27,44],[31,-2],[24,-37],[-1,-35],[-26,-61],[-15,-76],[11,-51],[29,-49],[13,-46],[-11,-103],[14,-26],[38,-3],[51,8],[37,-25],[17,-44],[10,-71],[22,-28],[28,-5],[32,16],[45,47],[29,21],[75,7],[52,28],[44,46],[31,-19],[44,-96],[14,-44],[14,-88],[10,-22],[30,-33],[32,-19],[40,-15],[15,-17],[35,-88],[49,-43],[46,-8],[33,9],[34,28],[32,42],[35,15],[47,-11],[89,-49],[52,-48],[25,-14],[43,-9],[52,0],[52,-43],[16,-35],[85,-99],[55,-44],[25,-38],[11,-84],[28,-31],[29,-7],[53,21],[36,-27],[17,-39],[2,-31]],[[16480,4133],[-1,3]],[[17177,925],[-35,-3],[20,-637],[4,-37],[9,-245],[-137,-3],[-221,1],[-798,6]],[[16019,7],[12,41],[49,185],[148,467],[23,48],[106,189],[78,118],[102,128],[116,138],[34,51],[39,46],[52,99],[42,100],[26,98],[23,131],[7,21],[5,69],[0,151],[-8,67],[-33,134],[-26,81],[-53,113],[-156,227],[-119,192],[-45,191],[-7,111],[3,124],[50,499],[5,87],[-6,178],[-6,42]],[[16019,7],[-312,3],[-177,-2],[-27,930],[-262,1]],[[15241,939],[35,46],[88,33],[13,12],[72,96],[22,19],[54,16],[34,2],[34,152],[-31,71],[-79,17],[2,19],[33,18],[34,-12],[72,14],[60,36],[53,6],[137,44],[38,21],[111,42],[36,35],[23,6],[11,25],[7,49],[-8,23],[4,39],[21,39],[26,-4],[18,19],[21,46],[3,89],[7,31],[21,39],[7,43],[-16,35],[-28,21],[11,59],[-31,34],[-23,7],[-6,145],[32,67],[6,76],[16,27],[73,43],[26,-4],[52,45],[5,14],[68,73],[22,9],[-78,132],[-33,51],[-26,63],[-68,141],[-31,94],[-74,189],[53,5],[156,1],[17,10],[5,55],[8,19],[70,81],[6,62],[5,169],[-37,54],[-8,24],[11,38],[4,51],[17,1],[39,80],[1,42],[16,50]],[[11639,16821],[92,19],[74,10],[103,80],[14,6],[66,4],[43,8],[65,38],[40,5],[19,-15],[4,-71],[16,-22],[49,-6],[24,6],[71,45],[31,-1],[50,-23],[28,-20],[46,-9],[84,16],[29,-7],[42,-38],[23,-5],[54,26],[35,-6],[18,-37],[-2,-49],[18,-42],[51,-1],[40,43],[19,11],[24,-10],[23,-49],[39,-27],[46,14],[22,18],[39,50],[16,-8],[7,-28],[30,-38],[67,-15],[19,16],[-8,34],[17,18],[29,9],[31,22],[21,-18],[-16,-43],[72,-70],[66,-7],[23,32],[16,-3],[36,-37],[44,-9],[23,-23],[44,20],[42,-19],[53,79],[25,50],[30,15],[33,-21],[38,-4],[40,22],[2,50],[13,18],[65,-9],[24,18],[41,-10],[37,12],[1,-45],[7,-28],[22,2],[18,18],[71,-12],[29,20],[30,7],[42,-22],[16,-24],[22,0],[69,-28],[60,5],[53,46],[19,-22],[35,1],[36,32],[-8,29],[28,49],[35,-9],[14,31],[48,0],[17,38],[33,35],[21,8],[28,28],[9,49],[38,46],[8,21],[17,107],[45,38],[51,21],[35,-7],[16,46],[28,10],[28,35],[76,59],[9,27],[39,38],[6,28],[54,69],[16,77],[32,50],[5,42],[46,52],[15,63],[12,70],[16,51],[25,16],[20,41],[31,8],[20,38],[26,-13],[13,13],[33,2],[9,41],[24,-9],[11,-23],[30,5],[25,33],[34,-9],[24,23],[-3,39],[22,34],[22,3],[52,38],[34,12],[27,44],[53,12],[45,41],[17,33],[23,16],[-1,25],[41,25],[21,49],[14,54],[23,18],[27,-4],[70,16],[65,-7],[28,22],[-12,36],[27,16],[23,-22],[28,-2],[9,51],[35,-17],[31,9],[21,-23],[29,-1],[22,-22],[27,3],[29,-35],[10,-42],[26,3],[63,-34],[39,7],[39,-25],[18,6],[52,-4],[36,20],[34,-4],[27,-24],[7,-18],[33,-12],[26,3],[22,-19],[0,-29],[23,3],[2,-28],[43,13],[16,-20],[-8,-25],[37,-40],[-2,-29],[42,-22],[24,9],[18,-25],[4,-34],[25,-9],[33,12],[47,-7],[19,-24],[38,-15]],[[17717,17413],[-173,-409],[-160,-366],[-223,-533],[-574,-1347],[-215,-807],[-152,-638],[-14,-99],[-9,-137],[2,-42],[12,-69],[58,-270],[132,-572]],[[16401,12124],[-29,13],[-33,96],[-30,61],[-37,120],[-12,50],[-50,171],[-11,26],[-17,7],[-101,104],[-41,18],[14,-65],[32,-175],[28,-140],[29,-156],[-40,-36],[-36,-6],[-59,11],[-51,-2],[-61,53],[-30,8],[-34,-3],[-22,17],[-55,-5],[-45,20]],[[15710,12311],[-106,-4],[-50,17],[-15,-5],[-36,24],[-23,-1],[-41,45],[-25,7],[-35,-60],[-11,-30],[-8,-58],[-19,-64],[-3,-58],[23,-58],[-1,-18],[18,-41],[13,-62],[-12,-5],[-35,-53],[-33,39],[-23,37],[-19,51],[-41,35],[-36,-12],[-59,-61],[-23,-50],[-38,-29],[-21,-7],[-25,10],[-27,-9],[-49,16],[-34,-34],[-76,8],[-25,25],[-16,-27],[-113,25],[-38,-11],[-50,-36],[-34,4],[-18,-28],[-22,-57],[-19,-20],[-56,-18],[-17,-25],[-5,-25],[-23,-23],[-18,-32],[-74,0],[-21,17],[-44,-19],[-66,-9],[-79,12],[-48,33],[-38,-16],[-35,-65],[-28,-31],[-29,-3],[-21,-24],[-24,13],[-6,-35],[-31,-36],[-33,-21],[-40,-12],[-29,2],[-40,-21],[-51,-7],[-20,-14],[-6,-38],[-113,21],[-25,28],[-17,-10],[-1,-34],[-50,-13],[-30,-38],[5,-45],[-10,-17],[-33,-18],[-6,-46],[-18,-15],[-46,-4],[-35,23],[-22,-33],[-3,-26],[-43,6],[-19,-12],[-13,39],[-17,10],[-27,-14],[-28,0],[3,-25],[-20,-5],[-3,-23],[-55,32],[-6,-36],[-24,3],[-23,-23],[-34,-6],[-27,26],[-22,-37],[-40,-8],[-25,7],[-37,27],[-65,-26],[-37,-2],[-27,-38],[-17,-14],[-40,-2],[-34,46],[-32,-24],[-15,-22],[3,-30],[-58,-13],[-31,15],[-31,-9],[-29,-27],[-48,-110],[-46,1],[-14,-18],[3,-32],[-23,-18],[-16,23],[-27,15],[-59,11],[-46,22],[-9,-19],[-28,-5],[-32,15]],[[12001,10832],[-2,25],[-62,19],[-12,9]],[[11925,10885],[7,22],[54,0],[5,22],[-20,21],[44,17],[-4,30],[-44,21],[-3,16],[42,22],[0,33],[-21,27],[-41,6],[-7,15],[1,56],[-46,-8],[0,39],[-47,4],[-11,22],[-30,11],[-31,-27],[-29,-38],[-48,13],[-36,40],[-16,-1],[-15,-41],[-30,-9],[-41,33],[1,32],[-17,29],[-39,-12],[-21,49],[1,48],[-40,-13],[-9,23],[-34,-3],[3,42],[19,32],[20,57],[-9,19],[13,39],[-28,2],[-29,-31],[-6,37],[37,23],[15,29],[43,-4],[28,10],[-3,28],[-27,28],[1,40],[-37,4],[7,69],[-13,41],[38,-1],[28,38],[-47,-2],[-4,31],[52,8],[-32,37],[-6,30],[-34,3],[-12,19],[34,31],[-20,17],[-44,-64],[-29,20],[-6,41],[-19,40],[-16,-4],[3,-65],[-32,4],[-2,42],[11,35],[-9,21],[-45,9],[-6,-38],[-29,1],[-11,54],[-15,8],[-18,-28],[-11,36],[16,27],[27,20],[4,36],[-11,20],[-28,7],[-2,20],[42,8],[7,10],[-19,35],[7,27],[-76,65],[16,21],[43,19],[6,48],[23,15],[-13,42],[13,17],[-15,19],[-49,1],[0,50],[-27,11],[-8,17],[5,42],[-18,14],[-27,-30],[-13,2],[-35,43],[-1,34],[11,42],[-16,23],[-58,8],[-21,-24],[-23,1],[-23,25],[3,15],[29,14],[28,2],[-12,38],[-57,1],[-28,-39],[-23,12],[1,22],[27,55],[32,37],[-14,32],[-65,13],[-31,0],[-34,21],[-59,119],[-26,16],[-28,-51],[-14,-6],[-15,30],[26,56],[-5,19],[-33,38],[1,82],[-29,27],[-88,42],[-23,68],[-17,30],[-29,31],[-18,87],[-11,21],[-26,20],[-46,-2],[-32,-22],[-24,23],[14,48],[32,34],[39,27],[13,24],[-24,50],[-34,18],[-43,5],[-27,42],[-15,72],[-28,37],[-27,54],[-42,153],[2,26],[17,27],[65,30],[22,16],[-1,70],[-9,98],[-17,42],[-36,46],[-4,43],[18,29],[56,58],[20,52],[5,45],[-5,37],[-14,24],[-117,110],[-62,41],[-43,15],[-26,23],[-36,48],[-16,43],[29,1],[55,27],[36,45],[11,52],[-48,52],[-14,29],[-9,56],[0,35],[22,51],[49,57],[56,24],[59,3],[52,39],[25,33],[2,39],[-7,35],[10,41],[3,44],[-24,41],[-12,51],[11,78],[85,83],[46,23],[43,-7],[35,3],[83,31],[22,25],[54,80],[28,30],[34,22],[46,17],[38,29],[53,19],[106,1],[169,60],[35,32],[26,44],[12,53],[25,48],[33,46],[32,35],[51,22],[63,8],[32,-7],[111,-7],[34,6],[110,67]],[[18222,12380],[20,91],[9,102],[22,211],[4,64],[-2,60],[4,35],[36,184],[14,22],[160,161],[19,12],[175,34],[-1,216],[-13,95],[-25,60],[-77,145],[-10,43],[-2,67],[4,48],[53,191],[2,78],[-10,85],[-14,80],[-6,74],[1,52],[8,69],[-2,37],[-17,82],[-11,26],[114,40],[22,13],[88,79],[62,71],[42,32],[37,52],[27,69],[18,22],[53,41],[50,6],[94,24],[80,10],[57,15],[45,30],[43,38],[81,101],[24,24],[56,71],[8,21],[-10,62],[3,27],[18,34],[50,73],[51,20],[59,6],[54,25],[22,24],[18,36],[37,113],[0,47],[-12,95],[2,32],[30,25],[12,34],[8,69],[86,65],[-24,90],[5,28],[-39,39],[-66,99],[-66,94],[-122,176],[-64,100],[-76,164],[-72,139],[-23,65],[-73,232],[-35,70]],[[20418,17871],[42,-9],[24,-21],[27,-45],[18,-47],[1,-29],[13,-55],[17,-43],[51,-35],[81,-28],[175,-134],[96,-60],[43,-12],[71,-1],[28,6],[89,52],[35,5],[233,-9],[38,-73],[-23,-24],[7,-41],[53,4],[23,-24],[30,-1],[18,12],[43,-8],[29,-50],[-6,-26],[-33,-16],[-5,-22],[27,-22],[22,20],[32,-35],[34,16],[22,-26],[26,-16],[46,-46],[32,-52],[29,9],[22,-25],[49,-1],[8,-29],[65,-60],[45,-2],[9,-32],[-6,-27],[-26,-24],[13,-41],[-14,-22],[6,-19],[28,-11],[21,-38],[28,1],[16,-16],[37,-13],[5,-28],[24,-2],[44,20],[22,37],[22,12],[71,-1],[37,-31],[18,3],[24,36],[14,-6],[6,-33],[28,3],[7,-37],[25,-25],[-9,-21],[45,-31],[23,9],[10,43],[22,10],[10,-18],[-2,-38],[47,-12],[38,22],[62,10],[16,-24],[-3,-35],[-21,-76],[55,-49],[-10,-33],[17,-52],[18,-21],[64,9],[49,-16],[12,21],[60,-23],[69,-40],[22,-43],[-8,-26],[75,-21],[34,4],[36,-49],[41,-2],[10,-13],[-4,-57],[49,-55],[31,-3],[63,-37],[57,-1],[24,-14],[35,47],[25,6],[28,-20],[10,-42],[30,1],[34,-33],[25,-3],[19,-21],[-5,-16],[-34,-10],[3,-23],[78,-11],[25,-15],[37,-46],[71,12],[34,-24],[33,-44],[37,-16],[32,-57],[38,-6],[26,10],[-15,35],[16,9],[20,-20],[15,-50],[-15,-33],[-28,-20],[49,-46],[11,4],[5,78],[13,19],[10,59],[60,65],[15,-28],[6,-60],[50,-17],[1,-64],[55,41],[54,-3],[36,27],[64,-17],[19,-19],[-4,-47],[20,-28],[33,27],[27,10],[40,-3],[17,-16],[-19,-46],[-2,-30],[-37,-20],[-11,-16],[7,-35],[40,-43],[44,-2],[15,17],[-23,52],[23,19],[50,-26],[33,2],[45,-18],[11,14],[-5,61],[5,101],[13,33],[27,-3],[39,-59],[65,-66],[29,19],[69,88],[12,-31],[30,-40],[34,-23],[34,-44],[4,50],[31,19],[55,-13],[28,-23],[28,8],[31,109],[3,32],[20,10],[27,-26],[24,8],[65,-6],[32,-34],[29,-1],[-8,71],[17,25],[28,13],[17,-11],[3,-48],[11,-38],[19,-25],[22,-10],[34,2],[45,12],[54,29],[34,2],[16,26],[-11,36],[-40,16],[-14,38],[45,41],[-21,27],[-4,35],[25,40],[29,17],[41,51],[26,-17],[20,-48]],[[26004,15805],[-104,-17],[-22,-61],[55,-55],[126,-84],[151,-17],[81,93],[57,41],[74,4],[36,-56],[64,-129],[32,-53],[57,-22],[66,36],[66,59],[7,46],[-17,59],[-16,30],[12,61],[31,22],[59,11],[26,-29],[101,-162],[95,-142],[117,-142],[89,-150],[71,-117],[89,-251],[0,-45],[-8,-129],[-90,-161],[-57,-156],[-19,-230],[-2,-266],[-11,-115],[2,-176],[2,-68],[27,-36],[67,-47],[212,-31],[108,-46],[71,-42],[49,-39],[64,-90],[112,-115],[168,-105],[188,-91],[114,-69],[79,-108],[112,-227],[64,-312],[28,-141],[69,-276],[15,-65],[57,-224],[0,-140],[-4,-89],[-15,-95],[8,-72],[44,-105],[49,-66],[104,-97],[32,-54],[17,-46],[-4,-47],[-22,-37],[-156,-115],[-30,-46],[3,-71],[-14,-85],[9,-110],[-39,-45],[-79,-69],[-102,-32],[-117,-51],[-186,-43],[-89,-35],[-56,-37],[-84,-9],[-57,6],[-85,21],[-83,16],[-72,7],[-31,-4],[-11,-44]],[[22086,22328],[102,1],[23,-5],[787,4],[388,3],[466,-1],[417,0],[69,1],[16,-115],[-2,-73],[-12,-35],[-35,-48],[-39,-27],[-34,-43],[-35,-60],[-39,-89],[-23,-66],[-47,-96],[-58,-98],[-23,-20],[-38,-6],[-59,5],[-93,24],[-59,-1],[-16,-9],[-68,-70],[-29,-48],[-14,-52],[-24,-42],[-40,-34],[-48,-53],[-25,-50],[7,-60],[39,-38],[104,-118],[36,-66],[10,-45],[-6,-147],[17,-81],[23,-28],[41,5],[67,65],[65,44],[138,53],[58,12],[39,-1],[40,-29],[19,-41],[-3,-45],[-29,-29],[-76,-17],[-22,0],[-73,26],[-29,-2],[-36,-37],[-30,-97],[2,-48],[18,-20],[116,-50],[57,-41],[40,-38],[35,-21],[24,3],[63,107],[33,36],[74,64],[35,23],[55,18],[38,-3],[96,-30],[54,-27],[94,-60],[63,-19],[47,10],[30,33],[33,147],[21,37],[59,64],[96,85],[44,19],[22,-21],[15,-37],[-3,-41],[-28,-53],[-58,-44],[-27,-30],[-86,-165],[-29,-45],[-42,-76],[-36,-56],[-67,-88],[-46,-53],[-51,-79],[-34,-104],[-34,-41],[-29,-20],[-46,-1],[-105,35],[-63,-2],[-64,-21],[-61,-25],[-27,-31],[5,-46],[35,-51],[85,-86],[29,-67],[37,-72],[35,-53],[45,-57],[12,-28],[22,-92],[27,-90],[42,-77],[69,-87],[36,-66],[16,-75],[0,-94],[-21,-108],[-2,-70],[18,-35],[17,-6],[46,4],[29,13],[53,40],[81,31],[41,-7],[33,-30],[44,-60],[43,-88],[22,-28],[36,-15],[17,11],[24,36],[14,36],[36,64],[49,39],[54,6],[83,-24],[30,-17],[40,-41],[18,-37],[15,-66],[8,-63],[6,-101],[-4,-48],[-29,-117],[-34,-98],[-25,-102],[-4,-46],[4,-48],[27,-66],[38,-52],[68,-55],[56,-52],[62,-66],[9,-41],[3,-99],[13,-75],[30,-33],[73,-42],[58,-20],[31,-22],[14,-54],[-1,-29],[-24,-122],[-12,-182],[-16,-109],[48,-37],[123,-45],[64,1],[50,-5],[51,-27],[53,-51],[48,-60],[40,-59],[31,-75],[2,-42],[-7,-67],[-12,-34],[-45,-37],[-26,-4],[-28,30],[-2,105],[-5,46],[-14,44],[-28,36],[-36,17],[-28,-2],[-25,-25],[46,-552],[-51,-40],[-95,-24],[-37,7]],[[19978,19004],[102,113],[20,28],[74,115],[41,32],[17,31],[16,9],[27,36],[68,68],[54,41],[25,28],[70,44],[58,63],[-2,19],[61,240],[11,8],[48,95],[92,109],[81,85],[114,129],[24,19],[132,-2],[45,10],[6,134],[24,87],[30,49],[75,40],[33,31],[42,94],[53,149],[58,61],[57,50],[25,57],[14,49],[22,23],[22,6],[121,8],[81,44],[36,6],[83,3],[234,1],[21,4],[45,36],[34,38],[-93,211],[-5,50],[3,94],[-5,211],[-35,48],[-58,57],[-18,46],[-2,33],[32,245],[-5,39]],[[963,9842],[38,-52],[47,-127],[22,-32],[135,-104],[53,-19],[66,-5],[83,-54],[51,-7],[64,16],[54,-4],[83,-31],[179,25],[67,-10],[98,-3],[45,-19],[44,-62],[16,-15],[128,-82],[25,-29],[17,-44],[0,-36],[-26,-121],[4,-44],[17,-74],[16,-155],[51,-17],[81,-79],[97,-89],[68,-56],[128,-83],[32,-13],[37,-2],[501,18],[631,24],[105,-17],[192,-13],[81,9],[205,41],[79,31],[116,40],[67,32],[224,171],[44,52],[112,176],[75,129],[38,74],[78,138],[42,30],[214,70],[59,0],[49,-31],[24,-39],[8,-38],[9,-112],[14,-54],[18,-34],[32,-37],[152,-111],[134,-91],[64,-16],[258,-2],[391,-1],[47,-16],[121,-59],[65,-5],[172,-3],[128,-19],[37,-2],[131,28],[21,-2],[112,-30],[70,0],[50,10],[194,3],[67,-9],[27,-18],[84,-69],[54,-37],[26,-10],[149,-37],[55,-21],[39,-22],[98,-81],[70,-47],[49,-22],[99,-5],[67,13],[67,-12],[95,-53],[44,-16],[32,-3],[18,29],[33,95],[18,24],[35,25],[56,13],[17,-4],[61,20],[25,18],[45,63],[42,46],[78,61],[34,35],[87,105],[21,66],[1,33],[-20,131],[7,68],[6,18],[81,79],[25,34],[37,94],[27,57],[35,49],[10,39],[2,59],[18,25],[114,130],[50,31],[28,3],[58,-7],[15,15],[69,226],[18,75],[11,20],[53,48],[48,32],[136,60],[27,27],[6,36],[-3,400],[32,17],[184,-16],[132,6],[40,7],[35,-5],[121,-30],[33,-15],[24,-25],[15,-36],[3,-137],[-4,-119],[2,-111],[124,6],[79,32],[17,19],[0,52],[42,41],[55,15],[47,-19],[24,0],[37,32],[29,61],[55,69],[44,42],[57,40],[-14,25],[50,19],[-17,41],[5,48],[28,11],[-1,45],[-16,38],[25,25],[21,-8],[31,12],[30,-21],[5,21],[38,-1],[15,16]],[[12001,10832],[-46,-52],[28,-42],[-11,-29],[23,-24],[4,-35],[52,-58],[-1,-40],[-66,-59],[-26,-7],[-9,-19],[56,1],[59,-25],[12,-12],[2,-41],[-49,30],[-26,5],[0,-37],[29,-82],[-45,-23],[-32,-5],[-3,-34],[38,8],[-7,-53],[26,-2],[-6,-54],[-23,-72],[-27,5],[-7,46],[-26,10],[-23,-75],[13,-30],[-32,-44],[-27,-61],[-8,-70],[16,-9],[38,20],[6,-32],[-33,-36],[-12,-44],[28,-45],[26,-2],[5,-36],[-10,-20],[29,-15],[2,-18],[-17,-30],[-30,-13],[-2,-54],[20,-18],[12,48],[21,4],[8,-68],[9,-11],[57,-13],[-6,-28],[-26,8],[-18,-25],[-3,-38],[-11,-41],[50,19],[26,-16],[0,-20],[-22,-42],[56,-27],[2,-46],[26,-3],[24,19],[16,-7],[25,-40],[39,-27],[-3,-11],[-47,-1],[-6,-23],[32,-23],[-49,-54],[27,-10],[24,15],[36,2],[12,52],[21,1],[23,-40],[21,-13],[-5,-35],[43,-36],[-16,-16],[-69,-26],[-39,-7],[-10,-37],[93,-131],[9,-70],[57,-36],[16,-17],[16,-44],[29,-15],[30,10],[26,-15],[34,-5],[17,-30],[5,-42],[-5,-57],[16,-33],[20,5],[-7,47],[12,9],[36,-41],[-15,-63],[31,34],[12,-17],[-3,-31],[36,-3],[17,-14],[-30,-31],[-11,-33],[23,-1],[17,21],[36,4],[18,-33],[28,-2],[24,-23],[18,2],[10,55],[55,-32],[-15,-20],[-13,-41],[-28,-48],[30,-19],[7,33],[21,15],[36,-26],[-20,-33],[0,-18],[-45,0],[-10,-13],[32,-34],[26,-47],[-18,-18],[-30,20],[-14,-30],[64,-47],[-30,-24],[4,-35],[-7,-33],[-19,-12],[-20,20],[-15,-36],[-26,-26],[10,-23],[-48,-48],[7,-40],[-14,-6],[-43,16],[-1,-41],[8,-16],[32,13],[3,-23],[-13,-26],[-17,-64],[22,-22],[-21,-12],[-32,37],[-38,-12],[6,-62],[27,-50],[30,2],[-12,30],[17,14],[69,-55],[-50,0],[-6,-17],[18,-27],[18,-5],[41,12],[24,-7],[35,-28],[-16,-19],[-36,31],[-10,-26],[25,-20],[-34,-16],[-30,-36],[9,-65],[53,-31],[16,-17],[-29,-19],[-14,-24],[-1,-32],[13,-33],[4,-41],[-23,-21],[21,-87],[36,16],[19,-43],[-42,-6],[2,-45],[31,-10],[6,-38],[57,-1],[-38,-40],[28,-23],[22,-33],[23,-6],[-26,-51],[-17,-12],[4,-31],[35,15],[27,-11],[-17,-52],[18,-6],[40,44],[6,-9],[-24,-36],[20,-10],[33,33],[10,-40],[46,-67],[21,-19],[26,42],[23,-32],[-27,-16],[31,-35],[13,-35],[-27,-3],[-41,30],[-22,-13],[36,-44],[31,1],[7,-16],[-49,-46],[-2,35],[-28,8],[-16,-49],[-60,-50],[11,-52],[14,-23],[34,0],[11,-30],[-5,-22],[-26,0],[-22,-48],[-23,2],[-33,43],[-13,-12],[28,-50],[-17,-101],[-46,-4],[9,-47],[49,29],[16,-29],[-31,-21],[9,-28],[35,21],[35,-8],[24,13],[12,-11],[-21,-31],[1,-26],[52,9],[-17,-40],[11,-13],[35,17],[-22,-51],[52,16],[16,-14],[-4,-22],[-23,-21],[2,-36],[-15,-27],[1,-38],[32,-23],[-52,-65],[-12,-23],[-2,-42],[-45,3],[-11,-11],[6,-33],[33,5],[19,-38],[-29,-36],[2,-58],[21,-35],[-17,-69],[61,15],[30,-33],[-1,-31],[-15,-44],[-44,7],[-12,-10],[1,-62],[6,-8],[53,-5],[25,-40],[-7,-55],[3,-36],[-19,1],[-22,25],[-19,-25],[-20,-76],[18,-42],[26,-33],[33,-9],[46,-33],[17,-32],[16,20],[20,-5],[30,-50],[3,-19],[-11,-71],[21,-13],[10,-27],[48,-67],[20,-10],[58,20],[18,-48],[8,-44],[30,12],[16,-32],[-33,-33],[34,-35],[31,-8],[-6,-25],[-23,-13],[-26,0],[-7,-26],[34,-9],[41,-35],[-16,-15],[-30,9],[-38,-3],[-5,-21],[61,-24],[25,-19],[-5,-53],[-42,5],[8,-27],[4,-71],[-20,-36],[-45,-26],[-27,-23],[-26,31],[-24,-8],[-17,-44],[10,-20],[32,7],[-8,-31],[50,-26],[-9,-53],[-17,-26],[7,-64],[-17,-20],[9,-21],[53,-27],[13,-14],[15,-51],[-8,-28],[-26,-5],[-23,18],[-24,-17],[28,-32],[30,-64],[-7,-17],[-43,7],[-8,-13],[0,-52],[-19,-10],[-8,-41],[-30,-13],[-29,45],[-8,-27],[15,-27],[1,-35],[-15,-9],[-34,38],[-21,5],[-16,-24],[4,-46],[-38,-36],[22,-29],[9,-34],[-4,-43],[7,-16],[28,-17],[-17,-46],[50,-9],[-9,-24],[15,-27],[84,-88],[12,-33],[-10,-68],[31,-15],[24,17],[21,-20],[-19,-24],[4,-20],[-19,-36],[-42,-11],[-39,-2],[12,-29],[4,-47],[-17,-28],[17,-42],[17,-20],[-28,-27],[28,-80],[33,-53],[6,-32],[-22,-89],[9,-40],[-17,-96],[-23,4],[-16,-30],[49,-107],[13,-53],[24,-16],[-13,-35],[13,-16],[40,-17],[2,-22],[-41,7],[2,-31],[-31,-55],[14,-69],[31,-22],[-8,-32],[20,-43],[29,2],[-21,-70],[34,9],[6,-29],[-20,-93],[-37,-5],[-5,-34],[21,-8],[14,15],[22,-26],[26,-13],[4,-34],[27,-58],[50,-65],[56,-44]],[[13714,864],[-103,-2],[-1295,-10],[-815,1],[-196,-3],[-602,-12],[-981,0],[-675,0],[-603,-30],[-39,-1],[-387,0],[-427,0],[-786,3],[-814,-9],[-224,2],[-205,-7],[-29,-3],[-156,1],[-315,-4],[-302,7],[-774,0],[-10,3],[-243,2],[-1495,2],[-672,4],[-77,1],[-220,-3],[-420,9],[-82,-3],[-3,-6],[-422,11],[-342,0],[5,1264],[5,1474],[6,427],[-2,411],[8,939],[6,1270],[0,272],[28,1110],[128,887],[151,172],[628,723],[0,76]],[[17751,12334],[-17,12],[-45,8],[-32,-6],[-48,-50],[-24,14],[-31,-2],[-25,22],[-47,4],[-24,11],[-32,27],[-42,-13],[-22,-43],[-44,11],[-51,-16],[-24,34],[-5,35],[-19,32],[-31,30],[-52,97],[-30,23],[-37,43],[-39,27],[-14,-38],[-15,-12],[-69,-29],[-54,3],[-72,15],[-34,2],[-63,-22],[-58,-24],[-14,-14],[-28,-59],[-26,-38],[-48,-41],[-46,-27],[-37,-39],[-28,-70],[-3,-38],[22,-125],[-42,46]],[[13123,22328],[-11,-28],[8,-52],[14,-31],[28,-14],[26,2],[6,-34],[-8,-19],[10,-60],[36,0],[-4,-49],[27,-7],[-2,-23],[-30,-19],[3,-21],[36,-27],[8,-17],[-30,-30],[19,-32],[-26,-41],[-36,-21],[1,-40],[23,-36],[-5,-20],[-28,-22],[33,-27],[-28,-17],[-18,15],[-55,3],[-16,-53],[9,-47],[-14,-7],[-52,67],[-20,-54],[-19,9],[-5,33],[-17,4],[-34,-26],[35,-33],[-17,-32],[27,-28],[39,37],[17,-13],[3,-44],[10,-16],[31,11],[16,-14],[14,-44],[18,-21],[30,-4],[23,-27],[11,-92],[16,-16],[36,-4],[25,9],[52,-49],[18,-26],[23,9],[10,33],[36,-32],[29,30],[19,-6],[39,-87],[29,15],[4,83],[16,9],[31,-31],[23,1],[24,23],[26,-18],[-18,-27],[17,-45],[40,-11],[14,-27],[22,6],[22,31],[16,-10],[23,-37],[57,4],[22,-8],[33,-36],[21,3],[-13,42],[22,11],[38,-29],[29,20],[5,79],[11,15],[24,-5],[21,-45],[23,-1],[46,-24],[15,7],[-5,34],[20,24],[21,3],[27,-34],[-6,-16],[-32,-17],[48,-52],[2,-52],[-21,-37],[19,-26],[-7,-43],[45,-53],[-10,-24],[-1,-40],[-36,-30],[27,-21],[2,-22],[-31,-100],[-35,-63],[-12,-78],[53,-27],[52,-16],[49,-3],[15,-20],[2,-116],[5,-21],[36,-50],[37,-23],[96,-15],[14,-50],[-4,-90],[37,-83],[2,-75],[-6,-31],[-25,-41],[-61,-59],[-9,-76],[9,-81],[-16,-28],[-41,-28],[-33,-93],[-21,-40],[-4,-34],[-57,25],[-44,2],[-103,-10],[-110,19],[-36,22],[-58,60],[-112,53],[-237,29],[-83,20],[-84,-21],[-4,-19],[-51,-36],[-63,-29],[-44,-40],[-91,-132],[-181,-283],[-63,-92],[-25,-23],[34,-82],[68,-72],[22,-56],[6,-102],[-27,-47],[-39,-46],[7,-32],[-20,-32],[0,-26],[-44,-54],[-26,-10],[-17,-20],[2,-53],[-42,-58],[-36,-15],[-11,-45],[-36,-10],[-31,1],[-20,13],[2,-54],[-42,-30],[-6,-23],[-41,-19],[-16,-24],[28,-21],[-18,-20],[2,-57],[22,-24],[-31,-18],[11,-22],[-23,-13],[-37,-7],[-47,-55],[-31,7],[-14,-34],[-54,-16],[-17,-39],[-28,-20],[-23,-33],[-8,-38],[-2,-59],[-25,-27],[-33,-65],[-29,-16],[-68,1],[-32,-21],[-20,-50],[-29,-13],[-18,-21],[-5,-28],[-42,0],[2,-22],[28,-16],[-43,-59],[-42,-42],[-41,9],[-1,-32],[-22,-12],[-13,-37],[-27,6],[-37,36],[0,-45],[-37,-19],[-5,-97],[-14,-35],[-20,-23],[-37,-23],[-42,-56],[-20,4],[-17,-32]],[[963,9842],[3,1565],[6,232],[7,834],[-2,139],[9,1889],[-1,271],[-5,391],[-3,424],[5,279],[23,960],[6,252],[30,538],[36,299],[-40,959],[-8,225],[-24,491],[-46,898],[-8,339],[-6,182],[-55,1238],[383,1],[1165,3],[70,1],[1416,3],[1,90],[316,2],[175,4],[305,3],[651,-1],[165,-1],[310,1],[68,1],[134,-7],[208,2],[237,-1],[232,-5],[172,2],[90,-1],[152,-7],[67,0],[221,7],[255,4],[208,1],[40,2],[91,-5],[805,1],[218,1],[801,2],[807,0],[207,6],[197,-1],[318,-5],[354,-8],[1192,-13],[202,-1]],[[16459,10875],[38,21],[58,-5],[1,92],[129,0],[146,6],[26,-1],[0,187],[289,-1]],[[16904,9876],[-10,19],[-100,146],[-21,40],[-48,149],[-75,129],[0,23],[163,274],[-118,1],[2,62],[-21,17],[-124,2],[0,-9],[-103,8]],[[16449,10737],[10,138]],[[16459,10875],[20,188],[26,312],[4,126],[-6,41],[4,53],[-81,421],[-25,108]],[[19153,22328],[939,-1],[1051,-1],[363,1],[28,23],[12,-26],[152,0],[388,4]],[[18017,20188],[65,146],[71,140],[313,604],[65,122],[131,256],[102,192],[202,388],[36,66],[75,119],[76,107]],[[16459,10875],[-4,57],[-6,15],[4,82],[-7,11],[-99,54],[-4,29],[-200,-51],[-484,-122],[-76,-19]],[[15583,10931],[35,390],[5,35],[15,177],[11,97],[12,147],[49,534]],[[16449,10737],[-15,-242],[-20,-222],[-26,-267],[-12,-152]],[[16358,9560],[-45,30],[-36,13],[-29,0],[-64,-19],[-219,-58],[-51,-11],[-109,-16],[-76,-5],[-201,-5],[-78,-5],[32,341],[54,581],[3,43],[41,434],[3,48]],[[13123,22328],[615,-4],[134,2],[196,-1],[1277,7],[1283,5],[754,1],[626,-9],[1145,-1]],[[15241,939],[-874,7],[-449,6],[-4,-87],[-200,-1]]],"transform":{"scale":[0.000020810567734682358,0.000016325952764358664],"translate":[-90.73682399999998,31.685147]},"objects":{"Geometry\\28-029":{"type":"GeometryCollection","geometries":[{"arcs":[[0,1,2]],"type":"Polygon","properties":{"GEOID":"280299501021"}},{"arcs":[[3,4,-3,5,6,7]],"type":"Polygon","properties":{"GEOID":"280299501022"}},{"arcs":[[-6,-2,8,9,10,11]],"type":"Polygon","properties":{"GEOID":"280299501012"}},{"arcs":[[12,-8,13,14]],"type":"Polygon","properties":{"GEOID":"280299501023"}},{"arcs":[[-7,-12,15,-14]],"type":"Polygon","properties":{"GEOID":"280299501011"}},{"arcs":[[16,17,18,19,20]],"type":"Polygon","properties":{"GEOID":"280299505013"}},{"arcs":[[21,22,23,-18]],"type":"Polygon","properties":{"GEOID":"280299505021"}},{"arcs":[[24,25,26,27,28,29,30,-22,-17]],"type":"Polygon","properties":{"GEOID":"280299505022"}},{"arcs":[[31,-20,32,33]],"type":"Polygon","properties":{"GEOID":"280299505012"}},{"arcs":[[-34,34,35]],"type":"Polygon","properties":{"GEOID":"280299505011"}},{"arcs":[[36,-15,37,38,39,40,41]],"type":"Polygon","properties":{"GEOID":"280299503003"}},{"arcs":[[42,-10,43,44,-23,-31]],"type":"Polygon","properties":{"GEOID":"280299502004"}},{"arcs":[[45,-44,-9,46]],"type":"Polygon","properties":{"GEOID":"280299502001"}},{"arcs":[[47,-41,48,49]],"type":"Polygon","properties":{"GEOID":"280299506002"}},{"arcs":[[-16,-11,-43,-30,50,-38]],"type":"Polygon","properties":{"GEOID":"280299502003"}},{"arcs":[[51,-42,-48,52]],"type":"Polygon","properties":{"GEOID":"280299503002"}},{"arcs":[[53,-28,54,55]],"type":"Polygon","properties":{"GEOID":"280299504004"}},{"arcs":[[-51,-29,-54,56]],"type":"Polygon","properties":{"GEOID":"280299504001"}},{"arcs":[[57,-47,-1,-5,58]],"type":"Polygon","properties":{"GEOID":"280299502002"}},{"arcs":[[-39,-57,59,60]],"type":"Polygon","properties":{"GEOID":"280299504002"}},{"arcs":[[-60,-56,61,-26,62]],"type":"Polygon","properties":{"GEOID":"280299504003"}},{"arcs":[[-55,-27,-62]],"type":"Polygon","properties":{"GEOID":"280299504005"}},{"arcs":[[63,-59,-4,-13,-37,-52]],"type":"Polygon","properties":{"GEOID":"280299503001"}},{"arcs":[[-40,-61,-63,-25,-21,-32,-36,64,-49]],"type":"Polygon","properties":{"GEOID":"280299506001"}}]}}}