{"type":"Topology","arcs":[[[10552,11742],[43,99],[125,387],[81,258],[292,-2],[304,0],[15,2]],[[11412,12486],[-41,-101],[-14,-48],[-3,-37],[-7,-235],[1,-16],[24,-92],[18,-115],[33,-88],[3,-35],[-13,-38],[-68,-103],[-1,-153],[-9,-66],[-2,-56],[11,-23],[39,-44]],[[11383,11236],[-17,-6],[-70,-4],[-60,-1],[-105,22],[-39,21],[-130,117],[-31,18],[-156,45],[-33,17],[-30,24]],[[10712,11489],[-35,48],[-92,153],[-33,52]],[[11603,5042],[41,34],[76,71],[120,109],[46,28],[136,41],[54,10],[224,0],[17,7],[168,135]],[[12485,5477],[67,-112],[10,-22],[4,-32],[1,-85],[-1,-159]],[[12566,5067],[-1,-194],[3,-105],[11,-41],[14,-26],[18,-15],[91,-45],[49,-19],[135,-38],[88,-26],[30,-23],[35,-58]],[[13039,4477],[-223,-176],[-35,-48],[-11,-41],[-17,-154],[-2,-35],[-19,-135],[-9,-37],[-15,-28],[-163,-214],[-69,-93],[-16,-35],[8,83]],[[12468,3564],[-1,59],[-13,42],[-37,63],[-26,87],[-77,243],[-29,57],[-40,50],[-45,46],[-13,30],[-10,72],[-6,14],[-24,21],[-94,59],[-63,31],[-13,12],[-59,87],[-29,59],[-34,37],[-84,69],[-42,75],[-55,88],[-26,56],[-45,121]],[[11345,48],[71,83],[111,136],[91,106],[44,57],[188,220],[41,55],[15,34],[40,97],[160,391],[18,48],[148,358]],[[12272,1633],[88,216],[33,77]],[[12393,1926],[67,-55],[182,-154],[16,-17],[12,13],[24,-14],[128,1],[205,-2],[28,-20],[37,-43],[50,-74],[38,-68],[8,-25],[6,-79],[0,-56],[-8,-75],[-16,-31],[-30,-35],[-24,-13],[-80,-37],[-31,-33],[-16,-42],[-1,-21],[-16,-86],[-24,-79],[-7,-34],[1,-84],[11,-46],[55,-169],[10,-34],[27,-177],[7,-29],[56,-168],[25,-92]],[[13133,48],[-235,-2],[-116,1],[-220,0],[-1217,1]],[[12393,1926],[82,204],[74,179],[87,211],[159,390],[87,208],[12,32],[233,568],[98,241],[39,85],[75,143]],[[13339,4187],[48,-26],[7,-11],[1,-35],[-20,-19],[28,-15],[-3,-48],[37,-16],[-12,-15],[-38,9],[-5,-26],[37,-32],[24,-30],[21,-9],[15,-15],[30,3],[-5,28],[13,7],[41,-39],[-9,-24],[26,4],[38,-9],[-10,-26],[3,-14],[30,-10],[20,2],[14,19],[25,-6],[14,19],[20,2],[21,22],[26,-1],[4,31],[24,2],[31,-17],[20,-1],[27,18],[27,-11],[-7,-29],[8,-10],[29,3],[31,39],[7,-22],[-6,-66]],[[13971,3813],[-53,-9],[-94,-35],[-31,-28],[-8,-17],[12,-20],[45,-30],[82,-41],[16,0],[47,37],[51,29],[30,26],[28,8],[15,-8],[16,-29],[8,-54],[-6,-60],[-10,-52],[-61,-199],[-54,-103],[-9,-38],[2,-44],[27,-76],[61,-77],[62,-96],[20,-39],[18,-77],[-11,-67],[13,-58],[-11,-30],[-45,-37],[-52,-27],[-43,-16],[-45,-3],[-18,-10],[19,-52],[12,-11],[79,-7],[17,-11],[33,-62],[0,-18],[-29,-18],[-41,-4],[-47,4],[-64,17],[-38,-2],[-23,-17],[-5,-20],[6,-18],[56,-78],[31,-69],[20,-67],[17,-82],[23,-25],[115,0],[49,-21],[47,-38],[44,-26],[18,-30],[-3,-37],[-15,-29],[-25,-17],[-57,-16],[-38,-19],[-31,13],[20,81],[-18,27],[-62,13],[-59,-11],[-26,-19],[-3,-23],[16,-35],[8,-31],[-6,-118],[11,-35],[19,-22],[26,-7],[41,6],[73,-32],[27,4],[10,11],[10,58],[29,23],[99,-2],[56,11],[67,29],[60,3],[43,-20],[13,-16],[3,-23],[-8,-21],[-24,-24],[-31,-17],[-39,-5],[-38,7],[-37,-9],[-51,-21],[-33,-30],[0,-18],[26,-35],[35,-37],[42,-51],[14,-26],[10,-63],[32,-110],[16,-15],[48,0],[35,-14],[5,-19],[-35,-81],[-20,-119],[-8,-68],[-2,-57],[3,-65],[-7,-25],[-18,-17],[-27,-7],[-22,10],[-40,29],[-31,13],[-34,-11],[-15,-27],[-15,-59],[-7,-62],[6,-31],[15,-40],[21,-29],[27,-48],[22,-21],[72,-32],[20,-25],[7,-23],[-1,-34],[-8,-24],[-14,-13],[-41,-20],[-9,-18],[6,-36],[25,-48],[16,-40],[9,-59],[-42,-1],[-253,0],[-282,1],[-711,-5],[-14,4],[-62,-1]],[[7393,11345],[309,-43],[112,-13],[418,-35],[788,-69],[41,-5],[88,-20],[116,-34],[303,-90],[152,-45]],[[9720,10991],[-14,-58],[39,-5],[-1,-31],[-11,-22],[-18,-102],[-5,-200],[30,-75],[19,-106],[24,-20],[-1,-61],[-13,-34],[-17,-68],[25,-94],[28,-26],[75,-86],[6,-27],[-27,-95],[-21,-37],[-3,-27],[-3,-88],[3,-21],[13,-16],[50,-28],[31,-7],[35,0],[22,-8],[24,-32],[34,-17],[17,5],[65,48],[50,0]],[[10176,9653],[-52,-39],[-74,-62],[-46,-47],[-99,-132],[-76,-98],[-83,-96],[-94,-100],[-96,-90],[-98,-82],[-40,-28],[-73,-38],[-65,-22],[-62,-12],[-99,-12],[-56,-4],[-103,-4],[-87,-4],[-81,-16]],[[8792,8767],[-78,-26],[-91,-39],[-152,-83],[-47,-28],[-78,-38],[-72,-28],[-86,-24],[-31,-7]],[[8157,8494],[-76,125],[-17,23],[-50,31],[-69,34],[-24,20],[-56,62],[-11,16],[-42,106],[-53,125],[-11,33],[-2,24],[7,112],[-21,103],[1,35],[7,46],[38,192],[26,125],[5,124],[14,139],[30,180],[3,32],[-12,238],[25,99],[2,46],[-26,121],[-46,5],[-11,25],[-23,8],[-20,21],[-15,0],[-22,20]],[[7708,10764],[-63,37],[-5,22],[-68,35],[-10,-13],[-32,16],[-17,-6],[-23,22],[25,38],[-52,17],[-13,8],[-24,-14],[-12,16],[24,29],[18,-5],[12,17],[-19,14],[12,13],[-32,14],[-7,19],[-21,15],[-13,-31],[-13,-4],[-13,18],[-27,3],[-16,20],[-23,-22],[-23,27],[-15,-5],[-16,25],[-31,-25],[-14,21],[-45,11],[-14,17],[-4,39],[11,26],[19,-5],[13,15],[19,-13],[19,22],[-3,27],[14,13],[-5,20],[24,25],[25,0],[27,11],[13,13],[24,-19],[46,38],[13,20]],[[8792,8767],[11,-16],[19,-3],[-5,-22],[-29,-3],[7,-40],[20,3],[-1,-44],[31,-11],[9,-25],[20,1],[13,23],[17,-24],[-3,-28],[47,-14],[19,-19],[-10,-20],[7,-22],[20,-3],[11,-14],[16,10],[18,-25],[-15,-40],[10,-23],[17,28],[16,-35],[-17,-26],[16,-29],[-29,-35],[-2,-26],[20,0],[8,-21],[-9,-26],[23,-11],[-7,-18],[17,-23],[2,-24],[17,-23],[-16,-22],[8,-22],[48,-51],[15,-50],[13,-20],[-4,-22],[14,-8],[8,-40],[39,4],[2,-21],[30,-15],[3,-19],[37,-3],[5,-31],[-20,-28],[12,-56],[24,-4],[27,-26],[-7,-24],[9,-19],[6,-58],[29,-9],[11,-14],[48,-25],[4,-14],[110,-61],[8,-31],[-77,-19],[-83,-25],[-60,-25],[-167,-77],[-125,-61],[-32,-12]],[[9015,7231],[-57,-16],[-98,-22],[-99,-21],[-183,-41],[-108,-28],[-45,-20],[-55,-31],[-36,-26]],[[8334,7026],[-21,31],[-6,37],[32,110],[-200,2],[27,70],[44,22],[113,147],[15,49],[28,74],[15,33],[0,20],[30,63],[11,49],[-84,1],[-8,78],[-1,56],[10,24],[25,33],[35,14],[35,2],[60,24],[76,3],[19,7],[36,33],[-36,32],[-45,35],[-59,35],[-65,16],[-18,25],[-37,71],[-37,81],[-31,46],[-28,26],[-61,47],[-27,34],[-24,38]],[[10176,9653],[61,-15],[61,50],[44,12],[30,2],[25,9],[27,21],[-1,-73],[2,-136],[6,-45],[-1,-259],[16,-44],[28,-55],[34,-53],[23,-25]],[[10531,9042],[22,-42],[2,-113],[-1,-112],[-8,-39],[-28,-66],[-18,-35],[-44,-58],[-5,-28],[-2,-118],[5,-135],[-5,-152],[4,-33],[27,-74],[-2,-44],[-9,-20],[-105,-177],[-34,-62],[-7,-54],[-2,-189]],[[10321,7491],[1,-327],[0,-336],[-7,-50],[-18,-58],[-5,-35],[0,-261],[5,-52],[24,-87]],[[10321,6285],[-21,-11],[-81,-6],[-43,9],[-34,26],[-50,57],[-39,27],[-69,36],[-102,58],[-25,28],[-52,103],[-28,37],[-46,24],[-41,2],[-225,1],[-65,12],[-131,32],[-46,28],[-27,32],[-53,78],[-50,78],[-27,60],[-24,104],[-27,131]],[[10146,15908],[25,-71],[13,-24],[31,-29],[41,-22],[103,-60],[-6,-288],[-2,-192],[4,-188],[3,-404],[-4,-31],[-11,-7],[-47,-2],[4,-24],[67,-148],[23,-25],[53,-36],[293,-196],[29,-11],[97,-9],[59,-15],[112,-6],[52,-27],[17,-26],[3,-34],[1,-105],[-4,-181],[11,-40],[27,-59],[6,-64],[16,-32],[15,-15],[84,-53],[18,-32],[10,-104],[9,-52],[-2,-90],[-10,-45],[1,-17],[32,-54],[13,-35],[11,-48],[19,-54],[14,-68],[-5,-40],[4,-23],[15,-24],[29,-25],[17,-30]],[[11436,12743],[5,-52],[-2,-130],[-27,-75]],[[10552,11742],[-34,54],[-81,83],[-34,24],[-59,29],[-55,14],[-134,27],[-64,1],[-1,-182],[-10,-60],[-20,-53],[-168,-219],[-31,-35],[-24,-34],[-32,-82],[-85,-318]],[[7393,11345],[35,44],[41,11],[44,-5],[62,-12],[29,-1],[31,18],[33,47],[-47,43],[-19,26],[-7,26],[-2,57],[-5,34],[-22,41],[-78,74],[-117,127],[-28,41],[-109,210],[-25,52],[-10,36],[-46,299],[-3,31],[2,134],[-48,206],[-4,94],[-1,164],[6,155],[2,143],[-2,266],[-5,70],[18,6],[72,56],[-64,181],[-4,25],[3,79],[0,85],[-15,113],[-5,58],[4,103],[-1,277],[-3,138],[-8,96],[7,68],[0,95],[8,40],[20,46],[13,16],[97,74],[-56,59],[-72,65],[-80,178],[-30,42],[-2,31],[16,69],[16,94],[16,68],[3,33],[-35,87],[-52,105],[0,91],[7,50],[26,29],[36,23],[54,41],[34,42],[69,116],[31,36],[8,38],[-27,56],[-71,197],[-10,100],[-14,38],[-59,103],[-5,21],[-34,64],[-5,32],[10,21],[-7,32],[58,29],[36,7],[-6,38],[-22,13],[-35,8],[-26,22],[-41,-7],[-17,15],[-34,50],[-33,-21],[-15,16]],[[6874,17463],[16,8],[16,38],[-11,40],[-23,31],[23,32],[48,18],[44,48],[32,19],[13,27],[14,98],[10,30],[38,43],[61,53],[28,7],[25,-5],[47,-21],[81,-1],[119,-9],[26,3],[8,26],[-13,44],[-27,54],[4,45],[15,24],[26,9],[63,-40],[53,-10],[56,6],[13,30],[-1,111],[1,73],[16,73],[32,80],[15,45],[28,14],[34,2],[41,30],[24,-5],[12,-12],[-42,-60],[4,-18],[35,-28],[60,7],[53,44],[15,47],[0,34],[-22,41],[13,23],[39,6],[26,15],[10,29],[-26,27],[-71,40],[-14,18],[19,34],[23,5],[24,42],[1,25],[23,47],[3,40],[-15,32],[12,37],[54,18],[9,-805],[-1,-229],[-2,-99],[-1,-916],[-1,-333],[4,-214],[-5,-71],[-2,-179],[2,-217],[4,-44],[112,-3],[1078,-5],[844,-3]],[[10712,11489],[-40,-64],[-21,-48],[-33,-111],[-1,-50],[11,-138],[6,-111],[10,-117],[4,-67],[-5,-33],[251,-102]],[[10894,10648],[-35,-84],[-69,-210],[-22,-59],[-48,-88],[-63,-83]],[[10657,10124],[-30,-38],[-78,-93],[-99,-104],[-95,-91],[-66,-58],[-113,-87]],[[6496,4606],[93,82],[115,99],[241,211],[28,42],[73,137],[21,33],[57,67],[215,242],[44,53],[57,95],[118,214],[114,203],[33,36],[132,113],[31,36],[14,23],[194,361],[108,203],[44,68],[70,75],[36,27]],[[10321,6285],[2,-9],[0,-147],[2,-71],[-1,-106],[-7,-38],[-38,-71],[-25,-59],[-36,-137],[-12,-67],[-3,-168],[3,-42],[16,-70],[14,-74],[36,-163]],[[10272,5063],[17,-53],[21,-55],[16,-76],[14,-43],[45,-104],[0,-33],[-10,-34],[-31,-51],[-25,-52],[-12,-42],[-7,-61],[-9,-26],[-42,-83],[-9,-50],[0,-34],[16,-88],[1,-33],[-16,-126],[4,-54],[22,-54],[67,-88],[17,-35],[53,-171]],[[10404,3617],[-81,0],[-34,-4],[-116,-42],[-188,-52],[-140,-28],[-30,1],[-56,21],[-110,47],[-23,14],[-41,54],[-24,21],[-117,39],[-59,26],[-147,24],[-16,5],[-71,44],[-39,9],[-85,-27],[-42,-24],[-21,-33],[-36,-69],[-20,-18],[-62,-15],[-28,11],[-63,55],[-35,19],[-50,3],[-92,-21],[-110,-22],[-30,41],[-29,52],[-78,180],[-4,25],[3,367],[1,27],[-10,46],[-17,39],[-55,108],[-13,-6],[-53,-81],[-33,-34],[-77,-28],[-111,-37],[-31,-18],[-45,-39],[-44,-21],[-58,-2],[-117,2],[-44,16],[-62,56],[-25,50],[-21,110],[-13,22],[-31,15],[-103,4],[-181,1],[-218,1],[-56,-1],[-282,7],[-79,-1],[-33,7],[-23,43]],[[17934,11781],[29,93],[29,100],[72,261]],[[18064,12235],[27,85],[80,286],[7,29],[24,79]],[[18202,12714],[159,-1],[33,2],[141,-1],[98,-2],[78,2],[522,3],[54,-1],[-31,-17],[-60,-23],[28,-58],[15,-10],[48,-61],[-29,-39],[-35,-70],[-168,-113],[-123,-39],[-76,69],[6,18],[44,43],[49,7],[29,87],[-157,55],[-9,-58],[41,-73],[-14,-25],[-90,-22],[2,-90],[-51,-78],[-50,-39],[-47,4],[-49,113],[-88,83],[-43,-40],[8,-134],[-23,-134],[-145,22],[34,-141],[73,-91],[-8,-65],[-48,-39],[-43,19],[-25,37],[-1,23],[-15,15],[-9,-41],[15,-65],[-48,-52],[16,-71],[51,-52],[33,-41],[-27,-39],[-24,-13],[-59,40],[-29,0]],[[18155,11518],[-33,31],[-17,1],[-32,-11],[-30,12],[-8,24],[-16,1],[-28,30],[23,25],[-19,36]],[[17995,11667],[-11,49],[-38,57],[-12,8]],[[10657,10124],[195,-245]],[[10852,9879],[29,-34],[94,-95],[323,-213],[412,-8],[2,108]],[[11712,9637],[1,82]],[[11713,9719],[3,141],[6,134],[-1,78]],[[11721,10072],[487,-345]],[[12208,9727],[-18,-188],[40,0],[162,-388],[32,-76]],[[12424,9075],[-166,2],[-47,8]],[[12211,9085],[-119,30],[-137,31],[-75,23],[-88,40],[-85,47]],[[11707,9256],[-126,60],[-65,20],[-35,16],[-45,3],[-44,-17],[-259,-147],[-79,-37],[-45,-40],[-24,-53],[-12,-9],[-50,-3],[-223,3],[-145,0],[-24,-10]],[[16361,12740],[137,3],[155,-1],[173,-7],[24,-6],[18,14]],[[16868,12743],[-14,-33],[-117,-230],[-131,-264]],[[16606,12216],[-46,0],[-128,-4]],[[16432,12212],[-25,49],[-26,36],[-21,45],[-5,45],[-11,47],[19,32],[6,60],[13,26],[-6,53],[5,31],[-11,31],[-21,27],[12,46]],[[11436,12743],[165,1],[101,-6],[90,8],[315,-2],[120,1],[351,0],[101,1],[218,-1],[272,0],[58,-4],[365,-2],[260,1]],[[13852,12740],[-1,-37],[-108,-286],[-61,-168],[3,-28],[17,-28],[4,-22],[-24,-111],[-17,-26]],[[13665,12034],[-25,-13],[-69,-15],[-75,-1],[-27,-6],[-30,-20],[-49,-45],[-69,-38],[-72,-52],[-103,-84],[-159,-139]],[[12987,11621],[-18,22],[-15,-10],[-19,22],[-7,27],[-26,-31],[-16,32],[-32,-24],[-10,17],[6,26],[-18,-2],[-34,19],[-20,32],[21,38],[-29,-7],[-19,21],[6,45],[16,19],[-38,28],[-23,36],[-21,10],[-20,30],[-11,2],[-6,40],[-32,34],[-12,24],[-12,-9],[-13,27],[0,22],[-25,-2],[-30,17],[-32,35],[-19,-3],[6,52],[-5,22],[-16,22],[-2,33],[-17,15],[-7,25],[-18,-26],[-22,19],[1,28],[-197,89],[-77,-185],[-26,-37],[-29,-23],[-81,-53],[-42,-43],[-65,-71],[-23,-43],[-7,-27],[-2,-74],[0,-257],[-4,-228],[-3,-137],[-8,-36],[-33,-78]],[[11802,11145],[-62,-150],[-16,-49]],[[11724,10946],[-82,40],[-15,11]],[[11627,10997],[-50,42],[-35,37],[-29,37],[-50,56],[-80,67]],[[14886,9973],[47,20]],[[14933,9993],[200,86],[54,7],[58,-2]],[[15245,10084],[72,-207],[17,-56]],[[15334,9821],[0,-128],[48,-56],[74,-71],[36,0],[-1,-62],[2,-84]],[[15493,9420],[-71,0]],[[15422,9420],[-38,71],[-26,37],[-161,188],[-47,40]],[[15150,9756],[-8,15],[-233,132],[-52,33],[-71,40]],[[14786,9976],[40,-9],[32,0],[28,6]],[[10424,3222],[87,-1],[554,0],[44,11],[42,34],[111,99],[65,35],[61,11],[18,14],[27,49],[12,10],[52,-2],[75,1],[189,26],[171,18],[63,3],[151,-6],[104,-8],[54,0],[45,4],[119,44]],[[13039,4477],[122,95],[97,79]],[[13258,4651],[13,-20],[24,12],[17,0],[25,-22],[-4,-21],[-18,-30],[-7,-41],[21,-27],[-16,-25],[18,-34],[-7,-14],[-28,-13],[-5,-23],[32,-13],[-6,-14],[-45,12],[-12,-7],[9,-38],[-6,-27],[5,-21],[22,-10],[8,22],[16,-1],[10,-27],[-14,-41],[10,-24],[19,-17]],[[12272,1633],[-22,2],[-75,-3],[-498,3],[-437,-1],[-141,0],[-322,4],[-88,0],[-157,-4],[-152,-1]],[[10380,1633],[-12,21],[-40,114],[-5,62],[38,138],[30,97],[16,44],[11,42],[-5,52],[-13,77],[1,69],[49,197],[7,60],[-6,74],[-7,60],[-8,25],[-44,84],[-4,46],[20,61],[6,51],[-14,87],[3,47],[21,81]],[[10146,15908],[335,2],[414,1],[340,2],[110,-4],[10,-7],[698,6],[983,-1],[823,-1],[251,-3],[-2,-99],[0,-362],[-2,-883],[-1,-345],[2,-187],[0,-234],[3,-936],[-4,-120]],[[14106,12737],[-254,3]],[[17742,12715],[295,0]],[[18037,12715],[-3,-36],[-8,-29],[-111,-244],[-46,-86]],[[17869,12320],[-44,35],[23,22],[-44,74],[-7,83],[6,53],[-36,4],[-24,13],[-11,34],[10,77]],[[12963,9114],[2,77]],[[12965,9191],[66,-47]],[[13031,9144],[81,-56],[76,-56],[284,-202],[65,-37],[49,-18]],[[13586,8775],[0,-133]],[[13586,8642],[1,-90],[3,-26],[38,-146],[10,-15],[-75,-36],[-34,-22],[-19,-18],[-160,-178]],[[13350,8111],[-175,-196],[-34,-35],[-78,-69]],[[13063,7811],[-39,54],[-18,59],[-33,53],[-19,23],[-42,66],[-32,77]],[[12880,8143],[-19,44],[-15,51],[-17,79],[8,70],[-2,86],[-6,78],[3,124],[9,54],[44,56],[56,113],[10,33],[11,126],[1,57]],[[13447,6392],[282,0],[80,-1],[179,-7],[13,3],[225,-3]],[[14226,6384],[-11,-41],[-33,-167],[-94,-287],[-38,-66],[-27,-56],[-41,-71]],[[13982,5696],[-275,206],[-33,27],[-125,118],[-15,17],[-40,112],[-19,46],[-28,84],[0,86]],[[10272,5063],[181,-1],[34,-6],[69,-23],[35,-3],[179,31],[96,7],[252,1],[319,0],[22,8],[70,72]],[[11529,5149],[63,-82],[11,-25]],[[10424,3222],[4,43],[-5,258],[-3,34],[-16,60]],[[12566,5067],[231,2],[21,12],[42,-7],[84,1],[-4,96],[-1,253],[-1,86]],[[12938,5510],[56,-54]],[[12994,5456],[153,-91],[65,-41],[30,-29],[73,-77]],[[13315,5218],[70,-70],[36,-23],[76,-37],[21,-14],[100,-83]],[[13618,4991],[-95,-120],[-52,-51],[-98,-79],[-115,-90]],[[15869,10619],[36,0],[-2,-142],[110,-2],[68,-4]],[[16081,10471],[-22,-67],[-1,-53],[11,-34],[28,-42]],[[16097,10275],[-7,-35],[-3,-161]],[[16087,10079],[-188,2]],[[15899,10081],[-136,0]],[[15763,10081],[83,396],[-5,2],[28,140]],[[15245,10084],[224,-2]],[[15469,10082],[78,1]],[[15547,10083],[-1,-131]],[[15546,9952],[-162,-1],[0,-64],[16,0],[1,-68],[-67,2]],[[14721,10010],[65,-34]],[[15150,9756],[-73,-124],[-4,-22]],[[15073,9610],[-87,57],[-25,-85],[-14,-24]],[[14947,9558],[0,3],[-172,1],[-61,-2]],[[14714,9560],[8,48],[-3,136],[17,25],[-100,77],[-38,53]],[[14598,9899],[35,27],[75,69],[13,15]],[[15422,9420],[-49,-3],[-33,-34],[-2,-96]],[[15338,9287],[-164,3],[1,142],[-50,1],[0,47],[10,24],[27,30],[-37,37],[-52,39]],[[13844,10045],[2,108]],[[13846,10153],[108,-40],[18,-4]],[[13972,10109],[59,0]],[[14031,10109],[-28,-105],[-10,-56],[-1,-81],[5,-41],[232,0],[0,-97],[23,-14],[43,-43],[18,-12]],[[14313,9660],[3,-83]],[[14316,9577],[-97,1],[-75,-1],[-115,2],[8,-66],[23,-171]],[[14060,9342],[-38,-4],[-182,-37]],[[13840,9301],[3,449],[1,53],[0,242]],[[13478,5815],[31,-16],[9,-14],[53,-6],[38,-16],[34,-52],[28,-29],[37,-27],[-1,-20],[16,-10],[27,-37],[4,-26],[24,-55],[0,-20],[20,-10],[7,-15],[-14,-19],[22,-24],[32,-4],[-3,-28],[4,-56],[20,-1]],[[13866,5330],[-14,-43],[-29,-50],[-162,-191],[-43,-55]],[[13315,5218],[78,2],[6,27],[27,39],[-3,62],[19,7],[72,48],[47,39],[29,-13],[33,11],[13,49],[31,20],[7,12],[2,97],[-9,21],[-36,4],[-14,-9],[-73,-83],[-38,33],[-67,41],[3,73],[1,103],[35,14]],[[13073,6277],[29,-28],[7,-42],[9,-25],[48,-85],[22,-24],[46,-33],[33,-47],[52,-45],[10,-28],[74,-33],[38,-46],[37,-26]],[[12994,5456],[50,87],[19,62],[2,205],[4,228],[15,56],[2,45],[-11,53],[-2,85]],[[12418,6657],[25,194],[2,76]],[[12445,6927],[252,-3],[220,1],[154,1]],[[13071,6926],[5,-251],[0,-224],[-3,-174]],[[12938,5510],[-57,57],[-25,15],[-32,10],[-141,6],[-35,10]],[[12648,5608],[-36,35],[-12,33],[-22,115],[-12,74],[3,107],[-1,116],[-4,144],[-3,32],[-13,35],[-67,130],[-52,75],[-18,49],[0,48],[7,56]],[[13071,6926],[104,-2],[274,-3]],[[13449,6921],[0,-200],[-2,-266],[0,-63]],[[13982,5696],[-24,-52],[-39,-130],[-53,-184]],[[11136,9975],[30,-39],[31,-2],[0,-15],[32,1],[2,-93],[45,-3],[-1,-15],[-20,-54],[-2,-20],[237,-2],[-5,-47],[6,-31],[15,-8],[57,-4],[9,-14],[1,-32],[42,1],[27,27],[28,14],[42,-2]],[[10852,9879],[28,-1],[82,22],[83,15],[30,11],[61,49]],[[16097,10275],[59,176],[24,35],[82,49],[25,29],[44,72],[37,36],[66,38]],[[16434,10710],[88,49],[75,43],[0,6],[48,42],[11,27],[50,-14]],[[16706,10863],[-24,-49],[-131,-253],[-54,-98],[-22,-70],[-4,-56]],[[16471,10337],[1,-48],[6,-33],[44,-138]],[[16522,10118],[6,-36],[-18,-36],[-21,-13],[-43,5],[-34,22],[-68,15],[-147,4]],[[16197,10079],[-110,0]],[[15838,9555],[181,-2]],[[16019,9553],[77,0]],[[16096,9553],[-11,-90],[78,-14],[-11,-74],[-79,12],[-5,-40],[-37,6],[-2,-11],[-40,8],[-10,-73]],[[15979,9277],[-109,18]],[[15870,9295],[6,32],[-41,4],[0,138],[3,86]],[[16096,9553],[216,-3],[50,-28]],[[16362,9522],[75,-45],[-51,-142],[-34,-118],[-122,20],[-251,40]],[[13002,9749],[340,-205]],[[13342,9544],[-4,-88],[-249,2],[-2,-177],[0,-124],[-56,-13]],[[12965,9191],[0,111]],[[12965,9302],[-1,135],[2,155],[21,50],[-6,55],[2,16],[19,36]],[[15546,9952],[0,-134],[-2,-264]],[[15544,9554],[-1,-133]],[[15543,9421],[-50,-1]],[[13665,12034],[127,-146]],[[13792,11888],[-27,-24],[-52,-31],[-6,-19],[-119,-111],[-65,-72],[-19,-11],[-57,-14],[-33,-29],[-28,-15],[25,-40],[24,-23],[30,6],[5,-34],[-1,-48],[1,-267]],[[13470,11156],[-107,2],[-106,-1],[-282,4]],[[12975,11161],[1,146],[-13,115],[-9,49],[-27,94],[60,56]],[[12467,10745],[93,67],[57,38],[191,136],[32,-43],[94,116],[41,29]],[[12975,11088],[-1,-163],[-2,-147],[-5,-115]],[[12967,10663],[-13,5],[-57,6],[-311,28],[-38,8]],[[12548,10710],[-28,7],[-53,28]],[[15902,10738],[83,192]],[[15985,10930],[15,-5],[96,5]],[[16096,10930],[-5,-70],[-6,-183],[-2,-186],[-2,-20]],[[15869,10619],[11,50],[22,69]],[[13468,10686],[1,-188]],[[13469,10498],[0,-217]],[[13469,10281],[-96,38]],[[13373,10319],[-25,9],[-134,35]],[[13214,10363],[1,291],[17,44],[2,47],[146,-2],[22,-13],[50,-41],[16,-3]],[[13469,10498],[199,-4],[58,-26],[48,-6],[36,-10],[46,-24],[42,-34],[4,-26],[53,-83],[15,-6],[2,-170]],[[13846,10153],[-356,119],[-21,9]],[[12975,11161],[-256,-2],[-281,-1]],[[12438,11158],[2,61],[8,29],[14,20],[80,83],[21,18],[-14,19],[-31,-21],[-149,-44],[-70,-40],[-110,-38],[-60,-26],[-122,-17],[-45,-10],[-75,-30],[-37,-11],[-48,-6]],[[15972,12201],[144,2],[82,3]],[[16198,12206],[234,6]],[[16606,12216],[-41,-85],[-55,-110]],[[16510,12021],[-93,-191],[-27,-52]],[[16390,11778],[-92,-186]],[[16298,11592],[-71,35],[-59,18],[-63,0],[-40,13],[-97,79]],[[15968,11737],[0,104],[4,360]],[[13449,6921],[418,0],[123,-1],[261,0],[51,25]],[[14302,6945],[5,-21],[28,-30],[27,-20],[53,-25]],[[14415,6849],[-32,-74],[-36,-101],[-30,-105],[-15,-44],[-26,-54],[-40,-66],[-10,-21]],[[13586,8775],[172,-44]],[[13758,8731],[82,-22],[61,-11],[54,-5],[65,-1],[95,7],[93,4]],[[14208,8703],[-3,-163]],[[14205,8540],[-94,3],[1,-46],[17,-71],[-27,-85],[-6,-48],[3,-104]],[[14099,8189],[-88,0],[-184,5]],[[13827,8194],[2,175],[-3,62],[-10,57],[1,123],[-58,29],[-173,2]],[[13794,9271],[25,22],[21,8]],[[14060,9342],[135,4],[69,-2]],[[14264,9344],[2,-166],[-7,-1],[-2,-156],[5,-15]],[[14262,9006],[-9,-14]],[[14253,8992],[-100,61],[-29,21],[-93,55]],[[14031,9129],[-62,38],[-128,74],[-47,30]],[[18037,12715],[86,-2],[79,1]],[[18064,12235],[-62,1],[-51,-17],[-89,2],[-38,19]],[[17824,12240],[45,80]],[[17671,11969],[20,29],[41,74]],[[17732,12072],[73,133]],[[17805,12205],[19,35]],[[17934,11781],[-30,44],[-20,19],[-28,15],[-83,26],[-50,31],[-23,19],[-29,34]],[[17605,12713],[137,2]],[[17805,12205],[-56,81],[-105,168],[-48,89],[-3,30]],[[17593,12573],[12,140]],[[14714,9560],[1,-21],[-4,-168],[1,-74]],[[14712,9297],[-35,1],[-91,12],[-15,-1]],[[14571,9309],[2,394],[-2,150],[5,23],[22,23]],[[14313,9660],[59,3],[64,31],[26,2],[0,103],[24,27]],[[14486,9826],[16,18],[68,94],[11,-14],[60,122],[2,9]],[[14643,10055],[78,-45]],[[14571,9309],[-85,2]],[[14486,9311],[-33,1],[-87,14]],[[14366,9326],[-8,221],[-46,1],[4,29]],[[14224,11143],[2,21],[112,97]],[[14338,11261],[226,-258]],[[14564,11003],[-10,-51],[-19,-65],[-29,-57],[-6,-50],[-29,-44],[-19,-15],[-21,-32],[22,-35],[1,-19],[26,-64],[81,-189],[49,-109],[83,-117],[35,-46],[47,-26],[58,-50],[53,-61]],[[14643,10055],[-135,77],[-43,23]],[[14465,10155],[21,43],[-24,53],[2,168],[-6,23],[-22,20],[-83,54],[-19,5],[-112,1]],[[14222,10522],[-1,496],[3,125]],[[14415,6849],[14,-14],[30,-51],[60,-65],[46,-14],[240,64],[27,-5],[105,258]],[[14937,7022],[32,103],[44,178],[49,211]],[[15062,7514],[28,126],[7,52],[2,60],[-9,128],[-8,86]],[[15082,7966],[483,-6],[13,14],[2,271]],[[15580,8245],[21,2],[23,-24],[37,2],[11,-25],[26,-19],[14,-24],[3,-22],[49,-14]],[[15764,8121],[-9,-79],[-12,-148],[21,-9],[92,-22],[-2,-118],[-70,-58],[-112,30],[-32,16],[-86,6],[-3,-95],[-93,-94],[-122,-29],[-32,-26],[-12,-68],[-67,-55],[-5,-76],[14,-83],[-9,-58],[105,-22],[61,-43],[9,-116],[-139,-13],[-9,-71],[49,-68],[-50,-76],[-127,65],[-7,-23],[72,-90],[26,-54],[36,-39],[74,-41],[53,-55],[54,-48],[29,-39],[22,-15],[44,-3],[61,11],[26,15],[14,52],[28,-24],[-2,-46],[-13,-36],[-2,-38],[6,-20],[44,-53],[31,-16],[72,-49],[11,-34],[-5,-23],[-41,-63],[-26,-21],[-28,-33],[-18,-66],[-42,-99],[4,-37],[37,-35],[29,-11],[6,-14],[-10,-18],[-38,-28],[-19,-25],[-4,-43],[6,-28],[23,-26],[111,-24],[102,-9],[22,-14],[-15,-15],[-58,-39],[-47,-46],[-16,-43],[-19,-64],[-16,-32],[-41,-22],[-16,4],[-29,25],[-19,32],[-8,25],[-16,21],[-19,43],[-19,10],[-14,-5],[-42,-64],[-41,-46],[32,-100],[-4,-16],[-51,-64],[5,-39],[61,-39],[9,-24],[-22,-95],[-20,0],[-16,61],[-28,37],[-25,3],[-28,-5],[-58,-50],[-29,-2],[-19,19],[-19,64],[-6,36],[13,25],[3,28],[-10,13],[-24,-1],[-28,-18],[-74,-82],[-29,-61],[-9,-60],[-41,-68],[-17,-88],[-12,-28],[-19,-13],[-62,-3],[-190,-52],[-60,-30],[-38,6],[-26,36],[-22,5],[-108,-86],[-26,-32],[-50,-75],[-23,-14],[-28,-4],[-35,14],[-19,29],[-6,26],[10,82],[-6,28],[-81,12],[-35,-3],[-51,-11],[-19,-11],[-22,-35],[-25,-87],[-16,-37],[-15,-69],[35,-200],[10,-47],[5,-51],[5,-84],[17,-68],[30,-78],[8,-40],[-10,-22],[-144,-47],[-44,-5]],[[5261,3303],[157,178],[28,22],[57,29],[122,52],[92,42],[341,175],[40,25],[40,38],[33,49],[16,34],[89,235],[12,46],[8,65]],[[6296,4293],[7,38],[27,62],[65,111],[30,38],[71,64]],[[10380,1633],[-45,-15],[-144,-98],[-151,-107],[-48,-32],[-45,-12],[-315,2],[-149,-2],[-113,7],[-228,-2],[-230,-3],[-185,1],[-220,3],[-57,-2],[-227,-1],[-53,-15],[-128,-65],[-33,-25],[-87,-87],[-24,-39],[-8,-32],[-197,3],[-30,10],[-68,52],[-258,176],[-78,68],[-31,37],[-16,50],[-2,207],[-9,35],[-26,33],[-212,171],[-36,25],[-275,165],[-167,103],[-308,183],[-101,63],[-33,9],[-24,1],[-83,-9],[-34,11],[-60,42],[-246,171],[-35,28],[-19,27]],[[5542,2770],[-87,189],[-50,51],[-15,22],[-78,195],[-51,76]],[[12485,5477],[114,100],[27,27],[22,4]],[[11345,48],[-680,0],[-380,6],[-456,-1],[-777,-3],[-973,-5],[-494,3],[-723,8],[-213,5],[-312,3],[-122,-3]],[[6215,61],[-1,161],[1,93],[-3,22],[-17,30],[-46,49],[-8,15],[-26,71],[-35,16],[-64,38],[-42,34],[-140,124],[-129,110],[-92,56],[-90,38],[-62,18],[-71,14],[-147,15],[-49,6],[-6,85],[-15,94],[-32,83],[-7,28],[3,26],[43,108],[21,37],[39,41],[26,36],[129,195],[3,34],[-70,61],[-7,3],[29,54],[-4,128],[6,36],[20,34],[-1,20],[-17,20],[-8,28],[-2,224],[4,81],[9,15],[73,-1],[16,5],[24,35],[16,110],[4,53],[40,116],[12,10]],[[5077,6478],[91,71],[64,55],[70,71],[63,75],[30,40],[127,188],[42,58],[59,69],[56,56],[47,40],[69,49],[62,39],[59,28],[83,33],[145,54],[56,30],[33,22],[80,60],[112,106],[47,38],[105,64],[75,34],[95,37],[98,46],[61,39],[67,54],[40,38],[40,48],[65,83],[60,71],[31,31],[51,44],[78,51],[44,23],[108,46],[56,20],[78,24],[117,28],[65,12],[75,9],[202,21],[74,11]],[[6296,4293],[-136,3],[-210,1],[-26,3],[-91,24],[-115,27],[-64,5],[-84,1],[-100,-11],[-25,6],[-26,29],[0,34],[15,57],[3,101],[-11,45],[-29,68],[-33,66],[-15,37],[-6,65],[1,237],[-7,80],[4,65],[65,-16],[148,2],[5,23],[25,42],[1,46],[-31,29],[-20,35],[-1,28],[15,11],[22,33],[11,64],[52,75],[10,19],[6,29],[24,27],[8,21],[33,7],[6,59],[9,25],[-4,15],[-29,6],[3,26],[-40,32],[4,57],[-11,9],[6,21],[-22,0],[-13,42],[-30,-11],[-23,1],[-7,15],[-41,-9],[-12,34],[-16,-8],[-7,23],[-21,-9],[-25,1],[-12,23],[-29,5],[-36,29],[-20,29],[-16,-6],[-8,40],[7,11],[-29,36],[-19,9],[2,44],[11,11],[-7,19],[-29,23],[-23,1],[-8,16],[-19,12],[-1,42],[-16,16],[-54,8],[-58,70]],[[15592,10932],[2,-192]],[[15594,10740],[-2,-131],[-164,1]],[[15428,10610],[-27,59],[-67,185]],[[15334,10854],[12,6],[-6,69],[103,-4],[20,7],[129,0]],[[12967,10663],[42,-29],[4,-11],[6,-260],[195,0]],[[13373,10319],[-27,-112],[170,-104],[48,-28],[67,-24],[45,-7],[57,-2],[111,3]],[[13794,9271],[-452,273]],[[13002,9749],[-378,229]],[[12624,9978],[-31,125],[-1,20],[3,240],[-56,1]],[[12539,10364],[2,36],[9,17],[3,32],[-5,48],[6,46],[-13,34],[-7,51],[7,26],[-4,25],[11,31]],[[16843,11529],[38,240],[18,111],[21,142]],[[16920,12022],[18,109],[10,74]],[[16948,12205],[51,-2],[15,-6],[40,-35],[15,0]],[[17069,12162],[-2,-151]],[[17067,12011],[1,-483]],[[17068,11528],[-207,0],[-18,1]],[[14441,8690],[2,177],[3,9]],[[14446,8876],[187,-112],[52,-29],[79,-36],[50,-20],[77,-23],[56,-13],[137,-22]],[[15084,8621],[116,-15]],[[15200,8606],[-38,-51],[-90,-106],[-37,-47],[-74,-110],[-15,-31]],[[14946,8261],[-110,2],[-111,-5],[-20,5],[-19,19],[-22,73],[2,142],[-81,2],[8,-57],[-2,-100]],[[14591,8342],[-148,4],[1,113],[-5,109],[2,122]],[[15835,9815],[63,-1],[-2,78],[3,189]],[[16087,10079],[-59,-195],[-17,-66]],[[16011,9818],[-3,-144],[11,-121]],[[15838,9555],[-3,131],[0,129]],[[13758,8731],[60,0],[35,9],[29,14],[35,27],[30,41],[23,58],[37,185],[24,64]],[[14253,8992],[193,-116]],[[14441,8690],[-142,14],[-91,-1]],[[14205,8540],[90,-3],[0,-175],[18,-72],[6,-41]],[[14319,8249],[-34,1],[-53,21],[-8,-30],[-3,-52],[-94,0]],[[14127,8189],[-28,0]],[[14591,8342],[-3,-189]],[[14588,8153],[-48,-6],[-70,26],[-103,41],[-47,3]],[[14320,8217],[-1,32]],[[14320,8217],[7,-85],[26,-119],[10,-42]],[[14363,7971],[-198,1]],[[14165,7972],[-6,49],[28,8],[-2,35],[-40,36],[-10,16],[-8,73]],[[14946,8261],[-92,-264],[-9,-29]],[[14845,7968],[-260,2]],[[14585,7970],[3,183]],[[14360,7789],[11,-7],[19,-47],[137,-70],[2,59],[48,1],[0,88],[6,29],[2,128]],[[14845,7968],[-13,-50],[-25,-117],[-19,-69]],[[14788,7732],[-42,-129]],[[14746,7603],[-11,-37]],[[14735,7566],[-139,5],[-78,-1],[-194,4]],[[14324,7574],[2,151],[26,37],[8,27]],[[14845,7968],[124,-1]],[[14969,7967],[-1,-266],[-24,-43],[-32,-12],[-16,36],[-73,1],[-10,48],[-25,1]],[[14939,11139],[213,1]],[[15152,11140],[73,-62],[46,-62],[20,-44],[43,-118]],[[15428,10610],[17,-25]],[[15445,10585],[-71,8],[-30,17],[-130,1]],[[15214,10611],[2,232],[-59,0],[2,143],[-296,0]],[[14863,10986],[32,40],[41,66],[3,47]],[[15593,11136],[-1,-171]],[[15592,10965],[0,-33]],[[15152,11140],[189,0],[252,-4]],[[12975,11088],[0,73]],[[13470,11156],[0,-283],[-2,-187]],[[13470,11156],[754,-13]],[[14222,10522],[1,-122],[-1,-197],[1,-50]],[[14223,10153],[1,-66]],[[14224,10087],[-52,1],[-82,7],[-59,14]],[[14863,10986],[-66,1],[0,-71]],[[14797,10916],[-4,-29],[-13,-15],[-60,1]],[[14720,10873],[-4,120],[20,146],[203,0]],[[12965,9302],[-87,2],[2,134],[-133,5],[22,64],[-23,75],[2,33],[0,175],[-24,10],[-48,6],[-21,7],[-16,22],[4,47],[-19,96]],[[14947,9558],[-2,-132],[2,-135]],[[14947,9291],[-69,1],[-166,5]],[[14947,9291],[-1,-66],[2,-125],[-1,-47],[4,-19]],[[14951,9034],[-28,-9],[-102,2],[-251,1]],[[14570,9028],[0,17],[-40,25],[-35,36],[-31,47],[6,49],[11,31],[6,34],[-1,44]],[[14264,9344],[102,-18]],[[14570,9028],[-269,2],[-29,-12],[-10,-12]],[[15073,9610],[-17,-53],[0,-98],[-3,-145],[1,-91]],[[15054,9223],[2,-68],[-3,-124],[-5,-6],[-77,1],[-18,6]],[[14953,9032],[-2,2]],[[14224,10087],[16,0],[33,-35],[124,-67],[47,-24],[0,-19],[33,-27],[-52,-73],[-22,7],[1,-25],[82,2]],[[12424,9075],[322,0],[59,1],[87,19],[71,19]],[[12880,8143],[-47,-72],[-33,-43],[-54,-35],[-44,-13],[-74,-2],[-175,2],[-3,-139],[1,-111],[3,-18],[-4,-135],[-18,-33],[-25,-30],[-59,-47],[-53,-20],[-52,-8]],[[12243,7439],[-42,163],[2,232],[-2,247],[3,316],[2,83],[1,379],[3,77],[1,149]],[[12243,7439],[15,-30],[19,-24]],[[12277,7385],[53,-48],[104,-82],[13,-28],[2,-35]],[[12449,7192],[-4,-265]],[[12418,6657],[-197,3],[-269,2],[-8,6],[3,325],[-250,0],[1,345],[1,62],[-185,82],[-96,44],[-63,26]],[[11355,7552],[19,60],[1,29],[-39,234]],[[11336,7875],[-10,96],[-5,94],[8,84],[13,50],[176,475],[37,44],[7,15],[27,114],[11,26],[55,77],[7,29],[10,150],[7,45],[28,82]],[[16011,9818],[174,-3],[-1,-75]],[[16184,9740],[-1,-62],[-38,-23],[0,-66],[-47,0],[-2,-36]],[[16197,10079],[-1,-9],[110,-1],[5,-10],[0,-103],[68,0],[-1,-215],[-194,-1]],[[15543,9421],[101,1],[2,-154]],[[15646,9268],[2,-131],[-3,-60],[8,-19],[-61,9]],[[15592,9067],[-38,1],[-23,-6],[-63,-33],[-9,-8]],[[15459,9021],[-121,-1],[-1,199]],[[15337,9219],[1,68]],[[15592,9067],[0,-31],[-4,-240]],[[15588,8796],[-187,-2],[-78,1]],[[15323,8795],[70,113],[44,45],[22,68]],[[15291,8743],[32,52]],[[15588,8796],[-3,-223],[-1,-37]],[[15584,8536],[-69,14],[-86,21],[-76,14],[-153,21]],[[15200,8606],[37,49],[54,88]],[[15584,8536],[-2,-43],[-1,-238],[-1,-10]],[[15082,7966],[-113,1]],[[14953,9032],[-2,-89],[25,-1],[-15,-53]],[[14961,8889],[-3,-28],[87,-1],[-5,-184],[44,-1],[0,-54]],[[11229,10039],[13,-32],[34,-30],[19,-40],[27,-21],[31,-1],[38,24],[9,-19],[1,-91],[12,-14],[149,-6],[13,-17],[-2,-84],[36,-1],[41,-9],[34,22],[29,-1]],[[11136,9975],[70,45],[23,19]],[[13063,7811],[-43,-56]],[[13020,7755],[-81,-116],[-47,-55],[-63,-69]],[[12829,7515],[-123,66],[-15,0],[-68,-58],[-18,-5],[-65,10],[-39,-4],[-27,-14],[-65,-53],[-47,-7],[-21,-11],[-64,-54]],[[12829,7515],[-113,-120],[-90,-99],[-34,-30],[-47,-30],[-59,-32],[-37,-12]],[[11229,10039],[61,68],[20,37],[27,73],[21,90],[6,44]],[[11364,10351],[83,-71],[112,-92],[162,-116]],[[16096,10930],[119,0],[47,6],[163,-12]],[[16425,10924],[-10,-5],[-5,-28],[16,-82],[0,-29],[12,-32],[-4,-38]],[[17068,11528],[100,1],[36,8],[21,13],[125,100],[18,17]],[[17368,11667],[31,-3],[81,-1]],[[17480,11663],[23,-123],[-1,-18],[-22,-32],[-7,-21],[6,-36]],[[17479,11433],[-91,-2],[-231,1],[-87,7]],[[17070,11439],[-2,89]],[[14585,7970],[-222,1]],[[424,7454],[19,27],[23,57],[9,7],[56,6],[28,28],[27,-2],[9,24],[-13,23],[7,21],[77,7],[12,23],[-22,30],[-40,-2],[-24,19],[-6,25],[6,16],[18,14],[24,0],[14,-37],[30,-5],[17,19],[32,28],[35,2],[16,11],[-6,18],[-44,-1],[-13,9],[-2,20],[-14,11],[-28,0],[-16,19],[7,36],[40,2],[3,23],[-14,30],[14,3],[28,-18],[13,-26],[15,-7],[15,10],[0,20],[-18,55],[6,26],[25,-18],[17,-28],[26,0],[22,21],[27,40],[-6,24],[22,7],[16,-12],[28,-6],[17,12],[-4,28],[-19,18],[-6,20],[43,-18],[23,48],[20,0],[7,-20],[-1,-39],[66,4],[11,-7],[13,-42],[13,-5],[16,14],[19,-18],[19,-32],[50,-23],[15,12],[7,27],[17,6],[12,-11],[43,-61],[24,3],[19,-10],[-2,-46],[27,11],[48,-40],[73,-36],[30,9],[15,-8],[24,-48],[17,7],[7,32],[22,-1],[37,-49],[25,-4],[71,-40],[20,-3],[18,23],[29,-39],[43,-23],[-40,-78],[-63,-89],[-14,-49],[-17,-24],[-26,-11],[-29,-27],[-16,-44],[-8,-8],[32,-20],[29,-36],[27,-85],[10,-21],[29,-29],[57,-37],[14,-15],[24,16],[23,5],[45,-9],[71,-37],[58,-53],[-9,-19],[34,-4],[47,-45],[60,-85],[52,-38],[45,-21],[67,-21],[94,-50],[56,-16],[162,-19],[23,-5],[51,-26],[105,-95],[34,-25],[164,-91],[72,-37],[27,-8],[77,8],[39,-8],[122,-62],[36,1],[89,25],[70,8],[35,-8],[30,-16],[40,-44],[94,-156],[19,-24],[48,-25],[88,-14],[31,-18],[68,-61],[18,-10],[61,-19],[234,101],[162,82],[40,14],[240,44],[63,13],[71,74],[55,52],[88,73]],[[5261,3303],[-21,-20],[-32,-22],[-44,-17],[-48,-3],[-81,4],[-257,-3],[-24,-3],[-51,-25],[-27,-29]],[[4676,3185],[-34,22],[-23,2],[-68,-11],[-94,-31],[-47,-28],[-33,-15],[-25,-4],[-77,10],[-130,1],[-99,-23],[-20,7],[-100,46],[-81,10],[-54,11],[-54,6],[-173,7],[-81,-2],[-135,-16],[-27,0],[-32,10],[-47,33],[-26,7],[-99,4],[-65,19],[-102,6],[-55,22],[-34,106],[-171,42],[-157,44],[-39,6],[-97,-3],[-30,-6],[-211,-48],[-184,-36],[-73,-17],[-45,-28],[-18,-27],[-24,-13],[-130,3],[-61,-6],[-36,9],[-30,26],[-78,94],[-55,53],[-40,26],[-120,85],[-44,29],[-117,86],[-17,19],[-16,31],[-41,97],[-10,37],[7,61],[-61,-19],[-89,-32],[-155,-81],[-45,-19],[-66,-22],[-148,-35],[-59,-11],[-93,-24],[-43,-17],[-73,-37],[-63,-43],[-25,-21]],[[104,3587],[-12,230],[-5,32],[-10,277],[-8,158],[-5,384],[-22,650],[-16,397],[-16,364],[-6,219],[-4,103],[27,42],[25,58],[37,72],[0,17],[-45,41],[-6,16],[5,34],[15,76],[0,133],[-11,57],[3,48],[26,24],[72,-5],[37,58],[87,90],[23,18],[58,31],[13,21],[1,27],[-12,36],[8,36],[11,12],[45,25],[17,19],[3,41],[-15,26]],[[15974,12514],[35,0],[-1,60],[63,22],[27,29],[41,-40],[63,-24],[-1,-170],[-3,-185]],[[15972,12201],[2,313]],[[11529,5149],[-19,20],[-39,31],[-38,35],[-61,84],[-18,17],[-68,45],[-59,64],[-20,37],[-4,31],[-6,96],[-27,82],[-45,152],[-6,28],[17,239],[-9,35],[-46,90],[-5,26],[12,53],[15,21],[81,74],[11,24],[3,55],[3,218],[4,58],[19,112],[17,25],[56,46],[24,37],[2,20],[-2,114],[-1,101],[5,36],[21,93],[5,57],[4,147]],[[15835,9815],[-128,2]],[[15707,9817],[17,71],[22,114],[17,79]],[[11336,7875],[-237,-53],[-226,-53],[-88,-19],[-89,-25],[-59,-26],[-43,-25],[-34,-25],[-148,-115],[-42,-24],[-49,-19]],[[12083,10840],[47,11],[3,13],[73,64],[46,56],[43,66],[38,66],[18,24],[31,17],[56,1]],[[12467,10745],[-39,15],[-54,7],[-115,10],[-56,16],[-70,7]],[[12133,10800],[-26,3],[-20,13],[-4,24]],[[15766,11504],[200,-2]],[[15966,11502],[-2,-374]],[[15964,11128],[-128,3]],[[15836,11131],[-13,44],[-3,50],[2,105],[-1,69],[-34,47],[-21,58]],[[14106,12737],[134,-10],[125,6],[165,0],[154,2],[366,1],[247,2],[170,-1],[317,1],[277,4]],[[16061,12742],[-120,-101]],[[15941,12641],[-293,-253],[-222,-193],[-82,-69]],[[15344,12126],[-266,-230],[-151,-127],[-129,-110],[-321,-279],[-139,-119]],[[14338,11261],[-44,49],[-117,136],[-198,225],[-187,217]],[[12208,9727],[3,30],[33,33],[41,13],[33,4],[9,17],[25,14],[31,25],[18,4],[34,41],[5,19],[-4,36],[21,29],[52,56]],[[12509,10048],[115,-70]],[[908,10843],[153,-78],[54,-17],[351,-55],[189,-28],[-5,-133],[1,-136],[10,-23],[163,-205],[9,-17],[33,-219],[16,-95],[10,-84],[0,-68],[-4,-71],[709,-19],[446,-10],[140,-4],[145,1],[190,-6],[45,-7],[266,18],[214,7],[146,-3],[154,1],[-90,68]],[[4253,9660],[24,21],[32,16],[79,93],[40,49],[117,136],[12,17],[6,53],[1,144],[0,152],[-6,48],[139,3],[94,25],[96,-12],[64,-29],[17,-2],[60,9],[62,36],[191,59],[100,37],[237,80],[30,13],[144,47],[17,8],[113,37],[97,34],[43,8],[79,-13],[63,-8],[316,-52],[76,-8],[109,-3],[104,1],[355,-3],[19,-6],[127,-22],[38,4],[120,43],[240,89]],[[424,7454],[-40,67],[-18,-4],[-17,-65],[-10,-16],[-25,-22],[-27,-13],[-21,2],[-16,16],[-3,25],[7,26],[16,27],[46,51],[-6,29],[-40,26],[-31,-12],[-14,-42],[-30,-18],[-16,11],[2,64],[-23,21],[-26,-4],[-45,-16],[-44,3],[-21,11],[-10,26],[15,11],[42,16],[135,56],[15,1],[50,28],[30,1],[33,-11],[52,10],[37,19],[23,27],[8,21],[-1,39],[-11,45],[-17,8],[-72,-28],[-26,-4],[-21,10],[-74,84],[1,13],[23,36],[77,17],[7,12],[-30,91],[-12,56],[-35,42],[-4,21],[8,21],[35,16],[43,-18],[30,-48],[35,3],[8,19],[7,51],[16,44],[18,23],[78,42],[33,27],[50,27],[14,18],[3,28],[-14,58],[4,33],[31,18],[116,-9],[47,29],[10,14],[-8,38],[-27,-5],[-21,-16],[-47,-10],[-12,23],[-76,75],[-9,23],[8,43],[37,3],[18,-13],[21,-30],[21,-14],[27,17],[-26,78],[14,37],[51,16],[12,10],[16,48],[14,19],[24,11],[86,11],[-1,26],[-59,87],[-17,49],[10,57],[29,21],[29,13],[8,28],[-24,28],[-72,9],[-30,29],[-6,30],[5,28],[40,62],[1,28],[-7,17],[-29,11],[-53,-20],[-45,-26],[-20,1],[-10,24],[13,33],[-10,37],[-26,21],[-13,26],[-3,36],[-31,12],[-24,24],[-4,45],[6,21],[25,13],[23,-13],[16,-33],[26,-35],[37,-15],[8,19],[-9,166],[-8,54],[-25,24],[-25,43],[7,20],[47,28],[19,21],[18,34],[17,45],[21,33],[36,31],[11,17],[0,35],[-11,47],[-2,28],[19,112],[-2,21],[-28,0],[-37,-97],[-21,-14],[-34,6],[-25,24],[-37,75],[-37,27],[-21,24],[-6,36],[11,37],[30,83],[12,71],[18,54],[13,19],[31,10],[79,-22],[78,15],[25,15]],[[15646,9268],[67,-1],[26,-5],[4,31],[38,-6],[4,31],[19,-14],[66,-9]],[[16362,9522],[83,83],[144,157]],[[16589,9762],[103,97],[56,6]],[[16748,9865],[-42,-161],[6,-83],[107,-31],[7,-6],[-9,-47],[-55,-43],[-82,-7],[-29,7],[-82,-65],[-69,-28],[-35,-63],[30,-99],[46,-68],[29,-24],[25,-11],[64,41],[6,-53],[0,-60],[-9,-12],[-2,-36],[15,-11],[55,-22],[6,-47],[34,-43],[35,-80],[-5,-25],[-33,-36],[-75,101],[-58,36],[-74,-47],[-4,-82],[88,-40],[-4,-44],[-50,-44],[-64,-32],[-82,8],[-59,-78],[-27,8],[-24,29],[20,72],[-24,17],[-46,-2],[-36,10],[-13,-6],[1,-44],[7,-54],[-31,-31],[-62,65],[-9,43],[50,49],[24,33],[-7,29],[-53,20],[-24,-15],[-26,-27],[-53,-4],[-19,39],[-28,-26],[3,-8],[-24,-83],[10,-18],[20,-124],[-12,-47],[-13,-39],[-8,-58],[7,-91],[-18,-26],[-44,-22],[-38,-9],[-64,-30],[-46,-27],[-8,-32]],[[908,10843],[39,20],[16,28],[0,71],[29,69],[25,36],[23,13],[34,-9],[44,-79],[34,-17],[39,2],[46,13],[74,34],[37,4],[36,-6],[44,-17],[81,-37],[288,-99],[258,-81],[116,-51],[65,-17],[153,-18],[84,-8],[57,-10],[55,-32],[146,-102],[65,-27],[48,-7],[51,4],[33,22],[9,25],[9,81],[-17,108],[-28,56],[-43,94],[-1,128]],[[2857,11034],[93,-9],[65,-10],[70,-26],[31,-20],[362,-249],[54,-36],[70,-39],[44,-18],[57,-19],[44,-10],[77,-9],[44,-1],[-19,-40],[-11,-56],[-29,-43],[-43,-1],[-9,-8],[-1,-56],[57,-2],[-3,-82],[-157,-59],[28,-67],[-49,-18],[18,-33],[241,-185],[221,-165],[141,-113]],[[16471,10337],[49,1],[52,6],[213,6],[69,0],[123,6],[95,-4],[-3,171],[2,223],[-3,121]],[[17068,10867],[83,-2],[122,2],[115,6],[68,0],[106,3],[55,-1],[13,45],[-18,40],[15,13]],[[17627,10973],[20,15],[65,-1],[45,147],[66,3],[86,-28],[-1,-22]],[[17908,11087],[0,-17],[15,-22],[28,-23],[15,-34],[5,-43],[36,-74],[8,-63],[-17,-52],[-3,-37],[-79,-45],[-46,71],[-27,36],[-21,-2],[-21,-20],[2,-21],[-14,-121],[-47,-75],[-82,-74],[-152,-131],[-31,-16],[-24,-41],[-12,-32],[-34,-62],[-192,-106],[-34,-24],[-24,-105],[-23,-41],[-75,-35],[-66,74],[-38,80],[-21,-7],[-41,-3],[-54,-28],[-69,-22],[-22,-107]],[[16589,9762],[-12,48],[0,34],[10,56],[-5,51],[-15,39],[-45,128]],[[10894,10648],[186,-78],[67,-37],[41,-31],[103,-87],[73,-64]],[[2857,11034],[-8,94],[-22,114],[-13,97],[-15,37],[-34,57],[-37,80],[-20,67],[-3,109],[-13,83],[-2,38],[17,48],[25,23],[40,21],[74,1],[41,16],[59,17],[12,13],[9,29],[5,41],[17,34],[23,12],[44,39],[25,28],[13,24],[-4,28],[-61,29],[-36,39],[-5,15],[3,38],[60,54],[31,37],[120,64],[24,20],[-5,49],[-71,-12],[-18,3],[-11,17],[5,30],[17,9],[52,14],[14,18],[2,26],[22,15],[39,-4],[13,16],[-29,59],[-8,48],[0,27],[34,34],[38,25],[9,41],[-10,35],[-10,78],[-18,67],[20,15],[45,-37],[24,6],[10,36],[-4,20],[-25,66],[-2,38],[30,37],[54,13],[102,30],[20,18],[-13,49],[15,35],[58,28],[31,32],[6,64],[6,18],[74,82],[13,42],[-7,77],[0,129],[-3,135],[14,40],[13,10],[46,16],[30,31],[5,16],[6,74],[18,30],[31,-1],[16,-14],[19,-34],[15,-5],[26,7],[30,33],[26,37],[33,66],[15,14],[66,29],[0,18],[-41,24],[-121,77],[-36,12],[-46,1],[-37,14],[-68,51],[-13,41],[2,19],[28,56],[1,40],[-18,45],[1,51],[-23,26],[-64,0],[-19,8],[-4,41],[14,26],[17,51],[14,61],[3,48],[-6,46],[3,62],[13,69],[-4,39],[-46,129],[-31,62],[-30,49],[-19,73],[0,81],[9,20],[58,11],[27,76],[22,6],[34,-52],[31,-4],[66,48],[48,40],[28,30],[54,47],[25,8],[45,-6],[37,-24],[19,20],[5,18],[-1,36],[-32,7],[-41,-15],[-23,0],[-11,34],[25,27],[2,35],[-23,44],[1,21],[18,37],[13,44],[33,28],[19,30],[26,-14],[32,-71],[22,-23],[27,-4],[38,7],[7,8],[11,56],[57,61],[12,25],[-25,71],[-7,5],[-5,55],[26,41],[29,27],[24,3],[28,-12],[6,-33],[-11,-39],[22,-17],[24,11],[21,-1],[-2,-53],[21,-24],[20,-1],[89,12],[8,5],[14,65],[-17,29],[-20,12],[-21,60],[-2,45],[9,27],[18,7],[32,-3],[17,-28],[14,-10],[30,-5],[17,8],[27,24],[27,-11],[4,-20],[-28,-33],[0,-33],[10,-11],[172,50],[100,10],[22,15],[49,93],[29,18],[47,16],[39,25],[26,38],[29,10],[41,-2],[19,-12],[16,-45],[22,-21],[30,-7],[8,-18],[-14,-46],[2,-18],[16,-14],[26,-4],[67,15],[9,21],[-21,34],[-24,21],[1,26],[22,20],[30,-6],[30,-24],[7,-28],[15,-10],[32,-5],[23,24],[24,43],[83,68],[64,-1],[-3,-44],[12,-19],[33,-22],[32,-35],[28,-38],[41,-40],[54,-77],[24,-5],[23,25],[14,28],[-1,17],[-21,30],[-1,30],[-21,28],[3,23],[16,21],[36,16],[-4,28],[-25,18],[-6,14],[-13,82],[-9,24],[-37,26],[-49,3],[-7,12],[1,31],[22,47],[15,-2],[18,-38],[22,-21],[54,-8],[41,38],[2,41],[-8,16],[-22,3],[-23,-10],[-64,47],[6,18],[34,32],[98,46],[27,37],[32,13],[32,-2],[9,17],[-10,23],[1,23],[16,27],[24,7],[34,-4],[33,-39],[15,-41],[39,-28],[24,13],[48,42],[40,4],[5,-61],[50,4],[43,12],[12,10],[1,58],[5,16],[25,11],[44,-36],[32,-17],[26,8],[26,48],[-3,22],[-31,28],[-10,19],[22,27],[96,62],[30,15],[38,13]],[[17480,11663],[53,0],[362,2],[100,2]],[[18155,11518],[-21,-16],[-5,-14],[76,-97],[-41,-79],[-7,-7]],[[18157,11305],[-4,30],[-40,-9],[-20,5],[-32,32],[-61,27],[-99,34],[-42,10],[-76,10],[-148,-1],[-109,-11],[-47,1]],[[14165,7972],[-58,0]],[[14107,7972],[-182,3],[-63,-1],[-45,7]],[[13817,7981],[8,34],[2,179]],[[15593,11938],[-1,67],[5,187],[146,0],[78,-3],[59,11],[92,1]],[[15968,11737],[-1,-159]],[[15967,11578],[-19,-14],[-50,9],[-27,1],[-34,11],[-48,44],[-54,39],[-12,2],[-133,-1]],[[15590,11669],[3,269]],[[15341,11860],[17,0],[3,77],[119,-1],[113,2]],[[15590,11669],[-77,-2],[-166,0],[-2,36],[-4,157]],[[11724,10946],[88,-34],[56,-12],[93,-3],[22,-10],[45,-35],[18,-8],[37,-4]],[[12133,10800],[-1,-64],[-5,-19],[6,-34],[-2,-113],[24,-137],[-2,-32]],[[12153,10401],[-283,58],[-49,17],[-38,26],[-166,141]],[[11617,10643],[7,32],[2,90],[1,232]],[[11617,10643],[-44,37],[-30,20],[-86,-74],[-37,-13],[-47,-75],[-14,-42],[-27,-44],[48,-36],[-16,-65]],[[13350,8111],[214,-102],[34,-14]],[[13598,7995],[-6,-44],[3,-29],[-47,4],[-34,-41],[11,-5],[75,13],[5,-38],[-102,-19],[-6,-4],[18,-52],[11,-48],[17,0],[33,-20],[39,1],[3,-98],[112,13],[0,-51],[-4,-148]],[[13726,7429],[-61,-23],[-170,-71],[-44,-16]],[[13451,7319],[-69,62],[-40,26],[-57,34],[-23,22],[-11,27],[-55,162],[-25,27],[-151,76]],[[13451,7319],[0,-169],[-2,-148],[0,-81]],[[16979,12725],[125,-11],[183,1]],[[17287,12715],[5,-26],[-3,-49],[6,-22],[21,-43],[38,-54]],[[17354,12521],[33,-71],[25,-73],[38,-46],[59,-60],[14,-24],[42,-29],[47,-20],[5,-33]],[[17617,12165],[-149,1]],[[17468,12166],[-2,58],[-45,53],[-20,31],[-13,-10],[-44,14],[13,28],[0,26],[-10,28],[-33,10],[-37,27],[-27,5],[-100,-3],[-69,2],[-4,-66]],[[17077,12369],[-6,-86],[-2,-121]],[[16948,12205],[5,53],[8,124],[9,187],[9,156]],[[17354,12521],[22,13],[16,-52],[26,-5],[4,87],[51,4],[48,9],[46,0],[26,-4]],[[17732,12072],[-18,11],[-36,8],[-13,12],[-25,57],[-23,5]],[[16868,12743],[28,-12],[83,-6]],[[16920,12022],[-133,-4],[-84,0]],[[16703,12018],[-193,3]],[[16061,12742],[82,1],[102,-2],[116,-1]],[[15974,12514],[1,62],[-5,17],[-29,48]],[[17287,12715],[191,0],[127,-2]],[[17077,12369],[117,1],[4,-88],[-4,-77],[37,-2],[89,2],[0,-39]],[[17320,12166],[-91,-3],[-160,-1]],[[17468,12166],[-148,0]],[[12539,10364],[-176,1],[-117,4]],[[12246,10369],[-101,4],[8,28]],[[12509,10048],[-246,148]],[[12263,10196],[9,34],[-1,17],[-21,90],[-4,32]],[[13726,7429],[100,14],[52,3],[124,-4]],[[14002,7442],[44,-44],[20,-53],[4,-38],[15,-29],[47,-51],[59,-52],[78,-57],[26,-37],[2,-72],[5,-64]],[[4676,3185],[-129,-188],[-28,-35],[-190,-195],[-53,-52],[-45,-32],[-176,-102],[-33,-13],[-45,-7],[-94,6],[-50,-8],[-28,-13],[-36,-25],[-228,-244],[-104,-112],[-10,12],[-60,-37],[-32,-12],[-34,0],[-68,25],[-94,41],[-96,26],[-47,3],[-76,-40],[8,-57],[2,-85],[-19,-180],[-3,-65],[-25,-87],[-18,-32],[-16,-13],[-61,-13],[-42,-24],[-92,-134],[-30,-56],[-28,-122],[6,-111],[-8,-38],[-77,-127],[-20,-29],[-4,-104],[-12,-121],[-10,-26],[-61,-107],[-67,-98],[-69,-91],[-33,-36],[-50,-47],[-41,-53],[-59,-144],[-54,-69],[-98,-110]],[[1939,4],[-659,-1],[-43,-1],[-937,-2],[-24,526],[-29,531],[-18,527],[-30,528],[-39,519],[-10,150],[-24,307],[-22,499]],[[15044,10493],[70,-67],[-7,-12],[61,-110],[8,-18],[42,-1]],[[15218,10285],[44,0],[207,-197],[0,-6]],[[14933,9993],[-33,90],[-8,53],[13,12],[164,-3],[-18,34],[-45,55],[-24,14],[-14,19],[-3,72],[-10,32],[-24,30],[10,86],[92,1],[11,5]],[[15205,10611],[9,0]],[[15445,10585],[117,-150],[156,-196],[26,-47],[11,-49],[-1,-62]],[[15754,10081],[-207,2]],[[15218,10285],[6,141],[-27,1],[6,33],[2,151]],[[14564,11003],[133,-150],[22,-22]],[[14719,10831],[11,-9],[190,-209]],[[14920,10613],[124,-120]],[[14465,10155],[-58,20],[-43,1],[-41,-5],[-100,-18]],[[14797,10916],[261,0],[-2,-304]],[[15056,10612],[-136,1]],[[14719,10831],[1,42]],[[15205,10611],[-149,1]],[[14363,7971],[-3,-96],[0,-86]],[[14324,7574],[-200,2]],[[14124,7576],[-6,147],[-22,5],[-2,47],[2,138],[9,9],[2,50]],[[13660,7993],[112,-1],[45,-11]],[[14124,7576],[-111,1],[-1,-135]],[[14012,7442],[-10,0]],[[14002,7442],[-34,34],[-48,32],[-25,22],[-24,29],[-41,61],[-24,64],[-49,156],[-26,61],[-55,53],[-16,39]],[[14735,7566],[-20,-51],[-46,-99]],[[14669,7416],[-10,5],[-78,5],[-130,-2],[-83,3]],[[14368,7427],[-143,4],[-35,12],[-49,-2],[-129,1]],[[14368,7427],[-17,-46],[-2,-95],[-1,-147],[-2,-116],[5,-46],[-7,-15],[-42,-17]],[[14669,7416],[-43,-92],[-29,-56],[-72,-162],[-42,-100]],[[14483,7006],[-68,-157]],[[14483,7006],[221,8],[34,0],[108,-19],[32,15],[59,12]],[[16425,10924],[27,-6],[56,-1],[1,77],[-17,26],[-1,63],[-7,48]],[[16484,11131],[5,0],[4,87],[18,63]],[[16511,11281],[80,-1]],[[16591,11280],[-1,-148],[191,1]],[[16781,11133],[-13,-79],[-20,-80],[-21,-62],[-21,-49]],[[13660,7993],[-62,2]],[[15967,11578],[-1,-76]],[[15766,11504],[-64,4],[-8,-24],[-104,0]],[[15590,11484],[0,185]],[[16298,11592],[-78,-167]],[[16220,11425],[-50,-143],[-12,-37]],[[16158,11245],[-28,-121]],[[16130,11124],[-166,4]],[[15593,11136],[123,-2],[120,-3]],[[16130,11124],[-27,-136],[-7,-58]],[[15985,10930],[-24,14],[-8,-21],[-38,18],[-38,1],[-29,10],[-36,-6],[-52,-4],[-6,16],[-30,8],[-27,-9],[-9,-17],[-18,-6],[-11,11],[-23,0],[-44,20]],[[15754,10081],[9,0]],[[15707,9817],[-11,-59],[-44,-202],[-108,-2]],[[15902,10738],[-124,1],[-184,1]],[[6215,61],[-492,0],[-485,-1],[-133,-1],[-487,0],[-79,1],[-126,0],[-329,-7],[-92,4],[-158,0],[-141,3],[-269,-1],[-81,4],[-229,-1],[-100,0],[-394,1],[-185,-2],[-106,-2],[-191,-1],[-1,-54],[-198,0]],[[17671,11969],[-14,-22],[-78,-85],[-72,-70],[-70,-62]],[[17437,11730],[-16,38],[-35,35],[-35,62],[-33,43],[-45,30],[-102,2],[-28,2],[-24,58],[-52,11]],[[17437,11730],[-69,-63]],[[16813,11330],[25,167]],[[16838,11497],[5,32]],[[17070,11439],[0,-79],[36,-7],[65,-7],[86,1],[52,-8],[7,-55],[-2,-64],[16,-39],[13,5],[26,25],[24,17],[12,-7],[-4,-81]],[[17401,11140],[-116,-9],[-142,4],[-72,-1]],[[17071,11134],[-95,1],[-195,-2]],[[16781,11133],[23,136],[9,61]],[[18157,11305],[-38,-33],[-4,-107],[-6,-41],[-56,-67],[-16,7],[-24,33],[64,153],[11,84],[-61,14],[-52,40],[-41,-18],[-52,-65],[14,-40],[61,-29],[-3,-62],[-46,-87]],[[17627,10973],[-17,28],[-1,29],[-21,30],[0,60],[96,0],[-2,132],[-155,1],[-52,-3],[4,-25],[-3,-62],[-39,-4],[-36,-19]],[[16703,12018],[-4,-27],[-2,-59],[10,-33],[31,-55],[10,-27],[5,-41],[-1,-120],[-143,-1],[-51,2]],[[16558,11657],[3,15],[28,80],[5,25],[-204,1]],[[16838,11497],[-96,16],[-22,1],[-61,-23],[-21,2],[-46,29]],[[16592,11522],[1,29],[-31,39],[-4,67]],[[16592,11522],[-58,36],[-49,18],[-58,5],[-91,-4],[-38,15]],[[16592,11522],[0,-82],[-1,-121]],[[16591,11319],[0,-39]],[[16511,11281],[-156,1],[11,63],[18,52],[-64,-5],[-27,1],[-73,32]],[[16813,11330],[-104,3],[0,7],[-48,1],[-10,-21],[-60,-1]],[[16484,11131],[-163,-1],[0,116],[-34,-3],[-129,2]],[[14961,8889],[250,-5],[-1,-85],[81,-56]],[[15337,9219],[-129,2],[-41,7],[-113,-5]],[[15344,12126],[7,-63],[-3,-67],[-6,-65],[-1,-71]],[[15590,11484],[2,-148],[1,-200]],[[11721,10072],[-2,93],[-10,52],[-14,39],[-14,62],[116,14],[68,6],[37,0],[70,-6],[38,-8],[61,-19],[61,-30],[131,-79]],[[17071,11134],[0,-127],[-3,-140]],[[14746,7603],[16,-6],[22,-31],[36,-4],[36,16],[21,-21],[23,-7],[25,-19],[16,15],[32,-4],[18,-11],[71,-17]]],"transform":{"scale":[0.00003437242702338381,0.000027616472195942267],"translate":[-90.72862199999999,32.048352]},"objects":{"Geometry\\28-049":{"type":"GeometryCollection","geometries":[{"arcs":[[0,1,2,3]],"type":"Polygon","properties":{"GEOID":"280490105013"}},{"arcs":[[4,5,6,7,8]],"type":"Polygon","properties":{"GEOID":"280490112032"}},{"arcs":[[9,10,11,12]],"type":"Polygon","properties":{"GEOID":"280490112041"}},{"arcs":[[13,14,15,-12]],"type":"Polygon","properties":{"GEOID":"280490112043"}},{"arcs":[[16,17,18,19,20,21]],"type":"Polygon","properties":{"GEOID":"280490105022"}},{"arcs":[[-20,22,23,24]],"type":"Polygon","properties":{"GEOID":"280490107002"}},{"arcs":[[-19,25,26,27,28,-23]],"type":"Polygon","properties":{"GEOID":"280490107004"}},{"arcs":[[29,30,-1,31,-17,32,33]],"type":"Polygon","properties":{"GEOID":"280490105021"}},{"arcs":[[-32,-4,34,35,36,-18]],"type":"Polygon","properties":{"GEOID":"280490105023"}},{"arcs":[[37,-24,-29,38,39,40]],"type":"Polygon","properties":{"GEOID":"280490107003"}},{"arcs":[[41,42,43,44,45]],"type":"Polygon","properties":{"GEOID":"280490101032"}},{"arcs":[[-37,46,47,48,49,50,51,52,53,54,-26]],"type":"Polygon","properties":{"GEOID":"280490108063"}},{"arcs":[[55,56,57,58]],"type":"Polygon","properties":{"GEOID":"280490102013"}},{"arcs":[[-31,59,60,61,62,63,64,65,-2]],"type":"Polygon","properties":{"GEOID":"280490105012"}},{"arcs":[[66,67,68,69,70,71,72,73]],"type":"Polygon","properties":{"GEOID":"280490116003"}},{"arcs":[[74,-8,75,76,-14,-11,77,78]],"type":"Polygon","properties":{"GEOID":"280490112042"}},{"arcs":[[79,80,-60,-30]],"type":"Polygon","properties":{"GEOID":"280490105011"}},{"arcs":[[81,82,83]],"type":"Polygon","properties":{"GEOID":"280490101042"}},{"arcs":[[84,85,86,87,88,89,90,91]],"type":"Polygon","properties":{"GEOID":"280490110013"}},{"arcs":[[92,93,94]],"type":"Polygon","properties":{"GEOID":"280490111052"}},{"arcs":[[95,96,-9,-75,97,-40]],"type":"Polygon","properties":{"GEOID":"280490112031"}},{"arcs":[[98,99,100,101,102,-76,-7]],"type":"Polygon","properties":{"GEOID":"280490111033"}},{"arcs":[[103,104,105,106,107,108]],"type":"Polygon","properties":{"GEOID":"280490013004"}},{"arcs":[[109,110,111,112,-69]],"type":"Polygon","properties":{"GEOID":"280490116001"}},{"arcs":[[113,-73,114,115,116,117,118]],"type":"Polygon","properties":{"GEOID":"280490021002"}},{"arcs":[[-72,119,120,-115]],"type":"Polygon","properties":{"GEOID":"280490025003"}},{"arcs":[[121,122,123,124,125,126,127,128]],"type":"Polygon","properties":{"GEOID":"280490023002"}},{"arcs":[[129,130,-102,131]],"type":"Polygon","properties":{"GEOID":"280490111043"}},{"arcs":[[132,-132,-101,133]],"type":"Polygon","properties":{"GEOID":"280490111042"}},{"arcs":[[134,135,136,-134,-100,137,138]],"type":"Polygon","properties":{"GEOID":"280490111041"}},{"arcs":[[139,140,-95,141,-130,-133,-137]],"type":"Polygon","properties":{"GEOID":"280490111053"}},{"arcs":[[142,-48,143]],"type":"Polygon","properties":{"GEOID":"280490108053"}},{"arcs":[[144,145,146,147,148,149,-106]],"type":"Polygon","properties":{"GEOID":"280490013002"}},{"arcs":[[150,151,152,153,154]],"type":"Polygon","properties":{"GEOID":"280490016003"}},{"arcs":[[155,156,-153]],"type":"Polygon","properties":{"GEOID":"280490016004"}},{"arcs":[[157,158,-86,159,160]],"type":"Polygon","properties":{"GEOID":"280490109021"}},{"arcs":[[-113,161,162,163,-70]],"type":"Polygon","properties":{"GEOID":"280490116002"}},{"arcs":[[-62,164,165,166,167]],"type":"Polygon","properties":{"GEOID":"280490103011"}},{"arcs":[[168,169,170,171]],"type":"Polygon","properties":{"GEOID":"280490103042"}},{"arcs":[[172,173,174,-104,175]],"type":"Polygon","properties":{"GEOID":"280490013003"}},{"arcs":[[176,177,178,179,180]],"type":"Polygon","properties":{"GEOID":"280490007002"}},{"arcs":[[181,-123,182,-178]],"type":"Polygon","properties":{"GEOID":"280490007003"}},{"arcs":[[-168,183,184,-63]],"type":"Polygon","properties":{"GEOID":"280490103044"}},{"arcs":[[185,186,-58,187,188,189,190,191]],"type":"Polygon","properties":{"GEOID":"280490102011"}},{"arcs":[[192,193,194,-93,-141]],"type":"Polygon","properties":{"GEOID":"280490111051"}},{"arcs":[[195,196,197,198,199,200,-88]],"type":"Polygon","properties":{"GEOID":"280490110011"}},{"arcs":[[201,-128,202,203,204,205,206]],"type":"Polygon","properties":{"GEOID":"280490024004"}},{"arcs":[[-83,207,-43,208,209]],"type":"Polygon","properties":{"GEOID":"280490101031"}},{"arcs":[[210,211,212,-209,-42,213]],"type":"Polygon","properties":{"GEOID":"280490101033"}},{"arcs":[[214,-84,-210,-213,215,216]],"type":"Polygon","properties":{"GEOID":"280490101041"}},{"arcs":[[-118,217,218,219]],"type":"Polygon","properties":{"GEOID":"280490021001"}},{"arcs":[[-126,220,221,222,-119,-220,223,224,225]],"type":"Polygon","properties":{"GEOID":"280490021003"}},{"arcs":[[226,227,228,-74,-114,-223,229,230,231]],"type":"Polygon","properties":{"GEOID":"280490008001"}},{"arcs":[[-103,-131,-142,-94,-195,232,233,234,235,236,237,-15,-77]],"type":"Polygon","properties":{"GEOID":"280490111031"}},{"arcs":[[238,239,-41,-98,-79,240,241]],"type":"Polygon","properties":{"GEOID":"280490112012"}},{"arcs":[[-138,-99,-6,242]],"type":"Polygon","properties":{"GEOID":"280490111032"}},{"arcs":[[-241,-78,-10,243,244]],"type":"Polygon","properties":{"GEOID":"280490112011"}},{"arcs":[[245,-25,-38,-240,246]],"type":"Polygon","properties":{"GEOID":"280490107001"}},{"arcs":[[247,248,249,250]],"type":"Polygon","properties":{"GEOID":"280490006004"}},{"arcs":[[-171,251,-180,252,-129,-202,253,-158,254,255,256]],"type":"Polygon","properties":{"GEOID":"280490109012"}},{"arcs":[[257,258,259,260,261,262]],"type":"Polygon","properties":{"GEOID":"280490001001"}},{"arcs":[[263,264,265,266,267,268]],"type":"Polygon","properties":{"GEOID":"280490034001"}},{"arcs":[[269,-107,270,271,-151,272]],"type":"Polygon","properties":{"GEOID":"280490016002"}},{"arcs":[[273,-206,274,-264,275,-197]],"type":"Polygon","properties":{"GEOID":"280490033001"}},{"arcs":[[276,277,278,-199]],"type":"Polygon","properties":{"GEOID":"280490033002"}},{"arcs":[[-276,-269,279,280,281,-277,-198]],"type":"Polygon","properties":{"GEOID":"280490033003"}},{"arcs":[[-278,-282,282,283,284]],"type":"Polygon","properties":{"GEOID":"280490033005"}},{"arcs":[[285,286,287,-280,-268]],"type":"Polygon","properties":{"GEOID":"280490034002"}},{"arcs":[[288,-287,289,290,291,292,293]],"type":"Polygon","properties":{"GEOID":"280490035002"}},{"arcs":[[294,295,-290]],"type":"Polygon","properties":{"GEOID":"280490035003"}},{"arcs":[[296,297,-250,298,299,300,301]],"type":"Polygon","properties":{"GEOID":"280490006002"}},{"arcs":[[302,303,-251,-298,304]],"type":"Polygon","properties":{"GEOID":"280490006003"}},{"arcs":[[305,-167,306,-181,-252,-170]],"type":"Polygon","properties":{"GEOID":"280490007001"}},{"arcs":[[307,-232,308,309,310,-124,-182,-177,-307]],"type":"Polygon","properties":{"GEOID":"280490007004"}},{"arcs":[[-302,311,312,313]],"type":"Polygon","properties":{"GEOID":"280490006001"}},{"arcs":[[-255,-161,314]],"type":"Polygon","properties":{"GEOID":"280490108011"}},{"arcs":[[-117,315,316,-218]],"type":"Polygon","properties":{"GEOID":"280490024001"}},{"arcs":[[-224,-219,-317,317,318,319]],"type":"Polygon","properties":{"GEOID":"280490024002"}},{"arcs":[[320,-225,-320,321,-204]],"type":"Polygon","properties":{"GEOID":"280490024003"}},{"arcs":[[-116,322,323,324,-318,-316]],"type":"Polygon","properties":{"GEOID":"280490025001"}},{"arcs":[[-311,325,-221,-125]],"type":"Polygon","properties":{"GEOID":"280490022002"}},{"arcs":[[-53,326,-92,327,328]],"type":"Polygon","properties":{"GEOID":"280490108082"}},{"arcs":[[-54,-329,329,330,331,-135,332,333,334]],"type":"Polygon","properties":{"GEOID":"280490108091"}},{"arcs":[[335,336,-152,-272]],"type":"Polygon","properties":{"GEOID":"280490015003"}},{"arcs":[[-271,-150,337,-336]],"type":"Polygon","properties":{"GEOID":"280490015001"}},{"arcs":[[-120,-71,-164,338,339,340,341,342]],"type":"Polygon","properties":{"GEOID":"280490027001"}},{"arcs":[[-341,343,344,345]],"type":"Polygon","properties":{"GEOID":"280490030001"}},{"arcs":[[346,-345,347,348,349]],"type":"Polygon","properties":{"GEOID":"280490030002"}},{"arcs":[[-267,-349,350,-236,351,-295,-286]],"type":"Polygon","properties":{"GEOID":"280490030003"}},{"arcs":[[-322,-319,-325,352,353,-265,-275,-205]],"type":"Polygon","properties":{"GEOID":"280490032001"}},{"arcs":[[-159,-254,-207,-274,-196,-87]],"type":"Polygon","properties":{"GEOID":"280490109022"}},{"arcs":[[354,-49,-143,355]],"type":"Polygon","properties":{"GEOID":"280490108052"}},{"arcs":[[-328,-91,356,357,358,-330]],"type":"Polygon","properties":{"GEOID":"280490108083"}},{"arcs":[[359,-331,-359]],"type":"Polygon","properties":{"GEOID":"280490108081"}},{"arcs":[[360,361,-50,-355]],"type":"Polygon","properties":{"GEOID":"280490108051"}},{"arcs":[[-175,362,363,-145,-105]],"type":"Polygon","properties":{"GEOID":"280490013001"}},{"arcs":[[364,365,366,367,368]],"type":"Polygon","properties":{"GEOID":"280490002001"}},{"arcs":[[-281,-288,369,-283]],"type":"Polygon","properties":{"GEOID":"280490033006"}},{"arcs":[[370,-247,-239,371,372,373]],"type":"Polygon","properties":{"GEOID":"280490113001"}},{"arcs":[[374,-186,375]],"type":"Polygon","properties":{"GEOID":"280490102022"}},{"arcs":[[-333,-139,-243,-5,-97,376]],"type":"Polygon","properties":{"GEOID":"280490108072"}},{"arcs":[[-108,-270,377,378]],"type":"Polygon","properties":{"GEOID":"280490016001"}},{"arcs":[[-55,-335,379,-27]],"type":"Polygon","properties":{"GEOID":"280490108061"}},{"arcs":[[380,-184,-306,-169,381,382]],"type":"Polygon","properties":{"GEOID":"280490103041"}},{"arcs":[[383,384,385,386]],"type":"Polygon","properties":{"GEOID":"280490005002"}},{"arcs":[[-61,-81,387,388,389,390,391,-165]],"type":"Polygon","properties":{"GEOID":"280490102031"}},{"arcs":[[392,393,-315,-160,-85,-327,-52]],"type":"Polygon","properties":{"GEOID":"280490108012"}},{"arcs":[[394,395,-21,-246,-371,396]],"type":"Polygon","properties":{"GEOID":"280490106002"}},{"arcs":[[-348,-344,-340,397,-154,-157,398,399,400,-237,-351]],"type":"Polygon","properties":{"GEOID":"280490027002"}},{"arcs":[[401,402,-395]],"type":"Polygon","properties":{"GEOID":"280490106003"}},{"arcs":[[403,404,405,406,-400,407,-148]],"type":"Polygon","properties":{"GEOID":"280490014002"}},{"arcs":[[408,-361,-356,-144,-47,-36]],"type":"Polygon","properties":{"GEOID":"280490108062"}},{"arcs":[[-33,-22,-396,-403,409]],"type":"Polygon","properties":{"GEOID":"280490106001"}},{"arcs":[[410,-45,411,412,-367]],"type":"Polygon","properties":{"GEOID":"280490002005"}},{"arcs":[[-28,-380,-334,-377,-96,-39]],"type":"Polygon","properties":{"GEOID":"280490108071"}},{"arcs":[[-200,-279,-285,413,414,415]],"type":"Polygon","properties":{"GEOID":"280490033004"}},{"arcs":[[416,-192,417,418,419]],"type":"Polygon","properties":{"GEOID":"280490102025"}},{"arcs":[[420,-420,421]],"type":"Polygon","properties":{"GEOID":"280490102021"}},{"arcs":[[-392,-227,-308,-166]],"type":"Polygon","properties":{"GEOID":"280490103012"}},{"arcs":[[-65,422,-383,423,424,425]],"type":"Polygon","properties":{"GEOID":"280490104002"}},{"arcs":[[-3,-66,-426,426,-409,-35]],"type":"Polygon","properties":{"GEOID":"280490104003"}},{"arcs":[[-179,-183,-122,-253]],"type":"Polygon","properties":{"GEOID":"280490109011"}},{"arcs":[[-357,-90,427,428,429,430]],"type":"Polygon","properties":{"GEOID":"280490110022"}},{"arcs":[[-360,-358,-431,431,-140,-136,-332]],"type":"Polygon","properties":{"GEOID":"280490111011"}},{"arcs":[[432,433,434,435,436,437,-260,438]],"type":"Polygon","properties":{"GEOID":"280490101021"}},{"arcs":[[439,-216,-212,440,-435]],"type":"Polygon","properties":{"GEOID":"280490101025"}},{"arcs":[[-57,441,-439,-259,442,443,-188]],"type":"Polygon","properties":{"GEOID":"280490102012"}},{"arcs":[[-389,444,-59,-187,-375,445]],"type":"Polygon","properties":{"GEOID":"280490102023"}},{"arcs":[[446,-217,-440,-434]],"type":"Polygon","properties":{"GEOID":"280490101022"}},{"arcs":[[447,448,-438]],"type":"Polygon","properties":{"GEOID":"280490101023"}},{"arcs":[[449,-448,-437]],"type":"Polygon","properties":{"GEOID":"280490101024"}},{"arcs":[[-185,-381,-423,-64]],"type":"Polygon","properties":{"GEOID":"280490103043"}},{"arcs":[[-382,-172,-257,450,451,-424]],"type":"Polygon","properties":{"GEOID":"280490103051"}},{"arcs":[[-451,-256,-394,452,453]],"type":"Polygon","properties":{"GEOID":"280490103052"}},{"arcs":[[-430,454,455,-193,-432]],"type":"Polygon","properties":{"GEOID":"280490111012"}},{"arcs":[[456,457,-373]],"type":"Polygon","properties":{"GEOID":"280490113003"}},{"arcs":[[458,459,-110,-68,460]],"type":"Polygon","properties":{"GEOID":"280490010001"}},{"arcs":[[461,-300,462,463,-111,-460,464]],"type":"Polygon","properties":{"GEOID":"280490011001"}},{"arcs":[[465,466,467,-461,-67,-229]],"type":"Polygon","properties":{"GEOID":"280490008002"}},{"arcs":[[-231,468,-309]],"type":"Polygon","properties":{"GEOID":"280490008003"}},{"arcs":[[-313,469,470,-467,471]],"type":"Polygon","properties":{"GEOID":"280490008004"}},{"arcs":[[-301,-462,472,-470,-312]],"type":"Polygon","properties":{"GEOID":"280490009001"}},{"arcs":[[-473,-465,-459,-468,-471]],"type":"Polygon","properties":{"GEOID":"280490009002"}},{"arcs":[[-414,-284,473,-294,474,475]],"type":"Polygon","properties":{"GEOID":"280490036001"}},{"arcs":[[476,-415,-476,477,478,479]],"type":"Polygon","properties":{"GEOID":"280490036002"}},{"arcs":[[-475,-293,480,481,482,-478]],"type":"Polygon","properties":{"GEOID":"280490037001"}},{"arcs":[[-483,483,-456,-479]],"type":"Polygon","properties":{"GEOID":"280490037002"}},{"arcs":[[-484,-482,484,485,-194]],"type":"Polygon","properties":{"GEOID":"280490037003"}},{"arcs":[[486,-233,-486]],"type":"Polygon","properties":{"GEOID":"280490038002"}},{"arcs":[[-469,-230,-222,-326,-310]],"type":"Polygon","properties":{"GEOID":"280490022001"}},{"arcs":[[487,488,489,490,491,-146,-364]],"type":"Polygon","properties":{"GEOID":"280490004003"}},{"arcs":[[-89,-201,-416,-477,492,-428]],"type":"Polygon","properties":{"GEOID":"280490110012"}},{"arcs":[[-419,493,-384,494,495]],"type":"Polygon","properties":{"GEOID":"280490005001"}},{"arcs":[[-494,-418,-191,496,497,498,499,-385]],"type":"Polygon","properties":{"GEOID":"280490005003"}},{"arcs":[[500,-386,-500,501,-174,502,-303]],"type":"Polygon","properties":{"GEOID":"280490005004"}},{"arcs":[[-112,-464,503,-379,504,-162]],"type":"Polygon","properties":{"GEOID":"280490011002"}},{"arcs":[[-503,-173,505,-248,-304]],"type":"Polygon","properties":{"GEOID":"280490012001"}},{"arcs":[[-370,-289,-474]],"type":"Polygon","properties":{"GEOID":"280490035001"}},{"arcs":[[-457,-372,-242,-245,506]],"type":"Polygon","properties":{"GEOID":"280490113002"}},{"arcs":[[-449,-450,-436,-441,-211,507,508,-261]],"type":"Polygon","properties":{"GEOID":"280490001002"}},{"arcs":[[-509,509,-365,-262]],"type":"Polygon","properties":{"GEOID":"280490001003"}},{"arcs":[[-508,-214,-46,-411,-366,-510]],"type":"Polygon","properties":{"GEOID":"280490001004"}},{"arcs":[[510,511,-263,-369,512,513,514,515]],"type":"Polygon","properties":{"GEOID":"280490002002"}},{"arcs":[[-368,-413,516,-406,517,-513]],"type":"Polygon","properties":{"GEOID":"280490002004"}},{"arcs":[[-444,518,519,-189]],"type":"Polygon","properties":{"GEOID":"280490003021"}},{"arcs":[[-519,-443,-258,-512,520,521]],"type":"Polygon","properties":{"GEOID":"280490003022"}},{"arcs":[[-520,-522,522,-190]],"type":"Polygon","properties":{"GEOID":"280490003011"}},{"arcs":[[-497,-523,523,524,-490,525]],"type":"Polygon","properties":{"GEOID":"280490003012"}},{"arcs":[[-521,-511,526,-524]],"type":"Polygon","properties":{"GEOID":"280490003023"}},{"arcs":[[-525,-527,-516,-491]],"type":"Polygon","properties":{"GEOID":"280490003024"}},{"arcs":[[-526,-489,527,-498]],"type":"Polygon","properties":{"GEOID":"280490004001"}},{"arcs":[[-499,-528,-488,-363,-502]],"type":"Polygon","properties":{"GEOID":"280490004002"}},{"arcs":[[528,-350,-266,-354]],"type":"Polygon","properties":{"GEOID":"280490115001"}},{"arcs":[[-121,-343,529,-323]],"type":"Polygon","properties":{"GEOID":"280490025002"}},{"arcs":[[-505,-378,-273,-155,-398,-339,-163]],"type":"Polygon","properties":{"GEOID":"280490114001"}},{"arcs":[[530,-422,-496,531,-305,-297,-314,-472,-466,-228,-391]],"type":"Polygon","properties":{"GEOID":"280490102032"}},{"arcs":[[-453,-393,-51,532]],"type":"Polygon","properties":{"GEOID":"280490108041"}},{"arcs":[[-425,-452,-454,-533,-362,-427]],"type":"Polygon","properties":{"GEOID":"280490104001"}},{"arcs":[[-492,-515,533,-404,-147]],"type":"Polygon","properties":{"GEOID":"280490014001"}},{"arcs":[[-324,-530,-342,-346,-347,-529,-353]],"type":"Polygon","properties":{"GEOID":"280490115002"}},{"arcs":[[-485,-481,-292,534,-234,-487]],"type":"Polygon","properties":{"GEOID":"280490038001"}},{"arcs":[[-296,-352,-235,-535,-291]],"type":"Polygon","properties":{"GEOID":"280490035004"}},{"arcs":[[-495,-387,-501,-532]],"type":"Polygon","properties":{"GEOID":"280490005005"}},{"arcs":[[-249,-506,-176,-109,-504,-463,-299]],"type":"Polygon","properties":{"GEOID":"280490012002"}},{"arcs":[[-226,-321,-203,-127]],"type":"Polygon","properties":{"GEOID":"280490023001"}},{"arcs":[[-338,-149,-408,-399,-156,-337]],"type":"Polygon","properties":{"GEOID":"280490015002"}},{"arcs":[[-390,-446,-376,-417,-421,-531]],"type":"Polygon","properties":{"GEOID":"280490102024"}},{"arcs":[[-493,-480,-455,-429]],"type":"Polygon","properties":{"GEOID":"280490110021"}},{"arcs":[[-514,-518,-405,-534]],"type":"Polygon","properties":{"GEOID":"280490002003"}}]}}}