{"type":"Topology","arcs":[[[2742,3485],[5,-11],[0,-60]],[[2747,3414],[-1,-81],[-15,-53],[0,-44]],[[2731,3236],[-82,1]],[[2649,3237],[-1,54],[-22,28],[-240,173]],[[2386,3492],[58,8],[54,2],[154,-5],[76,5],[14,-17]],[[2747,3414],[293,1],[0,-116],[20,-33],[0,-15],[-59,-33],[-24,-22],[-47,-64],[-23,-21],[-25,-8],[-37,30],[-35,3]],[[2810,3136],[-3,47],[32,55],[-108,-2]],[[2629,3038],[20,199]],[[2810,3136],[-34,-6],[-30,-18],[-54,-77],[-14,-51]],[[2678,2984],[-54,6],[5,48]],[[1751,3930],[22,-38],[39,-33],[187,-93],[54,-33],[333,-241]],[[2629,3038],[-58,-3],[-226,3],[-151,0],[-199,-3],[-181,2],[-9,2],[-2,91],[2,100],[-1,222],[-4,31],[-1,150],[7,22],[-49,2],[-6,117],[0,156]],[[1419,4311],[86,3],[260,-1],[231,0],[0,7]],[[1996,4320],[11,13],[34,12],[12,49],[12,11],[125,-2],[89,2],[197,-23],[1,-67],[22,-70],[1,-112],[-108,-181],[-1,-18],[26,-4],[59,-22],[56,-46],[243,1],[9,-79],[-3,-34],[-38,-247],[-1,-18]],[[1751,3930],[-1,19],[-109,2],[-300,-1],[-60,-14],[-15,-9],[-93,20],[-31,27],[-27,11],[16,45],[14,71],[-2,32],[-17,33],[18,24],[-26,15],[10,19],[65,28],[81,9],[42,-24],[45,23],[-2,26],[25,2],[35,23]],[[2105,7],[41,115],[99,216],[119,158],[20,36],[16,48],[47,79],[27,30],[-28,25],[-45,7],[-194,-2],[-5,510],[-2,135],[-30,63],[30,0],[-5,457]],[[2195,1884],[298,187],[79,36],[41,46],[8,40],[-17,50],[-81,117],[123,18],[35,1]],[[2681,2379],[7,-35],[-35,-17],[-2,-38],[35,-26],[34,-46],[13,-50],[33,4],[24,41],[16,-4],[12,-55],[18,-24],[18,-45],[42,-27],[62,29],[22,5],[59,-26],[42,-11],[33,-48],[21,-15],[32,7],[17,27],[3,35],[43,35],[41,19],[38,1],[15,18],[-7,33],[21,2],[15,-17],[25,-2]],[[3378,2149],[17,-81],[-13,-98],[20,-131],[0,-123],[17,-45],[32,-34],[83,-57],[29,-13],[130,-16],[28,2],[111,27],[38,-2],[47,-28],[31,-37],[15,-31],[1,-65],[-36,-136],[0,-31],[16,-32],[57,-64],[36,-29],[102,-43],[-956,-10],[-1,-565],[0,-44],[-6,-453],[-430,0],[-102,-4],[-79,1],[-262,-2],[-198,2]],[[2678,2984],[1,-40],[9,-60],[19,-42],[6,-58],[-27,-20],[-51,12],[-47,-102],[-19,-26],[-25,-13],[-29,11],[-12,28],[-18,12],[-30,-1],[-11,-35],[30,-29],[31,-56],[8,-36],[-40,-22],[-3,-21],[18,-17],[58,-9],[53,21],[15,30],[-29,22],[8,24],[21,-6],[49,-31],[11,-26],[-9,-44],[-29,-14],[1,-19],[44,-38]],[[2195,1884],[-132,-84],[-56,10],[-82,7],[-66,-15],[-24,-17],[-455,-1],[-59,2],[8,181],[-38,-3],[-284,-1],[-163,1]],[[844,1964],[-1,192],[-492,-4],[7,12],[53,36],[31,-2],[39,-24],[51,-11],[31,16],[46,68],[1,75],[-8,58],[-32,13],[-45,-8],[-28,25],[-1,74],[-16,11],[-58,-27],[-24,-5],[-23,9],[-9,39],[23,35],[10,49],[-11,47],[1,29],[16,16],[60,34],[28,43],[12,36],[0,46],[-17,74],[13,38],[27,34],[15,42],[12,82],[-2,59],[-31,73],[-2,28],[13,34],[30,16],[29,30],[19,49],[-3,30],[-15,28],[-32,36],[-37,32],[-34,19],[-40,11],[-58,7],[-66,27],[-106,72],[-30,35],[-48,78],[-19,18],[-32,5],[-52,-14],[-29,17],[-10,41],[3,26],[23,89],[20,98],[-1,41],[-36,71],[4,52],[22,33],[33,18],[35,-33],[29,4],[26,18],[22,35],[33,13],[605,1],[365,1],[209,-1],[27,-2]],[[1996,4320],[-2,87],[-2,632],[264,1],[205,-1],[57,3],[306,-3],[315,4],[1,-14],[-5,-281],[-2,-476],[246,-212],[208,-184],[23,55],[-14,49],[18,17],[194,5],[81,-2],[49,-11],[24,-24],[22,-8],[31,14],[18,-9],[-17,-28],[13,-19],[83,13],[-41,21],[30,36],[-11,25],[-24,6],[-45,-6],[-9,8],[41,52],[-1,57],[10,29],[41,30],[-1,23],[-36,30],[-4,15],[10,58],[-35,37],[-8,46],[-32,39],[28,20],[70,-11],[23,-18],[12,-48],[19,8],[30,41],[9,22],[-26,35],[0,41],[20,38],[23,30],[13,50],[37,13],[40,44],[42,27],[11,42],[18,22],[36,4],[48,-18],[17,-14],[-3,-30],[14,-19],[25,0],[1,-40],[7,-613],[3,-684],[1,-64],[2,-644],[-3,-31],[-80,3],[-67,-17],[-36,-27],[-75,-114],[-18,-40],[-5,-34],[3,-51],[13,-35],[30,-43],[50,-46],[1,-19],[-45,-58],[-34,-29],[-32,-6],[-27,5],[-31,42],[-12,42],[-34,35],[-11,96],[13,61],[4,52],[-7,28],[-29,33],[-40,8],[-43,-7],[-77,-51],[-31,-73],[-5,-34],[53,-84],[54,-35],[33,-40],[70,-36],[24,-19],[12,-36],[-11,-50],[-14,-20],[-71,-36],[-25,5],[-34,20],[-52,3],[-23,12],[-50,54],[-34,73],[-11,52],[-42,37],[-29,8],[-48,1],[-21,-11],[-51,-42],[-44,3],[-22,33],[-22,83],[-2,48],[-31,21],[-32,-8],[-35,-32],[-15,-35],[-3,-29],[17,-36],[43,-27],[18,-24],[-12,-33],[-23,-10],[-42,4],[-33,-11],[-3,-12]],[[2105,7],[-238,-2],[-95,-3],[-271,-2],[-121,4],[-65,-2],[-199,2],[-12,-1],[-245,-3],[3,105],[-1,161],[1,203],[-3,90],[-1,341],[-3,46],[2,125],[-4,108],[3,17],[-6,313],[-4,273],[-2,182]]],"transform":{"scale":[0.00008919725481514111,0.00008070077334919655],"translate":[-90.733216,32.92251]},"objects":{"Geometry\\28-053":{"type":"GeometryCollection","geometries":[{"arcs":[[0,1,2,3,4]],"type":"Polygon","properties":{"GEOID":"280539503001"}},{"arcs":[[5,6,-2]],"type":"Polygon","properties":{"GEOID":"280539503002"}},{"arcs":[[7,-3,-7,8,9]],"type":"Polygon","properties":{"GEOID":"280539503003"}},{"arcs":[[10,-4,-8,11]],"type":"Polygon","properties":{"GEOID":"280539501003"}},{"arcs":[[12,13,-5,-11,14]],"type":"Polygon","properties":{"GEOID":"280539501002"}},{"arcs":[[15,16,17,18]],"type":"Polygon","properties":{"GEOID":"280539502002"}},{"arcs":[[-15,-12,-10,19,-17,20,21]],"type":"Polygon","properties":{"GEOID":"280539502001"}},{"arcs":[[-18,-20,-9,-6,-1,-14,22]],"type":"Polygon","properties":{"GEOID":"280539501001"}},{"arcs":[[-21,-16,23]],"type":"Polygon","properties":{"GEOID":"280539502003"}}]}}}