{"type":"Topology","arcs":[[[7357,3145],[59,0],[37,12],[32,38],[36,27],[29,11],[41,0],[30,-9],[123,-58],[89,-30],[81,-14],[50,0],[66,18],[46,27],[85,61],[47,19],[63,8],[205,1],[9,4]],[[8485,3260],[-1,-206],[-4,-67],[-11,-61],[-20,-63],[-3,-45],[1,-209],[-7,-10]],[[8440,2599],[-38,53],[-56,22],[-138,2],[-338,8],[-100,4],[-103,28],[-87,18],[-57,22],[-39,32]],[[7484,2788],[-71,66]],[[7413,2854],[-36,53],[-20,61],[-8,38],[8,79],[0,60]],[[11980,7041],[-95,37],[-70,8],[-110,-26],[-252,2]],[[11453,7062],[0,41],[-136,0],[1,156],[119,1],[161,-2],[-3,-30],[146,-10],[240,-1],[-1,-176]],[[9377,917],[113,-18],[76,-20],[124,-23],[96,1],[47,9],[48,18],[56,32]],[[9937,916],[-15,-35],[-22,-19],[-27,-65],[-66,-65],[-22,-8],[-102,0],[-2,-107],[4,-27],[32,-73],[18,-101]],[[9735,416],[-69,4],[-38,9]],[[9628,429],[-195,48],[-57,7]],[[9376,484],[0,163],[1,270]],[[8910,728],[-1,119]],[[8909,847],[53,9],[83,27],[29,-5],[35,-28],[64,-35],[-14,-54],[1,-34],[-10,-49],[9,-36],[-36,-16],[7,-19],[-22,-123]],[[9108,484],[-199,3]],[[8909,487],[1,241]],[[8913,909],[95,11],[153,7],[126,-2],[90,-8]],[[9376,484],[-224,0]],[[9152,484],[-44,0]],[[8909,847],[4,62]],[[9290,2176],[105,-3],[394,1]],[[9789,2174],[13,-53],[36,-172],[2,-24]],[[9840,1925],[-389,-1],[-35,5],[-156,-2],[-71,6]],[[9189,1933],[101,243]],[[9840,1925],[2,-13],[0,-277]],[[9842,1635],[-221,52],[-28,4],[-218,1]],[[9375,1692],[-289,1]],[[9086,1693],[103,240]],[[9004,1733],[134,327],[-64,24],[-33,17],[-1,42],[15,47],[18,20],[13,34],[2,45],[21,43],[-1,39],[15,16],[49,13],[1,32],[19,75],[26,34],[4,46],[75,-2],[78,-33],[3,-74],[-3,-56],[15,-11]],[[9390,2411],[-100,-235]],[[9086,1693],[-16,-36]],[[9070,1657],[-16,32],[-50,44]],[[8440,2599],[3,-15],[2,-165],[-3,-46],[-12,-38],[-20,-32],[-27,-25],[-43,-21],[-96,-9],[-53,12],[-40,0],[-41,-14],[-57,-49],[-21,-28],[-14,-44],[17,-82],[-5,-84]],[[8030,1959],[-164,2],[-105,16],[-40,-3],[-61,-19],[-52,-43],[-40,-43]],[[7568,1869],[-58,-31],[-58,-2],[-180,-1],[-73,3]],[[7199,1838],[18,27],[22,61],[-2,35],[-12,28],[-4,40],[9,103],[20,42],[29,32],[111,104],[10,16],[-2,120],[10,93],[2,101],[3,14],[45,60],[14,54],[12,20]],[[8030,1959],[246,-15],[126,-6]],[[8402,1938],[-25,-87],[-35,-153],[-1,-160],[9,-336],[6,-164]],[[8356,1038],[-57,13],[-78,3],[-245,1]],[[7976,1055],[-2,212],[-13,34],[-75,112],[-65,13],[-36,22],[-53,74],[-7,79],[-26,62],[-31,40],[-27,20],[-30,46],[-43,100]],[[7976,1055],[-102,-1]],[[7874,1054],[-137,-47],[-123,-17],[-167,-59],[-28,-14],[-142,-85],[-156,-60],[-143,-25],[-64,-2],[-55,-34],[-24,-6],[25,101]],[[6860,806],[7,42],[-2,148],[0,179],[-2,31],[-42,50],[-20,65],[-2,39],[10,128],[42,39],[125,37],[13,14],[48,87],[6,37],[-6,79],[26,47],[17,7],[119,3]],[[8356,1038],[3,-84]],[[8359,954],[2,-127],[-11,-47],[-45,-126],[-15,-58],[-5,-79],[-16,-45],[-46,-39],[-48,-9],[-144,9]],[[8031,433],[-5,30],[67,2],[13,39],[44,1],[-3,127],[-175,0],[-19,-7],[-31,39],[-75,26],[-22,22],[-2,21],[14,44],[-21,70],[14,44],[50,43],[9,35],[-15,85]],[[6346,4086],[48,-6],[107,40],[56,25],[24,4],[51,-14],[103,-4],[317,4]],[[7052,4135],[0,-147],[7,-35],[15,-26],[48,-39],[23,-27],[13,-42],[29,-150],[28,-46],[76,-65],[33,-43],[54,-186],[4,-32],[-5,-40],[-20,-55],[0,-57]],[[7413,2854],[-54,-31],[-53,-37],[-126,-23],[-63,3],[-71,23],[-99,11],[-189,-1],[-41,3],[-23,24],[2,96],[-23,4],[-65,-2],[-75,101],[-17,55],[-18,14],[-104,24],[-52,23]],[[6342,3141],[3,157],[1,182],[-2,172],[1,152],[0,223],[1,59]],[[9579,2861],[-80,-190]],[[9499,2671],[-109,-260]],[[9004,1733],[-37,17],[-47,30],[-23,23],[-66,44],[-37,48],[-44,17],[-16,23],[-332,3]],[[8402,1938],[23,79],[18,39],[60,82],[51,92],[28,59],[114,207],[22,55],[10,61],[-8,167],[4,52],[27,79],[88,148],[59,-10],[23,-54],[140,-31],[23,-15],[10,21],[58,36],[23,43],[-4,32],[28,3],[56,24],[1,22],[22,24],[59,25],[-31,22],[49,27],[6,-36],[133,-214],[19,-20],[66,-96]],[[3533,5034],[252,2],[15,-38],[13,-61],[48,-176],[12,11],[27,54],[52,27],[283,-1],[135,-4],[142,4],[195,2],[96,3],[33,14],[239,189],[180,144],[87,50],[161,68],[36,1]],[[5539,5323],[35,-11],[31,-28],[39,-62]],[[5644,5222],[-2,-237],[2,-187],[-2,-102],[22,-49],[109,-120],[124,-233],[37,-48],[54,-7],[62,-37],[54,7],[22,-23],[11,-43],[-3,-42],[26,-47],[35,-22],[120,66],[31,-12]],[[6342,3141],[-53,7],[-63,-11],[-82,35],[-39,-3],[-48,16],[-103,56],[-48,11],[-130,-4],[-30,-16],[-81,-77],[-34,-14],[-105,14],[-127,47],[-135,73],[-32,-2],[-54,-14],[-27,-19],[-25,-38],[-27,-24],[-59,-14],[-99,3],[-89,27],[-1,-42],[-22,-54],[-43,-48],[-124,-128]],[[4662,2922],[-348,0]],[[4314,2922],[-31,76],[-102,271],[-111,301],[-90,243],[-79,275],[-35,80],[-62,98],[-82,112],[-108,158],[-24,41],[-33,85],[-16,68],[-7,90],[-1,214]],[[9499,2671],[115,-2],[110,-100],[30,-55],[0,-12]],[[9754,2502],[-2,-45],[11,-163],[26,-120]],[[7468,27],[164,138],[230,196],[54,39],[77,29],[38,4]],[[8359,954],[74,-21],[87,-20],[111,-19],[102,-4]],[[8733,890],[71,5],[109,14]],[[8910,728],[-234,-2],[0,-240]],[[8676,486],[2,-483]],[[8678,3],[-236,-1],[-194,15],[-26,11],[-40,-7],[-161,7],[-144,1],[-151,-3],[-181,3],[-77,-2]],[[9516,145],[7,32],[-3,81]],[[9520,258],[14,67],[12,22],[67,57],[15,25]],[[9735,416],[155,-14],[43,-16],[489,-382]],[[10422,4],[-479,-2],[-73,-2],[-223,3],[-179,-1]],[[9468,2],[48,143]],[[11420,6165],[36,36],[-7,51],[21,-2],[31,-37],[31,-14],[14,-20],[36,-5],[16,21],[44,15],[32,-41],[45,-8],[65,17],[44,-17],[12,21],[37,-2],[51,56],[-5,22],[22,24],[47,21],[15,-21],[96,12],[50,19],[24,-1],[55,21],[91,-5],[80,9],[84,27],[41,31],[22,3],[117,59],[22,16],[-22,22],[-26,3],[-5,46],[-1,405],[-3,128],[-23,-2]],[[12609,7075],[165,62],[397,157],[373,146],[137,55]],[[13681,7495],[316,123]],[[13997,7618],[-3,-63],[5,-368],[-2,-76],[1,-268],[-4,-185],[3,-260],[-2,-418],[2,-287],[-3,-297],[3,-313],[-24,-19],[-100,-32],[-113,-128],[-34,-44],[-27,-11],[-200,0],[-31,-11],[-84,-46],[-38,-41],[-22,-69],[-35,-37],[-85,-113],[-129,-124],[-39,-25],[-51,-70],[-34,-35],[-38,-20],[-38,-29]],[[12875,4229],[-16,-28],[-78,-47],[-27,-23],[-89,-50],[-102,-62],[-57,-56],[-55,-64],[-35,-12],[-142,-12],[-68,9],[-40,-4],[-243,10],[-367,5]],[[11556,3895],[2,85],[7,48],[27,109],[50,72],[36,40],[21,91],[-1,25],[51,36],[22,40],[34,116],[12,60],[-16,60],[-13,72],[5,56],[-90,-6],[-3,54],[-53,0],[29,62],[28,72],[-5,207],[-4,29],[11,21],[46,7],[14,42],[1,31],[-18,33],[-21,9],[-1,42],[-21,-1],[-13,34],[3,23],[22,26],[6,87],[-22,13],[-21,29],[-20,3],[-24,27],[-19,42],[-54,30],[26,21],[6,30],[-23,77],[-73,-1],[-5,36],[51,36],[-11,38],[22,0],[16,31],[-35,32],[7,16],[29,-4],[23,16],[-25,27],[-37,5],[-30,-11],[-8,38],[-38,-10],[11,33],[-44,-11],[-6,45]],[[9520,258],[-143,2]],[[9377,260],[-1,224]],[[11348,11138],[23,-9],[-3,-33],[37,-5],[9,-32],[41,5],[23,-24],[28,-6],[22,10],[12,25],[43,-3],[3,14],[43,22],[121,28],[1,21],[54,28],[14,-12],[30,10],[17,-22],[53,-16],[29,-16],[54,15],[14,43],[24,-21],[1,-48],[41,4],[26,21],[8,-41],[17,4],[52,-21],[39,-26],[66,16],[-21,-39],[58,-65],[18,11],[80,-2],[4,32],[56,6],[45,23],[37,26],[21,-2],[9,-36],[24,32],[31,-5],[0,-23],[36,-23],[34,18],[12,46],[36,-22],[26,27],[39,5],[-21,34],[32,5],[30,24],[23,6],[1,61],[31,25],[9,29],[22,-12],[33,6],[21,28],[81,1],[47,21],[9,49],[3,68],[-29,36],[20,25],[0,31],[26,10],[27,55],[20,-12],[7,-26],[47,20],[11,-38],[22,6],[6,-42],[55,5],[21,-38],[49,0],[67,-76],[51,-4],[11,-14],[4,-41],[28,-3],[-3,26],[27,7],[10,-27],[34,10],[24,-39],[-3,-36],[54,11],[-1,-35],[28,-33],[28,-5],[12,-31],[1,-31],[39,0],[-4,-20],[-26,-27],[12,-44],[21,-9],[24,8],[20,-28],[3,-20],[26,-17],[32,36],[41,-22],[8,-39],[22,-27],[-25,-15],[31,-38],[-7,-27],[28,-4],[-19,-33],[7,-17],[60,-7],[34,-17],[30,9],[14,21]],[[14181,10797],[-17,-42],[-48,-15],[-175,-87],[-20,-47],[-35,-142],[-57,-80],[6,-14],[64,-77],[23,-37],[27,-60],[31,-52],[19,-67],[4,-158],[7,-155],[-8,-88],[3,-51],[-9,-137],[7,-130],[-14,-141],[-19,-40],[4,-53],[20,-91],[1,-202],[3,-58],[-2,-193],[1,-206],[18,-183],[-6,-104],[-12,-70],[2,-175],[-2,-224]],[[13681,7495],[-13,17],[-35,4],[-109,27],[-46,19],[-31,-9],[-40,22],[-83,6],[-9,24],[-37,16],[-18,-6],[-32,-42],[-20,14],[-30,3],[-64,18],[-50,-4],[-75,-51],[-70,-19],[-53,19],[-49,-4],[-45,19],[-18,23],[-72,36],[-13,0],[-28,-27],[-11,12],[-50,4],[-66,-96],[-57,-56],[-67,65],[-186,199],[-36,17],[-415,-3],[-281,1],[24,51],[96,186],[-271,1]],[[11321,7981],[47,245],[-3,62],[12,59],[48,130],[37,131],[41,165],[21,59],[36,137],[9,56],[5,74],[-20,566],[-7,146],[-11,49],[-52,31],[-83,0],[-93,25],[-11,32],[14,29],[124,182],[-53,329],[-20,187],[-15,157],[6,14],[-13,186],[8,106]],[[14181,10797],[9,-39],[34,-18],[37,26],[18,-12],[8,-37],[32,4],[24,-11],[-1,-32],[30,4],[-2,-34],[28,-6],[37,-33],[36,29],[9,-25],[37,-14],[35,34],[37,-10],[23,-41],[27,24],[-1,15],[34,14],[14,-30],[31,3],[8,-13],[36,3],[11,-65],[24,-35],[18,30],[36,7],[19,-54],[29,1],[-13,-33],[23,-18],[29,-7],[16,-24],[30,-20],[7,-34],[40,-7],[-8,35],[30,1],[5,-43],[20,-7],[9,50],[29,-17],[4,-18],[35,-11],[31,2],[15,-29],[17,30],[24,-2],[-7,-42],[31,11],[20,44],[37,-7],[54,8],[22,-14],[41,36],[16,57],[41,-24],[16,19],[35,-19],[-3,-17],[48,-45],[-1,-18],[42,-13],[4,-31],[58,16],[22,-1],[26,-17],[4,-33],[19,-48],[17,-18],[22,-58],[32,1],[22,-16],[11,-31],[21,-26],[45,-7],[26,8],[17,-20],[23,14],[39,-11],[35,23],[58,-1],[14,17],[41,-23],[-9,35],[38,32],[0,-29],[20,-16],[60,25],[18,17],[17,-10],[34,5],[12,-20],[33,37],[-13,15],[28,22],[40,-24],[20,28],[-3,32],[45,-17],[31,11],[8,30],[54,8],[40,21],[16,22],[55,44],[5,-32],[89,-29],[39,20],[-8,35],[8,18],[38,-10],[22,4],[8,-23],[28,-17],[36,-61],[68,-56],[35,37],[24,14],[215,173],[83,79],[52,21],[75,52],[113,66],[20,15],[81,91],[44,39],[34,73],[79,60],[47,26],[40,9],[50,33],[38,48],[29,76],[32,28],[51,34],[59,17],[62,7],[63,34],[63,44],[51,23],[87,27],[81,-3],[91,-30],[118,-19],[97,1],[34,-3],[87,2],[124,-1],[28,9],[83,56],[38,9],[74,-2],[59,-7],[74,6],[13,12]],[[19594,11317],[7,-139],[-4,-1310]],[[19597,9868],[-157,-66],[-154,-64],[-620,-259],[-161,-69],[-106,-43],[-166,-71],[-925,-386],[-229,-97],[-300,-124],[-206,-88],[-595,-248],[-186,-70],[-358,-127],[-381,-136],[-353,-126],[-119,-45],[-305,-121],[-279,-110]],[[8485,3260],[0,132],[-9,115],[4,33],[18,32],[165,221],[12,27],[4,68]],[[8679,3888],[310,6],[226,-1],[178,2],[73,18],[47,-13]],[[9513,3900],[56,-11],[39,6],[211,-1],[20,4],[35,24],[17,-52],[-44,-110],[16,-37],[52,-9],[28,5]],[[9943,3719],[-199,-466],[-137,-327]],[[9607,2926],[-28,-65]],[[19597,9868],[-3,-252],[2,-179],[-1,-40],[-1,-290],[2,-172],[-5,-1157],[-33,-15],[-92,-13],[-33,-9],[-6,-50],[18,-37],[-7,-18],[-26,-2],[-50,12],[-19,-11],[-23,-55],[-21,-79],[-25,-20],[-55,-24],[-15,-20],[-66,-29],[-19,-26],[-17,-47],[-89,-24],[-75,-82],[-28,-19],[-31,-42],[-15,-34],[-47,-26],[-10,-16],[-6,-83],[-11,-47],[-41,-96],[-27,-17],[-32,-2],[-66,65],[-24,-1],[-52,-37],[-60,-26],[-19,-39],[5,-22],[77,-22],[34,-32],[2,-51],[-37,-39],[-59,-26],[-299,-60],[-29,-26],[-8,-20],[9,-30],[37,-30],[9,-50],[-3,-95],[-30,-46],[-48,-50],[-29,-84],[-20,-21],[-43,1],[-34,21],[-11,49],[22,109],[44,54],[0,21],[-37,17],[-50,-30],[-37,2],[-28,30],[-44,33],[-27,-24],[18,-40],[58,-67],[8,-19],[-7,-36],[-49,-67],[-35,-27],[-23,9],[-19,56],[2,77],[-23,31],[-25,6],[-53,-16],[-76,-13],[-31,8],[-103,50],[-22,-3],[-3,-37],[48,-32],[19,-25],[-6,-69],[-29,-57],[-41,-1],[-17,9],[-28,49],[-38,8],[-32,-25],[17,-86],[-11,-20],[-31,-6],[-36,20],[-31,27],[-28,43],[5,33],[35,17],[-37,18],[-76,-13],[-56,6],[-27,-14],[-32,-37],[-53,-11],[-65,34],[-58,5],[-32,19],[-8,24],[12,24],[-1,30],[11,26],[-11,21],[-19,-3],[-49,-43],[2,-56],[-17,-44],[-22,-13],[-26,11],[-6,27],[14,50],[15,19],[-7,71],[-25,35],[-46,47],[-17,4],[-24,-19],[-5,-62],[-9,-30],[7,-42],[-15,-38],[-60,-44],[-10,-38],[-30,-50],[-33,-27],[-69,-5],[-53,30],[-49,0],[-126,20],[-38,25],[-38,-27],[-24,-29],[-31,-101],[-26,-175],[-15,-182],[-29,-30],[-46,-20],[4,-74],[-14,-35],[-84,-37],[-20,-22],[-15,-58],[-29,-28],[-73,-30],[-58,11],[-53,31],[-84,32],[-88,53],[-22,5],[-59,-107],[-31,-49],[-39,-33],[-47,-64],[-84,-41],[-2,-24],[53,-66],[30,-63],[7,-42],[-4,-22],[-56,-65],[-8,-43],[14,-25],[30,-24],[9,-21],[-33,-28],[-46,-15],[-46,20],[-30,29],[-21,6],[-13,-29],[3,-44],[-21,-41],[-37,-36],[-77,-37],[-54,7],[-35,11],[-48,3],[-35,-16],[-20,-20],[-23,-38],[3,-34],[60,-67],[10,-75],[-27,-51],[-53,-9],[-48,13],[-89,-10],[-71,47],[-38,-7],[-28,-26],[-2,-28],[2,-95],[-7,-30],[-35,-84],[-35,-65],[-46,-40],[-22,-33],[4,-32],[15,-37],[-7,-36],[-33,-37],[-55,-33],[-33,3],[-53,31],[-48,-3],[-49,14],[-44,2]],[[13901,3787],[-29,110],[-19,36],[-40,34],[-50,14],[-388,15],[-101,17],[-235,61],[-51,28],[-42,42],[-71,85]],[[11112,11418],[37,74],[29,21],[14,21],[-23,45],[15,53],[-7,56],[12,24],[43,39],[-33,41],[0,27],[24,31],[-1,20],[-31,30],[19,17],[79,-14],[91,25],[-21,36],[1,23],[34,24],[3,17],[-25,13],[0,29],[38,21],[17,33],[6,31],[-21,17],[-40,7],[7,36],[31,-3],[19,18],[-3,24],[-21,24],[51,14],[4,19],[-18,29],[15,28],[-8,26],[-44,13],[-9,34],[40,26],[36,-8],[39,4],[52,43],[17,38],[-27,35],[-8,56],[13,12],[29,-2],[22,39],[-24,50],[14,34],[32,-12],[18,12],[-6,40],[2,45],[28,66],[9,77],[21,43],[-14,17],[-36,-10],[-31,20],[-7,47],[26,11],[43,-14],[28,28],[-23,64],[0,30],[49,24],[13,50],[42,53],[2,32],[-34,27],[-27,0],[-31,24],[0,61],[43,58],[17,68],[25,36],[-10,24],[-44,-12],[-14,27],[41,65],[2,75],[-17,21],[23,28],[4,32],[-15,35],[-1,27],[12,55],[21,34],[-6,58],[5,28],[50,41],[30,77],[24,29],[22,8],[31,-23],[18,-61],[20,-39],[23,-5],[13,16],[26,76],[19,35],[16,-38],[-6,-45],[13,-5],[89,39],[54,10],[85,47],[73,71],[9,17],[-4,44],[10,42],[34,50],[13,61],[36,71],[54,62],[-3,24],[-48,1],[-22,9],[-13,25],[12,42],[24,15],[19,-3],[40,-41],[21,0],[25,25],[-17,72],[4,47],[30,47],[36,18],[-11,41],[37,-3],[17,16],[35,57],[-12,24],[-24,-3],[-27,19],[17,51],[58,32],[10,32],[21,29],[4,29],[-13,25],[-34,-4],[-19,14],[10,24],[35,24],[22,31],[21,-3],[20,-29],[24,2],[43,46],[94,7],[25,20],[15,52],[-17,66],[5,41],[91,86],[50,60],[39,59],[8,36],[711,0],[877,1],[877,1],[122,-4],[844,6],[-24,189],[663,5],[338,-9],[494,-4],[238,6],[30,-7],[338,2],[259,-1],[93,1],[546,-4],[0,-329],[-2,-195],[1,-373],[-2,-552],[4,-512],[1,-480],[0,-1089],[0,-366],[-3,-420],[4,-20],[0,-338],[-8,-95]],[[11348,11138],[-37,-10],[-10,-18],[-24,10],[-22,52],[-18,3],[-23,-31],[-21,-2],[-14,29],[21,34],[-16,39],[11,42],[19,-7],[10,42],[-31,0],[-20,12],[-19,35],[7,31],[-49,19]],[[9937,916],[-1,3]],[[9936,919],[71,48],[53,48],[60,72],[36,55],[47,98],[20,63],[61,238],[35,106]],[[10319,1647],[33,-13],[14,-52],[43,-282],[7,-2]],[[10416,1298],[-21,-17],[-28,-95],[-7,-46],[14,-43],[37,-139],[32,-49],[34,-39],[1,-61],[13,-50],[65,-78],[-3,-24],[-21,-50],[-29,-38],[-25,-11],[-94,18],[-35,30],[10,40],[-9,34],[-55,6],[-45,-5],[-27,-17],[-8,-29],[12,-36],[87,-105],[28,-47],[12,-44],[59,-53],[19,-25],[17,-79],[66,-75],[19,-13],[8,-27],[-14,-106],[-13,-15],[-35,-6],[-58,0]],[[5647,132],[119,55],[203,132],[212,146],[31,39],[66,38],[28,32],[49,1],[49,22],[45,53],[11,24],[0,49],[16,34],[96,17],[82,-13],[47,-1],[53,15],[60,25],[46,6]],[[7468,27],[-258,-3],[-296,-1],[-159,1],[-230,-2],[-342,-1],[-144,-2],[-155,0],[-116,-5],[-125,9],[4,109]],[[5647,132],[-3,857],[0,214],[-2,171],[3,1123],[0,331],[1,91],[-233,3],[-751,0]],[[4572,8167],[124,15],[51,-2],[111,-49],[227,-107],[35,-23],[28,-53],[1,-128],[13,-58],[22,-35],[111,-111],[34,-50],[43,-96],[70,-43],[97,-41],[41,-28],[121,-115],[107,-97],[120,-103],[32,-35],[35,-53],[24,-65],[34,-296],[1,-42],[-11,-61],[-39,-85],[-42,-132],[-56,-159],[-9,-48],[16,-40],[56,-70],[-42,-106],[-39,-189],[-9,-72],[-24,-54],[-2,-92],[-14,-38],[-21,-17],[-64,-15],[-73,-33],[-80,0],[-55,-8],[-7,-10]],[[3533,5034],[-1,121],[-4,61],[-12,65],[-27,79],[-19,41],[-36,58],[-129,161],[-165,198],[-120,149],[-184,220],[-306,376],[-44,49],[-109,136]],[[2377,6748],[40,33],[41,-10],[27,5],[19,16],[10,47],[15,21],[32,1],[11,-23],[-15,-48],[-32,-30],[-4,-20],[15,-26],[50,2],[27,21],[29,38],[28,17],[16,24],[7,37],[28,63],[-12,44],[-42,41],[13,21],[37,-6],[24,20],[11,42],[15,6],[47,-13],[38,19],[25,-23],[-14,-37],[8,-49],[43,-58],[1,-21],[-13,-56],[48,-22],[25,-4],[19,19],[41,9],[29,-21],[27,1],[57,36],[34,32],[20,31],[5,43],[18,15],[43,6],[33,24],[1,15],[-59,9],[-17,33],[26,19],[65,26],[70,14],[43,24],[65,5],[18,37],[-23,39],[25,34],[-2,29],[-36,20],[-40,32],[4,32],[54,5],[32,10],[53,32],[41,3],[43,61],[36,36],[-17,53],[24,36],[3,26],[-20,39],[39,47],[6,24],[21,25],[25,0],[43,-27],[26,11],[-3,24],[-24,31],[-2,26],[47,38],[-8,35],[-43,5],[-18,28],[12,41],[62,28],[56,58],[35,20],[49,46],[28,10],[16,29],[20,6],[25,-43],[18,-7],[24,11],[33,54],[22,8],[39,-10],[9,-13],[-7,-41],[17,-33],[24,-17],[62,4],[23,20],[35,8],[17,-14],[-17,-49],[16,-37],[44,13],[69,95],[42,29]],[[4314,2922],[-588,1],[-652,-5],[-9,6],[-103,4],[-317,-2],[-386,-1],[-295,-2],[-806,3],[-1007,5],[-104,3],[-4,39],[-2,200],[1,163],[5,65],[-3,196],[2,1143],[2,299],[-8,739],[13,27],[-8,25],[-31,46],[-14,33],[3,27],[23,26],[30,-34],[37,4],[27,50],[19,23],[63,15],[-2,28],[-31,12],[-21,32],[11,33],[43,16],[43,-13],[29,1],[31,31],[29,13],[80,-15],[22,27],[36,8],[25,-14],[36,-69],[25,-14],[26,22],[16,50],[16,13],[28,-11],[24,-60],[18,-20],[42,-8],[60,13],[25,-6],[31,-61],[30,-24],[20,-111],[22,-8],[23,21],[49,72],[7,-5],[-4,-52],[24,-2],[9,45],[18,12],[45,-36],[52,-22],[0,-30],[-31,-17],[-18,-22],[-16,-52],[18,-23],[33,11],[41,58],[36,21],[20,-10],[15,-28],[42,-19],[41,110],[30,24],[34,13],[63,15],[13,38],[-16,35],[-1,28],[38,40],[6,33],[26,17],[13,-10],[37,-86],[39,-9],[32,18],[74,4],[57,21],[13,14],[-9,23],[-40,39],[-27,13],[0,29],[65,17],[25,21],[68,12],[24,18],[13,40],[-16,72],[24,31],[29,2],[11,-27],[50,-7],[22,21],[0,18],[-31,22],[-58,5],[-23,18],[-1,30],[60,6],[74,16],[44,-9],[34,33],[11,59],[19,33],[24,70],[22,13],[53,-12],[12,-65],[-4,-50],[-20,-56],[16,-51],[41,2],[63,40],[28,38],[6,23],[0,58],[-32,72],[22,19]],[[11155,7061],[25,82],[18,108],[10,94],[18,84]],[[11226,7429],[18,89],[7,52],[28,156],[38,220],[4,35]],[[12609,7075],[-77,-30],[-61,-18],[-235,-49],[-76,-2],[-48,12],[-69,27]],[[12043,7015],[-63,26]],[[11453,7062],[-2,0]],[[11451,7062],[-296,-1]],[[9070,1657],[-337,-767]],[[9070,1657],[30,-52],[29,-39],[71,-117],[48,-171],[34,-72],[-3,-26],[21,-31],[81,-164]],[[9381,985],[-4,-68]],[[9375,1692],[1,-304],[6,-48],[13,-244],[-14,-111]],[[11321,7981],[-531,-1],[-10,-4],[-3,-81],[0,-170],[-22,9],[-193,1],[0,-213],[-8,-61],[-34,-89],[-23,-45]],[[10497,7327],[-44,-80],[-26,-58],[-21,-63],[-15,-68],[-11,-80],[-2,-134]],[[10378,6844],[-128,-60],[-202,-93],[-48,-38],[-155,-192],[-87,-150],[-47,-49],[-208,-184],[-34,-26],[-108,-73],[-225,-79],[-38,-4],[-79,9],[-59,25],[-118,92],[-34,14],[-103,17],[-51,18],[-97,12]],[[8557,6083],[-96,-23],[-115,-2],[-58,-24],[-232,-206],[-53,-50],[-48,-53],[-55,-44],[-97,-84],[-33,-18],[-134,-52],[-124,-21]],[[7512,5506],[-297,-65],[-165,1],[-74,-9],[-209,-2],[-49,-14],[-27,-22],[-71,-77],[-73,-107],[-14,-16],[-106,-85],[-41,-16],[-62,11],[-90,56],[-5,-6],[-76,48],[-34,5],[-199,-4],[-207,-10],[-48,12],[-21,16]],[[4572,8167],[-31,38],[3,45],[26,76],[4,82],[-25,44],[14,33],[39,0],[35,-25],[16,-1],[23,34],[-14,49],[14,27],[51,0],[9,15],[-31,27],[13,34],[53,5],[28,-12],[7,-35],[-5,-38],[9,-15],[28,7],[26,32],[-7,40],[16,18],[21,-22],[-11,-28],[13,-36],[26,-25],[16,0],[39,37],[15,-3],[-11,-39],[55,-2],[18,-24],[21,0],[10,20],[0,44],[20,45],[32,32],[23,7],[60,-5],[23,12],[2,26],[35,40],[39,-8],[7,-44],[26,-12],[62,12],[31,18],[33,-8],[32,-28],[52,-21],[24,-27],[32,-21],[23,19],[-4,22],[-37,9],[-10,25],[15,27],[22,-26],[21,4],[-5,44],[13,27],[22,18],[5,30],[20,-5],[47,-44],[41,2],[11,19],[-36,34],[1,19],[103,2],[38,42],[51,3],[31,24],[25,-20],[8,-56],[36,-15],[26,19],[-18,48],[18,40],[32,3],[9,-18],[-4,-37],[8,-23],[44,-52],[11,-41],[-6,-66],[31,-36],[26,-5],[22,12],[39,62],[41,36],[50,-1],[19,-25],[25,-12],[38,8],[78,48],[41,9],[2,31],[28,18],[25,30],[38,4],[43,-13],[37,-35],[52,-3],[80,-33],[22,9],[-9,31],[30,25],[18,-22],[20,0],[55,22],[3,31],[-25,8],[5,28],[30,30],[-1,27],[-26,24],[3,62],[27,5],[54,-25],[45,1],[58,42],[42,22],[87,97],[-49,30],[16,28],[34,-17],[17,17],[-14,32],[18,25],[25,-8],[40,-29],[25,1],[27,18],[21,33],[18,-16],[34,2],[51,42],[41,19],[42,-11],[18,12],[-12,29],[12,13],[78,44],[23,5],[23,-17],[27,17],[23,51],[38,25],[42,14],[65,-2],[15,38],[27,33],[4,61],[30,14],[40,-1],[13,-14],[-7,-25],[16,-22],[32,41],[23,13],[3,-31],[18,-21],[60,67],[21,-4],[53,-70],[7,-37],[20,-51],[3,-31],[28,-30],[33,23],[42,50],[60,1],[25,26],[-13,21],[-21,-5],[-29,18],[-7,18],[5,36],[55,7],[18,27],[-17,43],[-24,-4],[-9,21],[13,25],[-2,30],[-28,14],[6,23],[34,0],[8,28],[-31,29],[-5,22],[37,-2],[19,28],[54,31],[36,56],[22,5],[22,-66],[19,-21],[56,-11],[35,16],[93,9],[35,-15],[5,32],[-27,24],[6,28],[54,-1],[94,-19],[30,-2],[10,16],[-24,59],[15,25],[66,-34],[65,21],[21,-8],[12,-24],[-31,-44],[2,-23],[20,-13],[71,-5],[44,45],[5,53],[14,13],[34,-49],[29,-20],[38,-56],[21,-8],[23,9],[144,138],[11,21],[-56,24],[7,30],[34,23],[107,46],[19,21],[-24,40],[3,16],[49,43],[37,15],[-1,28],[-21,19],[-42,20],[5,22],[55,48],[26,7],[30,-18],[20,11],[9,73],[24,27],[24,-3],[42,-50],[44,40],[-2,21],[-20,14],[-4,31],[30,38],[29,52],[3,52],[11,8],[46,-29],[36,10],[22,50],[0,24],[-24,8],[-30,-25],[-15,25],[3,46],[28,-3],[34,10],[28,44],[31,-17],[24,40],[21,-7],[0,-31],[36,2],[36,-17],[36,-8],[30,-17],[15,13],[8,30],[22,15],[51,-19],[7,27],[-11,39],[16,20],[38,-49],[38,-14],[29,5],[17,89],[-25,36],[17,20],[66,1],[23,-11],[9,-33],[22,-9],[49,16],[45,35],[21,55],[-32,37],[77,52],[17,28],[-23,37],[8,44],[40,29],[74,-2]],[[8909,487],[-233,-1]],[[8909,487],[0,-208],[86,0],[48,30],[101,8]],[[9144,317],[-1,-67],[-21,-66],[4,-60],[-1,-121]],[[9125,3],[-215,-2],[-232,2]],[[9144,317],[0,153],[8,14]],[[9377,260],[-5,-70],[-19,-44]],[[9353,146],[-38,-76],[-2,-67]],[[9313,3],[-188,0]],[[7512,5506],[3,-145],[0,-370],[-1,-315],[-4,-100],[32,-3],[439,0]],[[7981,4573],[1,-287],[-2,-359]],[[7980,3927],[-26,5],[-188,81],[-113,45],[-29,8],[-154,22],[-128,44],[-180,4],[-110,-1]],[[9943,3719],[72,171],[173,405],[139,328],[305,716],[242,1],[123,3],[8,25],[-2,186],[16,16],[-12,56],[-5,172],[-6,41],[-16,60],[-17,23],[-47,30],[209,359]],[[11125,6311],[107,-66],[60,-21],[64,-61],[13,40],[22,-14],[-26,-38],[17,-11],[38,25]],[[11556,3895],[-231,-3],[-25,4],[-28,-10],[-41,0]],[[11231,3886],[-269,7],[-186,3]],[[10776,3896],[-228,2],[-234,0],[-33,-8],[-148,-62],[-161,-105],[-29,-4]],[[9353,146],[163,-1]],[[9468,2],[-155,1]],[[8557,6083],[-1,-101],[-1,-387],[11,-39],[-1,-334],[-2,-122],[2,-90],[-12,-190],[-8,-169],[17,-79]],[[8562,4572],[-112,2],[-469,-1]],[[13901,3787],[-58,-17],[-82,-92],[-17,-48],[27,-35],[30,-3],[51,29],[12,-15],[-11,-27],[-60,-48],[-47,0],[-117,-59],[-116,-39],[-22,-23],[3,-74],[-21,-58],[-40,-5],[-40,-26],[-17,-45],[-33,-52],[5,-74],[-23,-35],[-30,2],[-38,43],[-5,16],[-39,49],[-55,28],[-48,13],[-33,18],[-40,-5],[-26,-30],[-31,-62],[-34,6],[-35,86],[-71,-2],[-18,15],[-18,45],[-38,9],[-12,-31],[-10,-68],[-32,-59],[-32,-73],[-2,-44],[10,-68],[-19,-16],[-86,4],[-21,-19],[-60,-70],[-40,-65],[-22,-6],[-32,23],[-16,41],[-40,58],[-89,-14],[-67,0],[-77,-24],[-26,-14],[-28,-51],[10,-77],[-14,-29],[-75,-30],[-37,12],[-33,44],[-20,1],[-7,-24]],[[11889,2673],[-263,124],[-51,19],[-45,-84],[-66,-99],[-34,-39],[-65,-60],[-46,-34],[-89,-54],[-81,-37],[-111,-35],[-147,-40],[-61,-25],[-70,-38],[-78,-53],[-65,-58],[-37,13],[-39,2]],[[10541,2175],[3,216],[22,23],[206,2],[4,9],[0,111],[11,7],[304,2],[14,4],[17,154],[-2,153],[-11,35],[-42,13],[-12,20],[9,18],[90,90],[13,24],[6,57],[1,166],[-2,153],[8,39],[48,167],[4,36],[-1,212]],[[8562,4572],[35,-104],[15,-19],[41,-17],[22,-20],[8,-24],[-4,-318],[0,-182]],[[8679,3888],[-48,-2],[-131,5],[-97,1],[-245,-3],[-72,18],[-106,20]],[[9607,2926],[247,5],[212,-4],[362,0],[353,730],[-41,52],[1,37],[13,26],[1,34],[13,17],[8,73]],[[10541,2175],[-233,-1],[-272,0],[-1,331],[-23,40],[-39,26],[-11,30],[-99,-15],[-86,-54],[-23,-30]],[[10378,6844],[2,-148],[-3,-156],[1,-141],[-6,-108],[-14,-88],[-24,-97],[-43,-162],[-72,-266],[-42,-95],[-29,-58],[-159,-280],[-88,-148],[-58,-111],[-73,-127],[9,1],[-57,-103],[-21,-56],[-16,-66],[-7,-59],[-2,-200],[3,-82],[-7,-83],[-16,-53],[-143,-258]],[[11889,2673],[-4,-45],[-14,-27],[-24,-13],[-32,-2],[-53,8],[-23,-14],[-12,-58],[33,-61],[-12,-34],[-25,-14],[-106,-8],[-28,-12],[-8,-47],[26,-70],[-28,-58],[-2,-28],[-28,-90],[-22,-17],[-56,5],[-39,-19],[-12,-73],[-62,-96],[-50,-51],[-84,-104],[-24,-39],[-45,-47],[-20,-49],[12,-38],[30,-5],[15,27],[38,29],[32,-18],[11,-42],[-8,-28],[-41,-42],[-64,-93],[-63,-40],[-30,-7],[-65,-57],[-51,-21],[-71,-5],[-57,22],[-23,30],[-30,16],[-19,-16],[1,-82],[-24,-41],[-25,-16],[-26,3],[-93,32],[-41,20],[-71,22],[-56,38]],[[10319,1647],[15,42],[-44,0]],[[10290,1689],[8,15],[-35,19],[-94,105],[-15,-15],[-41,23],[-20,38],[15,38],[-36,29],[-52,59],[-59,34],[-83,8],[-61,46],[-28,86]],[[9842,1635],[180,-4],[29,42],[29,12],[164,1],[46,3]],[[9936,919],[-16,132],[-1,61],[7,117],[16,47],[-7,35],[-36,32],[-57,227],[0,65]],[[11453,6778],[331,2],[272,-6],[0,45],[-13,196]],[[11125,6311],[115,198],[51,96],[14,41],[12,78],[1,53],[135,1]],[[10378,6844],[105,45],[77,26]],[[10560,6915],[34,-9],[13,-30],[-39,-4],[48,-37],[4,-46],[19,-39],[-26,-4],[-16,-17],[25,-29],[-3,-35],[21,-15],[-6,-19],[15,-20],[38,-18],[25,6],[4,27],[20,7],[19,-74],[41,0],[-13,-39],[27,-45],[49,6],[0,28],[28,6],[16,-47],[37,-55]],[[10940,6413],[30,9],[42,-19],[113,-92]],[[11226,7429],[-221,0],[0,-171],[-10,0]],[[10995,7258],[-220,-2],[-1,-108],[-55,57],[-63,23],[-47,42],[-40,16],[-72,41]],[[11155,7061],[-159,-1]],[[10996,7060],[-1,198]],[[10560,6915],[132,43],[46,24],[73,53],[29,14],[47,10],[109,1]],[[11155,7061],[-8,-41],[8,-12],[-28,-138],[-13,-44],[-122,-309],[-52,-104]],[[11453,6778],[-2,284]]],"transform":{"scale":[0.000036812213039485696,0.00003019140479443553],"translate":[-90.451494,32.399411]},"objects":{"Geometry\\28-089":{"type":"GeometryCollection","geometries":[{"arcs":[[0,1,2,3,4]],"type":"Polygon","properties":{"GEOID":"280890303012"}},{"arcs":[[5,6]],"type":"Polygon","properties":{"GEOID":"280890306001"}},{"arcs":[[7,8,9,10,11]],"type":"Polygon","properties":{"GEOID":"280890301072"}},{"arcs":[[12,13,14,15]],"type":"Polygon","properties":{"GEOID":"280890301041"}},{"arcs":[[16,-12,17,18,-14,19]],"type":"Polygon","properties":{"GEOID":"280890301042"}},{"arcs":[[20,21,22,23]],"type":"Polygon","properties":{"GEOID":"280890302022"}},{"arcs":[[-23,24,25,26,27]],"type":"Polygon","properties":{"GEOID":"280890302023"}},{"arcs":[[28,29,-24,-28,30,31]],"type":"Polygon","properties":{"GEOID":"280890302031"}},{"arcs":[[-3,32,33,34,35]],"type":"Polygon","properties":{"GEOID":"280890302042"}},{"arcs":[[-34,36,37,38,39]],"type":"Polygon","properties":{"GEOID":"280890302051"}},{"arcs":[[-35,-40,40,41,42]],"type":"Polygon","properties":{"GEOID":"280890302052"}},{"arcs":[[-41,-39,43,44,45]],"type":"Polygon","properties":{"GEOID":"280890302062"}},{"arcs":[[46,47,-5,48,49]],"type":"Polygon","properties":{"GEOID":"280890303011"}},{"arcs":[[50,51,-29,52,53]],"type":"Polygon","properties":{"GEOID":"280890302032"}},{"arcs":[[54,55,56,-50,57,58,59]],"type":"Polygon","properties":{"GEOID":"280890303022"}},{"arcs":[[-52,60,61,-21,-30]],"type":"Polygon","properties":{"GEOID":"280890302021"}},{"arcs":[[62,-45,63,64,-20,-13,65,66,67]],"type":"Polygon","properties":{"GEOID":"280890301052"}},{"arcs":[[68,69,-10,70,71,72]],"type":"Polygon","properties":{"GEOID":"280890301084"}},{"arcs":[[73,74,75,76,77,78]],"type":"Polygon","properties":{"GEOID":"280890309003"}},{"arcs":[[-11,-70,79,80]],"type":"Polygon","properties":{"GEOID":"280890301081"}},{"arcs":[[81,82,-76,83,84]],"type":"Polygon","properties":{"GEOID":"280890309002"}},{"arcs":[[85,86,87,-83]],"type":"Polygon","properties":{"GEOID":"280890309001"}},{"arcs":[[-2,88,89,90,91,92,-54,-37,-33]],"type":"Polygon","properties":{"GEOID":"280890302041"}},{"arcs":[[-88,93,94,-77]],"type":"Polygon","properties":{"GEOID":"280890309004"}},{"arcs":[[95,-86,-82,96]],"type":"Polygon","properties":{"GEOID":"280890310001"}},{"arcs":[[97,98,99,100,-71,-9]],"type":"Polygon","properties":{"GEOID":"280890301071"}},{"arcs":[[101,-42,-46,-63,102]],"type":"Polygon","properties":{"GEOID":"280890302061"}},{"arcs":[[-49,-4,-36,-43,-102,103,-58]],"type":"Polygon","properties":{"GEOID":"280890303023"}},{"arcs":[[104,-55,105,106]],"type":"Polygon","properties":{"GEOID":"280890303024"}},{"arcs":[[-106,-60,107]],"type":"Polygon","properties":{"GEOID":"280890303021"}},{"arcs":[[108,109,-84,-75,110,111,-7,112,113]],"type":"Polygon","properties":{"GEOID":"280890306002"}},{"arcs":[[-53,-32,114,-64,-44,-38]],"type":"Polygon","properties":{"GEOID":"280890301091"}},{"arcs":[[115,116,-17,-65,-115]],"type":"Polygon","properties":{"GEOID":"280890301093"}},{"arcs":[[-27,117,-116,-31]],"type":"Polygon","properties":{"GEOID":"280890301092"}},{"arcs":[[-97,-85,118,119,120,121,122,-56,-105,123]],"type":"Polygon","properties":{"GEOID":"280890304031"}},{"arcs":[[-16,124,-66]],"type":"Polygon","properties":{"GEOID":"280890301051"}},{"arcs":[[-125,125,126,127,-67]],"type":"Polygon","properties":{"GEOID":"280890301111"}},{"arcs":[[128,-18,-81,129,130,131,-127]],"type":"Polygon","properties":{"GEOID":"280890301122"}},{"arcs":[[-123,132,133,134,-47,-57]],"type":"Polygon","properties":{"GEOID":"280890304023"}},{"arcs":[[135,136,-79,137,138,139]],"type":"Polygon","properties":{"GEOID":"280890304011"}},{"arcs":[[-15,-19,-129,-126]],"type":"Polygon","properties":{"GEOID":"280890301121"}},{"arcs":[[140,-73,141,-131]],"type":"Polygon","properties":{"GEOID":"280890301083"}},{"arcs":[[-122,142,143,-133]],"type":"Polygon","properties":{"GEOID":"280890304021"}},{"arcs":[[-138,-78,-95,144,145,146]],"type":"Polygon","properties":{"GEOID":"280890302083"}},{"arcs":[[-144,147,148,-134]],"type":"Polygon","properties":{"GEOID":"280890304022"}},{"arcs":[[-93,149,-139,-147,150,-61,-51]],"type":"Polygon","properties":{"GEOID":"280890302081"}},{"arcs":[[-121,151,-90,-148,-143]],"type":"Polygon","properties":{"GEOID":"280890304013"}},{"arcs":[[-151,-146,152,-100,153,154,-62]],"type":"Polygon","properties":{"GEOID":"280890302072"}},{"arcs":[[155,-154,-99,156]],"type":"Polygon","properties":{"GEOID":"280890301102"}},{"arcs":[[157,-111,-74,-137,158]],"type":"Polygon","properties":{"GEOID":"280890311002"}},{"arcs":[[-140,-150,-92]],"type":"Polygon","properties":{"GEOID":"280890302082"}},{"arcs":[[-152,159,160,161,-136,-91]],"type":"Polygon","properties":{"GEOID":"280890304012"}},{"arcs":[[-156,-25,-22,-155]],"type":"Polygon","properties":{"GEOID":"280890302071"}},{"arcs":[[-26,-157,-98,-8,-117,-118]],"type":"Polygon","properties":{"GEOID":"280890301101"}},{"arcs":[[-135,-149,-89,-1,-48]],"type":"Polygon","properties":{"GEOID":"280890303013"}},{"arcs":[[-119,-110,162,163]],"type":"Polygon","properties":{"GEOID":"280890305021"}},{"arcs":[[-80,-69,-141,-130]],"type":"Polygon","properties":{"GEOID":"280890301082"}},{"arcs":[[-163,-109,164,165]],"type":"Polygon","properties":{"GEOID":"280890305011"}},{"arcs":[[166,-165,167,-161]],"type":"Polygon","properties":{"GEOID":"280890305012"}},{"arcs":[[-164,-166,-167,-160,-120]],"type":"Polygon","properties":{"GEOID":"280890305022"}},{"arcs":[[-113,-6,-112,-158,168]],"type":"Polygon","properties":{"GEOID":"280890311001"}},{"arcs":[[-168,-114,-169,-159,-162]],"type":"Polygon","properties":{"GEOID":"280890311003"}}]}}}