{"type":"Topology","arcs":[[[5627,12170],[11,17],[11,80],[21,6],[22,-20],[11,10],[2,51],[12,20],[39,-19],[11,24],[-22,64],[10,32],[22,0],[27,-63],[17,6],[23,53],[1,18],[-31,39],[16,27],[24,-43],[22,3],[69,120],[2,21],[-31,25],[-3,36],[36,76],[20,67],[16,37],[28,33],[3,16],[-22,39],[-18,14],[-43,13],[35,82],[9,40],[-4,25],[-42,31],[-53,9],[-34,-14],[-17,8],[-2,35],[18,15],[36,-4],[27,9],[11,29],[-26,22],[0,29],[52,-1],[48,34],[31,43],[60,6],[17,19],[-4,34],[-16,13],[-63,-42],[-24,0],[-10,16],[2,52],[11,14],[28,-6],[21,29],[9,65],[19,53],[-3,37],[-39,5],[-27,-11],[-8,18],[6,34],[22,36],[21,15],[-1,25],[-55,42],[-18,20],[1,36],[15,12],[26,-1],[7,20],[-33,75],[-13,60],[6,34],[28,67],[-52,60],[-7,28],[7,26],[16,10],[30,-7],[2,-31],[27,-14],[16,39],[-11,25],[-29,37],[-9,45],[15,24],[23,11],[36,3],[58,-17],[7,-61],[17,-4],[21,26],[26,88],[38,63],[32,7],[33,27],[31,-21],[22,-1],[27,28],[23,104],[4,77],[30,80],[34,111],[42,94],[34,49],[28,31],[69,50],[42,72],[16,45],[-6,32],[-19,23],[-34,23],[-46,10],[-18,47],[4,51],[-17,48],[-28,29],[-5,19],[24,49],[43,25],[72,59],[-5,25],[-36,-10],[-13,15],[7,27],[39,43],[4,33],[-12,45],[-12,13],[-26,-30],[-20,15],[-7,55],[1,67],[-26,34],[-20,10],[-6,26],[32,54],[18,42],[22,23],[37,3],[29,18],[28,-4],[20,24],[23,-15],[0,-32],[12,-7],[33,15],[14,17],[9,56],[17,54],[30,9],[28,-38],[15,-36],[28,29],[59,-3],[14,19],[-19,50],[17,19],[26,-10],[31,-49],[32,-6],[34,43],[3,38],[16,23],[19,0],[13,-26],[5,-73],[7,-25],[23,-26],[40,1],[17,69],[26,50],[21,23],[51,43],[11,22],[-9,24],[6,44],[31,61],[24,55],[54,87],[42,52],[3,68],[-15,12],[-43,-9],[-14,16],[33,28],[38,2],[3,38],[-11,26],[-4,59],[35,14],[28,27],[11,24],[-4,24],[-60,41],[35,61],[1,42],[20,7],[13,-28],[26,14],[4,38],[-26,86],[25,36],[82,38],[42,-5],[0,55],[19,45],[-8,37],[-39,65],[10,80],[12,39],[-16,44],[-2,42],[-14,40],[-4,62],[11,44],[17,18],[39,-9],[24,22],[10,27],[22,121],[-4,31],[6,39],[39,86],[19,56],[34,66],[32,17],[20,-4],[4,-29],[21,-9],[12,28],[23,16],[39,9],[26,46],[-6,51],[27,18],[13,38],[16,17],[39,19],[40,53],[22,14],[-14,61],[21,76],[0,59],[25,121],[18,15],[15,39],[-2,76],[16,22],[61,38],[35,10],[7,24],[46,48],[11,20],[4,43],[-15,24],[3,28],[41,16],[12,11],[-9,29],[-28,-3],[-10,11],[-2,39],[41,-7],[20,26],[9,29],[20,-27],[23,-12],[30,2],[33,13],[22,47],[13,-15],[-15,-60],[25,-16],[26,37],[23,-6],[-3,-20],[-23,-19],[5,-16],[47,-10],[39,24],[24,34],[7,37],[25,76],[26,52],[51,38],[-19,25],[-31,12],[-20,31],[5,25],[63,-9],[8,27],[-9,27],[3,41],[-25,16],[-22,1],[-22,16],[-40,-10],[-6,19],[13,24],[30,8],[27,-20],[18,23],[5,42],[33,19],[23,-7],[51,1],[34,40],[-44,50],[6,21],[27,5],[31,-10],[5,13],[-27,49],[6,49],[38,42],[31,53],[38,36],[4,21],[-27,44],[-6,22],[6,43],[18,13],[21,-28],[17,1],[5,38],[-15,42],[-3,30],[19,19],[37,17],[29,24],[3,23],[-17,24],[-40,6],[-8,24],[15,18],[4,34],[-10,48],[1,24],[1440,0],[730,0],[500,0],[142,10],[922,2],[642,2],[1077,3]],[[14696,20875],[-12,-19],[-20,-94],[-7,-154],[1,-92],[3,-61],[67,-398],[22,-56],[32,-37],[44,-22],[83,-18],[44,-30],[32,-48],[54,-144],[83,-235],[16,-88],[0,-97],[-12,-75],[9,-17],[-32,-187],[-6,-84],[1,-184],[6,-41],[28,-59],[114,-131],[38,-46],[93,-136],[37,-61],[14,-76],[-3,-38],[-29,-126],[-68,-282],[-19,-71],[-44,-57],[-131,-117],[-23,-28],[-25,-50],[-33,-100],[-5,-38],[-11,-239],[-1,-44],[7,-239],[-3,-32],[-13,-43],[-27,-40],[-176,-175],[-36,-54],[-23,-64],[-8,-54],[2,-69],[53,-262],[14,-39],[48,-79],[16,-57],[1,-29],[55,-17],[101,-91],[19,-66],[27,-20],[66,-77],[40,-24],[228,-67],[101,-63],[148,-104]],[[15676,15230],[-35,-88],[-56,-103],[-21,-15],[-9,-37],[20,-66],[3,-33],[-11,-32],[-34,-52],[-6,-48],[4,-100],[-4,-20],[-65,-151],[-30,-5],[-64,-37],[-54,-48],[-37,-28],[-32,-5],[-78,13],[-30,-10],[-10,-20],[-38,-113],[1,-32],[25,-111],[34,-108],[42,-153],[4,-35],[-4,-38],[-22,-40],[-13,-9],[-73,-8],[-12,-19],[-4,-170],[-39,-132],[-29,-76],[-27,-44],[5,-66],[-9,-37],[-29,-14],[-22,-28],[-25,-92],[-47,-96],[-21,-33],[-34,-22],[-18,-52],[-44,-36],[-1,-26],[10,-50],[7,-83],[19,-47],[37,-46],[27,-82],[22,-43],[28,-90],[7,-160],[11,-27]],[[14895,12127],[-41,4],[-186,2],[-202,0],[-74,2],[-7,6],[-1,63],[-101,65],[-84,63],[-97,27],[-72,65],[-4,17],[14,32],[5,33],[-56,51],[-24,14],[-84,16],[-85,-14],[-68,-5],[-46,3],[-44,15],[-35,22],[-13,27],[-29,88],[-14,29],[-44,28],[-28,92],[-18,87],[-13,29],[-40,12],[-38,-21],[-56,-20],[-50,4],[-30,18],[-56,93],[-38,34],[-51,15],[-53,-2],[-24,-24],[-9,-96],[-15,-55],[-5,-47],[-13,-29],[-30,-9],[-86,31],[-93,10],[-146,-12],[-61,-50],[-59,-19],[-135,9],[-22,-8],[-29,-25],[-76,-19],[-74,3],[-30,-24],[-61,-22],[-39,37],[-70,5],[-21,10],[-29,29],[-24,43],[-43,9],[-113,-4],[-208,3],[-234,-5],[-22,8],[-10,19],[1,64],[11,79],[0,196],[-54,180],[-41,186],[-27,111],[-31,39],[-108,29],[-32,37],[-14,31],[-4,40],[-44,34],[-64,34],[-40,38],[-1,-40],[-18,-69],[-42,-134],[-29,-22],[-43,-46],[-32,-23],[-21,-28],[-53,-43],[-26,-70],[-9,-49],[-21,-47],[2,-58],[-7,-57],[-10,-26],[-13,-125],[-32,-42],[-33,-12],[-47,-34],[-29,-36],[-39,-15],[-28,-30],[-11,-30],[12,-74],[-2,-36],[-17,-51],[28,-39],[5,-19],[-16,-33],[-2,-43],[-38,-68],[-5,-92],[6,-82],[-3,-45],[11,-51],[-9,-96],[15,-41],[-1,-59],[13,-88],[-10,-111],[31,-25],[56,-11],[29,-107],[2,-265],[-38,36],[-66,120],[-19,24],[-30,20],[-48,7],[-140,-3],[-208,6],[-31,-2],[-41,-17],[-77,-51],[-270,-128],[-118,-52],[-187,-88],[-55,-6],[-84,25],[-87,47],[-48,32],[-30,40],[-42,64],[-31,36],[-45,28],[-55,25],[-89,22],[-66,12],[-65,1],[-48,11],[-37,26],[-9,-7],[-10,-46],[-67,-108],[-9,-39],[0,-60],[-24,-8],[-26,5],[-8,39],[-25,10],[-19,23],[-1,28],[-33,-6],[-16,54],[27,61],[-33,29],[-29,9],[-25,47],[-22,-27],[-18,30],[-13,-29],[19,-22],[-14,-19],[-20,5],[-20,-27],[-25,-10],[-1,35],[-24,11],[-9,28],[19,35],[-26,29],[-20,-30],[-20,4],[-27,37],[-18,-20],[-31,15],[-2,-58],[-58,65],[-15,-19],[-30,50],[-21,-12],[-15,32],[-29,8],[-7,29],[-20,-8],[-30,26],[-33,-9],[-14,10],[-46,0],[-38,-9],[-13,-19],[-18,10],[-89,0],[-17,-21],[-19,21],[-36,-3],[-24,18],[20,33],[-29,19],[-15,50],[11,28],[-32,-5],[-18,-14],[1,-25],[-24,-16],[-53,7],[-52,65],[-28,-8],[0,35],[16,30],[-1,18],[-20,13],[-28,-18],[0,-36],[-33,-12],[-16,6],[-7,28],[-20,7],[-10,-24],[-20,11],[-12,32],[-35,1],[-28,-57],[2,-18],[-68,-1],[-65,18],[-80,12],[-50,41],[-60,27],[-15,25],[-19,2],[-15,-31],[-6,-35],[-24,1],[-25,-35],[-30,5],[-11,-31],[-46,-1],[-24,-31],[-42,-22],[-23,-4],[-22,19],[6,44],[-34,-30],[-21,34],[-17,3],[-9,33],[-43,17],[-20,35],[-14,-6],[-2,-45],[42,-25],[9,-27],[-20,-21],[-7,-34],[-41,29],[-26,26],[-3,-33],[14,-19],[-12,-18],[-36,31],[10,59],[20,44],[-5,10],[-45,21],[-26,-26],[-25,2],[-33,39],[-31,4],[-42,-54],[-7,-35],[-27,-18],[-10,18],[-7,46],[-16,20]],[[9607,9355],[53,3],[139,33],[69,26],[56,33],[60,26],[71,17],[68,-7],[245,-100],[45,-25],[79,-76],[31,-23],[154,-53],[33,-14],[45,-30],[26,-27],[27,-42],[54,-117],[26,-33],[51,-9],[29,12],[108,97],[51,51],[59,47],[42,22],[33,10],[55,2],[198,-18]],[[11514,9160],[107,-10],[105,-7],[41,-12],[35,-25],[63,-65]],[[11865,9041],[13,-14],[223,-227],[-71,-100],[29,0],[45,23],[53,2],[44,-7],[44,-16],[107,-73],[40,-13],[63,0],[6,-86],[7,-35],[29,-92],[68,-68],[5,-16],[3,-109],[9,-38],[34,-52],[66,-42],[57,-68],[42,-30]],[[12781,7980],[-11,-38],[-24,-154],[-17,-94],[-18,-53],[-58,-226],[-25,-153],[-12,-35],[-49,-101],[-11,-35],[-41,-195],[-29,-88],[-64,-173],[-7,-33],[3,-245],[-8,-90],[0,-47],[9,-153]],[[12419,6067],[5,-184],[-6,-159],[-10,-62],[0,-36],[-16,-49],[-52,-80],[-68,-85],[-34,-64],[-35,-107],[-26,-226],[-5,-81],[5,-143],[-2,-96],[39,-323],[3,-118],[-23,-81],[-63,-68],[-4,-32],[0,-176],[1,-112],[4,-58],[16,-160],[3,-52],[-25,-180],[0,-248],[2,-89],[-6,-60],[-35,-94],[-40,-66],[-40,-97],[-18,-80]],[[11989,2601],[-99,5],[-82,7],[-55,-5],[-77,2],[-186,0],[-258,-2],[-6,-4],[-394,-8],[-226,4]],[[10606,2600],[7,106],[1,147],[30,54],[43,53],[34,24],[-97,3],[-9,10],[-25,62],[-12,17],[-34,17],[-30,61],[-1,52],[-15,29],[-34,13],[-61,83],[-70,113],[-29,36],[-48,21],[-14,15],[-9,31],[-52,10],[-108,-1],[-53,6],[-48,-10],[-26,4],[-39,-14],[-59,-45],[-39,-16],[-16,-18],[-53,-23],[-12,9],[-4,72],[-18,50],[-3,39],[13,40],[20,24],[-7,37],[-34,39],[-20,36],[-25,69],[-13,53],[-26,24],[-27,7],[-17,19],[52,46],[110,133],[123,154],[-118,152],[-19,41],[-10,46],[-4,121],[1,54],[-3,217],[-1,432],[-2,257],[18,104],[18,55],[63,142],[8,36],[-2,55],[-15,98],[-13,33],[-53,110],[-25,66],[-36,218],[-2,61]],[[9657,6589],[21,186],[6,77],[4,216],[2,324],[4,147],[2,282],[-22,37],[-76,157],[-33,59],[-43,59],[-37,17],[-92,-19],[-67,-4],[-23,10],[-52,61],[-10,44],[2,201],[-37,117],[-52,95],[57,4],[29,13],[34,32],[54,11],[37,19],[27,67],[23,32],[56,62],[15,52],[23,29],[10,36],[23,39],[4,26],[-2,43],[7,23],[56,81],[11,49],[-11,82]],[[12781,7980],[48,78],[112,118],[40,36],[17,22]],[[12998,8234],[19,-15],[35,14],[26,1],[14,-13],[58,-96],[15,-55],[28,-39],[54,-34],[33,-86],[24,-32],[7,-41],[84,95],[140,145],[73,87],[47,65],[45,70],[44,77],[66,137],[39,87],[54,107]],[[13903,8708],[86,163],[87,149],[91,146],[85,124],[86,119],[115,144],[102,118],[88,95]],[[14643,9766],[29,-17],[17,-26],[14,-58],[34,-34],[46,-15],[26,1],[90,13],[50,-4],[23,-10],[181,-128],[84,-62],[97,-67],[90,-59],[24,-10],[56,-44],[34,5],[49,54],[45,1],[161,16],[60,12],[81,65],[36,25],[32,9],[79,-2],[71,-28],[117,-18],[65,-29],[49,-17],[98,-22],[51,-21],[92,-71],[40,-23],[72,-21],[49,-30],[48,-50],[44,-16],[105,0],[57,-13],[72,-42],[53,-54],[45,-79],[47,-51],[77,-39],[39,-35],[38,-48],[27,-23],[98,-46],[55,-50]],[[17590,8605],[28,-34],[16,-36],[1,-51],[6,-30],[25,-30],[50,-29],[63,-21],[36,-35],[28,-78]],[[17843,8261],[-220,-326],[-28,-28],[-70,-43],[-19,-31],[-10,-47],[-85,-5],[-24,-59],[-18,-15],[-56,-10],[-18,10],[-15,-32],[2,-70],[-3,-113],[31,-38],[10,-35],[36,-62],[70,-43],[53,-15],[52,-67],[20,-34],[35,-72],[41,-46],[12,-20],[18,-59],[43,-39],[86,-42],[45,-40],[25,-29],[33,-52],[7,-28],[11,-92],[24,-55],[28,-39],[31,-2],[30,-15],[9,-65],[-11,-62],[-15,-38],[10,-52],[-10,-38],[-19,-6],[-93,-5],[-53,-19],[-19,-21],[-22,-41],[-20,-72],[-27,-36],[-44,-28],[-47,-10],[-46,-30],[-25,-97],[-16,-24],[-35,-11],[-37,-52],[-21,-2],[-129,-77],[-34,-65],[-39,-54],[-30,-63],[-5,-52],[-11,-51],[-6,-63],[3,-59],[-6,-42],[-19,-47],[-77,-1]],[[17126,5285],[-77,-1],[-73,4],[-32,13],[-27,25],[-45,87],[-64,159],[-20,37],[-129,160],[-19,17],[-117,51],[-28,19],[-90,80],[-25,16],[-49,7],[-37,-8],[-111,-62],[-46,-7],[-85,24],[-41,18],[-41,30],[-67,31],[-158,56],[-48,40],[-45,113],[-17,32],[-37,55],[-52,66],[-45,28],[-59,7],[-52,22],[-17,-38],[-66,-68],[-53,-39],[-203,-161],[-55,-53],[-56,-8],[-192,2],[-306,-4],[-28,-19],[-53,-77],[-7,-23],[30,-412],[-9,-44],[-42,-33],[-31,3],[-45,49],[-21,2],[-37,-13],[-69,19],[46,-449],[7,-90],[0,-52],[-9,-99],[-24,-186],[-70,24],[-180,6],[-54,-16],[-25,1],[-40,14],[-41,25],[-48,11],[-14,20],[-20,-5],[-18,12],[-22,-5],[-16,-25],[-24,0],[-31,15],[-10,-14],[3,-55],[-37,-11],[-18,-42],[2,-47],[-34,-38],[-64,-23],[-41,14],[-142,-18],[-73,-28],[-49,-5],[-49,5],[-26,-17],[-15,3],[-48,36],[-26,44],[-21,-11],[-4,27],[17,43],[-9,42],[-39,8],[6,-47],[-12,-25],[-25,-26],[-1,-73],[-10,-8],[-46,-6],[-26,-48],[-20,-10],[-19,14],[4,38],[27,46],[-6,43],[-35,-5],[-7,16],[14,47],[21,34],[43,32],[13,68],[2,43],[-7,16],[-29,20],[-28,30],[-10,39],[-2,73],[57,411],[-17,-12],[-25,4],[-5,32],[18,15],[0,33],[10,24],[-3,29],[-24,42],[57,25],[-10,30],[21,47],[-17,51],[3,25],[32,40],[-61,74],[-66,45],[-154,87],[-20,19],[-50,83],[-38,51]],[[13182,9250],[2,37],[31,177],[22,80],[48,106],[11,48],[3,64],[8,31],[24,50]],[[13331,9843],[69,0],[5,-12],[-1,-250],[143,4],[2,-28],[35,-93],[30,-48],[50,-49],[82,-60],[-193,-134],[-57,-21]],[[13496,9152],[-48,-1],[-161,5],[-67,-1]],[[13220,9155],[-38,-1],[0,96]],[[13496,9152],[58,-40],[36,-31],[-1,-376]],[[13589,8705],[-7,-27],[11,-34],[-34,-16],[-95,0],[-8,-9],[14,-53],[-26,-12],[-20,-39],[-24,-17],[-24,59],[-42,125],[-2,22],[-201,-4],[-108,1]],[[13023,8701],[2,181],[15,32],[77,95],[27,56],[39,10],[47,-2],[-10,33],[0,49]],[[13589,8705],[232,1],[82,2]],[[12998,8234],[26,89],[-1,286],[0,92]],[[12687,9245],[275,2],[91,3],[129,0]],[[12998,8234],[-19,49],[-15,58],[-7,58],[-26,30],[-13,57],[-14,29],[-12,50],[2,39],[-17,65],[-32,41],[-24,65],[-40,92],[-9,46],[-15,34],[-15,62],[-16,27],[17,28],[-21,40],[-35,141]],[[17126,5285],[0,-28],[18,-55],[-24,-12],[-4,-27],[16,-12],[1,-32],[-13,-22],[1,-30],[39,-1],[-2,-31],[30,-5],[28,-34],[-12,-56],[23,-69],[2,-31],[15,-45],[34,-9],[11,-29],[24,-20],[11,-46],[15,-24],[-1,-48],[21,-56],[-10,-9],[12,-38],[1,-52],[35,-34],[-3,-22],[33,-30],[64,-9],[-22,-47],[9,-21],[-10,-25],[54,-26],[-19,-18],[32,-32],[12,-70],[-8,-42],[-16,15],[-17,-12],[17,-42],[-19,-11],[-2,-26],[33,-39],[38,-25],[13,-25],[-35,-40],[29,-4],[17,-15],[2,-40],[17,-42],[11,-90],[11,-41],[14,-27],[49,-22],[26,14],[-3,-48],[18,-12],[2,-31],[43,6],[1,-39],[-19,-3],[11,-30],[31,14],[29,-23],[-15,-25],[27,-6],[2,-31],[56,11],[6,-16],[-23,-28],[24,-46],[41,-24],[19,-74],[30,1],[1,-29],[-36,-53],[21,-9],[28,19],[12,-29],[27,-37],[-2,-37],[16,-36],[-4,-21],[5,-65],[-6,-46],[1,-63],[-33,6],[-17,-15],[5,-27],[24,-10],[5,-27],[-30,-4],[1,-21],[31,-6],[27,-43]],[[18083,2659],[-157,7],[-104,-8],[-129,-1],[-18,12],[-48,-14],[-50,13],[-35,1],[-24,-19],[-821,3],[-96,-6],[-14,8],[-47,-3],[-129,3],[-131,-13],[-593,-2],[-320,5],[-160,-3],[-124,0],[-150,-3],[-277,-1],[-268,-5],[-186,-1],[-229,0],[-112,4],[-59,-7],[-70,1],[-75,-5],[-74,1],[-190,-4],[-726,-2],[-370,1],[-308,-20]],[[14895,12127],[3,-11],[-22,-77],[-62,-116],[-30,-48],[-42,-89],[-69,-84],[-64,-49],[-63,-69],[-28,-23],[-115,-79],[-78,-65],[-68,-82],[-20,-18],[-109,-71],[-25,-23],[-144,-221],[-79,-76],[-41,-49],[-105,-183],[-71,-212],[-20,-43],[-70,-115],[-35,-47],[-27,-50]],[[13511,10227],[-32,-2]],[[13479,10225],[-104,7],[-122,0],[-93,-8],[-87,-11],[-60,5],[-237,554],[-40,108],[-19,60],[-36,-29],[-258,-434],[-244,-410],[-366,-500],[-89,-120],[-210,-287]],[[9607,9355],[-47,14],[-152,16],[-45,-58],[-25,-8],[-29,14],[-34,69],[-47,5],[-60,-2],[-75,-7],[-54,-113],[-20,-21],[-21,-6],[-34,31],[-18,59],[-68,4],[-36,11],[-122,56],[-69,15],[-216,-22],[-98,-4],[-288,-8],[-147,-2],[-277,-9],[-164,-1],[-275,3],[-154,-1],[-92,4],[-124,-7],[-140,0],[-115,-1],[-187,13],[-127,14],[-143,22],[-30,13],[-22,34],[-49,99],[-23,60],[-12,16],[-58,38],[-11,18],[-20,76],[-20,11],[-78,-2],[-21,6],[-24,26],[-118,163],[-30,20],[-99,49],[-47,-9],[-90,-91],[-116,-122],[-70,-41],[-12,-22],[-3,-61],[-17,-138],[-1,-51],[14,-108],[1,-37],[-18,-92],[-97,-146],[-28,-22],[-32,-66],[-51,49],[-193,191],[-96,98]],[[4633,9394],[18,26],[63,23],[67,-4],[62,16],[13,16],[-4,46],[13,23],[26,2],[26,-12],[32,-44],[16,10],[42,86],[10,68],[28,133],[-14,37],[17,55],[-10,17],[-33,21],[14,28],[26,19],[-21,30],[-9,27],[40,39],[-1,23],[-23,21],[-18,0],[-30,-31],[-52,-26],[-22,13],[-21,60],[51,42],[20,4],[5,23],[-26,30],[-30,18],[12,28],[38,10],[12,45],[-29,39],[-29,3],[-57,-12],[-22,8],[-31,34],[24,5],[27,-11],[20,21],[7,42],[-9,15],[-30,12],[-12,18],[17,92],[18,17],[41,-27],[31,13],[-1,32],[-44,5],[-46,88],[9,53],[75,91],[35,15],[11,21],[-26,34],[4,31],[24,58],[-1,15],[-28,32],[17,35],[48,29],[16,18],[5,48],[16,15],[37,-9],[24,11],[9,52],[18,27],[-1,33],[-12,14],[-70,35],[-45,-24],[-15,21],[21,38],[33,19],[-4,26],[-49,34],[-31,52],[0,62],[-37,19],[-24,100],[0,24],[17,22],[49,10],[14,20],[-50,39],[5,31],[27,-19],[23,1],[12,15],[17,77],[-24,15],[-8,27],[13,24],[25,16],[34,41],[96,13],[29,13],[23,-31],[2,-63],[13,-27],[26,5],[17,52],[54,106],[65,6],[48,-9],[-5,-46],[-16,-10],[-35,18],[-25,4],[-4,-33],[19,-18],[4,-45],[18,-15],[17,6],[12,52],[49,5],[74,-23],[32,-24],[18,-3],[-31,83],[-51,117],[71,17],[49,-38]],[[14696,20875],[950,3],[82,1],[287,1],[265,3],[610,-1],[1129,-2],[848,-1],[449,-2],[119,1],[352,1],[125,-2],[260,-1],[719,1],[701,-4],[157,-2],[595,-2],[111,-7],[243,-2],[-8,-788],[-11,-1031],[-6,-855],[-7,-1100],[-7,-1350],[-10,-1871],[1,-143],[-8,-1101],[7,-542],[-6,-1090],[-8,-1436]],[[22635,9553],[-134,-90],[-93,-57],[-55,-47],[-213,-219],[-227,-237],[-32,-28],[-82,-60],[-263,-204],[-35,-29],[-195,-184],[-42,-27],[-46,-16],[-202,-37],[-56,-12],[-136,-22],[-260,-6],[-423,-6],[-28,2],[-57,21],[-152,91],[-160,92],[-147,87],[-343,151],[-52,26],[-97,36],[-76,12],[-75,-5],[-51,-12],[-67,-30],[-53,-34],[-67,-60],[-56,-43],[-36,-20],[-76,-27],[-29,-5],[-89,-6],[-114,-4],[-199,-10],[-50,-12],[-44,-25],[-45,-41],[-135,-195]],[[17590,8605],[7,24],[-6,60],[11,81],[-20,45],[18,57],[70,22],[62,9],[48,39],[7,20],[3,109],[22,71],[48,54],[27,6],[41,46],[13,23],[0,24],[-28,38],[6,62],[-51,81],[-14,62],[-31,44],[-7,24],[-40,74],[-21,61],[-78,97],[-45,71],[-13,76],[8,44],[1,46],[-20,78],[-16,32],[-11,44],[-19,130],[-10,26],[-32,12],[-60,3],[-20,30],[-17,115],[-18,59],[-4,70],[-15,76],[55,8],[76,5],[17,14],[28,109],[37,40],[46,34],[25,12],[38,-11],[61,0],[12,15],[1,131],[-1,296],[-1,327],[-10,38],[-91,47],[-32,27],[-25,34],[54,60],[46,59],[61,90],[17,33],[45,56],[31,54],[46,66],[9,32],[1,144],[-6,61],[-22,54],[-60,122],[-3,47],[14,128],[11,127],[16,76],[24,60],[43,47],[130,130],[158,162],[8,38],[4,318],[-2,172],[-9,16],[76,128],[45,67],[-71,50],[-25,46],[-7,58],[23,31],[-1,56],[-15,48],[21,42],[11,65],[62,57],[46,67],[39,97],[17,23],[22,53],[5,60],[11,53],[-37,65],[20,55],[3,74],[-34,62],[-42,61],[-2,56],[9,51],[-28,138],[19,51],[5,49],[-22,25],[-7,22],[4,43],[16,50],[39,81],[-3,46],[-17,22],[-46,22],[-24,38],[-62,3],[-13,57],[-22,49],[-8,105],[2,63],[8,30],[-2,71],[-39,4],[-45,-4],[-64,-22],[-40,-8],[-230,-21],[-73,-3],[-254,-7],[-54,16],[-31,19],[-79,67],[-40,24],[-39,11],[-137,-2],[-31,-5],[-75,-33],[-40,-35],[-27,-31],[-121,-186],[-36,-47],[-51,-38],[-104,-56],[-84,-29],[-37,-22],[-77,-63],[-34,-48],[-38,11],[-57,-63],[-85,-85],[-92,-73],[-53,-36],[-46,-59],[-30,-21],[-82,-79],[-43,-96],[-68,-111],[-27,-26],[-86,-30],[-28,-1]],[[22635,9553],[-10,-1626],[-4,-435],[-7,-1295],[-8,-763],[-2,-1112],[-2,-1643],[-460,-10],[-1263,-25],[-231,-7],[-122,10],[-631,33],[-710,-8],[-46,-2],[-1056,-11]],[[11865,9041],[27,70],[54,48],[94,18],[74,38],[87,19],[122,13],[19,-2],[72,-23],[52,6],[43,13],[76,4],[102,0]],[[14643,9766],[-12,22],[-47,5],[-143,-5],[-56,-32],[-14,69],[15,6],[2,361],[0,44],[-83,1],[-58,-3],[-312,-3],[-121,-5],[-72,3],[-122,1],[-109,-3]],[[3631,6799],[6,-7],[185,22],[23,-4],[134,-89],[44,-35],[23,-9],[30,-68],[23,-26],[37,-55],[36,-39],[13,-30],[94,98],[22,38],[35,45],[96,69],[118,14],[31,9],[33,29],[32,-22],[121,-2],[19,-11],[91,-68],[15,-20],[70,-155],[11,-45],[38,-13],[91,15],[59,-2],[24,-13],[54,-60],[92,-17],[71,-6],[87,3],[29,10],[16,35],[29,32],[28,41],[33,20],[82,4],[118,1],[199,47],[53,30],[41,69],[15,49],[119,65],[43,4],[103,-6],[67,5],[111,-3],[199,2],[128,-9],[41,11],[43,37],[34,-86],[19,-31],[62,-10],[72,-5],[55,4],[67,17],[68,-13],[33,-2],[52,5],[22,10],[33,31],[45,28],[81,23],[105,-2],[162,1],[243,-5],[96,-11],[23,-20],[77,17],[89,12],[41,2],[132,-37],[63,-32],[88,-70],[41,-20],[27,-3],[278,-1],[90,3],[70,-4],[111,-1],[25,3],[267,-3]],[[10606,2600],[-157,0],[-324,0],[-213,-2],[-663,-6],[-50,-2],[-822,-1],[-136,1],[3,-387],[1,-907],[-1,-168],[1,-279],[1,-564],[-290,2],[-412,5],[-120,-2],[-333,2],[-186,-3],[-105,0],[-87,-3],[-57,2],[-38,12],[-307,-10],[-635,6],[-435,14],[-853,-7],[31,-293],[-1085,-10],[-157,6],[-1128,-1],[-1129,-1],[-26,2],[-158,-2],[-731,-1],[-5,62],[15,33],[49,12],[44,25],[12,28],[13,65],[32,53],[38,44],[14,37],[-7,38],[-12,13],[-30,4],[-3,48],[16,9],[59,16],[8,22],[20,10],[7,48],[-4,49],[27,7],[34,-13],[41,-28],[33,-6],[46,-47],[45,-3],[67,59],[53,19],[83,15],[43,18],[17,21],[46,25],[37,6],[40,24],[8,48],[-4,14],[-36,11],[-10,36],[56,34],[74,56],[45,-13],[15,-40],[-6,-57],[12,-10],[40,39],[42,16],[22,33],[-8,52],[6,68],[-26,66],[-14,17],[-29,4],[-41,34],[-28,103],[-20,34],[2,18],[191,175],[15,-16],[25,16],[18,-1],[28,58],[44,24],[33,-5],[20,-41],[16,-10],[41,-1],[16,19],[-4,45],[-19,22],[12,30],[26,3],[44,23],[33,33],[11,-32],[-12,-34],[3,-21],[26,-22],[46,16],[39,61],[48,25],[19,23],[2,20],[-17,12],[-32,-17],[-28,-5],[-22,30],[9,24],[54,15],[35,57],[-4,39],[29,40],[29,-7],[20,19],[-3,65],[-16,17],[-41,-11],[-3,47],[-11,37],[-29,22],[-4,17],[14,56],[-3,30],[-16,28],[5,25],[19,14],[37,-13],[52,-31],[20,34],[-34,50],[-21,46],[14,24],[25,-13],[28,0],[17,14],[17,64],[28,-30],[43,-3],[40,15],[78,6],[33,-36],[15,4],[45,60],[20,51],[32,-6],[41,9],[76,64],[34,20],[29,38],[6,42],[-13,60],[9,25],[50,-17],[34,18],[-44,23],[1,76],[-27,13],[-4,34],[33,6],[42,-19],[18,32],[-36,77],[-17,6],[-21,-27],[-23,10],[-9,82],[-26,21],[-5,39],[18,13],[49,9],[1,27],[-38,37],[-17,71],[0,38],[25,18],[39,14],[51,32],[98,41],[13,43],[-37,10],[-36,-26],[-31,-4],[0,37],[62,43],[6,23],[-20,18],[-44,-19],[-14,17],[24,46],[3,58],[40,49],[36,62],[31,92],[10,56],[16,39],[30,35],[33,47],[30,23],[14,22],[0,55],[-32,34],[-35,8],[-19,16],[-30,-7],[-32,-24],[-28,10],[5,66],[-31,89],[4,35],[39,-20],[20,20],[11,147],[7,30],[33,35],[44,3],[24,33],[-27,28],[-13,39],[24,33],[26,19],[16,47],[42,-12],[30,-32],[25,-2],[40,52],[-12,29],[-29,22],[8,19],[30,-9],[21,11],[25,42],[-20,20],[-27,-15],[-36,1],[-15,32],[-1,28],[9,74],[-17,51],[-36,20],[-18,52],[-27,20],[7,37],[14,28],[42,51],[19,8],[33,-6],[13,20],[-21,21],[-29,-5],[-21,24],[-3,29],[26,23],[36,-15],[18,4],[7,24],[-12,27],[10,42],[26,25],[4,32],[-22,57],[26,30],[45,-39],[24,1],[22,60],[30,11],[20,26],[26,79],[23,33],[6,22],[-25,43],[-14,44],[-22,40],[-45,15],[-17,36],[4,65],[-15,63],[8,19],[29,-21],[40,30],[36,13],[28,20],[28,35],[54,11],[-12,44],[31,14],[17,-51],[20,-8],[12,17],[17,64],[49,68],[14,6],[55,1],[6,24],[-41,37],[10,33],[44,33],[41,48],[5,18],[-28,43],[9,80],[12,32],[50,-20],[33,8],[75,40],[38,25]],[[3631,6799],[15,29],[-1,42],[-30,22],[-10,36],[34,20],[30,1],[53,-34],[42,33],[12,70],[34,57],[45,50],[-14,18],[-50,-13],[-14,25],[43,51],[-5,45],[3,30],[29,33],[25,43],[54,49],[19,41],[14,62],[92,106],[25,43],[1,33],[13,16],[58,-9],[19,11],[29,37],[12,72],[25,34],[33,2],[70,102],[41,42],[-2,16],[-37,19],[-37,2],[-10,16],[18,24],[40,10],[25,23],[59,31],[20,17],[77,88],[9,76],[-2,18],[-48,91],[-1,52],[-14,17],[-28,-26],[-31,13],[-13,52],[0,25],[17,18],[48,11],[-11,31],[-40,10],[-16,21],[6,52],[11,22],[34,29],[23,29],[-6,65],[21,48],[-14,18],[-22,-45],[-23,-34],[-22,-10],[-8,29],[7,66],[18,85],[16,39],[-3,25],[-23,24],[-25,44],[-33,15],[-10,33],[33,25],[40,4],[30,-9],[20,22],[-9,60],[22,18],[18,-5],[19,-26],[13,12],[2,35],[13,15],[34,11],[29,-9],[19,18],[3,36]],[[13331,9843],[122,242],[11,30],[13,64],[2,46]]],"transform":{"scale":[0.000028618688871266677,0.000019464588421204064],"translate":[-89.965995,32.879515]},"objects":{"Geometry\\28-007":{"type":"GeometryCollection","geometries":[{"arcs":[[0,1,2,3]],"type":"Polygon","properties":{"GEOID":"280070602001"}},{"arcs":[[4,5,6,7,8,9,10,11]],"type":"Polygon","properties":{"GEOID":"280070603001"}},{"arcs":[[12,13,14,15,16,17,18,-8]],"type":"Polygon","properties":{"GEOID":"280070604002"}},{"arcs":[[19,20,21,22]],"type":"Polygon","properties":{"GEOID":"280070605002"}},{"arcs":[[-22,23,24,25]],"type":"Polygon","properties":{"GEOID":"280070605004"}},{"arcs":[[-25,26,-14,27]],"type":"Polygon","properties":{"GEOID":"280070605001"}},{"arcs":[[28,-23,-26,-28,29]],"type":"Polygon","properties":{"GEOID":"280070606002"}},{"arcs":[[-19,30,31,-9]],"type":"Polygon","properties":{"GEOID":"280070604003"}},{"arcs":[[-4,32,33,34,-5,35,36]],"type":"Polygon","properties":{"GEOID":"280070602002"}},{"arcs":[[37,38,-17,39,-2]],"type":"Polygon","properties":{"GEOID":"280070601001"}},{"arcs":[[-18,-39,40,-31]],"type":"Polygon","properties":{"GEOID":"280070604001"}},{"arcs":[[-30,-13,-7,41]],"type":"Polygon","properties":{"GEOID":"280070606001"}},{"arcs":[[-3,-40,-16,42,-33]],"type":"Polygon","properties":{"GEOID":"280070601002"}},{"arcs":[[43,-11,44]],"type":"Polygon","properties":{"GEOID":"280070603003"}},{"arcs":[[-36,-12,-44,45]],"type":"Polygon","properties":{"GEOID":"280070603002"}},{"arcs":[[46,-34,-43,-15,-27,-24,-21]],"type":"Polygon","properties":{"GEOID":"280070605003"}},{"arcs":[[-35,-47,-20,-29,-42,-6]],"type":"Polygon","properties":{"GEOID":"280070606003"}}]}}}