{"type":"Topology","arcs":[[[1473,2421],[6,680],[2,24],[12,41],[26,41],[33,32],[164,153]],[[1716,3392],[73,12]],[[1789,3404],[290,-315],[20,-20],[49,-44],[216,-175],[33,-24],[30,-17],[45,-18],[201,-62],[47,-18],[31,-17],[32,-24],[62,-51],[33,-23],[37,-18],[54,-14],[164,-29],[9,10],[72,-40],[26,-4],[63,6],[201,1],[35,8],[30,45],[25,22],[43,7],[53,-6],[28,3],[57,23],[73,9],[25,16],[56,-4]],[[3929,2631],[4,-294],[-4,-102],[-5,-48],[-13,-84],[-12,-54],[-179,-661],[-117,-429],[-17,-47],[-33,-56],[-47,-61],[-31,-42]],[[3475,753],[-123,-1],[-147,3],[-582,0],[1,-55],[-1,-75],[7,-107],[4,-24],[-3,-110],[4,-4],[2,-107],[-1,-75],[3,-198],[-378,0],[-65,2],[-316,4],[-134,-1],[-274,4]],[[1472,9],[-14,515],[-15,590],[0,54],[16,881],[3,61],[10,176],[1,135]],[[296,2093],[12,14],[9,29],[27,25],[44,18],[13,12],[8,25],[19,20],[40,61],[20,21],[32,15],[61,59],[21,49],[53,34],[7,12],[73,-26],[73,-5],[47,-9],[37,-18],[42,0],[31,3],[40,10],[23,1],[58,-7],[56,-2],[36,4],[68,-15],[32,12],[21,2],[30,-10],[86,1],[58,-7]],[[1472,9],[-75,-3],[-113,0],[-16,2],[-211,-3],[-257,0],[-35,2],[-466,1],[0,200],[-1,93],[1,421],[-1,523],[0,129],[0,391],[-2,123],[0,205]],[[15,3454],[163,-51],[49,-9],[378,-4],[650,-7],[61,15]],[[1316,3398],[18,-15],[286,-3],[96,12]],[[296,2093],[0,176],[-293,1],[-3,248],[15,936]],[[1731,6466],[77,4],[133,9],[66,1],[100,7],[240,13],[378,25],[353,20],[99,8],[339,20],[101,7],[99,5],[101,7],[-3,-420],[3,-37],[0,-102],[-3,-269],[1,-181],[-1,-176],[-3,-270]],[[3811,5137],[-10,-2],[-205,1],[-271,2],[-25,-35],[-33,-35],[-20,-87],[-28,20],[-66,-6],[-55,21],[-129,-2],[-41,20],[-68,11],[-53,-35],[-30,-29],[-52,-22],[-9,-9],[-2,-56],[-44,19],[-41,-2],[-96,33],[-40,9],[-157,11],[-46,16],[-13,22],[-37,23],[-36,2],[-43,26],[-46,8],[-77,9],[-131,48]],[[1907,5118],[-7,48],[-52,402],[-117,898]],[[3811,5137],[0,-47],[-2,-544],[-1,-340],[-3,-176],[0,-200],[3,-64]],[[3808,3766],[-3,-43],[-8,-56],[-24,-20],[-19,-10],[-52,-36],[-34,-8],[-18,-33],[-2,-26],[-37,-18],[-34,-73],[0,-13],[35,-52],[3,-34]],[[3615,3344],[-92,22],[-85,15],[-84,2],[-10,5],[-60,71],[-55,22],[-90,12],[-24,-23],[-13,-33],[-28,-6],[-14,7],[-26,-3],[-11,-13],[-40,-9],[-53,23],[-13,14],[-40,11],[-42,-11],[-56,-5],[-11,-18],[-21,2],[-19,-7],[-23,17],[-11,16],[-14,-3],[-83,6],[-3,-12],[-37,-22],[-27,-23],[-4,-15],[-21,-26],[-33,15],[-84,8],[-163,2],[-26,22],[-52,10],[-31,13],[-53,32],[-41,5],[-66,48]],[[1956,3515],[23,75],[19,39],[28,43],[14,35],[0,24],[-6,61],[0,55]],[[2034,3847],[3,395]],[[2037,4242],[1,130],[-4,79],[-5,36],[-119,613],[-3,18]],[[4631,2207],[27,21],[74,33],[45,36],[65,35],[302,152],[20,6],[56,10],[25,11],[101,67],[57,35],[44,38],[47,33],[42,34],[38,40],[91,84],[54,64]],[[5719,2906],[18,-7],[38,-2],[23,9],[58,-12],[17,-19],[24,-1],[18,-13],[23,-8],[8,-10],[0,-19],[21,-20],[27,-20],[52,-15],[36,-6],[16,-25],[32,12],[18,-13],[-15,-17],[24,-21],[0,-18],[9,-10],[21,2],[8,-26],[18,-32],[21,-17],[11,-17],[27,1],[50,-31],[37,3],[32,22],[13,-17],[18,-8],[22,0],[7,-28],[26,-36],[28,-8],[-24,-33],[-27,-8],[0,-16],[34,-8],[1,-13],[-13,-13],[24,-14],[-10,-14],[20,-17],[42,-13],[6,-22],[-4,-11],[3,-77],[-8,-28],[-12,-20],[12,-30],[21,2],[7,-45],[13,9],[5,21],[14,10],[36,13],[12,20],[19,-12],[20,-25],[0,-12],[23,-8],[6,-175],[-6,-31],[3,-21],[0,-318],[-2,-96],[3,-271],[2,-276],[-4,-178],[-65,2],[-232,0],[-263,2],[-58,5],[-41,-7],[-223,0],[-105,-1],[-37,1],[-288,-1]],[[5409,750],[3,25],[-2,123],[26,42],[-30,0],[-35,8],[-17,-4],[-59,-34],[-44,-20],[-15,24],[-23,20],[-6,11],[0,28],[-13,35],[-54,91],[-15,46],[16,36],[2,22],[-7,29],[7,32],[12,29],[-5,20],[-32,38],[-23,36],[-16,50],[-148,5],[-10,61],[-27,31],[3,82],[7,48],[-8,52],[2,57],[8,13],[30,27],[6,16],[21,31],[6,29],[-1,87],[-16,30],[-7,32],[-18,-4],[-11,16],[-22,6],[-34,20],[0,69],[-34,1],[-13,14],[-76,23],[-26,31],[-10,2],[-33,-8],[-37,-1]],[[3929,2631],[82,-4],[92,22],[93,38],[68,30],[28,4],[85,5],[19,8],[26,-46],[10,-100],[-19,-46],[-14,-19],[69,-19],[15,-47],[-10,-30],[14,-18],[19,-3],[11,-35],[13,-15],[15,-40],[-3,-61],[18,-25],[18,-13],[53,-10]],[[5409,750],[-121,1],[-268,0],[-274,-1],[-316,-1],[-497,1],[-66,-1],[-17,3],[-280,2],[-95,-1]],[[2037,4242],[-46,1],[-65,-17],[-84,-10],[-43,-8],[-50,-14],[-24,-11],[-55,4],[-174,-12],[-13,-7],[-69,5],[-56,10],[-15,-1],[-43,-20],[-37,-30],[-12,19],[-137,-1],[-51,21],[-57,15],[-42,4],[-60,13],[-34,13],[-234,0],[-27,1],[-10,22],[2,54],[-4,14],[-18,21],[-40,22],[-9,20],[-91,-3],[-16,1],[-67,36],[-28,1],[-22,-7],[-31,7],[-47,32],[-60,33],[-29,3],[-48,-26],[-26,-26],[-36,-14],[-8,-11]],[[21,4396],[1,145],[-1,188],[2,67],[-2,102],[4,214],[-2,185],[3,82],[1,136],[-4,171],[-1,149],[3,61],[-1,59],[2,54],[1,117],[-2,30],[3,51],[-8,38],[9,124],[89,5],[134,9],[152,8],[178,9],[95,7],[101,4],[373,21],[211,11],[221,14],[82,2],[66,7]],[[2034,3847],[-151,-20],[-154,-19],[-44,-10],[-42,-22],[-18,-15],[-25,-33],[-79,-152],[-32,-44],[-31,-34],[-77,-65],[-26,-17],[-39,-18]],[[15,3454],[2,105],[0,368],[5,104],[-1,365]],[[1956,3515],[-19,-49],[-16,-19],[-21,-17],[-33,-12],[-78,-14]],[[3808,3766],[95,0],[22,-2],[55,0],[182,12],[7,-11],[51,-39],[27,-10],[11,-24],[-6,-26],[24,-19],[10,-18],[14,-4],[33,-32],[6,-15],[-1,-27],[12,-11],[51,-31],[5,-16],[41,-14],[8,-37],[19,-33],[31,-21],[37,1],[15,-8],[-4,-24],[28,-12],[26,11],[47,-17],[22,-23],[29,-10],[35,-32],[-1,-33],[16,-7],[20,2],[4,-23],[23,-5],[33,-16],[37,-4],[22,-9],[49,12],[39,-14],[17,-13],[6,-25],[23,-16],[19,-2],[9,-14],[49,-16],[15,-35],[42,2],[32,-20],[12,-21],[19,-20],[20,-7],[44,7],[11,13],[30,-4],[46,-21],[21,-13],[24,-4],[20,-12],[39,-5],[28,-12],[64,1],[42,-8],[1,-25],[10,-5],[41,-3],[29,15],[24,-8]],[[3929,2631],[-2,100],[-45,595],[-84,3],[-22,-1],[-53,-18],[-12,1],[-96,33]]],"transform":{"scale":[0.000057941710037176414,0.000058350121359223535],"translate":[-89.976245,31.39001]},"objects":{"Geometry\\28-065":{"type":"GeometryCollection","geometries":[{"arcs":[[0,1,2,3,4,5]],"type":"Polygon","properties":{"GEOID":"280659502022"}},{"arcs":[[6,-6,7]],"type":"Polygon","properties":{"GEOID":"280659502021"}},{"arcs":[[8,9,-1,-7,10]],"type":"Polygon","properties":{"GEOID":"280659502023"}},{"arcs":[[11,12,13]],"type":"Polygon","properties":{"GEOID":"280659501021"}},{"arcs":[[14,15,16,17,18,19,-13]],"type":"Polygon","properties":{"GEOID":"280659501022"}},{"arcs":[[20,21,22]],"type":"Polygon","properties":{"GEOID":"280659502011"}},{"arcs":[[23,-23,24,-4]],"type":"Polygon","properties":{"GEOID":"280659502012"}},{"arcs":[[-14,-20,25,26]],"type":"Polygon","properties":{"GEOID":"280659501011"}},{"arcs":[[-26,-19,27,-9,28]],"type":"Polygon","properties":{"GEOID":"280659501012"}},{"arcs":[[-28,-18,29,-2,-10]],"type":"Polygon","properties":{"GEOID":"280659501023"}},{"arcs":[[30,-21,-24,31,-16]],"type":"Polygon","properties":{"GEOID":"280659502013"}},{"arcs":[[-30,-17,-32,-3]],"type":"Polygon","properties":{"GEOID":"280659502024"}}]}}}