{"type":"Topology","arcs":[[[2719,10705],[5,18],[229,61],[43,13],[153,40]],[[3149,10837],[2,-130],[13,-55],[42,-72],[47,-59],[13,-32],[5,-92],[7,-58],[25,-79]],[[3303,10260],[-247,-71],[-46,-7],[-130,-62],[-15,-9]],[[2865,10111],[-28,57],[27,44],[4,86],[29,-9],[18,23],[34,-5],[12,9],[-11,50],[57,34],[52,0],[-2,54],[-173,-106],[-60,-33],[-62,-21],[-31,2],[-22,25],[6,169],[4,215]],[[5359,8931],[37,115],[12,62],[33,58],[94,14],[73,-18],[56,-27],[54,-39],[76,-26],[29,29],[14,35],[-8,16],[-8,83],[-2,80],[-12,40],[-46,81],[-86,118],[-6,33],[94,59],[44,32],[32,49],[10,40],[11,15],[47,5],[56,-12],[57,-36],[55,-26],[112,-47],[52,-16],[41,-1],[51,-28],[15,-26],[66,-49],[27,-69],[49,-42],[24,-29],[3,-22],[23,-23],[28,0],[37,21],[21,5],[58,31],[59,23],[26,4],[31,-7],[48,-21],[64,22],[76,35],[87,4],[25,14],[-45,46],[2,25],[-62,38],[-27,30],[-41,13],[-36,36],[-12,22],[-32,40],[-9,38],[-5,58],[7,14],[49,64],[34,4],[20,-10],[23,6],[1,30],[34,59],[15,39],[-9,48],[21,18],[14,28],[23,2],[11,20],[5,53],[-12,6],[-2,39],[26,49],[5,46],[42,62],[25,67],[43,25],[10,30],[24,6],[13,65],[-17,28],[-34,106],[-24,45],[-22,18],[-78,26],[2,10],[-22,21],[-22,33],[-41,26],[-3,26],[3,70],[11,97],[3,215],[93,24],[89,-1],[13,7],[-1,76],[16,37],[27,29]],[[7246,11499],[232,-5],[79,-40],[36,-11],[59,-7],[19,5],[22,-7],[130,-3],[37,-15],[21,-3],[2,-18],[82,2],[16,7],[52,-3],[38,14],[24,-9],[84,-81],[35,-50],[20,-23],[19,-2],[30,-20],[24,-25],[56,-28],[53,3],[56,9],[40,-10],[28,-17],[44,-1],[49,26],[49,-1],[49,35],[14,22],[4,44],[23,-17],[82,-16],[20,-8],[36,-35],[66,-24],[16,-10],[29,-36],[24,-13],[52,-12],[32,-87],[13,-17],[48,-34],[32,-48],[39,-16],[45,12],[32,-3],[38,-21],[68,-61],[75,-44],[96,-5],[72,-22],[45,-21],[34,5],[37,16],[78,-21],[65,0],[51,-11],[167,4],[21,11],[19,22],[23,2],[35,-19],[19,1],[71,56],[64,29],[25,4],[50,-9],[29,0],[52,20],[31,-2],[20,8],[59,50],[19,12],[32,5],[41,-22],[40,-43],[24,-5],[37,2],[32,-24],[54,-21],[84,-20]],[[11045,10799],[-4,-839],[-4,-49],[6,-341],[6,-558],[5,-513],[-3,-41],[-14,-699],[-4,-414],[-1,-198],[-11,-161],[2,-291],[-13,-475]],[[11010,6220],[-40,8],[-33,-8],[-121,-61],[-64,-19],[-59,-4],[-211,14],[-101,38],[-61,60],[-26,15],[-41,15],[-109,49],[-57,49],[-87,59],[-103,41],[-59,34],[-51,41],[-19,20],[-36,-12],[-36,-21],[-57,-15],[-20,-17],[-8,-31],[-18,-26],[-42,-22],[-71,-66],[-15,-45],[-12,-17],[-42,-17],[-57,-1],[-75,-19],[-28,-1],[-61,-11],[-39,6],[-16,33],[-29,7],[-42,-21],[-40,1],[-73,-30],[-38,-32],[-47,-31],[-79,-23],[-37,10],[-39,5],[-45,-2],[-35,7],[-49,24],[-82,-2],[-43,-13],[-33,-22],[-100,5],[-21,4],[-27,75],[-32,26],[-55,11],[-17,15],[-52,29],[-94,30],[-24,0],[-41,-21],[-31,-30],[-33,14],[-19,27],[-55,28],[-117,-55],[-81,6],[-44,-13],[-71,-37],[-23,4],[-58,37],[-28,9],[-50,-13],[-32,4],[-54,19],[-57,7],[-26,13],[-31,37],[-37,63],[-28,13],[-69,-12],[-17,-6],[-35,-29],[-23,-1],[-18,13]],[[6924,6439],[-71,60],[-2,32],[6,39],[-4,19],[-35,39],[-22,47],[-50,41],[-13,29],[0,94],[26,46],[-17,52],[-14,196],[1,60],[-8,17],[-71,57],[-32,35],[-31,101],[-3,32],[16,97],[-1,65],[-166,12],[6,82],[5,169],[0,150],[-42,30],[-49,-3],[-31,-18],[-36,99],[-10,55],[14,52],[-2,116],[-54,72],[-4,13],[1,117],[-66,49],[11,25],[70,52],[15,18],[11,37],[-8,41],[-42,68],[2,21],[20,59],[20,42],[-61,16],[-54,23],[-53,7],[-48,22],[-30,7],[-24,-5],[-79,-25],[-14,-9],[-50,-57],[-30,-10],[-88,-7],[-45,4],[-136,26],[-31,3],[-49,-5],[-32,5],[-27,-16],[-21,7],[-33,-10]],[[6464,4333],[11,0],[173,-15],[49,-2],[97,-1],[29,-9],[90,-58],[81,-29],[108,-58],[25,-23],[21,-46],[16,-164],[8,-32],[21,-33],[42,-43],[29,-46],[36,-103],[21,-34],[59,-64],[17,-22],[40,-76],[20,-23],[34,-22],[59,-25],[23,-20],[23,-35],[22,-74],[17,-30],[24,-27],[77,-53],[263,-176],[58,-40],[40,-17],[21,-2],[48,16],[160,96],[169,84],[37,8],[31,-3],[101,-32],[46,-5],[53,10],[30,-12],[54,85],[21,44],[4,24],[15,24],[7,29],[-8,27],[6,33],[5,120],[80,41],[74,42],[30,30],[40,50],[19,14],[8,28],[28,13],[40,6],[23,-7],[39,-27],[47,-41],[26,-9],[89,-11],[55,2],[21,-4],[18,-16],[27,0],[14,23],[-21,60],[1,17],[20,71],[33,21],[68,65],[81,36],[51,32],[76,62],[43,28],[46,23],[43,60],[10,85],[9,7],[61,-6],[37,-27],[45,-8],[59,-25],[14,35],[104,39],[74,22],[47,5],[21,10],[33,35],[39,22],[50,-10],[55,9],[35,-5],[1,-18],[19,-50],[27,-22],[33,-17],[22,-31],[50,-21],[23,-21],[20,-45],[18,-20],[41,-15]],[[10963,4016],[-4,-101],[-27,-909],[0,-45],[-11,-558],[-1,-26],[-3,-461],[-2,-148],[-5,-52],[2,-126],[-2,-107],[1,-67],[-9,-214],[-491,10],[-138,0],[-536,12],[-2,-302],[-3,-258],[-6,-664],[-160,4],[-429,7],[-784,17],[-367,5],[-79,2],[-496,8],[-271,5],[-862,18],[-651,14],[8,283],[1,130],[3,243],[12,327],[-4,67],[7,352],[12,408]],[[5666,1890],[59,6],[60,30],[47,-4],[146,1],[19,3],[37,24],[-26,9],[-24,42],[0,73],[-16,41],[-27,34],[-18,40],[-69,62],[-38,45],[-54,22],[-26,19],[-49,55],[-3,23],[14,40],[6,44],[9,27],[35,41],[17,54],[13,26],[-6,29],[2,30],[43,39],[20,29],[-18,23],[-25,52],[11,56],[-8,26],[-33,28],[-52,12],[-31,-5],[-12,8],[2,32],[-14,18],[-38,27],[-12,48],[-62,22],[-31,-4],[-63,4],[-19,12],[-7,24],[-32,18],[-20,21],[-5,70],[-17,14],[-37,15],[-25,20],[-8,18],[16,23],[14,61],[39,74],[20,55],[14,50],[54,76],[96,74],[90,45],[29,35],[21,70],[62,69],[33,7],[103,16],[325,52],[15,6],[224,137],[23,27],[7,21],[-5,82],[3,20]],[[4921,14225],[0,-52],[28,-40],[2,-30],[14,-20],[34,0],[36,-29],[40,-74],[21,-7],[38,-1],[17,-19],[-3,-281],[-153,76],[-56,51],[-186,126],[-45,9],[-81,-11],[-48,-24],[-30,-10],[-84,-17],[-27,-13],[-49,-34],[-23,-6],[-40,0],[-87,10],[-79,15],[-138,12],[-61,11],[0,-156],[-2,-14],[-2,-350],[11,-42],[14,-17],[80,-63],[11,-27],[-2,-292],[-3,-123],[-19,-32],[-31,-20],[-13,-17],[-7,-40],[-19,-23],[-50,-36],[-18,-26],[-20,-60],[-6,-101],[-10,-28],[0,-84],[-5,-69],[-1,-153],[-2,-75],[-19,-40],[-61,-65],[-69,-80],[-40,-22]],[[3678,11812],[-45,8],[6,198],[-27,2],[-318,9],[-192,7],[-5,-97],[-33,-7],[28,-65],[0,-88],[-4,-42],[-45,-87],[-12,-43],[-19,-44],[-30,-34],[-11,-5],[-77,0]],[[2894,11524],[-67,99],[-169,259],[-30,49],[-458,-7],[-128,0],[-31,-2],[-13,12],[-22,40],[-68,50],[-51,0],[-19,6],[-41,-25],[-60,-68],[-13,-4],[-84,50],[-42,5],[-42,-28],[-73,-30],[-23,-6],[-47,3],[-32,-4],[-319,-1],[-179,-2],[2,245],[2,61],[-94,0],[-378,3],[-15,18],[1,120],[-17,48],[-21,18],[-87,0],[-17,17]],[[259,12450],[-1,77],[0,249],[-39,4],[-195,1],[-18,1129],[-1,117],[-4,291],[-1,101],[208,1],[561,0],[113,1],[129,-6],[25,3],[345,-4],[250,2],[44,-4],[196,-5],[514,-5],[83,10],[174,13],[125,13],[0,-49],[147,0],[22,7],[366,-6],[171,1],[225,-3],[167,0],[206,-1],[9,-2],[124,0],[-4,-161],[11,1],[325,3],[189,-3],[196,0]],[[3303,10260],[163,47],[73,-1],[105,28],[59,28],[25,18],[47,55],[222,359],[25,27],[105,69],[40,43],[20,36],[40,98]],[[4227,11067],[31,52],[45,52],[17,11],[61,22],[21,-13],[91,-3],[49,-9],[63,-16],[52,-31],[37,-52],[57,-12],[58,-36],[16,-13],[23,-44],[60,-85],[35,-9],[-26,-34],[-29,-59],[-3,-34],[12,-36],[-24,-13],[-23,1],[-37,-21],[-64,-21],[-4,-12],[-6,-179],[-13,-28],[-1,-33],[7,-37],[28,-1],[41,-43],[47,-64],[107,-99],[7,-43],[16,-35],[55,-39],[13,-27],[-70,-61],[22,-54],[34,-103],[-4,-42],[-37,-58],[-7,-22],[9,-34],[-41,-74],[-15,-11],[-36,-3],[-59,-20],[-14,-16],[-4,-63],[-8,-17],[-40,-21],[-35,-47],[-23,-16],[-31,-34],[-14,-28],[-29,-7]],[[4644,9293],[-84,9],[-67,44],[-156,57],[-104,25],[-50,7],[-28,26],[-80,5],[-288,3],[-113,3],[-18,145],[-5,21],[-84,86]],[[3567,9724],[-34,47],[-82,79],[-35,29],[-14,43],[-70,257],[-29,81]],[[6328,5076],[89,-5],[60,0],[36,28],[101,8],[38,-6],[55,-30],[21,1],[24,23],[42,6],[87,8],[24,8],[39,28],[-48,54],[-5,47],[-33,85],[-19,38],[0,49],[8,16],[-5,46],[3,43],[-5,88],[0,62],[-44,38],[18,33],[19,115],[-7,48],[-21,22],[-24,47],[-13,71],[-21,45],[-29,37],[-8,43],[-16,23],[-3,66],[40,36],[49,28],[32,71],[41,13],[21,19],[50,11]],[[11010,6220],[-1,-27],[2,-270],[3,-139],[-13,-301],[-4,-492],[-1,-58],[-33,-917]],[[6464,4333],[16,68],[3,116],[-19,221],[-12,25],[-55,56],[-18,44],[2,70],[-7,53],[-32,72],[-14,18]],[[5953,12202],[-16,-411],[93,-1],[305,-6],[260,-10],[105,-2],[210,-8],[93,-1],[138,-6],[98,-1],[19,-3]],[[7258,11753],[-3,-88],[-9,-166]],[[5359,8931],[-12,-44],[-31,-66],[-45,-56],[-39,-37],[-27,-12],[-35,11],[-128,12],[-56,31],[-11,40],[13,80],[28,56],[15,51],[6,40],[-20,39],[-42,42],[-58,38],[-56,11],[-47,0],[-9,-26],[2,-40],[19,-81],[9,-81],[-17,-65],[-171,-73],[-6,-5]],[[4641,8796],[-30,17],[-24,-3],[23,37],[-5,76],[-13,41],[-17,100],[11,29],[38,31],[16,43],[2,51],[15,40],[-13,35]],[[4227,11067],[-48,55]],[[4179,11122],[85,51],[464,282],[80,40],[170,68],[53,22],[53,31],[117,78],[59,32],[102,52],[241,120],[51,47],[125,157],[43,42],[40,23],[91,35]],[[3678,11812],[-17,-23],[-14,-42],[1,-24],[24,-38],[11,-50],[-1,-15],[-27,-69],[-5,-41],[365,-8],[109,0],[163,-5],[51,-3],[-13,-30],[-8,-65],[2,-68],[-13,-49],[-3,-55],[-13,-24],[-37,-23],[-32,-13],[-66,-13],[24,-32]],[[3149,10837],[-2,147],[-6,76],[-12,55],[-24,71],[-46,86],[-165,252]],[[4921,14225],[416,0],[276,0]],[[5613,14225],[0,-131],[-2,-61],[2,-83],[-10,-855],[-1,-20],[-7,-347],[114,0],[226,-4],[24,3],[18,-11],[-1,-45],[-13,-236],[-7,-192],[-3,-41]],[[3567,9724],[-66,-37],[-37,-10],[-14,-22],[-5,-187],[-4,-74],[-15,-13],[-89,-44],[-16,-33],[-84,-43],[-27,-30],[-34,-25],[-10,-22],[1,-35]],[[3167,9149],[-135,121],[4,84],[-25,-10],[-68,41],[-3,15],[-57,0],[-16,17],[6,56],[31,0],[-19,52],[-27,32],[-19,11],[6,115],[-21,61],[-31,35],[-61,29],[-6,31],[7,16],[25,11],[-15,22],[-47,2],[-32,14],[151,170],[50,37]],[[241,9746],[271,103],[411,129],[33,80],[44,-13],[629,263],[864,353],[226,44]],[[3167,9149],[-9,-21],[-32,-12],[-39,-38],[-6,-13],[-4,-70],[-8,-22],[-49,-36],[-5,-19],[11,-27],[0,-27],[20,3],[22,-17],[21,5],[21,19],[28,7],[27,-12],[63,-1],[2,-41],[31,-16],[-42,-40],[-44,6],[-20,-10],[-18,-41],[-1,-118],[-8,-47],[-31,-40],[-53,-28],[-50,-56],[-87,-57],[-123,-54],[-26,-19],[-4,-18],[11,-41],[24,-37],[22,-46],[2,-31],[-18,-67],[-42,-114],[-28,-44],[-31,-25],[-33,-7],[-39,19],[-48,38],[-27,33],[-25,61],[-21,97],[-23,51],[-36,31],[-44,31],[-37,5],[-35,-17],[-34,23],[-3,58],[-23,32],[-38,30],[-45,47],[-49,83],[-38,57],[-44,35],[-54,29],[-57,19],[-27,0],[-74,-35],[-53,-20],[-40,-50],[-67,-75],[13,-93],[119,-118],[25,-18],[38,-18],[56,9],[3,-20],[56,17],[54,-26],[13,20],[28,-17],[7,-26],[65,-28],[26,-136],[-14,-68],[-18,-29],[-9,-41],[-24,-36],[-59,-24],[-28,7],[-16,13],[-5,36],[-91,33],[-50,33],[-60,65],[-28,22],[-53,26],[-34,5],[-66,-7],[-5,-39],[-14,-20],[-83,-51],[-45,3],[-58,28],[-34,23],[-54,17],[-61,0],[-42,-23],[-79,20],[-61,20],[-30,-9],[-39,-22],[-34,-52],[94,-122],[20,-92],[-16,-82],[-24,-54],[-18,-11],[-28,-3],[-57,67],[-7,17],[-92,123],[-20,17],[-69,-31],[-68,-10],[-17,-11],[-29,3],[-60,38],[-50,-9],[-57,-25],[-34,-27],[-49,-10],[-23,-14],[-10,-36],[-26,-19],[-75,-12],[-29,9],[-19,-20]],[[226,7621],[2,59],[4,558],[0,144],[4,117],[-1,134],[3,174],[-4,17],[1,207],[7,233],[-6,297],[3,75],[2,110]],[[241,9746],[0,184],[4,365],[5,407],[3,649],[6,617],[-7,40],[1,297],[6,145]],[[6328,5076],[-30,20],[-201,58],[-23,12],[-25,26],[-79,135],[-27,28],[-91,61],[-43,49],[-55,9],[-78,40],[-101,30],[-35,30],[-19,45],[-26,73],[-64,59],[-24,40],[-29,86],[-18,72],[5,50],[-6,17],[-29,36]],[[5330,6052],[-24,31],[3,28],[17,38],[-27,147],[4,58],[32,67],[6,130],[-9,53],[-27,63],[-26,23],[-48,22],[-30,22],[-25,51],[-18,18],[-23,10],[-46,7],[22,51],[20,3],[75,30],[24,14],[20,26],[26,61],[-7,8],[-57,10],[-10,18],[10,17],[54,14],[38,5],[51,26],[12,19],[-24,108],[-6,57],[4,25],[13,10],[63,-5],[11,-20],[1,-37],[8,-20],[41,-13],[42,8],[30,-1],[46,12],[18,19],[19,53],[0,34],[-10,9],[-63,7],[-57,19],[-59,36],[-53,-6],[-48,-30],[-77,-12],[-50,5],[-59,1],[-30,7],[-18,13],[-18,29],[-2,35],[32,55],[-14,21],[-40,15],[26,29],[13,22],[-84,45],[-9,28],[1,39],[-13,67],[-84,-58]],[[4917,7728],[-47,34],[-19,49],[-19,10],[-6,36],[-17,24],[-15,-1],[-20,41],[4,29],[12,14],[44,23],[40,7],[-5,27],[13,46],[-16,64],[-28,15],[-29,4],[-21,-21],[-37,-21],[-27,12],[-18,21],[-31,14],[-31,31],[-10,23],[14,22],[-17,17],[5,27],[23,15],[13,26],[-54,40],[-9,20],[11,21],[-21,79]],[[4599,8476],[8,16],[55,26],[11,21],[-77,110],[-19,57],[2,27],[17,29],[45,34]],[[3055,5216],[37,70],[32,41],[1,38],[-17,52],[-2,27],[25,58],[12,84],[11,26],[42,40],[20,71],[57,66],[41,38],[59,90],[27,60],[29,28],[7,17],[0,48],[-8,27],[3,30],[28,64],[29,26],[21,44],[6,34],[14,36],[38,33],[57,40],[35,71],[8,30],[42,26],[15,15],[2,74],[45,69],[38,41],[91,69],[32,46],[5,41],[18,44],[-4,91],[5,49],[-12,45],[4,46],[-30,186],[-27,67],[-1,67],[33,10],[69,31],[59,38],[109,31],[81,19],[39,30]],[[4280,7640],[62,-33],[16,-34],[31,-8],[153,46],[11,-28],[45,12],[13,13],[30,-3],[40,9],[74,10],[38,15],[124,89]],[[5330,6052],[-33,-4],[-40,-32],[-47,15],[-18,41],[-46,2],[-8,-23],[-27,-15],[-8,-34],[-26,-7],[-45,11],[-35,28],[-27,-14],[-94,11],[-27,-24],[-62,-33],[-31,17],[-55,53],[-32,-5],[-39,12],[-10,-15],[-40,-10],[-26,-17],[-26,-46],[-2,-32],[16,-62],[-14,-41],[-19,-12],[-22,-2],[-27,-32],[-71,-25],[12,-42],[-13,-49],[-4,-231],[-20,-20],[-46,-3],[-51,7],[-70,-9],[-39,-28],[-58,-27],[-18,-26],[2,-50],[-38,-67],[-13,-33],[-25,-38],[-11,-26],[-24,-30],[-30,-51],[-16,-63],[-17,-20],[-48,-6],[-39,-14],[-34,-27],[-30,13],[-26,27],[-12,25],[-34,23],[-84,20],[-49,24],[-38,9],[-160,18],[-32,10],[-46,26],[-80,35],[-76,20],[-21,18],[-14,34],[-27,-3],[-5,13]],[[217,6288],[35,-22],[23,-5],[65,14],[-3,-56],[25,-36],[61,-53],[21,-38],[1,-42],[-5,-40],[-22,-25],[-33,-53],[-39,-30],[-55,-24],[-19,-63],[-2,-32],[-15,-39],[7,-33],[29,-39],[10,-36],[-24,-46],[-9,-64],[23,-27],[64,-28],[30,-17],[69,-23],[46,-4],[58,-13],[85,-27],[29,2],[58,-22],[21,-17],[28,11],[12,16],[-10,27],[-34,27],[-11,25],[70,25],[131,94],[19,-3],[89,-67],[73,-77],[43,-14],[31,17],[15,19],[2,31],[-27,46],[-7,42],[13,11],[70,-4],[79,-23],[46,-6],[9,23],[51,65],[5,31],[25,26],[21,29],[34,13],[40,25],[100,23],[66,5],[53,26],[32,-9],[19,-17],[30,-6],[42,23],[54,3],[17,-8],[15,-21],[27,50],[40,18],[46,14],[14,52],[20,32],[56,53],[5,51],[22,31],[40,15],[17,20],[6,21],[-3,32],[6,71],[223,-5],[148,0],[234,5],[-17,-26],[1,-75],[7,-26],[42,-66],[5,-36],[-48,-101],[-95,-105],[-6,-21],[22,-40],[59,-73],[16,-24],[5,-29],[-5,-23],[-49,-125],[3,-25],[17,-18],[39,-23],[18,-34],[-16,-70],[6,-69],[63,-8],[91,-5]],[[5666,1890],[19,636],[-678,4],[-820,16],[-52,1],[-125,6],[-601,4],[-478,4],[-352,3],[-677,5],[-319,1],[-318,2],[-190,0],[-194,-5],[-717,9],[4,348],[9,396],[-2,133],[4,100],[1,214],[5,386],[2,153],[8,641],[4,44],[18,1297]],[[4280,7640],[-42,27],[1,49],[-80,50],[-75,40],[-28,29],[-8,21],[6,36],[21,43],[17,19],[43,29],[21,-19],[21,-41],[32,-39],[97,0],[21,5],[45,26],[61,62],[11,53],[1,55],[-23,40],[-15,58],[4,34],[23,16],[-11,37],[-44,87],[-9,50],[14,41],[41,24],[67,11],[42,0],[14,-8],[51,1]],[[217,6288],[7,553],[1,589],[1,191]],[[5613,14225],[501,-2],[555,4],[390,1],[133,-2],[1040,0],[729,0]],[[8961,14226],[-45,-81],[-35,-50],[-22,-25],[-197,-189],[-74,-64],[-173,-136],[22,-25],[8,-36],[24,-33],[44,-33],[6,-36],[0,-82],[12,-19],[39,-6],[24,-13],[14,-38],[26,-27],[9,-70],[1,-50],[13,-30],[66,-52]],[[8723,13131],[-25,-23],[-61,-6],[-205,2],[-20,-13],[-31,-6],[-205,1],[2,-65],[-50,13],[-84,1],[-20,-6],[-8,-17],[-26,-5],[-41,3],[-38,-12],[-50,14],[-6,14],[-62,38],[-27,-8],[-8,-20],[-26,-21],[-42,1],[-33,39],[-15,6]],[[7642,13061],[-29,19],[-26,54],[-14,12],[-20,45],[-23,20],[-24,54],[-47,6],[7,21],[-45,0],[-40,-12],[-37,-28],[-9,-16],[-37,-18],[-20,-3],[-30,-25],[-82,-26],[-51,-8],[-25,-31],[-14,-7],[-30,-39],[-65,-54],[-48,-20],[-42,-52],[-4,-25],[-16,-11],[1,-34],[-29,-32],[-35,-11],[-38,-23],[-22,-3],[-56,4],[-23,-22],[-24,-37],[-33,-13],[-38,-40],[-25,-17],[-8,-33],[-3,-78],[20,-47],[15,-15],[16,-45],[11,-16],[-30,-18],[-69,-33],[-349,-130],[-199,-72]],[[7642,13061],[-299,-85],[-46,-18],[2,-109],[33,-24],[-62,-68],[-16,-40],[-37,-64],[-32,-38],[-5,-54],[-11,-55],[11,-25],[26,-20],[39,-88],[9,-58],[24,-53],[1,-49],[-5,-40],[4,-86],[-8,-66],[-4,-126],[-8,-142]],[[8723,13131],[16,-18],[5,-23],[29,-21],[77,-40],[13,-16],[42,-16],[45,9],[41,-4],[6,10],[0,73],[14,13],[141,1],[26,-4],[54,5],[60,63],[15,62],[-14,22],[-35,24],[-30,35],[-16,10],[-20,35],[5,29],[12,24],[36,14],[43,-14],[31,8],[30,21],[18,23],[61,32],[18,-8],[43,11],[33,-17],[27,6],[34,-9],[50,7],[20,15],[28,7],[39,-11],[50,0],[24,8],[14,14],[65,-13],[10,-17],[55,-11],[28,4],[84,23],[26,2],[4,25],[33,-8],[54,-5],[50,27],[13,18],[26,-1],[24,10],[30,-2],[45,-25],[59,27],[109,7],[66,18],[37,2],[35,10],[21,23],[79,3],[49,23],[31,-3],[46,-23],[41,32],[-14,39],[7,27],[21,1],[14,13],[5,21],[48,-35]],[[11009,13723],[0,-194],[1,-153],[-1,-1368],[12,-158],[24,-1051]],[[8961,14226],[218,2],[606,2],[488,0],[35,-2],[325,-4],[119,0],[256,2],[1,-503]]],"transform":{"scale":[0.00003993052288764188,0.00003563104308075896],"translate":[-91.535332,37.69719800000001]},"objects":{"Geometry\\29-055":{"type":"GeometryCollection","geometries":[{"arcs":[[0,1,2,3]],"type":"Polygon","properties":{"GEOID":"290554503023"}},{"arcs":[[4,5,6,7,8]],"type":"Polygon","properties":{"GEOID":"290554502002"}},{"arcs":[[9,10,11]],"type":"Polygon","properties":{"GEOID":"290554502001"}},{"arcs":[[12,13,14,15]],"type":"Polygon","properties":{"GEOID":"290554501011"}},{"arcs":[[16,17,18,19]],"type":"Polygon","properties":{"GEOID":"290554503021"}},{"arcs":[[20,-8,21,-10,22]],"type":"Polygon","properties":{"GEOID":"290554502003"}},{"arcs":[[23,24,-5,25,26,-18,27,28]],"type":"Polygon","properties":{"GEOID":"290554502004"}},{"arcs":[[29,-28,-17,-2,30,-14]],"type":"Polygon","properties":{"GEOID":"290554503024"}},{"arcs":[[-13,31,32,-29,-30]],"type":"Polygon","properties":{"GEOID":"290554501012"}},{"arcs":[[-3,-20,33,34]],"type":"Polygon","properties":{"GEOID":"290554503022"}},{"arcs":[[35,-4,-35,36,37]],"type":"Polygon","properties":{"GEOID":"290554503011"}},{"arcs":[[-15,-31,-1,-36,38]],"type":"Polygon","properties":{"GEOID":"290554503012"}},{"arcs":[[-26,-9,-21,39,40,41,42]],"type":"Polygon","properties":{"GEOID":"290554504021"}},{"arcs":[[43,44,-41,45]],"type":"Polygon","properties":{"GEOID":"290554504023"}},{"arcs":[[46,-46,-40,-23,-12,47]],"type":"Polygon","properties":{"GEOID":"290554504022"}},{"arcs":[[-42,-45,48]],"type":"Polygon","properties":{"GEOID":"290554504012"}},{"arcs":[[-37,-34,-19,-27,-43,-49,-44,-47,49]],"type":"Polygon","properties":{"GEOID":"290554504011"}},{"arcs":[[50,51,52,53,-33]],"type":"Polygon","properties":{"GEOID":"290554501041"}},{"arcs":[[-54,54,-24]],"type":"Polygon","properties":{"GEOID":"290554501042"}},{"arcs":[[-53,55,56,-6,-25,-55]],"type":"Polygon","properties":{"GEOID":"290554501031"}},{"arcs":[[57,-56,-52]],"type":"Polygon","properties":{"GEOID":"290554501032"}}]}}}