{"type":"Topology","arcs":[[[6395,8363],[70,-38],[51,-17],[103,-2],[66,13],[86,24],[126,-3],[100,-32],[36,-28],[33,-58],[29,-65],[12,-52],[20,-39],[201,-126],[83,-59],[68,-63],[132,-168],[35,-47],[104,-157]],[[7750,7446],[-78,-30],[21,-32],[-21,-14],[-37,32],[-62,-7],[-111,-47],[-45,19],[-16,34],[-56,14],[-10,27],[-130,-19]],[[7205,7423],[-22,95],[-2,48],[-16,-1],[-41,23],[-27,1],[-29,34],[-20,-29],[-85,-4],[-40,-16],[-16,2],[-41,35]],[[6866,7611],[-14,27],[-21,10],[-59,45],[-57,16],[-24,16],[-28,65],[-25,12],[-30,-1],[-48,-17],[28,58],[9,60],[-16,48],[-3,46],[-15,23],[-57,53],[-46,23],[-33,-4],[-29,6],[-27,42],[0,46],[-28,25],[-9,38],[5,52],[17,21],[23,9],[33,-17],[33,-29],[-4,-20],[22,-7],[38,1],[-119,81],[13,24]],[[3043,4178],[8,-18],[23,-8],[65,4],[9,17],[79,42],[29,1],[-4,-27],[28,-25],[20,8],[58,-33],[30,12],[-2,52],[29,22],[41,-7],[11,12],[31,-12],[50,31],[19,0],[4,-21],[26,-36],[56,3],[1,22],[31,43],[20,-14],[52,-8],[51,15],[20,-6],[25,-25],[38,50],[32,19],[14,-2],[22,-42],[21,4],[21,32],[-3,22],[14,42],[11,12],[41,9],[1,35],[14,26],[57,6],[104,49],[3,50],[10,18],[35,21],[9,17],[41,8],[12,27],[39,37],[46,7],[41,-4],[30,-12],[11,9],[54,-3],[40,4],[23,25],[44,33],[16,-5],[61,-45],[8,-57],[20,-3],[23,13],[57,11],[66,-8],[40,-29],[30,16],[38,32],[39,52],[34,28],[39,8],[38,18],[18,17],[18,46],[54,37],[48,-34],[17,-33]],[[5342,4785],[-36,-17],[-34,-7],[-45,-73],[-21,2],[-14,-23],[8,-35],[-1,-33],[-10,-30],[-21,-36],[25,-20],[11,-23],[-35,-30],[-37,-9],[-11,40],[-37,67],[-41,3],[-34,-26],[2,-51],[-33,-37],[-27,-48],[-9,-31],[-19,-12],[-54,42],[-37,6],[-25,-4],[-10,-29],[1,-43],[-35,-20],[-47,-54],[-4,-16],[-37,0],[-93,-53],[-3,-20],[21,-30],[16,-43],[1,-57],[83,-47],[26,22],[6,20],[-28,53],[-28,28],[15,24],[15,1],[38,-36],[23,-6],[45,-39],[18,-26],[40,-19],[15,-17],[41,-9],[64,5],[14,-21],[-25,-62],[5,-31],[-45,-46],[-2,-21],[16,-32],[-6,-18],[-71,-78],[-33,-23],[-34,-34],[45,7],[36,-5],[31,-20],[19,-24],[56,-108],[13,-17],[34,-5],[70,24],[47,7],[61,24],[41,20],[21,1],[48,-34],[20,22],[62,31],[27,-10],[30,-30],[30,-1],[37,-11],[47,2],[43,10],[60,25],[8,-6],[95,25],[28,0],[86,-33],[51,-23],[22,-19],[26,-5],[54,-41],[33,-10],[33,9],[15,-5],[71,5],[28,-8],[22,6],[25,-20],[83,-8],[49,15],[2,-34],[11,-31],[22,-36],[4,-35],[-6,-58],[-19,-70],[0,-51],[-6,-18],[-40,-32],[-13,-23],[-8,-38],[-1,-56],[22,-42],[31,-4],[24,-33],[28,-19],[36,-12],[35,-25],[84,-124],[15,-59],[-17,-31],[23,-47],[31,-36],[27,-22],[35,-8],[41,-32],[15,-50],[-4,-23],[-22,-33],[-5,-44],[13,-27],[32,4],[67,-30],[24,-60],[31,-35],[2,-31],[-8,-21],[1,-41],[-23,-78],[-25,-46],[4,-43],[-21,-63],[-16,-68],[-11,-66],[-28,-45],[3,-92],[-27,-38],[-4,-83],[-14,-26],[20,-33],[8,-49],[-15,-52]],[[6774,1264],[-106,-192],[-560,-1017],[-7,-14],[-259,233],[-505,450],[-436,-391],[-369,-333],[-128,141],[-137,154],[-111,127],[-137,153],[-418,464],[-103,121],[-155,194],[-179,207],[-146,174],[-165,193],[-223,260]],[[2630,2188],[-4,130],[1,319],[3,207],[3,279],[53,-5],[57,-49],[55,-21],[-38,82],[-20,119],[-32,67],[7,63],[-21,27],[-134,1],[-14,-49],[-77,-7],[19,57],[20,127],[12,30],[32,43],[143,213],[25,34],[265,271],[58,52]],[[6655,7433],[38,7],[53,-2],[71,-25],[40,-22],[33,-27],[32,-35],[48,-67],[48,39],[18,-22],[27,22],[41,53],[58,34],[24,-1],[22,11]],[[7208,7398],[0,-51],[8,-81],[-16,-39],[14,-49]],[[7214,7178],[11,-89],[6,-22],[31,-55],[53,-187],[-1,-41]],[[7314,6784],[-16,-34],[-120,-119],[-161,-60],[-34,-8],[-132,-45],[-12,18],[-44,8],[-96,-36],[-5,2],[-22,151],[-30,-17],[-159,-126],[-55,-27],[-172,-21],[-35,-17],[-53,-44],[-33,-7],[-203,8]],[[5932,6410],[-12,16],[-53,22],[-38,26],[-19,32],[5,58],[-11,23],[124,50],[112,87],[84,49],[46,19],[68,2],[53,8],[3,12],[37,33],[24,35],[32,12],[69,44],[39,52],[15,55],[16,22],[3,33],[-15,25],[-30,24],[-11,35],[7,51],[9,22],[91,131],[25,17],[42,1],[8,27]],[[5342,4785],[133,-47],[18,-18],[28,1],[48,73],[27,60],[30,49],[82,89],[30,19],[30,-8],[29,-27],[45,19],[-2,66],[61,29],[48,-4],[29,-23],[65,3],[51,-30],[12,-40],[22,-24],[7,-28],[17,-9],[45,18],[11,14],[41,9],[34,-20],[5,-51],[26,-16],[-12,-37],[18,-27],[79,-6],[8,27],[23,27],[29,11],[21,-13],[13,-36],[95,14],[41,-45],[30,-21],[25,19],[50,61],[45,32],[6,36],[-29,51],[-35,29],[-49,13],[-21,31],[25,12],[22,-14],[48,0],[25,12],[47,9],[46,61],[11,26],[34,47],[25,25],[8,33],[25,9],[39,-22],[75,84]],[[7081,5337],[231,-217],[37,-44],[212,-310],[26,-33],[256,-300],[254,-293],[187,-199]],[[8284,3941],[-244,-287],[-159,-315],[-12,-20],[-296,-569],[-425,-818],[-14,-14],[-70,-130],[-131,-235],[-159,-289]],[[3043,4178],[41,42],[26,38],[95,162],[97,172],[16,24],[134,169],[34,24],[35,10],[144,-3],[81,5],[83,28],[76,-2],[46,15],[64,38]],[[4015,4900],[40,47],[23,52],[32,24],[65,15],[36,28],[15,35],[15,89],[40,62],[10,33],[13,111],[2,58],[-12,74],[0,34],[24,77],[30,43],[30,22],[124,55],[47,5],[48,-4],[29,12],[28,29],[14,43],[14,133],[9,26],[25,29],[42,10],[52,-17],[37,0],[34,19],[38,36],[43,20],[74,5],[36,15],[143,138],[59,79],[90,63],[47,18],[160,14],[37,-2],[62,-11],[215,-8]],[[5885,6411],[47,-1]],[[7314,6784],[24,-73],[127,42],[30,-43],[118,39],[19,-34],[28,22],[15,-20],[43,23]],[[7718,6740],[9,-20],[451,206],[62,-25],[50,20],[24,-16],[25,9],[-44,43],[12,63]],[[8307,7020],[40,5],[58,16],[114,26],[53,2],[76,11],[48,14],[202,72],[176,70],[24,-107],[27,-35],[18,-53],[-4,-32],[19,-45],[36,-10],[153,21],[-1,-38],[7,-78],[-10,-24],[-50,-75],[-42,-44],[-12,-23],[-50,-34],[-50,-2],[-17,-11],[-66,-66],[-98,-79],[-19,-6],[-72,0],[-34,9],[-53,-11],[-37,5],[-12,-21],[-11,-65],[-24,-20],[-2,-48],[-60,-18],[-92,-73],[-42,-39],[-21,-30],[-3,-27],[13,-80],[-1,-75],[20,-62],[38,-57],[44,-112],[35,-76],[18,-105]],[[8643,5590],[-46,49],[-41,25],[-80,27],[-23,20],[-107,130],[-119,116],[-21,15],[-28,41],[-37,7],[-18,-14],[-31,-43],[-32,-26],[-48,11],[-28,-21],[-36,-11],[4,-66],[18,-38],[2,-31],[-13,-33],[-40,6],[-23,-20],[-50,-13],[-26,3],[-15,43],[-12,14],[-40,17],[-12,-30],[9,-36],[-19,-28],[-31,0],[-21,39],[-40,1],[-33,-7],[-26,-14],[-15,-24],[10,-30],[-5,-23],[-23,-25],[7,-88],[-20,-39],[-44,-33],[-56,33],[-30,-37],[-42,20],[-41,-10],[-37,2],[-41,-10],[-45,0],[-15,-21],[-17,-50],[-85,-51]],[[8643,5590],[35,-42],[48,-78],[31,-65],[49,-117],[46,-124],[39,-61],[59,-54],[144,-97],[32,-17],[-27,-31],[-195,-232],[-620,-731]],[[7205,7423],[3,-25]],[[6655,7433],[-50,-9],[-57,-2],[-95,15],[8,33],[23,-26],[59,5],[68,28],[47,44],[45,67],[26,9],[74,-9],[63,23]],[[7750,7446],[76,-121],[71,-108],[80,-89],[57,-44],[57,-32],[86,-26],[67,-10],[63,4]],[[7718,6740],[-12,31],[-50,77],[-108,196],[-46,43],[-139,61],[-46,9],[-1,49],[-81,-29],[-21,1]],[[2385,7496],[51,-39],[56,-1],[43,-12],[33,-34],[16,4],[20,59],[1,42],[22,65],[18,19],[45,11],[60,30],[20,-8],[37,-81],[51,63],[74,62],[32,42],[39,26],[77,41],[18,18],[55,30],[30,25],[-53,27],[-105,4],[-36,21],[-23,22],[-61,45],[-85,9],[-27,-7],[-37,12],[-32,-9],[-54,6],[-31,-12],[-35,-32],[-29,-18],[-75,-73],[-68,-5],[-47,13],[-28,-12],[-81,46],[3,197],[6,15],[32,29],[68,18],[55,-10],[57,21],[31,22],[1,91],[25,-2],[12,35],[28,0],[30,-22],[26,-50],[22,-13],[31,17],[36,68],[15,14],[-5,26],[-49,48],[1,37],[20,39],[23,19],[20,35],[-21,47],[79,92],[23,39],[110,64],[35,3],[62,16],[30,19],[56,19],[45,45],[54,11],[51,51],[86,1],[22,-21],[41,-25],[15,14]],[[3452,8904],[57,-85],[24,-28],[65,-57],[296,-252],[44,-46],[26,-44],[110,-227],[42,-74],[68,-83],[114,-123],[88,-93]],[[4386,7792],[-25,-35],[-22,-58],[2,-30],[-9,-52],[9,-60],[33,-42],[42,-21],[35,-8],[33,-26],[42,-66],[16,-43],[1,-22],[-29,-15],[-13,-23],[-53,-35],[-46,-22],[-14,-40],[-72,-110],[-28,-4],[-119,-50],[-18,-21],[-35,-55],[-64,-74],[-21,-19],[-38,-69],[0,-19],[-20,-53],[-16,-75],[-36,-33],[-5,-48],[-21,-65]],[[3895,6499],[-56,-49],[-22,23],[-29,-24],[-1,-19],[-25,-35],[0,-16],[-35,-46],[-34,-33],[-16,-25],[-23,-17],[-58,4],[-22,28],[-28,19],[-16,-2],[-64,19],[-13,32],[-18,21],[-39,14],[-23,22],[-35,-11],[-30,-25],[-27,-3],[-48,-55],[-44,4],[-38,11],[-39,-2],[-34,44],[-20,16],[-31,10],[-55,-8],[-31,-14],[-23,-32],[-41,0],[-29,-10],[-7,-36],[-47,-44],[-24,-15],[-46,-8],[-62,0],[-80,-21],[-31,-21],[-29,-49],[-51,-41],[-10,-16],[-37,52],[-15,101],[-16,53],[-19,88],[-34,56],[5,54],[-51,93],[-12,86],[-11,27],[-2,32],[22,80],[-3,40],[28,17],[-120,87],[-18,27],[-6,69],[-24,39],[-103,56]],[[2045,7146],[151,154],[189,196]],[[6039,8631],[-91,58],[-26,29],[-31,22],[-81,88],[-75,60],[-37,41],[-163,122],[-101,68],[-18,21],[-37,68],[-20,18],[-63,38],[-115,23],[-40,-16],[-16,-24],[-3,-39],[15,-36],[59,-60],[25,-48],[-2,-41],[-16,-39],[-80,-14],[-38,-20],[-39,-35],[-56,-28],[-17,-20],[-29,-57],[-16,68],[-15,39],[-38,36],[-31,9],[-14,-35],[-32,-35],[1,-47],[-68,-46],[-32,-60],[6,-45],[-15,-28],[-33,-25],[-35,-84],[15,-25],[19,-57],[40,-17],[26,-58],[4,-28],[-33,-88],[27,-53],[-9,-23],[-32,-13],[-64,-59],[-19,-8],[-27,-27],[-39,-50],[-48,-10],[-22,-25],[-27,-56],[-7,-25],[-19,-27],[-7,-32],[16,-32],[-8,-26],[-22,-26]],[[3452,8904],[-218,318],[-48,72],[-104,147],[-64,84]],[[3018,9525],[-92,132],[-14,33],[-94,294],[-27,98]],[[2791,10082],[38,-6],[26,-28],[12,2],[39,33],[9,32],[23,24],[40,8],[19,-7],[12,56],[37,27],[7,28],[23,13],[25,32],[31,20],[1,63],[-27,39],[40,34],[21,-11],[40,10],[-2,23],[34,-16],[37,23],[36,41],[41,-12],[15,15],[34,-26],[47,28],[38,97],[10,58],[35,18],[3,31],[30,8],[41,-29],[31,-31],[26,7],[-5,39],[-40,53],[-57,161],[-6,28],[59,38],[44,-66],[25,-101],[53,-119],[54,-91],[33,-42],[48,-52],[64,-51],[70,-64],[37,-52],[195,-187],[181,-132],[69,-67],[256,-200],[163,-119],[49,-30],[67,-24],[137,102],[49,24],[58,1],[79,-48],[15,-15],[63,-39],[52,-22],[82,-51],[86,-72],[50,-17],[54,-39],[35,-40],[11,-24],[31,-114],[6,-104],[-2,-84],[-8,-75],[1,-55],[25,-58],[29,-33],[76,-111],[88,-103]],[[3895,6499],[7,-28],[42,-59],[32,-23],[35,-12],[30,-54],[-1,-62],[-27,-39],[-7,-20],[17,-49],[-1,-35],[14,-47],[0,-43],[-18,-32],[-8,-50],[-8,-16],[-3,-44],[-10,-48],[29,-85],[4,-40],[-29,-75],[8,-42],[17,-34],[37,-47],[33,-22],[17,-28],[-13,-53],[-7,-111],[-9,-19],[-79,-23],[-31,-38],[-30,-23],[-43,0],[-31,-25],[-48,8],[-70,-8],[-20,-10]],[[3724,5163],[-129,16],[-35,-4],[-105,1],[-22,7],[-86,-11],[-47,1],[-16,-12],[-29,-39],[-30,-5],[-68,33],[-66,-27],[-134,0],[-32,7],[-31,-3],[-36,-39],[-27,-72],[-19,-38],[-59,-67],[-8,-40],[-19,-45],[13,-66],[-7,-25],[-24,-18],[-55,-14],[-41,-20],[-59,0],[-12,-9],[-61,4],[-10,-6],[-142,5],[-8,23],[-83,-61],[-105,-92],[-25,-28],[-92,-148],[-28,-30],[-114,-81],[-56,-11],[-16,-12],[-47,-98],[-5,-80],[-14,-33],[-30,-93],[-32,-60],[-4,-74],[-10,-19],[-133,-3],[-35,-22],[-56,-95],[-19,-42],[-12,-66]],[[1404,3552],[-494,526],[-41,39],[-145,154],[-45,50],[-158,161],[-232,245],[-204,211],[-85,89],[139,150],[67,66],[321,337],[7,4],[227,234],[519,538],[43,43],[165,173],[557,574]],[[3724,5163],[22,-15],[92,-136],[31,-11],[62,19],[40,-15],[30,-43],[14,-62]],[[2630,2188],[-163,189],[-246,276],[-148,172],[-134,150],[-221,243],[-314,334]],[[3018,9525],[-31,-18],[-20,-34],[-4,-72],[-33,-22],[-45,9],[-18,-14],[-6,-24],[-64,-51],[-9,-16],[-59,-23],[-35,-42],[-56,-17],[-44,1],[-40,-33],[-7,-63],[-20,-15],[-2,-64],[-21,-26],[11,-36],[41,11],[70,-21],[50,-48],[-54,-53],[-31,-42],[-40,-25],[-38,-16],[-67,-44],[-38,0],[-59,-20],[-36,-1],[-44,8],[-46,-10],[-28,8],[-86,7],[-48,19],[-80,-3],[-21,-23],[-44,-19],[-67,2],[-50,30],[-50,21],[-16,20],[-13,36],[6,31],[-34,77],[-22,-10],[-18,-31],[-29,-5],[-26,7],[-23,-22],[-1,-45],[-32,-10],[-32,28],[-23,-24],[-55,-15],[-10,-54],[18,-50],[-4,-19],[-58,-73],[-16,-29],[-34,-28],[-8,-27],[-17,-17],[6,-30]],[[1308,8456],[-16,14],[-359,319],[-112,99],[-66,63],[177,145],[538,448],[105,84],[229,190],[95,81],[372,303],[21,-13],[32,2],[31,-13],[31,26],[26,11],[62,-18],[5,-34],[69,-20],[16,8],[33,-21],[39,1],[14,-18],[29,-3],[36,-18],[42,-2],[34,-8]],[[2385,7496],[-287,262],[-205,178],[-219,193],[-160,144],[-44,44],[-162,139]],[[6039,8631],[62,-58],[61,-43],[139,-110],[23,-6],[71,-51]],[[5885,6411],[-49,43],[-264,179],[-256,219],[-21,16],[-114,73],[-310,195],[-68,44],[-33,29],[-20,27],[-213,380],[-37,51],[-114,125]]],"transform":{"scale":[0.00005713621297979144,0.0000416341662880505],"translate":[-90.459133,37.669628]},"objects":{"Geometry\\29-186":{"type":"GeometryCollection","geometries":[{"arcs":[[0,1,2,3]],"type":"Polygon","properties":{"GEOID":"291869602001"}},{"arcs":[[4,5,6,7]],"type":"Polygon","properties":{"GEOID":"291869604001"}},{"arcs":[[8,9,10,11,12]],"type":"Polygon","properties":{"GEOID":"291869602003"}},{"arcs":[[13,14,15,-6]],"type":"Polygon","properties":{"GEOID":"291869604002"}},{"arcs":[[16,17,18,-12,19,20,21,22,-14,-5]],"type":"Polygon","properties":{"GEOID":"291869603001"}},{"arcs":[[-23,23,-15]],"type":"Polygon","properties":{"GEOID":"291869604003"}},{"arcs":[[-3,24,-9,25]],"type":"Polygon","properties":{"GEOID":"291869602002"}},{"arcs":[[-25,-2,26,-21,27,-10]],"type":"Polygon","properties":{"GEOID":"291869602004"}},{"arcs":[[-28,-20,-11]],"type":"Polygon","properties":{"GEOID":"291869602005"}},{"arcs":[[28,29,30,31,32]],"type":"Polygon","properties":{"GEOID":"291869601014"}},{"arcs":[[33,-30,34,35,36]],"type":"Polygon","properties":{"GEOID":"291869601013"}},{"arcs":[[-32,37,38,39]],"type":"Polygon","properties":{"GEOID":"291869601022"}},{"arcs":[[40,-17,-8,41,-39]],"type":"Polygon","properties":{"GEOID":"291869601021"}},{"arcs":[[-36,42,43]],"type":"Polygon","properties":{"GEOID":"291869601011"}},{"arcs":[[-35,-29,44,-43]],"type":"Polygon","properties":{"GEOID":"291869601012"}},{"arcs":[[-34,45,-4,-26,-13,-19,46]],"type":"Polygon","properties":{"GEOID":"291869603002"}},{"arcs":[[-31,-47,-18,-41,-38]],"type":"Polygon","properties":{"GEOID":"291869603003"}}]}}}