{"type":"Topology","arcs":[[[7988,10395],[106,-4],[404,-9],[389,-16],[294,-14],[63,-4],[353,-15],[164,2],[197,-1],[186,-7],[170,-8],[294,-7],[184,-7],[183,-9],[158,-6],[102,-5],[190,-8],[85,-3],[187,-11],[44,0],[129,-9],[97,-12],[190,-14],[1,-72],[-6,-133],[-13,-370],[-2,-26],[-1,-97],[-5,-98],[106,-4],[-17,-452],[-6,-135],[-12,-214],[-2,-20],[-7,-168],[3,-32],[-6,-39],[-3,-64],[-11,-306],[-8,-185],[-3,-34],[-2,-97],[-10,-273]],[[12153,7409],[-40,4],[-27,-2],[-183,9],[-128,7],[-175,6],[-131,8],[-68,2],[-227,11],[0,-106],[-2,-64],[-4,-232],[-83,3],[-48,5],[-138,4],[0,-54],[-5,-118],[-3,-44],[-189,9],[-48,4],[-97,7],[-15,8],[-7,16],[5,144],[-7,83],[10,242],[3,108],[-7,9],[-29,3],[-153,6],[-120,7],[-13,8],[-28,-3],[-6,-7],[-2,-56],[-11,-42]],[[10177,7394],[-18,-6],[-15,-32],[-17,-4],[-26,8],[-9,9],[-10,29],[-12,5],[-44,-56],[-17,-4],[-29,28],[-24,14],[6,34],[23,16],[27,-9],[13,22],[-7,20],[-34,19],[-19,41],[-36,-20],[-10,5],[-10,24],[4,32],[-30,-15],[-5,45],[-6,19],[10,34],[-16,17],[-30,-10],[-4,12],[21,58],[-2,17],[-14,18],[16,26],[-25,11],[-31,-2],[-21,22],[-5,32],[6,36],[-39,50],[-2,16],[15,20],[-2,43],[-21,32],[-3,26],[9,32],[3,36],[18,18],[-30,45],[-15,-4],[-24,19],[-8,19],[-84,-55],[-21,-11],[-20,-18],[-42,-46],[-37,-64],[-32,-37],[-43,-64],[-16,-42],[-20,-42],[-17,-27],[-18,-43],[-32,-62],[-5,-25],[3,-24],[-6,-38],[-1,-47],[-5,-43],[1,-49],[-8,-48],[-7,-24],[-13,-64],[-4,-64],[-17,-52],[-32,-57],[-47,-46],[-61,-24],[-128,-33],[-49,-19],[-19,-1],[-89,-36],[-67,-17],[-39,-7],[-44,-19],[-87,-15],[-41,-16],[-54,-14],[-35,-29]],[[8442,6919],[-43,-14],[-49,-9],[-151,-48],[-70,-42],[-21,-30],[-29,-32],[-32,-7],[-47,4]],[[8000,6741],[5,200],[10,28],[-8,23],[5,209],[-15,18],[8,191],[52,-4],[101,-3],[25,22],[5,102],[6,152],[15,320],[12,313],[4,86],[-74,3],[-282,14],[-7,10],[12,225],[5,193],[3,70],[97,-4],[7,166],[14,398],[0,115],[-8,7],[-24,1],[-5,14],[10,350],[6,149],[9,286]],[[2242,9849],[-6,-102],[-138,8],[-6,-144],[0,-96],[-4,-101],[1,-71],[-7,-22],[-6,-139],[-9,-233],[-10,-255],[-15,-367],[-8,-196]],[[2034,8131],[-153,11],[-27,4],[-38,14],[-44,30],[-153,150],[-96,93],[-115,105],[-51,30],[-40,11],[-150,1],[-117,-3],[-88,1],[-307,15],[-211,11],[-100,4],[-97,6]],[[247,8614],[11,40],[38,1018],[2,121],[5,124],[6,14],[60,4],[268,-13],[359,-15],[114,-8],[152,-7],[186,-10],[127,-5],[222,-10],[445,-18]],[[2242,9849],[176,-6],[123,-8],[471,-18],[37,5],[148,-9],[96,-9],[104,-4],[184,-10],[279,-7],[429,-30],[69,-3],[63,-5],[354,-16],[113,-2],[122,-6],[363,-21]],[[5373,9700],[-1,-4],[-11,-264],[-30,-753],[28,-31],[16,-61],[-11,-21],[11,-41],[32,-46],[5,-20],[-9,-202],[-8,-177],[-20,-464],[-11,-244]],[[5364,7372],[-125,3],[-58,4],[-6,-5],[-4,-95],[-7,-200],[-9,-9],[-34,-1],[-18,-6],[-19,5],[-111,9],[-77,5],[-49,-5],[-67,16],[-50,0],[-10,-7],[-80,14],[-12,9],[4,77],[-7,13],[-121,7],[-54,0],[-6,-135],[-7,-15]],[[4437,7056],[-228,234],[-44,38],[-20,12],[-213,114],[-184,101],[-184,99],[-54,39],[-333,330],[-26,23],[-31,16],[-26,5],[-200,9],[-75,4],[-197,14],[-496,29],[-92,8]],[[5373,9700],[8,2],[158,-8],[18,-3],[79,-1],[23,589],[8,214],[875,-49],[402,-16],[131,-1],[180,-9],[37,0],[107,-5],[142,-2],[27,-7],[58,-1],[111,0],[62,-4],[97,-3],[92,-1]],[[8000,6741],[-55,19],[-32,3],[-32,13],[-142,39],[-39,19],[-21,3],[-91,22],[-36,18],[-26,17],[-42,6],[-33,229],[-4,43],[1,72],[-68,5],[-181,10],[-172,12],[-183,11],[-195,11],[-143,10],[-254,16],[-65,6]],[[6187,7325],[-223,14],[-44,4],[-283,19],[-149,2],[-76,7],[-48,1]],[[10337,4687],[263,-15],[-17,-258],[0,-19],[9,-22],[17,-11],[202,-11],[78,-6]],[[10889,4345],[127,-3],[-2,-50],[14,-3],[-5,-51],[-4,-98],[18,-2],[75,-56],[25,0],[10,15],[7,127],[13,108],[144,-9],[144,-6],[27,4],[14,297],[3,98],[13,265],[-7,37]],[[11505,5018],[248,-15],[214,-10],[85,-5]],[[12052,4988],[-14,-300],[-15,-280],[-10,-212],[2,-33],[-34,-771]],[[11981,3392],[-89,2],[-180,8],[-6,7],[5,104],[-101,15],[-68,9],[-9,-25],[-84,4],[-5,5],[4,96],[-261,13],[-6,-4],[-5,-89],[-4,-7],[-85,5],[-178,9],[-5,-100],[-252,17],[-120,4],[-50,12],[-23,-2],[-24,-25],[-13,-33],[-30,-16],[-104,4],[-13,5],[-51,54],[-22,17],[-20,3],[-166,11],[-117,5],[-69,6]],[[9830,3506],[-19,29],[4,15],[-8,19],[24,20],[14,19],[17,-11],[11,9],[-8,22],[-15,-5],[5,31],[16,18],[-10,30],[8,13],[-5,25],[-14,29],[6,11],[26,10],[18,17],[39,-5],[41,22],[46,43],[1,14],[-23,6],[-25,-24],[-17,7],[-5,23],[15,12],[-1,26],[18,16],[6,30],[17,5],[15,-12],[21,19],[1,25],[-6,15],[-17,8],[-61,-32],[-12,14],[4,17],[-10,39],[18,18],[43,-7],[16,1],[8,13],[-11,30],[13,41],[24,44],[2,18],[24,78],[33,18],[-11,29],[-12,14],[-18,7],[-17,-7],[-17,-37],[-41,-31],[-15,13],[12,12],[-5,47],[-27,10],[-17,31],[-19,5],[-15,-6],[-16,9],[-23,26],[-12,32],[-20,28],[-2,23],[15,10],[42,5],[27,8],[28,-10],[15,2],[30,49],[17,34],[25,8],[22,-5],[22,18],[8,49],[182,-12],[62,-3]],[[10404,6194],[11,23],[2,26],[22,14],[42,-1],[54,12],[53,-2],[21,-4],[75,-5],[-1,-40],[25,-27],[57,-37],[145,-8],[5,-7],[34,5],[158,-8],[163,-9],[190,-9],[231,-13],[11,-28],[50,-25],[5,-16],[-18,-14],[-6,-19],[10,-28],[-31,-17],[-16,-16],[-28,-4],[-3,-13],[-22,-20],[-4,-30],[-20,-30],[-7,-25],[-150,8]],[[11462,5827],[-212,13],[-75,6],[-2,-34],[-7,-6],[-145,9],[-1,-23],[-35,-1],[-11,-23],[-43,3]],[[10931,5771],[-24,-1],[0,-23],[-98,7],[-32,12],[-21,25],[-39,9],[-82,34],[-32,9],[-271,68]],[[10332,5911],[15,18],[19,49],[-11,23],[-36,8],[-13,13],[3,25],[-25,21],[-23,-8],[-14,5],[9,26],[22,22],[33,0],[3,26],[-26,23],[-16,25],[10,21],[20,3],[32,-23],[12,-22],[21,-22],[3,-26],[13,-9],[22,-2],[15,34],[2,36],[-18,17]],[[6187,7325],[-11,-6],[7,-24],[12,-6],[-4,-33],[11,-9],[19,-50],[26,-37],[-8,-42],[36,-7],[-12,-13],[16,-25],[18,3],[14,-47],[18,-32],[-8,-12],[-88,-17],[-70,-7],[-71,-12],[-35,0],[-50,-11],[-16,2],[-48,-17],[5,-22],[20,9],[18,-9],[25,5],[16,-18],[0,-18],[-9,-22],[6,-8],[22,7],[6,-23],[-8,-28],[14,-27],[25,12],[2,17],[-10,15],[84,-22],[1,-2],[-8,-251],[-8,-149],[-10,-301],[20,-13],[33,-1],[19,-39],[2,-18],[14,-7],[1,-16],[19,-26],[21,-4],[22,-14],[6,-19],[14,-7],[-9,-17],[13,-43],[19,-30],[13,-9],[-2,-15],[17,-19],[-15,-11],[-23,5],[-38,-3],[-16,-11],[-14,8],[-8,-23],[-39,-22],[-35,-1],[-16,-16],[-15,-6],[-17,-22],[183,-12],[-2,-20],[-7,-236]],[[6294,5421],[-3,-80],[-3,-160],[-3,-58],[-7,-240],[-7,0],[-8,-144],[-7,-91],[-23,-9],[17,-37],[-29,-50],[-1,-46],[-16,-52],[-25,0],[14,-65],[-7,-13],[-18,16],[-11,-26],[-42,-10],[3,-23],[-6,-22],[-15,-26],[-37,-15],[-33,3],[-14,-24],[15,-30],[-8,-26],[18,-26],[20,-3],[24,8],[56,-1],[10,-9],[-10,-285],[15,-8],[116,-6],[5,-4],[-1,-40],[-45,-32],[-6,-122]],[[6222,3665],[-10,-296],[-26,-9],[-72,8],[-84,3],[0,42],[-9,7],[-128,4],[-36,-50],[-40,-48],[-75,-67],[-37,-10],[-25,-21],[-22,-39],[-14,-6],[-33,2],[-19,-7],[-7,-16],[-2,-41],[-9,-20],[-15,-11],[-41,-6],[-24,-32],[-12,-2],[8,222],[-12,15],[-6,22],[12,43],[-12,13],[-24,-2],[-2,25],[-28,3],[-18,-15],[-20,6],[-10,-21],[-15,-9],[-25,7],[-14,-14],[6,-19],[-16,-13],[-5,-22],[-23,-3],[-37,-31],[-20,-36],[-15,4],[-27,22],[-16,-1],[-20,-16],[-32,50],[-20,4],[-28,-21],[-52,30],[-22,9],[-26,40],[-15,4],[-26,-8],[-25,34],[-3,31],[-9,10],[-24,3],[-61,-5],[-31,-15],[-34,-2],[-10,-11],[-29,5],[-18,-16],[-24,-34],[-18,-17],[-242,15],[-97,7],[-61,0],[-10,4],[-212,8]],[[4014,3355],[10,306],[8,207],[21,688],[13,8],[79,-3],[5,181],[5,113],[4,22],[29,103],[13,25],[3,31],[20,48],[-7,46],[-8,17],[14,13],[4,46],[24,42],[24,18],[-1,49],[-13,6],[5,22],[-12,8],[-1,32],[-7,24],[15,40],[-26,46],[-7,28],[26,35],[33,6],[32,43],[4,13],[-5,26],[-12,24],[-33,29],[-12,46],[13,46],[-171,7],[-381,21],[-51,2],[4,167],[5,35],[-1,59],[8,148],[8,193],[-5,7],[-86,5]],[[3604,6433],[-3,94],[-32,37],[6,56],[-6,47],[8,151],[6,15],[28,4],[176,-9],[117,-3],[91,-7],[189,-9],[196,-6],[56,-4],[7,214],[-6,43]],[[6294,5421],[25,-9],[81,-40],[16,-10],[50,-22],[53,-17],[31,-1],[59,10],[40,15],[56,26],[92,51],[92,48]],[[6889,5472],[48,20],[45,-4],[39,2]],[[7021,5490],[-2,-52]],[[7019,5438],[-6,-137],[-11,-307],[-4,-63],[20,6],[122,-8],[45,0],[139,-10],[312,-16]],[[7636,4903],[10,-56],[-12,-143],[-9,-185],[-8,-52],[-4,-96],[-12,-366],[-15,-406]],[[7586,3599],[-5,-84],[-1,-90],[-17,-2],[-27,-13],[-30,1],[-36,-13],[-25,-1],[-17,-9],[-26,6],[-20,-8],[-21,17],[-29,7],[-42,43],[-21,2],[-9,13],[-26,3],[-18,25],[-21,3],[-9,18],[-23,4],[-14,26],[-19,-5],[-24,31],[0,25],[-29,29],[-46,0],[-82,6],[-1,-40]],[[6948,3593],[-84,4],[-9,-28],[-8,-4],[-114,0],[-56,4],[-3,8],[2,61],[-6,8],[-78,4],[-269,12],[-101,3]],[[7636,4903],[197,-11],[176,-8],[91,-5],[7,-6],[-3,-92],[18,5],[44,59],[-5,14],[23,50],[15,19],[14,29],[7,41],[13,9],[37,4],[58,36],[19,2],[22,28],[3,89]],[[8372,5166],[50,-2],[90,-23],[39,5],[7,176],[8,233],[-171,8],[-173,9],[4,96]],[[8226,5668],[101,-1],[38,3],[35,8],[128,37],[135,41],[36,8],[144,25]],[[8843,5789],[-12,-15],[3,-20],[20,-25],[16,-67],[7,-13],[1,-37],[31,-26],[6,-16],[4,-39],[48,-12],[4,-30],[9,-20],[-14,-48],[16,-3],[12,-62],[24,-18],[5,-26],[-12,-47],[-23,-4],[-8,-21],[9,-13],[-30,-20],[-13,-64],[-111,5],[-15,-390],[9,-9],[54,-1],[10,-9],[-8,-190],[0,-88],[-7,-107],[-17,-14],[-150,6],[22,-26],[2,-29],[8,-23],[20,-28],[-10,-12],[16,-15],[-3,-33],[58,-22],[-10,-25],[37,-4],[-11,-40],[16,-9],[10,-19],[-1,-88],[-3,-23],[8,-20],[17,-11],[-20,-33],[6,-27],[18,-6],[-1,-25],[-18,-17],[-3,-33],[-24,-16],[-3,-20]],[[8842,3742],[-78,4],[-8,-193],[-9,-5],[-48,1],[-211,12]],[[8488,3561],[-80,3],[-184,5],[-358,15],[-167,8],[-113,7]],[[8000,6741],[-2,-126],[-6,-191],[-10,-238],[-45,2],[-7,-9],[-3,-58],[-4,-17],[-36,-35],[-3,-66]],[[7884,6003],[-262,20],[-48,3],[-107,2],[-168,0],[-159,9]],[[7140,6037],[-97,5],[-1,-89],[-4,-28],[-19,-27],[-15,-47]],[[7004,5851],[-14,-52],[-23,-29],[-20,9],[-17,-39],[7,-18],[-2,-71],[10,-23],[-20,-9],[-30,-100],[-6,-47]],[[7753,5676],[2,49],[23,-4],[23,11],[5,182]],[[7806,5914],[75,21],[3,68]],[[7884,6003],[101,-8],[179,-11],[73,-3],[-5,-125],[-6,-188]],[[8226,5668],[-175,4],[-3,-91],[-109,7],[-83,3],[-42,21],[-46,7],[-17,-2]],[[7751,5617],[2,59]],[[10277,5089],[20,3],[166,35],[35,4],[126,-9]],[[10624,5122],[-4,-54],[-2,-82],[88,-10],[37,-15],[23,-22],[20,-34],[7,-37],[52,-2],[-1,-23],[102,-5],[-13,-316],[-36,2],[-8,-179]],[[10337,4687],[3,99],[-81,3],[4,96],[6,3],[64,-4],[-7,46],[-18,30],[-2,20],[-15,40],[5,39],[-20,21],[1,9]],[[10624,5122],[5,64]],[[10629,5186],[178,-12],[0,-16],[91,-3],[94,-2],[5,133],[18,0],[-7,39],[75,-19],[2,35],[125,-8],[2,48],[60,-2],[17,94],[26,-5],[-15,-90],[54,-4],[-18,-344],[138,-6],[29,-3]],[[11503,5021],[2,-3]],[[2489,4456],[57,-3],[-2,-53],[187,-13],[86,-6],[34,-19],[1,-32],[70,-3],[34,-19],[-4,-88]],[[2952,4220],[-174,13],[3,71],[-171,11],[-1,-18],[-49,3],[-2,-52],[-136,6]],[[2422,4254],[-26,1],[10,20],[34,-7],[19,24],[-5,21],[-15,20],[22,51],[14,18],[-8,11],[18,24],[4,19]],[[7004,5851],[33,-33],[84,-32],[273,-12],[0,13],[91,-4]],[[7485,5783],[-1,-14],[88,-14],[-3,-77]],[[7569,5678],[-140,2],[-38,2]],[[7391,5682],[-49,-1],[-50,-26],[-82,-64],[-61,-24],[-47,-26],[-45,-36],[-36,-15]],[[31,3643],[176,-8],[5,-5],[-3,-91],[6,-5],[152,-8],[114,-3],[146,-8],[435,-12],[58,3],[474,-26],[250,-11]],[[1844,3469],[200,-10],[218,-13],[158,-7],[9,-10],[21,6],[53,1],[24,7],[9,-10],[33,-1],[174,-15],[153,-12],[95,-5]],[[2991,3400],[31,-63],[7,-20],[11,-72],[29,-67],[25,-92],[-4,-94],[150,-5],[36,-3],[-18,-446],[133,-6],[19,4],[39,24],[14,-9],[-8,-250],[-6,-226],[-7,-222],[-8,-284],[-1,-61],[-8,-272],[-7,-230],[-6,-181],[-2,-86],[-13,-358],[-4,-142]],[[3393,239],[-85,3],[-93,0],[-212,8],[-522,20],[-236,6],[-135,2],[-312,13],[-183,4],[-200,8],[-164,4],[-54,5],[-209,5],[-200,6],[-251,6],[-310,14],[-40,1],[6,250],[3,82],[6,264],[6,3],[11,598],[9,353],[3,150],[7,231],[11,455],[-249,9],[16,417],[5,200],[10,287]],[[142,5985],[386,-11],[123,-8],[109,-4],[5,151],[65,-4],[24,15],[31,31],[45,2],[134,-5],[28,3],[70,-7],[60,-1],[95,-6],[-6,-135],[-2,-68],[-7,-140],[182,-11],[1,26],[160,-12],[16,1],[9,16],[211,-13],[54,-5],[-5,-126],[-6,-31],[10,-35],[-9,-33],[-6,-164],[-7,-9],[-76,5],[-6,-8],[-12,-287],[-4,-17],[-7,-180],[50,-19],[21,-15],[16,-32],[1,-43],[-7,-126],[-26,-719],[-3,-112],[-6,-147],[-9,-233]],[[31,3643],[7,186],[5,174],[16,463],[11,274],[7,191],[6,238],[13,16],[6,193],[24,166],[7,230],[9,211]],[[154,6796],[196,-9],[78,-3],[1,27],[11,20],[16,5],[130,-5],[7,-4],[17,-37],[13,-12],[238,-14],[109,-3],[268,-3],[24,-16],[342,-13],[6,1],[22,502]],[[1632,7232],[36,-1],[237,-13],[449,-17],[-22,-507],[276,-17],[-8,-202],[144,-8],[296,-19],[141,-4],[286,-3],[106,-4],[31,-4]],[[4014,3355],[-80,2],[-179,7],[-257,12],[-167,6],[-39,3],[0,8],[-192,5],[-109,2]],[[142,5985],[4,406],[10,325],[-2,80]],[[2422,4254],[-9,-200],[70,-4],[96,-3],[-4,-91],[71,-4],[119,-8],[-5,-119],[175,-13],[12,297],[5,111]],[[2952,4220],[95,-4],[7,205],[23,20],[3,51],[4,17],[21,13],[171,-8],[-5,23],[-34,36],[-4,47],[30,11],[4,15],[-16,21],[-27,3],[-8,-8],[-15,20],[4,28],[-5,10],[-33,20],[-7,21],[-20,-11],[-4,35],[4,24],[20,9],[-7,44],[-19,3],[0,26],[-26,3],[0,32],[-10,15],[12,35],[-26,-1],[-8,-8],[-8,-33],[-263,11],[-6,-143],[-7,5],[-23,65],[-6,27],[-10,15],[-14,52],[2,32],[-14,11],[-6,26],[19,28],[-1,24],[-12,42],[18,92],[15,22],[-10,11],[-22,-3],[-12,14],[-21,-8],[-18,4],[-33,-26],[-6,-174],[-31,1],[-13,-31],[-16,-24],[-2,-18],[-24,-18],[-15,12],[-16,-15],[0,-36],[-11,-24],[4,-27],[-19,-24],[-8,-20],[-60,-22],[-12,-23],[7,-19],[-9,-34],[13,-29],[-2,-32],[-13,-4],[-9,-19],[10,-16],[-12,-13],[6,-23],[-11,-50],[-35,-34],[-24,-37],[-6,-19],[159,-7]],[[6948,3593],[-18,-557],[-8,-301],[-8,-8],[-77,4],[-8,-8],[-10,-296],[-32,1],[-6,-145],[-8,-428],[-4,-228],[-10,-44],[-3,-33],[14,-33],[35,-60],[4,-31],[-5,-174],[134,-2],[-4,-188],[-4,-112],[3,-70],[-4,-53],[-6,-230],[-4,-246],[-5,-198]],[[6914,153],[-793,14],[-194,6],[-62,1],[-152,4],[-47,1],[-157,5],[-60,0],[-332,8],[-313,7],[-192,6],[-48,1],[-201,6],[-219,5],[-79,3],[-225,5],[-447,14]],[[8842,3742],[244,-11],[182,-6],[15,-4],[14,-15],[27,-100],[23,-67],[22,-17],[235,-5],[178,-6],[48,-5]],[[11981,3392],[-15,-327],[-22,-314],[0,-4],[-10,-235],[-6,-72],[-7,-251],[38,1],[-2,-168],[-5,-131],[-1,-62],[-7,-151],[-6,-202],[-14,-447],[-16,-494],[-9,-331],[-6,-204],[-148,3],[-118,6],[-311,11],[-143,3],[-459,18],[-124,5],[-97,3],[-248,11],[-105,6],[-50,0],[-96,5],[-193,8],[-71,1],[-667,19],[-44,1],[-318,8]],[[8701,108],[-11,7],[-161,4],[-4,8],[10,386],[93,-2],[-3,8],[10,392],[-268,6],[7,260],[4,39],[-42,87],[-4,12],[5,194],[7,8],[38,3],[4,196],[84,-2],[7,8],[4,96],[3,182],[9,299],[1,65],[280,-11],[200,-8],[4,10],[6,129],[4,114],[11,246],[5,174],[-19,25],[-48,20],[-26,18],[-29,4],[-33,-11],[-17,14],[-29,50],[-6,6],[-37,4],[-130,5],[-157,10],[2,77],[11,248],[2,73]],[[8701,108],[-154,5],[-83,2],[-117,5],[-94,1],[-107,2],[-517,17],[-9,-9],[-119,5],[-145,3],[-63,4],[-286,6],[-93,4]],[[7806,5914],[-44,-12],[-57,1],[-64,-3],[-52,6],[-100,3]],[[7489,5909],[-155,7],[-100,7],[-26,14],[-51,81],[-17,19]],[[7489,5909],[-4,-126]],[[7753,5676],[-94,1],[-74,-1],[-16,2]],[[10177,7394],[17,-20],[-2,-27],[-12,-13],[-65,-7],[-15,-7],[-9,-52],[5,-24],[11,-14],[51,-22],[0,-24],[-15,-4],[-22,13],[-17,-12],[-10,-25],[-7,-46],[1,-29],[8,-12],[15,10],[8,-18],[40,-27],[21,-5],[35,17],[20,5],[13,-11],[14,-28],[-14,-21],[-26,-3],[-28,-18],[-2,-19],[28,-8],[17,-13],[-13,-13],[1,-32],[11,-16],[4,-34],[8,-24],[17,10],[17,-20],[-6,-32],[-15,-32],[12,-29],[25,-18],[-11,-22],[1,-17],[29,-21],[6,-14],[-28,-13],[-16,-24],[2,-17],[17,-16],[31,17],[11,-7],[38,-89],[-3,-17],[-21,-4],[-22,-33],[-5,-32],[6,-25],[36,-7],[17,-20],[1,-26],[-6,-8],[-46,-8],[-4,-27],[40,-25],[6,-32],[27,-9]],[[10332,5911],[-9,-12],[-8,-37],[0,-19],[15,-27],[-1,-32],[16,-18],[-8,-30],[-31,4],[-20,-25],[0,-22],[-7,-31],[17,-10],[26,-6],[7,-20],[3,-33],[-13,-28],[18,-53],[34,7],[32,-16],[-4,-28],[-19,-29],[-9,2],[-15,27],[-8,3],[-18,-33],[5,-26],[-1,-36],[-26,-6],[1,-21],[32,-35],[31,-24],[7,-13],[-8,-30],[-35,-47],[-8,-37],[-12,-22],[-13,1],[-44,36],[-23,-15],[-1,-38],[-14,-27],[-1,-14],[57,-2]],[[8843,5789],[-5,27],[-21,9],[0,25],[18,18],[32,43],[3,26],[9,28],[-7,19],[1,59],[4,10],[30,0],[9,26],[-20,24],[14,10],[7,20],[-31,29],[-1,12],[32,19],[-19,17],[-3,18],[29,-1],[3,17],[33,46],[13,6],[17,-7],[8,28],[-12,23],[-100,3],[-3,22],[2,45],[13,334],[-186,8],[-5,-9],[1,-34],[-4,-50],[-11,-7],[-260,10],[5,167],[4,90]],[[12153,7409],[-22,-586],[-4,-105],[-18,-476],[-39,-855],[-4,-105],[-14,-294]],[[11503,5021],[-13,18],[-41,39],[-11,19],[-6,29],[1,41],[13,278],[16,382]],[[2034,8131],[-6,-132],[-2,-72],[-9,-194],[-193,12],[-101,4],[-75,5],[4,-18],[-8,-221],[-12,-283]],[[154,6796],[14,367],[6,47],[-1,49],[2,67],[13,280],[17,12],[20,464],[-1,33],[11,60],[12,439]],[[10629,5186],[13,169],[5,109],[115,-4],[128,-8],[-6,-92],[9,-8],[104,-3],[12,207],[2,77],[-41,14],[-9,17],[-36,8],[6,99]],[[7019,5438],[80,-6],[24,11],[5,81],[9,7],[88,-8],[58,-3],[10,-4],[1,-24],[25,25],[42,19],[23,1]],[[7384,5537],[-2,-60],[46,-2],[0,12],[46,-2],[-3,-55]],[[7471,5430],[-8,-218],[122,-6],[41,-46],[16,-39],[0,-20],[-7,-175],[1,-23]],[[7471,5430],[43,-1],[4,5],[45,-1]],[[7563,5433],[0,-25],[90,-3]],[[7653,5405],[90,-3]],[[7743,5402],[-7,-205],[227,-11],[220,-10],[189,-10]],[[7743,5402],[8,215]],[[7384,5537],[7,145]],[[7569,5678],[-2,-58],[93,-3],[-4,-112]],[[7656,5505],[-90,2],[-3,-74]],[[7653,5405],[3,100]]],"transform":{"scale":[0.00005199378932745028,0.000036376536738778],"translate":[-94.129372,38.55621]},"objects":{"Geometry\\29-101":{"type":"GeometryCollection","geometries":[{"arcs":[[0,1,2,3,4]],"type":"Polygon","properties":{"GEOID":"291019601022"}},{"arcs":[[5,6,7]],"type":"Polygon","properties":{"GEOID":"291019601013"}},{"arcs":[[8,9,10,11,-6]],"type":"Polygon","properties":{"GEOID":"291019601014"}},{"arcs":[[12,-5,13,14,-10]],"type":"Polygon","properties":{"GEOID":"291019601021"}},{"arcs":[[15,16,17,18,19,20]],"type":"Polygon","properties":{"GEOID":"291019607021"}},{"arcs":[[21,22,23,24]],"type":"Polygon","properties":{"GEOID":"291019607022"}},{"arcs":[[-11,-15,25,26,27,28,29]],"type":"Polygon","properties":{"GEOID":"291019603023"}},{"arcs":[[30,31,32,33,34,35,36,-27]],"type":"Polygon","properties":{"GEOID":"291019603021"}},{"arcs":[[37,38,39,40,41,42,-35]],"type":"Polygon","properties":{"GEOID":"291019603022"}},{"arcs":[[-14,43,44,45,46,-31,-26]],"type":"Polygon","properties":{"GEOID":"291019603012"}},{"arcs":[[47,48,49,50,51]],"type":"Polygon","properties":{"GEOID":"291019605021"}},{"arcs":[[52,53,-16,54]],"type":"Polygon","properties":{"GEOID":"291019800001"}},{"arcs":[[55,56,57,-17,-54]],"type":"Polygon","properties":{"GEOID":"291019800002"}},{"arcs":[[58,59,60]],"type":"Polygon","properties":{"GEOID":"291019602004"}},{"arcs":[[61,62,63,64,-32,-47]],"type":"Polygon","properties":{"GEOID":"291019606004"}},{"arcs":[[65,66,67,68]],"type":"Polygon","properties":{"GEOID":"291019609001"}},{"arcs":[[69,-66,70]],"type":"Polygon","properties":{"GEOID":"291019602002"}},{"arcs":[[71,72,-29,73,-67,-70,74],[-61,75,76]],"type":"Polygon","properties":{"GEOID":"291019602001"}},{"arcs":[[-60,-76]],"type":"Polygon","properties":{"GEOID":"291019602005"}},{"arcs":[[-74,-28,-37,77,78,-68]],"type":"Polygon","properties":{"GEOID":"291019609002"}},{"arcs":[[-42,79,-20,80,81]],"type":"Polygon","properties":{"GEOID":"291019609004"}},{"arcs":[[-36,-43,-82,82,-78]],"type":"Polygon","properties":{"GEOID":"291019609003"}},{"arcs":[[-59,-77]],"type":"Polygon","properties":{"GEOID":"291019602003"}},{"arcs":[[-45,-49,83,84]],"type":"Polygon","properties":{"GEOID":"291019606001"}},{"arcs":[[-85,85,-62,-46]],"type":"Polygon","properties":{"GEOID":"291019606002"}},{"arcs":[[-86,-84,-48,86,-63]],"type":"Polygon","properties":{"GEOID":"291019606003"}},{"arcs":[[-3,87,-25,88,-55,-21,-80,-41,89]],"type":"Polygon","properties":{"GEOID":"291019603013"}},{"arcs":[[-4,-90,-40,-50,-44]],"type":"Polygon","properties":{"GEOID":"291019603011"}},{"arcs":[[-2,90,-18,-58,91,-22,-88]],"type":"Polygon","properties":{"GEOID":"291019607023"}},{"arcs":[[-7,92,-72,93]],"type":"Polygon","properties":{"GEOID":"291019601012"}},{"arcs":[[-12,-30,-73,-93]],"type":"Polygon","properties":{"GEOID":"291019601011"}},{"arcs":[[-23,-92,-57,94]],"type":"Polygon","properties":{"GEOID":"291019607011"}},{"arcs":[[95,96,97,-34]],"type":"Polygon","properties":{"GEOID":"291019604021"}},{"arcs":[[98,99,100,101,-38,-98]],"type":"Polygon","properties":{"GEOID":"291019605012"}},{"arcs":[[-24,-95,-56,-53,-89]],"type":"Polygon","properties":{"GEOID":"291019607012"}},{"arcs":[[102,-51,-39,-102]],"type":"Polygon","properties":{"GEOID":"291019605022"}},{"arcs":[[103,-64,104,105,-99,-97]],"type":"Polygon","properties":{"GEOID":"291019604012"}},{"arcs":[[-65,-104,-96,-33]],"type":"Polygon","properties":{"GEOID":"291019604022"}},{"arcs":[[-87,-52,-103,-101,106,-105]],"type":"Polygon","properties":{"GEOID":"291019605011"}},{"arcs":[[-106,-107,-100]],"type":"Polygon","properties":{"GEOID":"291019604011"}}]}}}