{"type":"Topology","arcs":[[[53,3062],[13,25],[38,50],[29,22],[-21,-77],[11,-73],[100,-3],[26,3],[26,-13],[21,-46],[-1,-92],[35,-37],[47,-8],[26,6],[457,-10],[161,-2],[13,-5],[87,-4],[74,7],[81,0],[-1,-86],[23,-43],[-24,-94],[-4,-86],[-6,-15],[7,-38],[63,-6],[21,-32],[-1,96],[3,89],[44,111],[22,-5],[56,-37],[29,-38],[25,-56],[41,-28],[20,-33],[6,-37],[37,-64],[19,-1],[46,-30],[40,-43],[25,-52],[23,-16],[67,-10],[11,14],[122,54],[50,7],[31,-43],[45,-39],[91,-1]],[[2207,2243],[37,-1],[3,-368],[-46,1],[-33,-63],[7,-73],[37,-76],[23,-58],[-5,-61],[-21,-44],[-79,-96],[-18,-76],[-2,-49],[9,-27],[50,-8],[44,16],[124,65],[45,-1],[31,-15],[21,-37],[36,-104],[26,-30],[93,-13],[59,-13],[62,-27],[34,-35],[1,-33],[-15,-49],[-73,-164],[-11,-40],[-4,-66],[-13,-53],[-18,-26],[-7,-45],[9,-45],[14,-30],[25,-20],[62,-24],[51,-28],[30,-37],[18,-36],[18,-54],[12,-70],[5,-62],[-8,-56],[-14,-37],[-28,-53]],[[2798,22],[-361,1],[-627,-4],[-657,-2],[-330,-2],[-348,0],[-475,-1],[4,249],[5,186],[3,195],[1,240],[3,111],[3,183],[4,89],[8,435],[0,125],[3,86],[5,362],[12,551],[2,236]],[[3938,5638],[18,5],[70,-9],[86,7],[42,-7],[68,-5],[28,5],[98,37]],[[4348,5671],[41,-109],[65,-345],[11,-36],[68,-173],[118,-347],[10,-21],[133,-236],[36,-25],[241,-93],[62,-15],[94,-3],[51,-27],[56,-65],[12,-38],[2,-48],[1,-226],[5,-41],[12,-28],[75,-107],[23,-27],[81,-36],[22,-19],[130,-167],[32,-20],[99,-30],[28,-19],[80,-110],[67,-117]],[[6003,3143],[33,-64],[5,-31],[2,-233],[13,-47],[43,-57],[21,-40],[17,-57],[-28,-5],[-36,-25],[-30,-11],[-83,16],[-28,-14],[-16,-28],[-30,-1],[-43,39],[-46,25],[-165,49],[-94,19],[-20,-14],[-49,-121],[-13,-98],[-44,-168],[-19,-120],[7,-75],[24,-48],[52,-58],[9,-46],[-31,-94],[39,-34],[21,-36],[23,-15],[61,6],[35,-28],[16,14],[74,92],[63,47],[35,39],[66,39],[23,21],[11,37],[38,42],[46,0],[40,19],[41,1],[52,-35],[48,-46],[7,74],[-22,56],[-21,22],[-17,40],[-8,64],[-17,57],[-3,50],[30,58],[4,68],[19,-41],[23,16],[18,-4],[15,-27],[4,-30],[49,-32],[109,-4],[35,21],[24,-2],[42,-30],[44,-51],[2,-47],[24,-77],[90,-2]],[[6637,2178],[5,-27],[-30,-44],[-26,-20],[-5,-86],[15,-21],[29,-66],[31,-85],[29,-49],[-13,-21],[-4,-63],[-17,-75],[-21,-59],[-35,-36],[-52,-29],[-29,-28],[-21,-41],[-40,-22],[44,-29],[39,-13],[17,-43],[9,-51],[15,-21],[20,-48],[4,-49],[-38,-6],[9,-62],[9,-14],[98,-42],[24,-45],[10,-67],[-11,-120],[-12,-39],[-16,-20],[-52,-14],[-61,-63],[-15,-50],[-47,-69],[-41,-75],[-24,-32],[-14,-43],[-13,-12],[-48,-75],[-43,-41],[-27,-38],[-36,-63],[-55,-81],[-47,-24],[-18,-24],[-35,-7]],[[6098,26],[-138,4],[-271,5],[-307,2],[-399,-3],[-172,0],[-104,2],[-70,-2],[-630,-5],[-172,-3]],[[3835,26],[1,29],[39,24],[32,27],[17,30],[6,92],[19,53],[56,122],[6,63],[-43,2],[-46,-25],[-31,17],[-37,37],[16,117],[15,21],[32,7],[24,37],[1,44],[-12,43],[3,33],[-7,49],[-33,42],[37,14],[42,57],[6,14],[10,96],[28,34],[63,-4],[33,36],[2,85],[46,110],[-3,31],[-16,45],[18,83],[37,68],[16,22],[-5,22],[-43,38],[-12,23],[66,44],[34,28],[24,51],[8,85],[20,46],[15,52],[-2,30],[-22,46],[1,94],[-37,40],[-26,9],[-46,-2],[-34,5],[-39,18],[-44,11],[-66,0],[-51,15],[-45,1],[-103,-11],[-151,18],[-19,11],[-25,62],[-25,35],[-66,69],[-16,52],[11,56],[-24,38],[-29,2],[-34,-17],[-13,53],[-33,72],[-22,62],[13,32],[1,27],[-24,77],[16,48],[-7,136],[-18,77],[-24,64],[-7,102],[7,46],[23,72],[59,-5],[17,-35],[72,6],[70,-11],[15,11],[-3,48],[4,70],[29,-4],[52,136],[47,98],[33,82],[18,15],[32,3],[52,-26],[9,38],[-33,40],[-28,18],[-37,9],[-14,146],[-15,45],[-56,27],[-22,36],[2,23],[-19,25],[-42,32],[-2,73],[-21,73],[3,25],[21,58],[5,32],[27,70],[59,21],[42,24],[26,40],[28,57],[65,70],[15,44],[-12,26],[2,61],[1,164],[4,231],[19,57],[35,31],[13,27],[1,57],[17,43],[2,92],[7,15]],[[3423,7663],[33,-62],[215,-338],[166,-208],[19,-27],[12,-35],[12,-225],[15,-49],[184,-300],[17,-38],[170,-505],[82,-205]],[[3938,5638],[-24,37],[-34,71],[-41,33],[-138,1],[-96,3],[-181,2],[-52,-63],[-41,-27],[-8,-37],[-18,-9],[1,-34],[-54,-50],[-20,-58],[-29,-26],[-7,-20],[-3,-87],[30,-68],[25,-32],[-1,-14],[-43,-42],[-43,-11],[-29,-20],[-8,-22],[-73,-41],[-111,-36],[2,137],[-9,22],[-82,-3],[-54,-27],[-28,-20],[-31,-57],[-38,-15],[-20,82],[-27,44],[-105,1],[-56,18],[-23,-4],[-25,-25],[-13,-36],[-16,-3],[-52,54],[-36,26],[-30,6],[-37,37],[-28,-15],[-42,-8],[-23,21],[-37,-21],[-82,4],[-26,-12],[-10,-23],[-2,-52],[-11,-32],[-41,-12],[-87,53],[-39,2],[-22,-8],[-130,-97],[-64,-26],[-62,-40],[-20,-35],[17,-29],[71,-38],[9,-10],[47,-105],[30,-12],[12,-19],[5,-70],[39,-124],[4,-26],[-5,-54],[-20,-45],[-2,-22],[23,-25],[153,-3],[23,-20],[4,-77],[6,-13],[54,-77],[4,-178],[23,-53],[22,-68],[46,-59],[29,-18],[70,-22],[68,-50],[15,-102],[0,-44],[10,-45],[16,-40],[-1,-42],[53,-6],[72,-30],[96,-17],[56,-3],[97,-107],[30,-26],[10,-39],[-15,-85],[21,-31],[-12,-46],[-20,-3],[-19,-76],[-2,-57],[-46,-51],[-66,-25],[-1,-22],[16,-56],[0,-52],[-11,-43],[-24,-51],[13,-40],[-44,-41],[-53,-23],[-34,-36],[-3,-86],[15,-56],[45,-49],[19,-7],[13,-23],[-9,-36],[-18,-22],[-38,-8],[-32,2],[-47,27],[-97,4],[-27,-20],[-37,-51]],[[53,3062],[11,499],[6,358],[13,738],[-1,133],[12,346],[-2,162],[3,139],[9,673],[6,363],[8,370],[5,372],[12,526],[26,-4],[300,-6],[909,-21],[426,-10],[527,-10],[378,-8],[722,-19]],[[3835,26],[-79,-2],[-216,1],[-364,-2],[-378,-1]],[[6003,3143],[6,2],[40,-63],[13,-58],[14,-13],[-3,-40],[32,-100],[20,-25],[16,-48],[16,-24],[28,-7],[21,17],[-26,15],[-1,49],[16,30],[22,108],[2,67],[-3,42],[-12,38],[2,62],[25,36],[23,47],[17,51],[20,18],[60,87],[-3,49],[24,50],[55,77],[7,59],[35,1],[66,67]],[[6535,3737],[20,0],[5,-37],[18,-1],[95,61],[29,10],[37,36],[37,15],[20,-15],[55,-11],[11,10],[38,-8],[-19,-39],[-41,-30],[-29,-9],[-20,-37],[27,-125],[-1,-36],[-48,-132],[-6,-53],[31,-84],[-17,-84],[22,4],[92,-47],[26,-29],[26,-7],[69,-3],[48,-34],[14,-37],[85,-20],[106,-13],[44,20],[71,-8],[68,-29],[18,-15],[1,-42],[-16,-67],[-9,-21],[-58,-63],[-27,-69],[-24,-107],[-59,-3],[-33,-21],[-87,-25],[-35,-26],[-39,-13],[-56,-50],[-4,-51],[-84,-15],[-81,-25],[-97,-24],[-21,-21],[-3,-34],[-24,-2],[-25,-34],[-10,-53],[-38,-6]],[[7699,7561],[140,-3],[96,-5],[281,-7],[109,-1],[125,-5],[293,-9],[140,0],[229,-11],[43,1],[188,-3],[333,-12],[144,-3],[125,-6],[160,-5],[7,3],[214,-6],[228,-5],[232,-9],[235,-4],[31,-3],[347,-9],[512,-15],[-26,-898],[-1,-155],[-4,-167],[0,-119],[-5,-189],[0,-100],[-7,-295],[0,-146],[-7,-251],[-4,-234],[-4,-67],[-2,-346],[-5,-136],[-9,-611]],[[11837,3730],[-109,3],[-21,15],[-44,62],[-32,10],[-44,-8],[-105,48],[-42,27],[-83,64],[-32,4],[-44,22],[-11,-43],[13,-34],[-6,-27],[-18,-18],[-6,-52],[-41,-62],[-18,-40],[-2,-71],[-15,-64],[-130,2],[-69,6],[-16,40],[-40,124],[-28,70],[-35,41],[-118,3],[-5,21],[-25,26],[6,57],[-46,22],[-48,-6],[-61,92],[-2,21],[-36,17],[13,49],[-41,-28],[-39,-44],[-3,-22],[-17,-20],[-85,-71],[-44,-11],[-36,7],[-62,30],[-42,3],[-24,-44],[0,-50],[34,-78],[3,-25],[-7,-35],[-18,-22],[-31,-55],[-48,-34],[-43,-2],[-36,-11],[-85,4],[-36,14],[-50,-5],[-84,-85],[-35,-49],[-8,-23],[-8,-98],[-18,-47],[-22,-29],[-25,-17],[-38,-11],[-55,-43],[-26,-26],[-43,-79],[-7,-73],[-22,-45],[-34,-31],[-118,-30],[-105,4],[-11,-10],[-21,-51],[-3,-30],[3,-104],[-18,-18],[-21,1],[-40,19],[-40,47],[-34,72],[-30,12],[-37,-40],[-7,-34],[-25,-69],[-3,-41],[13,-45],[35,-65],[19,-67],[52,-77],[-6,-35],[-87,-40],[-43,-6],[-24,11],[-95,64],[-20,8]],[[8736,2472],[-23,45],[-36,25],[-40,-12],[-24,-28],[-79,-31],[-88,-3],[-31,15],[-32,33],[-34,50],[-16,57],[11,39],[18,30],[101,137],[23,23],[76,14],[41,30],[56,61],[19,33],[16,71],[-2,34],[-23,41],[-24,28],[-58,30],[-50,33],[-43,-12],[-37,-3],[-76,42],[-21,22],[3,21],[-27,42],[6,25],[17,17],[92,9],[90,-74],[54,-27],[29,-8],[101,-12],[37,18],[46,46],[-8,30],[-34,33],[-18,60],[-30,64],[-39,60],[-25,49],[1,14],[71,66],[28,16],[37,34],[48,53],[31,52],[-17,54],[1,32],[-22,69],[-27,21],[-19,59],[1,29],[28,75],[-6,29],[16,28],[26,27],[14,0],[93,-102],[70,-34],[28,-1],[49,21],[30,20],[-4,13],[28,23],[38,55],[8,35],[-5,72],[-42,46],[-74,30],[-38,23],[-25,0],[-31,-17],[-43,-12],[-59,-23],[-13,-16],[-34,-10],[-32,21],[-9,32],[7,44],[-1,47],[27,33],[48,-1],[32,-32],[46,-10],[35,33],[41,-20],[79,7],[45,35],[12,28],[2,33],[-40,27],[-26,9],[-23,31],[-22,2],[-36,23],[-37,43],[-20,36],[-15,47],[0,32],[10,21],[21,0],[63,-29],[20,-1],[74,28],[54,64],[3,43],[-20,27],[0,34],[20,47],[0,30],[-24,77],[-18,26],[-32,6]],[[9125,5283],[-67,13],[-74,32],[-72,42],[-55,51],[-9,48],[-30,73],[-19,17],[-1,49],[6,19],[48,60],[31,115],[-3,98],[-37,27],[-69,5],[-14,33],[-29,16],[-45,-43],[-33,-6],[-42,13],[-64,-7],[-31,7],[-36,37],[-13,33],[-42,42],[-38,57],[-34,74],[-49,71],[-13,43],[-6,86],[-28,61],[0,30],[13,25],[-9,56],[-13,31],[-40,47],[-42,12],[-55,-5],[-34,11],[-104,-11],[-61,3],[-43,22],[-25,22],[-39,52],[0,38],[32,66],[13,40],[0,29],[-25,23],[-4,19],[7,67],[-14,48],[-40,45],[-17,10],[-29,-2],[-21,-27],[-32,1],[-26,-9],[-32,38],[3,47],[23,58],[32,70],[-2,26],[-19,50],[-49,72],[7,25],[35,31],[47,32],[5,20]],[[11837,3730],[0,-45],[-8,-372],[1,-64],[-4,-203],[-5,-100],[0,-150],[-4,-127],[-2,-185],[-8,-331],[0,-77]],[[11807,2076],[-58,-47],[-54,-23],[-53,14],[-2,28],[-26,16],[-46,55],[-47,20],[-68,15],[-28,24],[-66,5],[-19,8],[-36,-17],[-16,3],[-98,-32],[-21,-20],[-32,0],[-11,-12],[-43,11],[-41,0],[-53,11],[-34,-15],[-24,5],[-46,-28],[-38,-35],[-15,-5],[-25,-33],[-25,-18],[29,-19],[0,-14],[48,-42],[-14,-59],[-70,-122],[-83,-74],[-39,-58],[-62,-48],[-39,-55],[-13,-72],[-31,-61],[-24,-111],[1,-78],[-3,-137],[-44,-4],[-29,21],[-9,-25],[0,-93],[-17,-23],[-23,-4],[-192,1],[-14,-17],[-2,-50],[-17,-23],[-81,-1],[-49,-27],[-17,-39],[2,-113],[-17,-38],[3,-40],[-5,-69],[11,-36],[-1,-109],[-45,-75],[-5,-49],[10,-69],[41,-20],[15,-26],[30,-92],[23,-8]],[[10050,28],[-306,-4],[-257,-1],[-231,-3]],[[9256,20],[-2,71],[14,118],[28,133],[10,64],[-1,40],[-8,38],[-26,73],[-33,66],[-75,101],[-20,14],[-36,5],[-96,-1],[-53,6],[-88,27],[-23,0],[-54,42],[-68,43],[-60,72],[-19,70],[-1,70],[34,63],[58,63],[61,36],[42,46],[45,9],[55,-21],[83,0],[48,22],[17,19],[12,56],[-26,67],[-59,84],[-30,29],[-64,37],[-74,61],[-35,43],[-4,18],[-8,179],[-15,92],[-35,82],[-20,58],[-3,87],[7,110],[5,24],[-20,41],[-7,55],[24,40]],[[6535,3737],[27,90],[28,64],[18,77],[-1,34],[78,18],[35,19],[58,17],[36,27],[59,25],[23,22],[38,66],[77,74],[9,39],[-29,31],[10,56],[-7,64],[26,39],[52,32],[27,37],[242,55],[20,64],[8,61],[-13,44],[18,25],[10,43],[13,102],[-5,32],[-20,32],[-23,76],[10,68],[-46,71],[-22,23],[-28,52],[10,74],[18,30],[58,72],[4,14],[-12,41],[35,1],[61,-34],[74,-7],[50,46],[24,11],[32,-19],[46,-17],[41,8],[42,-7],[53,14],[36,20],[70,-10],[32,-38],[30,-64],[167,-4],[15,-5],[26,-35],[-9,-23],[-7,-65],[0,-82],[31,-56],[17,-19],[60,-35],[25,40],[54,15],[30,17],[75,72],[23,13],[30,1],[37,-20],[15,-24],[22,-53],[27,-12],[281,0],[45,3],[75,-7],[38,1],[69,46],[14,24],[-2,40]],[[9256,20],[-344,-2],[-102,-3],[-439,-5],[-517,-2],[-236,2],[-196,-8],[-165,-2],[-81,1],[-152,6],[-32,8],[-609,1],[-285,10]],[[11807,2076],[-1,-16],[-5,-340],[-6,-90],[-3,-258],[-3,-310],[2,-43],[-10,-247],[-4,-293],[-4,-54],[-4,-328],[-4,-61],[-331,1],[-208,-2],[-217,0],[-427,-5],[-318,-3],[-214,1]],[[3423,7663],[538,-11],[176,-4],[476,-13],[252,-9],[320,-4],[36,-8],[300,-2],[166,-3],[241,-7],[303,-6],[311,-9],[626,-12],[206,-5],[136,-5],[49,2],[140,-6]]],"transform":{"scale":[0.00005541037696247167,0.00003989574990311328],"translate":[-92.772339,36.497264]},"objects":{"Geometry\\29-153":{"type":"GeometryCollection","geometries":[{"arcs":[[0,1,2]],"type":"Polygon","properties":{"GEOID":"291534701022"}},{"arcs":[[3,4,5,6,7,8]],"type":"Polygon","properties":{"GEOID":"291534701011"}},{"arcs":[[9,-4,10,-1,11]],"type":"Polygon","properties":{"GEOID":"291534701021"}},{"arcs":[[-9,12,-2,-11]],"type":"Polygon","properties":{"GEOID":"291534701012"}},{"arcs":[[13,14,-6]],"type":"Polygon","properties":{"GEOID":"291534701013"}},{"arcs":[[15,16,17,18]],"type":"Polygon","properties":{"GEOID":"291534702003"}},{"arcs":[[-17,19,20,21,22]],"type":"Polygon","properties":{"GEOID":"291534702004"}},{"arcs":[[-15,23,-18,-23,24,-7]],"type":"Polygon","properties":{"GEOID":"291534702002"}},{"arcs":[[25,-21]],"type":"Polygon","properties":{"GEOID":"291534702005"}},{"arcs":[[26,-19,-24,-14,-5,-10]],"type":"Polygon","properties":{"GEOID":"291534702001"}}]}}}