{"type":"Topology","arcs":[[[5639,4221],[355,0],[54,9],[74,-210],[25,-19],[43,-7],[52,5]],[[6242,3999],[-1,-85],[13,-70],[-76,17],[-60,2]],[[6118,3863],[-64,-9],[-54,-14],[-34,26],[-23,0],[-38,-27],[-14,15],[31,41],[13,55],[53,38],[-31,56]],[[5957,4044],[25,24],[3,27],[-15,32],[-61,-14],[-46,23],[-36,-6],[-68,11],[-26,-12],[-18,-27],[-21,-18]],[[5694,4084],[-45,105],[-10,32]],[[2436,9952],[-21,-63],[-3,-38],[-23,-47],[-40,-30],[-31,-39],[14,-39],[-4,-89],[-12,-29],[4,-52],[15,-35],[40,-16],[31,-35],[15,-59],[2,-36],[71,-2],[60,-15],[15,-67],[-3,-22],[14,-25],[26,-9],[54,-51],[34,-63],[5,-46],[36,-40],[27,-21],[75,-40],[17,-48],[49,-9],[21,-46],[28,-20],[25,-50],[-6,-281],[1,-68],[-5,-163],[124,-2]],[[3091,8257],[-23,-81],[-5,-54],[32,-137],[-9,-26],[-50,-117],[-3,-41],[-21,-14],[-25,-34],[-42,-26],[-26,-6],[-182,-25],[-52,2],[-51,12],[-45,-1],[-72,-21],[-32,-17],[-21,-23],[-54,-82],[-30,-21]],[[2380,7545],[11,557],[-27,17],[-56,0],[-71,30],[-87,56],[-67,7],[-30,-8],[-238,4],[-152,0],[-257,8],[-140,3],[-51,33],[-54,17],[12,19],[16,58],[26,48],[-49,2],[-161,3],[-123,6],[-49,19],[-21,-19],[-105,1],[-28,9],[-56,-8],[-32,-32],[-32,-11],[-60,-7],[-16,-8],[-40,-41],[-18,-8],[-63,12],[-32,-3],[-63,8],[-22,-3],[-52,-32],[-17,-19],[-27,-3],[-21,12]],[[128,8272],[22,1230],[3,504],[29,0],[305,-18],[219,-5],[44,10],[177,1],[64,-2],[5,-12],[94,-3],[83,3],[209,-2],[1054,-26]],[[6028,9478],[281,-12],[24,-20],[25,-33],[49,-33],[31,-4],[161,-8],[1,34],[97,-4],[46,28],[39,12],[85,5],[41,8],[47,18],[55,-4],[60,-23]],[[7070,9442],[0,-79],[19,-8],[14,15],[40,-13],[25,-34],[22,-57],[-14,-60],[-47,-16],[-63,0],[-5,-21],[17,-49],[56,-34],[10,-19],[59,-66],[27,-61],[34,-42],[14,-5],[70,-54],[2,-103],[-2,-57],[-59,37],[-16,3],[-32,-19],[-69,-6],[-47,3],[-1,-12],[17,-88],[20,-41],[-2,-78],[-245,6],[-104,-18],[-132,-11],[2,180],[-6,14],[-33,29],[-48,17],[-38,99],[-16,91],[1,27],[-138,-53],[-15,-16]],[[6387,8843],[-1,19],[-38,107],[-11,38],[13,111],[-39,13],[-53,7],[-27,-14],[-24,0],[-356,16],[-10,-4],[-2,-82],[-96,4],[-28,-27],[-69,-54],[-88,-114],[-6,64],[-12,43],[-27,17],[-57,-1],[2,106],[86,65],[55,63],[35,62],[24,61],[38,82],[28,17],[76,26],[48,-9],[46,26],[134,-7]],[[6032,9813],[619,-23],[293,-15],[37,-11],[1121,-10],[-2,-255],[1,-240],[-2,-180],[3,-51],[-1,-112]],[[8101,8916],[-63,78],[-31,59],[-29,23],[-20,30],[-138,69],[-28,20],[-58,25],[-76,21],[-85,6],[-13,7],[-22,45],[0,43],[-8,21],[-40,22],[-52,-2],[-108,32],[-9,5],[-27,61],[-33,-20],[-36,7],[-23,-10],[-46,-36],[-46,5],[-40,15]],[[6028,9478],[2,94],[2,241]],[[3400,1098],[-3,347],[79,1],[173,-3],[119,2],[4,506],[-129,1],[-9,12],[-42,29],[1,125],[44,13],[27,17],[-9,64],[0,35],[-19,72],[5,71],[30,77],[14,0],[2,98],[41,26]],[[3728,2591],[57,-2],[3,87],[94,-1],[5,173],[94,-1],[3,87],[94,-2],[8,331],[-1,16],[191,0],[3,171],[95,0],[5,219],[76,60],[22,29],[0,44],[-22,34],[-65,28],[-6,24],[1,86],[-185,5],[-1,194],[7,343],[1,72]],[[4207,4588],[0,87],[196,-4],[153,-1],[84,-4],[307,-9],[61,1],[205,-4],[133,-4],[156,-2],[-2,-92],[185,-2],[34,-3],[38,-25],[52,-1]],[[5809,4525],[23,-28],[-55,-28],[-18,-24],[-34,-93],[-10,-18],[-68,-76],[-8,-37]],[[5694,4084],[65,-155]],[[5759,3929],[55,-130],[-55,20],[-9,28],[-48,-5],[-29,-39],[-50,-23],[-23,-5],[-26,-22],[-30,13],[-15,26],[-17,-10],[7,-23],[37,-13],[18,-22],[-8,-45],[0,-51],[17,-7],[32,23],[33,0],[-1,-17],[-24,-47],[3,-19],[76,-24],[14,-12],[-7,-57],[52,-55],[8,-35],[69,-44],[-15,-36],[-5,-33],[6,-52],[15,-36],[123,77],[25,22],[26,38],[16,52],[1,34],[79,0],[0,65],[5,189]],[[6114,3654],[106,21],[178,1],[2,-69],[-26,-91],[0,-32],[37,-24],[100,-49],[71,0],[41,-15],[32,5],[36,27],[38,36],[24,39],[11,34],[32,13],[33,21],[-57,2],[-14,29],[28,14],[13,36],[25,30],[22,12],[9,20],[51,21],[3,9]],[[6909,3744],[33,-9],[34,20],[0,48],[-5,30],[18,25],[49,-6],[95,53],[198,-6],[-58,-39],[-8,-28],[41,-58],[53,-32],[19,-26],[46,-24],[59,-68],[45,-34],[93,-52],[28,-6],[24,-39],[10,-48],[-1,-75],[-12,-75],[-27,-88],[-30,-44],[14,-24],[-6,-124],[1,-86],[-6,-79],[-172,6],[38,-10],[22,-21],[37,-18],[57,-36],[26,-37],[-49,-21],[-17,-16],[1,-29],[-38,-8],[-62,-25],[-71,-14],[-17,-21],[-59,-18],[-46,-2],[-62,-33],[-37,-27],[-175,4],[5,-79],[-176,-6],[0,18],[-183,0],[-187,2],[-5,-331],[-1,-24],[-25,-2],[-20,-33],[-29,-17],[11,-27],[32,-38],[1,-45],[10,-34],[-1,-31],[17,-21],[-2,-210],[-3,-22],[-8,-361],[-12,-74],[-18,-70],[26,-31],[3,-90],[-23,-2],[-266,3],[-1,-86],[-91,1],[-385,10],[-4,-175],[-95,0],[-1,-89],[-95,2],[-3,-173],[-2,-1],[-186,1],[-2,-77],[-42,-9],[-338,7],[-7,-347]],[[4886,63],[-130,2],[-462,-8],[-355,-7],[-278,-1],[-153,-5],[-127,4],[17,489],[2,151],[2,325],[-2,85]],[[5807,7321],[-21,-75],[-8,-84],[-7,-17],[-4,-45],[10,-11],[46,-9],[93,-7],[92,9],[23,13],[73,55],[24,9],[45,4],[153,61],[77,52],[39,13],[42,26],[20,6],[29,-9],[27,-40],[-1,-68],[-9,-17],[17,-102],[14,-28],[-22,-39],[-42,-45],[-44,-31],[-75,-25],[-79,-8],[-48,-22],[-26,-20],[-97,-13],[-90,4],[-45,-8],[-41,-19],[-108,-59],[-44,-37],[-54,-84],[-20,-57],[-2,-43],[14,-35],[33,-18],[34,-28],[93,-40],[32,-11],[30,9],[24,-9],[14,-15],[42,-1],[19,38],[36,20],[67,6],[61,14],[35,-3],[49,-36],[16,-44],[40,-17],[71,4],[31,13],[49,10],[52,21],[61,49],[69,79],[19,46],[25,81],[-5,39],[7,87],[9,42],[21,26],[46,30],[25,9]],[[6863,6917],[40,-85],[64,-80],[9,-26],[-9,-18],[-48,-43],[-35,-40],[-76,-45],[-10,-30],[35,-59],[5,-17],[5,-186],[-8,-32],[-34,-79],[-18,-24],[-84,-43],[-77,-49],[-99,-39],[2,58],[-42,29],[-107,10],[-27,12],[-57,49],[-40,7],[-17,-36],[40,-57],[2,-57],[14,-43],[4,-48],[27,-9],[17,-41],[46,-56]],[[6385,5840],[-93,3],[-89,0],[-6,-16],[-73,-13],[-6,-12],[-44,-12],[-15,-24],[-36,-10],[-48,-49],[-20,-53],[-77,-29],[-43,14],[-23,-17]],[[5812,5622],[4,37],[-27,27],[-14,25],[-3,30],[12,65],[-87,59],[-43,-7],[-31,-21],[-48,10],[-40,-54],[-50,12]],[[5485,5805],[5,53],[19,50],[-16,39],[-9,50],[-10,11],[-48,16],[-27,54],[20,52],[9,37],[30,35],[13,62],[-18,45],[2,27],[-12,75],[11,31],[2,102],[19,51],[-3,19],[-30,67],[0,38],[13,41],[21,38],[0,62],[-8,46],[32,35],[35,113],[5,104],[-1,110],[6,15],[84,61],[51,-4],[4,-13],[123,-6]],[[4133,5214],[-82,-88],[-119,-85],[-31,-9],[-49,2],[-101,-3],[-46,-14],[-54,-56],[-47,-91],[-24,-58],[-26,-50],[-11,-72],[-9,-28],[-61,-139]],[[3473,4523],[-35,17],[-23,51],[-27,28],[-28,16],[-32,44],[-62,17],[-17,31],[-37,23],[-22,31],[-21,55],[-7,34],[3,31],[16,30],[6,41],[34,70],[9,59],[-10,10],[10,36],[29,37],[27,16],[-58,45],[-37,36],[-22,11],[-95,32],[-23,21],[-52,92]],[[2999,5437],[-38,28]],[[2961,5465],[38,1],[64,-14],[49,32],[39,43],[40,33],[42,15],[47,-17],[13,-17],[9,-32],[17,-17],[18,-35],[29,-11],[32,26],[49,3],[35,54],[38,-18],[89,-84],[53,-14],[61,-33],[121,-2],[89,25],[18,-2],[49,-23],[39,-4],[54,2],[36,-5],[29,-35],[-42,-108],[17,-14]],[[5239,6235],[4,-13],[-19,-22],[-60,-40],[-50,0],[-8,-24],[-39,2],[-18,14],[-28,-4],[-3,-42],[15,-40],[30,-58],[19,-51],[-32,-9],[-9,-13],[-31,-15],[-20,-32],[-35,-26],[-18,-1],[-38,-53],[-6,-37]],[[4893,5771],[8,-37],[9,-92],[-27,-118],[-23,1],[-12,-64],[0,-62]],[[4848,5399],[-40,-3],[-83,-16],[-85,7],[-29,-1],[-48,-26],[-29,-6],[-77,20],[-40,28]],[[4417,5402],[10,46],[36,35],[62,69],[10,27],[-31,97],[-2,34],[-25,77],[-69,39],[-28,34],[-36,20],[-24,24],[-61,38],[-69,18],[-32,-4],[-38,-16]],[[4120,5940],[-63,44],[-41,12],[-66,7],[-27,17],[-70,5],[-56,21],[-41,41],[-26,57],[15,51],[0,54],[-7,41],[28,57],[60,72],[56,44],[14,27],[43,36],[96,22],[88,11],[45,-19],[38,-1],[37,28],[28,10],[37,-6],[62,-20],[62,-30],[118,-66],[16,-19],[59,-28],[120,-62],[104,-34],[102,-60],[50,-20],[40,-8],[67,3],[12,7],[54,1],[52,-6],[13,6]],[[4563,5140],[21,-17],[71,2],[41,-19],[24,-19],[63,-77],[56,-36],[57,13],[22,-4],[18,-24],[21,-9],[72,4],[44,-18],[11,-39],[34,-84],[28,-17],[84,-25],[44,-3],[49,9],[34,32],[61,1],[37,19],[27,7],[44,-5],[9,-22],[61,-47],[9,0]],[[5605,4762],[140,-164]],[[5745,4598],[64,-73]],[[4207,4588],[-42,16],[-57,31],[-54,17],[-20,17],[-17,35],[-8,32],[-50,93],[36,25],[317,246],[31,19],[47,19],[53,8],[120,-6]],[[92,6134],[25,-7],[70,-59],[42,-41],[21,-11],[49,-7],[29,8],[134,59],[156,61]],[[618,6137],[40,3],[22,11],[21,-4],[62,-73],[6,-34],[-7,-32],[6,-20],[57,-49],[38,-50],[8,-19],[168,-2],[77,-3],[43,8],[62,-8],[58,-31],[77,-29],[43,-32],[79,-3],[62,-29],[47,-18],[46,129],[0,81],[-29,94],[-23,46],[-5,85],[-16,27],[1,17],[29,42],[26,5],[22,47],[57,7],[61,-3],[31,-31],[40,-16],[29,-6],[108,-2],[47,-21],[18,2],[114,-33],[26,-29],[11,-27],[39,-21],[39,0],[26,15],[47,5],[41,15],[37,26],[39,43],[15,22],[44,41],[26,38]],[[2533,6321],[184,-56],[23,-19],[40,-70],[32,-25],[5,-14],[-9,-35],[6,-157],[11,-30],[-8,-96],[-5,-21],[-25,-33],[-4,-18],[16,-34],[47,-53],[20,-59],[23,-27],[51,-89],[21,-20]],[[2999,5437],[-3,-217],[4,-52],[-7,-31],[-82,2],[-13,8]],[[2898,5147],[1,25],[-22,18],[-46,-2],[-33,13],[-13,20],[-36,24],[-41,78],[-21,49],[-32,33],[-102,66],[-58,-5],[-34,30],[-22,4],[-16,-20],[2,-28],[-15,-22],[5,-34],[39,-68],[3,-43],[-31,-19],[18,-25],[11,-35],[-4,-33],[-31,-68],[2,-75],[10,-43],[34,-25],[-16,-45],[14,-83],[-1,-63],[-16,-28],[-9,-47],[22,-92],[-27,-35],[-38,-32],[-31,-44],[36,-70],[-1,-22],[-95,-70],[-2,-74],[-286,-40],[-55,-4]],[[1961,4213],[-47,2],[-177,21],[-34,2],[-69,-13],[-239,-82],[-60,-15],[-397,-56],[-272,-38],[-629,-77]],[[37,3957],[12,646],[33,1272],[10,259]],[[2380,7545],[-2,-20],[-27,-70],[4,-21],[21,-30],[17,-8],[33,-50],[12,-44],[16,-31],[40,-43],[66,-60],[32,-14],[33,-51],[-21,-55],[-15,-63],[-31,-73],[-22,-13],[-44,-7],[-43,2],[-29,-26],[-54,-20],[2,-34],[-8,-34],[-19,-40],[-24,-29],[44,-37],[-5,-278],[-3,-60],[1,-48],[27,8],[46,36],[46,6],[60,-17]],[[618,6137],[69,39],[34,28],[27,38],[18,46],[4,52],[-9,40],[-18,48],[-4,52],[-79,2],[-55,-37],[-30,-25],[-40,35],[-17,22],[-18,5],[-6,31],[-30,35],[-20,34],[-5,23],[-27,49],[-29,31],[-7,28],[-16,21],[-35,9],[-70,37],[-50,9],[-68,34],[-33,21]],[[104,6844],[18,1041],[6,387]],[[4417,5402],[-50,4],[-125,-38],[-18,-13],[-91,-141]],[[2533,6321],[10,37],[0,39],[17,37],[49,19],[86,5],[70,-22],[24,-19],[45,-47],[50,-43],[29,-3],[34,12],[47,49],[34,31],[18,61],[-2,37],[-16,51],[-31,53],[-27,23],[-45,23],[-49,13],[-58,1],[-22,-4],[-79,6],[-41,25],[-67,61],[-11,16],[-7,41],[0,45],[-5,34],[3,66],[21,42],[13,63],[18,42],[6,35],[39,77],[35,41],[13,-1],[68,34],[32,5],[28,-5],[7,-22],[27,-35],[60,-52],[47,-29],[19,-18],[1,-21],[-40,-52],[-17,-49],[20,-45],[47,-49],[49,-40],[83,-42],[18,-17],[62,-39],[47,-19],[55,-50],[-3,-28],[-60,-68],[-70,-87],[-57,-48],[-37,-43],[0,-23],[18,-66],[17,-43],[62,-90],[59,-104],[16,-70],[-5,-28],[-16,-24],[-44,-34],[-69,-34],[-34,-39],[-18,-12],[-48,-45],[-26,-9],[-1,-26],[11,-23],[87,-31],[106,37],[37,22],[48,46],[16,37],[58,73],[45,12],[53,7],[17,-9],[41,2],[89,-10],[46,-13],[49,-7],[58,-26],[50,-16],[101,-25],[62,0],[73,16],[31,13],[19,22],[-8,12]],[[2898,5147],[-5,-179],[-2,-132],[3,-17],[74,-47],[68,-84],[29,-75],[-57,-25],[-7,-9],[-16,-56],[-26,-34],[-3,-28],[28,-38],[17,-90],[29,7],[228,42],[64,9],[54,17],[42,29],[139,131],[-28,-3],[-40,-39],[-16,-3]],[[4848,5399],[34,-2],[46,-12],[157,-74]],[[5085,5311],[-115,-6],[-34,-8],[-52,-24],[-113,-82],[-61,-35],[-60,-16],[-87,0]],[[3728,2591],[19,52],[44,55],[-1,33],[-13,40],[-2,32],[6,69],[-28,31],[-14,31],[1,76],[-21,22],[-49,17],[-36,-3],[-74,-23],[-32,18],[13,22],[-2,17],[-27,27],[-6,33],[48,13],[16,11],[28,48],[15,69],[-6,70],[-72,91],[-8,43],[-18,20],[-18,-28],[-29,-16],[-57,-23],[-33,-30],[-54,15],[-57,8],[-21,11],[-32,31],[-8,64],[-35,50],[-48,27],[-68,46],[-74,66],[-58,70],[-74,49],[-58,52],[-8,15],[-2,68],[-23,23],[-71,2],[-39,-75],[-75,-118],[-86,-130],[-57,-38],[-42,-60],[-46,-28],[-90,-15],[-31,2],[-130,24],[-12,107],[-20,58],[-2,20],[28,110],[15,30],[67,39],[74,55],[25,23],[-18,13],[-97,-2],[-29,8],[-20,16],[-36,48],[-26,24],[-58,29],[-14,24],[-1,44]],[[3400,1098],[-194,89],[-476,223],[-471,220],[-769,358],[-695,324],[-752,353],[-43,-2],[26,862],[4,95],[0,79],[5,230],[2,28]],[[6385,5840],[183,-3],[-4,-211],[-23,-27],[-59,-43]],[[6482,5556],[-34,-45],[-173,-143],[-33,-22],[-38,-14],[-43,-7],[-367,-28]],[[5794,5297],[4,115],[6,29],[-3,58],[-7,19],[-3,66],[21,38]],[[5456,5746],[29,59]],[[5794,5297],[-221,-15]],[[5573,5282],[-14,54],[18,52],[-27,57],[-55,66],[-6,24],[35,45],[-13,53],[-54,43],[-1,70]],[[5602,5056],[39,23],[65,-7],[79,-2],[76,-46],[37,-42],[29,2],[144,-5],[193,-5],[10,13],[45,-13],[48,-7],[38,-20]],[[6405,4947],[-29,-17],[3,-305]],[[6379,4625],[-259,7],[-167,2],[-208,7],[0,-43]],[[5605,4762],[-17,28],[-16,50],[0,61],[30,155]],[[6242,3999],[73,15],[75,2],[38,-17],[46,-41],[32,-37],[32,-20]],[[6538,3901],[37,-10],[35,-3],[55,13],[52,-15],[51,-48],[32,-21],[42,-6],[18,-8],[49,-59]],[[6114,3654],[4,209]],[[5759,3929],[35,36],[54,47],[29,30],[32,-5],[34,18],[14,-11]],[[3927,9081],[2,191],[1,228],[0,406]],[[3930,9906],[782,-16],[0,-28],[281,-11],[152,4],[191,-5],[255,-21],[441,-16]],[[6387,8843],[-2,-71],[-13,-43],[1,-38],[-9,-30],[-70,-60],[-43,-47],[-36,0],[-39,-21],[-64,-19],[-16,-17],[-50,-16],[-127,-9],[-16,-14],[-61,-90],[-12,-23],[-2,-145],[-5,-20],[-63,-95],[-80,-48],[-9,-12],[-22,-66],[-3,-59],[-30,-131],[5,-31],[-15,-10],[-46,9],[-25,-2],[-56,-24],[0,-67],[-6,-24],[-60,7],[-84,32],[-20,12],[-15,-41],[7,-26],[-14,-26],[16,-23],[-12,-9],[30,-38]],[[5321,7508],[-50,10],[-35,31],[-57,68],[-52,35],[-80,-12],[-48,-19],[-30,-31],[-22,-53],[14,-20],[39,-27],[52,-14],[57,-33],[42,-30],[68,-59],[19,-28],[3,-35],[-43,-39],[-16,-36],[-15,-15],[-40,-13],[-12,-27],[2,-38],[12,-50],[7,-195],[-5,-61],[16,-14],[22,-49]],[[5169,6754],[-524,1],[10,236],[2,101],[5,35],[-2,61],[1,174],[7,298],[-14,13],[0,28],[15,13],[1,28],[-57,43],[30,14],[27,33],[-1,316],[6,215],[5,480],[-38,4],[-17,-5],[-90,-1],[-424,0],[-186,-1],[2,241]],[[5239,6235],[23,22],[42,90],[5,52],[-8,76],[-13,84],[-11,48],[-44,66],[-27,21],[-37,60]],[[5321,7508],[42,-6],[73,14],[46,2],[72,17],[46,17],[41,0],[83,-26],[44,-32],[20,-21],[18,-38],[11,-61],[-10,-53]],[[5456,5746],[-31,20],[-51,21],[-35,5],[-39,-10],[-77,16],[-36,0],[-11,-13],[-23,5],[-71,0],[-30,-39],[-70,-3],[-47,16],[-42,7]],[[6538,3901],[3,65],[-10,31],[-8,71],[56,51],[-27,45],[-4,25],[-15,25],[31,20],[11,17],[3,42],[-4,23],[-22,53],[-1,56],[13,30],[2,35],[-31,72],[4,28],[17,30],[-22,3],[-155,2]],[[6405,4947],[74,52],[20,21],[32,55],[-20,38],[13,17],[33,1],[6,238],[0,106],[-66,17],[15,35],[-30,29]],[[6863,6917],[39,6],[67,-11],[78,-51],[69,-55],[58,-38],[74,-58],[65,-35],[106,-29],[47,-8],[30,-16],[43,-5],[40,10],[26,0],[118,75],[44,58],[13,35],[10,62],[7,19],[10,71],[-6,84],[-13,77],[-16,34],[-52,79],[-31,69],[2,98],[14,20],[25,53],[107,89],[6,13],[88,71],[35,40],[17,42],[44,48],[58,12]],[[8085,7776],[-8,-415],[-6,-367],[4,-345],[-8,0],[1,-133],[-23,-1222],[-21,-1067],[-13,-702],[-22,-945],[-4,-87],[-36,0],[-11,-1289],[-5,-666],[0,-189],[2,-349],[-754,17],[-767,19],[-459,9],[-498,8],[-348,7],[-223,3]],[[3091,8257],[5,164],[3,20],[34,64],[23,113],[9,14],[43,22],[14,18],[20,58],[133,17],[40,23],[27,45],[16,14],[25,4],[22,-12],[49,-49],[30,-19],[30,8],[42,36],[28,51],[11,48],[31,67],[-1,41],[10,24],[27,15],[126,24],[39,14]],[[2436,9952],[0,-12],[561,-14],[194,-1],[276,-7],[72,-3],[391,-9]],[[8101,8916],[2,-2],[0,-280],[-18,-858]],[[5602,5056],[9,51],[-4,63],[-34,112]],[[5573,5282],[-115,-10],[-74,9],[-104,30],[-56,7],[-139,-7]],[[92,6134],[0,167],[7,38],[-1,174],[6,331]]],"transform":{"scale":[0.00004844588424040435,0.000041838596841894546],"translate":[-92.413669,37.602542]},"objects":{"Geometry\\29-169":{"type":"GeometryCollection","geometries":[{"arcs":[[0,1,2,3,4]],"type":"Polygon","properties":{"GEOID":"291694703902"}},{"arcs":[[5,6,7,8]],"type":"Polygon","properties":{"GEOID":"291694701021"}},{"arcs":[[9,10,11]],"type":"Polygon","properties":{"GEOID":"291694701014"}},{"arcs":[[12,13,-10,14]],"type":"Polygon","properties":{"GEOID":"291694701013"}},{"arcs":[[15,16,17,18,-5,19,20,21,22,23]],"type":"Polygon","properties":{"GEOID":"291694706021"}},{"arcs":[[24,25,26,27,28]],"type":"Polygon","properties":{"GEOID":"291694702863"}},{"arcs":[[29,30,31,32]],"type":"Polygon","properties":{"GEOID":"291694704024"}},{"arcs":[[33,34,35,36,37]],"type":"Polygon","properties":{"GEOID":"291694704023"}},{"arcs":[[38,39,40,-18,41]],"type":"Polygon","properties":{"GEOID":"291694704012"}},{"arcs":[[42,43,44,-32,45,46,47,48]],"type":"Polygon","properties":{"GEOID":"291694705012"}},{"arcs":[[-8,49,-44,50,51]],"type":"Polygon","properties":{"GEOID":"291694705021"}},{"arcs":[[-37,52,-33,-45,53]],"type":"Polygon","properties":{"GEOID":"291694704021"}},{"arcs":[[-47,54,-30,-53,-36,55,56,-42,-17,57]],"type":"Polygon","properties":{"GEOID":"291694704011"}},{"arcs":[[-46,-31,-55]],"type":"Polygon","properties":{"GEOID":"291694704022"}},{"arcs":[[-48,-58,-16,58]],"type":"Polygon","properties":{"GEOID":"291694705011"}},{"arcs":[[-27,59,60,61]],"type":"Polygon","properties":{"GEOID":"291694702884"}},{"arcs":[[62,-28,-62,63,64]],"type":"Polygon","properties":{"GEOID":"291694702883"}},{"arcs":[[65,66,67,-40,68]],"type":"Polygon","properties":{"GEOID":"291694702891"}},{"arcs":[[-2,69,70,-22,71]],"type":"Polygon","properties":{"GEOID":"291694706011"}},{"arcs":[[72,-3,-72,-21]],"type":"Polygon","properties":{"GEOID":"291694703891"}},{"arcs":[[73,74,-15,-12,75,76,77]],"type":"Polygon","properties":{"GEOID":"291694701012"}},{"arcs":[[78,-77,79,-29,-63,80,-34]],"type":"Polygon","properties":{"GEOID":"291694702862"}},{"arcs":[[-71,81,-67,82,-60,-26,83,84,-23]],"type":"Polygon","properties":{"GEOID":"291694702861"}},{"arcs":[[-7,85,-78,-79,-38,-54,-50]],"type":"Polygon","properties":{"GEOID":"291694701022"}},{"arcs":[[-4,-73,-20]],"type":"Polygon","properties":{"GEOID":"291694703892"}},{"arcs":[[86,-74,-86,-6]],"type":"Polygon","properties":{"GEOID":"291694701023"}},{"arcs":[[-11,-14,87,-84,-25,-80,-76]],"type":"Polygon","properties":{"GEOID":"291694701011"}},{"arcs":[[-41,-68,-82,-70,-1,-19]],"type":"Polygon","properties":{"GEOID":"291694703901"}},{"arcs":[[-64,-61,-83,-66,88]],"type":"Polygon","properties":{"GEOID":"291694702892"}},{"arcs":[[-81,-65,89,-56,-35]],"type":"Polygon","properties":{"GEOID":"291694702882"}},{"arcs":[[-57,-90,-89,-69,-39]],"type":"Polygon","properties":{"GEOID":"291694702881"}},{"arcs":[[-51,-43,90]],"type":"Polygon","properties":{"GEOID":"291694705022"}}]}}}