{"type":"Topology","arcs":[[[4267,3612],[55,-39],[44,-33],[5,-6],[104,-76],[17,-13]],[[4492,3445],[-28,-29]],[[4464,3416],[-12,9],[-87,64],[-10,-15]],[[4355,3474],[-23,16],[-3,-5],[-20,16],[-68,0]],[[4241,3501],[0,64],[5,14],[21,33]],[[3766,3506],[62,0],[86,-62],[88,-27],[35,1],[202,1]],[[4239,3419],[-14,-39],[-3,-46],[65,0]],[[4287,3334],[0,-1]],[[4287,3333],[0,-59],[2,-319],[2,-127]],[[4291,2828],[-96,55],[-27,21],[-33,32],[-283,362],[-89,115],[11,0],[-6,16],[-2,77]],[[3764,3818],[77,1],[194,1],[77,0],[7,15],[20,26],[9,3],[-2,11],[-14,13],[0,12],[30,38]],[[4162,3938],[121,-95],[86,-59]],[[4369,3784],[-74,-23],[-6,-4],[-14,-26],[0,-12],[5,-12],[1,-58],[-2,-14],[-12,-23]],[[4241,3501],[1,-48],[-3,-34]],[[3766,3506],[0,167],[-2,145]],[[4369,3784],[47,-33],[69,-64],[77,-74],[113,-95],[113,-70],[76,-38],[16,-10],[64,-49],[27,-25],[48,-49],[26,-28],[60,-61],[66,-87],[23,-36],[41,-68],[52,-100],[12,-27],[11,-36],[8,-36],[8,-80],[1,-68],[-4,-84],[-3,-37],[-7,-39],[-7,-71],[-7,-29],[-16,-34],[-24,-31],[-38,-53],[-43,-43],[-39,-25],[-42,-23],[-76,-39]],[[5021,2142],[-91,202],[-11,22],[-27,47],[-25,35],[-24,29],[-30,32],[-24,23],[-40,31],[-41,28],[-157,89]],[[4551,2680],[-1,73],[-1,234],[0,154],[-1,141],[-2,28],[-6,21],[-24,71],[-5,24],[-19,19]],[[4464,3416],[-35,-53],[-15,-13],[0,-15],[-24,-2],[-103,0]],[[4287,3334],[-1,37],[69,103]],[[1975,1921],[1,-172],[-27,-2],[-11,-14],[-22,8],[-4,-2],[0,-122],[38,-45],[25,-26],[2,-30],[128,1]],[[2105,1517],[1,-120],[-11,-15],[-42,-1],[-147,1],[-166,0]],[[1740,1382],[-177,2],[-36,0],[-1,95],[0,110],[74,-1],[144,-2],[33,4],[17,8],[54,36],[0,101],[-1,185],[128,1]],[[1975,1921],[256,1]],[[2231,1922],[39,0],[147,1],[73,-1],[0,-120],[1,-9],[-104,-110]],[[2387,1683],[-39,13],[-23,0],[-31,-12],[-34,-25],[-23,-7],[-132,-1],[0,-134]],[[2387,1683],[79,-29],[23,-2],[0,-266],[19,0],[-4,-18],[-13,-23],[-2,-9],[0,-219],[97,1],[118,1],[9,3],[26,32],[8,16],[4,-49],[2,-206],[1,-173],[-3,-19],[3,-39],[1,-293],[0,-83],[1,-91],[1,-190]],[[2757,27],[-147,-2],[-97,0],[-272,-4],[-213,-2],[-57,-1],[-147,-1],[-196,-3],[-160,-2]],[[1468,12],[-2,50],[2,47],[0,90],[-1,213],[-2,155],[0,146],[77,1],[180,-1],[-1,143],[1,66],[-3,49],[2,75],[-1,224],[1,51],[19,61]],[[4291,2828],[260,-148]],[[5021,2142],[-32,-17],[-61,-45],[-17,-9],[-66,-52],[-46,-24],[-100,-24],[-112,-36],[-103,-39],[-108,-44],[-128,-62],[-85,-73],[-52,-74],[-39,-60],[-18,-39],[-27,-189],[-19,-215],[-17,-167],[-25,-198],[-16,-130],[-19,-89],[-25,-81],[-30,-81],[-41,-60],[-76,-102],[-44,-69],[-30,-56],[-11,-33],[-7,-42],[-369,-6],[-7,3],[-271,0],[-263,-2]],[[2231,1922],[-3,411],[0,52],[0,212],[-258,-2]],[[1970,2595],[-1,113],[0,209],[-2,22],[-31,73],[-10,49],[-5,60],[-8,13],[97,1],[94,-1],[56,1],[188,1],[5,6],[-1,129],[129,0],[-2,225],[192,-2],[154,7],[128,44],[47,27],[22,8],[31,-24],[30,-21],[49,-23],[183,2],[-2,188],[-5,37],[8,29],[-4,46],[75,1],[230,1],[147,2]],[[3004,4352],[7,19],[16,89],[3,20]],[[3030,4480],[25,7],[59,0],[62,11],[48,11],[21,9],[13,0],[-79,-165]],[[3179,4353],[-25,-53],[-156,-1],[8,45],[-2,8]],[[3179,4353],[42,0],[19,-4],[72,-43]],[[3312,4306],[-7,-12],[-20,-23],[-91,-96],[-28,27],[-30,68],[-71,-110],[-34,-53],[-34,-60],[-10,14],[-1,21],[-254,2]],[[2732,4084],[-2,185],[-1,86],[50,-1],[30,-2],[195,0]],[[2230,4352],[91,95],[44,48],[228,238]],[[2593,4733],[125,-90],[4,-21],[61,-2],[169,0],[82,1],[0,-82],[-4,-59]],[[2732,4084],[-92,-1],[-153,-1],[-14,-2],[-195,-2],[-63,-1],[-1,131],[-1,104],[2,8],[19,19],[25,3],[11,11],[-40,-1]],[[2450,7171],[0,-132],[-1,-37],[1,-149],[0,-34],[2,-317]],[[2452,6502],[-132,-1],[-72,3],[-31,7],[-39,13],[-35,1],[-134,0],[-90,-12],[1,-76],[8,-20],[12,-16],[6,-15],[0,-292],[0,-124],[1,-60],[0,-191],[0,-127],[0,-211],[0,-94],[-255,1],[0,-185],[1,-218],[173,0],[37,-2],[47,0],[0,-115],[-2,-23],[3,-363],[-3,-29]],[[1948,4353],[-156,-1],[-54,1],[-75,-1],[-140,0],[-74,-5],[-101,-1],[-115,1],[-206,3],[-125,2],[-249,4],[-147,5],[-58,-2],[-136,4],[-51,3],[-250,7],[-7,1]],[[4,4374],[-1,276],[1,111],[-2,56],[0,376],[-2,274],[12,270],[-1,181],[0,221],[1,135],[-5,271],[1,275],[-3,149],[1,255],[126,-11],[3,-2],[123,-12],[120,0],[7,1],[180,-13],[130,-7],[115,-1],[115,1],[40,-3],[282,7],[119,-2],[277,1],[36,0],[174,0],[218,1],[131,-3],[0,-14],[115,6],[20,-2],[113,0]],[[1948,4353],[37,0],[39,-3],[36,-1],[128,1],[42,2]],[[3312,4306],[7,18],[3,19],[16,181],[88,5],[66,7],[7,4],[0,74],[5,8],[90,1],[30,84],[3,16],[0,35],[4,2],[152,1],[36,-1],[38,-60]],[[3857,4700],[-22,1],[-47,-40],[-3,-10],[-15,-31],[-29,-44],[-25,-48],[-20,-48],[-6,-18],[-3,-32],[4,-29],[12,-21],[39,-36],[13,-20],[17,-30],[42,-48],[59,-61],[188,-167],[101,-80]],[[1970,2595],[-205,-1],[-186,3],[-379,3],[1,-129],[-328,4],[-195,1],[-30,-7],[-88,3],[-79,-1],[-84,0],[-366,-2]],[[31,2469],[-3,266],[8,-2],[-1,99],[-2,18],[2,16],[-1,33],[-2,171],[-3,212],[-7,313],[-7,302],[-6,271],[-5,206]],[[2452,6502],[258,-1],[117,0],[143,-1],[2,-257],[0,-40],[2,-174],[-1,-66],[-3,-6],[1,-140],[1,-30],[-13,-10],[-43,-82],[-74,-135],[-127,0],[-144,-1],[-93,-2],[-14,-10],[-6,-21],[3,-358],[-5,-6],[4,-15],[0,-109],[2,-210],[131,-95]],[[2450,7171],[126,3],[130,0],[21,-2],[59,-1],[6,28],[16,44],[14,0],[47,-17],[8,-7],[23,-37],[19,-21],[26,-14],[27,4],[26,13],[18,15],[7,19],[4,24],[9,19],[11,41],[13,70],[0,23],[-14,34],[-21,18],[-29,4],[-15,10],[-3,15],[20,19],[17,3],[40,-2],[19,1],[17,8],[16,25],[4,26],[-11,70],[3,34],[7,23],[4,34],[3,76],[7,21],[5,21],[11,25],[20,24],[43,38],[14,10],[47,24],[24,5],[33,3],[45,-4],[34,-4],[53,-20],[14,-7],[69,-46],[23,-11],[56,-21],[26,-15],[28,-13],[36,-6],[16,-12],[34,-16],[14,-14],[12,-7],[24,-2],[22,-11],[15,-36],[31,-46],[17,-33],[38,-48],[20,-21],[36,-29],[30,-22],[18,-9],[19,-6],[14,-9],[23,-21],[10,-5],[56,-15],[92,-10],[43,0],[23,-6],[23,-9],[22,-2],[21,5],[65,-1],[19,2],[21,11],[14,2],[35,-3],[17,1],[39,10],[23,10],[23,1],[30,13],[32,17],[15,4],[32,17],[29,18],[42,14],[26,16],[16,3],[39,27],[14,7],[44,31],[33,10],[26,3],[32,14],[89,-45],[162,-82],[22,-11],[7,-19],[62,-197],[20,-65],[22,-69],[4,-5],[9,-31],[26,-31],[98,-87],[27,-29],[6,-11],[20,-20],[23,-13],[94,-58],[3,-28],[-2,-19],[133,3],[1,-45],[-5,-51],[1,-38],[131,0],[1,-430],[-222,18],[-305,85],[-118,4],[-155,8],[-73,-14],[-73,-33],[-74,-81],[-57,-121],[-6,-122],[14,-42],[91,-190],[16,-26],[173,-120],[144,-107],[79,-65],[84,-93],[338,-191],[10,-5],[22,1],[51,18],[38,31],[26,1],[14,-5],[62,-53],[26,-39],[13,-26],[5,-19],[28,-204],[-2,-133],[0,-35],[-7,-14],[-48,-51],[-32,-20],[-27,-9],[-31,-4],[-15,0],[-35,9],[-37,16],[-33,25],[-50,13],[-21,3],[-61,-2],[-27,-8],[-40,-30],[-36,-32],[-41,-40],[-24,-21],[-52,-30],[-80,-30],[-61,-21],[-75,-14],[-84,-8],[-58,-4],[-59,4],[-38,9],[-29,9],[-119,50],[-72,25],[-10,7],[-18,6],[-97,45],[-53,30],[-78,26],[-53,11],[-80,11],[-16,1],[-52,-4],[-121,-17],[-38,-6],[-42,-3],[-40,-7],[-74,-8],[-37,3],[-51,10],[-30,10],[-42,24],[-31,23],[-35,12]],[[1468,12],[-230,-3],[-245,-2],[-61,-2],[-8,1],[-182,-1],[-156,-3],[-111,0],[-248,0],[-194,-2],[0,21],[4,16],[-1,218],[0,159],[-1,221],[0,102],[0,315],[-2,375],[-1,407],[-1,591],[0,44]]],"transform":{"scale":[0.00006947324768254894,0.000053929758308157185],"translate":[-89.961698,35.999241]},"objects":{"Geometry\\29-155":{"type":"GeometryCollection","geometries":[{"arcs":[[0,1,2,3,4]],"type":"Polygon","properties":{"GEOID":"291554704003"}},{"arcs":[[5,6,7,8,9]],"type":"Polygon","properties":{"GEOID":"291554703002"}},{"arcs":[[10,11,12,-5,13,-6,14]],"type":"Polygon","properties":{"GEOID":"291554703003"}},{"arcs":[[15,16,17,-1,-13]],"type":"Polygon","properties":{"GEOID":"291554704002"}},{"arcs":[[-3,18,-8,19]],"type":"Polygon","properties":{"GEOID":"291554704001"}},{"arcs":[[20,21,22]],"type":"Polygon","properties":{"GEOID":"291554706002"}},{"arcs":[[23,24,25,-21]],"type":"Polygon","properties":{"GEOID":"291554706003"}},{"arcs":[[-22,-26,26,27,28]],"type":"Polygon","properties":{"GEOID":"291554706001"}},{"arcs":[[-15,-10,29,-17,30,-27,-25,31,32]],"type":"Polygon","properties":{"GEOID":"291554705002"}},{"arcs":[[33,34,35]],"type":"Polygon","properties":{"GEOID":"291554702002"}},{"arcs":[[-36,36,37,38]],"type":"Polygon","properties":{"GEOID":"291554702003"}},{"arcs":[[39,40,-34,-39,41]],"type":"Polygon","properties":{"GEOID":"291554702001"}},{"arcs":[[42,43,44,45]],"type":"Polygon","properties":{"GEOID":"291554701002"}},{"arcs":[[-14,-4,-20,-7]],"type":"Polygon","properties":{"GEOID":"291554704004"}},{"arcs":[[-19,-2,-18,-30,-9]],"type":"Polygon","properties":{"GEOID":"291554703001"}},{"arcs":[[-45,46,-42,-38,47,48,-11,-33,49,50]],"type":"Polygon","properties":{"GEOID":"291554705001"}},{"arcs":[[51,-40,-47,-44]],"type":"Polygon","properties":{"GEOID":"291554701003"}},{"arcs":[[52,-48,-37,-35,-41,-52,-43]],"type":"Polygon","properties":{"GEOID":"291554701001"}},{"arcs":[[-50,-32,-24,-23,-29,53]],"type":"Polygon","properties":{"GEOID":"291554705003"}}]}}}