{"type":"Topology","arcs":[[[7088,7234],[-4,-31],[-41,-56],[-18,-14],[-7,-28],[-20,-20],[-23,-36],[9,-33],[63,-18],[24,-23],[-15,-42],[-25,-23],[-47,-32],[-9,-20],[28,-33],[-2,-37],[-22,-16],[-67,-11],[-9,-38],[2,-22]],[[6905,6701],[-34,1],[-39,15],[-42,-9],[-40,-19],[-61,3],[-26,-9],[-76,1],[-29,9],[-77,2],[-74,32],[-28,8],[-77,-2],[-15,9],[-32,55],[-5,46],[-40,71],[-21,68],[-6,40],[-43,-78],[-23,-22],[-101,9],[2,70],[-24,-5],[-33,-22],[-46,-3],[-39,18],[-43,49],[-3,49],[8,49],[-98,30],[10,61],[37,26],[50,19],[5,50],[13,22],[47,12],[31,24],[27,41],[14,32],[25,28],[31,12],[42,1],[16,-27],[0,-54],[48,-29],[60,7],[35,-8],[20,-17],[39,-10],[29,-30],[-47,-56],[28,-4],[32,-21],[69,-28],[37,-20],[32,-8],[44,8],[42,14],[53,-7],[69,9],[28,-16],[21,-39],[26,-16],[26,1],[27,14],[53,52],[19,9],[26,-1],[143,-21],[26,10],[15,28]],[[41,2503],[54,-1],[310,-12],[199,-4],[196,-7],[128,-2],[230,1],[-1,-147],[20,-35],[-19,-45],[-4,-29],[2,-131],[5,-25],[0,-67],[165,-7],[38,7],[31,15],[8,51],[10,9],[251,-2],[170,1],[69,-4],[2,119],[24,45],[-8,35],[40,2],[172,-1],[267,-5],[144,0],[58,-3],[234,-4],[24,-3],[300,-6],[86,3],[6,22],[-4,43],[-22,36],[-5,47]],[[3221,2399],[174,-4],[18,11],[1,36],[17,10],[77,-9],[94,-3],[-2,-199],[281,-7],[31,-27],[108,-24],[54,4],[67,21],[28,21],[85,2],[48,9],[41,-12],[7,315],[3,81],[3,144],[5,116],[3,191],[-34,18]],[[4330,3093],[4,9],[80,11],[82,46],[38,9],[83,-4],[174,-5],[47,22],[138,118],[40,-1],[41,-11],[28,16],[51,13],[70,-2]],[[5206,3314],[184,-71],[33,0],[51,28],[140,56],[34,1],[89,33],[25,15],[150,54],[99,2],[29,-20],[41,14],[28,25],[19,-1],[66,-34],[41,9],[173,-3],[-2,-6],[-5,-246],[-8,-147],[190,4],[-3,-115],[7,-90],[-12,-76],[-6,-214],[251,8],[17,-4],[0,54],[-12,56],[-13,20],[25,23],[48,22],[16,19],[35,-2],[44,31],[39,-19],[35,-41],[36,-18],[33,3],[62,15],[29,28],[34,12],[58,35],[57,9],[41,17],[52,32],[74,24],[31,6],[-9,56],[-16,47],[-4,65],[-23,42],[809,4],[-12,23],[0,63],[5,15],[-10,76],[9,19],[-17,42],[-46,44],[-56,37],[-51,20],[-29,-14],[-16,-21],[-30,-20],[-82,3],[-39,20],[-9,22],[-31,27],[-63,41],[-4,70],[-12,22],[-3,38],[16,36],[26,25],[-31,19],[-30,43],[-21,13],[-26,30],[-16,1],[-77,50],[-43,18],[-94,-8],[-75,10],[-41,-13],[-26,-23],[-135,-138],[-5,35],[-17,37],[-16,6],[-26,37],[-26,8],[-21,20],[-54,14],[-47,1],[14,27],[3,32],[-25,178],[-13,32],[-21,19],[-112,68],[-6,7]],[[6877,4187],[-12,25],[5,35],[31,72],[10,39],[-1,41],[-8,38],[4,42]],[[6906,4479],[17,12],[23,72],[-13,54],[-5,60],[-1,135]],[[6927,4812],[58,28],[47,0],[15,9],[55,-10],[-2,24],[33,38],[20,-3],[43,20],[38,39],[44,-1],[75,13],[41,-25],[29,15],[27,-16],[6,-23],[20,-17],[22,9],[9,30],[91,19],[20,-7],[3,-47],[7,-18],[39,-53],[11,-34],[3,-41],[53,19],[23,-15],[-8,-76],[10,-24],[23,-3],[19,-22],[31,-10],[1,-34],[15,-17],[34,16],[42,6],[38,-24],[47,16],[27,-6],[29,6],[32,41],[50,33],[46,18],[24,19],[64,26],[42,-11],[74,4],[21,4],[43,-8],[39,29],[15,23],[27,17],[26,49],[33,35],[4,46],[21,24],[44,12],[43,-14],[22,4],[34,19],[36,-9],[35,11],[54,-27],[42,-10],[23,-22],[18,-60],[25,-40],[22,-15],[60,-21],[37,-30]],[[9121,4740],[-11,-405],[-14,-920],[-24,-781],[-34,-1474],[-20,-1160],[-185,8],[-381,27],[-109,0],[-152,2],[-781,6],[-344,1],[-255,3],[-33,-2],[-136,0],[-702,5],[-78,-8],[-1211,12],[-922,-1],[-311,7],[-145,23],[-650,4],[-69,5],[-42,-5],[-52,8],[-58,1],[-32,-5],[-498,10],[-290,13],[-711,-5],[-1,2],[-187,0],[-683,22],[6,31],[7,556],[0,82],[5,135],[7,679],[10,383],[6,282],[0,222]],[[3221,2399],[-15,67],[11,22],[-36,12],[-19,15],[-42,1],[-16,14],[-3,23],[-55,37],[1,46],[22,89],[19,37],[17,16],[-10,80],[1,35],[-46,0],[0,136],[230,105],[66,16],[151,-3],[333,-5],[127,-5],[256,-51],[31,-2],[86,9]],[[219,11019],[17,4],[125,-3],[20,138],[46,140],[32,54],[226,288],[43,69],[77,188],[43,61],[39,33],[27,35],[20,43],[28,34],[77,37],[23,22],[62,85],[29,19],[79,9],[127,37],[17,9],[42,55],[57,10],[38,29],[30,7],[51,-12],[39,1],[100,35],[26,17],[16,38],[15,18],[48,12],[16,14],[9,25],[-23,78],[0,31],[40,52],[7,20],[-1,66],[23,53],[46,58],[15,38],[3,48],[17,29],[54,35],[19,27],[8,26],[29,26],[94,30],[45,32],[63,97],[2,24],[-18,27],[-68,27],[60,36],[21,2],[43,-29],[55,-63],[17,-29],[6,-40],[-3,-35],[-24,-59],[-10,-13],[-10,-57],[16,-36],[1,-41],[17,-22],[54,-46],[38,-13],[92,-8],[85,16],[21,11],[27,-5],[80,-45],[56,29],[4,31],[35,55],[45,19],[41,-27],[11,-25],[28,-27],[35,-52],[12,-28],[75,-4],[58,-34],[20,3],[41,34],[21,38],[14,61],[37,49],[25,25],[34,1],[49,-17],[47,-29],[27,-32],[29,-84],[6,-54],[19,-40],[1,-73],[8,-55],[24,-35],[31,-31],[43,-12],[49,-48],[11,-42],[13,-25],[38,0],[34,13],[60,58],[31,21],[53,10],[33,-29],[10,-30],[-11,-61],[-15,-21],[-63,-49],[0,-25],[26,-14],[15,-42],[-48,-48],[-45,-19],[-22,-16],[-29,5],[-28,31],[-89,65],[-39,1],[-31,-8],[-50,-37],[-54,-12],[-25,-27],[-2,-33],[15,-39],[1,-56],[-7,-74],[9,-25],[92,-104],[23,-12],[47,-9],[47,-19],[98,-15],[43,1],[13,-13],[18,-40],[1,-16]],[[3902,11801],[-17,11],[-29,-29],[-40,-81],[0,-17],[-43,-68],[-34,-79],[-4,-40],[3,-70],[11,-58],[-4,-58],[33,-22],[74,-59],[10,-16],[47,-10],[50,-73],[27,-78],[17,-94],[23,-41],[-1,-57],[-53,-112],[-30,-45],[3,-45],[-6,-23],[-35,-32],[-28,-19],[-3,-53],[-17,-23],[-30,-28],[-33,-18],[25,-13],[23,-37],[-6,-30],[24,-25],[0,-18],[-40,1],[-10,-17],[-97,-20],[-19,6],[-36,-2],[-24,-23],[-25,-37],[2,-42],[24,-34],[-39,-5],[-19,-10],[21,-39],[-23,-18],[-35,-49],[-31,-12],[-42,-66],[-13,-46],[-18,-41],[-126,-11],[-40,-41],[-11,-68],[-10,-21],[-75,-62],[-57,-34],[-18,-17],[-8,-27],[43,-8],[48,6],[9,-25],[-8,-21],[-6,-52],[16,-66],[0,-19],[-23,-52],[-45,-52],[-60,-30],[-20,-23],[6,-51],[-9,-60],[3,-36],[10,-16],[48,-19],[76,-52],[19,-16],[49,-57],[56,-55],[63,-3],[-2,-16],[-124,-138],[-51,-52],[-58,-24],[-112,-23],[-38,-29],[-199,-180],[-17,-19],[-25,-50],[-6,-47],[-1,-81],[-20,-56],[-41,-64],[-14,-32],[-38,-137],[-17,-38],[-24,-26],[-32,-18],[-113,-26],[-13,-18],[4,-20],[45,-55],[30,-56],[53,-172],[19,-34],[44,-41],[117,-87],[30,-25],[96,-94],[21,-17],[42,-12],[176,-4],[0,-90],[-8,-131],[25,-61],[-8,-14],[14,-29],[-23,-48],[9,-25],[-15,-24],[12,-20],[-23,-61],[14,-34],[-10,-25],[-30,-13],[-4,-26],[13,-31],[30,-36],[53,-20],[27,-27],[14,-32]],[[3187,6461],[-2,-21],[13,-38],[-26,-40],[1,-40],[20,-32],[25,-20],[80,-43],[23,-36],[-4,-30],[-25,-48],[-31,-24],[-49,0],[-92,-7],[-100,-22],[-50,9],[-48,36],[-37,15],[-35,23],[-14,20],[-30,18],[-33,-18],[-3,-40],[14,-53],[-8,-20],[4,-31],[14,-10],[9,-42],[-13,-17],[3,-21],[25,-32],[18,-77],[20,-54],[18,-25],[32,-11],[105,1],[33,-26],[3,-25],[-29,-26],[-54,-31],[-45,-32],[-25,-49],[-45,-28],[0,-46],[-12,-18],[-47,-46],[-37,-30],[-13,-23],[-4,-39],[8,-79],[11,-29],[-13,-29],[-60,-19],[-61,14],[-48,-5],[-54,31],[-25,35],[-46,24],[-48,-8],[-39,-49],[9,-53],[11,-12],[5,-36],[-6,-45],[-19,-32],[-33,-24],[-32,-3],[-49,53],[-30,12],[-15,22],[-31,-13],[-8,-36],[9,-46],[5,-92],[-11,-25],[-21,-21],[-79,-1],[-41,-17],[-46,5],[-61,-76],[-16,-68],[-1,-48],[-13,-23],[-28,-1],[-25,-12],[-40,-5],[-11,-10],[-81,-18],[-21,-22],[-9,-24],[19,-26],[1,-30],[-17,-21],[-55,34],[-35,10],[-71,-1],[-34,-34],[-43,-14],[-29,-32],[-47,-65],[-28,0],[-60,42],[-24,7],[-68,-20],[-21,4],[-36,-25],[-10,-25],[7,-50],[-13,-28],[-55,-25],[-15,24],[22,29],[8,45],[-8,11],[-59,28],[-45,7],[-31,-18],[-15,1],[-49,-18],[-28,6],[-7,30],[8,25],[-1,95],[-36,10],[-49,-22],[-24,-17],[-21,-26],[-68,-12],[-45,22],[-62,21],[-6,24],[4,35],[15,26],[-6,37],[-12,13],[-53,26],[-54,32],[-15,-2],[-22,-26],[8,-31],[29,-17],[21,-41],[-6,-32],[-13,-16],[-53,-23],[-48,3],[-58,-46],[-38,-22],[-25,0],[-53,43],[-12,47],[2,66],[-14,46],[-32,28],[-32,10]],[[56,4649],[0,107],[4,96],[3,148],[-1,91],[3,7],[-2,221],[5,168],[3,635],[3,322],[8,463],[0,3],[12,830],[1,358],[3,71],[3,237],[4,86],[0,117],[9,307],[2,161],[13,578],[6,281],[81,0],[-1,93],[-5,80],[0,85],[-3,137],[12,688]],[[6927,4812],[-4,91],[30,100],[-7,54],[42,49],[16,47],[3,44],[23,62],[18,38],[13,47],[-16,44],[-17,120],[-13,48],[-24,39],[-8,26],[-38,39],[-5,25],[-30,28],[-22,48],[-10,41],[-28,25],[-8,27],[3,110],[-5,24],[5,38],[-42,56],[-23,44],[12,69],[26,26],[16,38],[-1,17],[21,9],[10,29],[18,22],[4,45],[-26,1],[-20,34],[27,103],[34,12],[32,31],[-1,17],[20,46],[-7,11],[-30,8],[-9,24],[-1,33]],[[7088,7234],[35,37],[23,61],[-15,24],[-40,35],[8,20],[46,54],[7,31],[18,33],[39,16],[-11,34],[13,24],[3,35],[27,19],[19,-10],[20,31],[7,28],[50,8],[8,12],[16,73],[31,18],[10,54],[100,2],[16,-9],[39,-5],[15,9],[6,30],[-36,108],[-2,54],[15,29],[0,38],[12,27],[26,30],[32,7],[43,-21],[16,-20],[42,-24],[30,-11],[23,5],[41,46],[39,34],[21,43],[-3,21],[8,82],[-29,46],[2,21],[-17,25],[-38,-9],[-21,-26],[-46,-28],[-30,-6],[-56,-26],[-25,2],[-41,45],[-4,22],[-38,76],[-18,45],[-14,16],[-42,19],[-45,11],[-55,-24],[-22,-24],[-73,-38],[-21,-3],[-41,13],[-21,13],[-30,31],[-26,40],[-26,69],[3,67],[-18,20],[-16,48],[-39,33],[-46,65],[-16,66],[-23,30],[-31,71],[-2,69],[35,23],[76,4],[8,8],[30,95],[15,57],[18,37],[20,23],[72,-2],[66,35],[5,31],[-15,59],[24,36],[54,12],[70,32],[12,39],[33,38],[52,10],[51,45],[5,24],[-33,53],[-6,33],[5,164],[8,40],[-17,32],[-21,7],[-86,-2],[-33,-9],[-33,-17],[-22,-2],[-25,20],[-22,-9],[-14,-33],[-36,-17],[-40,10],[-74,-11],[-47,-2],[-87,8],[-36,11],[-22,-6],[-28,-29],[-4,-55],[9,-24],[43,-60],[44,-24],[14,-34],[-1,-24],[-21,-28],[-50,-44],[-14,-2],[-40,22],[-33,43],[-27,60],[-52,57],[-71,5],[-19,-7],[-35,-42],[-37,-32],[-28,-43],[-38,-42],[-12,1],[-48,-37],[-72,-10],[-21,37],[-17,15],[11,36],[1,95],[-9,72],[0,41],[29,79],[13,48],[6,44],[-10,54],[-13,11],[-56,-8],[-49,21],[-11,10],[-22,71],[-2,33],[-21,58],[-39,7],[-24,35],[-19,98],[-33,47],[-46,51],[-61,15],[-50,-5],[-74,-21],[-42,5],[-159,-15],[-41,-10],[-53,-2],[-22,31],[-47,23],[-52,3],[-32,-9],[-34,5],[-23,19],[-6,24],[-59,70],[-27,16],[-20,40],[-2,56],[-22,54],[-28,22],[-25,29],[-25,13],[-43,34],[-45,49],[-17,45],[4,95],[-16,64],[-31,31],[-3,63],[7,42],[15,23],[11,57],[-1,50],[-34,71],[-7,51],[9,32],[-24,49],[-39,39],[-38,22],[-36,-7],[-30,-28],[-87,-60],[-32,20],[-10,46],[-28,77],[-7,46],[-20,29],[-45,-5],[-41,-20],[-45,1],[-25,9],[-37,0],[-37,22],[-61,51],[-39,-11],[-38,-34],[-26,-40],[-1,-35],[20,-52],[-1,-26],[-17,-30],[-30,-7],[-35,18],[-28,1],[-24,-35],[-87,-40],[-59,-6],[-42,70],[-22,4],[-27,34],[-3,22]],[[219,11019],[2,107],[2,271],[-1,47],[1,308],[4,305],[-5,181],[3,346],[3,711],[5,708],[5,687],[157,-5],[288,-5],[228,-7],[32,-3],[76,1],[125,-4],[292,-7],[408,-8],[400,-12],[635,-17],[344,-8],[204,-6],[93,0],[226,-12],[238,-7],[43,-5],[314,1],[354,-20],[90,-4],[288,8],[116,3],[255,-1],[126,-2],[334,-2],[294,-8],[101,-4],[337,-9],[235,-4],[755,-18],[133,-4],[642,-18],[375,-8],[201,-4],[1023,-17],[-1,-386],[-4,-768],[-12,-1230],[6,-1],[-4,-401],[367,8],[-3,-307],[0,-125],[-8,-631],[-8,-517],[574,-10],[116,-4],[60,2],[-2,-296],[1,-98],[-44,0],[-1,-125],[-14,-981],[389,-8],[2,111],[122,-2],[270,0],[-2,-144],[-4,-185],[-4,-338],[-3,-124],[378,93],[-4,-165],[-5,-240],[335,85],[105,24],[321,72],[-12,-569],[-5,-226],[319,75],[59,16],[-21,-504],[3,-194],[1,-223],[-3,-266],[2,-118],[-4,-1],[-375,-53],[-635,2],[14,-65],[4,-58],[9,-20],[-147,12],[-315,-54],[-59,-9],[-395,1],[-2,-71],[-319,7],[-268,10],[-414,11],[-495,16],[-236,4],[-320,7],[-174,3],[-6,-426],[-8,-350]],[[5206,3314],[75,19],[24,47],[26,28],[14,46],[14,14],[43,16],[15,21],[2,67],[44,51],[49,87],[22,24],[86,41],[23,1],[16,14],[15,34],[66,-1],[97,4],[30,15],[30,37],[55,46],[19,57],[13,14],[106,32],[83,61],[19,19],[6,41],[10,13],[62,45],[24,5],[29,-8],[68,41],[33,-2],[16,-38],[48,-60],[14,-6],[87,-6],[196,41],[44,-13],[48,26]],[[3187,6461],[41,45],[25,13],[88,1],[29,-36],[13,-3],[30,-33],[35,-53],[22,-20],[39,-18],[17,-16],[42,16],[47,39],[11,29],[-3,41],[-20,66],[0,18],[-27,60],[1,38],[9,7],[8,47],[14,38],[49,28],[19,2],[28,-25],[49,-15],[19,-11],[4,-40],[-16,-51],[-6,-51],[17,-37],[20,-6],[20,-47],[28,-31],[10,-33],[-1,-270],[39,2],[8,-10],[2,-92],[16,-33],[36,-16],[38,3],[25,-16],[52,-17],[24,-38],[46,-5],[26,13],[10,21],[29,14],[13,34],[23,6],[47,-19],[29,-3],[31,21],[232,1],[138,15],[50,-12],[27,-45],[3,-20],[36,-46],[48,-24],[12,-28],[38,6],[46,18],[73,-18],[8,5],[4,50],[36,11],[39,0],[22,18],[11,45],[-10,16],[45,5],[16,10],[19,-32],[29,-20],[14,-23],[22,-98],[43,-8],[0,-40],[19,-12],[46,-70],[-3,-18],[24,-60],[34,-57],[29,-22],[30,-9],[-2,-49],[31,-31],[2,-35],[44,-11],[17,-15],[24,-51],[16,-61],[38,4],[22,-42],[29,-40],[22,0],[20,19],[52,35],[22,23],[41,28],[31,30],[31,-1],[48,-16],[33,0],[30,12],[28,-2],[25,33],[39,6],[48,-23],[69,12],[35,-10],[44,22],[29,-34],[7,-18],[10,-82],[22,-22],[32,-12],[22,-18],[9,-22],[-3,-125],[17,-37],[46,-28],[33,-30],[83,-28],[27,-31],[208,-331],[10,-24],[2,-36],[-9,-36]],[[41,2503],[1,226],[-1,172],[7,266],[-5,135],[8,695],[0,374],[1,196],[4,82]]],"transform":{"scale":[0.000048269120746763663,0.00003668304969366915],"translate":[-91.658111,36.883857]},"objects":{"Geometry\\29-203":{"type":"GeometryCollection","geometries":[{"arcs":[[0,1]],"type":"Polygon","properties":{"GEOID":"292034701004"}},{"arcs":[[2,3,4,5,6,7,8,9]],"type":"Polygon","properties":{"GEOID":"292034702001"}},{"arcs":[[-4,10]],"type":"Polygon","properties":{"GEOID":"292034702002"}},{"arcs":[[11,12,13,14]],"type":"Polygon","properties":{"GEOID":"292034701003"}},{"arcs":[[-9,15,-1,16,-12,17]],"type":"Polygon","properties":{"GEOID":"292034701001"}},{"arcs":[[-6,18]],"type":"Polygon","properties":{"GEOID":"292034702004"}},{"arcs":[[-14,19,-7,-19,-5,-11,-3,20]],"type":"Polygon","properties":{"GEOID":"292034702003"}},{"arcs":[[-17,-2,-16,-8,-20,-13]],"type":"Polygon","properties":{"GEOID":"292034701002"}}]}}}