{"type":"Topology","arcs":[[[13164,33120],[9,-17],[-3,-276],[-31,-11],[-54,-7],[-41,-12],[-117,-50],[-33,-40],[-12,-134],[-32,-104],[0,-38],[-19,-23],[-5,-58],[-24,-70],[-3,-40],[24,-71],[4,-32],[-11,-51],[6,-43],[-6,-26],[-62,-74],[-35,-73],[-18,-64],[-23,-46],[-18,-59],[2,-56],[-21,-55],[0,-33],[11,-64],[17,-45],[5,-55],[-4,-56],[15,-36],[6,-55],[11,-41],[23,-43],[-13,-40],[17,-99],[-2,-38],[10,-45],[-7,-54],[8,-21],[31,-32],[7,-45],[59,-76],[34,-31],[26,-12],[62,-46],[4,-21],[22,-15],[42,-59],[54,-55],[69,-45],[44,-50],[93,-25],[83,-32],[42,-21],[88,-24],[57,-9],[73,-3],[108,-22],[71,-8],[61,-23],[89,-22],[93,-15],[28,-24],[72,9],[54,36],[59,18],[65,1],[104,-29],[73,-14],[63,-1],[38,8],[77,1],[44,-4],[37,-11],[82,-4],[46,5],[19,9],[133,2],[49,-4],[154,2],[53,-8],[91,-32],[101,13],[96,-28],[60,11],[25,18],[71,-11],[82,3],[57,-33],[58,-41],[62,1],[95,9],[45,-19],[83,-1],[119,-13],[61,3],[55,-25],[82,-6],[32,-19],[17,-24],[54,-24],[34,-30],[65,-37],[53,11],[74,-24],[37,14],[49,2],[34,12],[70,37],[17,-1],[61,-37],[41,-7],[35,-21],[38,-36],[26,-9],[59,-50],[72,-41],[119,-40],[48,-29],[38,-2],[8,-14],[133,12],[212,-47],[45,-4],[44,5],[87,32],[24,-32],[15,-38],[25,-8],[44,-47],[97,-71],[-21,-58],[-29,-108],[28,-113],[3,-130],[-12,-80],[-2,-79],[19,-72],[-12,-138],[9,-85],[-9,-71],[-10,-40],[4,-27],[-5,-84],[-25,-134],[-1,-83],[-17,-103],[-63,-80],[-28,-48],[-26,-85],[-13,-63],[-10,-118],[0,-110],[136,-285],[108,-24],[144,-43],[77,-10],[28,5],[30,-8],[150,-58],[84,-25],[40,-25],[63,-27],[40,-39],[116,-41],[269,-130]],[[19415,26829],[120,-58],[351,-164],[430,-214],[22,-5],[218,-110],[465,-224],[5,-49],[-6,-59],[28,-37],[11,-31],[19,-17],[8,-34],[31,-34],[-5,-37],[43,-60],[22,-15],[89,-36],[32,-21],[60,-56],[12,-19],[37,-14],[64,-52],[60,-14],[91,-74],[72,-42],[35,-15],[35,-45],[36,-24],[55,-24],[23,-28],[-38,-29],[-18,-29],[-58,-51],[-27,-39],[-15,-59],[6,-47],[-12,-39],[-39,-32],[-11,-34],[-42,-45],[-26,-18],[-29,-42],[-22,-19],[-47,-15],[-15,-27],[-34,-25],[-39,-43],[-49,-41],[-58,-17],[-39,-34],[-82,-46],[-63,-25],[23,-20],[73,-10],[42,-33],[64,-40],[46,-16],[21,0],[84,-18],[154,-55],[102,-48],[81,-46],[43,-20],[72,-22],[272,-209],[288,126],[25,-18],[68,-29],[80,-5],[48,6],[49,16],[32,3],[47,-18],[46,-28],[28,-36],[32,-25],[53,-24],[93,31],[87,25],[94,18],[45,2],[32,15],[73,18],[3,16],[31,5],[40,36],[32,12],[73,-8],[35,11],[26,27],[31,-2],[50,10],[71,32],[84,28],[62,36],[44,16],[51,26],[30,35],[31,13],[64,11],[27,14],[43,40],[61,9],[84,38],[10,30],[54,17],[16,16],[33,0],[24,30],[66,-4],[54,8],[46,-18],[39,16],[40,-5],[52,9],[10,17],[44,5],[22,-9],[40,18],[22,-26],[50,5],[40,-17],[31,50],[41,14],[62,10],[27,27],[31,19],[40,0],[38,-14],[20,-31],[1,-29],[19,-15],[1,-61],[29,-12],[2,-17],[36,-53],[36,18],[31,-5],[21,23],[30,-3],[23,48],[7,44],[-5,28],[51,6],[14,26],[48,23],[25,23],[19,40],[24,19],[-3,31],[33,2],[15,51],[17,-1],[31,-35],[18,-36],[53,12],[12,26],[52,51],[45,-8],[87,21],[29,-8],[11,-18],[-6,-44],[58,-22],[47,57],[33,19],[138,20],[25,-2],[31,-17],[30,-70],[25,-14],[134,-25],[161,3],[29,11],[68,55],[73,38],[63,16],[80,31],[21,0],[59,42],[63,33],[25,5],[105,-7],[-120,-61],[-33,-48],[-26,-86],[25,-43],[-2,-21],[-20,-39],[-14,-102],[1,-55],[15,-56],[-2,-67],[8,-36],[26,-69],[9,-141],[-7,-54],[-26,-113],[2,-48],[32,-90],[30,-51],[76,-82],[64,-113],[15,-56],[-11,-44],[-59,-111],[-42,-57],[-48,-53],[-16,-55],[-7,-60],[-21,-56],[26,-70],[65,-104],[-2,-31],[-17,-37],[-14,-74],[15,-44],[28,-62],[30,-104],[5,-38],[-5,-37],[5,-89],[32,-57],[-9,-91],[-19,-17],[-36,-9],[-10,-74],[13,-45],[-11,-40],[-8,-66],[48,-113],[-29,-55],[-20,-58],[21,-196],[2,-45],[-11,-115],[-29,-39],[-122,-81],[-55,-31],[-36,-28],[-70,-68],[-46,-10],[-30,-23],[-38,-14],[-157,-163],[-24,-39],[-21,-20],[-33,-12],[-31,-30],[-9,-64],[-18,-23],[-51,-16],[5,-34],[-8,-61],[10,-59],[-1,-49],[-12,-51],[16,-86],[113,-215],[20,-19],[47,-14],[45,-22],[36,-31],[154,-170],[29,-66],[48,-60],[27,-78],[33,-44],[54,-44],[37,-48],[92,-68],[53,-34],[110,-33],[31,-18],[18,-102],[22,-40],[74,-65],[23,-37],[45,-50],[63,-83],[18,-29],[38,-95],[47,-73],[48,-29],[35,-67],[43,-55],[48,-53],[10,-28],[36,-31],[23,-46],[87,-103],[26,-60],[83,-102],[39,-88],[24,-43],[10,-35],[-12,-48]],[[28382,18028],[-25,-31],[-12,-29],[0,-77],[-17,-40],[-87,-129],[-41,-23],[-44,-42],[-41,-26],[-28,-8],[-75,4],[-67,-23],[-29,-15],[-266,-177],[-89,-55],[-79,-83],[-91,-106],[-101,-76],[-158,-109],[-80,-62],[-133,-106],[-313,-244],[-17,-10],[-45,-1],[-186,52],[-61,-4],[-58,-23],[-386,-161],[-298,-123],[-202,-85],[-35,-24],[-84,-74],[-21,-40],[-58,-6],[-23,-37],[-32,-16],[-12,-18],[-2,-48],[-42,-52],[-29,-24],[-37,6],[-8,19],[-44,23],[-42,43],[13,53],[18,40],[-12,44],[10,32],[3,89],[53,43],[13,21],[24,-7],[32,47],[-21,36],[3,14],[-32,29],[-21,43],[-21,11],[0,40],[-19,54],[-33,37],[-2,13],[-46,25],[-31,25],[-60,26],[-31,5],[-58,31],[-34,44],[-27,13],[-98,-3],[-56,27],[-61,-11],[-41,10],[-48,-5],[-57,75],[-47,29],[-97,-15],[-46,9],[-45,31],[-45,22],[-39,31],[-87,49],[-28,8],[-48,32],[-85,30],[-44,41],[-58,11],[-21,20],[-42,6],[-25,18],[-56,4],[-55,15],[-34,29],[-46,22],[-24,65],[-54,71],[-52,40],[-27,-1],[-68,46],[-72,43],[-53,67],[-24,47],[-55,47],[-50,17],[-48,8],[-57,3],[-66,-11],[-56,15],[-53,79],[-73,117],[-47,65],[-25,17],[-50,50],[-20,28],[-72,48],[-78,65],[-26,17],[-40,42],[-104,77],[-30,14],[-93,13],[-59,21],[-83,7],[-90,-17],[-63,-26],[-74,-8],[-72,8],[-60,22],[-87,51],[-96,28],[-42,3],[-81,27],[-52,-18],[-35,-37],[-57,-19],[-41,-22],[-38,-91],[-32,-18],[-62,13],[-45,1],[-46,23],[-41,-7],[-24,18],[-32,-10],[-18,27],[-27,15],[-81,29],[-24,30],[-19,-1],[-53,28],[-38,41],[-54,21],[-34,0],[-39,10],[-36,27],[-22,4],[-34,-12],[-24,25],[-38,-6],[-35,10],[-37,0],[-6,15],[-29,5],[-27,-19],[-71,18],[-41,1],[-24,14],[-15,25],[-51,29],[-85,58],[-18,27],[-31,11],[-51,2],[-24,10],[-11,40],[-55,-26],[-37,-55],[-119,-10],[-52,-1],[-42,6],[-82,26],[-60,6],[-47,-15],[-72,-43],[-59,-13],[-57,-31],[-28,-28],[-92,-56],[-76,-5],[-79,1],[-6,-14],[-11,-125],[-28,-43],[-13,-70],[-22,-59],[-36,-51],[-50,-41],[-71,-115],[21,-11],[-51,-94],[-44,-65],[-19,-51],[0,-101],[-4,-26],[-22,-40],[-96,-116]],[[18061,17517],[-80,4],[-87,12],[-48,41],[-49,82],[1,14],[-24,28],[-70,34],[-32,40],[-38,11],[-26,22],[-51,71],[-42,38],[-44,20],[-22,-3],[-72,37],[-306,105],[-109,104],[-194,59],[-323,-17],[-312,145],[-93,23],[-16,24],[-62,12],[-49,53],[-33,20],[-62,26],[-38,7],[-39,25],[-37,40],[-53,39],[-34,17],[-75,23],[-15,-19],[-225,-4],[-198,-19],[-167,-17],[-271,5],[-141,-33],[-96,-32],[-304,-89],[-500,-152],[20,-22],[20,6],[83,-82],[-72,-41],[-35,-14],[-128,-31],[-63,-29],[-129,-73],[-306,-146],[-357,-168],[-65,22],[-97,40],[-69,54],[-56,19],[-43,30],[-44,13],[-341,232],[-262,359],[-36,17],[-29,29],[-139,84],[-57,14],[-81,4],[-219,-1],[-52,-25],[-9,-21],[-59,-42],[-35,53],[-8,-23]],[[10957,18571],[-30,38],[-29,17],[-66,16],[-73,43],[-104,25],[-75,26],[-28,21],[-37,43],[-65,31],[-58,13],[-87,40],[-24,22],[-14,38],[-61,45],[-61,21],[-44,2],[-68,20],[-112,53],[-214,120],[-44,30],[-49,41],[-35,13],[-137,-29],[-67,-7],[-53,5],[-47,10],[-55,20],[-57,13],[-33,-2],[-184,15],[-85,21],[-100,17],[-41,-1],[-45,8],[-93,-17],[-85,7],[-53,-2],[-74,11],[-108,1],[-27,-11],[-80,-5],[-63,3],[-50,-7],[-97,-4],[-59,18],[-31,19],[-113,51],[-82,6]],[[7660,19429],[-52,9],[-79,28],[-59,8]],[[7470,19474],[19,58],[3,61],[-7,89],[-1,61],[-14,43],[29,69],[12,50],[12,94],[6,76],[12,86],[-15,43],[-21,143],[1,49],[11,21],[31,17],[81,15],[40,19],[39,56],[12,36],[22,35],[31,27],[103,34],[13,32],[-8,48],[4,67],[43,73],[50,46],[3,60],[9,49],[-34,-7],[-11,-52],[-28,-19],[-34,-1],[-53,-31],[-39,-43],[-43,-8],[-88,-7],[-53,-45],[-53,7],[-21,30],[-19,61],[-122,21],[-82,-3],[-32,15],[-33,43],[-36,-7],[-35,16],[-24,43],[-68,0],[-46,25],[-24,48],[2,40],[33,-32],[39,12],[23,55],[3,25],[-18,18],[3,26],[-17,37],[-2,44],[70,-11],[31,15],[8,21],[0,65],[-16,17],[-58,15],[-18,22],[40,23],[32,33],[4,22],[38,37],[-47,13],[-13,15],[-13,52],[6,88],[16,15],[-5,30],[-17,18],[-72,23],[-37,28],[-15,71],[32,-9],[-25,72],[45,35],[4,27],[74,12],[107,49],[44,29],[53,76],[82,25],[47,30],[53,55],[60,100],[51,51],[50,58],[54,83],[-13,29],[-42,47],[-30,50],[-24,78],[8,113],[-9,59],[-35,67],[-43,34],[-39,22],[-32,28],[-25,49],[-3,67],[-11,21],[-27,8],[-16,18],[-12,42],[-2,82],[-17,56],[-27,51],[-7,61],[-33,92],[-86,82],[-23,3],[-44,-12],[-44,-1],[-83,42],[-56,-2],[-34,13],[-13,20]],[[6921,23866],[-19,30],[-35,26],[-41,2],[-48,12],[-58,43],[-37,46],[-60,117],[-78,96],[-91,153],[-21,53],[-14,55],[-37,62],[-50,70],[-41,45],[-37,32],[-46,24],[-32,1],[-6,42],[-60,166],[139,144],[129,149],[90,85],[13,53],[-16,67],[-1,36],[-10,51],[-74,81],[-110,96],[-22,12],[-6,83],[27,82],[26,50],[14,44],[55,57],[36,50],[56,52],[68,7],[39,20],[36,52],[54,26],[23,51],[75,96],[54,46],[61,74],[-3,29],[8,75],[18,19],[24,3],[22,-17],[33,8],[41,52],[29,-37],[47,-10],[74,-30],[45,-27],[31,-78],[41,-57],[-25,-43],[-2,-38],[-13,-22],[8,-50],[28,-36],[20,-8],[18,14],[38,10],[14,-20],[53,-41],[52,25],[27,-40],[25,-20],[26,-3],[33,-46],[56,-21],[74,-41],[26,-20],[66,-6],[35,-22],[123,3],[98,-47],[73,7],[53,-12],[16,-16],[8,-66],[63,-25],[19,-39],[1,-58],[-20,-75],[32,-74],[-4,-28],[9,-25],[-17,-76],[54,-69],[13,-43],[3,-43],[-26,-57],[-2,-18],[27,-26],[22,-97],[63,-52],[74,4],[60,-14],[41,-31],[35,-63],[48,-38],[41,-5],[73,-24],[28,-16],[20,-37],[25,-10],[-2,-40],[36,-21],[33,37],[22,-1],[37,-23],[36,-11],[32,-27],[59,0],[21,-18],[3,-38],[45,-56],[50,-22],[43,-11],[21,-18],[98,-55],[36,-48],[103,-80],[81,-21],[41,-1],[17,13],[55,-5],[45,-28],[48,18],[135,34],[120,-7],[52,-21],[47,19],[127,-55],[21,8],[29,60],[37,18],[39,-1],[40,-19],[54,-49],[26,-16],[68,-22],[56,9],[-20,23],[15,18],[167,22],[28,-4],[-46,51],[-24,37],[-16,58],[-30,151],[-1,16],[25,218],[-1,30],[-33,120],[-38,87],[-19,29],[-47,32],[-57,53],[-22,28],[-99,68],[-31,34],[-36,20],[-49,-18],[-38,19],[-20,35],[-53,16],[-74,63],[-28,36],[-36,60],[-54,77],[-21,19],[19,28],[1,53],[-8,24],[6,22],[-12,50],[10,33],[-12,36],[4,25],[-3,58],[-15,24],[-4,47],[-18,33],[7,45],[11,28],[-4,64],[17,46],[-15,60],[-27,14],[-33,65],[-9,39],[5,18],[-6,52],[-14,62],[-4,72],[-14,60],[8,36],[-2,59],[7,31],[17,27],[6,43],[28,32],[10,90],[-12,56],[-19,39],[19,43],[71,22],[26,-15],[64,-22],[98,-1],[90,15],[129,39],[55,12],[32,44],[15,50],[29,52],[27,29],[59,51],[19,28],[17,50],[41,184],[17,50],[29,35],[130,124],[85,42],[94,36],[112,97],[31,31],[71,101],[53,124],[42,68],[26,20],[32,10],[187,-10],[30,45],[63,81],[22,38],[16,44],[6,42],[-13,97],[-23,92],[-8,68],[-12,36],[-40,84],[-24,100],[-36,118],[-2,60],[19,105],[23,95],[74,12],[33,17],[29,39],[22,64],[48,45],[56,77],[-17,130],[-13,72],[17,68],[108,150],[-26,49],[-64,109],[-22,80],[5,29],[-5,53],[-45,87],[-52,109],[1,29],[13,45],[46,54],[16,28],[60,135],[61,192],[64,134],[109,151],[19,116],[31,144],[-2,244],[1,44],[35,90],[27,46],[67,47],[48,22],[32,30],[44,63],[67,146],[29,45],[50,59],[39,60],[30,62],[62,77],[88,83],[133,96],[93,57],[39,13],[27,-4]],[[18061,17517],[-21,-31],[-22,-16],[-24,-40],[-9,-33],[-33,-69],[12,-71],[53,-122],[30,-36],[58,-95],[23,-47],[54,-60],[45,-73],[13,-48],[-6,-64],[-59,-115],[-37,-43],[-55,-42],[-21,-6],[-22,-25],[-26,-13],[-53,-13],[-134,-14],[-38,-7],[-83,15],[-39,16],[-33,61],[-25,15],[-51,14],[-34,-2],[-50,15],[-31,-2],[-58,-20],[-35,-6],[-87,0],[-49,-6],[-91,-20],[-57,-36],[-62,-32],[-80,-30],[-102,-32],[-23,0],[-86,-25],[-26,-13],[-76,-16],[-92,-9],[-28,12],[-52,6],[-86,23],[-119,-8],[-57,16],[-57,51],[-81,51],[-47,14],[-67,51],[-61,37],[-69,19],[-57,26],[-67,13],[-62,20],[-23,-7],[-85,29],[-27,-1],[-116,57],[-122,69],[-73,67],[-71,100],[-58,89],[-23,51],[-81,131],[-34,65],[-36,86],[-20,94],[-10,98],[-72,64],[-7,32],[20,87],[-2,122],[-21,43],[-37,53],[-46,116],[-31,116],[-15,18],[-60,29],[-100,10],[-63,13],[-38,3],[-59,-8],[-74,-17],[-60,-23],[-76,-35],[-13,-11],[-54,-21],[-38,-22],[-97,-33],[-35,-8],[-63,-5],[-135,-30],[-81,36],[-37,3],[-35,-9],[-64,-52],[-51,-32],[-87,-67],[-40,-40],[-72,-115],[-19,-35],[-54,-85],[-35,-45],[-40,-74],[-14,-60],[-7,-75],[-44,-22],[-115,-12],[-125,27]],[[12734,17416],[-77,28]],[[12657,17444],[-44,20],[-53,37],[-70,67]],[[12490,17568],[-81,67],[-29,20],[-71,27],[-55,9],[-40,13]],[[12214,17704],[-63,32],[-93,57],[-126,109],[-72,32],[-66,34],[-32,27],[-103,66]],[[11659,18061],[-55,29],[-40,9],[-83,3],[-124,-39],[-45,3],[-57,11],[-40,17],[-36,45],[-94,160],[-24,50],[-44,130],[-60,92]],[[12176,17349],[75,-66],[25,-14],[205,-88],[-3,-34]],[[12478,17147],[1,-172]],[[12479,16975],[-108,1],[0,33],[-168,1],[2,69],[-84,-1]],[[12121,17078],[3,27],[-19,48],[26,72],[2,68],[36,35],[7,21]],[[12657,17444],[-12,-25],[-47,8],[-31,-24],[-3,-25],[28,-110],[-5,-27],[-46,-95],[-63,1]],[[12176,17349],[16,52],[34,-1],[111,-48],[63,125],[17,23],[73,68]],[[10812,5951],[23,11],[41,39],[85,71],[3,43],[-9,30],[7,75],[13,87],[-26,38],[-15,35],[35,49],[55,60],[34,24],[44,49],[20,31],[8,42],[17,19],[55,29],[47,65],[59,34],[65,55],[19,22],[45,35],[29,30],[27,52],[58,55],[39,45],[7,20],[28,14],[42,38],[37,13],[10,16],[71,43],[39,57],[77,15],[34,22],[12,38],[62,38],[33,1],[37,26],[21,-1],[29,31],[35,4],[33,43],[-5,15],[25,45],[42,37],[30,42],[55,8],[16,15],[37,78],[-10,53],[39,50],[32,12],[8,32],[19,20],[2,21],[23,41],[33,16],[55,8],[19,19],[27,59],[24,29],[9,66],[17,8],[6,27],[-19,64],[33,11],[11,22],[29,16],[17,30],[-10,15],[19,21],[-2,55],[11,57],[-19,49],[40,67],[8,41],[23,12],[34,-5],[26,6],[23,21],[6,69],[-6,37],[35,45],[10,27],[29,6],[28,79],[-13,40],[47,32],[-8,25],[19,21],[35,9],[-10,21],[17,63],[-7,19],[24,14],[-3,60],[-28,19],[-6,27],[-22,40],[8,55],[-9,22],[10,23],[-25,30],[-16,70],[7,39],[20,31],[10,34],[-18,27],[0,32],[35,-6],[20,39],[9,39],[38,19],[-7,66],[34,8],[-8,69],[-19,18],[-2,45],[-13,20],[45,15],[53,29],[47,45],[4,15],[31,15],[42,35],[33,-2],[26,-22],[36,11],[28,50],[22,17],[33,56],[0,28],[21,19],[53,10],[38,-10],[18,6],[68,84],[27,-6],[28,14],[30,3],[86,50],[90,-5],[59,16],[58,61],[9,16],[69,58],[9,36],[28,12],[8,18],[-11,45],[-13,16],[6,33],[29,16],[43,45],[5,24],[-4,75],[-22,11],[-7,32],[-44,52],[-7,52],[-28,45],[-39,83],[-21,54],[-2,31],[-27,61],[-17,21],[-2,32],[-15,30],[-31,87],[-7,37],[5,50],[-2,44],[3,86],[-3,54],[94,138],[-64,495],[-19,70],[-263,561],[-19,29],[-253,297],[-49,80],[-28,64],[-130,364],[-157,438],[-11,45],[-1,62],[16,237],[26,420],[26,147],[18,208]],[[13219,15455],[61,-12],[13,-39],[33,-65],[9,-29],[23,-155],[11,-36],[24,-48],[20,-79],[0,-111],[4,-39],[20,-45],[27,-28],[102,-69],[14,11],[18,62],[15,21],[19,58],[-11,28],[15,61],[13,32],[-22,43],[5,51],[-13,11],[-2,50],[-10,14],[-61,48],[0,15],[35,24],[-14,113],[21,30],[-36,44],[5,45],[-26,53],[6,17],[43,18],[25,-2],[20,46],[-7,25],[-20,24],[-8,52],[-14,41],[4,28],[-57,37],[-19,41],[-69,61],[2,45],[-8,37],[-41,5],[-39,24],[-24,58],[0,23],[-26,21],[-13,30],[-29,4],[-15,16],[-21,47],[-29,34],[-32,12],[-32,41],[-60,29],[-28,32],[-58,41],[-17,29],[-27,23],[-25,9],[-7,32],[-32,20],[2,31],[-8,63],[-11,20],[-34,27],[21,95],[-5,33],[16,66],[-12,77],[-10,27],[-11,111],[-9,35],[-44,102],[-45,135],[14,34],[-4,46]],[[28382,18028],[13,-13],[15,-100],[13,1],[129,-33],[78,-7],[58,0],[36,-32],[21,12],[44,-16],[65,-4],[63,-56],[31,-18],[65,-49],[47,-52],[78,-48],[101,-30],[48,-27],[41,-43],[33,-80],[-4,-42],[-12,-17],[8,-23],[-18,-71],[-15,-25],[-38,-24],[-106,-87],[-1,-46],[22,-52],[3,-34],[-18,-31],[2,-39],[17,-34],[2,-32],[-18,-16],[-62,-11],[-48,-18],[-24,-50],[3,-32],[19,-26],[22,-4],[41,41],[45,2],[18,-8],[27,-42],[14,-43],[79,-2],[72,-22],[53,-9],[36,-61],[47,-32],[25,-24],[43,-21],[60,-15],[38,16],[-8,53],[18,25],[169,-73],[40,7]],[[29912,16511],[0,-873],[0,-1005],[1,-249],[-3,-251],[0,-254],[3,-497],[1,-749],[8,-493],[2,-243],[0,-255],[-487,0],[-1125,0],[-542,0],[-535,-1],[-534,0],[-486,1],[-328,-5],[-248,-1],[3,-243],[-1,-505],[-3,-253],[7,-501],[3,-253],[-5,-248],[2,-757],[4,-249],[239,-1],[0,-1193],[-15,-251],[0,-251],[1,-511],[1,-254],[0,-246],[0,-501],[-1,-1005],[-311,0],[-250,-2],[-970,1],[-1565,4],[-489,0],[0,-63],[21,-72],[26,-52],[61,-63],[23,-33],[-32,-54],[12,-73],[0,-57],[11,-33],[-3,-76],[-19,-60],[-2,-78],[-12,-32],[8,-24],[50,-23],[31,-60],[-6,-32],[15,-30],[74,-30],[46,-43],[6,-31],[31,-42],[64,-59],[50,-35],[-32,-48],[-3,-47],[-26,-91],[-47,-29],[-38,-3],[-61,-28],[-7,-31],[-22,-31],[0,-27],[29,-43],[5,-19],[-38,-32],[-10,-95],[-17,-33],[-5,-36],[-17,-24],[-1,-90],[-29,-31],[-41,13],[-32,-12],[-13,-26],[-30,-27],[-51,-11],[-45,5],[-62,58],[-9,16],[-30,122],[-20,51],[-46,93],[-14,50],[-25,16],[-48,10],[-43,49],[-27,4],[-92,-16],[-36,-3],[9,-29],[39,-59],[5,-44],[-6,-30],[15,-39],[-3,-84],[-16,-67],[-11,-86],[-22,-66],[-69,-30],[-40,1],[-67,-6],[-48,-14],[-17,-19],[-12,-40],[33,-57],[24,-25],[-14,-34],[4,-15],[48,-17],[11,-22],[-5,-24],[16,-27],[41,-41],[17,-44],[-21,-8],[-44,-47],[28,-50],[-12,-35],[21,-32],[6,-57],[-7,-34],[-40,-22],[1,-55],[-7,-21],[48,-47],[-10,-44],[-8,-98],[-38,-51],[-38,-25],[24,-46],[0,-32],[-13,-36],[-47,-57],[-47,-84],[-4,-24],[12,-41],[27,-30],[1,-26],[-47,-19],[-68,-14],[-49,-16],[-22,5],[-29,67],[-17,23],[-34,-12],[-29,-39],[16,-64],[0,-25],[-20,-10],[-28,5],[-55,-2],[-30,27],[-27,57],[-22,15],[-38,3],[-20,11],[-25,-37],[-57,-58],[-65,-54],[-54,-25],[-29,-22],[-58,0],[-29,-32],[-29,-71],[-29,-35],[-66,-27],[-35,-22],[-35,19],[-78,-3],[-80,29],[-25,20],[-30,57],[-38,20],[-59,18],[-107,62],[-53,14],[-75,2],[-7,-9],[-25,-100],[-42,-49],[15,-103],[-30,-84],[-34,-27],[-71,4],[-36,-3],[-86,-17],[-41,-15],[-25,-25],[-28,-53],[-22,-20],[-54,-17],[-13,-11],[-9,-66],[-25,-85],[-42,-27],[-16,-21],[-42,0],[-16,-21],[-1,-27],[-14,-13],[-48,-6],[-16,-18],[-20,-50],[-78,0],[-31,18],[-52,16],[-27,24],[-40,72],[-15,49],[-35,7],[-23,53],[-21,19],[-53,22],[-18,22],[-2,35],[-21,81],[-25,57],[-2,36],[-27,59],[-36,53],[-26,88],[-50,58],[-17,4],[-81,-6],[-31,14],[-94,55],[-44,37],[-28,53],[-59,58],[-55,83],[-26,18],[-61,6],[-27,-16],[-37,-72],[-38,-36],[-62,-24],[-93,-5],[-64,12],[-32,-7],[-58,-24],[-107,-22],[-54,-17],[-54,-56],[-36,-61],[-71,-45],[-20,-8],[-58,32],[-73,0],[-97,19],[-53,-19],[-33,-65],[-4,-31],[-15,-26],[-115,-49],[-17,-13],[-54,-17],[-50,-5],[-126,-35],[-22,-20],[-74,33],[-86,74],[-142,92],[-77,15],[-32,18],[-48,42],[-15,32],[-5,59],[6,79],[-35,47],[-9,28],[-15,81],[1,37],[20,62],[3,59],[11,64],[13,26],[10,57],[16,48],[-2,72],[-13,25],[-3,58],[-25,-3],[-108,-30],[-118,-16],[-32,-21],[-31,2],[-60,21],[-24,-3],[-56,-25],[-75,-2],[-16,-11],[5,-61],[-32,-43],[-8,-28],[-44,-52],[-36,-6],[-14,-21],[5,-33],[16,-21],[26,-11],[4,-81],[-17,-35],[3,-50],[21,-48],[-3,-181],[-8,-40],[-24,-45],[-26,-23],[-40,-4],[-58,32],[-30,28],[-43,-8],[-42,1],[-35,13],[-52,33],[-78,16],[-155,71],[-49,14],[-68,30],[-84,58],[-57,17],[-63,28],[-48,-43],[-46,-52],[-57,-17],[-27,-44],[0,-26],[-14,-44],[-18,-30],[-64,39],[-64,35],[-44,17],[-40,5],[-35,52],[-30,23],[-31,-1],[-16,-32],[-39,-10],[-26,-18],[-7,-23],[-27,-7],[-33,-39],[-36,-23],[-30,-6],[-10,-32],[-49,-47],[-29,-9],[-99,-8],[-19,-10],[-5,-34],[-47,-24],[-34,-5],[-72,7],[-35,-1],[-40,20],[-66,9],[-55,-8],[-111,-35],[-48,-24],[-47,0],[-82,29],[-39,45],[-8,28],[-11,70],[-30,50],[-60,7],[-30,12],[-43,29],[-35,15],[-69,50],[-28,11],[-18,29],[-47,47],[-43,1],[-25,9],[-15,24],[-44,41],[-3,31],[14,48],[-2,39],[19,94],[-6,20],[-52,100],[-73,25],[-36,27],[-46,19],[-49,41],[-14,55],[5,61],[-32,39],[-12,62],[-2,39],[10,29],[42,73],[23,29],[-6,70],[29,68],[21,75],[20,42],[37,37],[45,29],[41,34],[5,27],[-32,51],[-1,46],[64,160],[30,36],[17,86],[42,39],[6,34],[-6,41],[4,41],[-5,50],[36,93],[18,32],[6,55],[12,27],[50,45],[-3,15],[-40,27],[-17,21],[-9,52],[11,45],[-5,21],[-36,47],[0,21],[19,67],[-6,37],[-53,103],[-3,52],[-24,43],[-10,79],[-43,40],[-9,40],[-47,20],[-23,30],[-6,38],[13,69],[-36,12],[-32,46],[-9,27],[-26,39],[-63,39],[-12,25],[-29,14],[-23,35],[-19,5],[-68,41],[-67,33],[-15,22],[-43,96],[-27,49],[-19,-1],[-62,-44],[-71,-11],[-61,18],[-33,42],[-31,-3],[-51,14],[-58,28],[-24,20],[-23,42],[-41,41],[-29,74],[-48,52],[-10,21],[-13,60],[-13,19],[-56,-6],[-59,3],[-29,51],[-41,54],[-36,35],[-29,45],[-5,36],[31,60],[-7,83],[-42,4],[-28,18],[-14,30],[-38,49],[-30,10],[-29,38],[-18,44],[-51,38],[-12,44],[2,37],[38,57],[-6,35],[38,116],[10,11],[-18,114],[-29,8],[-60,39],[-64,24]],[[4284,19467],[-19,-7],[-27,-29],[-26,-48],[-10,-57],[3,-25],[44,-96],[-6,-58],[-54,-1],[-92,-22],[-31,5],[-39,-7],[-8,36],[-34,48],[-27,12],[-18,40],[-4,64],[-26,33],[-61,13],[-17,12],[-38,4],[-12,-30],[-39,-31],[-10,-28],[-3,-59],[-25,-15],[0,-64],[-37,-11],[-29,-46],[-11,-38],[-38,-8],[-29,8],[-37,-10],[-39,-64],[-32,-27],[-57,-21],[-48,-53],[-46,-20],[-48,2],[-47,-8],[-69,10],[-25,-3],[-84,13],[11,66],[-19,24],[-8,74],[-12,47]],[[3001,19092],[-4,65],[-16,33],[-20,70],[-14,133],[-18,39],[-35,131],[-30,26],[-65,32],[-93,30],[-23,51],[2,62],[17,101],[-4,19],[26,20],[7,37],[-6,55],[14,49],[-30,56],[-29,26],[10,36],[20,146],[-4,37],[-16,38],[-12,71],[-18,62],[-9,59],[-26,-8],[-7,-110],[-23,-34],[-10,71],[-24,51],[-16,64],[9,47],[-5,120],[8,39],[28,37],[45,16],[85,17],[46,31],[22,52],[40,60],[6,37],[24,24],[8,29],[-10,65],[-25,31],[10,25],[25,20],[49,-27],[53,-50],[13,-27],[54,-61],[57,-41],[83,-48],[98,-35],[51,-6],[43,-36],[102,-58],[146,-62],[16,-17],[42,-75],[40,-80],[45,-51],[67,-85],[46,-174],[30,-46],[92,-124],[36,-63],[48,-68],[37,-104],[26,-91],[3,-64],[8,-55],[15,-52],[3,-35],[23,-41],[38,-44],[53,-22],[6,-51]],[[11659,18061],[0,-206],[3,-114],[-36,11],[-157,0],[0,-250],[18,-60],[24,-7],[0,-23],[38,3],[201,1],[7,-7],[1,-73],[176,0]],[[11934,17336],[0,-188],[-69,0],[1,-25],[16,-19],[50,-26],[58,0],[1,-16],[30,-4],[95,-27]],[[12116,17031],[7,-26],[-8,-60],[31,-68],[1,-27],[18,-28],[28,-77],[19,-25],[13,-52],[0,-85],[-21,-31],[-5,-62],[-24,-26],[-5,-28],[-32,-63],[-14,-40],[-17,-9],[-76,-138],[-16,-11],[-20,-55],[-13,-9],[-6,-34],[-22,-25],[-32,-14],[-2,-20],[-23,-7],[-8,-84],[-14,-26],[-6,-42],[-40,4],[-34,-33],[-65,-31],[2,-42],[-19,-13],[-28,10],[-30,-7],[-62,-27],[-43,-5],[-33,-13],[-43,0],[-48,23],[-48,-23],[-44,7],[-14,-16],[-80,-3],[-51,17],[-36,30],[-106,9],[-118,25],[-33,19],[-21,-2],[-52,13],[-82,30],[-62,16],[-89,-1],[-49,18],[-32,38],[-72,27],[-56,6],[-22,33],[-30,27],[-130,-6],[-20,-18],[-83,8],[-60,-5],[-28,-22],[-31,-7],[-78,-55],[-15,-27],[-40,-11],[-94,-55],[-26,2],[-17,-15],[-76,-22],[-28,6],[-47,-30],[-39,11],[-28,-12],[-18,-25],[-69,-38],[-61,-21],[-47,-8],[-50,14],[-65,3],[-65,-26],[-84,-20],[-54,-4],[-40,-33],[-33,-15],[-59,7],[-67,-21],[-63,-49],[-40,-22],[-31,-9],[-21,-37],[-78,-31],[-16,-46],[-16,-23],[-112,-115],[-25,-54],[-4,-76],[5,-31],[-6,-49],[-41,-31],[-29,-4],[-35,-23],[-38,-42],[-66,-62],[-107,-69]],[[8054,14777],[-34,64],[-19,184],[-25,58],[-33,57],[-22,51],[-11,68],[-10,14],[-40,-6],[-78,21],[-60,73],[-28,26],[-56,32],[-68,80],[-13,43],[5,36],[21,69],[-15,49],[-74,157],[-66,43],[-51,17],[-6,290],[19,53],[3,81],[-7,88],[-51,85],[-70,62],[-61,70],[-26,81],[12,35],[22,17],[59,25],[27,35],[47,46],[14,23],[6,35],[-3,94],[10,36],[56,78],[34,131],[23,55],[16,126],[-8,71],[26,113],[26,74],[17,65],[57,55],[11,43],[-31,27],[-20,31],[-14,40],[2,23],[39,81],[28,27],[18,36],[10,72],[41,44],[42,65],[25,91],[31,87],[-7,74],[2,28],[-3,96],[-29,64],[7,64],[-9,37],[-56,97],[-6,68],[17,55],[-5,57],[16,42],[0,57],[-24,94],[-14,41],[-20,22],[-10,29]],[[1,19066],[42,-12],[34,12],[39,-14],[3,42],[31,13],[71,-84],[105,-28],[20,-2],[32,18],[94,8],[50,15],[63,-44],[119,-7],[21,2],[56,43],[41,25],[101,11],[50,-18],[46,7],[63,-6],[30,24],[30,4],[63,-44],[71,-27],[48,7],[45,23],[102,16],[47,37],[87,38],[11,19],[0,46],[-16,33],[25,17],[31,-64],[56,-82],[30,-20],[29,-5],[29,14],[37,43],[19,8],[96,-20],[145,0],[30,-4],[60,-19],[33,9],[59,-37],[45,-42],[20,-4],[102,19],[23,-34],[39,-20],[63,11],[20,14],[48,-17],[68,12],[25,-16],[42,-9],[137,23],[29,-3],[18,16],[9,27],[34,52]],[[4284,19467],[41,-40],[32,-9],[70,3],[59,-41],[29,-31],[70,-51],[23,-35],[1,-53],[-9,-37],[23,-51],[42,-7],[301,9],[305,-38],[51,2],[102,46],[121,128],[171,104],[245,18],[69,-24],[156,-44],[58,-27],[88,54],[48,22],[69,-24],[19,0],[104,50],[36,2],[33,-18],[96,19],[42,22],[18,76],[29,8],[56,1],[39,21],[14,38],[38,30],[33,-2],[142,2],[89,-14],[146,-67],[64,-33],[23,-2]],[[8054,14777],[16,-27],[70,-73],[-21,-50],[-10,-54],[2,-49],[18,-102],[6,-90],[15,-66],[-18,-35],[-133,-97],[-59,-47],[-106,-143],[-31,-27],[-44,-17],[-150,-39],[22,-76],[42,-112],[30,-50],[31,-95],[59,-170],[0,-215],[9,-74],[-12,-96],[-20,-44]],[[7770,12929],[-45,-17],[-41,-2],[-61,-20],[-34,13],[-27,-2],[-36,20],[-55,12],[-37,15],[-82,-8],[-84,1],[-43,14],[-30,-23],[-46,-18],[-45,-28],[-19,-21],[-9,-33],[-38,-31],[-39,-11],[-79,-6],[-14,-28],[-48,-56],[-40,-19],[-25,-46],[-52,-77],[16,-59],[22,-20],[-39,-94],[-23,-40],[-23,-25],[19,-56],[-35,-63],[-18,-58],[-17,-30],[-42,-38],[-20,-30],[-28,-21],[-54,-20],[-10,-10],[-10,-61],[-24,-57],[-25,-32],[-82,-75],[-26,-44],[-28,-79],[-44,-34],[-33,-40],[-14,-45],[-66,5],[-74,-19],[-57,-3],[-64,-15],[-64,-2],[-39,-82],[-45,-25],[-125,-33],[-50,4],[-37,-5],[-32,-16],[-36,6],[-38,-3],[-11,-12],[-5,-51],[-19,-35],[-20,-58],[0,-54],[-9,-13],[-35,-6],[-67,14],[-59,-19],[-70,13],[-26,28],[-7,41],[-8,87],[-35,18],[-40,-36],[1,-30],[27,-66],[-18,-40],[-84,-52],[-28,1],[-68,48],[-39,1],[-44,-11],[-24,-30],[-12,-44],[9,-69],[-22,-27],[-219,-93],[-47,-1],[-52,56],[-21,14],[-24,-5],[-109,-45],[-66,-16],[-31,-13],[-57,-9],[-67,-75],[-31,-46],[-8,-30],[-29,-44],[-106,-43],[-51,-27],[-52,-6],[-60,-27],[-41,0],[-62,-50],[-13,-28],[0,-39],[-15,-36],[-3,-58],[-32,-43],[-52,-56],[-3,-79],[-22,-6],[-76,0],[-57,-14],[-102,1],[-73,-16],[-55,19],[-48,-2],[-71,39],[-78,-9],[-56,1],[-33,9],[-32,25],[-25,-32],[-41,-34],[-66,-99],[-19,-60],[1,-77],[16,-63],[-69,-99],[-29,-94],[-24,-57],[-68,-108],[-32,-86],[-40,-55],[-29,-50],[-1,-80],[-35,-60],[-11,-61],[-22,-38],[-12,-61],[-49,8],[-27,15],[-73,57],[-28,37],[-59,18],[-37,37],[-49,29],[-43,-17],[-37,-5],[-35,7],[-76,30],[-39,37],[-33,70],[-121,-44],[-32,0],[-76,10],[-57,17],[-24,14],[-34,0],[-31,-16],[-104,-43],[-61,40],[-35,9],[-23,-9],[-126,66],[-7,28],[4,56],[14,19],[-19,65],[-33,41],[-21,7],[-13,25],[-67,16],[-34,44],[-42,41],[-12,53],[8,51],[14,10],[-10,41],[-19,28],[-10,33],[28,52],[41,53],[-4,55],[-18,6],[-25,33],[-61,32],[-18,19],[-13,121],[7,20],[55,52],[18,53],[-5,12],[-55,29],[1,22],[18,21],[71,26],[42,25],[53,9],[-4,23],[23,65],[-17,65],[-87,96],[-24,21],[-14,29],[2,63],[46,54],[-94,55],[-23,1],[-75,36],[-50,13],[-58,43],[-32,8],[-55,23],[-47,0],[-146,62],[-33,22],[-58,9],[-104,54],[-29,26],[2,718],[-1,1301],[0,1181],[0,1210],[0,455],[0,969],[-2,1015],[0,55],[-1,858]],[[13219,15455],[23,272],[3,96],[-15,48],[-42,50],[-257,193],[-40,40],[-23,33],[-260,463],[-36,75],[-74,169],[-19,81]],[[12116,17031],[5,47]],[[10812,5951],[-77,53],[-14,37],[-39,17],[-99,97],[-20,34],[-47,57],[-43,34],[-14,3],[-29,29],[-39,1],[-19,12],[-43,47],[-28,16],[-34,3],[-26,38],[-25,68],[-31,14],[-19,28],[-1,39],[24,17],[69,6],[48,33],[9,56],[2,44],[27,86],[43,56],[-36,43],[-23,46],[-16,52],[-58,63],[-21,31],[28,68],[-14,67],[-3,55],[-21,74],[27,137],[-33,65],[-31,47],[-9,44],[0,47],[17,44],[-15,57],[-15,34],[-32,20],[-17,32],[-49,63],[-47,47],[-59,83],[-5,13],[22,79],[48,94],[8,104],[17,68],[-40,25],[-38,62],[-44,44],[-31,22],[-50,22],[-57,33],[-31,36],[-3,40],[18,49],[36,44],[20,43],[-41,23],[-43,15],[-18,35],[-46,32],[-27,45],[-46,36],[-4,27],[-28,30],[-31,8],[-94,45],[-32,75],[-20,70],[-10,58],[11,24],[-44,9],[-26,26],[-37,57],[-46,45],[-26,13],[-107,-24],[-90,-10],[-99,11],[-44,20],[-22,21],[-9,28],[0,38],[-8,87],[9,77],[-9,53],[-44,86],[-3,22],[57,51],[41,53],[24,20],[-3,34],[28,71],[26,16],[21,30],[19,65],[66,76],[26,71],[-3,63],[9,9],[48,10],[54,3],[41,14],[93,3],[-20,65],[11,48],[-2,40],[-16,28],[-4,42],[13,37],[3,48],[59,106],[-33,33],[-17,34],[-89,83],[-32,52],[-102,131],[-15,75],[-59,62],[-10,29],[-34,37],[-22,41],[-51,0],[-49,38],[-43,84],[-3,32],[-15,15],[-17,41],[-34,36],[-21,75],[-21,45],[28,110],[-7,41],[-11,19],[-33,17],[-30,29],[-39,15],[-41,27],[-44,43],[-7,31],[-24,34],[-10,42],[-17,35],[-6,35],[-25,36],[-26,14],[-98,16],[-50,24],[-38,53],[-11,36],[-56,-8],[-11,12],[-33,-3],[-35,28],[-40,-8],[-97,42],[-55,45],[-50,9],[-9,25],[-72,63],[3,62],[-20,22],[14,82]],[[15867,38475],[-22,-52],[-26,-95],[4,-39],[-9,-51],[-15,-36],[-5,-54],[28,-65],[21,-26],[-3,-48],[-26,-104],[-33,-63],[-5,-39],[11,-51],[57,-79],[4,-36],[-22,-50],[-15,-63],[-3,-44],[14,-54],[45,-106],[49,-38],[98,-44],[73,-18],[32,-18],[16,-59],[-4,-104],[10,-31],[4,-81],[12,-9],[116,13],[44,-14],[36,-19],[43,-55],[52,-36],[-25,-73],[24,-79],[79,-144],[52,-21],[19,-28],[89,-54],[72,-100],[64,-149],[25,-48],[53,-150],[25,-2],[48,11],[47,2],[61,-19],[40,-24],[44,-37],[34,-45],[19,-47],[14,-152],[12,-55],[13,-29],[46,-57],[71,-27],[14,-18],[-19,-14],[-44,2],[-45,-28],[-5,-12],[14,-42],[-38,-95],[-30,-45],[18,-44],[15,-16],[100,-50],[31,-20],[-13,-14],[-73,-9],[-55,18],[-42,-10],[-97,-64],[-50,-10],[-29,-27],[-15,-33],[-49,-65],[-41,-41],[-22,-70],[-26,-32],[-30,-19],[-41,-15],[-11,-22],[22,-25],[7,-41],[33,-41],[55,-44],[60,-28],[13,-20],[9,-38],[-10,-17],[-56,0],[-52,-26],[-35,-38],[-9,-37],[-14,-12],[-64,0],[-13,-13],[9,-64],[-14,-42],[0,-35],[-34,-27],[-22,-51],[-31,-19],[-12,-20],[-63,-283],[-18,-46],[-145,-112],[-34,-37],[-53,-37],[-53,-29],[-58,-7],[-169,-11],[-54,0],[-62,7],[-22,28],[-47,39],[-56,39],[-54,31],[-41,7],[-59,-10],[-110,-42],[-56,29],[-103,38],[-61,20],[-62,8],[-77,19],[-73,6],[4,-100],[-6,-49],[-14,-45],[-80,-110],[-45,-83],[-103,-140],[-24,-45],[-12,-102],[4,-68],[5,-144],[11,-67],[6,-72],[-17,-36],[-28,-37],[-19,-51],[32,-92],[-28,14],[-53,48],[-73,47],[-92,70],[-89,65],[-128,47],[-133,13],[-48,-10],[-148,-95],[-165,-89],[-125,-60],[-78,-24],[-21,-46],[-49,44],[-84,109],[-41,82],[-4,42],[27,75],[6,66],[-14,30],[-68,82],[-33,27],[-34,12],[-62,43],[-75,46],[-41,19]],[[6921,23866],[-1148,20],[-266,-6],[1,38],[-16,42],[0,35],[-10,58],[11,62],[-6,25],[-23,26],[-31,115],[-7,64],[8,38],[13,10],[47,5],[21,-5],[73,4],[91,42],[-44,11],[-47,-30],[-42,-12],[-120,13],[-21,-57],[11,-42],[-9,-46],[5,-31],[21,-60],[2,-36],[-23,-96],[-1,-34],[-13,-63],[-13,-26],[-43,16],[-26,19],[-63,15],[-65,2],[-22,-12],[-45,0],[-39,13],[-37,25],[-195,22],[-106,36],[-31,19],[-51,50],[-7,58],[21,19],[25,5],[78,2],[67,7],[99,-11],[76,25],[49,35],[28,37],[11,27],[-13,17],[-96,27],[-41,73],[-63,-24],[-38,11],[-20,33],[2,34],[13,38],[27,45],[-26,18],[-36,11],[-37,2],[-26,-21],[-43,2],[-66,-14],[-48,14],[-24,20],[-18,29],[-41,13],[-14,-32],[-38,-26],[-33,-32],[-26,-16],[-23,1],[-6,-23],[29,-18],[35,-1],[15,-23],[-39,-21],[2,-17],[52,16],[46,6],[16,29],[54,-31],[5,-17],[-58,-12],[-45,-19],[-134,-94],[-63,-9],[-24,-29],[-13,-48],[-62,-28],[-13,-17],[12,-55],[-4,-22],[-31,4],[-53,51],[-33,8],[-41,27],[-24,40],[-4,29],[30,60],[0,78],[-20,33],[16,45],[-10,27],[9,46],[-29,66],[4,46],[-5,26],[-31,27],[-1,33],[-37,26],[-78,14],[-18,-70],[18,-65],[-4,-37],[-18,-32],[-17,-49],[5,-25],[-35,-95],[-11,-71],[14,-27],[2,-50],[9,-29],[-18,-34],[-39,-39],[-29,-49],[-34,-14],[-36,-27],[-77,-16],[-77,32],[-38,36],[-87,46],[-47,6],[-23,18],[2,24],[-1,120],[2,60],[11,63],[-13,4],[-27,-95],[-52,-56],[-12,-25],[-12,-52],[-16,20],[20,122],[-13,15],[-7,50],[2,84],[14,44],[-8,84],[-9,31],[-22,25],[-15,-2],[9,-58],[-22,-9],[-12,53],[-26,-4],[-18,-18],[-30,9],[-10,17],[34,54],[14,42],[0,48],[-34,41],[-1,15],[-43,36],[-81,13],[-25,10],[-25,-11],[-90,-29],[-112,-40],[-18,-17],[-84,-32],[-32,84],[-133,157],[-65,64],[-124,100],[-10,17],[-9,50],[-70,68],[-24,19],[-23,-12],[-1,-28],[27,-61],[8,-51],[13,-30],[4,-32],[29,-67],[-9,-5],[-39,52],[-14,-12],[-3,-31],[-25,-20],[-22,13],[13,21],[-77,-6],[-18,-7],[-14,-36],[-42,-39],[-18,-7],[-55,16],[-39,52],[-37,35],[-55,19],[-40,20],[-39,10],[-13,-6],[-36,62],[-27,94],[-28,54],[-13,112],[-12,36],[-43,43],[-44,23],[-39,-6],[30,-74],[-5,-32],[50,-129],[13,-54],[-4,-50],[-29,28],[-16,29],[-31,102],[-15,22],[-33,-12],[-11,28],[14,51],[-7,69],[-33,-20],[-8,33],[23,33],[-1,47],[21,65],[-22,14],[4,79],[-66,43],[-22,86],[-19,25],[-4,43],[-17,50],[-14,11],[-40,2],[-15,20],[0,41],[-23,63],[-44,32],[-18,26],[-24,55],[-35,44],[-33,21],[-38,-1],[-19,-29],[-59,-37],[-7,-35],[-49,-4],[-22,-9],[-10,-29],[29,-51],[-26,-47],[-39,1],[-28,-19],[-8,-43],[-28,-55],[-51,-36],[-11,1],[2,-112],[-24,-36],[-24,-80],[-38,-73],[-12,-48],[-37,-7],[-82,15],[-65,22],[-173,205],[9,78],[-114,189]],[[2,26176],[1,870],[1,758],[0,1039],[0,536],[0,469],[-2,316],[-1,1339],[0,1568],[0,1400],[0,1154],[0,1011],[-1,887],[1,973],[1000,2],[1459,2],[1430,1],[1117,0],[808,-1],[1222,-1],[951,-1],[1646,-4],[716,0],[1487,-5],[1625,-5],[1102,-4],[1303,-5]],[[12214,17704],[-16,-13],[7,-30],[30,-10],[1,-22],[-137,-1],[4,-35],[-9,-35],[-40,8],[1,-109],[-123,74],[2,-195]],[[27769,31251],[52,49],[23,14],[56,17],[106,67],[74,126],[15,13],[108,4],[70,40],[52,0],[19,17],[17,38],[3,153],[15,19],[106,91],[15,20],[6,93],[30,33],[144,56],[75,33],[105,24],[58,35],[47,44],[70,56],[124,72],[43,16],[46,3],[130,26],[57,-21],[21,15],[15,42],[27,12],[67,2],[89,-12],[48,4],[61,17],[54,7],[83,31],[33,37],[69,97],[63,97],[30,73],[35,55],[39,85],[23,62],[15,54],[25,41],[41,99],[12,45],[97,115],[94,179],[28,15],[23,32],[15,40],[59,72],[14,26],[59,54],[31,11],[38,31],[30,42],[84,50],[22,20],[25,50],[19,66],[11,60],[22,37],[24,93],[-8,56],[31,81],[25,43],[10,40],[27,54],[28,40],[8,74],[38,48],[69,16],[57,35],[80,23],[78,12],[39,12],[105,24],[51,15],[53,1],[16,21],[49,5],[17,24],[-1,99],[-14,41],[-3,58],[13,57],[71,144],[32,36],[10,47],[14,20],[61,45],[41,50],[51,109],[19,30],[86,116],[50,82],[50,74],[32,73],[46,65],[53,-7],[73,0],[68,-10],[27,-13],[71,-8],[13,-10],[47,-5],[103,-25],[116,-46],[37,-5],[65,-23],[74,-37],[29,-27],[53,-14],[64,19],[66,2],[44,25],[20,-4],[59,21],[36,1]],[[33429,35849],[10,-83],[-7,-39],[5,-86],[13,-60],[28,-73],[-2,-59],[41,-93],[2,-53],[-8,-45],[2,-50],[18,-85],[-47,-117],[-3,-82],[-8,-29],[-52,-57],[-22,-42],[-41,-104],[-15,-9],[26,-89],[42,-52],[46,-80],[31,-29],[37,-12],[2,-50],[32,-50],[33,-29],[48,-30],[33,-48],[52,-44],[47,-64],[29,-72],[-4,-25],[18,-52],[-4,-110],[8,-32],[24,-36],[35,-31],[-6,-82],[15,-62],[-14,-20],[-8,-54],[15,-88],[-12,-30],[-14,-65],[-12,-25],[-67,-53],[10,-53],[16,-27],[15,-45],[-4,-56],[10,-94],[-50,-35],[-38,-13],[-62,-4],[-82,-29],[-50,-23],[-57,-20],[-1,-70],[-7,-46],[-26,-49],[-43,-48],[-62,16],[-100,-30],[-106,-10],[-69,0],[-34,-8],[-65,-95],[-21,-14],[3,-24],[24,-45],[-22,-54],[-15,-92],[-11,-34],[7,-46],[-3,-35],[-29,-37],[-56,-39],[-22,-53],[-2,-27],[14,-69],[-26,-56],[-8,-33],[8,-25],[58,-51],[96,-5],[44,-8],[40,-15],[37,-29],[65,-75],[17,-26],[64,-45],[20,-3],[62,30],[56,14],[61,-5],[85,2],[79,-30],[40,-26],[44,-17],[98,2],[84,12],[30,-13],[91,-82],[60,-21],[32,-21],[14,15],[40,8],[26,15],[67,-1],[98,40],[5,-47],[-29,-78],[-10,-50],[2,-34],[-10,-136],[22,-19],[64,-37],[74,-33],[19,-22],[35,-23],[30,-53],[32,-85],[12,-18],[92,6],[51,29],[85,-37],[84,-52],[29,-5],[35,-72],[21,-67],[65,-39],[20,-61],[18,-35],[31,-42],[6,-31],[-3,-76],[6,-32],[15,-24],[38,-18],[45,-76],[13,-106],[11,-25],[53,-20],[81,5],[51,-3],[86,21],[20,-5],[69,21],[66,-1],[38,-40],[99,-128],[-1,-51],[16,-48],[-80,-66],[-66,-25],[-28,-19],[-8,-59],[11,-91],[-7,-61],[-85,-48],[-16,-32],[-43,-51],[-21,-17],[-70,12],[-52,-18],[-28,-30],[-39,-101],[-24,-21],[-49,-28],[-56,-23],[-24,-19],[-93,35],[-111,-37],[-47,-27],[-76,-21],[-33,-1],[-60,8],[-69,-29],[-54,-31],[-42,-13],[-110,-17],[-56,-15],[-44,9],[-56,-45],[-68,-45],[-58,-20],[-51,-136],[-45,-47],[-29,-10],[15,-60],[4,-57],[-72,-78],[-53,-24],[-36,-73],[-44,-58],[-6,-30],[21,-27],[20,-50],[-8,-42],[4,-34],[46,-46],[107,-47],[31,-8],[24,-56],[22,-31],[-3,-123],[-19,-17],[-37,13],[-27,-6],[-50,-65],[2,-87],[-16,-72],[-86,-114],[-47,-1],[15,-39],[-1,-45],[-17,-36],[-5,-34],[15,-41],[41,-48],[63,-45],[31,-12],[25,4],[91,-24],[102,36],[28,7],[99,-31],[131,-73],[45,-21],[13,-34],[20,-20],[40,-6],[77,-1],[89,-22],[71,-57],[83,-53],[111,-66],[55,-41],[30,-3],[15,-53],[57,-133],[-559,0],[-1268,1],[-585,0],[-553,1],[-1094,-1],[-279,-2],[-260,-4],[-812,2],[-809,-1],[0,-8]],[[28915,26630],[-38,75],[-126,141],[153,409],[11,22],[24,16],[121,31],[66,104],[68,132],[63,137],[12,34],[5,51],[-28,366],[-204,1],[-50,39],[-76,24],[-68,16],[-38,16],[-99,31],[-21,29],[-13,51],[-16,30],[-28,29],[-29,65],[-36,103],[-42,83],[-37,24],[-18,23],[-33,20],[-43,65],[-44,17],[-50,-6],[-29,-12],[-53,-2],[-23,30],[-25,-3],[-49,25],[-27,5],[1,115],[-45,0],[-9,26],[0,43],[8,32],[-10,58],[21,29],[86,15],[45,-6],[0,22],[-32,5],[-43,41],[-28,57],[-52,15],[-52,0],[-81,-17],[-24,-1],[-66,51],[-36,-4],[-36,17],[-26,45],[-99,101],[-6,30],[-26,27],[-21,33],[-2,44],[-19,7],[-79,59],[-81,45],[-86,39],[-29,29],[-107,85],[-36,66],[-36,41],[-25,38],[-51,41],[-14,40],[142,123],[76,52],[104,5],[74,-3],[125,-17],[37,32],[28,8],[122,-34],[60,17],[-6,97],[30,74],[2,25],[-29,67],[7,25],[-20,70],[15,63],[19,-2],[34,-29],[17,-4],[36,12],[-2,26],[65,9],[-15,45],[30,2],[22,18],[18,-5],[69,33],[29,27],[1,32],[-26,39],[-3,35],[-110,81],[-23,23],[-50,90],[-25,30],[-83,66]],[[24748,38454],[1723,8],[1583,7],[1087,4],[1255,4],[1506,3],[229,0],[809,4],[-63,-26],[-93,-72],[-23,-25],[-46,-63],[-16,-53],[-26,-43],[-36,-27],[-5,-26],[49,-83],[48,-61],[3,-72],[8,-63],[8,-14],[53,2],[38,-26],[61,7],[102,-72],[66,-2],[75,6],[37,-13],[62,8],[57,-1],[68,6],[74,-4],[55,7],[145,3],[51,-6],[54,-71],[32,-26],[47,-22],[37,-1],[40,-67],[36,-30],[55,-14],[-2,-60],[-29,-94],[2,-31],[-21,-71],[-28,-16],[-64,-17],[-21,-17],[-35,-92],[-6,-90],[-30,-47],[-60,-43],[-33,-32],[13,-49],[-7,-27],[-62,-34],[-100,-17],[-36,-18],[-66,-99],[-9,-51],[-32,-56],[-39,-30],[-12,-25],[-32,-17],[-66,-48],[-27,-49],[-38,-38],[-8,-31],[46,-126],[-28,-93],[16,-35],[69,-30],[41,1],[83,-12],[24,-29],[19,-67],[14,-101]],[[27769,31251],[-115,91],[-187,159],[-68,73],[-41,66],[-20,45],[-17,63],[-54,382],[-38,282],[-10,37],[-22,49],[-21,31],[-122,142],[-77,81],[-110,101],[-41,43],[-47,63],[-32,53],[-17,45],[-58,71],[-43,30],[-267,142],[-32,14],[-153,81],[-81,54],[-75,67],[-214,248],[-52,36],[-55,12],[-127,-3],[-78,7],[-58,13],[-88,37]],[[25349,33866],[-28,49],[16,23],[-5,67],[-12,37],[-28,61],[-8,39],[20,36],[-61,1],[-16,51],[-31,56],[-7,26],[-52,48],[-17,52],[0,143],[-53,-1],[-100,-13],[-34,127],[-27,38],[-19,41],[-76,-27],[-95,-21],[-11,102]],[[24705,34801],[5,594],[2,122],[14,246],[-1,50],[-39,186],[-6,69],[3,494],[1,795],[0,468],[4,184],[36,345],[24,100]],[[23568,34205],[177,-17],[182,-2],[62,-51],[34,-50],[77,22],[30,-7],[40,12],[1,49],[17,16],[93,-11],[132,12],[86,-24],[54,-5],[21,-11],[1,42],[116,0],[20,26]],[[24711,34206],[4,-25],[53,-41],[48,28],[-36,29],[43,24],[20,19],[27,1],[33,-40],[76,-48],[51,-68],[106,-98],[19,-50],[58,-36],[41,0],[46,-38],[23,-11],[26,14]],[[28915,26630],[-3,-491],[2,-753],[-1,-500],[-1,-252],[1,-501],[0,-449],[969,-1],[-1,-994],[1,-1634],[0,-1191],[1,-240],[4,-253],[3,-500],[0,-747],[-3,-247],[-1,-227],[25,0],[0,-505],[1,-634]],[[19415,26829],[-3,57],[245,1],[34,52],[54,54],[14,40],[14,82],[6,87],[30,98],[15,31],[-24,51],[-35,29],[-24,51],[-95,89],[-46,10],[-35,19],[-18,39],[-37,25],[-64,11],[-54,26],[-36,2],[-19,26],[-89,36],[-25,22],[-44,18],[-41,9],[-36,21],[-17,25],[-49,12],[-27,14],[-33,-1],[18,29],[37,27],[-1,55],[15,46],[16,99],[45,89],[-12,68],[1,31],[27,34],[43,26],[117,48],[17,-13],[3,-28],[-11,-20],[10,-29],[49,-34],[44,12],[80,62],[26,26],[26,10],[44,4],[119,22],[56,-9],[58,22],[32,-5],[39,22],[64,-8],[67,30],[14,-13],[29,15],[17,26],[-27,65],[-4,31],[6,54],[-6,41],[-19,54],[-2,27],[83,-68],[49,-57],[53,-34],[68,-29],[-13,115],[-2,72],[-65,56],[-84,53],[1,164],[-8,65],[9,48],[20,44],[4,49],[-16,33],[14,32],[-13,22],[7,22],[5,106],[-6,58],[57,1],[96,10],[30,99],[40,158],[-2,60],[-10,56],[9,95],[-5,16],[17,38],[15,-15],[96,27],[74,52],[67,23],[40,28],[43,16],[83,45],[-32,9],[-37,-15],[-23,0],[-79,37],[-6,23],[19,72],[-35,4],[-44,-12],[-22,14],[-14,36],[5,56],[83,-28],[-50,45],[-26,44],[-30,-13],[-25,0],[-34,54],[-11,42],[-18,30],[54,4],[72,-13],[119,15],[45,32],[17,26],[23,6],[39,28],[34,5],[36,35],[47,27],[-27,-77],[5,-40],[-27,-47],[-7,-60],[101,77],[26,26],[136,52],[33,-3],[75,20],[62,22],[32,26],[19,47],[-52,-7],[-64,11],[-50,20],[1,33],[-45,16],[71,39],[25,23],[17,32],[29,26],[-65,16],[-29,20],[-26,-11],[-20,8],[-72,75],[-18,73],[-45,83],[-14,3],[-238,-42],[-24,10],[-37,29],[-64,14],[-48,-29],[-42,-15],[-54,-1],[-55,-21],[-40,-3],[-95,14],[-53,-2],[-57,15],[-46,32],[-57,81],[-15,61],[-42,64],[-25,26],[-27,11],[-53,-2],[1,16],[80,11],[66,-10],[91,-36],[21,-20],[20,-45],[14,-15],[103,28],[19,56],[34,72],[24,41],[29,30],[34,22],[50,18],[195,26],[7,29],[-24,44],[-63,62],[35,30],[15,26],[4,51],[29,37],[132,23],[76,3],[29,-11],[40,5],[44,15],[49,-5],[61,-31],[-5,55],[4,45],[90,55],[117,33],[34,15],[48,5],[-10,60],[6,55],[-16,56],[18,49],[-9,22],[8,68],[32,70],[79,60],[10,43],[-16,22],[106,49],[54,2],[54,30],[82,29],[85,40],[38,-5],[106,37],[102,17],[113,41],[47,30],[19,5],[12,26],[-12,31],[11,27],[37,19],[39,-1],[26,-9],[131,25],[57,19],[34,21],[12,19],[107,59],[25,-3],[16,23],[64,32],[51,38],[129,67],[85,35],[57,45],[74,49],[39,40],[18,9],[60,8],[72,38],[61,45],[9,49],[92,126],[18,51],[54,21],[-3,22],[-62,59],[-28,37],[-69,115],[-51,44],[54,20],[63,-10]],[[1,19066],[1,1406],[0,735],[1,1170],[2,1296],[-4,477],[1,460],[0,354],[0,1212]],[[15867,38475],[1313,-7],[1234,-7],[1218,-7],[1066,0],[1188,0]],[[21886,38454],[-1,-37],[14,-39],[40,1],[35,-8],[74,-29],[22,1],[14,-28],[3,-55],[18,-43],[48,-13],[6,-38],[96,-31],[68,-4],[71,24],[63,6],[40,-16],[90,3],[39,15],[52,2],[42,-22],[76,-86],[37,-61],[29,-26],[19,-45],[-4,-45],[-26,-58],[-30,-46],[-31,-28],[-45,-16],[-48,-43],[-21,-65],[3,-31],[26,-25],[10,-30],[1,-50],[-9,-30],[-35,-11],[-28,8],[-32,-39],[-5,-42],[-13,-39],[-9,-55],[14,-31],[31,-16],[31,-45],[-11,-11],[-36,44],[-26,7],[-28,22],[-18,-27],[-1,-43],[-8,-7],[-66,4],[-26,-31],[-49,-15],[-44,-64],[-5,50],[-39,13],[-30,-39],[11,-104],[19,-156],[12,-34],[9,-73],[36,-28],[25,10],[70,48],[1,27],[23,38],[46,1],[26,-24],[-48,-1],[-14,-19],[-2,-31],[-18,-22],[-37,-26],[4,-19],[-13,-67],[-19,-22],[-12,-32],[-31,25],[-17,-10],[-6,-29],[-3,-73],[21,-44],[20,-16],[6,-47],[-38,-83],[-43,-127],[-17,-27],[0,-23],[28,-71],[-43,4],[-12,-34],[4,-36],[-15,-13],[-19,-48],[-107,-120],[-62,-38],[-70,-31],[6,-26],[47,-6],[10,-24],[-79,9],[-40,9],[-19,14],[-79,-3],[-39,6],[-31,-5],[-10,-23],[22,-24],[17,-46],[24,-29],[12,-34],[48,6],[3,67],[50,-35],[-14,-19],[5,-56],[55,-31],[26,-24],[55,-68],[60,1],[92,-57],[-16,-9],[-16,-76],[51,41],[62,-34],[52,-43],[-16,-9],[4,-64],[71,-20],[39,4],[24,-26],[54,-16],[21,0],[119,-46],[25,-30],[32,-55],[12,-59],[10,-11],[58,-33],[29,3],[18,29],[27,10],[30,-33],[24,3],[12,-24],[-160,-13],[-8,8],[-54,8],[-46,33],[-2,28],[-40,28],[-63,3],[-25,17],[-25,47],[-28,24],[-35,8],[-2,-45],[10,-21],[-10,-21],[-35,-3],[-69,38],[-28,83],[-18,13],[-59,15],[-16,17],[-1,40],[-76,12],[-31,-3],[-23,-24],[-27,8],[-18,-9],[-40,11],[-31,-3],[-38,26],[-47,23],[-65,9],[-18,-27],[5,-34],[-42,-16],[-13,-14],[-73,7],[-39,21],[-36,-1],[-14,-14],[-10,-76],[-9,-37],[-24,-20],[-53,-74],[51,-13],[-5,-30],[-44,-22],[-43,24],[-27,-20],[-63,-26],[-34,-38],[3,-57],[-32,-29],[-4,-44],[-15,-15],[-56,-30],[-19,-57],[-23,-27],[-6,-33],[33,5],[-20,-42],[17,-27],[24,-11],[66,-52],[64,-22],[44,-3],[35,8],[74,1],[123,-69],[43,-41],[33,-61],[24,-16],[35,-10],[77,-4],[64,19],[40,4],[46,14],[32,19],[38,58],[50,1],[65,-11],[62,-22],[25,1],[260,44],[48,-6],[60,-43],[19,4],[26,32],[-13,52],[12,20],[167,-1],[20,13],[18,30],[24,12],[67,12],[50,-5],[29,6],[70,-4],[15,-7],[23,-35],[23,-10],[21,-43],[26,-12],[47,-2],[170,5],[108,-63],[1,-8]],[[21886,38454],[963,0],[1303,0],[596,0]],[[24705,34801],[-127,1],[-1,-52],[-44,-46],[-59,-49],[-54,-16],[-24,-16],[6,-36],[-52,-56],[-2,-11],[51,-43],[143,-108],[64,-43],[99,-75],[6,-45]]],"transform":{"scale":[0.00004013598659405094,0.000028849224695462395],"translate":[-116.049132,47.890268]},"objects":{"Geometry\\30-053":{"type":"GeometryCollection","geometries":[{"arcs":[[0,1,2,3,4,5,6,7]],"type":"Polygon","properties":{"GEOID":"300530003001"}},{"arcs":[[8,9,10,11,12,13,-4]],"type":"Polygon","properties":{"GEOID":"300530003004"}},{"arcs":[[14,15,16,17]],"type":"Polygon","properties":{"GEOID":"300530002003"}},{"arcs":[[-11,18,-15,19]],"type":"Polygon","properties":{"GEOID":"300530002002"}},{"arcs":[[20,21,-9,-3,22,23]],"type":"Polygon","properties":{"GEOID":"300530001001"}},{"arcs":[[24,25]],"type":"Polygon","properties":{"GEOID":"300530005001"}},{"arcs":[[-5,-14,26,27,28,29]],"type":"Polygon","properties":{"GEOID":"300530003003"}},{"arcs":[[30,-25,31,-6,-30,32,33]],"type":"Polygon","properties":{"GEOID":"300530005002"}},{"arcs":[[-19,-10,-22,34,-16]],"type":"Polygon","properties":{"GEOID":"300530001002"}},{"arcs":[[-29,35,-17,-35,-21,36,-33]],"type":"Polygon","properties":{"GEOID":"300530001003"}},{"arcs":[[37,-8,38,39]],"type":"Polygon","properties":{"GEOID":"300530005003"}},{"arcs":[[-13,40,-27]],"type":"Polygon","properties":{"GEOID":"300530003002"}},{"arcs":[[-41,-12,-20,-18,-36,-28]],"type":"Polygon","properties":{"GEOID":"300530002001"}},{"arcs":[[41,42,43]],"type":"Polygon","properties":{"GEOID":"300530004012"}},{"arcs":[[44,-42,45,46,47]],"type":"Polygon","properties":{"GEOID":"300530004014"}},{"arcs":[[48,49,-46,-44,50,-23,-2,51]],"type":"Polygon","properties":{"GEOID":"300530004011"}},{"arcs":[[-39,-7,-32,-26,-31,52]],"type":"Polygon","properties":{"GEOID":"300530005004"}},{"arcs":[[-38,53,54,-52,-1]],"type":"Polygon","properties":{"GEOID":"300530004013"}},{"arcs":[[55,-48,56,-49,-55]],"type":"Polygon","properties":{"GEOID":"300530004022"}},{"arcs":[[-47,-50,-57]],"type":"Polygon","properties":{"GEOID":"300530004021"}}]}}}