{"type":"Topology","arcs":[[[3214,3387],[-91,0],[-179,1],[-50,75],[-46,72]],[[2848,3535],[53,0],[26,0],[135,-1],[34,0],[118,-1],[0,-146]],[[5517,8472],[0,-86],[1,-368],[-1,-39],[1,-77],[-1,-56],[0,-144],[0,-316],[1,-143],[1,-347],[-1,-33],[0,-154],[-175,-1],[-130,0],[-1,-236],[-1,-117],[-83,1],[-62,-1],[-85,0],[-108,0],[-58,-1],[-267,-1],[-416,2],[-142,1],[-77,-1],[-195,0],[-20,0],[-175,1],[-37,0],[-205,2],[-201,0],[-11,0],[-130,1],[-240,1],[-161,1],[-80,0],[0,-249],[0,-56],[1,-58],[-1,-149],[1,-125],[0,-109],[1,-183],[0,-138],[178,0],[121,1],[0,-145],[-2,-207],[75,0],[111,3],[100,5],[26,1]],[[3069,4952],[-2,-143],[0,-119],[1,-178],[0,-78],[-1,-186],[-109,1],[-82,-1],[-28,0],[-19,16],[-48,17],[-13,1],[-30,-13],[-22,-12],[-17,-11],[-11,-4],[-22,1],[-11,-38],[-10,-20],[-28,-7],[-14,19],[-18,0],[-4,-4],[-4,-23],[2,-11],[11,-16],[-1,-6],[13,-14],[5,-41],[7,-40],[2,-35],[-5,-36],[3,-14],[16,-27],[4,-25],[12,-42],[1,-24],[-7,-26],[-6,-11],[-19,-22],[-1,-16],[4,-31],[9,-32],[14,-39],[5,-10],[17,-16],[48,-35],[16,-17],[6,-15],[5,-34]],[[2738,3535],[-31,-1],[-206,3],[-182,0],[-80,2],[-105,1],[-69,0],[-137,1],[-71,1],[-130,0],[-24,-1],[-50,1],[-262,3],[-207,0],[-111,2],[-118,0],[-67,1],[-167,0],[-39,0],[-160,0],[-191,1],[-50,0],[-91,1],[-124,0],[-65,-1]],[[1,3549],[1,96],[-1,107],[1,44],[-1,106],[1,74],[0,169],[0,51],[0,92],[0,400],[1,95],[-1,63],[0,19],[0,94],[5,24],[2,418],[-7,4],[1,118],[-1,34],[1,109],[6,60],[0,99],[-6,194],[1,47],[0,87],[1,123],[-1,31],[0,200],[1,112],[0,40],[0,232],[0,187],[0,151],[0,56],[0,31],[0,190],[0,22],[4,3],[-3,21],[-1,72],[0,79],[1,81],[7,185],[-6,167],[0,193],[2,161],[39,-1],[63,1],[112,-1],[166,0],[97,-1],[87,0],[80,-1],[88,0],[167,-1],[30,0],[93,0],[125,0],[71,-1],[36,0],[130,-2],[120,0],[117,-1],[119,0],[39,0],[180,0],[46,0],[155,-1],[12,1],[153,-1],[193,-1],[162,0],[109,0],[215,-1],[64,0],[37,-1],[65,-1],[173,-1],[125,0],[60,1],[45,-1],[198,0],[88,-1],[67,0],[224,0],[26,0],[213,-1],[152,-1],[89,1],[169,0],[13,0],[197,0],[55,-1],[176,-1],[268,0]],[[5517,8472],[116,3],[83,-1],[199,-3],[92,-1],[134,1],[176,0],[138,1],[76,-1],[402,0],[266,1],[153,2],[0,-106],[0,-138],[-1,-108],[-1,-468],[0,-79],[1,-22],[-1,-125],[0,-123],[0,-178],[-1,-196],[-2,-103],[1,-78],[1,-37],[-1,-116],[1,-64],[-1,-37],[0,-134],[0,-39],[-1,-223],[0,-115],[0,-266],[-1,-136],[1,-125],[0,-111],[0,-88],[1,-170],[-1,-70],[0,-222],[0,-198],[-1,-111],[1,-387],[0,-69],[0,-242],[-1,-73],[1,-88],[0,-93],[0,-47],[0,-107],[1,-145],[0,-54]],[[7348,3183],[-302,3],[-247,-2],[-71,-1],[-299,0],[-233,-2],[-42,-1],[-114,0],[-90,0],[-148,0],[-92,-1],[-202,-1],[0,115],[1,469],[0,59],[0,159],[0,58],[1,133],[0,66],[-34,1],[-131,0],[-236,0],[-64,0],[-94,0],[-226,1],[-179,0],[-185,0],[-120,1],[-83,0],[-101,-1],[-83,0]],[[3974,4239],[-299,-1],[1,161],[1,159],[0,114],[2,206],[0,66],[-108,0],[-47,1],[-69,1],[-109,2],[-104,1],[-173,3]],[[3974,4239],[2,-191],[-1,-182],[1,-55],[1,-131],[0,-165],[1,-114],[2,-313],[0,-348],[0,-175],[0,-361],[-2,-23],[0,-58],[-147,0],[-37,-1],[-7,15],[-15,9],[-30,6],[-17,10],[-13,16],[-3,12],[1,19],[4,10],[20,29],[4,11],[0,25],[-7,25],[-8,11],[-31,17],[-8,11],[6,23],[-1,17],[-11,15],[-17,15],[-20,-1],[-13,-6],[-18,-17],[-15,-6],[-15,0],[-15,9],[-9,16],[3,23],[11,25],[-1,13],[-12,33],[-6,10],[-22,27],[-20,33],[-6,21],[-16,15],[-14,5],[-29,-14],[-26,3],[-20,17],[-7,17],[-1,26],[1,19],[-2,13],[-6,14],[-13,10],[-20,-2],[-7,-5],[-19,-4],[-15,5],[-29,17],[-13,10],[-29,18],[-9,9],[-16,10]],[[3213,2781],[-1,106],[1,28],[4,20],[22,76],[1,25],[-11,86],[-3,29],[-12,87],[0,15],[0,134]],[[2848,3535],[-49,-1],[-61,1]],[[3213,2781],[-6,4],[-20,27],[-20,13],[-12,13],[-20,25],[-17,18],[-23,35],[-2,13],[3,51],[-2,21],[-8,13],[-18,9],[-15,17],[-5,19],[0,15],[10,44],[0,14],[-6,9],[-27,20],[-12,0],[-14,12],[-18,1],[-9,-24],[-16,-16],[-12,-2],[-19,1],[-18,11],[-14,19],[-11,9],[-10,2],[-20,-9],[-38,0],[-25,5],[-17,0],[-11,7],[-8,13],[-1,20],[3,17],[-2,19],[-24,35],[-5,16],[-1,33],[9,27],[12,13],[18,42],[3,8],[-1,25],[-15,36],[-10,36],[-1,18]],[[7348,3183],[1,-59],[-1,-188],[0,-130],[-2,-42],[2,-7],[1,-77],[-1,-201],[-2,-89],[1,-30],[-5,-78],[0,-106],[-4,-45],[1,-44],[2,-32],[-2,-12],[3,-25],[1,-24],[-6,-34],[1,-84],[3,-98],[1,-175],[2,-171],[2,-224],[1,-201],[1,-114],[3,-149],[0,-31],[-5,-152],[-1,-69],[1,-257],[1,-33],[0,-171],[-1,-23],[-26,1],[-180,-1],[-67,0],[-46,0],[-145,0],[-227,0],[-103,0],[-129,0],[-86,1],[-89,0],[-115,-1],[-42,1],[-181,-1],[-26,-2],[-62,0],[-315,-2],[-103,5],[-65,-4],[-131,1],[-24,-2],[-511,5],[-382,4],[-226,-2],[-108,7],[-208,-3],[-8,-3],[-44,-1],[-9,-4],[-65,5],[-120,-3],[-124,-1],[-241,-2],[-99,3],[-3,5],[-88,1],[-218,0],[-31,1],[-17,-11],[-277,-5],[-204,3],[-188,5],[-84,8],[-101,-1],[-66,4],[-83,-1],[-113,0],[-74,1],[-142,1],[-136,0],[-96,-1],[-29,1],[-187,-1],[-288,0],[-214,1],[-102,0],[-3,-2],[-188,3],[-106,-2],[0,354],[1,51],[-1,74],[-1,104],[1,27],[0,103],[1,147],[0,59],[0,75],[-1,57],[1,90],[-1,47],[1,162],[-1,22],[2,38],[0,111],[-1,56],[1,64],[-1,39],[0,222],[0,161],[0,111],[0,77],[0,38],[0,237],[-1,254],[1,58],[-1,232],[0,45],[0,313],[0,102]]],"transform":{"scale":[0.00006164445048966248,0.000041132273262661826],"translate":[-97.369251,40.001179]},"objects":{"Geometry\\31-095":{"type":"GeometryCollection","geometries":[{"arcs":[[0,1]],"type":"Polygon","properties":{"GEOID":"310959637002"}},{"arcs":[[2,3,4,5]],"type":"Polygon","properties":{"GEOID":"310959636002"}},{"arcs":[[6,7,8,-3]],"type":"Polygon","properties":{"GEOID":"310959636001"}},{"arcs":[[-9,9,10,-2,11,-4]],"type":"Polygon","properties":{"GEOID":"310959637001"}},{"arcs":[[-12,-1,-11,12]],"type":"Polygon","properties":{"GEOID":"310959638001"}},{"arcs":[[-5,-13,-10,-8,13]],"type":"Polygon","properties":{"GEOID":"310959636003"}}]}}}