{"type":"Topology","arcs":[[[2804,8662],[17,-7],[16,8],[66,0],[36,0],[175,-1],[22,1],[134,-1],[54,0],[71,-1],[362,1],[134,-4],[152,-1],[144,1],[176,2],[321,5],[150,-2],[145,-2],[69,1],[236,2],[38,0],[186,-4],[185,-4],[73,-3],[199,-7]],[[5965,8646],[-2,-350],[4,-333],[160,2],[111,2],[55,1],[96,-1],[218,-2],[141,-9],[161,-8],[225,0],[193,1],[99,0],[74,0],[9,2],[63,-2],[47,-84],[127,-229],[18,-35],[106,-229],[90,-197],[57,0],[27,3],[19,6],[38,18]],[[8101,7202],[4,-23],[11,-31],[16,-34],[30,-37],[13,-20],[73,-66],[30,-9],[26,-31],[44,-49],[61,-59],[38,-29],[34,-9],[14,-1],[30,-16],[23,-8],[20,-20],[27,-20]],[[8595,6740],[-69,-101],[-217,-324],[-8,-17],[-5,-21],[2,-46],[-194,-2],[-268,-3]],[[7836,6226],[-53,-1],[-263,3],[-293,-1],[-18,0],[-168,12],[-137,5],[-166,1],[-71,1],[-131,1],[-273,1],[-215,2],[-151,1],[-111,0],[-152,0],[-33,-1],[0,-17],[-63,17],[-244,5],[-153,1],[-176,2],[-296,-9],[-7,0]],[[4662,6249],[4,15],[-1,20],[-17,63],[-2,44],[4,168],[3,108],[8,270],[-73,-1],[-125,1],[-56,2],[-48,4],[-27,-1],[-57,-11],[-33,0],[-81,6],[-37,1],[-245,2],[-458,1],[-39,0],[-157,1],[-115,-1],[-312,-3]],[[2798,6938],[-1,126],[-1,98],[-1,190],[-2,277],[1,183],[0,162],[6,344],[1,131],[3,213]],[[7836,6226],[0,-79],[0,-411],[0,-218],[3,-346],[0,-122],[0,-200]],[[7839,4850],[-3,-314],[0,-28],[-303,-1],[-35,0],[-284,-3],[-153,5],[-166,10],[5,-329],[3,-360],[11,-345],[1,-135],[0,-216],[-199,2],[-169,3],[-244,4],[-236,7],[-99,1],[-259,-3],[-103,1],[1,-350]],[[5607,2799],[-22,0],[-229,2],[-207,1],[-167,0],[-232,1],[-76,0]],[[4674,2803],[0,40],[-7,434],[-4,220],[-6,349]],[[4657,3846],[235,-2],[4,1],[45,30],[12,3],[18,-8],[0,-25],[78,0],[244,5],[63,-1],[8,-5],[2,-23],[28,-7],[14,3],[14,13],[9,15],[12,6],[0,42],[-7,296],[168,-12],[-1,58],[-1,589],[-1,461],[1,274],[-9,0],[-288,4],[-340,0],[-139,-4],[-178,-3]],[[4648,5556],[-4,183],[1,59],[-2,165],[-1,259],[0,26],[20,1]],[[8775,1060],[322,0],[101,2],[112,1],[16,-13],[9,-27],[17,-24],[16,20],[24,23],[61,54]],[[9453,1096],[8,-22],[13,-28],[11,-57],[8,-29],[12,-62],[8,-32],[24,-70],[17,-42],[12,-42],[-236,0],[-235,0],[-13,-1],[-1,-10],[0,-174],[-3,-177],[-2,-7],[0,-142],[-1,-196],[-309,-1]],[[8766,4],[0,139],[-2,8],[-49,82],[-13,25],[14,42],[21,37],[17,21],[80,85],[-55,71],[-11,24],[-19,-1],[0,12],[-19,4],[0,20],[-59,0],[-1,-22],[-35,-1],[-4,3],[0,21],[-19,0],[0,141],[158,-1],[5,108],[0,238]],[[4648,5556],[-216,3],[-92,1],[-172,-2],[-134,0],[2,-104],[3,-268],[1,-181],[0,-141]],[[4040,4864],[-26,1],[4,-9],[20,-23],[0,-18],[-15,-285],[1,-96],[2,-186],[2,-152],[5,-255],[154,1],[102,1],[62,1],[306,2]],[[4674,2803],[-178,1],[-42,-1],[-367,-1],[-155,0],[-36,-1],[-183,0],[-128,-4],[-166,-2],[-300,0]],[[3119,2795],[-1,345],[-1,100],[-1,87],[-2,223],[1,215],[-1,108],[1,37],[0,178],[-1,77],[1,150],[-1,207],[-193,-4],[-161,-4],[-93,-2],[-34,1],[-141,-2],[-303,11],[-2,172],[-5,180]],[[2182,4874],[-2,334],[-3,263],[-1,60],[-7,380],[0,119],[-2,152],[0,26],[-2,221],[-1,170],[2,91],[5,242],[52,0],[362,4],[183,2],[30,0]],[[7220,714],[446,1],[138,0],[95,0],[253,0],[1,75],[-2,258],[2,12],[116,-2],[74,1],[16,7],[18,3],[21,-6],[19,-2],[275,-1],[83,0]],[[8766,4],[-16,-4],[-52,4],[-42,-1],[-33,3],[-342,3],[-335,5],[-88,2],[-93,0],[-3,-1],[-222,6],[-282,4],[-38,1],[0,371],[0,135],[0,182]],[[5374,9952],[77,-13],[42,-4],[22,-4],[6,-7],[81,-43],[21,-7],[15,-9],[15,-1],[21,-12],[4,-14],[167,-142],[16,-7],[27,-6],[18,-11],[13,-12],[43,-43],[25,-21],[16,-8],[37,-22],[53,-37],[27,-21],[69,-66],[31,-27],[42,-33],[21,-13],[10,-19],[12,-13],[14,-10],[38,-19],[54,-20],[51,-28],[18,-18],[19,-47],[29,-79],[24,-42],[13,-13],[11,-5],[53,-10],[9,-5],[22,-24],[40,-17],[17,3],[18,18],[18,40],[6,16],[8,3],[23,-57],[36,-41],[38,0],[77,1],[122,-1],[46,-1],[9,-21],[15,-28],[10,-12],[15,-27],[24,-38],[20,-39],[11,-26],[22,-31],[33,-40],[25,-49],[16,-16],[55,-36],[74,-66],[60,-35],[54,-36],[26,-24],[35,-25],[47,-18],[32,-10],[52,-24],[31,-13],[36,-13],[30,-8],[19,-9],[23,-19],[25,-27],[18,-28],[33,-68],[13,-21],[19,-42],[7,-18],[12,-14],[22,-58],[10,-46],[4,-41],[12,-39],[19,-54],[30,-101],[28,-124],[7,-55],[1,-61],[1,-72],[-3,-59],[-3,-28],[-12,-66],[0,-13],[-27,-38],[-2,-10],[4,-33]],[[5965,8646],[1,67],[6,271],[-452,1],[0,151],[1,171],[0,31],[1,237],[0,101],[-77,1],[-31,12],[-24,-6],[-4,27],[3,36],[6,17],[-7,11],[-4,33],[-14,22],[8,45],[-9,21],[5,10],[11,6],[-10,27],[-1,14]],[[7839,4850],[49,0],[263,1],[333,-1],[213,1],[67,0],[11,-4],[2,-212],[20,8],[104,18],[42,-22],[64,-86]],[[9007,4553],[17,-26],[31,-35],[20,-13],[53,-43],[22,-12],[57,-36],[58,-32],[20,-12],[30,-28],[34,-29],[12,-17],[13,-23],[18,-26],[27,-46],[14,-20],[44,-97],[19,-66],[11,-45],[1,-29],[10,-51],[8,-26],[4,-40],[1,-58],[-3,-27],[1,-17],[-3,-46],[1,-23],[-1,-32],[13,-108],[7,-41],[7,-46],[5,-19],[4,-31],[11,-30],[4,-39],[0,-12],[13,-26],[14,-41],[9,-34],[5,-46],[1,-63],[-20,-88],[-4,-13],[-20,-39],[-4,-4],[-7,-33],[-2,-29],[-7,-52],[-1,-30],[8,-48],[4,-13],[21,-50],[13,-21],[13,-25],[10,-40],[27,-54],[19,-35],[6,-18],[1,-27],[8,-34],[15,-26],[-2,-23],[-10,-21],[-31,-46],[-31,-42],[-13,-22],[-9,-9],[-35,-27],[-46,-30],[-27,-12],[-45,-32],[-16,-19],[-44,-41],[-46,-50],[-34,-49],[-29,-53],[-3,-13],[-11,-22],[-19,-50],[-7,-35],[-2,-29],[2,-37],[-4,-38],[-5,-62],[0,-18],[8,-46],[18,-61],[38,-77],[27,-51],[14,-24],[30,-41],[11,-21],[16,-45],[9,-23],[27,-59],[23,-59]],[[7220,714],[-130,1],[-307,2],[-141,1],[-10,2],[-33,-3],[-720,3],[-138,0],[-144,1]],[[5597,721],[2,105],[4,276],[3,312],[1,116],[1,102],[1,63],[-1,81],[1,320],[-1,183],[0,173],[-1,157],[0,99],[0,91]],[[2861,10219],[28,-21],[8,-11],[26,-30],[13,-11],[12,-17],[25,-27],[18,-15],[8,-13],[34,-22],[19,-22],[26,-14],[3,-6],[21,-10],[14,-23],[27,-32],[14,-7],[35,-36],[17,-5],[13,-24],[31,-19],[41,-17],[16,3],[25,12],[10,-1],[11,-11],[19,-8],[31,-27],[22,-14],[15,-5],[17,-15],[19,-19],[50,-2],[13,4],[81,2],[28,0],[30,2],[104,3],[27,2],[19,-2],[28,4],[19,10],[40,12],[30,6],[50,17],[15,2],[35,19],[47,5],[15,4],[4,20],[10,6],[20,6],[20,14],[9,16],[28,28],[22,8],[3,5],[22,8],[3,7],[32,17],[9,-1],[16,8],[9,0],[21,11],[20,7],[43,0],[18,-3],[20,-12],[10,-18],[12,-10],[141,4],[156,-3],[41,-2],[8,-2],[37,-22],[42,-5],[33,11],[17,22],[22,6],[13,-10],[67,2],[50,-1],[69,-7],[52,-3],[66,-3],[20,2],[42,11],[18,1],[19,-6]],[[2804,8662],[2,230],[1,99],[56,0],[0,97],[1,96],[-1,205],[1,291],[1,131],[3,21],[-5,49],[1,69],[0,31],[1,31],[-2,36],[2,32],[-1,42],[1,31],[-1,31],[-4,14],[1,21]],[[10,4877],[164,2],[108,-1],[59,1],[113,-1],[48,1],[126,3],[156,-2],[162,0],[148,-1],[157,1],[228,-2],[180,-2],[58,0],[85,-1],[181,0],[35,0],[164,-1]],[[3119,2795],[-385,-2],[-37,0],[-201,-1],[-75,2],[-116,1],[-62,0],[-77,1],[-97,2],[-198,3],[-311,1],[0,-157],[2,-109],[0,-248],[0,-79],[3,-69],[-1,-89],[0,-50],[-1,-103],[0,-132],[-2,-344],[0,-54],[-1,-227],[0,-64],[-1,-343]],[[1559,734],[-216,1],[-43,1],[-94,-1],[-115,1],[-83,0],[-93,1],[-9,-6],[-133,3],[-72,2],[-75,2],[-31,-4],[-43,3],[-45,-6],[-66,6],[-82,1],[-40,0],[-309,0],[-1,505],[-1,278],[0,335],[0,112],[0,40],[-4,110],[0,29],[0,296],[2,18],[0,151],[0,80],[-2,116],[0,268],[0,64],[3,11],[-1,350],[0,161],[-1,183],[1,212],[0,73],[0,55],[-1,162],[1,194],[4,209],[0,127]],[[10,4877],[0,96],[-4,424],[-1,162],[-2,166],[-3,183],[3,171],[0,109],[-1,59],[1,89],[-1,127],[1,208],[1,47],[3,346],[2,220],[7,99],[2,245],[-7,168],[-1,260],[0,56],[3,18],[-3,183],[0,84],[7,12],[-4,139],[0,128],[0,56],[1,269],[40,0],[-1,233],[-2,161],[1,278],[-1,24],[0,251],[0,325],[0,97],[2,39],[144,-2],[25,-7],[14,0],[15,7],[20,-5],[28,0],[19,6],[34,-6],[53,-7],[19,-6],[21,-16],[42,-11],[28,-9],[21,-2],[61,-19],[36,-7],[44,1],[87,-14],[25,-8],[28,-16],[19,-8],[12,-11],[26,-34],[15,-14],[21,-7],[58,-1],[24,-5],[10,12],[18,3],[32,-6],[16,-12],[24,-3],[33,19],[34,11],[20,-7],[19,2],[24,-1],[25,-33],[31,-13],[12,-12],[25,-2],[47,-23],[22,-15],[59,-24],[16,-9],[46,-11],[18,-3],[47,6],[32,7],[38,16],[58,30],[46,23],[66,40],[47,-20],[24,11],[23,1],[41,0],[9,3],[16,23],[12,10],[28,10],[25,19],[10,11],[27,16],[20,7],[15,0],[18,6],[18,10],[31,10],[4,6],[17,1],[6,5],[22,-8],[22,2],[18,-2],[23,4],[35,-7],[6,-5],[30,0],[20,-3],[5,3],[20,-2],[46,10],[16,1],[48,-5],[20,-1],[31,6],[15,-3],[56,1],[26,-18],[39,-16],[18,-11],[21,-5],[1,-4],[23,-4],[19,-7],[21,-12],[9,-9],[50,-18]],[[5597,721],[-105,1],[-31,0],[-130,0],[-194,0],[-47,1],[-495,2],[-226,1],[-73,0],[-135,0],[-37,4],[-29,-8],[-35,5],[-456,2],[-174,0],[-26,-2],[-7,5],[-36,-3],[-242,1],[-370,1],[-49,1],[-43,-1],[-57,1],[-98,0],[-35,0],[-108,1],[-66,0],[-42,0],[-65,0],[-148,0],[-47,1],[-130,-1],[-222,1],[-80,0]],[[4644,4492],[57,-1],[18,0],[18,5],[17,8],[18,17],[14,21],[10,36],[17,97],[-21,0],[1,45],[-95,1],[-45,1]],[[4653,4722],[8,135],[-2,151],[-6,253],[-5,295]],[[4657,3846],[-3,187],[-3,159],[-6,225],[-1,75]],[[4653,4722],[-38,1],[0,6],[-27,0],[-12,5],[1,22],[-39,0],[6,106],[-210,1],[-62,-1],[-123,1],[-109,1]],[[4653,4722],[-6,-23],[0,-55],[-3,-152]],[[8595,6740],[19,-13],[37,-41],[8,-23],[62,-76],[67,-92],[59,-103],[48,-90],[63,-139],[99,-222],[6,-43],[9,-29],[-6,-40],[0,-52],[-13,-49],[-20,-35],[-82,-138],[-22,-48],[-13,-43],[-18,-39],[-17,-28],[-18,-34],[-28,-85],[-14,-25],[-6,-16],[-1,-34],[9,-46],[13,-52],[18,-83],[2,-27],[11,-65],[7,-24],[0,-24],[5,-26],[30,-70],[14,-36],[32,-68],[41,-112],[11,-17]]],"transform":{"scale":[0.00006166862563150971,0.000042117206263810106],"translate":[-96.909107,41.014991]},"objects":{"Geometry\\31-155":{"type":"GeometryCollection","geometries":[{"arcs":[[0,1,2,3,4,5,6]],"type":"Polygon","properties":{"GEOID":"311559681002"}},{"arcs":[[-5,7,8,9,10,11,12]],"type":"Polygon","properties":{"GEOID":"311559684001"}},{"arcs":[[13,14,15]],"type":"Polygon","properties":{"GEOID":"311559685002"}},{"arcs":[[-6,-13,16,17,-11,18,19,20]],"type":"Polygon","properties":{"GEOID":"311559682002"}},{"arcs":[[21,-16,22]],"type":"Polygon","properties":{"GEOID":"311559685001"}},{"arcs":[[23,-2,24]],"type":"Polygon","properties":{"GEOID":"311559681001"}},{"arcs":[[-9,25,26,-14,-22,27,28]],"type":"Polygon","properties":{"GEOID":"311559684002"}},{"arcs":[[29,-25,-1,30]],"type":"Polygon","properties":{"GEOID":"311559681003"}},{"arcs":[[31,-20,32,33]],"type":"Polygon","properties":{"GEOID":"311559682003"}},{"arcs":[[-31,-7,-21,-32,34]],"type":"Polygon","properties":{"GEOID":"311559682001"}},{"arcs":[[-19,-10,-29,35,-33]],"type":"Polygon","properties":{"GEOID":"311559682004"}},{"arcs":[[36,37,-12,38]],"type":"Polygon","properties":{"GEOID":"311559683001"}},{"arcs":[[-38,39,-17]],"type":"Polygon","properties":{"GEOID":"311559683002"}},{"arcs":[[-40,40,-39,-18]],"type":"Polygon","properties":{"GEOID":"311559683003"}},{"arcs":[[-37,-41]],"type":"Polygon","properties":{"GEOID":"311559683004"}},{"arcs":[[-4,41,-26,-8]],"type":"Polygon","properties":{"GEOID":"311559684003"}}]}}}