{"type":"Topology","arcs":[[[2275,4557],[39,-10],[37,-7],[58,-15],[26,-9],[33,-21],[92,-85],[30,-51],[30,-43],[13,-23],[57,-49],[62,-17],[23,-10],[94,-90],[26,-21],[42,-21],[34,-11],[113,-27],[59,-9],[32,-14],[61,-43],[33,-11],[70,-29],[28,-24],[23,-35],[62,-59],[51,-51],[22,-27],[4,-13],[-2,-32],[-9,-19],[-2,-36],[14,-32],[27,-17],[48,-21],[69,2],[19,-15],[11,-22],[39,-19],[6,-18],[-22,-19],[394,-228]],[[4121,3256],[-8,-6],[-3,-20],[9,-17],[37,-37],[7,-30],[-23,-20],[-68,-28],[-30,-14],[-46,-32],[-24,-34],[0,-23],[7,-22],[47,-85],[11,-29],[4,-36],[-3,-19],[-17,-29],[-29,-15],[-29,1],[-65,9],[-21,-2],[-23,-14]],[[3854,2754],[-136,106],[-147,116],[-76,58],[-95,74],[-155,120],[-32,23],[-295,227],[-147,114],[-461,353],[-202,155],[-190,146],[-123,96]],[[1795,4342],[24,16],[226,85],[77,25],[45,0],[21,4],[25,15],[62,70]],[[556,5396],[589,61],[290,26],[130,13],[265,28],[431,44]],[[2261,5568],[13,-35],[5,-29],[74,-57],[7,-16],[-6,-35],[13,-10],[13,-19],[55,-54],[70,-42],[9,-9],[-1,-63],[8,-43],[32,-43],[15,-14],[14,-26],[18,-19],[27,-12],[41,-50]],[[2668,4992],[-23,-9],[-27,-24],[-11,-29],[-24,-103],[-7,-14],[-78,-70],[-20,-13],[-78,-18],[-21,-9],[-45,-28],[-21,-20],[-14,-32],[-24,-66]],[[1795,4342],[-42,33],[-327,275],[-293,233],[-13,11],[-269,215],[-284,214],[-11,73]],[[6047,1943],[19,2],[80,-5]],[[6146,1940],[49,-28],[57,-35],[134,-83],[38,-21],[78,-34],[50,-18],[19,-5],[48,-3],[34,-10],[53,51],[16,11],[14,19],[33,23],[47,17],[32,16],[22,7],[35,5],[40,10],[24,1],[31,-8],[33,-16],[42,-14],[31,-2],[86,8],[38,9],[51,6],[28,-3],[22,7],[19,-5],[32,-16],[74,-27],[24,-20],[15,-5],[65,-14]],[[7560,1763],[-38,-43]],[[7522,1720],[-109,-122],[-243,-274],[-77,-85],[-172,-166],[-139,83],[-167,102],[-245,150],[-82,51],[-77,-128],[-87,-37],[-207,174]],[[5917,1468],[18,61],[114,411],[-2,3]],[[6561,6702],[980,333],[73,24],[88,21],[64,-68],[309,86],[230,22],[147,30]],[[8452,7150],[19,-25],[18,-18],[41,-61],[62,-68],[-25,-63],[7,-11],[54,-39],[4,-67],[11,-32],[6,-55],[-6,-24],[-46,-57],[-18,-42],[11,-43],[-14,-11],[-2,-99],[0,-87],[13,-98],[8,-19],[35,-36],[41,-26],[20,-28],[64,-142]],[[8755,5999],[-29,-10],[-15,-11],[-3,-15],[-12,-10],[-22,-4],[-60,12],[-37,18],[-32,26],[-7,42],[2,28],[-21,11],[-25,1],[-55,-13],[-29,-14],[-26,-19],[-25,-13],[-20,-4]],[[8339,6024],[-33,6],[-34,20],[-82,89],[-29,40],[-25,11],[-57,3],[-20,15],[-15,4]],[[8044,6212],[-28,10],[-34,19],[-29,29],[-7,13],[-9,43],[-59,41],[-1,14],[-13,21],[-48,-10],[-95,-10],[-33,-8],[-132,-15],[-77,-11],[-122,-20],[-55,-6],[-37,6],[-12,9],[-21,28],[-27,22],[-59,28],[-43,8],[-42,5],[-52,1],[-9,-24],[-40,-41],[-54,-33],[14,-35],[-2,-10],[15,-38],[-3,-9]],[[6930,6239],[-29,3],[-17,-7],[-28,-2],[-11,8],[-15,-5],[-17,22],[-4,36],[-14,23],[11,10],[2,37],[22,16],[-6,37],[-12,9],[-19,1],[-11,36],[-11,5],[5,30],[-19,6],[-18,12],[-27,42],[13,18],[-3,22],[-38,-5],[-13,-11],[-11,21],[17,4],[-1,20],[-21,16],[-18,5],[-20,-3],[-32,12],[-6,24],[-23,5],[5,16]],[[3450,5078],[39,-17],[22,-14],[35,-32],[20,-26],[53,-53],[-1,-13],[-18,-41],[-3,-77],[-10,-32],[-21,-29],[2,-13],[28,-30],[41,-56],[27,-45],[4,-42],[9,-23],[15,-18],[5,-16],[-5,-68],[4,-25],[24,-25],[18,-15],[32,-12],[-16,-7],[-40,-51],[-38,-3],[-10,-6],[-44,12],[-29,19],[-9,29],[25,-4],[9,11],[-5,14],[-35,9],[-22,1],[-4,11],[14,15],[-5,11],[-30,2],[-11,-24],[-13,6],[-14,-8],[-20,27],[15,4],[1,20],[16,4],[21,21],[-17,11],[17,15],[-8,21],[-19,4],[-24,15],[-47,8],[-14,-9],[-23,-5],[-7,15],[-18,-6],[-18,4],[-11,10],[-17,-16],[11,-16],[-29,-7],[-31,21],[-3,14],[-14,23],[4,47],[19,15],[1,35],[-16,14],[-20,1],[-8,12],[-20,13],[-17,-15],[-12,22],[-16,-4],[14,-26],[-2,-9],[-63,-13],[6,-11],[-18,-24],[-23,-16],[-17,15],[-8,14],[8,19],[-4,13],[24,-2],[1,18],[-9,15],[-13,6],[1,19],[12,5],[-11,21],[-18,-1],[-13,17],[10,10],[33,-2],[-2,22],[-34,15],[-16,4],[-28,-18],[-11,20],[-28,26]],[[2960,4848],[150,162],[57,64],[-119,71],[-12,31],[-9,11],[-30,6],[-24,11],[-29,22],[8,15],[79,81],[8,10],[48,-29],[63,-42],[115,-70],[98,-60],[32,-18],[36,-25],[19,-10]],[[8027,14406],[3,-297],[4,-728],[5,-690],[2,-327],[0,-89]],[[8041,12275],[-149,-6],[-4,68],[-284,-9],[-87,-2]],[[7517,12326],[-322,-10],[-243,16],[-17,88],[-397,60],[-3,10],[-61,23],[10,-68],[-5,-27],[11,-4],[7,-25],[-29,-42],[-5,-1],[11,-55],[8,-28],[36,-67],[48,-101],[23,-29],[49,-46],[-3,-5],[-76,-6],[8,-49],[14,-17],[30,-9],[37,9],[42,5],[42,-26],[12,-14],[4,-18],[20,-8]],[[6768,11882],[-36,-8],[-14,5],[-34,-4],[-26,-16],[-27,-3],[-30,17],[-30,6],[-16,-3],[-24,-19],[-9,-14],[-20,-15],[-21,-6],[-25,4],[-84,33],[-52,-1],[-21,-9],[-3,-23],[6,-29],[-3,-24],[-14,-25],[-38,-16],[-32,-16],[-33,-27],[-10,-25],[-25,-22],[-45,-8],[-5,-24],[-14,-11],[-19,4],[-25,25],[-30,15],[-23,0],[-93,-22],[-26,-23],[-45,0],[-22,-8],[-33,-2],[-52,9],[-67,1],[-33,-24],[-46,-13],[-45,-6],[-26,-21],[-19,-6],[-46,0],[-31,-8],[-6,-10],[5,-35],[-9,-8],[-29,-3],[-25,15],[-24,3],[-47,-16],[-24,5],[-17,18],[-21,-5],[-11,-23],[-40,-20],[-28,1],[-27,14],[-47,-10],[-53,-5],[-17,-12],[-28,-2],[-22,16],[0,15],[10,17],[-18,18],[-31,9],[-49,6],[-22,-1],[-50,-30],[-8,-27],[-28,-26],[-47,-16],[-62,-26],[-52,-9],[2,22],[-9,14],[-68,23],[-33,-1],[-18,9],[-36,31],[-46,3],[-26,-20],[-6,-18],[-15,-10],[-70,-21],[-39,-14],[24,-125],[7,-45],[-323,-92],[-116,50],[-50,37]],[[3753,11216],[-112,-2],[-227,-4],[-141,303],[-24,55],[-98,204],[88,118],[0,284],[-41,151],[-142,544],[-448,235],[-122,442],[-108,390],[545,72],[57,-214],[126,-472],[183,-95],[295,-154],[78,-279],[150,-534],[0,-51],[-6,-549],[133,-120],[202,112],[213,3],[107,579],[22,126],[31,169],[-62,-3],[113,248],[221,486],[302,663],[100,219],[185,408],[11,24],[432,-28],[582,-36],[136,-9],[230,-14],[801,-51],[230,-16],[232,-14]],[[3525,8128],[51,6],[22,-11],[14,12],[45,4],[25,6],[9,-13],[89,10],[76,7],[37,-1],[74,7],[35,-4],[76,-2],[34,3],[38,9],[73,10],[12,0],[60,-19],[33,-31],[14,-23],[17,-61],[45,-77],[17,-13],[40,-13],[41,-3],[39,-21],[42,-31],[10,-15],[18,24],[0,23],[-6,20],[8,27],[-1,36],[9,28],[51,59],[34,9],[12,17],[-3,19],[10,12],[23,5],[40,-12],[46,-7],[-1,16],[-12,29],[-46,62],[4,13],[30,34],[58,5],[0,-10],[674,101],[120,18],[87,13],[303,45],[22,-39]],[[6073,8411],[52,-235],[59,-263],[57,-262]],[[6241,7651],[32,-145],[159,-710],[26,-129]],[[6458,6667],[-306,-110]],[[6152,6557],[-4,28],[-12,135],[-3,46],[11,58],[20,50],[-14,8],[2,27],[17,29],[-5,23],[-40,93],[-53,13],[-25,-1],[-54,23],[-57,-3],[-50,15],[-21,3],[-68,-2],[-47,7],[-19,12],[-41,34],[-24,30],[-113,92],[-92,55],[-16,-10],[-63,-14],[-25,-10],[-57,-40],[-93,-43],[-13,-3],[-47,2],[-23,-13],[-65,-58],[-21,-12],[-52,-8],[-66,-3],[-23,2],[-79,14],[-115,17],[-63,-6],[-39,14],[-38,10],[-49,5],[-67,-1],[-76,13],[-41,2],[-33,-16],[-29,-2],[-30,30],[-21,48],[-5,22],[-12,26],[-45,24],[-10,13],[-55,12],[-30,1],[-45,-10],[-21,4],[-13,11],[-56,22],[-69,19],[-46,0],[-54,6],[-64,-4]],[[3691,7396],[-27,118],[-139,614]],[[7817,10746],[38,-13],[42,-38],[21,7],[23,-6],[44,0],[77,-13],[54,-3],[51,4],[295,148],[276,178],[18,3],[21,12],[10,12],[13,27],[3,24],[14,26],[12,11],[27,-5],[19,7],[7,18],[36,20],[7,33],[21,26],[55,14],[11,13],[1,21],[23,15],[12,22],[19,18],[36,18],[32,8],[413,6],[16,-151],[74,0],[-2,21],[83,0]],[[9719,11229],[5,-134],[7,-49],[7,-154],[8,-137],[8,-149],[0,-33],[5,-259]],[[9759,10314],[-12,6],[-99,35],[-86,-97],[-112,-129],[-42,-52],[-15,-14],[-21,-31],[-11,-24],[-49,-49],[-61,-11],[-39,-12],[-30,-14],[-31,-9],[-48,0],[-33,5],[-84,28],[-54,21],[-9,8],[-39,59],[-11,22],[-5,33],[-10,14],[-32,32],[-18,12],[-16,1],[-42,-9],[-90,-43],[-50,-3],[-51,0],[-76,-4],[-12,-3],[-75,-37],[-75,-34],[-70,-16]],[[8251,9999],[-112,63],[-33,21],[-55,39],[-48,42],[-44,47],[-23,30],[27,8],[-32,102],[-93,315],[-21,80]],[[7333,11369],[54,-7],[91,-7],[107,-15],[40,-3],[174,2]],[[7799,11339],[8,-14],[18,-15],[5,-15],[-34,1],[-18,-25],[-49,-13],[-21,-10],[-14,-24],[6,-39],[11,-20],[39,-48],[-15,-15],[15,-8],[8,-31],[3,-37],[-8,-17],[16,-5],[2,-13],[-11,-14],[6,-16]],[[7766,10961],[-15,-1],[-19,-15],[-54,-8],[-6,6],[-50,-3],[-80,-9],[-31,-6]],[[7511,10925],[-26,38]],[[7485,10963],[-14,11],[-43,22],[-76,49],[-60,57],[-11,18],[-23,67],[-1,15],[8,60],[14,33],[12,16],[33,28],[9,30]],[[5233,2520],[49,-11],[67,-44],[37,-32],[7,-14],[4,-25],[-18,-53],[3,-24],[36,-29],[63,-27],[39,-22],[51,-42],[49,-46],[26,-17],[28,-14],[58,-9],[45,-25]],[[5777,2086],[-95,-107],[-78,-83],[-17,-13],[-33,-11],[-38,-18],[-40,-4],[-30,5],[-29,16],[-69,16],[-26,11],[-22,14],[-23,9],[-10,-36],[-13,-12],[-25,-13],[4,-11],[27,-16],[11,19],[28,0],[16,-25],[8,-2],[18,-29],[18,-3],[49,-29],[16,2],[1,-110]],[[5425,1656],[-150,37],[-72,53],[-251,190],[-115,86]],[[4837,2022],[25,23],[43,26],[43,15],[66,12],[48,5],[57,12],[24,13],[12,15],[3,15],[-4,24],[-14,49],[-1,38],[13,41],[63,91],[11,25],[5,23],[-3,54],[5,17]],[[5777,2086],[128,-76],[94,-55],[22,-10],[26,-2]],[[5917,1468],[-106,88],[-13,10],[-241,58],[-132,32]],[[7766,10961],[-17,-13],[-3,-16],[-15,-30],[8,-13],[-8,-19],[-24,-20],[-5,-28],[-16,-3],[-1,-13],[-10,-21],[28,3],[20,-6]],[[7723,10782],[-37,-11],[-71,-16],[-40,-12]],[[7575,10743],[-1,15],[8,46],[-13,39],[-58,82]],[[7575,10743],[9,-53],[21,-47],[50,-158],[16,-46],[22,-57],[36,-98],[22,-54],[25,-72],[1,-33],[-27,-80],[0,-27],[27,-63],[28,-57],[20,-25],[8,-32],[-5,-18],[-19,-43],[4,-32],[14,-24],[0,-31],[-19,-50],[-9,-18],[-79,-113],[-10,-19]],[[7710,9493],[-27,-1]],[[7683,9492],[0,34],[4,23],[-25,54],[10,10],[-20,18],[-50,22],[-12,18],[19,97],[10,80],[-3,17],[-29,18],[-44,22],[-35,34],[-27,52],[-30,38]],[[7451,10029],[-12,23],[13,68],[18,73],[23,69],[3,24],[-10,23],[-49,68],[-31,70],[-28,28],[-34,53],[-30,37],[-9,28],[-12,19],[-44,53],[-105,122],[-31,32],[-53,48],[-12,23],[-19,9],[-5,11],[37,20],[26,38],[22,12],[43,14],[14,14],[33,-15],[26,-5],[75,-5],[52,-6],[42,-9],[30,-11],[61,6]],[[9977,5226],[30,-416],[8,-150],[17,-308],[3,-181],[2,-32],[25,-287]],[[10062,3852],[-289,183],[-36,-31],[-6,-1],[-247,-254]],[[9484,3749],[-192,127],[-315,206],[-245,162],[-183,121],[-297,201],[-227,151]],[[8025,4717],[13,28],[40,67],[29,32],[16,13],[26,31],[38,55],[16,16],[-5,22],[10,28],[-24,27],[-29,49],[-30,40],[-13,30],[-27,33],[-5,11],[-3,42],[200,197],[26,20],[19,24],[45,47],[25,21],[24,27],[77,77],[11,-28],[24,-23],[27,-18],[-4,54],[9,28],[32,-9],[21,-13],[3,-20],[26,-9],[12,-24],[-2,-23],[12,-10],[32,0],[30,-26],[19,-3],[30,-16],[42,-14],[16,-30],[-21,-16],[-19,-26],[-12,-3],[-11,-18],[2,-24],[-6,-19],[6,-10],[-17,-19],[-15,-6],[-6,-22],[12,-17],[-5,-11],[23,-19],[22,-6],[4,-18],[15,-29],[24,-22],[13,-6],[33,-37],[20,-9],[19,-18],[12,-43],[-3,-38],[35,-9],[30,-3],[39,6],[13,18],[68,65],[34,27],[13,4],[62,-4],[49,1],[5,9],[38,23],[34,15],[14,26],[79,86],[27,28],[29,20],[37,11],[30,-1],[79,-7],[42,14],[25,11],[17,-6],[200,-129],[25,-13],[30,0]],[[3489,8289],[36,-161]],[[3691,7396],[143,-631],[21,-103],[128,-574],[77,-349]],[[4060,5739],[-564,-48]],[[3496,5691],[-173,-18],[-607,-58],[-455,-47]],[[556,5396],[-50,310],[-34,205],[-14,91],[-97,-8],[-11,46],[-95,502],[-54,277],[-42,221],[-89,458],[-7,33],[-63,322],[286,34],[348,41],[304,36],[195,22],[293,38],[516,68],[365,47],[93,12],[319,41],[525,69],[46,4],[199,24]],[[6768,11882],[19,3],[40,-35],[5,-19],[-11,-22],[-20,-22],[-3,-27],[10,-12],[24,-8],[42,-24],[16,-12],[27,-4],[35,-49],[2,-17],[-19,-20],[-4,-17],[3,-30],[22,-22],[54,-6],[13,-12],[14,-44],[22,-30],[35,-30],[0,-11],[-21,-6],[-12,9],[-31,5],[-21,-6],[-6,-18],[-15,-5],[-11,-27]],[[6977,11364],[-130,0],[42,-264],[33,-199],[16,-84],[13,-62],[16,-63],[77,-322]],[[7044,10370],[-432,-47],[-537,12],[-450,9],[-277,7],[-450,9],[-699,14],[-209,-9],[-394,-16],[-345,-14],[-134,-4]],[[3117,10331],[112,121],[47,65],[174,250],[246,353],[57,96]],[[7044,10370],[91,-382],[22,-90],[30,-128]],[[7187,9770],[31,-145],[39,-181],[11,-55]],[[7268,9389],[43,-202]],[[7311,9187],[-227,-6],[-269,-8],[-422,-405],[-55,-52],[-274,-264],[9,-41]],[[3489,8289],[-81,438],[-109,587],[-26,140],[-1,10],[-79,430],[-76,437]],[[9484,3749],[-161,-169],[-62,-64],[-255,-263],[-77,-79]],[[8929,3174],[-196,-205]],[[8733,2969],[-29,-31]],[[8704,2938],[-296,172],[-116,68],[-39,20],[-31,19],[-286,167],[-229,132],[-38,5],[-56,-49],[-137,76],[-72,41]],[[7404,3589],[-163,94],[-145,85],[-63,-70],[-136,-156],[-61,32],[-240,131]],[[6596,3705],[-65,49],[28,11],[9,47],[29,-8],[173,-57],[23,-2],[63,6],[66,15],[93,42],[66,13],[142,24],[25,3],[57,-2],[28,11],[37,25],[133,-86],[9,7],[19,35],[40,4],[47,27],[9,3],[22,60],[34,46],[58,67],[11,29],[-3,8],[11,59],[14,60],[19,46],[-10,17],[10,22],[-9,16],[4,18],[33,24],[19,33],[6,18],[-7,40],[1,15],[41,46],[19,33],[18,16],[25,12],[22,27],[10,30],[29,54],[21,49]],[[7710,9493],[45,3],[97,14],[31,11],[135,69]],[[8018,9590],[25,-38],[15,-29],[50,-25],[5,-9],[1,-84],[3,-74],[35,-63],[34,-53],[77,-124],[7,-43],[-3,-26],[9,-31],[19,-45]],[[8295,8946],[4,-16],[-3,-19],[4,-143],[5,-180],[3,-116],[-331,-13]],[[7977,8459],[-185,-8],[-8,226],[0,58],[2,467],[-2,2],[-108,-4]],[[7676,9200],[26,85],[1,18],[-11,31],[-1,23],[12,20],[8,25],[-18,49],[-10,41]],[[6189,2064],[44,26],[46,49],[7,25],[-7,19],[8,28],[46,14],[51,53],[23,13],[23,7],[18,11],[19,34],[46,35],[24,16],[45,24],[55,23],[27,19],[14,19],[15,38],[27,43],[48,50]],[[6768,2610],[77,-50],[32,-15],[53,7],[16,-2],[24,-15],[26,-12],[40,-30],[51,-22],[31,-3],[78,21],[23,3],[34,-8],[21,-10],[31,-23],[21,-29],[27,-17],[98,-50],[40,-22],[163,-84],[82,-44],[93,-54],[66,-36]],[[7895,2115],[-335,-352]],[[6146,1940],[19,26],[4,35],[13,31],[7,32]],[[8755,5999],[20,17],[26,10],[3,11],[33,26],[49,18],[53,2],[24,-14],[58,-9],[27,-7],[33,-20],[23,-30],[6,-22],[12,-18],[64,-58],[34,-29],[38,-17],[29,-4],[41,2],[48,10],[53,-6],[36,-11],[55,3],[29,9],[40,19],[59,9],[15,6],[25,22],[7,15],[2,36],[9,12],[36,-4],[20,-7],[26,-30],[24,-16],[23,-5],[26,2],[24,-10],[25,7]],[[9910,5918],[1,-37],[17,-182],[16,-185],[33,-288]],[[8025,4717],[-343,227],[-108,73],[-113,72]],[[7461,5089],[8,25],[171,181],[68,71],[432,451],[199,207]],[[6152,6557],[-200,-72]],[[5952,6485],[-237,-85],[-190,-69],[-260,-308],[-363,-434]],[[4902,5589],[-495,91],[-336,60],[-11,-1]],[[5952,6485],[26,-8],[107,-26],[10,-27],[46,-23],[75,-62],[57,-33],[56,-59],[25,-20],[26,-11],[25,-28],[56,-47],[45,-56],[30,-41],[38,-41],[33,-51],[8,-9],[44,-28],[78,-61],[29,-28],[24,-14],[20,-70],[41,-66],[42,-51],[13,-25],[49,-110],[31,-46],[47,-40],[73,-45]],[[7106,5359],[7,-36],[23,-31],[-15,-30],[-24,-33],[-7,-18],[-12,2],[-17,-24],[50,-135],[23,-11],[11,-15],[6,-63],[-4,-9],[-32,-32],[-19,-26],[-15,-56],[-10,-31],[-35,-89],[-26,-44],[-36,-25],[-17,-7],[-41,-7],[-28,-10],[-24,-16],[-48,-42],[-61,-65],[-19,-38],[4,-38],[6,-16],[-5,-12],[-27,-16],[-10,-20],[-20,-26],[-5,-27],[-10,-19],[-31,-32],[-54,-37],[-26,-9],[-77,-17],[-81,6],[-54,10],[-54,-12],[-43,6]],[[6249,4209],[-89,153],[-182,310],[-52,88],[-176,301],[-30,53],[-25,51],[-186,318],[-11,20]],[[5498,5503],[-147,18],[-449,68]],[[2668,4992],[22,-3],[12,-14],[23,-11],[-3,-14],[44,-8],[31,3],[9,10],[1,43],[-8,17],[6,15],[14,1],[26,-18],[55,-23],[25,-32],[-1,-12],[27,-1],[-1,-23],[-12,-13],[9,-11],[-5,-28],[14,-4],[4,-18]],[[3450,5078],[50,54],[6,35],[-3,12],[-23,44],[-6,60],[-15,33],[5,52],[8,24],[0,77],[-7,29],[-14,40],[13,58],[27,54],[5,41]],[[5498,5503],[-73,-76],[-46,-51],[-148,-156],[-96,-106],[-88,-111],[-177,-199],[-337,-377],[-88,-92],[-221,-225]],[[4224,4110],[-182,-188],[2,-23],[8,-18],[34,-42],[24,-22],[32,-19],[23,-9],[33,-6],[33,1],[52,11],[31,3],[22,-3],[34,-11],[38,-17],[21,-13],[37,-35],[20,-31],[22,-50],[36,-119],[11,-47],[-1,-24],[-12,-36],[-18,-27],[-38,-36],[-20,-12],[-53,-14],[-104,-8],[-32,-11],[-16,-10],[-22,-21],[-23,-13],[-31,-5],[-33,6],[-31,-5]],[[8018,9590],[57,29],[101,67],[114,75]],[[8290,9761],[33,23],[57,35],[51,17],[57,3],[47,-7],[47,-13],[31,-6],[32,-1],[60,-7],[74,-145],[16,-30],[17,-10],[20,-1],[16,-8],[41,-29],[8,-53],[-4,-17],[1,-27],[57,-77],[6,-18],[-3,-20],[5,-26],[15,-18],[8,-46],[42,-30],[82,-42],[46,-28],[31,-23],[32,-8],[82,9],[53,8],[55,-45],[53,-23],[43,-1],[52,6],[113,9],[50,0],[39,-8],[58,-22]],[[9813,9082],[9,-166],[7,-227],[8,-135],[3,-84]],[[9840,8470],[-301,0],[-261,0],[-289,1],[-142,-1],[-19,317],[-5,91],[-6,83],[-14,251],[-224,-1],[-292,-3],[2,-48],[-1,-29],[3,-30],[4,-155]],[[7723,10782],[40,-8],[16,-17],[38,-11]],[[8251,9999],[-52,-9],[7,-38],[-5,-54],[0,-33],[17,-33],[58,-55],[14,-16]],[[6768,2610],[33,37],[34,46],[55,50],[30,21],[80,50],[11,10],[11,22],[7,115],[-1,27],[-18,80],[-11,27],[-35,66],[-12,49],[4,77],[4,23],[29,32],[58,36],[40,17],[91,18],[35,11],[41,23],[76,59],[18,17],[56,66]],[[8704,2938],[-125,-126],[-94,-91],[-139,-150],[-29,-29],[-42,-47],[-200,-199],[-180,-181]],[[7311,9187],[117,5]],[[7428,9192],[4,-20],[-100,-94],[-41,-42],[-65,-60],[-92,-90],[13,-46],[10,-12],[0,-26],[9,-48],[13,-16],[-34,-74],[-53,-167],[-38,-99],[-68,-163],[-62,-143],[-20,-63],[-12,-25],[-40,-113],[-20,-26],[-45,-40],[-39,-43],[-23,-35]],[[6725,7747],[-13,0],[-41,17],[-52,-2],[-16,-4],[-33,-2],[-29,-22],[-10,-13],[-38,-24],[-47,-12],[-52,-25],[-14,-2],[-82,3],[-57,-10]],[[6458,6667],[103,35]],[[6930,6239],[34,-10],[54,-20],[38,-20],[64,-44],[31,-34],[16,-23],[23,-45],[15,-35],[6,-26],[19,-58],[15,-25],[20,-18],[48,-18],[82,-22],[82,-20],[240,-41],[83,-11],[20,7],[6,15],[-5,18],[14,16],[4,39],[7,21],[14,25],[15,14],[15,4],[26,-11],[11,10],[17,38],[28,24],[14,20],[9,63],[-10,128],[30,13],[29,-1]],[[7461,5089],[-25,8],[-13,-1],[-42,59],[-32,36],[-40,33],[-91,67],[-112,68]],[[9759,10314],[4,-76],[16,-318],[10,-339],[4,-85],[19,-357],[1,-57]],[[8452,7150],[505,101],[87,18],[666,148],[21,7],[87,19],[47,107]],[[9865,7550],[2,-90],[6,-173],[18,-329],[4,-183],[2,-145],[0,-129],[13,-583]],[[7268,9389],[24,21],[132,72],[19,7],[28,3],[164,-3],[48,3]],[[7676,9200],[-119,-3],[-129,-5]],[[6977,11364],[287,1],[69,4]],[[7451,10029],[2,-40],[16,-67],[27,-91],[-21,-17],[-51,-25],[-22,0],[-41,-8],[-28,-3],[-61,0],[-46,-14],[-39,6]],[[7517,12326],[-20,-21],[0,-25],[-16,-38],[6,-49],[-7,-13],[-32,-12],[-12,-23],[-26,-8],[-35,-17],[-8,-12],[5,-51],[9,-26],[-10,-30],[-36,-22],[-50,-15],[1,-27],[13,-30],[-1,-12],[-21,-14],[-40,-12],[-46,-33],[-40,-13],[32,-46],[6,-62],[17,-44],[6,-31],[11,-28],[19,-26],[33,-25],[57,-59],[2,-14],[-15,-30],[0,-19],[9,-37],[-6,-6],[11,-27]],[[8041,12275],[35,-865],[0,-22],[205,16],[0,-65],[-251,-3],[-24,7],[-10,-3],[-51,0],[-146,-1]],[[8027,14406],[484,39],[473,0],[10,0],[3,212],[0,504],[-27,0],[-12,170],[516,18],[77,3],[9,-338],[8,-144],[6,-118],[1,-67],[6,-136],[4,-89],[10,-232],[11,-200],[15,-223],[6,-152],[0,-89],[3,-108],[4,-191],[7,-224],[15,-312],[5,-103],[9,-200],[6,-148],[11,-330],[12,-251],[4,-140],[16,-328]],[[5611,2747],[17,-34],[25,-71],[-9,-11],[-1,-35],[12,-54],[28,-25],[57,-28],[40,-27],[33,-13],[28,-22],[29,-10],[35,1],[73,10],[23,-3],[41,-30],[8,-18],[10,-35],[25,-35],[31,-60],[17,-44],[2,-43],[9,-23],[48,-29],[5,-15],[-8,-29]],[[5233,2520],[9,23],[-16,31],[9,16],[40,1],[25,-8],[7,-9],[114,-52],[131,157],[59,68]],[[5611,2747],[138,156],[172,189],[263,292],[330,366]],[[6514,3750],[82,-45]],[[6514,3750],[-73,127]],[[6441,3877],[-192,332]],[[4224,4110],[63,-39],[32,-53],[16,-38],[27,-16],[28,-12],[36,-8],[88,2],[34,5],[44,-12],[28,-19],[27,-36],[33,-18],[54,-42],[33,-17],[6,-9],[-6,-18],[-76,-39],[-8,-16],[1,-60],[-8,-52],[8,-24],[42,-36],[44,-27],[43,-33],[11,-35],[5,-50],[40,-69],[34,-50],[13,-25],[36,-49]],[[4952,3215],[4,-19],[-11,-48],[-7,-18],[-24,-33],[-4,-27],[16,-67],[28,-158],[7,-31],[-2,-37],[8,-62],[13,-34],[-47,-55],[-11,-33],[-3,-54],[6,-37],[-7,-21],[-16,-25],[9,-31],[23,-142],[-54,-6],[-6,-48],[0,-51],[-4,-20],[-46,-125]],[[4824,2033],[-149,111],[-184,139],[-266,199],[-192,145],[-48,-7],[-42,32],[-50,53],[-2,20],[-37,29]],[[7977,8459],[108,-280],[-19,1],[-30,-8],[-65,-29],[-114,-25],[-42,-16],[-51,-28],[-73,-18],[-53,-7],[-40,-10],[-28,23],[-15,5],[-79,11],[-33,-2],[-69,-13],[-58,-2],[-45,3],[-78,0],[19,-87],[-214,-127],[-60,-37],[-31,-7],[-37,-25],[-53,-23],[-19,-14],[-17,-3],[-56,6]],[[9840,8470],[13,-367],[-1,-214],[3,-159],[7,-118],[3,-62]],[[4952,3215],[47,12],[23,9],[68,40],[41,48],[10,31],[23,34],[5,13],[3,42],[10,25],[47,38],[66,41],[11,-14],[40,-70],[3,-10],[34,27],[25,14],[40,34],[19,23],[5,26],[19,19],[120,56],[14,12],[16,24],[46,53],[1,11],[-20,47],[-1,21],[12,16],[50,54],[53,61],[56,61],[61,69],[78,-42],[98,-44],[26,-15],[25,-24],[28,-18],[30,-33],[25,-10],[20,0],[26,10],[23,1],[53,-10],[58,-16],[24,-5],[28,1]],[[4837,2022],[-13,11]],[[8733,2969],[-1,-4],[77,-43],[28,-20],[24,-22],[30,-43],[158,-370],[12,-46],[9,-51],[15,-35],[75,-113],[11,-24],[5,-48],[-7,-165],[-6,-37],[-13,-44],[-63,-159]],[[9087,1745],[-68,-149],[-8,-39],[6,-82],[16,-204],[11,-35],[25,-28],[43,-41],[24,-25],[19,-31],[114,-260],[4,-18],[-1,-30],[-33,-130],[-6,-36],[-13,-180],[-5,-88],[13,-37],[17,-20],[21,-17],[-10,-14],[-21,10],[-16,32]],[[9219,323],[-41,154],[-109,421],[-113,-96],[-33,93],[-105,-95],[-67,65],[-115,-75],[-77,59],[-281,-373],[-17,-21],[-79,115],[-60,-98],[-6,-5],[-63,84],[-88,-92],[-77,103],[-86,-106],[-78,349],[-66,302],[-80,365],[-28,120],[-28,128]],[[10062,3852],[16,-209],[7,-67],[9,-177],[14,-163],[17,-246],[6,-141],[19,-331],[9,-210]],[[10159,2308],[-37,2],[-18,-2],[-41,-16],[-20,-3],[-51,15],[-99,20],[-35,0],[-74,-14],[-49,-4],[-21,-6],[-17,-13],[-75,-77],[-19,-10],[-64,-17]],[[9539,2183],[13,48],[19,19],[15,35],[0,10],[-23,102],[-10,55],[3,14],[49,33],[80,43],[28,8],[40,5],[47,14],[28,17],[12,12],[9,21],[-7,25],[-16,31],[16,31],[72,27],[14,25],[16,9],[48,8],[25,37],[1,16],[10,24],[-11,36],[5,13],[-15,22],[-18,34],[-21,16],[-28,7],[-48,23],[-82,37],[-88,47],[-45,30],[-45,34],[-50,16],[-50,19],[-49,8],[-99,9],[-40,-42],[-36,-20],[-22,-5],[-40,1],[-37,6],[-52,16],[-92,19],[-23,0],[-107,-17],[-6,13]],[[9539,2183],[-25,-37],[6,-38],[27,-51],[-6,-36],[-25,-15],[-16,-18],[-6,-17],[-20,-33],[-24,-22],[13,-32],[66,-32],[45,-26],[61,-40],[66,-34],[57,-55],[12,-9],[40,-19],[-32,-23],[-3,-32],[10,-68],[-10,-10],[-76,12],[-81,7],[-16,-1],[-32,-10],[-25,-20],[-102,-107]],[[9443,1417],[-20,-16],[-19,-5],[-23,2],[-22,14],[-19,-2],[-12,-33],[-15,-10],[-66,-12],[-48,3]],[[9199,1358],[14,103],[29,45],[-12,37],[-13,17],[-2,16],[7,25],[-3,36],[-8,20],[-33,54],[-14,18],[-25,12],[-52,4]],[[10159,2308],[12,-247],[21,-388],[49,-34],[57,15],[4,-16],[16,-28],[21,-23],[13,-35],[28,-22],[33,-9],[37,-14],[20,-18],[17,-34],[7,-57],[7,-9],[0,-31],[52,-29],[17,-16],[-2,-17],[-20,-16],[-6,-39],[2,-26],[-4,-21],[-13,-8],[-8,-22],[5,-58],[-28,-2],[-11,20],[-19,-4],[-34,-16],[-28,13],[-30,-3],[-7,4],[-114,-110]],[[10253,1008],[-17,-12],[-37,21],[-26,20],[-29,13],[-6,16],[6,52],[-14,14],[1,21],[-30,32],[-5,22],[-32,44],[-20,-11],[-27,-25],[0,-14],[-13,-20],[4,-23],[-2,-20],[32,-27],[1,-11],[-31,1],[-24,22],[-39,27],[-13,0],[-21,-25],[-36,-5],[-29,8],[-16,10],[-19,0],[-22,13],[-19,30],[-12,26],[-16,3],[-20,-5],[-11,-29],[-40,-17],[-60,-14],[-34,31],[-1,18],[8,26],[17,31],[-52,9],[-25,19],[-32,63],[-2,27],[-11,19],[-36,29]],[[9199,1358],[-26,-7],[-41,-30],[-30,-14],[-1,-9],[15,-31],[18,-20],[31,-23],[38,-12],[29,-24],[20,-9],[27,2],[25,-3],[37,6],[9,-24],[26,-34],[18,-9],[43,-27],[13,-23],[6,-38],[15,-41],[-1,-22],[58,-234],[8,-26],[14,-71],[25,-31],[44,-28],[18,-19],[42,-35],[55,-56]],[[9734,466],[-83,-89],[-346,-377],[-56,211],[-30,112]],[[10253,1008],[-155,-160],[-67,-69],[-130,-137],[-83,-88],[-84,-88]]],"transform":{"scale":[0.00005807256385998113,0.000052239838457529934],"translate":[-71.564603,43.482913]},"objects":{"Geometry\\33-003":{"type":"GeometryCollection","geometries":[{"arcs":[[0,1,2,3]],"type":"Polygon","properties":{"GEOID":"330039563012"}},{"arcs":[[4,5,6,-4,7]],"type":"Polygon","properties":{"GEOID":"330039563011"}},{"arcs":[[8,9,10,11,12]],"type":"Polygon","properties":{"GEOID":"330039561023"}},{"arcs":[[13,14,15,16,17,18]],"type":"Polygon","properties":{"GEOID":"330039558023"}},{"arcs":[[19,20]],"type":"Polygon","properties":{"GEOID":"330039563022"}},{"arcs":[[21,22,23,24,25]],"type":"Polygon","properties":{"GEOID":"330039551011"}},{"arcs":[[26,27,28,29,30,31]],"type":"Polygon","properties":{"GEOID":"330039556021"}},{"arcs":[[32,33,34,35]],"type":"Polygon","properties":{"GEOID":"330039553011"}},{"arcs":[[36,37,38,39,40]],"type":"Polygon","properties":{"GEOID":"330039553012"}},{"arcs":[[41,42,43,44]],"type":"Polygon","properties":{"GEOID":"330039561014"}},{"arcs":[[45,-13,46,-43]],"type":"Polygon","properties":{"GEOID":"330039561013"}},{"arcs":[[-39,47,48,49]],"type":"Polygon","properties":{"GEOID":"330039553014"}},{"arcs":[[-40,-50,50,51,52,53]],"type":"Polygon","properties":{"GEOID":"330039553022"}},{"arcs":[[54,55,56,57]],"type":"Polygon","properties":{"GEOID":"330039558011"}},{"arcs":[[58,-32,59,60,61,-5,62]],"type":"Polygon","properties":{"GEOID":"330039556012"}},{"arcs":[[-25,63,64,65,66]],"type":"Polygon","properties":{"GEOID":"330039551022"}},{"arcs":[[-66,67,68,69,70,-27,-59,71]],"type":"Polygon","properties":{"GEOID":"330039556022"}},{"arcs":[[-57,72,73,74,75,76,77]],"type":"Polygon","properties":{"GEOID":"330039559021"}},{"arcs":[[-52,78,79,80,81,82]],"type":"Polygon","properties":{"GEOID":"330039554013"}},{"arcs":[[83,84,85,-10,86]],"type":"Polygon","properties":{"GEOID":"330039561022"}},{"arcs":[[-16,87,88,-58,89,90]],"type":"Polygon","properties":{"GEOID":"330039558012"}},{"arcs":[[91,92,93,-60,-31]],"type":"Polygon","properties":{"GEOID":"330039556011"}},{"arcs":[[-93,94,95,96,97]],"type":"Polygon","properties":{"GEOID":"330039559011"}},{"arcs":[[98,-20,99,-61,-94,-98,100,101,-1,-7]],"type":"Polygon","properties":{"GEOID":"330039563021"}},{"arcs":[[102,103,104,105,-80]],"type":"Polygon","properties":{"GEOID":"330039554021"}},{"arcs":[[-49,106,-36,107,-103,-79,-51]],"type":"Polygon","properties":{"GEOID":"330039553023"}},{"arcs":[[-62,-100,-21,-99,-6]],"type":"Polygon","properties":{"GEOID":"330039563023"}},{"arcs":[[108,-76,109,-85]],"type":"Polygon","properties":{"GEOID":"330039561021"}},{"arcs":[[110,111,112,-28,-71]],"type":"Polygon","properties":{"GEOID":"330039555003"}},{"arcs":[[-92,-30,113,-19,114,-17,-91,115,-95]],"type":"Polygon","properties":{"GEOID":"330039559012"}},{"arcs":[[-35,116,-104,-108]],"type":"Polygon","properties":{"GEOID":"330039554022"}},{"arcs":[[117,118,-88,-15]],"type":"Polygon","properties":{"GEOID":"330039558021"}},{"arcs":[[119,-83,120,-111,-70]],"type":"Polygon","properties":{"GEOID":"330039554012"}},{"arcs":[[121,-41,-54,122,-68,-65]],"type":"Polygon","properties":{"GEOID":"330039553021"}},{"arcs":[[123,-122,-64,-24]],"type":"Polygon","properties":{"GEOID":"330039551021"}},{"arcs":[[-23,124,-37,-124]],"type":"Polygon","properties":{"GEOID":"330039551023"}},{"arcs":[[-38,-125,-22,125,-33,-107,-48]],"type":"Polygon","properties":{"GEOID":"330039553013"}},{"arcs":[[-115,-18]],"type":"Polygon","properties":{"GEOID":"330039558022"}},{"arcs":[[126,-87,-9,-46,-42,127]],"type":"Polygon","properties":{"GEOID":"330039561012"}},{"arcs":[[-53,-120,-69,-123]],"type":"Polygon","properties":{"GEOID":"330039554011"}},{"arcs":[[128,129,-77,-109,-84,-127]],"type":"Polygon","properties":{"GEOID":"330039561011"}},{"arcs":[[-116,-90,-78,-130,130,131,-96]],"type":"Polygon","properties":{"GEOID":"330039559022"}},{"arcs":[[-102,132,133,134,-2]],"type":"Polygon","properties":{"GEOID":"330039564003"}},{"arcs":[[-112,-121,-82,135]],"type":"Polygon","properties":{"GEOID":"330039555002"}},{"arcs":[[-136,-81,-106,136,-118,-14,-114,-29,-113]],"type":"Polygon","properties":{"GEOID":"330039555001"}},{"arcs":[[-134,137,-131,-129,-128,-45,138]],"type":"Polygon","properties":{"GEOID":"330039564002"}},{"arcs":[[-101,-97,-132,-138,-133]],"type":"Polygon","properties":{"GEOID":"330039564001"}},{"arcs":[[-86,-110,-75,139,140,141,-11]],"type":"Polygon","properties":{"GEOID":"330039560004"}},{"arcs":[[-73,-56,142,143,144]],"type":"Polygon","properties":{"GEOID":"330039560001"}},{"arcs":[[-74,-145,145,146,147,-140]],"type":"Polygon","properties":{"GEOID":"330039560005"}},{"arcs":[[-144,148,149,-146]],"type":"Polygon","properties":{"GEOID":"330039560003"}},{"arcs":[[-148,150,151,-141]],"type":"Polygon","properties":{"GEOID":"330039560006"}},{"arcs":[[-147,-150,152,-151]],"type":"Polygon","properties":{"GEOID":"330039560002"}}]}}}