{"type":"Topology","arcs":[[[2745,1916],[50,-14]],[[2795,1902],[-27,-37]],[[2768,1865],[-37,31]],[[2731,1896],[14,20]],[[1615,590],[50,76]],[[1665,666],[35,54]],[[1700,720],[30,45]],[[1730,765],[18,-15]],[[1748,750],[92,-51]],[[1840,699],[94,73]],[[1934,772],[58,19]],[[1992,791],[-28,-52],[-130,-156]],[[1834,583],[-34,-46]],[[1800,537],[-27,-46]],[[1773,491],[-158,99]],[[2189,1060],[88,17]],[[2277,1077],[7,-125]],[[2284,952],[-27,15]],[[2257,967],[-60,42],[-8,51]],[[1899,1528],[31,-80]],[[1930,1448],[-97,18],[66,62]],[[2863,1283],[20,-5]],[[2883,1278],[54,-24]],[[2937,1254],[-17,-66]],[[2920,1188],[-2,-18]],[[2918,1170],[-45,4],[-10,109]],[[3063,1179],[3,-2]],[[3066,1177],[47,-70]],[[3113,1107],[-8,-7]],[[3105,1100],[-29,-22]],[[3076,1078],[-21,32]],[[3055,1110],[-7,19]],[[3048,1129],[15,50]],[[2480,914],[60,29]],[[2540,943],[36,19]],[[2576,962],[14,-27]],[[2590,935],[-43,-35]],[[2547,900],[-45,-5]],[[2502,895],[-22,19]],[[2967,1166],[37,85]],[[3004,1251],[76,-37]],[[3080,1214],[-17,-34]],[[3063,1180],[-78,-22]],[[2985,1158],[-18,8]],[[1031,2011],[80,35]],[[1111,2046],[32,-182]],[[1143,1864],[-93,-28]],[[1050,1836],[-19,175]],[[477,339],[33,41]],[[510,380],[20,33]],[[530,413],[16,-62]],[[546,351],[-36,-43]],[[510,308],[-33,31]],[[2916,1154],[77,-40]],[[2993,1114],[-66,-46]],[[2927,1068],[-14,73]],[[2913,1141],[3,13]],[[2395,765],[18,29]],[[2413,794],[8,-7]],[[2421,787],[51,-44]],[[2472,743],[1,-1]],[[2473,742],[-20,-27]],[[2453,715],[-58,50]],[[2691,1752],[33,-25]],[[2724,1727],[3,-69]],[[2727,1658],[-25,-48]],[[2702,1610],[-41,76]],[[2661,1686],[30,66]],[[3160,951],[37,29]],[[3197,980],[33,-49]],[[3230,931],[-37,-28]],[[3193,903],[-33,48]],[[2401,2003],[82,-21]],[[2483,1982],[-69,-38]],[[2414,1944],[-31,45]],[[2383,1989],[18,14]],[[3011,1452],[27,-16]],[[3038,1436],[-30,-72]],[[3008,1364],[-29,12]],[[2979,1376],[32,76]],[[2988,1305],[35,-11]],[[3023,1294],[-19,-43]],[[3004,1251],[-24,12]],[[2980,1263],[8,42]],[[2170,1876],[117,7]],[[2287,1883],[-35,-46]],[[2252,1837],[-37,-37]],[[2215,1800],[-44,73]],[[2171,1873],[-1,3]],[[439,478],[15,-11]],[[454,467],[76,-54]],[[510,380],[-88,68]],[[422,448],[17,30]],[[681,1064],[61,50]],[[742,1114],[86,-69]],[[828,1045],[-76,-95]],[[752,950],[-80,85]],[[672,1035],[9,29]],[[393,1292],[169,153]],[[562,1445],[87,53]],[[649,1498],[34,-74],[-81,-10],[69,-180]],[[671,1234],[-69,-18],[-85,-72],[-35,-58],[-67,73]],[[415,1159],[-22,133]],[[2850,863],[29,100]],[[2879,963],[39,-3]],[[2918,960],[16,-1]],[[2934,959],[12,-51],[61,-24]],[[3007,884],[61,-55]],[[3068,829],[119,43]],[[3187,872],[-157,-178]],[[3030,694],[-101,98]],[[2929,792],[-79,71]],[[2538,1169],[78,15]],[[2616,1184],[7,-41]],[[2623,1143],[-48,-9]],[[2575,1134],[-37,35]],[[2238,1558],[32,19]],[[2270,1577],[22,2]],[[2292,1579],[45,-69]],[[2337,1510],[-88,-49]],[[2249,1461],[-11,97]],[[2789,1371],[11,-14]],[[2800,1357],[19,-51]],[[2819,1306],[6,-19]],[[2825,1287],[-55,13]],[[2770,1300],[-57,50]],[[2713,1350],[76,21]],[[1269,919],[49,-94]],[[1318,825],[-31,-41]],[[1287,784],[-77,55]],[[1210,839],[59,80]],[[1179,960],[51,70]],[[1230,1030],[36,50]],[[1266,1080],[31,41]],[[1297,1121],[10,-24]],[[1307,1097],[55,-51]],[[1362,1046],[-69,-97]],[[1293,949],[-114,11]],[[2240,1422],[40,-18]],[[2280,1404],[89,17]],[[2369,1421],[-30,-83]],[[2339,1338],[-9,-13]],[[2330,1325],[-81,-16]],[[2249,1309],[-34,-6]],[[2215,1303],[-33,40],[58,79]],[[1234,2141],[94,10],[-11,-83],[52,-11]],[[1369,2057],[-101,-22]],[[1268,2035],[-46,17]],[[1222,2052],[12,89]],[[1895,1155],[71,-39]],[[1966,1116],[103,-10]],[[2069,1106],[5,-12]],[[2074,1094],[3,-13]],[[2077,1081],[-197,-38]],[[1880,1043],[-15,72]],[[1865,1115],[30,40]],[[1665,666],[-40,24]],[[1625,690],[75,30]],[[3008,1364],[-20,-59]],[[2988,1305],[-29,13]],[[2959,1318],[20,58]],[[3071,1500],[-33,-64]],[[3011,1452],[60,48]],[[432,284],[36,-48],[0,-123]],[[468,113],[-44,-5]],[[424,108],[-57,98]],[[367,206],[65,78]],[[2529,1339],[65,3]],[[2594,1342],[-20,-96]],[[2574,1246],[-81,6]],[[2493,1252],[36,87]],[[2472,743],[40,53]],[[2512,796],[40,55]],[[2552,851],[20,27]],[[2572,878],[34,-38]],[[2606,840],[-19,-26]],[[2587,814],[-63,-86]],[[2524,728],[-51,14]],[[2869,1119],[-5,-75]],[[2864,1044],[-42,3]],[[2822,1047],[47,72]],[[2792,977],[30,70]],[[2864,1044],[-3,-48]],[[2861,996],[-61,-27]],[[2800,969],[-8,8]],[[2881,1491],[42,-8]],[[2923,1483],[25,-6]],[[2948,1477],[-22,-43]],[[2926,1434],[-37,9]],[[2889,1443],[-8,48]],[[787,908],[80,105]],[[867,1013],[61,-50]],[[928,963],[-101,-87]],[[827,876],[-40,32]],[[919,790],[117,91]],[[1036,881],[-41,-149]],[[995,732],[-57,45]],[[938,777],[-19,13]],[[2475,1802],[24,101]],[[2499,1903],[29,-77],[52,12],[18,-76]],[[2598,1762],[-93,-14]],[[2505,1748],[-30,54]],[[3253,1071],[-6,-53]],[[3247,1018],[6,53]],[[2267,2059],[134,-56]],[[2383,1989],[-17,-19]],[[2366,1970],[-68,16]],[[2298,1986],[-58,48]],[[2240,2034],[27,25]],[[3068,829],[86,70],[-20,31]],[[3134,930],[5,53]],[[3139,983],[21,-32]],[[3193,903],[16,-9]],[[3209,894],[-22,-22]],[[2263,1163],[78,29]],[[2341,1192],[26,-28]],[[2367,1164],[1,-13]],[[2368,1151],[-29,-6]],[[2339,1145],[-192,-37]],[[2147,1108],[116,55]],[[3016,1097],[6,-13]],[[3022,1084],[9,-17]],[[3031,1067],[-67,-29]],[[2964,1038],[52,59]],[[2949,1388],[30,-12]],[[2959,1318],[-14,5]],[[2945,1323],[4,65]],[[2981,1469],[46,97]],[[3027,1566],[102,6]],[[3129,1572],[-25,-109]],[[3104,1463],[-33,37]],[[3011,1452],[-30,17]],[[1850,1327],[96,11]],[[1946,1338],[28,-22]],[[1974,1316],[-64,-59]],[[1910,1257],[-51,-6]],[[1859,1251],[-9,76]],[[2834,1714],[69,57]],[[2903,1771],[37,-141]],[[2940,1630],[-66,-30]],[[2874,1600],[-42,7]],[[2832,1607],[2,107]],[[1720,1039],[99,76]],[[1819,1115],[46,0]],[[1880,1043],[-134,-26]],[[1746,1017],[-12,10]],[[1734,1027],[-14,11]],[[1720,1038],[0,1]],[[613,865],[30,-25]],[[643,840],[-61,-118]],[[582,722],[-44,33]],[[538,755],[6,49],[69,61]],[[504,537],[72,-58]],[[576,479],[-46,-66]],[[454,467],[50,70]],[[424,108],[-144,-17]],[[280,91],[87,115]],[[3066,1177],[80,-45]],[[3146,1132],[-33,-25]],[[1844,227],[99,-21]],[[1943,206],[-5,-25]],[[1938,181],[-4,-25]],[[1934,156],[-105,22]],[[1829,178],[15,49]],[[2249,1309],[35,-58]],[[2284,1251],[-32,-27]],[[2252,1224],[-37,79]],[[634,947],[38,88]],[[752,950],[-41,-69]],[[711,881],[-77,66]],[[1369,2057],[60,113]],[[1429,2170],[73,-51]],[[1502,2119],[-10,-63],[-58,-74]],[[1434,1982],[-9,4]],[[1425,1986],[12,62],[-68,9]],[[2163,797],[77,11]],[[2240,808],[40,-43]],[[2280,765],[16,-17]],[[2296,748],[-36,-54]],[[2260,694],[-24,18]],[[2236,712],[-34,27]],[[2202,739],[-52,39]],[[2150,778],[13,19]],[[1613,1017],[107,21]],[[1734,1027],[-52,-67]],[[1682,960],[-20,-20]],[[1662,940],[-64,-8]],[[1598,932],[-7,39]],[[1591,971],[22,46]],[[625,690],[72,105]],[[697,795],[56,-46]],[[753,749],[-93,-85]],[[660,664],[-35,26]],[[1507,997],[8,17]],[[1515,1014],[18,40]],[[1533,1054],[40,27]],[[1573,1081],[7,-20]],[[1580,1061],[25,5]],[[1605,1066],[8,-49]],[[1591,971],[-103,-21]],[[1488,950],[19,47]],[[1255,306],[102,24],[53,85]],[[1410,415],[84,-80]],[[1494,335],[111,-87]],[[1605,248],[-410,-48]],[[1195,200],[60,106]],[[874,1984],[20,10]],[[894,1994],[38,-14],[99,31]],[[1050,1836],[-120,-56]],[[930,1780],[-56,204]],[[1111,2046],[22,15]],[[1133,2061],[70,-58]],[[1203,2003],[36,-42]],[[1239,1961],[-65,-31],[-31,-66]],[[2330,1325],[40,-2]],[[2370,1323],[-58,-49]],[[2312,1274],[-28,-23]],[[2590,935],[52,17]],[[2642,952],[39,-13]],[[2681,939],[-75,-99]],[[2572,878],[-25,22]],[[2339,1145],[-27,-61]],[[2312,1084],[-35,-7]],[[2189,1060],[-45,-8]],[[2144,1052],[3,56]],[[2094,961],[7,-5]],[[2101,956],[88,-94]],[[2189,862],[-90,-9]],[[2099,853],[-5,108]],[[2708,1608],[67,56]],[[2775,1664],[10,-85]],[[2785,1579],[-77,29]],[[2266,1755],[27,45]],[[2293,1800],[12,23]],[[2305,1823],[25,-30]],[[2330,1793],[-58,-82]],[[2272,1711],[-40,14]],[[2232,1725],[34,30]],[[2789,1800],[43,64]],[[2832,1864],[64,-67]],[[2896,1797],[-47,-52],[-85,19]],[[2764,1764],[25,36]],[[2064,2088],[83,19]],[[2147,2107],[16,-6]],[[2163,2101],[-34,-40]],[[2129,2061],[-38,-22]],[[2091,2039],[-27,49]],[[3011,993],[46,22]],[[3057,1015],[28,-34]],[[3085,981],[-26,-20]],[[3059,961],[-17,-18]],[[3042,943],[-31,50]],[[1279,1974],[31,15]],[[1310,1989],[62,25],[53,-28]],[[1434,1982],[-168,-175]],[[1266,1807],[13,167]],[[695,589],[29,26]],[[724,615],[91,-75]],[[815,540],[-27,-35]],[[788,505],[-93,84]],[[1087,990],[82,89]],[[1169,1079],[61,-49]],[[1179,960],[-65,-39]],[[1114,921],[-27,69]],[[1405,1101],[110,-87]],[[1507,997],[-75,-14],[-70,63]],[[1362,1046],[43,55]],[[1804,1128],[54,74],[37,-47]],[[1819,1115],[-15,13]],[[2330,1793],[45,2]],[[2375,1795],[-3,-17]],[[2372,1778],[-4,-54]],[[2368,1724],[-39,-31]],[[2329,1693],[-57,18]],[[2249,1461],[-9,-6]],[[2240,1455],[-68,65],[66,38]],[[2435,1022],[58,12]],[[2493,1034],[47,-91]],[[2480,914],[-8,-9]],[[2472,905],[-25,60]],[[2447,965],[-12,57]],[[3041,1046],[16,-31]],[[3011,993],[-32,10]],[[2979,1003],[62,43]],[[3146,1132],[56,-32]],[[3202,1100],[-18,-33]],[[3184,1067],[-34,-36]],[[3150,1031],[-45,69]],[[2052,246],[114,-57]],[[2166,189],[4,-51]],[[2170,138],[-68,39]],[[2102,177],[-66,37]],[[2036,214],[16,32]],[[546,351],[0,-1]],[[546,350],[101,-96]],[[647,254],[-126,-15]],[[521,239],[-11,69]],[[1442,1149],[91,-95]],[[1405,1101],[37,48]],[[1562,1971],[122,-100]],[[1684,1871],[-38,-56]],[[1646,1815],[-193,157]],[[1453,1972],[43,66],[66,-67]],[[2744,1024],[48,-47]],[[2792,977],[-20,-38]],[[2772,939],[-54,51]],[[2718,990],[26,34]],[[2739,1857],[50,-57]],[[2764,1764],[-61,39]],[[2703,1803],[36,54]],[[1492,776],[78,123]],[[1570,899],[12,-10]],[[1582,889],[68,-57]],[[1650,832],[28,-23]],[[1678,809],[52,-44]],[[1625,690],[-97,56]],[[1528,746],[-36,30]],[[2708,1181],[63,36]],[[2771,1217],[12,-34]],[[2783,1183],[-58,-50]],[[2725,1133],[-13,27]],[[2712,1160],[-4,21]],[[2940,1630],[12,-9]],[[2952,1621],[-20,-39]],[[2932,1582],[-57,-7]],[[2875,1575],[-1,25]],[[2775,1664],[59,50]],[[2832,1607],[-1,-31]],[[2831,1576],[-46,3]],[[1982,1926],[6,13]],[[1988,1939],[80,-8]],[[2068,1931],[-62,-110]],[[2006,1821],[-68,39]],[[1938,1860],[44,66]],[[2461,840],[51,-44]],[[2421,787],[40,53]],[[1727,1347],[62,14]],[[1789,1361],[61,-34]],[[1859,1251],[-76,-69]],[[1783,1182],[-28,39],[-28,126]],[[806,433],[32,88]],[[838,521],[76,98]],[[914,619],[90,-73],[92,-112]],[[1096,434],[-79,-119],[-157,123],[-54,-5]],[[3104,1463],[-25,-52]],[[3079,1411],[-41,25]],[[1934,156],[-16,-90]],[[1918,66],[-100,77],[11,35]],[[1203,2003],[19,49]],[[1268,2035],[42,-46]],[[1279,1974],[-40,-13]],[[2368,1151],[104,19]],[[2472,1170],[-3,-56]],[[2469,1114],[-22,-5]],[[2447,1109],[-99,-19]],[[2348,1090],[-36,-6]],[[532,594],[50,128]],[[582,722],[43,-32]],[[625,690],[-63,-121]],[[562,569],[-30,25]],[[500,1570],[196,148]],[[696,1718],[62,-162]],[[758,1556],[-109,-58]],[[562,1445],[-62,125]],[[2875,1575],[1,-12]],[[2876,1563],[-35,-75]],[[2841,1488],[-10,88]],[[2085,1954],[-17,-23]],[[1988,1939],[-11,71],[108,-56]],[[2623,1143],[14,3]],[[2637,1146],[-17,-55]],[[2620,1091],[-45,43]],[[858,665],[80,112]],[[995,732],[-101,-96]],[[894,636],[-36,29]],[[745,1923],[53,8],[67,63]],[[865,1994],[6,-7]],[[871,1987],[-39,-163]],[[832,1824],[-97,-64]],[[735,1760],[-19,147]],[[716,1907],[29,16]],[[2363,690],[47,-33]],[[2410,657],[-36,-70]],[[2374,587],[-53,45]],[[2321,632],[42,58]],[[2832,879],[24,36]],[[2856,915],[3,50]],[[2859,965],[20,-2]],[[2850,863],[-18,16]],[[2060,293],[88,15]],[[2148,308],[1,0]],[[2149,308],[19,-13]],[[2168,295],[11,-16]],[[2179,279],[-127,-33]],[[2052,246],[8,47]],[[2362,1009],[73,13]],[[2447,965],[-39,-19]],[[2408,946],[-76,15]],[[2332,961],[30,48]],[[2070,725],[26,-29]],[[2096,696],[58,-29],[48,72]],[[2236,712],[-60,-90]],[[2176,622],[-51,-5]],[[2125,617],[-74,89]],[[2051,706],[19,19]],[[2956,1556],[4,59]],[[2960,1615],[67,-49]],[[2981,1469],[-33,8]],[[2923,1483],[33,73]],[[1082,1264],[95,19],[109,-54]],[[1286,1229],[11,-108]],[[1266,1080],[-178,178]],[[1088,1258],[-6,6]],[[3150,1031],[-28,-22]],[[3122,1009],[-46,69]],[[3122,1009],[-18,-13]],[[3104,996],[-67,100]],[[3037,1096],[18,14]],[[838,1188],[15,-20]],[[853,1168],[47,-67]],[[900,1101],[-72,-56]],[[742,1114],[96,74]],[[1562,1971],[101,23],[170,9]],[[1833,2003],[49,13]],[[1882,2016],[-76,-72]],[[1806,1944],[-54,22],[-68,-95]],[[3122,1009],[17,-26]],[[3134,930],[-49,51]],[[3085,981],[19,15]],[[1938,181],[58,-32]],[[1996,149],[-5,-77]],[[1991,72],[-24,-54]],[[1967,18],[-49,48]],[[2321,1218],[108,62]],[[2429,1280],[45,-32]],[[2474,1248],[-47,-11]],[[2427,1237],[-92,-38]],[[2335,1199],[-14,19]],[[2876,1563],[5,-72]],[[2889,1443],[4,-61]],[[2893,1382],[-52,106]],[[2292,1579],[60,10],[18,-77]],[[2370,1512],[-7,-3]],[[2363,1509],[-26,1]],[[2800,1357],[51,7]],[[2851,1364],[-6,-52]],[[2845,1312],[-26,-6]],[[724,615],[92,83]],[[816,698],[42,-33]],[[894,636],[20,-17]],[[838,521],[-23,19]],[[3230,931],[3,76]],[[3233,1007],[14,11]],[[3253,1071],[-19,11]],[[3234,1082],[103,-38],[100,-2]],[[3437,1042],[-158,-120],[-70,-28]],[[2861,996],[-2,-31]],[[2856,915],[-56,54]],[[2678,1822],[53,74]],[[2768,1865],[-29,-8]],[[2703,1803],[-25,19]],[[2447,1109],[8,-49],[-100,-10]],[[2355,1050],[-7,40]],[[1819,779],[115,-7]],[[1840,699],[-21,80]],[[2364,1855],[65,-20]],[[2429,1835],[-57,-57]],[[2375,1795],[-11,60]],[[2472,1170],[30,6]],[[2502,1176],[36,-7]],[[2575,1134],[-95,-18]],[[2480,1116],[-11,-2]],[[2469,653],[108,-83]],[[2577,570],[-17,-18]],[[2560,552],[-66,50]],[[2494,602],[-42,27]],[[2452,629],[17,24]],[[2077,1081],[-24,-40]],[[2053,1041],[-107,-101]],[[1946,940],[-7,10]],[[1939,950],[-19,29]],[[1920,979],[-40,64]],[[2132,1005],[125,-38]],[[2257,967],[4,-37]],[[2261,930],[-72,-68]],[[2101,956],[31,49]],[[2370,1323],[45,-32]],[[2415,1291],[14,-11]],[[2321,1218],[-9,56]],[[3225,1000],[8,7]],[[3197,980],[28,20]],[[3184,1067],[19,-34]],[[3203,1033],[-64,-50]],[[2576,962],[50,43]],[[2626,1005],[16,-53]],[[1974,1316],[4,-6]],[[1978,1310],[62,-44],[11,-56]],[[2051,1210],[18,-104]],[[1966,1116],[37,34],[-93,107]],[[1662,940],[24,-60],[-36,-48]],[[1582,889],[16,43]],[[2067,730],[61,93]],[[2128,823],[35,-26]],[[2150,778],[-54,-82]],[[2070,725],[-3,5]],[[2296,748],[52,-45]],[[2348,703],[15,-13]],[[2321,632],[-77,37]],[[2244,669],[16,25]],[[308,267],[62,69]],[[370,336],[62,-52]],[[367,206],[-36,31]],[[331,237],[-11,14]],[[320,251],[-12,16]],[[1570,899],[-54,31]],[[1516,930],[-28,20]],[[1118,2405],[-77,-205]],[[1041,2200],[-85,62]],[[956,2262],[-10,63],[104,29],[-7,84],[75,-33]],[[2079,439],[44,-28]],[[2123,411],[3,-50]],[[2126,361],[-70,41]],[[2056,402],[23,37]],[[2401,1749],[74,53]],[[2505,1748],[77,-35],[15,-66]],[[2597,1647],[-59,13],[-137,89]],[[1088,1258],[-33,-85],[114,-94]],[[1087,990],[-21,54]],[[1066,1044],[-107,206]],[[959,1250],[123,14]],[[1287,784],[-43,-59]],[[1244,725],[-76,57]],[[1168,782],[42,57]],[[2163,2101],[21,-9]],[[2184,2092],[-55,-31]],[[838,1188],[121,62]],[[1066,1044],[-8,-2]],[[1058,1042],[-187,141],[-18,-15]],[[660,664],[26,-20]],[[686,644],[-102,-92]],[[584,552],[-22,17]],[[227,1494],[17,-20],[8,-217]],[[252,1257],[-89,-10]],[[163,1247],[-35,115],[99,132]],[[2783,1183],[22,-77]],[[2805,1106],[-32,-42]],[[2773,1064],[-48,69]],[[2023,789],[71,60]],[[2094,849],[34,-26]],[[2067,730],[-44,59]],[[2920,1188],[47,-22]],[[2985,1158],[30,-14]],[[3015,1144],[-14,-34]],[[3001,1110],[-8,4]],[[2916,1154],[2,16]],[[2184,132],[97,6],[29,51]],[[2310,189],[64,-19]],[[2374,170],[-22,-81],[-233,-57]],[[2119,32],[65,100]],[[647,254],[39,-115]],[[686,139],[-162,-19]],[[524,120],[-3,119]],[[828,1045],[39,-32]],[[787,908],[-45,-52]],[[742,856],[-50,-56]],[[692,800],[-16,13]],[[676,813],[35,68]],[[2082,1772],[74,-23]],[[2156,1749],[-37,-68]],[[2119,1681],[-62,-7],[25,98]],[[3022,1084],[15,12]],[[3041,1046],[-10,21]],[[2179,279],[-2,-57]],[[2177,222],[-11,-33]],[[1961,306],[99,-13]],[[2036,214],[-78,27]],[[1958,241],[-2,35]],[[1956,276],[5,30]],[[2598,1762],[77,4]],[[2675,1766],[-66,-150]],[[2609,1616],[-1,-1]],[[2608,1615],[-11,32]],[[2552,851],[-50,44]],[[3079,1411],[73,-47],[-59,-124]],[[3093,1240],[-60,78]],[[3033,1318],[-25,46]],[[2926,1434],[-30,-60]],[[2896,1374],[-3,8]],[[638,1882],[78,25]],[[735,1760],[-39,-42]],[[696,1718],[-58,164]],[[2474,1248],[19,4]],[[2574,1246],[74,-29]],[[2648,1217],[-32,-33]],[[2502,1176],[-28,72]],[[2352,836],[4,7]],[[2356,843],[57,-49]],[[2395,765],[-12,-15]],[[2383,750],[-48,60]],[[2335,810],[17,26]],[[203,144],[117,107]],[[331,237],[-97,-119]],[[234,118],[-31,26]],[[2450,1554],[50,53]],[[2500,1607],[57,-36]],[[2557,1571],[-67,-69]],[[2490,1502],[-40,52]],[[2883,1278],[58,113]],[[2941,1391],[8,-3]],[[2945,1323],[-4,-57]],[[2941,1266],[-4,-12]],[[1618,1401],[141,27]],[[1759,1428],[-32,-81]],[[1783,1182],[-2,-35]],[[1781,1147],[-134,61]],[[1647,1208],[4,90],[-54,-13]],[[1597,1285],[21,116]],[[2383,750],[-35,-47]],[[2296,748],[39,62]],[[1966,1622],[167,32]],[[2133,1654],[-82,-68]],[[2051,1586],[-75,-37],[-10,73]],[[621,521],[58,52]],[[679,573],[9,-107]],[[688,466],[35,-83]],[[723,383],[-66,-12]],[[657,371],[-36,150]],[[2408,946],[29,-70]],[[2437,876],[-13,-4]],[[2424,872],[-68,-29]],[[2352,836],[-13,82]],[[2339,918],[-7,43]],[[2215,1800],[-28,-31]],[[2187,1769],[-51,41],[35,63]],[[2648,1217],[52,10]],[[2700,1227],[8,-46]],[[2712,1160],[-75,-14]],[[174,178],[111,101],[23,-12]],[[203,144],[-29,34]],[[827,876],[1,-1]],[[828,875],[49,-49]],[[877,826],[-38,-39]],[[839,787],[-97,69]],[[2825,1287],[-4,-31]],[[2821,1256],[-20,-9]],[[2801,1247],[-31,53]],[[2410,657],[42,-28]],[[2452,629],[-55,-73]],[[2397,556],[-23,31]],[[2805,1106],[17,-59]],[[2744,1024],[29,40]],[[2261,930],[50,-27],[-31,-138]],[[2240,808],[-51,54]],[[2896,1797],[7,-26]],[[2708,1608],[-6,2]],[[2727,1658],[-3,69]],[[2691,1752],[-16,14]],[[2675,1766],[3,56]],[[2620,1091],[14,-20]],[[2634,1071],[24,-40]],[[2658,1031],[-32,-26]],[[2493,1034],[-13,82]],[[1846,276],[19,62]],[[1865,338],[91,-62]],[[1958,241],[-15,-35]],[[1844,227],[2,49]],[[2574,1246],[36,43]],[[2610,1289],[48,-38]],[[2658,1251],[-10,-34]],[[2205,433],[41,27]],[[2246,460],[28,-37]],[[2274,423],[-46,-59]],[[2228,364],[-23,69]],[[2649,1357],[36,-41]],[[2685,1316],[-2,-21]],[[2683,1295],[-25,-44]],[[2610,1289],[39,68]],[[2680,1103],[45,30]],[[2744,1024],[-64,79]],[[3033,1318],[-10,-24]],[[371,402],[32,27]],[[403,429],[42,-77]],[[445,352],[-74,50]],[[2609,1616],[52,70]],[[2708,1608],[-62,-52]],[[2646,1556],[-38,59]],[[1260,1710],[136,-116]],[[1396,1594],[58,-50]],[[1454,1544],[-50,-72],[-94,89]],[[1310,1561],[-45,33],[-5,116]],[[2220,1434],[20,21]],[[2363,1509],[-36,-54]],[[2327,1455],[-47,-51]],[[2240,1422],[-20,12]],[[2841,1488],[-14,-28]],[[2827,1460],[-41,-87]],[[2786,1373],[-82,138],[-58,45]],[[584,552],[37,-31]],[[621,521],[-45,-42]],[[504,537],[28,57]],[[928,963],[68,-52]],[[996,911],[12,-10]],[[1008,901],[-180,-26]],[[806,433],[-60,-167]],[[746,266],[-23,117]],[[688,466],[74,-5],[26,44]],[[2472,905],[-35,-29]],[[758,1556],[1,59],[114,87]],[[873,1702],[34,19]],[[907,1721],[14,-24]],[[921,1697],[31,-155]],[[952,1542],[-89,-110]],[[863,1432],[-124,-72],[-67,-127]],[[672,1233],[-1,1]],[[1572,435],[46,12],[129,-66]],[[1747,381],[-19,-118]],[[1728,263],[-123,-15]],[[1494,335],[78,100]],[[469,565],[65,90],[4,100]],[[504,537],[-35,28]],[[813,2083],[7,120],[76,-15],[60,74]],[[1041,2200],[13,-12]],[[1054,2188],[-51,-62],[-108,-13],[5,-58]],[[900,2055],[-6,-61]],[[874,1984],[-3,3]],[[865,1994],[-52,89]],[[2680,1103],[-46,-32]],[[2524,728],[-55,-75]],[[2410,657],[43,58]],[[1454,1544],[70,100]],[[1524,1644],[22,31]],[[1546,1675],[62,-42]],[[1608,1633],[75,19],[59,-69]],[[1742,1583],[59,-120]],[[1801,1463],[-42,-35]],[[1618,1401],[-103,91]],[[1515,1492],[-61,52]],[[2577,570],[62,-101]],[[2639,469],[-47,50]],[[2592,519],[-32,33]],[[2002,793],[21,-4]],[[2051,706],[-73,0],[24,87]],[[250,1614],[97,-124]],[[347,1490],[-121,6]],[[226,1496],[-115,-48]],[[111,1448],[-4,95],[143,71]],[[2079,439],[40,53],[-34,43]],[[2085,535],[38,29]],[[2123,564],[41,-94]],[[2164,470],[-41,-59]],[[1166,1495],[178,-74],[-30,-41],[-107,-65]],[[1207,1315],[-79,77]],[[1128,1392],[38,103]],[[627,2005],[3,-11]],[[630,1994],[8,-112]],[[638,1882],[-142,-100],[-73,-84]],[[423,1698],[-44,71]],[[379,1769],[235,183],[13,53]],[[995,732],[42,-32]],[[1037,700],[20,-126],[48,-66],[15,-90]],[[1120,418],[-24,16]],[[2174,553],[72,-93]],[[2205,433],[-13,-9]],[[2192,424],[-8,53]],[[2184,477],[-10,76]],[[686,644],[38,-29]],[[695,589],[-16,-16]],[[2685,1316],[28,34]],[[2770,1300],[-41,-25]],[[2729,1275],[-46,20]],[[3202,1100],[32,-18]],[[3225,1000],[-22,33]],[[1724,906],[46,-41],[-22,-115]],[[1678,809],[46,97]],[[863,1432],[51,-96]],[[914,1336],[45,-86]],[[681,1064],[11,130],[-20,39]],[[347,1490],[46,-198]],[[415,1159],[-87,39]],[[328,1198],[-76,59]],[[227,1494],[-1,2]],[[2864,1044],[59,1],[-5,-85]],[[1516,930],[-82,-29]],[[1434,901],[-59,46],[-91,-19]],[[1284,928],[9,21]],[[2729,1275],[34,-36]],[[2763,1239],[-63,-12]],[[163,1247],[-117,-17]],[[46,1230],[-46,116],[80,10],[31,92]],[[647,254],[99,12]],[[746,266],[28,-117]],[[774,149],[-88,-10]],[[445,352],[24,-23]],[[469,329],[-37,-45]],[[370,336],[-42,27]],[[328,363],[43,39]],[[2494,602],[-25,-76]],[[2469,526],[-72,30]],[[780,727],[59,60]],[[877,826],[42,-36]],[[816,698],[-36,29]],[[2427,1237],[44,-53],[-104,-20]],[[2341,1192],[-6,7]],[[2355,1050],[7,-41]],[[2339,918],[-55,34]],[[657,371],[-68,-13]],[[589,358],[-13,121]],[[48,64],[126,114]],[[234,118],[35,-28]],[[269,90],[-221,-26]],[[1992,791],[3,1]],[[1995,792],[7,1]],[[2125,617],[-163,-57]],[[1962,560],[-128,23]],[[996,911],[70,133]],[[1114,921],[4,-12]],[[1118,909],[-84,-16]],[[1034,893],[-26,8]],[[2605,1351],[-11,-9]],[[2529,1339],[-64,-18]],[[2465,1321],[98,144],[55,-62],[-13,-52]],[[2805,1106],[33,52]],[[2838,1158],[33,-18]],[[2871,1140],[-2,-21]],[[1036,881],[-2,12]],[[1118,909],[50,-127]],[[1168,782],[-83,-80],[39,-67]],[[1124,635],[-87,65]],[[2097,1969],[143,65]],[[2298,1986],[50,-59]],[[2348,1927],[-6,-38]],[[2342,1889],[-13,-23]],[[2329,1866],[-42,17]],[[2170,1876],[-73,93]],[[2072,1211],[79,-73]],[[2151,1138],[-82,-32]],[[2051,1210],[21,1]],[[1118,2405],[13,-4]],[[1131,2401],[-41,-84],[38,-32],[2,-86]],[[1130,2199],[-76,-11]],[[2952,1621],[8,-6]],[[2956,1556],[-24,26]],[[1747,381],[26,110]],[[1773,491],[73,-101],[52,66]],[[1898,456],[22,3]],[[1920,459],[16,-35]],[[1936,424],[-71,-86]],[[1846,276],[-118,-13]],[[1920,459],[42,101]],[[2125,617],[26,-33]],[[2151,584],[-28,-20]],[[2085,535],[-149,-111]],[[2184,2092],[83,-33]],[[2097,1969],[-6,70]],[[1916,1960],[66,-34]],[[1938,1860],[-78,-102]],[[1860,1758],[-96,53]],[[1764,1811],[104,49],[-11,52],[59,48]],[[1307,1097],[117,152],[43,-47]],[[1467,1202],[-25,-53]],[[1286,1229],[59,34],[-28,67],[198,97]],[[1515,1427],[22,-84],[-70,-141]],[[1746,1017],[36,-33]],[[1782,984],[-56,-76]],[[1726,908],[-44,52]],[[900,1101],[158,-59]],[[914,1336],[131,47],[83,9]],[[1207,1315],[79,-86]],[[1979,399],[77,3]],[[2126,361],[18,-10]],[[2144,351],[5,-43]],[[2148,308],[-103,62],[-69,15]],[[1976,385],[3,14]],[[2681,939],[37,51]],[[2772,939],[50,-49]],[[2822,890],[-36,-52],[-105,101]],[[439,478],[30,87]],[[2795,1902],[37,-38]],[[2094,849],[5,4]],[[2658,1031],[60,-41]],[[1951,1451],[64,10]],[[2015,1461],[22,-53],[-78,-23]],[[1959,1385],[-8,66]],[[1782,984],[57,-22]],[[1839,962],[-20,-183]],[[1724,906],[2,2]],[[2133,1654],[-14,27]],[[2156,1749],[9,-3]],[[2165,1746],[34,-50]],[[2199,1696],[23,-87]],[[2222,1609],[-58,-88]],[[2164,1521],[-113,65]],[[2469,526],[77,-58]],[[2546,468],[76,-17]],[[2622,451],[30,-69],[119,-52],[78,243],[-35,37],[-80,-13],[-52,-43],[-82,103],[76,121]],[[2676,778],[253,14]],[[3030,694],[-55,-124],[19,-125],[-16,-213],[59,-69],[-8,-74],[-42,-57],[-74,73],[-11,74],[-202,-65],[-68,61],[-79,-51],[-179,46]],[[2374,170],[25,89],[-114,149]],[[2285,408],[112,148]],[[952,1542],[74,106],[159,127]],[[1185,1775],[75,-65]],[[1310,1561],[-144,-66]],[[643,840],[33,-27]],[[692,800],[5,-5]],[[2210,601],[53,-25]],[[2263,576],[58,56]],[[2285,408],[-11,15]],[[2174,553],[36,48]],[[2546,468],[46,51]],[[2639,469],[-17,-18]],[[2144,351],[48,73]],[[2228,364],[-34,-44]],[[2194,320],[-26,-25]],[[2199,1696],[33,29]],[[2329,1693],[-72,-57]],[[2257,1636],[-35,-27]],[[3134,930],[-75,31]],[[2822,890],[10,-11]],[[2676,778],[-89,36]],[[3063,1180],[0,-1]],[[3048,1129],[-33,15]],[[2941,1391],[40,78]],[[2941,1266],[39,-3]],[[3016,1097],[-15,13]],[[2036,214],[-40,-65]],[[1804,1128],[-23,19]],[[1720,1039],[-37,29]],[[1683,1068],[38,55],[-70,37]],[[1651,1160],[-4,48]],[[1860,1758],[78,-54],[44,7],[74,80]],[[2056,1791],[26,-19]],[[1966,1622],[-22,-3]],[[1944,1619],[-45,-87]],[[1899,1532],[-79,-6],[-19,-63]],[[1742,1583],[62,105],[-40,123]],[[753,749],[27,-22]],[[1266,1807],[-81,-32]],[[921,1697],[145,71],[-16,68]],[[2461,840],[-37,32]],[[2132,1005],[12,47]],[[2263,1163],[-11,61]],[[1124,635],[138,-133]],[[1262,502],[148,-87]],[[1255,306],[-84,16],[-60,40],[9,56]],[[2327,1455],[92,-21]],[[2419,1434],[-50,-13]],[[546,350],[43,8]],[[131,222],[43,-44]],[[48,64],[-34,69],[117,89]],[[1515,1492],[0,-65]],[[1434,901],[-81,-104]],[[1353,797],[-35,28]],[[1269,919],[15,9]],[[1580,1061],[71,99]],[[1683,1068],[-78,-2]],[[1899,1532],[0,-4]],[[1930,1448],[21,3]],[[1959,1385],[-20,-3]],[[1939,1382],[-150,-21]],[[2342,1889],[22,-34]],[[2305,1823],[24,43]],[[2257,1636],[13,-59]],[[2220,1434],[-56,87]],[[2329,1693],[171,-86]],[[2450,1554],[-80,-42]],[[3007,884],[35,59]],[[347,1490],[85,13],[68,67]],[[423,1698],[51,-28],[26,-100]],[[250,1614],[65,63],[41,2],[23,90]],[[613,865],[21,82]],[[328,1198],[-118,-113],[-91,-58],[-73,203]],[[930,1780],[-23,-59]],[[873,1702],[-41,122]],[[1131,2401],[61,-24],[100,-79]],[[1292,2298],[-59,-109]],[[1233,2189],[-74,-21]],[[1159,2168],[-29,31]],[[1492,776],[-54,-41]],[[1438,735],[-85,62]],[[2801,1247],[-38,-9]],[[2763,1238],[0,1]],[[2821,1256],[10,-29]],[[2831,1227],[-48,-44]],[[2771,1217],[-8,21]],[[2831,1227],[7,-69]],[[2064,2088],[-152,-48]],[[1912,2040],[41,73],[100,36],[94,-42]],[[1978,1310],[86,34],[48,-116]],[[2112,1228],[-40,-17]],[[1581,534],[-9,-99]],[[1410,415],[123,25],[48,94]],[[1573,1081],[-13,84],[37,120]],[[1159,2168],[-3,-95]],[[1156,2073],[-144,14],[-112,-32]],[[2845,1312],[28,-4]],[[2873,1308],[-10,-25]],[[2913,1141],[-42,-1]],[[1806,1944],[-10,-95],[-45,-29]],[[1751,1820],[-67,51]],[[2310,189],[-4,60]],[[2306,249],[-112,71]],[[1961,306],[15,79]],[[1839,962],[21,-5]],[[1860,957],[79,-7]],[[1946,940],[-13,-80],[62,-68]],[[1939,1382],[7,-44]],[[280,91],[-11,-1]],[[1292,2298],[137,-128]],[[1234,2141],[-1,48]],[[1364,597],[74,138]],[[1528,746],[-48,-45],[135,-111]],[[1615,590],[-27,-42]],[[1588,548],[-109,34],[-36,-49],[-72,58]],[[1371,591],[-7,6]],[[3080,1214],[13,26]],[[3129,1572],[277,24],[50,25],[84,-69],[46,-1],[119,-106],[57,-92],[-122,-230],[-88,46],[-115,-127]],[[1156,2073],[-23,-12]],[[2102,177],[-111,-105]],[[477,339],[-8,-10]],[[403,429],[19,19]],[[2177,222],[129,27]],[[2184,132],[-14,6]],[[2244,669],[-27,-53],[46,-40]],[[2210,601],[-34,21]],[[2368,1724],[33,25]],[[2608,1615],[-51,-44]],[[2015,1461],[-60,99],[-11,59]],[[2215,1303],[-103,-75]],[[1262,502],[109,89]],[[1588,548],[-7,-14]],[[2415,1291],[50,30]],[[131,222],[51,61],[85,10],[61,70]],[[2174,553],[-23,31]],[[2934,959],[45,44]],[[1364,597],[-120,128]],[[2293,1800],[-41,37]],[[2085,1954],[12,15]],[[2187,1769],[-22,-23]],[[2056,1791],[-50,30]],[[2339,1338],[34,52],[68,21],[96,80],[20,80]],[[2646,1556],[-276,-233]],[[524,120],[-56,-7]],[[1860,957],[60,22]],[[2053,1041],[41,-80]],[[1913,2034],[-1,6]],[[1916,1960],[-3,74]],[[627,2005],[65,78],[121,0]],[[745,1923],[-33,82],[-82,-11]],[[1434,1982],[19,-10]],[[1646,1815],[-100,-140]],[[1524,1644],[-54,45],[-74,-95]],[[2348,1927],[18,43]],[[2414,1944],[54,-63],[-39,-46]],[[1882,2016],[31,18]],[[1764,1811],[-13,9]],[[2964,1038],[-19,-6]],[[2945,1032],[-18,36]],[[1979,399],[-43,25]],[[2873,1308],[23,66]],[[2605,1351],[44,6]],[[2786,1373],[3,-2]],[[1195,200],[-421,-51]],[[1751,1820],[-143,-187]],[[2934,959],[11,73]],[[1800,537],[67,-9],[31,-72]],[[2827,1460],[24,-96]],[[2490,1502],[-71,-68]],[[1502,2119],[79,-53],[106,36],[83,-74],[63,-25]],[[2164,470],[20,7]],[[2529,1970],[216,-54]],[[2499,1903],[30,67]],[[2074,1094],[73,14]],[[2266,1755],[-51,45]],[[2151,1138],[101,86]],[[2119,32],[-132,-32],[-20,18]],[[2483,1982],[46,-12]]],"transform":{"scale":[0.00008565098351940186,0.00006057834290402146],"translate":[-74.461035,40.59195]},"objects":{"Geometry\\34-039":{"type":"GeometryCollection","geometries":[{"arcs":[[0,1,2,3]],"type":"Polygon","properties":{"GEOID":"340390322002"}},{"arcs":[[4,5,6,7,8,9,10,11,12,13,14]],"type":"Polygon","properties":{"GEOID":"340390363011"}},{"arcs":[[15,16,17,18]],"type":"Polygon","properties":{"GEOID":"340390342002"}},{"arcs":[[19,20]],"type":"Polygon","properties":{"GEOID":"340390336006"}},{"arcs":[[21,22,23,24,25]],"type":"Polygon","properties":{"GEOID":"340390399001"}},{"arcs":[[26,27,28,29,30,31,32]],"type":"Polygon","properties":{"GEOID":"340390312002"}},{"arcs":[[33,34,35,36,37,38]],"type":"Polygon","properties":{"GEOID":"340390345002"}},{"arcs":[[39,40,41,42,43]],"type":"Polygon","properties":{"GEOID":"340390312005"}},{"arcs":[[44,45,46,47]],"type":"Polygon","properties":{"GEOID":"340390379001"}},{"arcs":[[48,49,50,51,52]],"type":"Polygon","properties":{"GEOID":"340390392004"}},{"arcs":[[53,54,55,56]],"type":"Polygon","properties":{"GEOID":"340390311004"}},{"arcs":[[57,58,59,60,61,62]],"type":"Polygon","properties":{"GEOID":"340390347001"}},{"arcs":[[63,64,65,66,67]],"type":"Polygon","properties":{"GEOID":"340390324012"}},{"arcs":[[68,69,70,71]],"type":"Polygon","properties":{"GEOID":"340390304003"}},{"arcs":[[72,73,74,75]],"type":"Polygon","properties":{"GEOID":"340390326001"}},{"arcs":[[76,77,78,79]],"type":"Polygon","properties":{"GEOID":"340390315004"}},{"arcs":[[80,81,82,83]],"type":"Polygon","properties":{"GEOID":"340390313022"}},{"arcs":[[84,85,86,87,88]],"type":"Polygon","properties":{"GEOID":"340390327024"}},{"arcs":[[89,90,-50,91,92]],"type":"Polygon","properties":{"GEOID":"340390393021"}},{"arcs":[[93,94,95,96,97]],"type":"Polygon","properties":{"GEOID":"340390384002"}},{"arcs":[[98,99,100,101,102]],"type":"Polygon","properties":{"GEOID":"340390382013"}},{"arcs":[[103,104,105,106,107,108,109,110,111]],"type":"Polygon","properties":{"GEOID":"340390306001"}},{"arcs":[[112,113,114,115]],"type":"Polygon","properties":{"GEOID":"340390320042"}},{"arcs":[[116,117,118,119,120]],"type":"Polygon","properties":{"GEOID":"340390333002"}},{"arcs":[[121,122,123,124,125,126]],"type":"Polygon","properties":{"GEOID":"340390318021"}},{"arcs":[[127,128,129,130]],"type":"Polygon","properties":{"GEOID":"340390367001"}},{"arcs":[[131,132,133,134,135,136,137]],"type":"Polygon","properties":{"GEOID":"340390366001"}},{"arcs":[[138,139,140,141,142,143,144]],"type":"Polygon","properties":{"GEOID":"340390335012"}},{"arcs":[[145,146,147,148]],"type":"Polygon","properties":{"GEOID":"340390377003"}},{"arcs":[[149,150,151,152,153,154,155]],"type":"Polygon","properties":{"GEOID":"340390372001"}},{"arcs":[[-6,156,157]],"type":"Polygon","properties":{"GEOID":"340390368001"}},{"arcs":[[-79,158,159,160]],"type":"Polygon","properties":{"GEOID":"340390314004"}},{"arcs":[[161,-77,162]],"type":"Polygon","properties":{"GEOID":"340390315002"}},{"arcs":[[163,164,165,166]],"type":"Polygon","properties":{"GEOID":"340390396002"}},{"arcs":[[167,168,169,170]],"type":"Polygon","properties":{"GEOID":"340390321022"}},{"arcs":[[171,172,173,174,175,176,177,-61]],"type":"Polygon","properties":{"GEOID":"340390351001"}},{"arcs":[[178,179,180]],"type":"Polygon","properties":{"GEOID":"340390307041"}},{"arcs":[[181,-180,182,183,184]],"type":"Polygon","properties":{"GEOID":"340390307031"}},{"arcs":[[185,186,187,188,189]],"type":"Polygon","properties":{"GEOID":"340390316013"}},{"arcs":[[190,191,192,193]],"type":"Polygon","properties":{"GEOID":"340390387024"}},{"arcs":[[194,195,196,197]],"type":"Polygon","properties":{"GEOID":"340390387023"}},{"arcs":[[198,199,200,201]],"type":"Polygon","properties":{"GEOID":"340390324022"}},{"arcs":[[202,203]],"type":"Polygon","properties":{"GEOID":"340390398011"}},{"arcs":[[204,-76,205,206,207,208]],"type":"Polygon","properties":{"GEOID":"340390327021"}},{"arcs":[[209,210,211,-72,212,213,-109]],"type":"Polygon","properties":{"GEOID":"340390305002"}},{"arcs":[[214,215,216,217,218,219]],"type":"Polygon","properties":{"GEOID":"340390339002"}},{"arcs":[[220,221,222,223]],"type":"Polygon","properties":{"GEOID":"340390311002"}},{"arcs":[[224,-161,225,226]],"type":"Polygon","properties":{"GEOID":"340390314003"}},{"arcs":[[227,228,229,230,-163,231]],"type":"Polygon","properties":{"GEOID":"340390315001"}},{"arcs":[[232,233,234,235,236]],"type":"Polygon","properties":{"GEOID":"340390370001"}},{"arcs":[[237,238,239,240,241]],"type":"Polygon","properties":{"GEOID":"340390325001"}},{"arcs":[[242,243,-155,244,245,246,247]],"type":"Polygon","properties":{"GEOID":"340390372002"}},{"arcs":[[248,249,250,251]],"type":"Polygon","properties":{"GEOID":"340390388001"}},{"arcs":[[252,253,-91,254]],"type":"Polygon","properties":{"GEOID":"340390390001"}},{"arcs":[[-166,255,256]],"type":"Polygon","properties":{"GEOID":"340390396003"}},{"arcs":[[257,258,-28]],"type":"Polygon","properties":{"GEOID":"340390312001"}},{"arcs":[[259,260,261,262,263]],"type":"Polygon","properties":{"GEOID":"340390356003"}},{"arcs":[[-144,264,265,266]],"type":"Polygon","properties":{"GEOID":"340390338002"}},{"arcs":[[267,-97,268,269]],"type":"Polygon","properties":{"GEOID":"340390384005"}},{"arcs":[[270,271,272,273,274]],"type":"Polygon","properties":{"GEOID":"340390380001"}},{"arcs":[[275,276,277,278,279,280,281,282]],"type":"Polygon","properties":{"GEOID":"340390348004"}},{"arcs":[[283,-247,284,285,286,287,288]],"type":"Polygon","properties":{"GEOID":"340390369002"}},{"arcs":[[289,290,291,292]],"type":"Polygon","properties":{"GEOID":"340390388003"}},{"arcs":[[293,294,295,296,297,298,-289,299,300]],"type":"Polygon","properties":{"GEOID":"340390369005"}},{"arcs":[[301,302,303,304,305]],"type":"Polygon","properties":{"GEOID":"340390363022"}},{"arcs":[[306,307,-48,308,309]],"type":"Polygon","properties":{"GEOID":"340390379004"}},{"arcs":[[310,311,312,313,-46]],"type":"Polygon","properties":{"GEOID":"340390380005"}},{"arcs":[[-143,314,315,316,-265]],"type":"Polygon","properties":{"GEOID":"340390338001"}},{"arcs":[[317,318,319,-175,320,-37]],"type":"Polygon","properties":{"GEOID":"340390345003"}},{"arcs":[[-219,321,322,-16,323,324]],"type":"Polygon","properties":{"GEOID":"340390340003"}},{"arcs":[[325,326,327,328]],"type":"Polygon","properties":{"GEOID":"340390348001"}},{"arcs":[[329,330,331]],"type":"Polygon","properties":{"GEOID":"340390325005"}},{"arcs":[[332,333,334,335,336,337]],"type":"Polygon","properties":{"GEOID":"340390331003"}},{"arcs":[[338,339,340,341]],"type":"Polygon","properties":{"GEOID":"340390322004"}},{"arcs":[[342,343,344,345,346]],"type":"Polygon","properties":{"GEOID":"340390328004"}},{"arcs":[[347,348,349,350,351]],"type":"Polygon","properties":{"GEOID":"340390309003"}},{"arcs":[[352,353,-274,354,355]],"type":"Polygon","properties":{"GEOID":"340390380003"}},{"arcs":[[356,357,358,359]],"type":"Polygon","properties":{"GEOID":"340390391002"}},{"arcs":[[360,361,-132,362,363]],"type":"Polygon","properties":{"GEOID":"340390365003"}},{"arcs":[[364,-294,365,366]],"type":"Polygon","properties":{"GEOID":"340390364003"}},{"arcs":[[367,-156,-244,368]],"type":"Polygon","properties":{"GEOID":"340390370004"}},{"arcs":[[369,370,371,372,373,-336]],"type":"Polygon","properties":{"GEOID":"340390331002"}},{"arcs":[[-121,374,375]],"type":"Polygon","properties":{"GEOID":"340390333004"}},{"arcs":[[376,377,-34,378,379,380]],"type":"Polygon","properties":{"GEOID":"340390344004"}},{"arcs":[[381,-348,382,383]],"type":"Polygon","properties":{"GEOID":"340390309002"}},{"arcs":[[-259,384,385,386,387,-29]],"type":"Polygon","properties":{"GEOID":"340390302001"}},{"arcs":[[388,389,390,391,392]],"type":"Polygon","properties":{"GEOID":"340390359003"}},{"arcs":[[-52,393,394,395,396]],"type":"Polygon","properties":{"GEOID":"340390397004"}},{"arcs":[[397,-295,-365,398]],"type":"Polygon","properties":{"GEOID":"340390364002"}},{"arcs":[[399,400,401,402]],"type":"Polygon","properties":{"GEOID":"340390376011"}},{"arcs":[[403,404,405,406]],"type":"Polygon","properties":{"GEOID":"340390307012"}},{"arcs":[[407,-342,408,409]],"type":"Polygon","properties":{"GEOID":"340390322005"}},{"arcs":[[410,411,412,413,414,-7,-158,415,416]],"type":"Polygon","properties":{"GEOID":"340390368005"}},{"arcs":[[417,418,419,420,421]],"type":"Polygon","properties":{"GEOID":"340390319033"}},{"arcs":[[-240,422,423,424,425]],"type":"Polygon","properties":{"GEOID":"340390316021"}},{"arcs":[[426,-242,427,428,-331]],"type":"Polygon","properties":{"GEOID":"340390325003"}},{"arcs":[[429,430,431,432,433]],"type":"Polygon","properties":{"GEOID":"340390329012"}},{"arcs":[[434,-172,-60,435]],"type":"Polygon","properties":{"GEOID":"340390346001"}},{"arcs":[[436,437,-237,438,439]],"type":"Polygon","properties":{"GEOID":"340390370003"}},{"arcs":[[440,441,442,443]],"type":"Polygon","properties":{"GEOID":"340390386021"}},{"arcs":[[-231,444,445,-162]],"type":"Polygon","properties":{"GEOID":"340390313011"}},{"arcs":[[-263,446,447]],"type":"Polygon","properties":{"GEOID":"340390356004"}},{"arcs":[[448,-148,449,-353,450,-313]],"type":"Polygon","properties":{"GEOID":"340390380004"}},{"arcs":[[-218,451,452,453,454,455,-322]],"type":"Polygon","properties":{"GEOID":"340390340002"}},{"arcs":[[456,457,458,459]],"type":"Polygon","properties":{"GEOID":"340390389002"}},{"arcs":[[460,461,462,-100,463]],"type":"Polygon","properties":{"GEOID":"340390381012"}},{"arcs":[[-428,-241,-426,464,465,466]],"type":"Polygon","properties":{"GEOID":"340390325002"}},{"arcs":[[467,-431,468]],"type":"Polygon","properties":{"GEOID":"340390329011"}},{"arcs":[[-115,469,470,471]],"type":"Polygon","properties":{"GEOID":"340390320041"}},{"arcs":[[472,-197,473,474]],"type":"Polygon","properties":{"GEOID":"340390387011"}},{"arcs":[[475,476,477,478,479,480]],"type":"Polygon","properties":{"GEOID":"340390381044"}},{"arcs":[[481,482,483,484]],"type":"Polygon","properties":{"GEOID":"340390350001"}},{"arcs":[[485,486,487,-104,488]],"type":"Polygon","properties":{"GEOID":"340390306002"}},{"arcs":[[489,490,491,492,493,494]],"type":"Polygon","properties":{"GEOID":"340390359001"}},{"arcs":[[495,-381,496,497,498]],"type":"Polygon","properties":{"GEOID":"340390344003"}},{"arcs":[[499,500,-281,501,502,503,504]],"type":"Polygon","properties":{"GEOID":"340390349005"}},{"arcs":[[505,506,-228,507,-187,508]],"type":"Polygon","properties":{"GEOID":"340390316023"}},{"arcs":[[509,510,-134,511,512]],"type":"Polygon","properties":{"GEOID":"340390365001"}},{"arcs":[[-388,513,514,-30]],"type":"Polygon","properties":{"GEOID":"340390302002"}},{"arcs":[[-31,-515,515,516,517]],"type":"Polygon","properties":{"GEOID":"340390310001"}},{"arcs":[[518,519,520,-95,521]],"type":"Polygon","properties":{"GEOID":"340390385005"}},{"arcs":[[522,523,524,525,-400]],"type":"Polygon","properties":{"GEOID":"340390375003"}},{"arcs":[[-516,526,-211,527,528]],"type":"Polygon","properties":{"GEOID":"340390305001"}},{"arcs":[[-262,529,530,531,532,-447]],"type":"Polygon","properties":{"GEOID":"340390357005"}},{"arcs":[[533,534,535,536,537]],"type":"Polygon","properties":{"GEOID":"340390337003"}},{"arcs":[[-466,538,-190,539,540]],"type":"Polygon","properties":{"GEOID":"340390317001"}},{"arcs":[[541,542,543,-119]],"type":"Polygon","properties":{"GEOID":"340390333001"}},{"arcs":[[544,545,546,-123]],"type":"Polygon","properties":{"GEOID":"340390317003"}},{"arcs":[[547,548,-475,549,-442,550,-358]],"type":"Polygon","properties":{"GEOID":"340390391001"}},{"arcs":[[-71,551,552,-203,553,554,555,-213]],"type":"Polygon","properties":{"GEOID":"340390398013"}},{"arcs":[[556,-487,557,-184]],"type":"Polygon","properties":{"GEOID":"340390307032"}},{"arcs":[[558,-3,559,-410,560]],"type":"Polygon","properties":{"GEOID":"340390322001"}},{"arcs":[[-455,561,562]],"type":"Polygon","properties":{"GEOID":"340390341002"}},{"arcs":[[563,-10,564]],"type":"Polygon","properties":{"GEOID":"340390373002"}},{"arcs":[[565,566,-371,567]],"type":"Polygon","properties":{"GEOID":"340390326004"}},{"arcs":[[568,569,-116,570,571,-453]],"type":"Polygon","properties":{"GEOID":"340390340001"}},{"arcs":[[572,573,574,575,576]],"type":"Polygon","properties":{"GEOID":"340390353001"}},{"arcs":[[-154,577,578,579,580,581]],"type":"Polygon","properties":{"GEOID":"340390372004"}},{"arcs":[[582,583,584,-327,585]],"type":"Polygon","properties":{"GEOID":"340390343003"}},{"arcs":[[-316,586,587,-534,588]],"type":"Polygon","properties":{"GEOID":"340390337002"}},{"arcs":[[589,-552,-70,590]],"type":"Polygon","properties":{"GEOID":"340390304004"}},{"arcs":[[-514,-387,591,592,-527]],"type":"Polygon","properties":{"GEOID":"340390304002"}},{"arcs":[[593,594,-318,-36]],"type":"Polygon","properties":{"GEOID":"340390345004"}},{"arcs":[[595,596,597,-151,598,-235]],"type":"Polygon","properties":{"GEOID":"340390370002"}},{"arcs":[[-287,599,-413,600]],"type":"Polygon","properties":{"GEOID":"340390369003"}},{"arcs":[[601,602,-283,603,-500,604]],"type":"Polygon","properties":{"GEOID":"340390348005"}},{"arcs":[[-279,605,606,-485,607,608]],"type":"Polygon","properties":{"GEOID":"340390349001"}},{"arcs":[[609,610,-167,611,612,613]],"type":"Polygon","properties":{"GEOID":"340390394001"}},{"arcs":[[-300,-288,-601,-412,614,615]],"type":"Polygon","properties":{"GEOID":"340390369004"}},{"arcs":[[616,617,618]],"type":"Polygon","properties":{"GEOID":"340390377001"}},{"arcs":[[619,620,621,622]],"type":"Polygon","properties":{"GEOID":"340390355006"}},{"arcs":[[623,-202,624,625]],"type":"Polygon","properties":{"GEOID":"340390332001"}},{"arcs":[[-513,626,-361,627,628,629]],"type":"Polygon","properties":{"GEOID":"340390365004"}},{"arcs":[[-130,630,631,632]],"type":"Polygon","properties":{"GEOID":"340390367002"}},{"arcs":[[-345,633,634]],"type":"Polygon","properties":{"GEOID":"340390328002"}},{"arcs":[[635,-629,636,637,-519]],"type":"Polygon","properties":{"GEOID":"340390385001"}},{"arcs":[[-459,-293,638,639,640]],"type":"Polygon","properties":{"GEOID":"340390389001"}},{"arcs":[[641,642,643]],"type":"Polygon","properties":{"GEOID":"340390382025"}},{"arcs":[[644,645,646,-420]],"type":"Polygon","properties":{"GEOID":"340390319032"}},{"arcs":[[647,648,-602,649]],"type":"Polygon","properties":{"GEOID":"340390348003"}},{"arcs":[[-25,650,-44,651,652,653,-54,654]],"type":"Polygon","properties":{"GEOID":"340390311005"}},{"arcs":[[655,656,657,658]],"type":"Polygon","properties":{"GEOID":"340390358001"}},{"arcs":[[-147,-275,-354,-450]],"type":"Polygon","properties":{"GEOID":"340390380002"}},{"arcs":[[-396,659,660,661]],"type":"Polygon","properties":{"GEOID":"340390397003"}},{"arcs":[[-269,-96,662,-191,663,664,665,666]],"type":"Polygon","properties":{"GEOID":"340390384003"}},{"arcs":[[667,668,669]],"type":"Polygon","properties":{"GEOID":"340390330003"}},{"arcs":[[670,-517,-529,-349,-382,671,-222]],"type":"Polygon","properties":{"GEOID":"340390310002"}},{"arcs":[[672,673,-389,-494]],"type":"Polygon","properties":{"GEOID":"340390359002"}},{"arcs":[[674,-495,-393,675,676,677]],"type":"Polygon","properties":{"GEOID":"340390357003"}},{"arcs":[[-201,678,679,680,681,-625]],"type":"Polygon","properties":{"GEOID":"340390324021"}},{"arcs":[[-321,-174,682,-38]],"type":"Polygon","properties":{"GEOID":"340390345005"}},{"arcs":[[-446,683,684,685,-78]],"type":"Polygon","properties":{"GEOID":"340390313012"}},{"arcs":[[-189,686,687,-540]],"type":"Polygon","properties":{"GEOID":"340390316012"}},{"arcs":[[688,-480,689,690]],"type":"Polygon","properties":{"GEOID":"340390381043"}},{"arcs":[[691,-170,692,693,-113,-570,694]],"type":"Polygon","properties":{"GEOID":"340390321013"}},{"arcs":[[695,696,-58,697,698,699]],"type":"Polygon","properties":{"GEOID":"340390347004"}},{"arcs":[[700,-613,701,702]],"type":"Polygon","properties":{"GEOID":"340390395012"}},{"arcs":[[703,704,705,706]],"type":"Polygon","properties":{"GEOID":"340390334001"}},{"arcs":[[707,708,-227,709,710,-23]],"type":"Polygon","properties":{"GEOID":"340390314002"}},{"arcs":[[711,712,-440,713,714,715,716]],"type":"Polygon","properties":{"GEOID":"340390371001"}},{"arcs":[[-699,717,-606,718]],"type":"Polygon","properties":{"GEOID":"340390347003"}},{"arcs":[[719,720,721]],"type":"Polygon","properties":{"GEOID":"340390330002"}},{"arcs":[[722,723,724,725,726]],"type":"Polygon","properties":{"GEOID":"340390392001"}},{"arcs":[[-498,727,728,729,-696,730,731]],"type":"Polygon","properties":{"GEOID":"340390344002"}},{"arcs":[[-88,732,733]],"type":"Polygon","properties":{"GEOID":"340390327011"}},{"arcs":[[-694,734,735,-422,736,-470,-114]],"type":"Polygon","properties":{"GEOID":"340390320032"}},{"arcs":[[737,-614,-701,738]],"type":"Polygon","properties":{"GEOID":"340390395022"}},{"arcs":[[-664,-194,739,740,741,742]],"type":"Polygon","properties":{"GEOID":"340390387013"}},{"arcs":[[-125,743,744,745]],"type":"Polygon","properties":{"GEOID":"340390318022"}},{"arcs":[[-483,746,747,748]],"type":"Polygon","properties":{"GEOID":"340390351002"}},{"arcs":[[-646,749,-182,-404,750]],"type":"Polygon","properties":{"GEOID":"340390307033"}},{"arcs":[[751,-277,752,-585]],"type":"Polygon","properties":{"GEOID":"340390343002"}},{"arcs":[[-561,-409,-341,753,-238,-427,-330,754,-66,755,-64,756,757]],"type":"Polygon","properties":{"GEOID":"340390323002"}},{"arcs":[[-571,-472,758,759,760,-594,-35,-378,761]],"type":"Polygon","properties":{"GEOID":"340390341001"}},{"arcs":[[762,763,-677,764,-260,765]],"type":"Polygon","properties":{"GEOID":"340390356002"}},{"arcs":[[766,767,768,-693]],"type":"Polygon","properties":{"GEOID":"340390321012"}},{"arcs":[[769,770,771,772]],"type":"Polygon","properties":{"GEOID":"340390355003"}},{"arcs":[[773,774,775,-768,776]],"type":"Polygon","properties":{"GEOID":"340390321011"}},{"arcs":[[777,-647,-751,778]],"type":"Polygon","properties":{"GEOID":"340390320021"}},{"arcs":[[-686,779,-81,-159]],"type":"Polygon","properties":{"GEOID":"340390313023"}},{"arcs":[[780,781,782]],"type":"Polygon","properties":{"GEOID":"340390393011"}},{"arcs":[[783,-67,-755,784,785,-681]],"type":"Polygon","properties":{"GEOID":"340390324013"}},{"arcs":[[786,787,788,789]],"type":"Polygon","properties":{"GEOID":"340390383004"}},{"arcs":[[790,-375,-120,-544,791,792,-139,793]],"type":"Polygon","properties":{"GEOID":"340390334004"}},{"arcs":[[-785,-332,-429,-467,794,795,796]],"type":"Polygon","properties":{"GEOID":"340390325004"}},{"arcs":[[-460,-641,797,798,-253,799]],"type":"Polygon","properties":{"GEOID":"340390390002"}},{"arcs":[[-193,800,801,802,-740]],"type":"Polygon","properties":{"GEOID":"340390387021"}},{"arcs":[[-359,-551,-441,803,804,-725,805]],"type":"Polygon","properties":{"GEOID":"340390391003"}},{"arcs":[[-497,-380,806,-728]],"type":"Polygon","properties":{"GEOID":"340390344001"}},{"arcs":[[-463,807,808,809,810,811,812,813,-101]],"type":"Polygon","properties":{"GEOID":"340390382014"}},{"arcs":[[814,815,816,-304,817]],"type":"Polygon","properties":{"GEOID":"340390363021"}},{"arcs":[[818,-251,-457,-800,819]],"type":"Polygon","properties":{"GEOID":"340390389004"}},{"arcs":[[820,-618,821,822,823,-307,824,-477,825]],"type":"Polygon","properties":{"GEOID":"340390378004"}},{"arcs":[[-471,-737,-421,-778,826,-759]],"type":"Polygon","properties":{"GEOID":"340390320031"}},{"arcs":[[-62,-178,827,-577,-747,828]],"type":"Polygon","properties":{"GEOID":"340390351003"}},{"arcs":[[829,830,831,832,833,834,-712,835,836]],"type":"Polygon","properties":{"GEOID":"340390376022"}},{"arcs":[[-757,-68,-784,-680]],"type":"Polygon","properties":{"GEOID":"340390324014"}},{"arcs":[[837,838,839,-574]],"type":"Polygon","properties":{"GEOID":"340390353002"}},{"arcs":[[840,-650,-605,-505,841]],"type":"Polygon","properties":{"GEOID":"340390361001"}},{"arcs":[[842,843,844,845]],"type":"Polygon","properties":{"GEOID":"340390382024"}},{"arcs":[[846,847,848,849,-620]],"type":"Polygon","properties":{"GEOID":"340390355007"}},{"arcs":[[850,851,852]],"type":"Polygon","properties":{"GEOID":"340390383001"}},{"arcs":[[853,854,855,856,857]],"type":"Polygon","properties":{"GEOID":"340390381032"}},{"arcs":[[-474,858,859,860,-443,-550]],"type":"Polygon","properties":{"GEOID":"340390386023"}},{"arcs":[[861,-770,862,863,864]],"type":"Polygon","properties":{"GEOID":"340390355002"}},{"arcs":[[-640,865,-357,866,-723,-798]],"type":"Polygon","properties":{"GEOID":"340390390003"}},{"arcs":[[867,-126,868,869,-775]],"type":"Polygon","properties":{"GEOID":"340390318011"}},{"arcs":[[-718,-698,-63,-829,-482,-607]],"type":"Polygon","properties":{"GEOID":"340390347002"}},{"arcs":[[870,-554,-204,-553,-590,871,-592,-386]],"type":"Polygon","properties":{"GEOID":"340390398012"}},{"arcs":[[872,-8,-415,873]],"type":"Polygon","properties":{"GEOID":"340390374004"}},{"arcs":[[-813,874,875,-636,-522,-94,876]],"type":"Polygon","properties":{"GEOID":"340390384001"}},{"arcs":[[-844,877,-103,878,879,-642,880]],"type":"Polygon","properties":{"GEOID":"340390382011"}},{"arcs":[[-183,881,-105,-488,-557]],"type":"Polygon","properties":{"GEOID":"340390308021"}},{"arcs":[[-137,-366,-301,-616,882,883,884]],"type":"Polygon","properties":{"GEOID":"340390366002"}},{"arcs":[[-776,-870,885,886,-735,-769]],"type":"Polygon","properties":{"GEOID":"340390318012"}},{"arcs":[[-845,-881,-644,887,888]],"type":"Polygon","properties":{"GEOID":"340390382021"}},{"arcs":[[889,890,891,-660]],"type":"Polygon","properties":{"GEOID":"340390397002"}},{"arcs":[[-783,892,893,-611,894,895]],"type":"Polygon","properties":{"GEOID":"340390393012"}},{"arcs":[[-748,-576,896,897]],"type":"Polygon","properties":{"GEOID":"340390353005"}},{"arcs":[[898,-742,899,-198,-473,-549,900]],"type":"Polygon","properties":{"GEOID":"340390387012"}},{"arcs":[[-537,901,-216,902]],"type":"Polygon","properties":{"GEOID":"340390337001"}},{"arcs":[[-323,-456,-563,903,-499,-732,904,-17]],"type":"Polygon","properties":{"GEOID":"340390342001"}},{"arcs":[[-799,-727,905,906]],"type":"Polygon","properties":{"GEOID":"340390392002"}},{"arcs":[[907,-739,-703,908,909]],"type":"Polygon","properties":{"GEOID":"340390395021"}},{"arcs":[[-12,910,911,-842,-504,912,913]],"type":"Polygon","properties":{"GEOID":"340390362005"}},{"arcs":[[914,-628,-364,915,916,917,-802]],"type":"Polygon","properties":{"GEOID":"340390385002"}},{"arcs":[[918,-168,919,920]],"type":"Polygon","properties":{"GEOID":"340390335021"}},{"arcs":[[921,922,923,-181,-750]],"type":"Polygon","properties":{"GEOID":"340390307042"}},{"arcs":[[-196,924,-917,925,926,927,-859]],"type":"Polygon","properties":{"GEOID":"340390386013"}},{"arcs":[[928,-208,929,930,931,932,-85,933]],"type":"Polygon","properties":{"GEOID":"340390327023"}},{"arcs":[[934,935,-598,936]],"type":"Polygon","properties":{"GEOID":"340390338004"}},{"arcs":[[-562,-454,-572,-762,-377,-496,-904]],"type":"Polygon","properties":{"GEOID":"340390341003"}},{"arcs":[[-617,937,938,939,-822]],"type":"Polygon","properties":{"GEOID":"340390377004"}},{"arcs":[[-424,940,-506,941]],"type":"Polygon","properties":{"GEOID":"340390316024"}},{"arcs":[[942,943,944,945,946,-763,947,-816]],"type":"Polygon","properties":{"GEOID":"340390362002"}},{"arcs":[[948,-913,949,950,-848,951,-946]],"type":"Polygon","properties":{"GEOID":"340390362001"}},{"arcs":[[-346,-635,952,-209,-929,953]],"type":"Polygon","properties":{"GEOID":"340390328001"}},{"arcs":[[954,-434,955,956,957]],"type":"Polygon","properties":{"GEOID":"340390329021"}},{"arcs":[[958,959,-399,-367,-136]],"type":"Polygon","properties":{"GEOID":"340390364004"}},{"arcs":[[960,961,-959,-135,-511]],"type":"Polygon","properties":{"GEOID":"340390364005"}},{"arcs":[[-246,962,963,964,-285]],"type":"Polygon","properties":{"GEOID":"340390374001"}},{"arcs":[[965,-637,-915,-801,-192,-663,-521]],"type":"Polygon","properties":{"GEOID":"340390385003"}},{"arcs":[[966,-852,967,-510,-630,-876]],"type":"Polygon","properties":{"GEOID":"340390383002"}},{"arcs":[[968,-622,969,970,-491,971,972]],"type":"Polygon","properties":{"GEOID":"340390357001"}},{"arcs":[[973,-406,974,975]],"type":"Polygon","properties":{"GEOID":"340390352001"}},{"arcs":[[-820,-255,-90,976]],"type":"Polygon","properties":{"GEOID":"340390389003"}},{"arcs":[[-2,977,-339,-408,-560]],"type":"Polygon","properties":{"GEOID":"340390322003"}},{"arcs":[[-328,-753,-276,-603,-649,978]],"type":"Polygon","properties":{"GEOID":"340390348002"}},{"arcs":[[-761,979,-974,-319,-595]],"type":"Polygon","properties":{"GEOID":"340390345001"}},{"arcs":[[980,981,982]],"type":"Polygon","properties":{"GEOID":"340390336004"}},{"arcs":[[-964,983,984,-565,-9,-873,985]],"type":"Polygon","properties":{"GEOID":"340390374003"}},{"arcs":[[-721,986,-669,987,988,989,990,991]],"type":"Polygon","properties":{"GEOID":"340390330001"}},{"arcs":[[-898,992,993,994,995,-111,996,997,998]],"type":"Polygon","properties":{"GEOID":"340390354001"}},{"arcs":[[999,1000,-790,1001,-853,-967,-875,-812]],"type":"Polygon","properties":{"GEOID":"340390383003"}},{"arcs":[[-250,1002,-666,1003,-290,-458]],"type":"Polygon","properties":{"GEOID":"340390388002"}},{"arcs":[[1004,1005,-484,-749,-999,1006,-771,-862,1007]],"type":"Polygon","properties":{"GEOID":"340390350002"}},{"arcs":[[1008,-839,1009,-994]],"type":"Polygon","properties":{"GEOID":"340390353003"}},{"arcs":[[1010,-863,-773,1011,1012,-492,-971]],"type":"Polygon","properties":{"GEOID":"340390355004"}},{"arcs":[[1013,-337,-374,1014,1015,-990]],"type":"Polygon","properties":{"GEOID":"340390331007"}},{"arcs":[[-528,1016,-350]],"type":"Polygon","properties":{"GEOID":"340390305004"}},{"arcs":[[-320,-976,1017,-489,-112,-996,1018,-176]],"type":"Polygon","properties":{"GEOID":"340390352002"}},{"arcs":[[1019,-33,1020,-652,-43]],"type":"Polygon","properties":{"GEOID":"340390312003"}},{"arcs":[[1021,-232,-80,-225,-709]],"type":"Polygon","properties":{"GEOID":"340390315003"}},{"arcs":[[-711,1022,-83,-40,-651,-24]],"type":"Polygon","properties":{"GEOID":"340390312004"}},{"arcs":[[-1021,-32,-518,-671,-221,1023,-653]],"type":"Polygon","properties":{"GEOID":"340390311001"}},{"arcs":[[-575,-840,-1009,-993,-897]],"type":"Polygon","properties":{"GEOID":"340390353004"}},{"arcs":[[-765,-676,1024,-530,-261]],"type":"Polygon","properties":{"GEOID":"340390357004"}},{"arcs":[[-439,-236,-599,-150,-368,1025,-714]],"type":"Polygon","properties":{"GEOID":"340390370005"}},{"arcs":[[-902,-536,-695,-569,-452,-217]],"type":"Polygon","properties":{"GEOID":"340390337004"}},{"arcs":[[-715,-1026,-369,-243,1026,1027,1028]],"type":"Polygon","properties":{"GEOID":"340390371004"}},{"arcs":[[-957,1029,1030,-670,-987,-720,1031,1032,1033,-834,1034]],"type":"Polygon","properties":{"GEOID":"340390330004"}},{"arcs":[[-292,1035,-901,-548,-866,-639]],"type":"Polygon","properties":{"GEOID":"340390388004"}},{"arcs":[[-47,-314,-451,-356,1036,-1000,-811,1037]],"type":"Polygon","properties":{"GEOID":"340390379002"}},{"arcs":[[-807,-379,-39,-683,-173,-435,1038,-729]],"type":"Polygon","properties":{"GEOID":"340390346002"}},{"arcs":[[-324,-19,-583,1039]],"type":"Polygon","properties":{"GEOID":"340390342003"}},{"arcs":[[-266,-317,-589,-538,-903,-215,1040]],"type":"Polygon","properties":{"GEOID":"340390339001"}},{"arcs":[[-928,1041,1042,-302,1043,-860]],"type":"Polygon","properties":{"GEOID":"340390386012"}},{"arcs":[[-638,-966,-520]],"type":"Polygon","properties":{"GEOID":"340390385004"}},{"arcs":[[1044,1045,-140,-793]],"type":"Polygon","properties":{"GEOID":"340390334003"}},{"arcs":[[-906,-726,-805,-890,-395,1046]],"type":"Polygon","properties":{"GEOID":"340390397001"}},{"arcs":[[1047,-908,1048]],"type":"Polygon","properties":{"GEOID":"340390394003"}},{"arcs":[[-789,-837,1049,-961,-968,-851,-1002]],"type":"Polygon","properties":{"GEOID":"340390383005"}},{"arcs":[[-884,1050,1051,-128,1052]],"type":"Polygon","properties":{"GEOID":"340390367003"}},{"arcs":[[1053,-1028,1054,-298]],"type":"Polygon","properties":{"GEOID":"340390371003"}},{"arcs":[[-835,-1034,1055,-21,1056,-983,1057,1058,-437,-713]],"type":"Polygon","properties":{"GEOID":"340390336007"}},{"arcs":[[-932,1059,-568,-370,-335,1060]],"type":"Polygon","properties":{"GEOID":"340390331001"}},{"arcs":[[-1016,1061,-117,-376,-791,1062,-991]],"type":"Polygon","properties":{"GEOID":"340390333003"}},{"arcs":[[-1015,1063,-704,1064,-542,-118,-1062]],"type":"Polygon","properties":{"GEOID":"340390332003"}},{"arcs":[[-351,-1017,-210,-108,1065]],"type":"Polygon","properties":{"GEOID":"340390305003"}},{"arcs":[[1066,-464,-99,-878]],"type":"Polygon","properties":{"GEOID":"340390382012"}},{"arcs":[[-857,1067,-1067,-843,1068]],"type":"Polygon","properties":{"GEOID":"340390382023"}},{"arcs":[[-254,-907,-1047,-394,-51]],"type":"Polygon","properties":{"GEOID":"340390392003"}},{"arcs":[[-270,-667,-1003,-249,1069]],"type":"Polygon","properties":{"GEOID":"340390384004"}},{"arcs":[[-888,-643,-880,1070]],"type":"Polygon","properties":{"GEOID":"340390382022"}},{"arcs":[[-478,-825,-310,1071,-809,1072]],"type":"Polygon","properties":{"GEOID":"340390381013"}},{"arcs":[[1073,1074,1075,1076,-939]],"type":"Polygon","properties":{"GEOID":"340390377005"}},{"arcs":[[-425,-942,-509,-186,-539,-465]],"type":"Polygon","properties":{"GEOID":"340390316022"}},{"arcs":[[-1051,-883,-615,-411,1077,1078]],"type":"Polygon","properties":{"GEOID":"340390367004"}},{"arcs":[[-746,1079,1080,-886,-869]],"type":"Polygon","properties":{"GEOID":"340390318013"}},{"arcs":[[-1080,-745,1081,1082,-419,1083]],"type":"Polygon","properties":{"GEOID":"340390319042"}},{"arcs":[[-593,-872,-591,-69,-212]],"type":"Polygon","properties":{"GEOID":"340390304001"}},{"arcs":[[-1083,1084,-922,-645]],"type":"Polygon","properties":{"GEOID":"340390319041"}},{"arcs":[[-343,1085,1086]],"type":"Polygon","properties":{"GEOID":"340390328003"}},{"arcs":[[1087,1088,-937,-597]],"type":"Polygon","properties":{"GEOID":"340390336001"}},{"arcs":[[1089,-818,-303,1090]],"type":"Polygon","properties":{"GEOID":"340390363013"}},{"arcs":[[-363,-138,-885,-1053,-131,-633,-926,-916]],"type":"Polygon","properties":{"GEOID":"340390366003"}},{"arcs":[[-716,-1029,-1054,-297,1091]],"type":"Polygon","properties":{"GEOID":"340390371002"}},{"arcs":[[-940,-1077,1092,1093,-823]],"type":"Polygon","properties":{"GEOID":"340390378002"}},{"arcs":[[-185,-558,-486,-1018,-975,-405]],"type":"Polygon","properties":{"GEOID":"340390307011"}},{"arcs":[[-124,-547,1094,1095,-26,-655,-57,1096,-923,-1085,-1082,-744]],"type":"Polygon","properties":{"GEOID":"340390399002"}},{"arcs":[[-526,1097,1098]],"type":"Polygon","properties":{"GEOID":"340390375002"}},{"arcs":[[-772,-1007,-998,-657,1099,1100,-1012]],"type":"Polygon","properties":{"GEOID":"340390360002"}},{"arcs":[[-972,-490,-675,1101]],"type":"Polygon","properties":{"GEOID":"340390357002"}},{"arcs":[[1102,1103,-580,1104,-911,-11,-564,-985]],"type":"Polygon","properties":{"GEOID":"340390373001"}},{"arcs":[[-1059,1105,-233,-438]],"type":"Polygon","properties":{"GEOID":"340390336003"}},{"arcs":[[-702,-612,-257,1106,-909]],"type":"Polygon","properties":{"GEOID":"340390395011"}},{"arcs":[[-1075,1107,-271,-146,1108]],"type":"Polygon","properties":{"GEOID":"340390377002"}},{"arcs":[[1109,-1078,-417,1110,1111,1112,1113]],"type":"Polygon","properties":{"GEOID":"340390368004"}},{"arcs":[[-665,-743,-899,-1036,-291,-1004]],"type":"Polygon","properties":{"GEOID":"340390387014"}},{"arcs":[[-177,-1019,-995,-1010,-838,-573,-828]],"type":"Polygon","properties":{"GEOID":"340390354002"}},{"arcs":[[-42,1114,-684,-445,-230,1115,-555,-871,-385,-258,-27,-1020]],"type":"Polygon","properties":{"GEOID":"340399800001"}},{"arcs":[[-604,-282,-501]],"type":"Polygon","properties":{"GEOID":"340390349006"}},{"arcs":[[-1094,1116,-311,-45,-308,-824]],"type":"Polygon","properties":{"GEOID":"340390378003"}},{"arcs":[[-1025,-392,1117,-531]],"type":"Polygon","properties":{"GEOID":"340390358003"}},{"arcs":[[-92,-49,1118,-893,-782,1119]],"type":"Polygon","properties":{"GEOID":"340390393022"}},{"arcs":[[-962,-1050,-836,-717,-1092,-296,-398,-960]],"type":"Polygon","properties":{"GEOID":"340390364001"}},{"arcs":[[-18,-905,-731,-700,-719,-278,-752,-584]],"type":"Polygon","properties":{"GEOID":"340390343001"}},{"arcs":[[1120,-1100,-656,1121,-390,-674]],"type":"Polygon","properties":{"GEOID":"340390360003"}},{"arcs":[[-1093,-1076,-1109,-149,-449,-312,-1117]],"type":"Polygon","properties":{"GEOID":"340390378001"}},{"arcs":[[-502,-280,-609,1122,-1005,1123]],"type":"Polygon","properties":{"GEOID":"340390349004"}},{"arcs":[[1124,-626,-682,1125,-705,-1064,-373]],"type":"Polygon","properties":{"GEOID":"340390332002"}},{"arcs":[[-1058,-982,1126,-1032,-722,-992,-1063,-794,-145,1127,-1088,-596,-234,-1106]],"type":"Polygon","properties":{"GEOID":"340390336002"}},{"arcs":[[1128,-1113,1129,-1091,-1043]],"type":"Polygon","properties":{"GEOID":"340390386011"}},{"arcs":[[1130,-920,-171,-692,-535,-588]],"type":"Polygon","properties":{"GEOID":"340390321023"}},{"arcs":[[-895,-610,-738,-1048,1131]],"type":"Polygon","properties":{"GEOID":"340390394002"}},{"arcs":[[-608,-1006,-1123]],"type":"Polygon","properties":{"GEOID":"340390349003"}},{"arcs":[[-1124,-1008,1132,-950,-503]],"type":"Polygon","properties":{"GEOID":"340390349002"}},{"arcs":[[-512,-133,-362,-627]],"type":"Polygon","properties":{"GEOID":"340390365002"}},{"arcs":[[-803,-918,-925,-195,-900,-741]],"type":"Polygon","properties":{"GEOID":"340390387022"}},{"arcs":[[-887,-1081,-1084,-418,-736]],"type":"Polygon","properties":{"GEOID":"340390319031"}},{"arcs":[[1133,-383,-352,-1066,-107]],"type":"Polygon","properties":{"GEOID":"340390309004"}},{"arcs":[[-631,-129,-1052,-1079,-1110,1134]],"type":"Polygon","properties":{"GEOID":"340390368003"}},{"arcs":[[-933,-1061,-334,1135,-86]],"type":"Polygon","properties":{"GEOID":"340390331004"}},{"arcs":[[-468,1136,-934,-89,-734,1137,-988,-668,-1031,1138,-432]],"type":"Polygon","properties":{"GEOID":"340390327012"}},{"arcs":[[1139,-1126,-786,1140,-315,-142]],"type":"Polygon","properties":{"GEOID":"340390335011"}},{"arcs":[[-867,-360,-806,-724]],"type":"Polygon","properties":{"GEOID":"340390391004"}},{"arcs":[[-894,-1119,-53,-397,-662,1141,-164]],"type":"Polygon","properties":{"GEOID":"340390396001"}},{"arcs":[[-581,-1104,1142]],"type":"Polygon","properties":{"GEOID":"340390373004"}},{"arcs":[[-756,-65]],"type":"Polygon","properties":{"GEOID":"340390324011"}},{"arcs":[[-1127,-981,-1057,-20,-1056,-1033]],"type":"Polygon","properties":{"GEOID":"340390336005"}},{"arcs":[[-579,1143,-329,-979,-648,-841,-912,-1105]],"type":"Polygon","properties":{"GEOID":"340390373003"}},{"arcs":[[-433,-1139,-1030,-956]],"type":"Polygon","properties":{"GEOID":"340390329022"}},{"arcs":[[1144,-1086,-347,-954,-1137,-469,-430,-955,1145]],"type":"Polygon","properties":{"GEOID":"340390329013"}},{"arcs":[[1146,-826,-476,1147,-854]],"type":"Polygon","properties":{"GEOID":"340390381042"}},{"arcs":[[-632,-1135,-1114,-1129,-1042,-927]],"type":"Polygon","properties":{"GEOID":"340390386014"}},{"arcs":[[-1037,-355,1148,-402,1149,-831,1150,-787,-1001]],"type":"Polygon","properties":{"GEOID":"340390376012"}},{"arcs":[[1151,-206,-75,1152,-566,-1060,-931]],"type":"Polygon","properties":{"GEOID":"340390326002"}},{"arcs":[[-1098,-525,1153,-1146,-958,1154]],"type":"Polygon","properties":{"GEOID":"340390375001"}},{"arcs":[[-416,-157,-5,-1111]],"type":"Polygon","properties":{"GEOID":"340390368002"}},{"arcs":[[-55,-654,-1024,-224,1155,1156]],"type":"Polygon","properties":{"GEOID":"340390311003"}},{"arcs":[[-952,-847,-623,-969,1157]],"type":"Polygon","properties":{"GEOID":"340390355008"}},{"arcs":[[-1055,-1027,-248,-284,-299]],"type":"Polygon","properties":{"GEOID":"340390369001"}},{"arcs":[[1158,-687,-188,-508,-1022,-708,-22,-1096]],"type":"Polygon","properties":{"GEOID":"340390316011"}},{"arcs":[[-286,-965,-986,-874,-414,-600]],"type":"Polygon","properties":{"GEOID":"340390374002"}},{"arcs":[[-1148,-481,-689,-855]],"type":"Polygon","properties":{"GEOID":"340390381041"}},{"arcs":[[-169,-919,1159,-777,-767]],"type":"Polygon","properties":{"GEOID":"340390321021"}},{"arcs":[[-1141,-797,1160,-127,-868,-774,-1160,-921,-1131,-587]],"type":"Polygon","properties":{"GEOID":"340390335022"}},{"arcs":[[-856,-691,-461,-1068]],"type":"Polygon","properties":{"GEOID":"340390381031"}},{"arcs":[[-207,-1152,-930]],"type":"Polygon","properties":{"GEOID":"340390327022"}},{"arcs":[[-804,-444,-861,-1044,-306,1161,-891]],"type":"Polygon","properties":{"GEOID":"340390386022"}},{"arcs":[[-1150,-401,-1099,1162,-832]],"type":"Polygon","properties":{"GEOID":"340390376023"}},{"arcs":[[-1156,-223,-672,-384,-1134,1163]],"type":"Polygon","properties":{"GEOID":"340390309001"}},{"arcs":[[-827,-779,-407,-980,-760]],"type":"Polygon","properties":{"GEOID":"340390320022"}},{"arcs":[[-780,-685,-1115,-41,-82]],"type":"Polygon","properties":{"GEOID":"340390313021"}},{"arcs":[[1164,-944,-14]],"type":"Polygon","properties":{"GEOID":"340390362003"}},{"arcs":[[-1130,-1112,-15,-943,-815,-1090]],"type":"Polygon","properties":{"GEOID":"340390363012"}},{"arcs":[[-226,-160,-84,-1023,-710]],"type":"Polygon","properties":{"GEOID":"340390314001"}},{"arcs":[[-796,1165,-545,-122,-1161]],"type":"Polygon","properties":{"GEOID":"340390317004"}},{"arcs":[[-479,-1073,-808,-462,-690]],"type":"Polygon","properties":{"GEOID":"340390381011"}},{"arcs":[[-924,-1097,-56,-1157,-1164,-106,-882,-179]],"type":"Polygon","properties":{"GEOID":"340390308022"}},{"arcs":[[-543,-1065,-707,1166,-1045,-792]],"type":"Polygon","properties":{"GEOID":"340390334002"}},{"arcs":[[-273,1167,-523,-403,-1149]],"type":"Polygon","properties":{"GEOID":"340390375004"}},{"arcs":[[1168,-864,-1011,-970,-621,-850]],"type":"Polygon","properties":{"GEOID":"340390355005"}},{"arcs":[[-1163,-1155,-1035,-833]],"type":"Polygon","properties":{"GEOID":"340390376021"}},{"arcs":[[-309,-1038,-810,-1072]],"type":"Polygon","properties":{"GEOID":"340390379003"}},{"arcs":[[-541,-688,-1159,-1095,-546,-1166,-795]],"type":"Polygon","properties":{"GEOID":"340390317002"}},{"arcs":[[-245,-582,-1143,-1103,-984,-963]],"type":"Polygon","properties":{"GEOID":"340390372003"}},{"arcs":[[1169,-4,-559,-758,-679,-200,1170]],"type":"Polygon","properties":{"GEOID":"340390323001"}},{"arcs":[[-153,1171,-325,-1040,-586,-326,-1144,-578]],"type":"Polygon","properties":{"GEOID":"340390340004"}},{"arcs":[[-1136,-333,1172,-87]],"type":"Polygon","properties":{"GEOID":"340390331005"}},{"arcs":[[-951,-1133,-865,-1169,-849]],"type":"Polygon","properties":{"GEOID":"340390355001"}},{"arcs":[[-947,-1158,-973,-1102,-678,-764]],"type":"Polygon","properties":{"GEOID":"340390356001"}},{"arcs":[[-1046,-1167,-706,-1140,-141]],"type":"Polygon","properties":{"GEOID":"340390335013"}},{"arcs":[[-936,1173,-1041,-220,-1172,-152]],"type":"Polygon","properties":{"GEOID":"340390339003"}},{"arcs":[[-1101,-1121,-673,-493,-1013]],"type":"Polygon","properties":{"GEOID":"340390360001"}},{"arcs":[[-830,-788,-1151]],"type":"Polygon","properties":{"GEOID":"340390376013"}},{"arcs":[[-1089,-1128,-267,-1174,-935]],"type":"Polygon","properties":{"GEOID":"340390338003"}},{"arcs":[[-532,-1118,-391,-1122,-659,1174]],"type":"Polygon","properties":{"GEOID":"340390358002"}},{"arcs":[[-13,-914,-949,-945,-1165]],"type":"Polygon","properties":{"GEOID":"340390362004"}},{"arcs":[[-1039,-436,-59,-697,-730]],"type":"Polygon","properties":{"GEOID":"340390346003"}},{"arcs":[[-567,-1153,-74,1175,-1171,-199,-624,-1125,-372]],"type":"Polygon","properties":{"GEOID":"340390326003"}},{"arcs":[[-733,-1173,-338,-1014,-989,-1138]],"type":"Polygon","properties":{"GEOID":"340390331006"}}]}}}