{"type":"Topology","arcs":[[[15579,9778],[23,5],[66,21],[48,20],[48,22],[269,145],[316,169]],[[16349,10160],[82,-81],[42,-39],[32,-18],[118,-61],[-58,-50],[-21,-9],[-70,-8],[-68,6],[-70,-8],[-94,-19],[-49,-4],[-93,2],[-37,-4],[-38,-9],[-65,-24],[-37,-21],[-24,-9],[-65,-15],[-23,-8],[-36,-20],[-25,-8],[-34,5],[-30,-2],[-46,-15],[-8,8],[-53,29]],[[16336,11143],[102,128],[40,43],[45,63],[19,35],[43,65],[43,48],[57,74],[21,23],[17,7],[69,4],[99,12],[60,5],[80,15],[86,23],[83,25],[55,14],[36,14],[65,44],[6,12],[-3,19],[11,16],[24,17],[54,25],[75,50],[28,15],[80,33],[63,19],[47,7],[23,-1],[67,-9],[26,4],[61,30],[16,34]],[[17934,12056],[51,-21],[54,-25],[38,-4],[28,6],[81,39],[48,18],[93,31],[28,12],[29,16],[19,7],[52,-4],[30,-9],[55,-23]],[[18540,12099],[-81,-174],[-147,-95],[-93,-42],[-57,-58],[-59,-70],[-71,-116],[-214,-196],[-67,-69],[-241,-493]],[[17510,10786],[-328,-169],[-39,-23]],[[17143,10594],[-1,11],[-59,66],[-28,41],[-33,57],[-18,25],[-24,20],[-187,97],[-190,96],[-79,47],[-72,33],[-99,44],[-17,12]],[[13054,7911],[11,61],[19,60],[31,58],[200,321]],[[13315,8411],[228,-98]],[[13543,8313],[37,-25],[26,-3],[93,10],[25,-8],[41,-23]],[[13765,8264],[-16,-31],[-3,-22],[5,-19],[25,-68],[37,-104],[41,-97],[12,-43],[9,-47],[23,-36],[93,-91],[58,-85],[74,-77],[18,-28],[85,-147]],[[14226,7369],[-110,-62],[-40,-17],[-179,-111],[-12,-2],[-59,71],[-41,45],[-59,36],[-55,37],[-24,8],[-25,-1],[-74,-13],[-135,-11],[-108,5],[-54,19],[-26,0],[-35,11],[-36,4],[-157,-12]],[[12997,7376],[0,202],[3,32],[35,169],[11,60],[8,72]],[[13765,8264],[48,-25],[46,-11],[64,3],[29,6],[23,14]],[[13975,8251],[42,-51],[13,-44],[9,-14],[21,-10],[30,-6],[9,-7],[31,-39],[101,-60],[29,-9],[41,5],[38,18],[19,-27],[35,-17],[25,-1],[131,12],[24,7]],[[14573,8008],[12,-22],[42,-52],[11,-21],[13,-47],[16,-69],[19,-131],[22,-204],[4,-26],[14,-35],[78,-83]],[[14804,7318],[10,-28]],[[14814,7290],[-19,-17],[-43,-72],[-91,-109],[-36,-47],[-34,-39],[-47,-45],[-43,-47],[-15,-30]],[[14486,6884],[-16,9],[-6,14],[-2,63],[-26,51],[-15,49],[-13,25],[-51,42],[-10,21],[-121,211]],[[13184,9122],[10,18],[79,185],[30,61],[12,10],[38,7],[38,11]],[[13391,9414],[6,-61],[7,-31],[10,-29],[1,-23],[85,-636]],[[13500,8634],[43,-321]],[[13315,8411],[-136,59]],[[13179,8470],[20,38],[0,12],[-12,17],[3,16],[33,10],[5,19],[-3,94],[-5,63],[-17,148],[-16,181],[-3,54]],[[12859,9390],[101,-78],[23,-13],[118,-18],[20,-15],[51,-87],[12,-57]],[[13179,8470],[-312,0],[-12,136]],[[12855,8606],[-3,36],[-22,78],[-40,81],[43,258],[-16,162],[42,169]],[[8587,3707],[162,26],[100,-73],[79,-119],[69,-57],[27,-4],[9,-9],[-3,-46],[-20,-10],[-16,-15],[3,-11],[-8,-57],[-12,-42],[11,-10],[-7,-25],[8,-39],[-8,-134],[-6,5]],[[8975,3087],[-38,36],[-49,31],[-26,13],[-82,31],[-81,28],[-84,36],[-92,44],[-167,104],[-32,17],[-27,21],[-47,52]],[[8250,3500],[-60,192],[-17,61],[7,23],[20,27],[27,22],[27,35],[23,42],[300,-197],[10,2]],[[9460,1955],[88,37],[48,23],[44,39],[20,8]],[[9660,2062],[37,12],[8,15],[0,66]],[[9705,2155],[27,-51],[21,-93],[8,-30],[28,-64],[23,-96],[55,-257],[37,-162]],[[9904,1402],[-235,-62]],[[9669,1340],[-15,43],[-15,33],[-47,136],[-32,80],[-5,30],[-23,67],[-40,104],[-32,122]],[[9904,1402],[36,14],[6,-58],[11,-7],[29,-4],[65,-3],[0,22],[22,6],[11,26],[40,30],[26,-5],[0,14],[32,1],[35,21],[12,-3],[71,-64]],[[10300,1392],[27,-50],[55,-46],[-36,-64],[12,-5],[-17,-92],[-252,-82],[-62,-22],[-24,-176],[-219,-15]],[[9784,840],[-19,106],[-11,44],[-9,59],[-9,44],[-23,87],[-16,44],[-19,84],[-9,32]],[[9643,19372],[50,94],[-25,66]],[[9668,19532],[536,24],[73,63],[107,-397],[68,-152],[113,-130],[-12,-14],[26,-80],[-30,-23],[15,-19],[-40,-30],[-53,-50],[-118,-38],[-9,15],[-78,-47],[36,-48],[3,-273],[-54,-37]],[[10251,18296],[-10,3]],[[10241,18299],[-55,73],[-62,70],[-32,39],[-16,25],[-63,114],[-70,133],[-108,208],[-112,213],[-38,84],[-42,114]],[[10229,1521],[71,-129]],[[9705,2155],[-3,24],[-9,21],[23,41],[7,39],[-7,39],[1,32],[19,53],[22,28],[105,-203],[217,-426],[81,-155],[68,-127]],[[12859,9390],[157,47],[104,-20],[40,-63],[65,-17],[72,63],[39,10],[39,6],[16,-2]],[[15538,15899],[40,-15],[54,-26],[59,-36],[57,-45],[273,-219],[191,-149],[68,-53],[79,-65],[221,-176],[108,-87],[88,-69]],[[16776,14959],[113,-87]],[[16889,14872],[-8,-5],[-57,-63],[-46,-81],[-28,-44],[-124,-231],[-55,-108],[-53,-98]],[[16518,14242],[-42,-84],[-16,-38]],[[16460,14120],[-164,94],[-167,96],[-76,43],[-9,10],[-9,32],[-31,46],[-26,29],[-20,46],[-18,28],[-55,69],[-47,64],[-2,15],[36,110],[-9,78],[-171,121],[-28,26],[-154,113]],[[15510,15140],[-59,625],[87,134]],[[14116,10445],[56,52],[81,79],[160,163],[91,96],[79,80],[25,27],[8,14],[12,60],[0,27],[-5,57],[-2,58],[22,341],[7,35],[16,36],[154,296],[26,48],[93,180],[18,22]],[[14957,12116],[23,-16],[28,-40],[61,-29],[53,-37],[27,-31],[49,-23],[81,-26],[50,-2],[54,-15],[27,-18],[68,-66],[37,-20],[159,-57],[92,-38],[44,-47],[31,-15],[50,-48],[13,-16],[71,-109],[53,-51],[37,-49],[64,-91],[41,-36],[134,-72],[32,-21]],[[17143,10594],[-139,-75],[-307,-164],[-243,-130],[-111,-60],[6,-5]],[[15579,9778],[-26,3],[-127,-21],[-40,-10],[-48,-16],[-67,-31],[-35,-22],[-49,-37],[-211,-195]],[[14976,9449],[-35,1],[-56,10],[-62,-3],[-34,20],[-26,31],[-37,20],[-45,9],[-41,-2],[-50,8],[-103,12],[-27,12],[-16,18],[-46,26],[-42,5],[-44,0],[-41,15],[-42,37],[-13,16],[-2,19],[-13,46],[-17,18],[-36,18],[-43,-3],[-11,12],[-47,71],[-14,38],[-7,49],[15,42],[29,20],[33,35],[6,11],[22,70],[15,109],[7,18],[11,53],[2,34],[-2,95],[-6,8],[-42,-2]],[[13225,5564],[10,-91],[62,-94],[7,4],[71,74],[143,135],[144,130],[57,61],[183,203],[28,29],[66,61],[59,38],[97,56],[42,38],[38,42],[33,44],[26,30],[21,16],[17,19],[7,26],[10,83],[6,56],[4,76],[7,27],[21,29],[69,69],[6,17],[-3,39],[8,32],[22,71]],[[14814,7290],[19,11],[139,55],[87,37],[34,18],[78,59],[58,39],[66,38],[30,8],[208,34],[108,17],[87,11],[111,17],[140,20],[52,10],[49,20],[29,25],[61,74],[19,19]],[[16189,7802],[10,-26],[71,-164],[83,-209],[19,-53],[215,-537]],[[16587,6813],[-21,-12],[-40,-29],[-43,-37],[-98,-120],[-31,-24],[-49,-23],[-113,-64],[-47,-17],[-37,-22],[-25,-31],[-18,-36],[-49,-58],[-59,-74],[-37,-48],[-16,-17],[-31,-24],[-19,-21],[-26,-45],[-109,-118],[-41,-72],[-21,-28],[-33,-33],[-44,-57],[-80,-64],[-100,-71],[-21,-19],[-28,-37],[-39,-62],[-28,-23],[-42,-20],[-99,-66],[-30,-26],[-190,-168],[-137,-117],[-18,-33],[-15,-77],[-12,-26],[-25,-17],[-121,-51],[-84,-38],[-28,-20],[-23,-22],[-34,-43],[-51,-57],[-51,-55],[-25,-21],[-21,-7],[-17,1],[-72,22],[-16,3],[-129,2],[-88,0],[-32,8],[-92,38],[-39,5],[-132,-21],[-23,0],[-70,15],[-20,-6],[-193,-62],[-30,-7],[-95,12],[-19,-1],[-127,-17],[-43,9]],[[13041,4664],[99,309],[48,152],[15,55],[15,82],[7,59],[4,84],[-1,66],[-7,87],[4,6]],[[16489,19264],[-16,24],[-9,24],[-3,34],[5,36],[11,41],[55,120],[8,27]],[[16540,19570],[334,28],[11,4],[24,24],[40,20],[79,51],[30,40],[56,37],[41,21],[17,13],[47,26],[16,6],[51,9],[31,10],[74,30],[58,22],[34,21],[22,3],[82,-2],[58,-18],[32,-33],[30,-17],[55,-4],[47,-23],[25,2],[40,17],[53,12],[69,3],[33,-7],[32,-18],[22,-5],[110,-6],[42,23],[12,10],[-23,20],[-9,23],[-15,64],[-12,11],[-47,31]],[[18141,20018],[275,-29],[14,-6],[35,3],[-5,-21],[6,-18],[15,-18],[6,-36],[13,-22],[28,-29],[27,-38],[20,-13],[47,-16],[7,-14],[7,-40],[-5,-29],[-12,-14],[-6,-21],[-19,-26],[2,-37],[6,-52],[17,-46],[-3,-40],[23,-57],[19,-28],[-1,-11],[-24,-38],[0,-19],[16,-22],[17,-12],[53,-15],[20,-15],[22,-21],[8,-19],[4,-37],[-12,-8],[-31,-8],[-14,-15],[4,-12],[23,-18],[9,-20],[22,-33],[1,-17],[27,-30],[3,-23],[-5,-23],[-29,-62],[-26,-18],[-14,-22],[-24,3],[-14,-11],[-30,-6],[-12,-13],[-24,-13],[-17,-17],[-16,-45],[-7,-51],[-2,-47],[14,-34],[4,-34],[-9,-66],[-30,-39],[-9,-18],[-20,-23],[-13,-26],[-15,-50],[-17,-12],[-5,-28],[11,-22],[20,-20],[6,-38],[33,-40],[19,-16],[16,-6],[25,4],[41,11],[21,-8],[14,-15],[36,-53],[-19,-50],[0,-59],[-8,-17],[0,-49],[-11,-18],[-27,-16],[-44,-22],[-21,-27],[-21,-16],[-9,-21],[-4,-39],[-6,-11],[6,-25],[12,-10],[-16,-43],[10,-28],[-6,-61],[-15,-38],[-3,-50],[-11,-68],[-1,-63],[-13,-28],[-51,-47],[-23,-38],[-31,-19],[-22,-24],[-12,-6],[-35,3],[-29,-17],[-29,-9],[-29,-29],[-35,-15],[-7,-9],[0,-27],[23,-37],[5,-27],[-3,-31],[11,-14],[30,-8],[1,-101],[10,-33],[32,-36],[8,-38],[9,-13],[77,-52],[42,-23],[70,-32],[14,-21],[5,-32],[35,-1],[10,-12],[-3,-15],[30,-31],[33,-17],[-17,-10],[-6,-15],[3,-31],[21,-47],[-2,-18],[-21,-23],[-31,-23],[-44,-72],[-28,-56],[-18,-24],[-16,-16],[-10,-22],[-3,-25]],[[18484,16168],[-8,-10],[-184,101],[10,17],[-132,77],[-105,61],[-287,168],[-96,-168],[-42,-77],[-58,-101],[-145,-272],[-70,-136],[-32,-58],[-65,-124],[-316,-609],[-7,11],[16,15],[-6,15],[-58,45],[-38,50],[-19,30],[-32,33],[-10,16],[0,48],[27,44],[10,22],[-8,38],[7,13],[18,0],[19,26],[2,27],[13,13],[9,22],[34,46],[12,10],[30,-6],[29,-15],[16,16],[20,8],[-2,18],[13,22],[-2,28],[6,24],[18,12],[8,16],[-4,25],[11,9],[16,-11],[14,4],[1,52],[16,12],[4,13],[-4,38],[-13,19],[-22,-6],[-10,15],[1,30],[-21,27],[-2,64]],[[17066,15975],[-3,23],[-9,12],[5,27],[-10,17],[-18,8],[-9,24],[-4,25],[-20,-4],[-24,20],[-4,15],[-42,47],[-16,-10],[-16,3],[-39,31],[-8,14],[-3,29],[11,16],[10,32],[14,107],[0,22],[7,48],[14,27],[33,28],[5,37],[23,32],[7,19],[6,48],[-5,15],[3,19],[14,16],[12,28],[18,17],[-5,22],[-13,10],[-29,37],[-9,23],[-15,13],[-15,2],[-16,-10],[-27,14],[-20,30],[-18,34],[-9,8],[-13,32],[-4,29],[-9,31],[-2,59],[21,7],[-9,34],[-21,-1],[-15,34],[4,20],[-5,15],[-65,65],[-35,5],[-23,15],[-29,9],[-56,-21],[-21,-22],[-48,-20],[-46,-12],[-25,5],[-18,-27]],[[16423,17207],[-22,8],[-20,18],[-23,28],[-32,31],[-28,31],[-11,31],[-40,63],[-72,77],[-12,41],[-35,30],[-27,6],[-48,0],[-35,8],[-51,26],[-63,49],[-24,32],[14,98],[18,7],[59,-9],[52,-10],[37,3],[61,51],[60,21],[22,21],[80,102],[31,47],[61,44],[32,17],[18,4],[96,-3],[100,-20],[54,6],[54,14],[47,8],[74,29],[36,17],[34,5],[124,0],[126,-19],[35,-3],[145,-4],[-80,158],[-82,163],[-18,21],[-52,28],[-54,33],[-10,10],[-32,9],[-31,-2],[-8,-9],[-37,-11],[-81,-4],[-18,-7],[-24,1],[-60,14],[-51,19],[-36,12],[-23,11],[-12,12],[-10,23],[-8,45],[3,28],[10,26],[31,19],[18,17],[12,68],[26,107],[1,35],[-5,27],[-10,26],[-23,40],[-23,28],[-70,68],[-53,68],[-51,69]],[[13985,18109],[36,-24],[18,0],[47,20]],[[14086,18105],[10,-21],[9,-36],[19,-62],[11,-20],[33,-36],[67,-47],[34,-17],[23,-33],[12,-52],[19,-56],[52,-109],[41,-115],[21,-90],[19,-36],[10,-83]],[[14466,17292],[2,-18],[-7,-114],[-5,-30],[-11,-40],[-16,-79],[-38,-177],[-51,-230],[-19,-54],[-57,-107],[-50,-124]],[[14214,16319],[-20,6],[-15,-34],[-74,16],[-436,1],[-69,1],[31,-60],[22,4],[27,-93]],[[13680,16160],[-334,-36],[-79,-13],[-76,-20],[-66,-24]],[[13125,16067],[-14,169],[-21,225],[1,20],[26,55],[37,100],[20,46],[11,39],[0,25],[-10,106],[5,25],[19,21],[28,87],[23,61],[7,31],[-2,46],[7,33],[28,55],[28,35],[20,30],[38,33],[11,21],[19,57],[-3,39],[-10,66],[1,29],[27,103],[24,71],[9,54],[7,13],[30,40],[15,52],[-6,55],[4,39],[9,20],[30,38],[39,36],[79,34],[26,5],[106,10],[74,8],[118,10]],[[10154,9464],[589,817],[248,345],[90,122],[63,77],[340,472]],[[11484,11297],[23,-58],[44,-98],[19,-34],[21,-28],[20,-14],[143,-53],[43,-19],[16,-11],[135,-121],[24,-16],[154,-69],[16,-8],[29,-23],[41,-43],[36,-28],[47,-23],[26,-10]],[[12321,10641],[3,-4],[21,-177],[12,-127],[11,-42],[52,-75],[23,-52],[8,-38],[11,-80],[8,-44],[15,-28],[42,-51],[13,-20],[6,-23],[8,-65],[-3,-128],[5,-32],[13,-30],[18,-25],[118,-93],[154,-117]],[[12855,8606],[-86,37],[-17,12],[-13,26],[-14,15],[-35,8],[-45,20],[-74,40],[-49,20],[-44,11],[-46,7],[-34,1],[-50,-3],[-59,-12],[-25,-8],[-50,-22],[-82,-45],[-35,-15],[-49,-15],[-90,-14],[-52,-4],[-101,-1],[-86,7],[-91,16],[-154,33],[-337,70],[-248,52],[-59,11],[-69,11],[-277,35],[-108,14]],[[10376,8913],[11,45],[2,21],[-2,77],[-10,30],[-60,92],[-59,104],[-30,50],[-38,72],[-36,60]],[[14695,9283],[197,106],[37,24],[47,36]],[[14976,9449],[50,-16],[45,-11],[57,-23],[38,-11],[25,0],[47,10],[22,-4],[52,-32],[22,-22],[13,-6],[35,7],[17,19],[37,-9]],[[15436,9351],[-31,-37],[-38,-39],[-59,-39],[-22,-17],[-6,-12],[-29,-111],[-29,-125],[-19,-89],[-48,-212],[-1,-53],[22,-81],[15,-61],[19,-56],[4,-42],[-9,-31],[-53,-107],[-85,-166],[-32,-69],[-55,-176],[-29,-55],[-34,-53],[-41,-73],[-7,-17],[-21,-123],[-19,-74],[-25,-115]],[[14573,8008],[-13,32],[-7,41],[-27,265],[-7,61],[-10,104],[17,89],[76,332],[22,104],[51,210],[-1,16],[23,13],[-2,8]],[[11921,16686],[693,350],[-120,335]],[[12494,17371],[-107,299],[-106,68]],[[12281,17738],[-334,212]],[[11947,17950],[422,133],[94,39],[275,102],[401,126],[676,229]],[[13815,18579],[21,-25],[22,-42],[26,-42],[27,-58],[26,-47],[3,-60],[-7,-41],[5,-25],[17,-34],[9,-63],[7,-18],[14,-15]],[[13125,16067],[-161,-72],[-63,-24]],[[12901,15971],[-17,8],[-118,76],[-54,26],[-54,12],[-83,-6],[-42,-9],[-63,-2],[-66,14],[-90,47],[-38,32],[-86,60],[-37,40],[-51,59],[-29,51],[-22,55],[-23,47],[-80,137],[-27,68]],[[767,13620],[31,13],[10,14],[4,62],[21,60],[8,28],[14,75],[22,52],[23,37],[17,19],[43,24],[77,30],[23,19],[26,27],[32,45],[34,73],[14,48],[21,18],[38,0],[32,8],[15,8],[10,22],[-2,41],[3,24],[23,54],[9,16],[17,45],[3,20],[-4,54],[-13,26],[-17,19],[9,26],[20,24],[15,10],[61,26],[112,53],[17,17],[20,41],[23,22],[32,24],[36,5],[18,-4],[47,-47],[32,-14],[53,-2],[19,17],[15,30],[20,24],[19,33],[8,45],[-4,46],[-13,41],[-6,33],[8,36],[16,36],[22,18],[11,27],[29,39],[27,21],[33,16],[31,8],[116,16],[104,10],[68,11],[45,19]],[[2364,15308],[-12,-23],[-52,-45],[-29,-40],[-11,-30],[-13,-87],[-5,-23],[-13,-30],[-63,-92],[-9,-20],[-4,-29],[3,-30],[11,-29],[39,-71],[23,-23],[30,-11],[23,-1],[22,7],[54,24],[52,14],[35,14],[73,39],[32,12],[41,-2],[51,-34],[51,-27],[135,-58],[41,-21],[48,-38],[30,-29],[23,-42],[2,-24],[-2,-77],[-7,-176],[-4,-106],[8,-55],[50,-204],[73,-288],[6,-41],[-3,-56],[-11,-63],[-2,-35]],[[3080,13458],[-31,6],[-44,13],[-60,2],[-106,12],[-275,37],[-30,1],[-102,-7],[-103,-24],[-64,-16],[-23,-10],[-46,-33],[-25,-7],[-68,-3],[-66,-11],[-71,0],[-17,-8],[-19,-19],[-82,-98],[-47,-42],[-20,-11],[-69,-28],[-173,-58],[-33,-18],[-60,-42],[-15,7],[-15,-7],[-41,-30],[-35,-21],[-62,-57],[-44,51],[-26,7],[-18,19],[-8,38],[-18,63],[-1,22],[28,44],[38,31],[13,25],[-14,32],[-8,29],[-22,22],[-18,2],[-24,-12],[-52,-15],[-83,13],[-22,6],[-20,11],[-12,21],[-32,1],[-38,40],[15,18],[7,16],[-15,12],[-23,-1],[-41,6],[-45,21],[-24,14],[36,50],[-19,5],[-9,11],[-12,32]],[[2364,15308],[27,13],[73,44],[47,22],[25,6],[27,18],[8,12],[6,28],[25,28],[64,36],[49,15],[95,34],[42,12],[44,15],[26,14],[207,36],[42,11],[29,12],[29,18],[70,31],[52,37]],[[3351,15750],[12,1],[5,-23],[-9,-20],[17,-18],[-18,-16],[-3,-12],[11,-19],[0,-24],[10,-11],[0,-18],[335,129]],[[3711,15719],[29,-94],[43,-140],[75,-120],[19,-17],[54,-28],[29,-11],[50,-12],[110,-22],[51,-22],[19,-4],[64,12],[14,-4],[45,-32],[23,-20],[48,-24],[9,-32],[29,-27],[13,-3],[51,-47],[20,-32],[1,-48],[10,-15],[7,-48],[9,-14],[8,-39],[18,-19],[2,-14],[20,-22],[4,-38],[12,-29],[1,-16],[16,-26],[30,-10],[29,-51],[2,-19],[-9,-19],[18,-39],[-7,-23],[10,-19],[6,-75],[28,-31],[-9,-21],[-6,-36],[-68,-53],[-22,-116],[1,-39],[6,-49],[22,-57]],[[4645,14055],[-8,-43],[-26,-33],[-179,-131],[-290,-215],[-51,-37],[-16,-8],[-40,-11],[-77,-8],[-356,-52],[-100,-15],[-94,-21],[-94,-18],[-148,-32],[-82,-16]],[[3084,13415],[-4,43]],[[5931,3858],[525,682],[238,310],[105,158],[548,697]],[[7347,5705],[742,996],[64,88],[180,258],[196,254],[217,315],[74,103],[475,657],[181,236]],[[9476,8612],[215,258],[463,594]],[[10376,8913],[-6,-43],[7,-71],[25,-164],[1,-75],[8,-64],[13,-31],[25,-45],[22,-56],[9,-38],[3,-29],[1,-70],[6,-51],[18,-67],[32,-90],[41,-95],[16,-33],[21,-30],[43,-54]],[[10661,7807],[44,-101],[18,-23],[18,-10],[31,-1],[157,18],[35,-9],[25,-35],[7,-26],[10,-87],[5,-23],[21,-26],[38,-16],[48,-15],[68,-27],[53,-10],[48,5],[22,7]],[[11309,7428],[-60,-64],[-102,-99],[-54,-61],[-24,-30],[-13,-24],[-39,-109],[-16,-32],[-107,-170],[-47,-43],[-25,-28],[-55,-74],[-43,-45],[-79,-63],[-53,-55],[-82,-61],[-22,-22],[-129,-148],[-41,-51],[-17,-27],[-107,-180],[-34,-49],[-73,-78],[-125,-158],[-61,-72],[-26,-36],[-26,-58],[-17,-52],[-14,-51],[-12,-35],[-38,-67],[-118,-172],[-28,-41],[-63,-79],[-54,-70],[-30,-42],[-71,-107],[-62,-74],[-63,-56],[-23,-27],[-7,-17],[-41,-143],[-22,-65],[-15,-36],[-64,-98],[-30,-48],[-17,-41],[-4,-60],[-6,-43],[-31,-72],[-24,-35],[-86,-80],[-48,-38],[-72,-49],[-19,-14],[-38,-40],[-73,-69],[-72,-63]],[[8250,3500],[-43,53],[-51,48],[-39,31],[-75,34],[-26,15],[-112,37],[-78,14],[-50,0],[-39,-5],[-15,-11],[-47,-12],[-37,-21],[-30,-30],[-37,-30],[-40,-28],[-26,-14],[-61,0],[-45,7],[-28,-3],[-110,-40],[-45,-13],[-60,-21],[-61,-15],[-84,-30],[-57,-23],[-63,-21],[-76,-20],[-54,-22],[-35,-7],[-71,-5],[-32,5],[-82,21],[-123,45],[-80,48],[-43,35],[-23,55],[-64,43],[-47,41],[-156,103],[-26,35],[-48,59]],[[10447,15417],[44,-2],[47,15],[49,21],[31,6],[28,-1],[31,-6],[110,-32],[91,-20],[195,115],[38,26],[-12,45],[24,24],[-2,30],[8,25],[31,23],[-23,40],[-2,10],[-12,255],[-2,63]],[[11121,16054],[168,34],[207,-50],[43,5],[-16,-119],[10,-6],[-5,-127],[36,-2],[12,-137]],[[11576,15652],[21,-234],[-171,-20],[46,-238],[2,-9]],[[11474,15151],[-25,-12],[-83,-16],[-10,0],[-8,-78],[-140,-2]],[[11208,15043],[-300,-7],[16,327],[-77,-6],[-10,15]],[[10837,15372],[-21,34],[-51,-47],[-55,6],[-253,40]],[[10457,15405],[-10,12]],[[5101,9343],[723,74],[-26,222],[1,9],[-31,241],[2,6],[-54,448]],[[5716,10343],[912,481],[549,275],[115,67]],[[7292,11166],[13,-22],[73,-116],[16,-43],[6,-83],[18,-86],[15,-89],[10,-70],[23,-130],[-1,-33],[-7,-33],[-16,-60],[-10,-24],[-18,-28],[-19,-16],[-52,-38],[-33,-30],[-12,-31],[-1,-25],[13,-37],[69,-84],[12,-22],[11,-42],[20,-231],[6,-56],[1,-65],[-21,-151],[-2,-26],[0,-132],[-3,-28],[-25,-123],[-6,-27],[-20,-41],[-134,-241],[-101,-184],[-32,-53],[-33,-42],[-144,-143],[-110,-99],[-21,-15],[-54,-33],[-57,-56],[-18,-29],[-25,-77],[-14,-82],[5,-42],[35,-68],[5,-27],[-2,-28],[-6,-27],[-38,-110],[-14,-56],[-3,-36],[5,-35],[23,-113],[23,-85],[26,-105],[18,-62],[25,-70],[77,-198],[13,-44],[21,-40],[35,-42],[32,-30],[24,-27],[69,-96],[55,-73],[69,-87],[20,-30],[10,-26],[10,-53],[16,-271],[9,-89],[7,-37],[12,-34],[53,-84],[20,-44],[26,-66],[32,-101],[26,-49]],[[5931,3858],[-52,47],[-25,15],[-44,20],[-115,31],[-62,13],[-28,8],[-91,38],[-42,22],[-67,45],[-38,45],[-14,23],[-44,89],[-34,75],[-15,47],[-21,77],[-11,64],[0,108],[-3,108],[-7,62],[-28,142],[-19,67],[-15,32],[-16,64],[-1,28],[7,29],[2,35],[-11,65],[-9,29],[-24,65],[-11,35],[-6,37],[-2,83],[-7,60],[-22,100],[-28,60],[-18,72],[-16,31],[-25,65],[-30,104],[-33,103],[-11,40],[-2,31],[1,30],[9,55],[21,57],[51,97],[16,43],[16,71],[29,95],[1,43],[-3,25],[-15,47],[-13,104],[-3,68],[-6,32],[0,35],[4,46],[8,40],[24,34],[39,34],[51,79],[59,130],[21,57],[4,39],[-5,11],[-3,35],[4,103],[-4,44],[4,75],[2,88],[3,39],[-1,167],[3,138],[-4,40],[-7,109],[-11,88],[-6,60],[-14,53],[-18,57],[-18,42],[-10,47],[-1,80],[3,73],[-1,131],[-3,61],[-7,80],[-6,81],[-1,101],[-5,107]],[[5865,15339],[11,-12],[27,-47],[70,-78],[38,-46],[112,-124],[55,-67],[41,-41],[45,-18],[78,-12],[67,-13],[27,-8],[66,-29],[60,-4],[32,-6],[41,-3],[24,2],[102,28],[60,24],[34,9],[27,3],[44,-10],[25,-9],[42,-28],[45,-48],[67,-107],[34,-47],[44,-46],[13,-9],[54,-23],[54,-5],[23,2],[46,11],[66,8],[33,1],[24,-3]],[[7496,14584],[-33,-47],[-27,-24],[-56,-24],[-91,-17],[-37,-12],[-67,-30],[-41,-21],[-72,-24],[-28,-20],[-47,-50],[-63,-93],[-46,-88],[-80,-138],[-10,-14],[-27,-16],[-47,-23],[-13,-17],[-13,-36],[-20,-77],[-15,-42],[-35,-85],[-83,-206],[-18,-20],[-63,-46],[-144,-153],[-110,-115],[-47,-61],[-139,-177],[-10,-7],[-96,-57],[-21,-9],[-128,-47],[-83,-44],[-5,-13],[8,-64],[-8,-12]],[[5681,12655],[-29,13],[-22,1],[-25,13]],[[5605,12682],[-18,32],[-34,74],[-43,110],[-78,179],[-58,138],[-24,35],[-51,34],[-70,45],[-102,68],[-121,57],[-27,22],[-13,27],[-14,48],[-63,102],[-20,37],[-59,118],[-18,31],[-89,120],[-41,57],[-17,39]],[[3711,15719],[371,140],[492,302],[-23,-33],[-17,-33],[-4,-34],[10,-26],[26,-52],[11,-14],[24,-16],[18,-4],[43,2],[88,30],[90,7],[49,-3],[73,-14],[31,-3],[27,-8],[106,-48],[42,-8],[98,-35],[30,-15],[23,-21],[31,-37],[49,-38],[35,-31],[19,-23],[99,-145],[61,-80],[49,-62],[20,-19],[18,-11],[50,-20],[45,-13],[46,-7],[24,-8]],[[12602,5644],[2,-12],[-29,-30],[-16,-31],[2,-18],[9,-16],[32,-35],[8,-56],[33,-93],[6,-27],[38,20],[288,136],[144,71],[102,47]],[[13221,5600],[4,-36]],[[13041,4664],[-33,-102],[-12,-34],[-20,-42],[-24,-42],[-32,-45],[-43,-46],[-33,-29],[-43,-30]],[[12801,4294],[-22,151],[-49,-65],[-78,-92],[-37,-33],[-56,-28],[-37,-30],[-22,-31],[-39,-79],[-104,-171],[-34,-59],[-43,-52],[-22,-20],[-83,-66],[-95,-69],[-45,-26],[-40,-15],[-81,-22],[-96,922],[-104,-18],[-68,-13],[-46,-13],[-111,-48],[-177,-80],[-109,-48],[-51,-27],[-51,-43],[-26,-36]],[[11075,4183],[-8,15],[-10,47],[-101,247],[54,5],[15,19],[6,29],[10,14],[57,27],[7,9],[17,38],[25,43],[19,59],[24,94],[15,33],[15,25],[52,63],[66,75],[13,6],[42,5],[29,17],[14,16],[113,286],[9,15],[38,47],[33,29],[15,30],[11,30],[29,-13],[16,-2],[43,2],[108,11],[74,11],[70,12],[91,29],[98,23],[51,7],[44,12],[37,21],[29,11],[46,10],[39,21],[27,6],[26,-7],[36,-23],[42,-8],[41,15]],[[14193,20311],[11,25],[14,77],[-5,87],[5,19],[34,65],[15,41],[28,41],[3,55],[4,19],[36,10],[39,3],[25,22],[30,44],[10,19],[8,33],[-4,34],[5,96],[16,45],[21,24],[29,54],[46,57],[3,10]],[[14566,21191],[11,-9],[55,13],[202,23],[57,-30],[98,-22],[2,-31],[190,-9],[183,34],[61,-2],[132,-2],[26,25],[168,-97],[392,-99],[59,-16],[228,-58],[76,-18],[134,-35],[290,-108],[419,-151],[149,-99],[65,-48],[128,-100],[66,-19],[61,-107],[142,-127],[181,-81]],[[16540,19570],[-29,-6],[-39,-17],[-27,-6],[-22,5],[-16,22],[-12,6],[-63,5],[-50,-2],[-44,6],[-100,3],[-46,-15],[-126,-24],[-24,-1],[-31,16],[-13,15],[-13,29],[-34,53],[-24,58],[-13,9],[-67,4],[-41,-4],[-60,-11],[-71,-2],[-67,8],[-41,-4],[-70,8],[-33,1],[7,-91],[-9,-9],[-131,-12],[-118,-13],[-111,-10],[-95,-11],[-67,-4],[-16,6],[-42,55],[-21,17],[-29,7],[-38,21],[-16,-4],[-85,-52],[-19,-14],[-37,106]],[[14537,19718],[96,32],[-92,141],[-39,56],[-39,64],[-42,58],[-149,216],[-79,26]],[[9660,2062],[23,181],[18,86],[24,67],[24,40],[25,29],[42,36],[64,41],[30,23],[46,44],[83,101],[69,72],[35,31],[32,24],[59,39],[122,77],[59,39],[48,41],[37,47],[144,225],[89,140],[26,49],[81,207],[17,47],[25,57],[53,90],[44,70],[22,47],[52,128],[22,43]],[[12801,4294],[9,-60],[35,-7],[18,-24],[15,9],[77,63],[35,19],[26,-53],[50,-91],[16,-35],[26,-92],[7,-47],[-2,-38],[-28,-111],[-6,-37],[-1,-30],[7,-41],[14,-39],[16,-36],[-11,-39],[-23,-32],[7,-46],[12,-23],[50,-66],[56,-29],[16,-3],[25,-25],[47,-39],[85,-74],[127,-114],[42,-34],[90,-70],[113,-80],[29,-17],[33,-15],[269,-106],[35,-19],[46,-83],[13,-34],[8,-65],[11,-104],[16,-73],[15,-60],[11,-26],[76,-125]],[[14313,2243],[-619,-91],[-458,-67],[-464,-68],[74,-242]],[[12846,1775],[-24,33],[-113,130],[-31,30],[-72,50],[-16,16],[-54,65],[-29,40],[-30,50],[-22,22],[-25,19],[-74,43],[-90,62],[-25,14],[-20,5],[-38,2],[-20,10],[-66,97],[-11,23],[-27,28],[-50,-34],[-103,-60],[-62,-38],[-64,-37],[-146,-64],[-25,-14],[-70,-54],[-48,-47],[-31,-34],[-137,-119],[-29,-28],[-67,-59],[-84,-45],[-47,-28],[-67,-41],[-28,-12],[-53,-14],[-63,-29],[-294,-115],[-43,-11],[-99,-12],[-47,-9],[-21,-8],[-67,-54],[-85,-27]],[[5605,12682],[-17,-14],[-68,-47],[-13,-15],[-54,-112],[-29,-63],[-41,-59],[-50,-151],[-46,-73],[-7,-23],[-28,-52],[-26,-62],[-4,-79],[-24,-95],[0,-23],[21,-52],[20,-30],[12,-28],[3,-44],[-64,10],[-30,-4],[-196,-75],[-66,-27],[-73,-71],[-12,-10],[-57,-22],[-41,-4],[-58,-8],[-24,5],[-31,23],[-14,29],[-15,19],[-45,30],[-46,9],[-27,-3],[-37,-21],[-31,38]],[[4387,11578],[9,58],[17,33],[71,104],[96,278],[-325,478],[-165,6],[-356,11]],[[3734,12546],[-12,24],[-33,27],[-51,19],[-52,36],[-34,18],[-94,22],[-35,13],[-41,23],[-101,50],[-37,28],[-18,23],[-12,26],[-9,38],[-41,272],[-6,27],[-26,77],[-24,70],[-24,76]],[[4387,11578],[-31,-43],[-39,-52],[-18,-14],[-57,-57]],[[4242,11412],[-23,24],[-23,33],[-39,39],[-18,23],[-56,61],[-59,74],[-41,60],[-50,65],[-26,44],[-27,32],[-38,34],[-13,17],[-47,41],[-32,30],[-23,15],[-79,42],[-56,22]],[[3592,12068],[-68,230],[50,252],[160,-4]],[[16587,6813],[199,-491],[70,-175],[177,-438],[137,-342],[122,-301],[49,-120],[50,-130],[100,-247],[45,-113],[-370,-62],[-1169,-194],[-826,-138],[12,-60],[48,-334],[56,-349],[16,-91],[47,-310],[19,-131],[11,-80],[44,-312],[-76,-12],[-125,-12],[-339,-47],[-169,-25],[-402,-56]],[[11484,11297],[264,366]],[[11748,11663],[140,197],[164,244],[144,179],[235,329],[7,10]],[[12438,12622],[87,-2],[26,8],[44,24],[30,6],[68,-4],[27,-17],[55,-48],[29,-43],[4,-36],[14,-42],[0,-64]],[[12822,12404],[16,-74],[7,-52],[16,-98],[-5,-84],[11,-30],[15,-22],[39,-31],[35,-10],[62,4],[29,0],[81,-7],[39,-9],[64,-9],[20,-7],[40,-24],[21,-29],[4,-39],[-9,-66],[-6,-20],[-7,-46],[-62,-27],[-7,-25],[22,-68],[4,-25],[17,-62],[16,-35],[6,-27],[0,-34],[-7,-39],[32,-24],[11,-13],[0,-29],[7,-13],[34,-26],[41,-13],[9,-13],[-1,-26],[13,-40],[-5,-17],[-16,-22],[3,-28],[7,-13],[27,-24],[7,-29],[-7,-46],[12,-38],[47,-78],[64,-81],[6,-16],[25,-37],[26,-23],[17,-20],[66,-130],[86,-120],[27,-26],[91,-11],[40,5],[41,-1],[86,-11],[37,-1]],[[14116,10445],[-20,-12],[-44,-9],[-94,14],[-21,1],[-172,1],[-47,83],[-17,-4],[-36,26],[-30,7],[-95,73],[-19,21],[-103,-23],[-165,-27],[-8,-141],[0,-79],[-79,19],[-92,43],[-30,12],[-32,1],[-41,-5],[-33,3],[-39,19],[-35,11],[-53,6],[-82,-2],[-34,3],[-51,12],[-43,14],[-96,53],[-62,49],[-36,20],[-23,7],[-63,0]],[[7292,11166],[730,427],[1,0]],[[8023,11593],[408,-854],[336,-684],[329,-669],[380,-774]],[[5865,15339],[21,11],[535,290],[88,46],[874,469]],[[7383,16155],[1097,590]],[[8480,16745],[5,-22],[50,-41],[56,-24],[18,-15],[55,-60],[50,-58],[36,-53],[60,-98],[33,-61],[15,-33],[30,-84],[-2,-26],[-24,-95],[-11,-50],[-12,-78],[-1,-28],[11,-63],[14,-52],[4,-328],[4,-181],[-4,-20],[-28,-38],[-36,-54]],[[8803,15183],[-100,-134],[-26,-34],[-51,-90],[-80,-128],[-33,-50],[-13,-29],[-14,-38],[-21,-93],[-15,-35],[-28,-44],[-45,-30],[-56,-44],[-55,-52],[-32,-41],[-52,-42],[-40,-41]],[[8142,14258],[-138,59],[-76,35],[-84,48],[-43,17],[-33,17],[-66,40],[-90,57],[-34,13],[-50,30],[-32,10]],[[8090,11618],[19,5],[63,26],[50,24],[58,33],[64,42],[113,81],[65,49],[46,32],[70,53],[16,18],[58,83],[77,124],[85,142],[149,285],[238,145],[21,34],[37,37]],[[9319,12831],[25,28],[80,118],[16,22],[27,23],[76,37],[43,30],[72,76],[36,45],[31,48],[11,26],[26,100]],[[9762,13384],[34,-15],[28,-2],[0,-16],[19,-22],[15,-6],[60,-42],[-9,-14],[6,-21],[3,-70],[23,-25],[-14,-56],[-23,-27],[-13,-43],[-2,-47],[-16,-28],[2,-32],[-14,-22],[-21,-16],[-19,-5],[-29,-18],[-21,-3],[-19,-12],[-72,-33],[-30,1],[-22,15],[-29,58],[-22,4],[-14,21],[-51,-1],[-22,-14],[-28,-7],[-28,-22],[-20,-37],[-35,-24],[-45,-44],[-9,-20],[-24,-32],[-52,-42],[-18,-24],[-3,-26],[-12,-51],[-14,-25],[18,-16],[138,-104],[30,-32],[56,-71],[42,-62],[74,-121],[12,-13],[73,-63],[56,-41],[82,-49],[70,-38],[91,-35],[44,-10],[91,-13],[115,-19],[21,-1],[199,3],[26,-2],[30,-16],[96,-93],[43,-33],[30,-13],[88,-23],[81,-13],[62,-1],[165,4],[276,7],[76,4],[66,-3],[48,6],[51,-4],[50,-12],[69,-9],[32,1],[45,9]],[[8023,11593],[67,25]],[[18484,16168],[-2,-66],[2,-14],[-3,-53],[3,-12],[26,-42],[7,-24],[16,-28],[23,-24],[4,-23],[-6,-19],[-13,-15],[-10,-76],[-8,-21],[-30,-22],[-24,-29],[-40,-40],[-62,-22],[-13,-8],[-15,-21],[1,-18],[16,-50],[9,-65],[17,-68],[14,-22],[21,-15],[19,-7],[31,-3],[43,4],[74,-7],[26,-20],[52,-10],[41,2],[29,12],[24,29],[17,0],[16,-9],[13,-16],[16,-9],[44,-14],[27,1],[14,-11],[9,-40],[33,-43],[13,-52],[19,-29],[0,-33],[-17,-58],[1,-17],[9,-21],[23,-16],[26,-7],[18,10],[29,-10],[35,-25],[32,-55],[42,-48],[28,-25],[12,-5],[44,-5],[37,-20],[21,0],[-344,-504],[-71,30],[-62,-100]],[[18840,14240],[-109,59],[-61,24],[-66,18],[-68,13],[-39,4],[-100,3],[-71,8],[-40,8],[-58,18],[-49,19],[-115,55],[-69,31],[-118,63],[-39,17],[-44,15],[-103,32],[-82,31],[-51,16],[-51,10],[-42,4],[-232,18],[-59,9],[-80,25],[-58,27],[-37,22],[-110,83]],[[16776,14959],[3,84],[11,211],[4,51],[13,82],[15,58],[9,27],[82,188],[55,122],[43,93],[55,100]],[[14695,9283],[-594,-319],[-169,-91],[-192,-102]],[[13740,8771],[-181,-98],[-59,-39]],[[13740,8771],[13,-8],[82,-66],[44,-43],[26,-20],[97,-56],[32,-15],[26,-7],[82,-8],[34,-10],[63,-38],[-23,-33],[-32,-26],[-31,-6],[-48,0],[-23,-7],[-32,-24],[-21,-19],[-15,-27],[-10,-59],[-9,-24],[-20,-24]],[[15436,9351],[7,-8],[22,-44],[12,-14],[16,-6],[43,-3],[50,-7]],[[15586,9269],[2,-6],[335,-823],[169,-407],[97,-231]],[[8396,19278],[9,11],[19,47],[13,110],[-1,46],[11,25],[28,18],[28,4],[85,-13],[47,-3],[37,-21],[33,-10],[74,-14],[35,-2],[21,5],[46,28],[19,19],[16,30],[10,35]],[[8926,19593],[121,-25],[322,317],[114,46],[178,80],[-90,-222],[97,-257]],[[9643,19372],[-128,-237]],[[9515,19135],[-214,-266],[-87,31],[-59,53],[-379,-78],[-319,26],[-61,377]],[[10241,18299],[-392,108],[-231,470],[-103,258]],[[3351,15750],[25,27],[22,3]],[[3398,15780],[50,-54],[33,47],[22,81],[51,29],[119,64],[192,106],[386,208],[166,92],[279,150],[95,50],[60,28],[52,21],[55,25],[77,32],[-56,193]],[[4979,16852],[67,-16],[89,-14],[78,-4],[66,5],[64,15],[61,23],[166,79],[49,17],[39,8],[51,5],[52,-2],[26,-4],[62,-16],[49,-20],[44,-27],[40,-32],[36,-36],[38,-52],[24,-44],[65,-147],[18,-34],[20,-33],[41,-49],[58,-49],[65,-36],[58,-20],[35,-7],[61,-7],[5,-8],[333,-31],[143,-15],[51,-9],[62,-15],[63,-21],[50,-20],[175,-81]],[[10903,17432],[61,-106],[151,63]],[[11115,17389],[67,-346],[312,-320],[329,-87],[98,50]],[[12901,15971],[-32,-10],[-128,-33],[-96,-26],[-66,-20],[-71,-31],[-29,-14],[-163,-92],[-46,-21],[-58,-19],[-49,-8],[-46,0],[-46,3]],[[12071,15700],[-166,23],[-28,3],[-49,1],[-51,-7],[-76,-19],[-74,-27],[-51,-22]],[[11121,16054],[-78,-16],[-126,47]],[[10917,16085],[-21,13],[46,166],[-7,22],[-9,87],[-17,17],[7,10],[26,0],[13,18],[-19,51],[-13,9],[-23,-4],[-23,-11],[-42,10],[-50,-6],[-66,-19],[-9,18],[3,26],[21,66],[-17,50],[12,34],[22,44],[-8,40],[-5,51],[13,19],[14,65],[-30,89],[-60,160],[15,54],[-17,22],[10,44],[16,40],[47,62],[66,-12],[8,11],[33,23],[50,78]],[[14466,17292],[212,6],[-10,-90],[605,-297],[713,-351]],[[15986,16560],[-37,-51],[-92,-135]],[[15857,16374],[-258,-84],[-240,-73],[-109,-27],[-124,-23],[-93,-10],[-91,-6],[-116,0],[-233,16],[-174,11]],[[14419,16178],[-129,90],[-89,18],[13,33]],[[11309,7428],[47,-25],[43,-27],[54,-50],[13,-9],[85,11],[24,-42],[33,-75],[30,-105],[31,-73],[20,-24],[51,-43],[79,-45],[22,-9],[90,-19],[41,-4],[31,-9],[36,-27],[40,-50],[41,-43],[48,-37],[17,-19],[26,-63],[40,-86],[47,-84],[14,-39],[18,-58],[21,-36],[58,-60],[34,-41],[12,-48],[25,-230],[7,-23],[23,-54],[24,-90],[22,-62],[46,-86]],[[9460,1955],[-28,77],[-36,103],[-35,72],[-54,103],[-46,102],[-16,28],[-30,63],[-42,101],[-12,38],[-16,73],[-34,121],[-36,97],[-17,39],[-48,73],[-35,42]],[[10447,15417],[-23,221]],[[10424,15638],[125,14],[166,19],[65,454],[137,-40]],[[14419,16178],[250,-176],[-17,-47],[-15,-142],[-449,-163],[-10,-111],[-4,-20],[-110,29],[-164,155],[-12,18],[-71,20],[13,61],[-124,175],[-4,15],[-12,132],[-10,36]],[[11152,17735],[687,180],[108,35]],[[12281,17738],[-14,-8],[-30,-43],[-46,-57],[-28,-47],[-11,-37],[-3,-41],[5,-39],[-18,-50],[2,-14],[18,-45],[-4,-26]],[[12152,17331],[-17,-39],[-35,-22],[-14,-21],[-5,-17],[3,-70],[-6,-11],[-34,-24],[-53,-10],[-17,1],[-22,15],[-47,-37],[-26,-18],[-18,-4],[-26,13],[-26,22],[-22,-6]],[[11787,17103],[3,5],[-50,133],[-27,37],[-81,71],[-78,38],[-30,7],[-102,49],[-52,49],[-38,24],[-31,31],[-5,10],[-47,57],[-44,57],[-53,64]],[[17510,10786],[-363,-745],[-183,-368],[-198,-395],[-321,-644],[-25,-17],[-7,8],[-39,16],[-16,11],[-30,7],[-28,17],[-30,7],[-20,10],[-18,14],[-26,39],[-18,19],[-23,39],[-28,37],[-24,14],[-17,18],[-10,70],[9,19],[-6,15],[-26,38],[-24,9],[-35,51],[-23,16],[-48,9],[-63,40],[-61,36],[-54,25],[-17,12],[-34,13],[-37,22],[-43,13],[-38,8]],[[11787,17103],[12,-31],[101,-328],[21,-58]],[[11115,17389],[37,346]],[[12846,1775],[48,-149],[64,-190],[79,-246],[261,-808],[-142,-18],[-92,-12],[-267,-33],[-261,-32],[-6,-2],[-115,-14],[-1025,-133],[-1072,-138],[-417,119],[-21,57],[-23,49],[-19,71],[-19,101],[-5,44],[-9,50],[-1,56],[2,46],[0,74],[-22,173]],[[7271,18707],[12,2],[19,-21],[28,-44],[46,-45],[16,-8],[27,-5],[66,0],[28,10],[27,18],[27,24],[33,38],[27,52],[16,24],[11,24],[29,34],[74,73],[29,44],[29,36],[39,28],[44,38],[61,48],[39,38],[27,17],[67,31],[97,40],[33,10],[26,15],[47,14],[41,4],[39,14],[21,18]],[[10251,18296],[3,-29],[20,-16],[36,-44],[21,-11],[27,-4],[85,-31],[26,-14],[42,-36],[55,-37],[29,-11],[52,-55]],[[10647,18008],[8,-23],[6,-70]],[[10661,17915],[-850,-456],[-620,-332],[-711,-382]],[[8480,16745],[13,56],[19,99],[-2,67],[-11,28],[-78,95],[-32,28],[-24,39],[-25,68],[-16,104],[-3,58],[1,75],[-5,103],[-12,7],[-178,82],[-4,11],[-39,94],[-56,139],[-10,18],[-48,43],[-32,40],[-15,28],[-17,43],[-7,31],[-41,94],[-9,11],[-45,31],[-32,2],[-53,20],[-17,12],[-46,39],[-24,36],[-6,23],[-30,57],[-30,45],[-76,107],[-73,-9],[-12,4],[-53,31],[-46,54],[-11,24],[-24,25]],[[3592,12068],[-116,46],[-72,37],[-81,27],[-66,38],[-47,23],[-22,14],[-54,23],[-52,16],[-45,8],[-45,15],[-81,11],[-54,1],[-70,11],[-17,6],[-47,5],[-82,13],[-66,16],[-30,5],[-83,22],[-58,9],[-32,9],[-56,1],[-147,-16],[-62,-28],[-54,-15],[-71,-36],[-39,-26],[-111,-82],[-26,-28],[-105,-98],[-25,-27],[-56,-48],[-42,-44],[-47,-43],[-55,-48],[-47,-30],[-57,-24],[-71,-11],[-96,-3],[-68,5],[-76,-3],[-59,-1],[-66,4],[-49,10],[-118,39],[-87,31],[-56,25],[-68,26],[-55,30],[-88,54],[-84,70],[-48,47],[-25,33],[-49,74],[-49,62],[-33,36],[-72,86],[-33,56],[-22,78],[11,89],[20,72],[22,61],[17,26],[42,50],[18,26],[47,61],[37,62],[14,29],[13,56],[3,62],[-5,57],[-8,41],[30,29],[41,25],[11,1],[50,-23],[29,-6],[24,14],[20,28],[11,26],[16,12],[68,5],[38,17],[4,27],[-18,46],[0,34],[8,30],[10,19],[43,42],[64,-2],[25,14],[32,10],[30,1]],[[9762,13384],[2,55],[-20,84],[3,37],[6,19],[110,242],[23,54],[55,121],[54,133],[67,166],[83,214],[22,55],[24,36]],[[10191,14600],[63,57],[45,27],[5,0],[76,126],[82,138],[70,106],[96,126],[16,17],[52,42],[70,38],[25,23],[46,72]],[[11208,15043],[19,-48],[11,-46],[-6,-49],[-24,-28],[-27,-8],[-6,-12],[15,-33],[1,-20],[-9,-19],[-24,-26],[-21,-51],[-5,-24],[-1,-29],[4,-38],[-7,-18],[-12,-10],[-21,-5],[-54,5],[-15,-4],[-12,-20],[2,-11],[30,-24],[6,-38],[-15,-54],[2,-47],[8,-42],[29,-22],[32,6],[9,22],[16,16],[31,1],[34,-11],[43,-25],[25,-12],[36,-9],[25,-19],[17,-19],[14,-32],[2,-26],[-5,-11],[-25,-26],[5,-12],[26,-27],[17,-24],[15,-35],[23,-23],[34,-17],[24,3],[55,-2],[11,-11],[3,-32],[-7,-28],[-15,-38],[-25,-19]],[[11496,13912],[-19,-27],[-25,-11],[-60,-77],[-4,-28],[5,-25],[-13,-33],[-10,-42],[5,-24],[27,-37],[30,-4],[29,-17],[26,-21],[22,-11],[66,0],[41,-13],[35,-15],[84,-25],[22,-1],[34,8],[30,14],[35,2],[18,-8],[25,-20],[25,-27],[31,-53],[5,-33],[-8,-52],[3,-24],[-4,-26],[-22,-31],[-8,-27],[-11,-53],[3,-13],[43,-88],[19,-33],[26,-76],[12,-29],[23,-19],[27,-52],[-2,-38],[-7,-21],[-25,-38],[-20,-59],[2,-15],[21,-30],[11,-50],[9,-16],[16,-11],[60,-24],[15,2],[56,25],[73,11],[33,20],[40,8],[40,-12],[53,9]],[[12494,17371],[-19,-11],[-27,-2],[-25,3],[-97,-2],[-90,-14],[-40,-10],[-44,-4]],[[5044,10361],[184,41],[67,8],[80,27],[0,-13],[151,-33],[20,39],[74,-31],[96,-56]],[[5101,9343],[-9,89],[-3,89],[-1,86],[8,70],[12,73],[4,38],[0,38],[-7,85],[-19,118],[-4,59],[-15,107],[-11,59],[-4,64],[-8,43]],[[10457,15405],[0,-14],[-297,48],[-48,6],[-73,28],[13,31],[38,-6],[8,15],[-11,85],[89,2],[50,7],[67,16],[131,15]],[[8803,15183],[90,-91],[47,-61],[37,-27],[56,-38],[73,-30],[48,-25],[45,-17],[135,-18],[38,0],[212,15],[101,-3],[68,-18],[44,-16],[23,-16],[165,-74],[84,-55],[27,-20],[95,-89]],[[9319,12831],[-58,75],[-27,41],[-56,94],[-61,81],[-65,66],[-66,55],[-55,37],[-29,22],[-61,59],[-17,21],[-53,82],[-75,122],[-47,61],[-18,18],[-37,22],[-39,15],[-21,14],[-47,44],[-29,37],[-39,66],[-36,54],[-82,140],[-51,81],[-21,46],[-21,25],[-38,32],[-28,17]],[[10661,17915],[6,-12],[31,-4],[25,11],[43,-12],[24,-29],[42,-17],[46,-29],[31,-50],[24,-27],[16,-33],[-15,-28],[-35,-44],[-4,-18],[15,-34],[9,-45],[-1,-32],[-8,-12],[-3,-23],[5,-21],[-9,-24]],[[13054,7911],[-20,14],[-7,12],[-25,18],[-31,-2],[-17,-10],[-27,7],[-19,19],[-20,37],[-24,29],[-21,17],[-7,13],[-36,51],[-9,31],[-36,30],[-29,16],[-37,31],[-57,19],[-26,13],[-14,18],[-35,8],[-14,33],[-34,53],[-11,25],[-90,-34],[-51,-14],[-109,-28],[-76,-12],[-38,-8],[-43,-13],[-24,-14],[-18,-25],[-21,-46],[-51,-80],[-20,-36],[-23,-29],[-10,7],[-46,16],[-31,26],[-9,0],[-22,16],[-13,-1],[-43,-16],[-12,-1],[-14,10],[-70,28],[-28,21],[2,26],[-15,15],[-14,23],[-22,2],[-8,8],[-67,35],[-31,-10],[-45,16],[-21,1],[-28,-12],[-44,-9],[-21,-12],[-15,-27],[-40,-27],[1,-17],[-32,-10],[-18,-1],[-26,-23],[-15,-6],[-7,-22],[-33,-2],[-11,9],[-16,-5],[-39,-21],[-13,8],[-17,-5],[-22,2],[-38,-31],[-11,-4],[-7,-17],[-34,-28],[-16,7],[-15,-2],[-23,-21],[-45,-34],[-38,-24],[-17,-23],[-49,-31],[-14,-24],[-51,-57]],[[12997,7376],[1,-68],[4,-36],[9,-52],[19,-84],[4,3],[31,-134],[38,-129],[31,-154],[15,-82],[30,-252],[3,-45],[-4,-33],[-12,-65],[-7,-55],[0,-34],[11,-103],[18,-157],[33,-296]],[[9965,20994],[8,-14],[30,2],[67,16],[20,14],[12,19],[24,54],[27,39],[39,-46],[43,-55],[34,-27],[22,-12],[21,2],[13,10],[37,61],[46,58],[36,25],[77,58],[28,19],[62,31],[28,8],[64,3],[16,4],[29,15],[20,0],[7,-8],[3,-36],[11,-44],[20,-30],[31,-17],[32,-9],[20,-12],[79,-70],[73,-67],[14,-18],[13,-41],[-2,-13],[19,-71],[188,102],[23,11],[60,16],[144,33],[12,5],[20,24],[21,57],[44,65],[41,47],[24,33],[22,23],[43,17],[46,0],[39,7],[23,9],[51,27],[39,7],[57,-4],[37,-7]],[[12022,21314],[-9,-48],[2,-29],[15,-37],[21,-68],[32,-76],[33,-68],[67,-152],[10,-17],[45,-61],[28,-55],[33,-40],[14,-22],[6,-22],[-4,-59],[-26,-81],[-13,-24],[-42,-65],[-7,-14],[-17,-63],[-24,-60],[-33,-78],[-17,-23],[-25,-23],[-12,-21],[-19,-57],[-7,-15],[-21,-22],[6,-31]],[[12058,19983],[-134,-80],[-114,-50],[-1,-14],[-35,-98],[-49,-129],[-61,-171],[-50,-130],[-42,-32],[-35,-35],[-13,-17],[-29,-46],[-44,-40],[-29,-48],[-4,-12],[-1,-36],[-8,-48],[-25,-43],[-88,-82],[-15,-17],[-24,-44],[-15,-63],[-20,-15],[-20,-21],[-11,-21],[-27,-63],[-14,-17],[-13,-38],[1,-16],[-9,-65],[-37,-52],[-1,-32],[-10,-49],[-28,-32],[-20,-34],[-22,-44],[-30,-33],[-26,-37],[-28,-22],[-65,-16],[-16,-8],[-36,-37],[-23,-18],[-22,-30],[-33,-37],[-40,-29],[-37,32],[-8,-6]],[[8926,19593],[19,60],[7,32],[15,21],[14,32],[33,52],[11,34],[-4,40],[3,25],[42,69],[8,41],[20,40],[46,54],[48,37],[36,32],[26,33],[17,31],[10,43],[20,31],[37,18],[49,22],[59,16],[64,32],[31,17],[19,16],[41,70],[16,22],[26,47],[11,34],[33,44],[14,52],[17,31],[17,22],[28,50],[38,39],[65,62],[29,57],[11,10],[49,18],[14,15]],[[12058,19983],[98,47],[24,15],[51,45],[49,26],[40,-85],[27,-36],[54,-38],[76,-75],[57,-29],[14,-10],[30,-1],[43,-11],[30,3],[107,40],[46,14],[88,16],[29,-29],[91,-72],[64,-35],[21,-16],[31,-60],[20,-24],[55,-37],[18,-9],[-27,-31],[-60,-85],[-87,-93],[27,-40],[29,-33],[38,30],[38,11],[32,17],[39,76],[17,47],[21,26],[51,47],[22,7],[24,15],[14,20],[19,13],[46,8],[31,10]],[[13495,19667],[111,-117],[214,135],[128,2],[46,-156],[86,28]],[[14080,19559],[5,-23],[-87,-64],[-11,-27],[7,-73],[8,-28],[-8,-26],[-24,-30],[-7,-16],[-21,-24],[-49,-31],[-30,-37],[-4,-29],[-13,-24],[-28,-13],[-36,-58],[-19,-52],[-10,-18],[-53,-78],[-4,-12],[-4,-95],[4,-45],[11,-26],[49,-68],[27,-49],[32,-34]],[[12071,15700],[53,-101],[48,-74],[-5,-8],[65,-88],[32,-52],[25,-59],[12,-38],[12,-72],[15,-146]],[[12328,15062],[-135,-15],[-39,7],[-25,17],[-47,54],[-26,15],[-76,-12],[-61,10],[-335,26],[-69,8],[-20,7],[-21,-28]],[[11496,13912],[31,-9],[37,-2],[42,-19],[26,-2],[112,11],[141,18],[47,-1],[19,53],[44,197],[13,70],[27,3],[46,15],[193,22],[114,9],[29,6]],[[12417,14283],[9,-22],[17,-68],[35,-102],[152,-486],[42,-132],[25,-64],[25,-48],[61,-128],[49,-94],[33,-47],[130,-152],[28,-36],[20,-35],[12,-29],[11,-48],[11,-88],[12,-92],[12,-77],[16,-90]],[[13117,12445],[-295,-41]],[[14080,19559],[-8,32],[53,9],[163,78],[187,20],[62,20]],[[16489,19264],[-44,-31],[-65,-29],[-27,-2],[-28,10],[-20,0],[-29,-9],[-29,-4],[-49,-11],[-37,-19],[-16,-20],[-12,-28],[-38,-33],[-27,-17],[-23,-31],[-37,-31],[-36,-16],[-65,-26],[-88,-57],[-50,-39],[-20,-19],[-25,-11],[-63,-20],[-58,-15],[-35,-11],[-97,-2],[-123,-34],[-123,-54],[-52,-43],[-13,-27],[-11,-15],[-27,-16],[-28,-11],[-10,-11],[9,-46],[-27,-44],[-29,-54],[-21,-13],[-61,-18],[-19,-9],[-32,-27],[-73,-25],[-56,-9],[-63,38],[-22,20],[-30,13],[-83,11],[-72,0],[-63,6],[-29,-8],[-31,-21],[-22,-28],[-23,-20],[-55,-25],[-55,-3],[-20,-8],[-42,-27],[-26,-45],[-33,-38],[-46,-48],[4,-16],[22,-33]],[[12022,21314],[73,-9],[69,14],[16,7],[40,27],[12,33],[-1,29],[6,18],[17,20],[36,27],[19,41],[8,9],[37,16],[32,9],[84,29],[27,-3],[50,-44],[10,0],[47,37],[36,22],[30,11],[54,25],[13,-7],[5,-25],[-6,-74],[3,-32],[13,-68],[13,-22],[87,-31],[26,-6],[63,-5],[32,-6],[25,-15],[33,-36],[13,-26],[21,20],[27,39],[5,16],[3,121],[5,31],[7,9],[68,61],[25,28],[11,21],[42,89],[20,46],[29,35],[65,72],[10,9],[45,21],[38,32],[49,55],[23,36],[30,67],[34,43],[7,23],[-2,37]],[[13606,22190],[170,-147],[41,-135],[193,-198],[278,-287],[138,-143],[140,-89]],[[14193,20311],[-191,74],[-139,122],[8,11],[-29,21],[-48,-66],[8,-5],[-52,-76],[23,-17],[-101,-117],[-41,-43],[227,-275],[0,-25],[-19,-22],[-17,-10],[-65,-43],[-55,-27],[-55,-36],[-24,-8],[-64,-6],[-19,-16],[2,-34],[-17,-26],[-30,-20]],[[4876,17199],[26,9],[28,15],[26,30],[10,28],[22,30],[26,12],[41,-1],[49,8],[47,2],[39,11],[28,16],[12,12],[23,45],[14,50],[18,33],[19,45],[18,21],[33,19],[76,76],[44,33],[48,28],[68,-3],[19,18],[18,26],[16,31],[40,40],[31,25],[21,24],[30,15],[35,-3],[31,-13],[60,-33],[14,-5],[31,0],[32,12],[21,14],[18,19],[28,47],[44,43],[26,38],[14,36],[25,26],[42,23],[37,7],[37,3],[51,-12],[17,-1],[39,20],[41,50],[53,47],[67,50],[32,28],[51,58],[27,27],[68,71],[48,37],[9,33],[15,31],[27,8],[44,-6],[18,1],[42,-8],[44,58],[-3,34],[23,34],[25,8],[37,-16],[23,-24],[14,-30],[16,-17],[21,-10],[28,0],[30,12],[32,31],[17,29],[22,30],[32,23]],[[4979,16852],[-103,347]],[[15857,16374],[-70,-104],[-66,-100],[-31,-42],[-62,-94],[-40,-53],[-50,-82]],[[15510,15140],[4,-50],[-63,-421],[19,-17],[167,-363],[-15,-166],[2,-59],[-26,-67],[-45,-42],[-12,-19],[-40,-44],[-6,-15],[-42,-49],[-61,-44],[-88,-95],[-90,-39],[-52,-30],[-51,-24],[-78,-58],[-37,-20],[-71,-5],[-81,-17],[-100,-9],[-30,15],[-202,-71],[-305,-333],[-87,-128],[-290,-426],[-713,-99]],[[12417,14283],[-27,281],[-40,298],[-22,200]],[[16423,17207],[-142,-211],[-67,-97],[-32,-52],[-33,-43],[-58,-89],[-24,-31],[-81,-124]],[[8090,11618],[-44,10],[-38,-4],[-120,6],[-20,5],[-86,36],[-25,4],[-67,1],[-479,0],[-82,0],[-57,1],[-44,8],[-146,42],[-66,15],[-30,14],[-115,69],[-29,15],[-44,16],[-34,24],[-18,8],[-19,21],[-38,74],[-90,162],[-18,16],[-37,15],[-38,35],[-85,62],[-33,7],[-60,-10],[-39,1],[-30,6],[-22,13],[-70,48],[-74,55],[-96,80],[-57,39],[-30,30],[-19,38],[-3,57],[-7,18]],[[5044,10361],[1,15],[-10,90],[-8,42],[-22,72],[-11,46],[-19,37],[-30,31],[-50,43],[-91,46],[-86,58],[-51,57],[-75,78],[-31,47],[-97,123],[-78,94],[-71,79],[-43,62],[-30,31]],[[16460,14120],[-16,-32],[-39,-63],[-42,-83],[-48,-91],[-53,-82],[-39,-75]],[[16223,13694],[-278,-514],[-110,-207],[-27,-27],[-13,-4],[-109,-16],[-28,-10],[-90,-53],[-26,-20],[-15,-16],[-129,-175],[-64,-84],[-141,-189],[-140,-194],[-36,-32],[-45,-26],[-15,-11]],[[18840,14240],[-46,-79],[-35,-58],[-107,-205],[-47,-93],[-35,-65],[125,-55],[-207,-475],[-43,-98]],[[18445,13112],[-78,40],[-21,7],[-76,14],[-32,14],[-105,103],[-51,41],[-78,43],[-65,46],[-35,22],[-60,32],[-52,9],[-22,10],[-36,24],[-13,27],[-9,8],[-161,93],[-70,42],[-107,61],[-110,66],[-119,70],[-226,127],[-161,94],[-169,95],[-71,42]],[[9965,20994],[10,11],[9,33],[3,36],[11,40],[84,106],[49,50],[7,31],[21,31],[23,14],[28,28],[18,31],[5,48],[7,21],[12,14],[41,4],[25,-1],[41,29],[19,27],[-10,33],[-5,46],[9,28],[43,43],[18,10],[36,-7],[19,26],[27,106],[12,20],[52,37],[34,28],[54,10],[29,14],[32,44],[33,33],[48,36],[19,8],[24,18],[26,34],[36,65],[15,12],[21,7],[22,20],[14,28],[0,68],[8,41],[8,12],[40,29],[10,26],[10,40],[17,19],[45,19],[41,27],[47,22],[25,16],[44,14],[26,34],[35,39],[37,31],[30,16],[51,18],[17,23],[-7,29],[-23,54],[0,36],[7,31],[-6,24],[-2,40],[8,25],[32,34],[2,13],[-31,43],[-25,59],[-25,39],[-6,22],[3,16],[24,25],[65,31],[59,41],[39,21],[23,2],[51,18],[26,17],[43,9],[24,10],[19,19],[23,41],[42,35],[21,24],[47,38],[72,40],[282,-244],[57,-50],[716,-606],[110,-94],[382,-325],[77,-67]],[[18445,13112],[119,-60],[37,-14],[145,-77],[151,-79],[18,-8],[-8,-17],[-135,-279],[-77,-157],[-97,-200],[-58,-122]],[[17934,12056],[-28,16],[-39,51],[-43,48],[-26,21],[-83,53],[-28,31],[-23,48],[-22,28],[-87,109],[-19,17],[-54,24],[-26,28],[-3,38],[18,37],[46,83],[-3,34],[-8,23],[-20,26],[-91,50],[-35,23],[-31,39],[-74,103],[-29,24],[-193,114],[-68,33],[-176,76],[-62,20],[-76,43],[-44,24],[-33,25],[-11,27],[-8,31],[-19,37],[-34,46],[-27,31],[-46,47],[-19,16],[-102,64],[-85,50]],[[3398,15780],[18,14],[-6,60],[-35,47],[27,33],[18,5],[17,27],[38,40],[34,42],[34,26],[42,5],[39,9],[49,33],[28,34],[69,29],[45,24],[33,10],[42,8],[19,15],[87,88],[16,29],[44,57],[8,25],[19,35],[12,15],[48,40],[5,29],[-12,21],[13,16],[26,21],[74,31],[69,44],[44,20],[47,8],[40,17],[49,39],[28,32],[23,20],[12,27],[3,26],[8,33],[11,25],[54,95],[16,21],[64,69],[54,48],[37,16],[35,3],[33,8]]],"transform":{"scale":[0.000025510845369364085,0.00001901518493383094],"translate":[-75.195496,40.339427]},"objects":{"Geometry\\34-019":{"type":"GeometryCollection","geometries":[{"arcs":[[0,1]],"type":"Polygon","properties":{"GEOID":"340190112022"}},{"arcs":[[2,3,4,5,6]],"type":"Polygon","properties":{"GEOID":"340190112032"}},{"arcs":[[7,8,9,10,11,12]],"type":"Polygon","properties":{"GEOID":"340190113051"}},{"arcs":[[13,14,15,16,17,18,-11]],"type":"Polygon","properties":{"GEOID":"340190113032"}},{"arcs":[[19,20,21,-9,22,23]],"type":"Polygon","properties":{"GEOID":"340190114002"}},{"arcs":[[24,-24,25,26]],"type":"Polygon","properties":{"GEOID":"340190114003"}},{"arcs":[[27,28,29]],"type":"Polygon","properties":{"GEOID":"340190116003"}},{"arcs":[[30,31,32,33,34]],"type":"Polygon","properties":{"GEOID":"340190119001"}},{"arcs":[[35,36,37,-34]],"type":"Polygon","properties":{"GEOID":"340190119003"}},{"arcs":[[38,39,40,41]],"type":"Polygon","properties":{"GEOID":"340190103003"}},{"arcs":[[42,-36,-33,43]],"type":"Polygon","properties":{"GEOID":"340190119002"}},{"arcs":[[44,-20,-25]],"type":"Polygon","properties":{"GEOID":"340190114001"}},{"arcs":[[45,46,47,48,49,50]],"type":"Polygon","properties":{"GEOID":"340190111003"}},{"arcs":[[51,52,-7,53,-1,54,55]],"type":"Polygon","properties":{"GEOID":"340190112021"}},{"arcs":[[56,-18,57,58,59,60]],"type":"Polygon","properties":{"GEOID":"340190117001"}},{"arcs":[[61,62,63,64,65,66]],"type":"Polygon","properties":{"GEOID":"340190101002"}},{"arcs":[[67,68,69,70,71,72]],"type":"Polygon","properties":{"GEOID":"340190110013"}},{"arcs":[[73,74,75,-27,76,77]],"type":"Polygon","properties":{"GEOID":"340190113013"}},{"arcs":[[78,79,80,-16,81]],"type":"Polygon","properties":{"GEOID":"340190113041"}},{"arcs":[[82,83,84,85,86,-73,87,88]],"type":"Polygon","properties":{"GEOID":"340190110012"}},{"arcs":[[89,90,91]],"type":"Polygon","properties":{"GEOID":"340190105001"}},{"arcs":[[92,93,94,95,96,-91]],"type":"Polygon","properties":{"GEOID":"340190105002"}},{"arcs":[[97,98,99,-78,100,101,102,-30,103]],"type":"Polygon","properties":{"GEOID":"340190116001"}},{"arcs":[[104,105,106,107,108,109,110]],"type":"Polygon","properties":{"GEOID":"340190108012"}},{"arcs":[[111,112,113,-98,114]],"type":"Polygon","properties":{"GEOID":"340190115002"}},{"arcs":[[115,116,117,118,-95,119]],"type":"Polygon","properties":{"GEOID":"340190106001"}},{"arcs":[[120,121,-61,122,123,124]],"type":"Polygon","properties":{"GEOID":"340190117003"}},{"arcs":[[125,126,-63,127,128]],"type":"Polygon","properties":{"GEOID":"340190101001"}},{"arcs":[[129,-124,130,131,132,-44,-32]],"type":"Polygon","properties":{"GEOID":"340190118001"}},{"arcs":[[-96,-119,133,134,135]],"type":"Polygon","properties":{"GEOID":"340190105003"}},{"arcs":[[-135,136,137,138]],"type":"Polygon","properties":{"GEOID":"340190106002"}},{"arcs":[[-123,-60,139,-131]],"type":"Polygon","properties":{"GEOID":"340190117002"}},{"arcs":[[140,141,142,143,144,-75]],"type":"Polygon","properties":{"GEOID":"340190113011"}},{"arcs":[[145,146,-99,-114]],"type":"Polygon","properties":{"GEOID":"340190115003"}},{"arcs":[[147,148,149,150,151,-116]],"type":"Polygon","properties":{"GEOID":"340190107012"}},{"arcs":[[152,153,154,-141,-74,-100,-147,155]],"type":"Polygon","properties":{"GEOID":"340190107022"}},{"arcs":[[-65,156,157,-47,158]],"type":"Polygon","properties":{"GEOID":"340190111001"}},{"arcs":[[-145,-56,-79,159,160,-21,-45,-76]],"type":"Polygon","properties":{"GEOID":"340190113012"}},{"arcs":[[-161,161,-14,-10,-22]],"type":"Polygon","properties":{"GEOID":"340190113031"}},{"arcs":[[-81,162,163,-58,-17]],"type":"Polygon","properties":{"GEOID":"340190113042"}},{"arcs":[[164,165,-39,166,167]],"type":"Polygon","properties":{"GEOID":"340190103001"}},{"arcs":[[-167,-42,168]],"type":"Polygon","properties":{"GEOID":"340190103002"}},{"arcs":[[169,170,171,-148,-120,-94]],"type":"Polygon","properties":{"GEOID":"340190104003"}},{"arcs":[[172,173,-89,174,175,-106,176,177]],"type":"Polygon","properties":{"GEOID":"340190110011"}},{"arcs":[[-70,178,179,180,181]],"type":"Polygon","properties":{"GEOID":"340190110014"}},{"arcs":[[182,-125,-130,-31,183,-28,-103]],"type":"Polygon","properties":{"GEOID":"340190116002"}},{"arcs":[[-177,-105,184,185]],"type":"Polygon","properties":{"GEOID":"340190108011"}},{"arcs":[[-182,186,-71]],"type":"Polygon","properties":{"GEOID":"340190108021"}},{"arcs":[[187,-85,188,189,190]],"type":"Polygon","properties":{"GEOID":"340190109001"}},{"arcs":[[-55,-2,-54,-6,191,-163,-80]],"type":"Polygon","properties":{"GEOID":"340190112023"}},{"arcs":[[-191,192,-174,193]],"type":"Polygon","properties":{"GEOID":"340190109004"}},{"arcs":[[-37,-43,-133,194]],"type":"Polygon","properties":{"GEOID":"340190118002"}},{"arcs":[[195,-168,-169,-41,196,197,198,199]],"type":"Polygon","properties":{"GEOID":"340190104001"}},{"arcs":[[-92,-97,-136,-139,200]],"type":"Polygon","properties":{"GEOID":"340190105004"}},{"arcs":[[201,202,-109,203,204,-142,-155]],"type":"Polygon","properties":{"GEOID":"340190107021"}},{"arcs":[[-84,205,-189]],"type":"Polygon","properties":{"GEOID":"340190109002"}},{"arcs":[[-190,-206,-83,-193]],"type":"Polygon","properties":{"GEOID":"340190109003"}},{"arcs":[[206,-112,207]],"type":"Polygon","properties":{"GEOID":"340190115001"}},{"arcs":[[-185,-111,208]],"type":"Polygon","properties":{"GEOID":"340190107014"}},{"arcs":[[209,-202,-154,210,-151]],"type":"Polygon","properties":{"GEOID":"340190107013"}},{"arcs":[[-82,-15,-162,-160]],"type":"Polygon","properties":{"GEOID":"340190113033"}},{"arcs":[[-199,211,-178,-186,-209,-110,-203,-210,-150]],"type":"Polygon","properties":{"GEOID":"340190107011"}},{"arcs":[[-77,-26,-23,-8,212,-101]],"type":"Polygon","properties":{"GEOID":"340190113062"}},{"arcs":[[-213,-13,213,-121,-183,-102]],"type":"Polygon","properties":{"GEOID":"340190113061"}},{"arcs":[[-12,-19,-57,-122,-214]],"type":"Polygon","properties":{"GEOID":"340190113052"}},{"arcs":[[214,215,216,-197,-40,-166,217]],"type":"Polygon","properties":{"GEOID":"340190102012"}},{"arcs":[[-217,218,219,220,-86,-188,-194,-173,-212,-198]],"type":"Polygon","properties":{"GEOID":"340190102022"}},{"arcs":[[-176,221,222,-107]],"type":"Polygon","properties":{"GEOID":"340190110031"}},{"arcs":[[223,224,225,-143,-205]],"type":"Polygon","properties":{"GEOID":"340190110033"}},{"arcs":[[226,-128,-62,227,-68,-87,-221]],"type":"Polygon","properties":{"GEOID":"340190101003"}},{"arcs":[[228,229,-126,230,-219,-216]],"type":"Polygon","properties":{"GEOID":"340190102021"}},{"arcs":[[231,-200,-149,-172,232]],"type":"Polygon","properties":{"GEOID":"340190104004"}},{"arcs":[[-175,-88,-72,-187,-181,233,-51,234,-225,235,-222]],"type":"Polygon","properties":{"GEOID":"340190110041"}},{"arcs":[[-108,-223,-236,-224,-204]],"type":"Polygon","properties":{"GEOID":"340190110032"}},{"arcs":[[-67,236,-179,-69,-228]],"type":"Polygon","properties":{"GEOID":"340190101004"}},{"arcs":[[-152,-211,-153,237,-117]],"type":"Polygon","properties":{"GEOID":"340190106003"}},{"arcs":[[-137,-134,-118,-238,-156,-146,-113,-207,238]],"type":"Polygon","properties":{"GEOID":"340190106004"}},{"arcs":[[-226,-235,-50,239,240,-52,-144]],"type":"Polygon","properties":{"GEOID":"340190112041"}},{"arcs":[[-234,-180,-237,-66,-159,-46]],"type":"Polygon","properties":{"GEOID":"340190111004"}},{"arcs":[[-158,241,242,-48]],"type":"Polygon","properties":{"GEOID":"340190111002"}},{"arcs":[[243,-229,-215]],"type":"Polygon","properties":{"GEOID":"340190102011"}},{"arcs":[[-49,-243,244,-4,245,-240]],"type":"Polygon","properties":{"GEOID":"340190112031"}},{"arcs":[[-241,-246,-3,-53]],"type":"Polygon","properties":{"GEOID":"340190112033"}},{"arcs":[[-233,-171,246]],"type":"Polygon","properties":{"GEOID":"340190104002"}},{"arcs":[[-231,-129,-227,-220]],"type":"Polygon","properties":{"GEOID":"340190102023"}}]}}}