{"type":"Topology","arcs":[[[12458,9227],[8,62],[11,56],[30,189]],[[12507,9534],[37,216],[56,369]],[[12600,10119],[18,114]],[[12618,10233],[21,-177],[11,-69],[22,-68],[21,-39],[21,-30],[245,-321],[-58,-82],[-41,-66],[1,-33],[12,-19],[36,-32],[13,-22],[44,-88],[39,-26],[41,-15],[25,-1],[11,-73],[22,-157],[28,-192]],[[13132,8723],[-40,-1],[-90,-12],[-223,-27],[-27,-5],[-161,-20],[-159,-19]],[[12432,8639],[9,195],[8,201],[9,192]],[[15120,8235],[21,12],[5,10],[24,7],[8,13],[33,-14],[23,2],[32,-12],[19,-2],[26,12],[17,-6],[36,15],[33,-18],[29,0],[30,17],[16,-10],[13,-21],[11,-2],[23,-32],[32,-15],[21,-19],[16,-2],[29,-12],[14,-13],[15,-40],[11,-10],[53,-14],[19,3],[23,-8],[28,8],[16,-22],[54,16],[36,-14],[22,-13],[58,13],[16,-19],[38,-20],[10,4],[58,-42]],[[16088,7987],[-94,-158],[-87,-160],[-118,-225]],[[15789,7444],[-419,143],[-218,75],[-1,3]],[[15151,7665],[339,67],[-102,33],[-59,16],[-155,17],[-104,8],[2,142],[-5,119],[0,40],[29,45],[17,49],[7,34]],[[14524,7256],[147,-154],[108,-114],[14,1],[32,-50],[43,-48],[16,-14],[141,-150]],[[15025,6727],[-138,15],[-100,8],[-187,20],[-149,18]],[[14451,6788],[-15,127],[-27,229],[115,112]],[[13359,8991],[25,-35],[264,-355],[-190,-222]],[[13458,8379],[-281,296],[-42,46]],[[13135,8721],[3,2],[194,233],[27,35]],[[7603,13037],[365,144]],[[7968,13181],[42,-18],[64,1],[24,-5],[28,-18],[44,-58],[200,-269],[23,-29],[22,-18],[146,-98]],[[8561,12669],[-19,-64]],[[8542,12605],[-5,-5],[-200,65],[-208,66],[-183,60],[-120,40],[-66,51],[-98,82],[-59,73]],[[11526,9357],[14,-1],[17,-29],[23,6],[26,-6],[20,9],[35,-4],[14,-7],[64,-2],[12,-10]],[[11751,9313],[17,-42],[35,-70],[-2,-5],[28,-32],[3,-19],[13,-7],[7,-42],[16,-3],[30,-16],[7,-31]],[[11905,9046],[-222,-73],[-256,-82]],[[11427,8891],[-120,99]],[[11307,8990],[51,62],[17,11],[63,19],[21,11],[22,30],[5,29],[-6,39],[-33,76],[-8,44],[46,14],[41,32]],[[12033,9159],[25,33],[73,93],[91,135]],[[12222,9420],[113,-97],[59,-49],[64,-47]],[[12432,8639],[-171,-22]],[[12261,8617],[-4,38],[-11,16],[-114,83],[-41,18],[-43,31],[-30,6],[-4,33],[4,8],[93,114],[4,14],[-14,20],[26,44],[1,16],[-17,56],[-17,15],[-21,-5],[-40,35]],[[10239,9345],[81,72],[24,185],[25,182]],[[10369,9784],[18,-7],[24,-125],[3,-22],[38,-69],[44,-46],[14,-2],[27,-21],[45,-23],[9,-1],[61,-54],[-4,-43],[18,-26],[57,-28],[33,-19],[11,0],[26,-45]],[[10793,9253],[-64,-143],[-137,-299],[-30,-33],[-115,-69]],[[10447,8709],[-66,199],[-34,105]],[[10347,9013],[-32,98],[-16,72],[-13,17],[-47,145]],[[10793,9253],[27,-30],[24,-53],[29,-36],[5,-20],[-4,-36],[10,-4],[26,4],[13,-6],[5,-55],[25,-33],[-8,-45],[3,-28],[18,-11],[-2,-27],[51,-9],[-11,-17],[26,-3],[11,-13],[28,0],[24,-48]],[[11093,8783],[-223,-72],[-47,-24],[-304,-178],[-3,-1]],[[10516,8508],[-69,201]],[[11098,8470],[395,50],[330,41],[206,26],[121,17],[111,13]],[[12432,8639],[-6,-123],[-22,-422],[-10,-189]],[[12394,7905],[-33,-611],[-7,-146]],[[12354,7148],[-594,556],[-278,259]],[[11482,7963],[-214,202]],[[11268,8165],[-170,305]],[[12394,7905],[203,-40],[174,-33]],[[12771,7832],[-5,-11],[0,-32],[-12,-17],[-7,-34],[-9,-12],[-11,-47],[-11,-31],[-9,-54],[8,-36],[-2,-39],[6,-21],[17,-28],[1,-12],[-13,-23],[22,-29],[16,-56],[32,-33],[9,-22],[10,-52],[-1,-10],[19,-91],[-4,-38],[-10,-29],[-3,-43],[-18,-40],[0,-16],[-10,-20],[3,-32],[-7,-18],[-35,-26],[-10,-13],[-14,-55]],[[12723,6812],[-369,336]],[[5397,10872],[77,-14]],[[5474,10858],[449,-78],[178,-25],[467,-65],[12,-1]],[[6580,10689],[209,-23],[437,-46],[6,-5]],[[7232,10615],[-95,-130]],[[7137,10485],[-51,-71],[-90,-117],[-46,-47],[-88,-84],[-16,-21],[-115,-116],[-11,-13]],[[6720,10016],[-104,74]],[[6616,10090],[-163,113],[-42,26],[-116,83],[-43,25],[-142,99],[-96,66],[-25,8],[-78,10],[-71,12],[-222,28],[-155,18],[-93,11]],[[5370,10589],[27,283]],[[8685,14967],[77,55],[54,41],[77,53],[24,15]],[[8917,15131],[95,-42],[94,-37]],[[9106,15052],[-17,-44],[-19,-37],[-24,21],[-50,-5],[-19,-32],[8,-24],[44,-23],[21,1],[26,-10],[-49,-96],[-22,13],[-55,-103],[-58,-101]],[[8892,14612],[-36,22],[-28,35],[-100,208],[-43,90]],[[8917,15131],[54,30]],[[8971,15161],[76,30],[35,11],[56,13],[32,5],[62,4],[83,-1],[62,-5],[99,-12],[138,-34]],[[9614,15172],[-110,-188],[-27,-51],[-56,-144]],[[9421,14789],[-61,24],[-17,16],[29,34],[-49,45],[-42,51]],[[9281,14959],[-18,23],[-22,15],[-135,55]],[[9281,14959],[-82,-188]],[[9199,14771],[-14,-34],[53,-30],[-43,-82],[-34,-58],[-46,-86]],[[9115,14481],[-90,54],[-133,77]],[[8313,14707],[169,117],[-4,6],[49,35],[33,15],[125,87]],[[9115,14481],[-39,-71],[-23,-9]],[[9053,14401],[-17,-14],[-9,-19],[-26,-19],[-43,2],[-23,16],[1,31],[-12,30],[-37,19],[-65,51],[-15,26],[-1,23],[-7,12],[-23,2],[-13,-24],[6,-33],[-30,6],[-31,27],[-33,46],[-25,17],[-47,-6]],[[8603,14594],[-19,-10],[-34,25],[-25,-2],[-6,-11],[-16,2],[-32,-10],[-39,31],[2,17],[-51,15],[-22,17],[-30,12],[-18,27]],[[8176,15577],[117,-66],[30,1],[26,40],[70,-34],[11,18],[48,17],[34,-100],[45,-138],[-15,-26]],[[8542,15289],[-102,43],[-109,45],[-75,33],[-137,57]],[[8119,15467],[46,117],[11,-7]],[[8542,15289],[-75,-133],[-54,-90],[-19,-6],[-23,0],[-40,10],[-44,25],[-39,-3],[-16,-8],[-23,35],[-8,31],[-51,-40],[0,-34],[-14,-47]],[[8136,15029],[-31,23],[-44,25]],[[8061,15077],[23,56],[15,49],[52,126],[-54,21],[-17,44],[39,94]],[[7516,15806],[117,80],[59,42],[167,99],[60,34]],[[7919,16061],[146,-225],[43,-48],[-50,-17],[67,-67],[32,33],[80,-89],[5,5],[38,-40],[-90,-35],[-14,-1]],[[8061,15077],[-19,13],[-37,40],[-17,6],[-15,-4],[-51,-33],[-29,11],[-8,24],[5,15],[22,34],[0,33],[-18,4],[-90,-32],[-17,8],[-6,18],[18,38],[25,42],[11,37],[-10,24],[-20,14],[-12,-3],[-52,-35],[-21,-3],[-15,6],[-11,33],[-27,48],[-42,111],[-51,132],[-58,148]],[[6205,13860],[-20,37],[-29,86]],[[6156,13983],[99,36],[-12,35],[82,-2]],[[6325,14052],[-7,-44],[-7,-19],[35,-81],[-9,-60],[2,-37],[30,-46],[19,-8],[77,-1],[79,-12],[47,20],[-9,11],[-43,39],[-11,27],[6,24],[14,9],[14,40],[30,-64],[43,-29],[6,-21],[-8,-77],[0,-39]],[[6633,13684],[10,-17]],[[6643,13667],[-94,-66],[-115,-102],[-89,-105]],[[6345,13394],[-135,66],[-6,1],[-157,78],[-128,61]],[[5919,13600],[82,30],[-34,101],[39,13],[188,67],[11,49]],[[5984,14400],[48,-18],[100,-11],[116,-14],[17,153],[91,-34],[68,-34],[12,-12],[11,-31],[22,-75]],[[6469,14324],[-17,-23],[0,-11],[55,-81],[2,-17],[-22,-15],[-88,42],[-14,-1],[-23,-34],[3,-14],[33,-17],[57,-20],[17,-15],[1,-33],[-8,-12],[-33,-13],[-33,12],[-62,51],[-7,-2],[-5,-69]],[[6156,13983],[-71,-25],[-77,55]],[[6008,14013],[4,27]],[[6012,14040],[5,54],[9,64],[9,28],[7,50],[-70,131],[12,33]],[[6554,15092],[108,-179],[46,-68]],[[6708,14845],[20,-30],[9,-23],[-9,-32],[-23,-24],[-71,-33],[-11,-10],[7,-91],[-1,-31],[-8,-22],[-45,-77],[1,-14],[12,-14],[30,-1],[116,27],[25,-6],[10,-11],[5,-21],[-7,-17],[-43,-35],[-27,-19],[1,-29],[30,-25],[22,-35],[2,-17],[-13,-17],[-34,2],[-51,22],[-22,5],[-78,-11],[-12,2],[-32,31],[-26,36],[-16,-1]],[[5984,14400],[-64,119],[-51,-14],[-28,-14],[-72,136],[-6,9]],[[5763,14636],[-95,180]],[[5668,14816],[26,10],[194,47],[129,34],[211,65],[53,19],[112,36],[161,65]],[[7767,13278],[93,56],[184,108]],[[8044,13442],[192,116],[94,55]],[[8330,13613],[47,-69],[10,-17],[1,-35],[-8,-105],[2,-12]],[[8382,13375],[-414,-194]],[[7603,13037],[-155,-64],[-9,-1]],[[7439,12972],[-9,28],[8,28],[-1,16],[-11,30]],[[7426,13074],[60,30],[100,68],[177,101],[4,5]],[[5357,13689],[3,-20],[-87,-150],[-2,-6],[-153,17],[-3,-21],[-18,-34],[-24,-13],[-49,24],[0,-32],[-13,-17],[4,-12],[-9,-21],[-13,-5],[-8,-17],[-26,-11],[25,-19],[34,7],[35,-5],[42,4],[66,-22],[11,-22],[19,-14],[-3,-25],[29,-34],[38,-15],[29,-8],[21,-15],[26,-11],[21,4],[21,-29],[15,-13],[31,-43],[23,2],[20,8],[29,1],[7,-6],[35,-6],[22,-24]],[[5555,13086],[-111,-99],[-117,-105]],[[5327,12882],[-131,-119],[-339,-359],[-142,-153],[-18,-33]],[[4697,12218],[-20,6],[-34,2],[-20,10],[5,12],[-9,17],[10,48],[8,6],[1,30],[-23,20],[20,13],[6,17],[-15,16],[-14,5],[10,23],[-30,45],[1,38],[-18,26],[-5,51],[3,34],[-2,47],[-9,30],[-29,39],[-19,36],[-32,3],[-23,43],[-15,16],[-22,7],[-22,23],[-21,1],[-20,11],[-9,18],[-34,10],[-19,13],[-9,18],[-27,25],[0,11],[-17,24],[-7,27],[-17,18],[1,30],[-18,14],[3,19],[-4,27],[-22,16],[-21,0],[-37,37],[-37,17],[-37,23],[-38,2],[-32,11],[-23,13]],[[3955,13266],[221,268],[27,27],[44,23],[30,7],[78,11],[86,10],[300,40],[105,13],[79,12],[93,12],[137,20],[25,-1],[114,-13],[63,-6]],[[7795,14337],[52,36],[65,-27],[396,-176],[152,-69],[24,-12]],[[8484,14089],[254,-113],[-42,-133],[76,-68],[23,-161],[3,-2]],[[8798,13612],[-154,-85],[-262,-152]],[[8330,13613],[-19,28],[-56,77],[-189,222],[-29,37],[-67,121]],[[7970,14098],[-58,105],[-39,58],[-51,36],[-23,33]],[[7799,14330],[-4,7]],[[8136,15029],[16,-16],[45,-17],[43,-65],[2,-22],[-7,-64],[13,-28],[33,-35],[27,-50],[5,-25]],[[8603,14594],[-54,-210],[32,-9],[-19,-54]],[[8562,14321],[-36,-105]],[[8526,14216],[-42,-127]],[[7795,14337],[-24,41],[0,15],[140,335],[56,139],[53,127],[30,55],[11,28]],[[12302,11450],[19,38],[20,23],[44,9],[-28,134],[-4,7]],[[12353,11661],[31,6],[52,-8],[13,-28],[6,-24],[36,-20],[-3,-23],[-19,-16],[-10,-51],[15,-64],[-7,-24],[-1,-25],[17,-42],[10,-36],[-9,-15],[2,-14],[17,-8]],[[12503,11269],[-1,-116],[6,-91],[10,-67],[5,1],[29,-227]],[[12552,10769],[-89,-14],[-48,-6],[-20,-8],[-19,-21],[-98,-127],[-18,-16],[-20,-2]],[[12240,10575],[-48,18]],[[12192,10593],[-1,14],[-122,137],[-33,12],[-106,23],[-58,10]],[[11872,10789],[-49,21]],[[11823,10810],[28,65],[23,34],[87,95],[83,93],[21,26],[64,68],[58,70],[37,78],[78,111]],[[11823,10810],[-291,140],[-86,40]],[[11446,10990],[62,34],[43,26],[16,15],[174,218],[31,39],[28,18],[86,8],[31,11],[80,69],[61,55],[55,49],[38,43],[89,-74],[62,-51]],[[11534,10496],[200,107],[14,36],[40,10],[39,29],[29,31],[0,32],[16,48]],[[12192,10593],[-23,6],[-43,-4],[-23,-8],[-159,-68],[-107,-47],[-45,-21],[-150,-64],[-34,-15]],[[11608,10372],[-74,124]],[[11155,10232],[17,25],[18,13],[37,-1],[5,21],[13,25],[28,27],[19,26],[8,20],[-2,14],[-13,18],[13,19],[13,3],[17,-20],[22,25],[1,25],[-26,101],[0,68],[-23,59],[-2,22],[14,61],[8,11],[28,18]],[[11350,10812],[22,-37],[61,-111],[101,-168]],[[11608,10372],[-79,-67],[-86,-84],[-65,-62],[-58,-50]],[[11320,10109],[-165,123]],[[10751,10628],[144,70],[174,85],[28,25],[120,147],[19,18],[58,16]],[[11294,10989],[7,-31],[4,-49],[10,-36],[35,-61]],[[11155,10232],[-135,100]],[[11020,10332],[-36,31],[-148,143],[-34,43],[-51,79]],[[12240,10575],[-25,-24],[-24,-13],[-25,-3],[-12,-14],[34,-8],[8,-7],[-2,-29],[4,-62],[-10,-15],[7,-15],[-19,-7],[-21,-19],[-22,-44],[-4,-16],[-14,-12],[-6,-20],[-31,-30],[0,-35],[29,-45]],[[12107,10157],[-33,-15],[-61,-34],[-282,-142],[-25,-24],[-56,-80]],[[11650,9862],[-112,85],[-146,107],[-72,55]],[[12552,10769],[9,-73],[34,-247]],[[12595,10449],[-37,-15],[-99,-45],[-12,-8],[-41,-46],[-33,-42],[-24,-16]],[[12349,10277],[-151,-76]],[[12198,10201],[-91,-44]],[[12503,11269],[22,-8],[12,-17],[2,-31],[22,-27],[12,3],[28,-11],[20,-23],[-13,-20],[4,-30],[16,1],[29,-25],[-3,-39],[14,-20],[2,-16],[27,-65],[-11,-21],[-33,-51],[29,-28],[7,-22],[24,-15],[35,11],[27,0],[37,-30],[0,-25],[19,-23],[8,-23],[86,-62],[27,-60],[2,-25],[7,-19]],[[12961,10548],[-4,-24],[-30,-26],[-9,-26]],[[12918,10472],[1,-26],[-30,-39],[-35,-60],[-9,-27],[-6,-41],[-21,-36],[-13,-40],[-20,-33]],[[12785,10170],[-162,146],[-10,6]],[[12613,10322],[-18,127]],[[12961,10548],[17,-22],[14,-9],[8,-16],[26,-13],[23,-25],[31,-18],[12,-15],[-4,-23],[23,-26],[8,-16],[47,-15],[13,-26],[12,-9],[31,5],[44,-46],[27,-12],[18,-23],[23,-20],[10,2],[41,-45],[3,-26],[14,-7],[11,-18],[5,-21],[-6,-15],[7,-17],[-21,-22],[-19,-13],[-6,-12],[5,-51],[-4,-43],[-10,-33],[34,-19],[-6,-22],[12,-20],[-19,-15],[4,-15],[28,1],[20,-20],[15,-46],[-11,-45],[-24,-30],[-18,-34],[0,-22]],[[13399,9611],[-331,302],[-69,61],[-37,36]],[[12962,10010],[33,18],[86,24],[20,19],[7,65],[9,116],[0,18],[-9,22],[-98,121],[-12,10],[-80,49]],[[10010,10050],[49,13],[39,20],[13,19],[15,1]],[[10126,10103],[9,-31],[21,-19],[33,-17],[28,-28],[39,-50],[16,-3],[45,-46],[3,-31],[27,-31],[34,16],[-10,-71]],[[10371,9792],[-2,-8]],[[10239,9345],[-37,113],[-64,201]],[[10138,9659],[-30,89],[-24,78],[-74,224]],[[9688,9653],[36,29]],[[9724,9682],[61,-87],[69,31]],[[9854,9626],[37,18],[32,-79]],[[9923,9565],[32,-70],[-13,-6],[36,-82],[-43,-17]],[[9935,9390],[-56,77],[0,-13],[-91,-71],[-124,171],[-5,37],[39,6],[21,12],[-31,44]],[[9466,9545],[22,-6],[133,12],[-2,49],[69,53]],[[9935,9390],[71,-100],[-67,-49],[18,-124]],[[9957,9117],[-49,-37]],[[9908,9080],[-92,96]],[[9816,9176],[-117,123],[-233,246]],[[9547,9929],[84,-121],[27,-34],[66,-92]],[[9466,9545],[-11,4],[-61,2],[-45,7],[-112,48]],[[9237,9606],[147,180],[163,143]],[[9816,9176],[-19,-19],[-136,-180]],[[9661,8977],[-64,71],[-126,135],[-305,332],[71,91]],[[9695,15230],[65,110],[74,120],[43,71],[55,-38],[13,-5],[53,2]],[[9998,15490],[1,-44],[-1,-322],[0,-34]],[[9998,15090],[-172,-81],[-85,79]],[[9741,15088],[-41,39],[-47,31],[42,72]],[[12962,10010],[-80,71],[-97,89]],[[12613,10322],[-5,0],[10,-89]],[[12600,10119],[-23,4],[-29,-6],[6,-31],[-5,-34],[-16,-28],[-41,-21],[-32,-3],[0,27],[-6,26],[-62,129],[-43,95]],[[12507,9534],[-105,20],[-19,13],[-61,139],[-43,93],[-4,16],[7,33],[1,33],[-35,5]],[[12248,9886],[3,26],[-42,135],[-13,113],[2,41]],[[12248,9886],[-24,-59],[0,-154],[28,-73],[2,-21],[-20,-54],[-55,-68]],[[12179,9457],[-62,52],[-66,52],[-127,97]],[[11924,9658],[-126,93],[-148,111]],[[12354,7148],[-500,29],[-43,2],[-507,31]],[[11304,7210],[-1,50],[-8,46],[-7,14],[13,68],[-1,20],[-13,97],[-6,69],[-11,29],[-9,12],[19,27],[0,23],[-15,-5],[-22,17],[-10,20],[-23,14],[-29,5],[-36,40],[-10,38],[14,58],[11,18],[4,33],[-8,14],[-3,32],[33,45],[24,14],[16,17],[256,-62]],[[8602,7497],[281,396],[261,368]],[[9144,8261],[145,204]],[[9289,8465],[50,-47],[103,-87],[45,-37],[56,-38],[77,-47]],[[9620,8209],[92,-58],[35,-24],[7,-16],[-57,-21],[-11,-19],[-8,-95],[3,-123],[7,-22]],[[9688,7831],[-59,-6],[-336,-35],[-60,-6],[-17,-7],[-35,-39],[-17,-2],[-17,-12],[-29,-33],[-17,-3],[-17,-28],[-32,-22],[-19,-40],[-17,-4],[-50,-48],[-35,-26],[-13,-3],[-19,-25],[-29,-4],[-23,-18],[-41,-18],[-54,4],[-48,11],[-24,2],[-29,12],[-25,5],[-24,11]],[[9289,8465],[235,332]],[[9524,8797],[71,-34],[267,-111]],[[9862,8652],[-18,-38],[-212,-378],[-12,-27]],[[8542,15289],[180,-76],[25,55],[24,58],[8,3],[228,-98],[60,-24],[-51,-21],[-45,-25]],[[6959,11185],[164,214]],[[7123,11399],[126,-68],[33,-21],[23,-23],[113,-125],[124,-133]],[[7542,11029],[100,-109],[19,-12],[42,-14],[23,-2],[21,12],[11,19],[26,81],[17,32],[35,13],[37,2],[48,8],[65,20],[168,12],[39,-10]],[[8193,11081],[229,-109],[28,-10],[29,-2],[240,38]],[[8719,10998],[46,-75],[12,-13],[78,-61]],[[8855,10849],[-38,-118],[-28,-98],[-52,-165],[-25,-93],[-7,-40],[-2,-37],[6,-154],[4,-71],[2,-330],[-4,-214],[-14,-78]],[[8697,9451],[-167,135],[-487,384],[-10,7]],[[8033,9977],[-10,9],[-605,478],[-186,151]],[[6580,10689],[99,129],[280,367]],[[9164,12146],[53,3],[251,9]],[[9468,12158],[16,-77]],[[9484,12081],[75,-330],[13,-65],[-164,57],[-87,30],[-48,20],[-5,-14],[-19,0],[-42,36],[-33,9]],[[9174,11824],[-3,196],[-13,-1],[1,-62],[-85,-3],[-6,188],[96,4]],[[8841,12170],[33,6],[11,28],[41,59],[33,30],[12,-11],[13,14],[29,55],[37,45],[-7,50],[-1,65],[16,18],[14,37],[11,49],[51,-17],[15,-13]],[[9149,12585],[5,-167],[9,-208],[1,-64]],[[9174,11824],[-15,4],[-42,-15],[-6,-29]],[[9111,11784],[-13,1],[-29,18],[4,37],[-7,13],[6,18],[-2,18],[18,17],[-3,14],[-20,10],[-24,-10],[-35,-3],[-21,43],[-10,4],[-9,35],[-56,26],[-14,-13],[-21,23],[-9,28],[-26,25],[-3,13],[5,29],[-1,40]],[[9129,13676],[38,19]],[[9167,13695],[2,-24],[20,-24],[20,-42],[-1,-14],[10,-30],[13,-3],[18,-102],[-8,-25],[-20,-17],[-2,-12],[94,-51],[88,-49],[-23,80],[32,9],[14,-20],[48,-8],[6,-5],[40,13],[8,-17],[40,-54]],[[9566,13300],[30,-39]],[[9596,13261],[24,-126],[28,-176]],[[9648,12959],[-232,-37],[-16,-51],[-87,-20]],[[9313,12851],[-107,480]],[[9206,13331],[-77,345]],[[9313,12851],[2,-5],[-174,-42]],[[9141,12804],[-12,304],[-179,-11]],[[8950,13097],[-10,203],[180,10],[86,21]],[[8832,13595],[13,45]],[[8845,13640],[112,63],[123,-51],[49,24]],[[8950,13097],[-79,-5],[9,-171],[-15,-2]],[[8865,12919],[-60,12],[-47,26],[-42,29],[-54,31]],[[8662,13017],[93,312],[77,266]],[[9421,14789],[-10,-27],[228,-60]],[[9639,14702],[27,-77],[-107,-19],[-31,-124]],[[9528,14482],[-9,-37],[-13,-22],[-12,-40],[-2,-21],[-29,-8]],[[9463,14354],[-20,16],[-47,15],[-11,-1],[-13,-39]],[[9372,14345],[-17,66],[1,29],[13,41],[42,116],[9,50],[-34,12],[3,15],[-25,10],[-10,-15],[-99,69],[-56,33]],[[9372,14345],[-16,17],[-4,18],[-53,-7],[-26,-19]],[[9273,14354],[-15,21],[-37,2],[-13,-11],[-25,15],[-16,-4]],[[9167,14377],[-69,22],[-31,-1],[-14,3]],[[10250,10543],[45,-21],[16,4],[167,95],[21,-1],[173,-25],[18,4],[61,29]],[[11020,10332],[-19,-10],[-21,-25],[-5,-25],[-15,-16],[-56,-35],[-39,-42],[-10,-21],[-43,-28],[-13,-27],[-12,-4],[-30,3],[-19,-26],[-24,-19],[-43,-14],[-34,-1],[-71,-14],[-39,-17],[-14,0],[-8,14],[-17,-8],[142,-150],[-10,-25],[-23,2],[-23,-5],[-81,-31],[-81,-28],[-13,-1],[-28,13]],[[10126,10103],[-6,20],[2,20],[8,16],[-8,10],[-4,24],[2,41],[18,21],[9,31],[-1,16],[40,66],[-7,18],[6,55],[38,44],[18,27],[9,31]],[[11650,9862],[-46,-64],[-88,-128],[-20,-26],[-101,19],[-285,55],[-99,17],[-91,-198]],[[10920,9537],[-73,-162]],[[10847,9375],[-54,-122]],[[11635,12713],[-14,38]],[[11621,12751],[48,-45],[11,-33],[10,-6],[-10,-31],[-35,-42],[-10,-34],[-19,-52],[-16,-22],[-3,-22],[50,-47],[17,-96],[11,-16],[30,-6],[10,5],[16,-15],[53,-25],[11,-13],[-43,-36],[-32,-19],[-22,-7],[-61,-52],[-19,2],[1,-23],[-30,-20],[-53,47],[-81,-58],[-37,67]],[[11418,12152],[32,67],[-98,81]],[[11352,12300],[8,18],[60,48],[23,42],[14,56],[8,10],[6,30],[42,47],[16,6],[34,28],[37,64],[7,32],[28,32]],[[10144,8832],[81,-86],[75,-82],[110,-116],[14,-17],[38,-63],[-1,-44]],[[10461,8424],[-60,16],[-41,-2],[-56,-17],[-191,-68]],[[10113,8353],[-29,13],[-43,92],[-12,29],[-15,69],[-4,34],[-93,39]],[[9917,8629],[13,25],[72,49],[36,29],[106,100]],[[9524,8797],[137,180]],[[9908,9080],[92,-98],[144,-150]],[[9917,8629],[-55,23]],[[10770,11802],[189,102],[98,54],[0,41],[18,36],[31,26],[13,24],[7,33],[-24,108],[36,44],[65,4],[30,13],[46,7],[63,-3],[10,9]],[[11418,12152],[-56,-120],[-41,-97],[-9,-29],[-63,-271]],[[11249,11635],[-60,-271],[-12,-26],[-50,-27]],[[11127,11311],[-87,161],[-39,68],[-56,65],[-175,197]],[[10847,9375],[235,-196],[45,-37],[180,-152]],[[11427,8891],[-275,-90],[-59,-18]],[[10920,9537],[24,-5],[36,-28],[26,2],[35,-11],[45,-1],[26,-17],[24,7],[25,-7],[43,-2],[13,-13],[43,-1],[17,8],[26,0],[63,-41],[13,-17],[26,-14],[54,-21],[20,-23],[22,-6],[25,10]],[[14322,8593],[4,-12],[26,-16],[28,-3],[18,-17],[59,-21],[16,-24],[4,-23],[23,-17],[23,-29],[49,-19],[31,-23],[35,-14],[18,2],[45,-20],[25,-17]],[[14726,8340],[-162,-286],[-25,-45],[-106,-186]],[[14433,7823],[-96,59],[-12,17],[-11,3],[-43,-52],[-37,-36],[-63,87],[-54,70],[-70,96]],[[14047,8067],[67,20],[-49,180],[-48,121],[-37,142],[73,28],[30,-7],[32,4],[12,7],[71,6],[27,8],[51,1],[46,16]],[[14726,8340],[20,0],[28,-19],[9,-18],[34,-15],[56,2],[31,-7],[44,-15],[20,-12],[46,-9],[27,-13],[16,8],[20,-5],[43,-2]],[[15151,7665],[-267,-54],[-167,-31],[-78,-16],[-88,-17]],[[14551,7547],[-127,-24],[-36,-18],[-63,-38]],[[14325,7467],[-59,62]],[[14266,7529],[79,137],[88,157]],[[15789,7444],[-190,-363]],[[15599,7081],[-452,96],[-20,6],[-116,74],[-35,24],[-129,84],[-118,77],[-178,105]],[[14115,7342],[1,1],[89,-75],[98,156],[29,35]],[[14332,7459],[86,-89],[72,-79],[34,-35]],[[14451,6788],[-179,22],[-132,8],[-60,5],[-49,0],[-319,5],[-4,15],[326,401],[81,98]],[[13845,7617],[153,-31],[268,-57]],[[14325,7467],[7,-8]],[[14115,7342],[-65,51],[-35,18],[-30,11],[-99,15],[-88,16],[2,6],[68,89],[-23,69]],[[15778,5307],[47,143],[4,64],[16,306],[2,29]],[[15847,5849],[322,-342],[76,-81],[39,-52],[22,-41],[39,-86],[101,-209],[81,-169],[94,-167],[52,-81],[55,-65],[30,-29],[73,-60],[90,-56],[272,-165],[74,-44],[51,-26],[429,-173],[194,-77],[39,-17]],[[17980,3909],[-835,-964],[-133,-153]],[[17012,2792],[-408,373],[-97,93],[-295,286],[-174,166],[-517,484],[-75,70]],[[15446,4264],[86,206],[35,111],[77,257],[103,339],[13,46],[18,84]],[[14907,5756],[43,82],[129,254],[54,100]],[[15133,6192],[78,149],[32,57],[33,63]],[[15276,6461],[41,-45],[530,-567]],[[15778,5307],[-375,60],[-198,30],[-141,22],[-176,-13],[-167,-11]],[[14721,5395],[154,297],[32,64]],[[9463,14354],[-18,-12],[14,-28],[15,-74],[20,-22],[25,-13],[10,-14],[1,-57],[17,-36],[34,-36],[33,-56],[27,-29],[3,-20]],[[9644,13957],[0,-27]],[[9644,13930],[-291,-144]],[[9353,13786],[-48,142],[-15,15],[-32,14],[-20,0]],[[9238,13957],[-21,24],[-10,33],[4,13],[29,30],[7,32],[16,-2],[10,13],[-11,12],[22,51],[11,18],[18,1],[3,32],[-4,33],[-12,20],[-14,33],[-13,54]],[[8845,13640],[87,298],[22,55],[40,71]],[[8994,14064],[14,25]],[[9008,14089],[44,-60],[60,-74],[20,-5],[67,-4],[39,11]],[[9353,13786],[-186,-91]],[[9040,14147],[51,90],[51,98],[25,42]],[[9008,14089],[32,58]],[[15446,4264],[-72,68],[-712,674]],[[14662,5006],[-96,91]],[[14566,5097],[70,135],[2,8],[83,155]],[[14484,6508],[98,-2],[143,-1],[195,-183],[39,-32],[174,-98]],[[14907,5756],[-66,22],[-17,3],[-43,24],[-36,15],[-37,1],[-18,-6],[-123,-4],[-40,331],[-43,366]],[[9040,14147],[-78,45],[-93,38],[-13,10],[-57,15],[-237,66]],[[9614,15172],[46,80]],[[9660,15252],[35,-22]],[[9741,15088],[-8,-16],[39,-36],[33,-37],[5,-35],[-9,-22],[-21,-19],[-91,-145],[-45,-78],[-5,2]],[[9998,15090],[0,-193],[0,-142]],[[9998,14755],[-153,-146],[-88,-89],[-169,-29],[-60,-9]],[[9998,14755],[1,-292],[0,-115],[3,-169]],[[10002,14179],[0,-64],[5,-260],[0,-67]],[[10007,13788],[-54,27],[-126,61],[-138,67],[-45,14]],[[9998,15090],[313,147],[18,2]],[[10329,15239],[0,-42],[8,-19],[16,-19],[17,-10],[25,-6],[25,1],[67,15],[47,-2],[32,11],[6,16],[-14,19],[-37,12],[-15,22],[7,25],[22,22],[40,27],[19,9],[17,-1],[12,-11],[45,-17],[13,-18],[-14,-34],[-28,-17],[-7,-23],[5,-25],[21,-32],[-3,-38],[-10,-23],[2,-24],[8,-19],[16,-18],[45,-14],[22,1],[26,-15],[18,-21],[57,-43]],[[10839,14928],[-55,-28],[-97,-59],[-54,-37],[-40,-30],[-52,-43]],[[10541,14731],[-57,-52],[-43,-42],[-299,-311]],[[10142,14326],[-140,-147]],[[10541,14731],[164,-256],[-28,-19],[-49,-27],[-41,-42],[-34,-23],[-34,-13],[-29,-18],[-16,-21],[-14,-35],[-1,-29],[9,-37],[63,-124],[9,-21],[5,-31],[2,-78],[-11,-46],[0,-15],[15,-35]],[[10551,13861],[-146,-79]],[[10405,13782],[-12,68],[-39,108],[-12,18],[-62,50],[-94,73],[-23,32],[-59,104],[2,24],[9,14],[39,41],[-12,12]],[[13857,2793],[257,41],[795,125],[-142,1166],[-28,221],[-18,131],[-46,402],[-13,127]],[[17012,2792],[-364,-421],[-488,-564],[-608,-703]],[[15552,1104],[-150,73],[-263,131],[-76,33],[-148,62],[-744,321]],[[14171,1724],[-57,216],[-82,305],[-49,181],[-113,326],[-13,41]],[[13495,6100],[186,-174],[572,-534],[313,-295]],[[13857,2793],[-2,59],[-18,366],[-4,107],[-6,108],[-10,193],[0,37]],[[13817,3663],[41,83],[91,174],[8,13],[94,177],[122,234],[-59,147],[-46,115]],[[14068,4606],[-32,82],[-58,150],[-34,87],[-70,183],[-55,141]],[[13819,5249],[-143,371],[-59,156],[-118,308],[-4,16]],[[12544,2773],[58,50],[41,45],[44,40],[258,236],[22,15],[180,73],[54,20],[49,22],[128,50],[112,46],[137,51],[62,25],[24,17],[19,35],[85,165]],[[14171,1724],[-158,67],[-375,159]],[[13638,1950],[-127,58],[-44,-111],[-25,-10],[-16,8],[-24,-17],[-36,-9],[-31,-3],[-39,11],[-36,-20],[-18,3],[-19,-9],[-32,-6],[-5,-16],[-30,-16],[-25,-58]],[[13131,1755],[-10,-7],[-14,-27],[-29,-36],[-26,-15],[-8,-17],[-12,-49],[-24,-27],[-15,-50],[-12,-9]],[[12981,1518],[-153,144],[-314,296],[-74,67],[-80,77],[-281,263]],[[12079,2365],[9,28],[21,39],[15,6],[12,19],[27,10],[11,34],[11,16],[14,37],[41,-20],[51,11],[184,29],[41,18],[59,42],[16,15],[5,20],[-11,45],[-15,25],[-26,34]],[[11499,3572],[48,15],[101,25],[161,42],[144,50],[59,-112]],[[12012,3592],[10,-19]],[[12022,3573],[52,-97],[170,-317],[83,-106],[51,-67],[166,-213]],[[12079,2365],[-500,467],[-124,124],[-206,204],[-299,286],[-134,130]],[[10816,3576],[157,-15],[147,-28],[191,-35],[76,-1],[30,12],[55,32],[27,31]],[[12416,6156],[89,36]],[[12505,6192],[567,303]],[[13072,6495],[423,-395]],[[13819,5249],[-457,5],[-87,2],[-266,3],[-252,4],[-141,1],[-95,-8],[-69,8],[-163,6]],[[12289,5270],[3,33],[-13,29],[-3,21],[6,30],[13,1],[22,16],[11,23],[0,37],[11,29],[20,35],[1,34],[9,18],[0,27],[-6,5],[-3,33],[24,64],[-1,10],[17,45],[1,35],[13,28],[5,51],[-8,12],[14,33],[-11,35],[7,34],[12,23],[7,76],[-6,38],[-13,-1],[-5,32]],[[12012,3592],[16,10],[10,21],[28,6],[1,16],[18,-7],[10,15],[5,27],[54,78],[25,49],[-1,32],[13,34],[-6,28],[-25,8],[-19,14],[21,59],[13,61],[-1,45],[15,28],[-4,41],[8,24],[3,28],[19,39],[-7,29],[16,32],[-9,21],[21,42],[-21,28],[-2,27],[-25,23],[-8,44],[-13,30],[-14,16]],[[12153,4540],[81,53],[40,24],[42,5],[129,-1],[236,-3],[70,0],[326,-3],[89,0],[175,-3],[202,-1]],[[13543,4611],[0,-124],[-55,-39],[-12,-13],[-17,-30],[-19,-14],[-35,-17],[-49,-49],[-66,-57],[-18,-28],[-19,-40],[-17,-49],[-26,-67],[-1,-29],[-7,-24],[-13,-20],[-38,-44],[-31,-27],[-26,-19],[-61,-26],[-27,-30],[-32,-5],[-25,-13],[-23,-4],[-27,-16],[-24,-22],[-19,-29],[-17,-15],[-38,-18],[-28,-30],[-50,-16],[-20,-13],[-25,-49],[-38,-36],[-25,-20],[-25,11],[-14,-4],[-17,-25],[-17,-4],[-29,-26],[-29,-4],[-38,-33],[-32,-5],[-113,3],[-28,24],[-36,19],[-40,9],[-80,7],[-26,8],[-41,29],[-28,-15]],[[11217,5682],[710,281],[58,22],[431,171]],[[12289,5270],[-5,-36],[-36,-74],[-11,-10],[-25,-57],[-9,-37],[-22,-20],[-14,3],[-44,-28],[-10,-15],[-8,-40],[-29,-24],[-18,-3],[-26,-28],[-19,-44],[-26,-39],[7,-72],[25,-29],[43,-20],[12,-19],[2,-34],[10,-21],[-3,-28],[14,-27],[40,-12],[16,-16]],[[11499,3572],[6,12],[0,28],[-26,439],[-7,123],[-17,320],[-7,51],[-103,513],[-9,41],[-119,583]],[[10814,5524],[403,158]],[[10816,3576],[-318,309],[-214,203],[-234,222],[-183,173],[-162,152]],[[9705,4635],[349,323],[136,125],[121,112],[253,234],[250,95]],[[11294,10989],[33,2],[119,-1]],[[15025,6727],[103,-10],[39,-6],[145,-13],[82,-10],[205,393]],[[16088,7987],[17,-11],[35,-38],[8,-16],[31,-10],[23,1],[23,-19],[3,-18],[13,-15],[13,2],[26,-28],[9,-32],[32,-51],[28,-1],[48,-18],[20,-22],[-2,-23],[4,-19],[-9,-13],[5,-18],[44,-20],[54,-37],[-4,-18],[11,-13],[-1,-44],[-7,-31],[10,-10],[1,-18],[17,-15],[41,-7],[24,-19],[6,-13],[19,-15],[18,-29],[6,-19],[35,-48],[-5,-18],[11,-11],[1,-21],[58,-2],[38,-12],[-5,-16],[15,-16],[-10,-27],[18,-44],[2,-17],[15,-27],[-4,-26],[21,-3],[9,-16],[-12,-40],[7,-17],[56,-61],[2,-12],[-9,-30],[15,-26],[36,-7],[21,-58],[24,-9],[6,-10],[-7,-18],[32,5],[11,-11],[-8,-19],[25,-21],[16,-4],[-7,-34],[22,-12],[8,-22],[21,-10],[0,-15],[-10,-13],[1,-19],[-15,1],[-12,-21],[-4,-37],[17,-42],[11,-6],[-4,-37],[12,-13],[7,-25],[-3,-16],[13,-13],[-18,-10],[-4,-14],[12,-29],[-16,-6],[2,-25],[-3,-27],[18,-9],[-6,-20],[17,-16],[-19,-15],[0,-26],[-10,-15],[4,-19],[-19,-7],[0,-16],[-26,-9],[6,-14],[-8,-15],[20,-39],[29,-15],[19,-41],[-8,-15],[14,-17],[-4,-31],[10,-8],[-16,-31],[4,-37],[9,-6],[-4,-24],[7,-25],[11,-15],[21,-11],[-13,-51],[10,-19],[1,-40],[7,-9],[-8,-19],[9,-23],[16,-12],[-18,-33],[-13,-10],[7,-16],[18,-14],[14,2],[20,-30],[11,-6],[-8,-21],[6,-76],[10,-13],[-5,-23],[10,-17],[4,-29],[15,-27],[1,-10],[16,-18],[24,2],[0,-29],[18,-26],[-6,-39],[27,-33],[22,-17],[33,-14],[0,-30],[13,-14],[33,-10],[6,-17],[14,4],[15,-17],[17,3],[16,-44],[-5,-12],[12,-13],[33,0],[6,-26],[20,-3],[11,-24],[11,-6],[15,15],[9,-25],[16,0],[-2,-23],[20,-3],[3,-35],[8,-24],[-20,-1],[6,-30],[-16,-13],[-11,-19],[11,-13],[7,-27],[-1,-21],[28,-28],[-5,-25],[-15,-14],[-3,-24],[21,3],[18,-10],[1,-24],[15,-8],[3,-17],[20,-1],[14,-31],[31,-28],[19,3],[39,-12],[1,-11],[20,-16],[23,-5],[-1,-29],[24,7],[16,-10],[7,-16],[26,-11],[1,-13],[30,-14],[6,-31],[-4,-17],[16,-22],[-9,-23],[14,-8],[22,1],[2,-24],[32,6],[12,-4],[4,-35],[20,2],[17,-16],[-10,-22],[25,-12],[29,-4],[-171,-197]],[[15276,6461],[-99,105],[-152,161]],[[13131,1755],[49,-81],[60,-114],[30,-79],[35,-119],[37,-49],[10,1],[134,38],[50,15],[18,229],[57,239]],[[13611,1835],[420,-127],[-59,-718],[-225,20],[-204,19],[-44,3]],[[13499,1032],[-380,357],[-138,129]],[[8295,7474],[32,-14],[159,-64],[631,-268],[389,-164],[256,-19],[40,3],[58,9],[29,-1],[41,-10],[261,-115],[87,-37],[54,-28],[183,-118],[238,-159]],[[10753,6489],[-64,-2],[-561,-16],[10,-6],[16,-28],[2,-37],[13,-17],[9,-34],[25,-28],[33,-12],[13,-14],[29,-14],[20,-16],[77,-35],[7,-29],[19,2],[37,-11],[21,-13],[17,-35],[5,-22],[-22,7],[2,-21],[19,-19],[18,-9],[3,-20],[33,8],[7,-33],[47,-46],[11,-7],[8,-27],[-1,-18],[19,-27],[13,-38],[22,-24],[12,-7],[8,-22],[13,-20],[24,-19],[14,-65],[3,-20],[13,-16],[27,-12],[1,-37],[-7,-12],[-5,-36],[6,-19],[45,-39]],[[9705,4635],[-240,229],[-514,490],[-862,809],[-122,113]],[[7967,6276],[242,212],[152,131],[-68,749],[-2,29],[4,77]],[[3975,10531],[32,-6],[5,-15],[-5,-22],[3,-24],[28,-20],[28,-41],[23,-41],[8,1],[21,31],[26,-8],[12,-18],[2,-29],[-6,-11],[-4,-31],[36,-14],[19,6],[-3,-184],[-52,-14]],[[4148,10091],[-139,88],[-33,14],[-12,15],[-11,26],[-20,31],[-42,44],[7,7],[-32,55],[29,60],[23,32],[57,68]],[[13638,1950],[-27,-115]],[[3593,9750],[-1,99],[2,25],[18,60],[32,70],[15,27],[52,88],[24,31],[-8,67],[-33,338],[1,24]],[[3695,10579],[15,6],[25,-1],[40,-8],[32,-22],[17,-6],[40,14],[14,2],[97,-33]],[[4148,10091],[-96,-29],[-78,-20],[-43,-41],[-35,-49],[-21,-14],[-16,-20],[-33,-30],[-13,-6],[-37,-63],[-22,-61],[-27,-56],[-8,-12],[6,-25],[-7,-40],[-16,-49],[-13,-22],[-49,22]],[[3640,9576],[-49,22],[2,152]],[[10683,13929],[104,55],[123,63],[65,36],[70,41],[58,37],[77,33],[27,5],[16,-7],[6,23],[21,31],[38,34],[42,18],[25,16]],[[11355,14314],[4,-13],[-19,-23],[-39,-10],[-39,-33],[-11,-23],[7,-16],[23,-9],[8,-25],[14,-10],[22,-1],[8,-13],[-13,-79],[25,-31],[35,-16],[6,-20],[-7,-16],[1,-31],[-22,1],[-1,16],[-18,15],[-20,-26],[-60,-36],[5,-23],[13,-8],[42,-9],[9,-20],[26,-42],[8,-35],[31,-43],[-2,-12],[-47,-39]],[[11344,13684],[-66,74],[-26,25],[-21,14],[-42,-8],[-56,8],[-21,-2],[-144,-20],[-154,-3],[-141,-4]],[[10673,13768],[10,161]],[[10013,13384],[149,2],[32,-8],[21,-16],[148,197]],[[10363,13559],[124,-232],[17,-35]],[[10504,13292],[-76,-44],[-24,-17],[-78,-101],[-12,-5],[4,-20],[36,-29],[-61,-80],[-69,45],[-38,-9],[-77,-7],[-24,4],[-34,-8],[-33,2],[-1,96]],[[10017,13119],[-2,139],[-2,126]],[[10007,13788],[4,-296],[2,-108]],[[10017,13119],[-25,-12],[-71,-113],[-50,-89],[-85,110],[-150,195],[-40,51]],[[9566,13300],[94,83],[128,118],[-66,35],[-94,133],[-11,11],[21,134],[8,36],[2,35],[-4,45]],[[9648,12959],[6,-71],[16,-251],[3,-60],[-27,-39],[-11,-68],[-2,-39],[3,-27],[9,-32],[37,-58],[16,-38],[13,-55],[-1,-56]],[[9710,12165],[-44,-38],[-10,-6],[-172,-40]],[[9468,12158],[-101,451],[-9,38],[-33,-13],[-54,-26],[-99,-44],[-23,21]],[[9149,12585],[-5,209],[-3,10]],[[8841,12170],[-9,9],[-32,0],[-12,31],[-19,11],[-12,21],[-6,31],[-15,7]],[[8736,12280],[10,10],[-10,27],[24,17],[35,41],[14,40],[-19,12],[5,32],[-18,23],[-91,30],[11,37],[147,-45],[16,88],[32,49],[12,27],[-5,30],[-21,30],[44,33],[10,16],[7,26],[-2,20],[-26,59],[-34,-16],[-11,30],[-1,23]],[[11249,11635],[67,6],[138,15],[26,8],[68,28],[118,-304],[63,16],[-13,51],[105,27],[-60,90],[-16,72],[201,112],[-24,21],[63,78],[-5,7],[36,19],[-9,19],[16,14],[17,-3],[10,-19],[-15,-24],[-33,-5],[-1,-14],[23,-14],[17,-1],[12,12],[19,-16],[17,5],[6,-10],[25,2],[17,-27],[29,-10],[43,-11],[46,-20],[30,-1],[12,-5],[25,15],[22,-65],[9,-42]],[[11294,10989],[-14,32],[-35,67]],[[11245,11088],[-36,70],[-82,153]],[[9983,15631],[55,8],[16,-64],[31,-1]],[[10085,15574],[7,-60],[12,-68],[75,-86],[25,-67],[53,19],[-26,75],[-16,63],[17,50],[18,-28],[49,-53],[80,-54],[24,-40],[4,-36],[-20,-22],[-37,-2],[-14,-6],[-7,-20]],[[9998,15490],[0,17],[-15,124]],[[8798,13612],[34,-17]],[[8662,13017],[-27,-94],[-23,-82],[-51,-172]],[[9923,9565],[215,94]],[[10239,9345],[-149,-123],[-90,-70],[-43,-35]],[[13543,4611],[194,-2],[170,-1],[161,-2]],[[10224,13685],[181,97]],[[10551,13861],[10,3],[122,65]],[[10673,13768],[-14,-224],[-4,-45],[-17,-95],[-18,-95],[-9,-90],[1,-92]],[[10612,13127],[-17,14],[-33,43],[-58,108]],[[10363,13559],[-40,77],[-99,49]],[[15552,1104],[-408,-472],[-546,-632],[-391,367],[-556,523],[-152,142]],[[8443,12275],[11,39]],[[8454,12314],[17,2],[23,19],[33,1],[8,-24],[29,-24],[12,-26],[27,-12],[28,6],[53,22],[52,2]],[[9111,11784],[15,12],[25,6],[6,-19],[-3,-20],[38,-6],[28,-40],[2,-16],[41,-39],[9,-23],[15,-14],[29,-4],[22,-9],[22,-26],[0,-53],[18,-11],[8,-20],[34,-12],[16,0],[26,-9],[38,10],[38,-16],[14,-12],[46,3],[0,-66],[6,-21],[42,-10],[23,-16],[29,-36],[40,-87]],[[9738,11230],[-57,-30]],[[9681,11200],[-56,-29],[-158,-42],[-41,-34],[-138,-114],[-26,-29],[-52,-76],[-28,-15],[-97,-26],[-195,15],[-35,-1]],[[8719,10998],[-61,104]],[[8658,11102],[-16,94],[-8,25],[-67,150],[-6,45],[1,70],[3,149],[-3,29],[-41,279],[-17,51],[-30,67],[-17,99],[-14,94],[0,21]],[[9547,9929],[88,87],[121,122]],[[9756,10138],[43,-226],[43,-225],[12,-61]],[[10007,13788],[142,-67],[75,-36]],[[10064,11278],[60,25],[35,-4],[47,-46],[39,-2],[63,129],[62,148],[30,66]],[[10400,11594],[185,104],[185,104]],[[11245,11088],[-363,10],[-48,0],[-12,-3],[-79,-40],[-63,-30],[-54,-21],[-29,-7],[-22,5],[-205,75],[-221,101],[-32,16],[-17,14],[-13,23],[-7,37],[-16,10]],[[9926,10310],[76,-236],[8,-24]],[[9756,10138],[170,172]],[[9768,15596],[44,24],[52,16],[27,26],[20,-2],[31,-20],[36,53],[5,-62]],[[9660,15252],[-215,137],[59,39],[61,45],[144,85],[59,38]],[[10612,13127],[9,-74],[35,-202],[3,-27],[-4,-55],[-11,-43],[-18,-41],[-26,-39],[-166,-211],[-47,-67],[-40,-75]],[[10347,12293],[-94,120],[-27,-26],[-6,-37],[0,-59],[-3,-25],[-14,-14],[-10,-22],[-18,-13],[-33,-12],[-46,6],[-94,17],[-125,-18],[-26,-1],[-95,-15],[-13,-4],[-33,-25]],[[8526,14216],[248,-69],[62,-19],[-4,-12],[72,-35],[14,27],[76,-44]],[[9335,16237],[22,4],[74,39],[41,31],[69,87],[239,-163],[79,-35],[18,-20],[43,-64],[2,-32],[-8,-24],[-22,-22],[-112,-52],[-10,-12],[22,-40],[33,-30],[51,-30],[109,-78],[25,-4],[18,3],[55,-10],[37,-23],[25,-36],[-5,-20],[-19,-2],[-55,22],[-14,2],[-31,-39],[51,-77],[13,-38]],[[9768,15596],[11,8],[66,40],[-31,30],[14,16],[-112,109],[-17,14],[16,18],[-21,21],[15,16],[-70,67],[-18,14],[-280,266],[-6,22]],[[7919,16061],[42,17],[26,7],[55,6],[174,-7],[35,2],[105,9],[95,12],[82,13],[87,20],[93,24],[66,14],[72,13],[77,8],[173,16],[205,16],[29,6]],[[8298,7527],[83,31],[44,2],[33,-5],[53,-27],[33,6],[38,-31],[20,-6]],[[9688,7831],[263,27]],[[9951,7858],[376,42],[42,-1]],[[10369,7899],[9,1],[36,-119],[127,-414],[16,-60],[18,-53]],[[10575,7254],[52,-164],[15,-52],[80,-260],[31,-289]],[[8295,7474],[3,53]],[[2233,10858],[75,75],[123,125],[93,92],[88,85],[46,47]],[[2658,11282],[199,205],[52,58],[39,51],[32,-112],[14,-39],[29,-64],[52,-83],[43,-54],[26,-27],[43,-40],[43,-34]],[[3230,11143],[-92,-113],[-46,-48],[-52,-49],[-111,-125]],[[2929,10808],[-126,-140],[-18,-19]],[[2785,10649],[-28,-66],[-52,-131],[-46,-110],[-8,-16],[-79,-104]],[[2572,10222],[-9,15],[-73,183],[-11,65],[-49,127],[-14,27],[-20,30],[-163,189]],[[8542,12605],[-88,-291]],[[8454,12314],[-56,19],[-19,9],[-24,27],[-23,5],[-33,-1],[-15,21],[0,17],[-13,15],[-60,16],[-12,0],[-14,-19],[-16,-2],[-9,35],[-16,3],[-26,-15],[-26,-28],[-54,9],[-30,-8],[-13,5],[-1,16],[16,25],[-4,14],[-38,16],[-15,-25],[0,-25],[14,-21],[2,-18],[-13,-11],[-23,6],[-8,13],[3,23],[-5,29]],[[7923,12464],[13,28],[1,19],[-43,25],[-26,5],[-25,46],[-30,18],[-16,-1],[-25,-15],[-20,6]],[[7752,12595],[-40,11],[-24,-3],[-5,25],[13,4],[33,-8],[14,21],[-25,27],[-32,14],[-25,6],[-43,-4],[-20,13],[-21,28],[-25,8],[-20,-40],[-12,-2],[-15,46],[-10,20],[-20,17],[-16,32],[42,15],[6,8],[-3,46],[20,41],[1,14],[-10,15],[-42,7],[-24,7],[-10,9]],[[10144,8832],[114,107],[72,67],[17,7]],[[10516,8508],[27,-85]],[[10543,8423],[-82,1]],[[7137,10485],[1,-9],[91,-201],[46,-99],[-31,-35],[-5,-31],[4,-97],[8,-159],[-2,-24],[9,-80],[5,-131]],[[7263,9619],[-165,15],[-264,23]],[[6834,9657],[-23,6],[-28,20],[-25,0],[-29,-5]],[[6729,9678],[-6,141],[-9,155],[6,42]],[[4700,9163],[5,7],[257,292],[8,7],[75,50],[151,103]],[[5196,9622],[84,56],[14,-44],[1,-58],[24,-26],[113,-78],[-15,-10],[102,-75],[586,-443],[141,-107],[337,-254],[2,0]],[[6585,8583],[-15,-77],[-48,-226],[-14,-60]],[[6508,8220],[-15,5],[-141,-15],[-214,-25],[-181,-47],[-77,-22],[-229,-61],[-144,-34],[-15,-33],[-203,231],[-52,61],[-37,40],[-127,144],[-23,39],[-27,51],[-323,609]],[[6633,13684],[76,54],[70,44],[57,34]],[[6836,13816],[24,-54],[17,-27],[30,-35],[63,-41],[62,-32],[195,-93],[91,-41]],[[7318,13493],[121,-57],[137,-68],[179,-85],[12,-5]],[[7426,13074],[-23,57],[-14,30],[-64,52],[-70,-11],[-11,6],[-9,-30],[19,-26],[-6,-23],[-36,-22],[-18,-22],[-28,-15],[-24,11],[-27,23],[-24,28],[-15,8],[-22,-10],[-27,2],[-73,-30],[-52,46],[-52,55],[29,45],[10,27],[-12,25],[-32,52],[-15,57],[-95,72],[-21,49],[-37,16],[-11,29],[6,35],[-9,26],[-20,31]],[[9870,11149],[32,3],[24,16],[12,19],[26,21],[16,1],[32,29],[13,4],[39,36]],[[10250,10543],[6,34],[21,45],[-20,9],[-8,25],[13,8],[4,30],[13,11],[15,2],[1,21],[12,38],[0,11],[46,49],[15,1],[1,17],[-25,24],[-27,10],[-37,0],[-16,23],[6,9],[-10,17],[7,20],[-21,37],[-10,7],[-24,2],[-21,-11],[-17,-2],[-15,7],[-16,31],[-28,24],[-16,0],[-38,-17],[-8,9],[-27,0],[-6,13],[-18,3],[-16,-21],[-14,12],[3,24],[-19,12],[-28,1],[3,38],[-76,-1],[-5,18],[20,16]],[[5722,9839],[19,4],[20,20],[77,3],[44,-5],[19,4],[51,-46],[23,-41],[25,-16],[35,3],[42,24],[28,-8],[41,-25],[7,24],[30,32],[23,32],[23,21],[58,16],[16,14],[28,8],[34,1],[41,27],[26,34],[25,19],[49,20],[15,9],[33,8],[21,15],[23,25],[18,29]],[[6729,9678],[17,-263]],[[6746,9415],[-124,-9],[-63,-57],[-84,101],[-11,32],[13,60],[-99,25],[-29,5],[-201,47],[-82,21],[-123,29],[-208,51],[-31,5],[-4,23],[15,23],[9,49],[-2,19]],[[6988,6527],[24,160],[61,394],[51,331],[173,1120]],[[7297,8532],[205,-14]],[[7502,8518],[-4,-44],[17,-7],[8,-36],[-8,-11],[17,-31],[18,-12],[2,-16],[20,-11],[4,-11],[-3,-31],[16,-7],[30,-23],[5,-15],[15,-4],[17,-23],[3,-13],[18,-23],[-3,-24],[18,-27],[-4,-9],[13,-18],[5,-39],[17,-15],[5,-14],[20,0],[21,-24],[0,-16],[34,-94],[38,-53],[19,-52],[4,-26],[9,-27],[21,-43],[-13,-33],[6,-30],[21,-22],[67,-40],[17,-43],[16,-24],[30,-12],[31,-32],[17,-4],[26,2],[34,10],[46,7],[13,-2],[25,-17],[20,8],[35,37],[13,3]],[[7967,6276],[-216,201],[-9,14],[-22,14],[-33,1],[-24,9],[-27,23],[-10,27],[-1,17],[-15,17],[-41,54],[-27,32],[-18,0],[-19,-25],[-19,-3],[-39,-20],[-18,-18],[-18,-3],[-40,13],[-57,-20],[-29,1],[-41,-35],[-54,-21],[-81,21],[-36,-36],[-30,-12],[-55,0]],[[12222,9420],[-43,37]],[[12033,9159],[-48,-73],[-31,-23],[-49,-17]],[[11751,9313],[17,13],[-28,56],[24,10],[9,37],[17,16],[25,7],[-9,46],[19,14],[34,54],[65,92]],[[11098,8470],[4,22],[9,6],[0,34],[-21,21],[-11,23],[-15,19],[2,73],[11,36],[3,56],[13,23]],[[11268,8165],[-523,26],[-127,7]],[[10618,8198],[-8,27],[-67,198]],[[13596,9278],[2,3],[379,-216],[43,-14],[67,-32],[49,-7],[13,-25],[15,-7],[18,-47],[-4,-25],[7,-13],[22,-12],[21,-4],[29,-22],[14,2],[27,-19],[-3,-81],[12,-27],[-9,-16],[6,-59],[-1,-28],[19,-36]],[[14047,8067],[-95,-28],[-7,-6],[-80,-81],[-12,13]],[[13853,7965],[-116,119],[-148,157],[-72,75],[-59,63]],[[13359,8991],[237,287]],[[6585,8583],[712,-51]],[[6988,6527],[-22,-12],[-24,-22],[-6,-13],[-18,-4],[-21,-19],[-37,-1],[-23,17],[-19,4],[-23,-5],[-12,22],[-35,18],[-23,2],[-45,-10],[-7,-20],[-24,-8],[-19,4],[-45,-18],[-16,8],[-48,8],[-40,-12],[-21,-16],[-26,-10],[-55,12],[-32,40],[-15,6],[-33,0],[-55,20],[-40,-4],[-36,10],[-44,29]],[[6124,6553],[58,249],[83,360],[14,58],[31,136],[8,28],[45,202],[15,57],[67,292],[63,285]],[[3605,7750],[84,202],[365,414],[15,-9],[110,122],[23,28],[21,-40],[40,21]],[[4263,8488],[129,68],[49,222],[46,226],[168,90],[45,69]],[[6124,6553],[-24,-2],[-56,7],[-36,15],[-35,1],[-11,15],[-7,32],[-23,18],[-19,45],[-14,18],[-4,18],[-28,36],[-4,28],[17,20],[-27,55],[20,63],[11,12],[4,26],[-21,12],[-11,25],[-15,-2],[-7,16],[14,17],[-12,14],[8,24],[0,31],[6,10],[-28,33],[-31,20],[2,30],[-11,24],[-29,6],[-16,-11],[-23,-7],[-40,12],[-28,17],[-37,11],[-23,18],[-7,30],[-14,11],[-69,31],[-22,4],[-61,3],[-42,15],[-35,-1],[-21,-11],[-32,14],[-55,-2],[-16,-4],[-24,-22],[-17,6],[-24,0],[-15,-31],[-26,-14],[-41,-10],[-25,12],[-6,-16],[-27,20],[-45,11],[-14,-13],[-29,7],[-45,-19],[-13,2],[-11,-16],[-17,-8],[-48,-4],[-24,1],[-23,-13],[-32,-5],[-10,15],[-16,-5],[-4,16],[-29,58],[-48,20],[-31,16],[-28,20],[-13,28],[-1,16],[-14,16],[-35,16],[-16,15],[-56,58],[-50,-18],[-16,4],[-37,44],[-14,7],[-27,-3],[-14,12],[-23,1],[-13,29],[-16,14],[-21,9],[-22,-13],[-15,-17],[-24,0],[-20,7],[-12,19],[-22,20],[-12,23],[-14,11],[-28,3],[-46,-9],[-12,5],[-25,-21],[-19,0],[-13,-18],[-1,-15],[-29,-21],[-26,7],[-13,17],[-17,-6],[-25,1],[-19,11],[18,49],[1,13],[14,12],[-15,10],[-20,-2],[-7,17],[11,17],[-15,11],[-17,-13],[-34,14],[-42,-15],[-49,7]],[[11065,7224],[239,-14]],[[12723,6812],[349,-317]],[[12505,6192],[-34,3],[-167,27],[-217,61],[-192,59]],[[11895,6342],[12,13],[-7,67],[-13,43],[0,55],[-4,24],[7,35],[-3,30],[-23,9],[-10,16],[-17,48],[-11,16],[-1,25],[-10,18],[-69,-11],[-36,1],[-20,-6],[-85,-7],[-44,0],[-67,-15],[-95,-13],[38,-108],[-302,-63],[-82,-19],[-135,673],[77,25],[70,26]],[[8443,12275],[-8,-16],[-39,-60]],[[8396,12199],[-90,-18],[-147,-27],[-67,-13],[-146,-26],[-107,-21]],[[7839,12094],[-101,121]],[[7738,12215],[185,249]],[[6708,14845],[21,12],[87,69],[18,16],[9,17],[22,6],[36,24],[10,37],[23,23],[46,-1],[18,-19],[58,-80],[4,-21],[22,-21],[30,23],[196,-518],[13,-18],[49,-115],[-48,-22],[-555,-236],[7,-18],[44,-136],[18,-51]],[[7853,13877],[52,15],[-18,66],[35,11],[-30,85],[78,44]],[[8044,13442],[-177,253],[51,30],[-40,64],[-25,88]],[[5555,13086],[48,43],[43,44],[76,70],[72,62],[61,56],[265,18],[225,15]],[[7426,13074],[-83,-21],[-43,-17],[-177,-74],[-22,-20],[-69,-78],[-101,-127],[-68,-86],[-55,-63],[-65,-65]],[[6743,12523],[-111,137],[-53,68],[-9,16],[-33,130],[-65,-6],[-11,-6],[-206,-176],[-118,-101],[-91,-85],[-26,46],[-36,-23],[-30,-35],[68,-53],[14,-14],[50,-67],[-46,-44]],[[6040,12310],[-130,105],[-86,66],[-497,401]],[[7752,12595],[-116,-88],[-323,-243],[-380,-287]],[[6933,11977],[20,101],[-1,46],[-5,43],[-46,156],[-24,32],[-134,168]],[[11030,12915],[156,-56],[192,-69],[85,-27],[70,-9],[54,-13],[48,-28]],[[11352,12300],[-46,42],[-61,86],[-58,81],[-94,132],[-97,136],[34,138]],[[6040,12310],[224,-179],[28,-24]],[[6292,12107],[-111,-91],[-154,-119],[-123,-91],[-93,-75],[-55,-41],[-42,-37],[-121,-88],[-116,-92],[-31,-26],[-157,-121],[-25,-19],[-159,-124],[-37,-26]],[[5068,11157],[-9,22],[10,64],[9,46],[15,17],[0,87],[-13,22],[1,12],[-15,12],[-33,6],[-14,11],[-13,39],[-9,12],[-17,-5],[-19,12],[-33,2],[-49,27],[-16,16],[-11,29],[-34,16],[-8,20],[3,26],[-6,21],[1,38],[10,24],[23,24],[-1,26],[-10,9],[0,28],[-9,37],[2,11],[-21,14],[-40,14],[-19,16],[-46,-1],[-15,24],[-19,17],[-11,29],[13,30],[-3,23],[34,24],[16,-3],[2,14],[-6,48],[20,30],[-1,18],[-13,35],[-17,18]],[[10612,13127],[33,-23],[132,-82],[26,-18],[32,-18],[42,-17],[153,-54]],[[10770,11802],[-263,295],[-75,86],[-83,108]],[[10349,12291],[-2,2]],[[7738,12215],[-218,-292],[-238,-316],[-159,-208]],[[6959,11185],[-239,256],[-96,102],[-74,80],[-25,48]],[[6525,11671],[169,126],[239,180]],[[1992,12279],[78,-543],[1,-31],[-10,-42],[-3,-32],[3,-22],[25,-89],[10,-26],[-27,-10],[-28,-23],[-17,-25],[-23,-22],[-172,-88],[-69,-34]],[[1760,11292],[-196,203],[-275,239],[394,327],[197,160],[42,26],[70,32]],[[10400,11594],[-251,-141],[-24,50],[-49,-48],[-66,-10],[12,57],[-20,17],[-92,48],[-54,20],[91,360],[13,61],[32,-23],[9,-18],[42,-34],[6,-25],[28,-18],[65,11],[25,10],[33,18],[31,7],[13,20],[32,24],[2,61],[7,54],[11,54],[19,64],[31,79],[3,-1]],[[3241,11152],[236,191],[112,91],[-4,28],[29,-7],[120,104],[11,6],[382,176],[19,8],[42,-10],[280,241],[195,171],[34,67]],[[5068,11157],[6,-26],[36,-10],[22,-1],[41,-32],[55,-62],[19,-10],[25,-25],[27,-42],[22,-18],[47,-28],[29,-31]],[[5370,10589],[-147,16],[-211,31],[-176,25],[-110,14],[-86,13],[-284,77],[-152,43],[-132,39],[-237,67],[-177,52],[-146,40],[-85,33],[-89,43],[-53,28],[-50,31],[6,11]],[[7839,12094],[47,-56],[60,-76],[170,-205]],[[8116,11757],[-43,-68]],[[8073,11689],[-37,-56],[-62,-75],[-36,-46],[-108,-135],[-29,-33],[-52,-52],[-27,-33],[-30,-31],[-39,-52],[-111,-147]],[[6292,12107],[71,-87],[108,-166],[19,-46],[25,-113],[10,-24]],[[6525,11671],[-229,-174],[-345,-260],[-210,-163],[-203,-166],[-64,-50]],[[9738,11230],[25,-45],[57,-24],[20,1],[30,-13]],[[9926,10310],[-33,103],[-33,96],[-44,138],[-24,74],[-30,120],[-29,135],[-25,106],[-11,43],[-16,75]],[[9756,10138],[-23,130],[-16,63],[-12,59],[-79,7],[-70,20],[-101,37],[-280,106],[-94,86],[-226,203]],[[2929,10808],[16,-2],[37,-13],[62,-9],[38,27],[21,-3],[11,-47],[21,-22],[56,-15],[142,-52],[107,-26],[80,-6],[23,-7],[29,-15],[52,-39],[71,0]],[[3593,9750],[-42,3],[-61,22],[-79,39]],[[3411,9814],[-138,66],[-215,109]],[[3058,9989],[22,55],[37,61],[-2,19],[27,84],[31,89],[25,18],[6,11],[-134,104],[-84,63],[-124,97],[-77,59]],[[2572,10222],[-13,-14],[-64,-51],[-29,-11],[-25,-2],[-217,1],[-67,2],[-239,3],[-81,0]],[[1837,10150],[-107,199],[75,73],[58,60],[143,146],[136,136],[91,94]],[[3230,11143],[11,9]],[[5370,10589],[-41,-513],[-36,-30],[-56,-4],[0,-18]],[[5237,10024],[2,-37],[-203,-244],[121,-92],[39,-29]],[[4263,8488],[-105,163],[-85,129],[-59,93],[-113,170],[-52,79],[-35,48],[-55,89],[-65,76],[-40,36],[-14,205]],[[9524,8797],[-439,343]],[[9085,9140],[-134,105],[-254,206]],[[5722,9839],[-29,10],[4,19],[-14,16],[-16,0],[-63,26],[-7,5],[-33,0],[-26,12],[-22,-1],[-7,10],[-44,3],[-11,26],[-12,12],[-51,21],[-24,23],[-11,27],[-11,11],[-18,-5],[-19,-23],[-58,-15],[-13,8]],[[13399,9611],[-2,-18],[-46,-78],[-35,-34],[280,-203]],[[13135,8721],[-3,2]],[[1672,10153],[165,-3]],[[2572,10222],[22,-18],[147,-100],[53,-33],[38,-10],[79,-16],[82,-19],[65,-37]],[[3411,9814],[-144,-121],[-68,-58],[-37,-30],[-161,-139],[-167,-137],[-58,-44],[-122,-104],[-71,-57],[-154,-127],[-117,-97],[-73,-51]],[[2239,8849],[-21,26],[-12,-5],[-21,-34],[-18,7],[-5,13],[-21,22],[-11,1],[-14,-15],[-19,-3],[-19,16],[1,33],[-10,6],[-35,-8],[-4,11],[5,36],[-4,26],[7,13],[17,8],[8,22],[-30,26],[8,45],[-14,21],[-47,-18],[-14,5],[4,55],[-18,6],[-24,-9],[-33,27],[-7,37],[-10,11],[-12,-5],[-10,-25],[-10,-8],[-26,14],[-38,28],[-12,16],[-1,14],[10,33],[-13,6],[-30,-11],[-11,12],[-4,54],[13,33],[30,-13],[24,7],[-4,12],[-33,24],[1,33],[-32,1],[-39,20],[-5,18],[10,32],[9,5],[39,-6],[24,14],[16,29],[4,21],[-9,19],[-1,24],[23,15],[17,45],[-9,25],[1,24],[-15,30],[-50,21],[-23,17],[-11,45],[11,2],[19,30],[37,-10],[18,6],[-10,26],[-41,0],[-44,4],[-4,28],[35,31],[0,25],[-30,34],[0,42],[28,41],[-43,5],[-6,12],[1,24]],[[6585,8583],[20,82],[122,569],[20,101],[-1,80]],[[6834,9657],[-7,-3],[-3,-25],[-11,-27],[-3,-21],[5,-18],[15,-16],[17,0],[26,16],[56,1],[17,12],[20,-15],[36,-16],[8,-26],[54,-15],[39,10],[24,0],[15,-18],[11,-31],[5,-69],[9,-12],[25,-16],[11,-29],[17,-21],[27,-22],[15,-31],[3,-43],[32,-26],[47,-23],[23,-1],[36,-19],[-4,-31],[-11,-31],[17,-15],[29,-4],[10,-15],[3,-28],[45,-68],[32,-21],[8,-17],[1,-49],[33,-25],[2,-18],[-5,-37],[5,-41],[-20,-34],[-16,-15],[14,-25],[7,-21],[-6,-38],[-20,-25],[-11,-20],[-13,-46],[-1,-11]],[[8033,9977],[-37,-219]],[[7996,9758],[-98,-74],[-74,-58],[-72,-54],[-106,-84],[128,-46],[-123,-65],[-163,-85],[-140,278],[-22,34],[-32,11],[-31,4]],[[3605,7750],[-17,-8],[-37,10],[-22,-1],[-17,-19],[-23,-5],[-6,-18],[4,-24],[-33,-6],[-10,-7],[-43,25],[-20,-2],[-15,18],[-11,55],[6,51],[0,41],[8,24],[18,3],[18,15],[1,19],[-22,16],[-8,26],[-9,10],[-22,5],[-2,9],[-30,3],[-62,-11],[-12,1],[-10,14],[-4,26],[3,34],[-17,20],[-16,6],[-38,26],[-17,1],[-32,20],[-23,26],[-6,44],[1,23],[-11,39],[-13,24],[3,24],[-25,18],[-38,12],[-25,1],[-22,25],[-29,2],[-10,-13],[-33,-26],[-42,30],[-1,15],[-22,20],[-21,-2],[-6,11],[-30,6],[-29,13],[-41,29],[1,24],[-21,29],[-2,39],[-23,32],[-21,37],[-27,21],[-22,7],[-55,6],[-29,17],[-18,2],[-49,-11],[-14,1],[-15,12],[-10,22],[-17,20],[-25,-3],[-11,-20],[-19,-6],[-4,15],[9,33],[-10,10],[-16,-2],[-10,-27],[-12,-1],[-14,48],[2,24],[10,31],[-24,41]],[[13853,7965],[-62,-63],[-3,-21],[53,-117],[44,-107],[-40,-40]],[[13845,7617],[-77,14],[-241,47]],[[13527,7678],[-6,36],[-24,64],[-64,157],[-66,171],[-18,45],[-68,174],[-52,127],[-57,146],[-31,83],[-9,42]],[[10753,6489],[165,-112],[159,4]],[[11077,6381],[44,-220],[8,-42],[88,-437]],[[12771,7832],[273,-57],[106,-20],[318,-64],[59,-13]],[[13527,7678],[-2,-118],[-7,-203],[-3,-273],[-4,-258],[-6,-118],[-9,-294],[-2,-93],[-5,-178],[6,-43]],[[8116,11757],[140,-166],[75,-91],[72,-89],[67,-81],[59,-73],[129,-155]],[[8193,11081],[77,157],[6,25],[-5,31],[-70,140],[-53,102],[-75,153]],[[6012,14040],[-43,-15],[-60,17],[-11,-41],[-91,-32]],[[5807,13969],[-343,-122],[-24,18],[-26,-13],[-14,1],[-12,17],[-28,-4],[-60,20],[-71,30],[-60,10],[-23,19],[-21,10],[3,19],[-12,24],[-21,20],[-17,-4],[-12,-40],[-16,17],[-2,20],[-26,8],[-22,16],[-10,21],[-23,22],[-40,16],[-23,-2],[-20,24],[-7,35],[-22,11],[-27,-5],[-22,31],[-11,24],[10,53],[25,7],[61,25],[59,0],[32,3],[32,-9],[48,-31],[24,-4],[21,6],[32,20],[13,0],[15,16],[28,3],[13,11],[30,8],[59,72],[-3,30],[-16,65],[-4,32],[25,9],[124,27],[9,6],[67,17],[79,28],[39,10],[82,1],[27,3],[37,16]],[[6205,13860],[-229,-80],[-3,16],[22,143],[13,74]],[[10113,8353],[2,-70],[-14,-55],[-40,-97],[-110,-273]],[[8116,11757],[193,303],[87,139]],[[10575,7254],[136,-11],[196,-18],[158,-1]],[[11895,6342],[-90,28],[-45,6],[-409,5],[-274,0]],[[14451,6788],[33,-280]],[[5689,13685],[41,96],[45,112],[32,76]],[[5919,13600],[-157,78],[-32,15],[-41,-8]],[[10902,14881],[58,-23],[21,-12],[37,-29],[27,-51],[22,-82],[11,-22],[16,-14],[58,-20],[10,-10],[16,-37],[-4,-28],[-12,-11],[-1,-18],[8,-24],[22,-26],[17,7],[28,19],[27,-4],[24,2],[25,-4],[24,-43],[20,-25],[19,-42],[-1,-20],[-24,-27],[5,-23]],[[10683,13929],[7,50],[11,36],[21,43],[18,27],[93,113],[16,24],[18,37],[12,43],[49,273],[11,73],[3,36],[-6,69],[-34,128]],[[7318,13493],[62,129],[-12,16],[33,59],[25,52],[35,-3],[41,2],[18,6],[26,-3],[39,4],[64,18],[14,-5],[89,16],[3,33]],[[7755,13817],[63,42],[35,18]],[[1241,10747],[21,0],[67,14],[11,-9],[26,-1],[29,16],[5,7],[23,4],[27,14],[24,0],[16,6],[-81,185],[-47,105],[318,164],[80,40]],[[1760,11292],[18,-12],[137,-95],[148,-133],[25,-25],[145,-169]],[[1672,10153],[-4,28],[-9,23],[-33,39],[-28,15],[-27,-11],[8,-34],[-4,-19],[-25,-31],[-23,-13],[-19,0],[-16,14],[-12,41],[-10,6],[-49,-10],[-35,57],[-11,55],[3,9],[23,13],[8,22],[-5,14],[-21,13],[-28,-22],[-15,-1],[-11,16],[25,35],[2,18],[-9,10],[-25,-1],[-41,-23],[-17,-28],[-3,-19],[2,-31],[-15,-9],[-24,6],[-18,12],[-10,16],[-1,35],[-18,22],[-28,28],[-17,23],[-15,44],[4,37],[17,23],[18,10],[33,0],[46,-16],[11,-1],[35,38],[26,11],[-31,25],[-56,17],[-14,9],[-12,17],[4,19],[18,27],[25,16]],[[2738,14484],[39,-61],[-18,-10],[156,-262],[23,-42],[128,-215],[12,-17],[32,25],[14,-30],[-8,-27],[3,-20],[17,-12],[29,-6],[31,15],[6,15],[17,22],[21,-11],[8,-27],[-20,-25],[24,-30],[-16,-73],[10,-27],[27,-14],[35,-24],[15,2],[14,16],[4,74],[7,9],[20,0],[45,-61],[17,-17],[13,-5],[39,4],[11,-3],[8,-19],[-9,-54],[8,-18],[28,-9],[29,-20],[16,19],[6,21],[17,30],[28,-16],[20,-42],[5,-32],[11,-24],[18,-10],[31,-3],[20,5],[42,32],[14,-17],[-20,-41],[15,-19],[44,-18],[33,-22],[24,-7],[6,-18],[50,-50],[2,-22],[16,-27]],[[2658,11282],[-53,37],[-25,53],[-13,-13],[2,-18],[-22,-9],[-42,6],[-30,11],[-22,28],[-5,70],[-5,18],[-21,29],[7,23],[41,25],[14,16],[5,41],[24,33],[39,27],[28,31],[20,36],[1,25],[-9,47],[-34,25],[-20,-4],[-36,-16],[-9,4],[-38,41],[-41,26],[-12,14],[-5,32],[39,89],[3,18],[-10,24],[-35,22],[10,23],[39,26],[26,23],[21,31],[11,37],[-6,23],[-38,27],[-42,11],[-29,-6],[-12,-54],[-11,-15],[-18,-8],[-30,27],[-3,41],[9,17],[25,27],[69,64],[43,42],[10,53],[-6,33],[-8,14],[-19,17],[-9,26],[0,32],[-37,-24],[-340,-213],[-33,-19],[-29,-12],[5,-37]],[[1241,10747],[45,12],[10,12],[-9,26],[-20,3],[-32,-10],[-28,0],[-23,5],[-64,27],[-36,13],[-15,-5],[-13,-21],[11,-61],[-28,-68],[-11,-17],[-30,20],[-25,22],[-1,27],[12,33],[5,45],[-14,26],[-42,4],[-57,-12],[-25,1],[-37,22],[-32,37],[-22,39],[1,33],[7,33],[23,61],[0,52],[3,66],[16,20],[38,23],[16,-14],[17,-49],[21,-31],[28,-10],[18,7],[70,44],[25,18],[17,23],[34,86],[19,40],[8,40],[-1,14],[-12,16],[-15,6],[-25,-9],[-31,-40],[-13,-13],[-26,-14],[-22,-2],[-33,17],[-6,49],[-13,46],[-2,30],[6,21],[25,47],[2,30],[-16,42],[-36,51],[-9,28],[-7,54],[-8,20],[-37,25],[-18,-7],[-25,-55],[-38,-22],[-29,-3],[-26,3],[-17,21],[1,15],[45,45],[10,18],[7,36],[-3,10],[-30,36],[-3,17],[-7,71],[-20,20],[-35,2],[-29,-25],[-22,-35],[-25,-29],[-25,-19],[-41,-12],[-52,7],[-39,13],[-37,7],[-46,-16],[-66,-28],[-43,-13],[-86,-20],[-107,-8],[-36,6],[25,24],[44,22],[41,27],[51,26],[33,7],[49,47],[60,85],[17,21],[32,11],[51,32],[40,34],[52,18],[33,21],[32,27],[24,25],[33,10],[69,10],[17,4],[42,27],[14,1],[13,13],[17,4],[26,20],[-37,36],[-318,243],[2,4],[159,98],[37,18],[175,126],[17,17],[158,113],[99,82],[402,350],[23,14],[250,220],[104,86],[18,19],[109,107],[443,417],[28,-1],[82,64],[84,71],[49,37],[39,25]],[[6836,13816],[135,72],[56,27],[175,92],[46,26],[220,116],[110,58],[109,62],[108,68]],[[7799,14330],[-70,-52],[-16,-18],[-10,-34],[3,-22],[55,-150],[6,-29],[-2,-71],[-10,-137]],[[10839,14928],[41,-34],[22,-13]],[[6554,15092],[39,16],[239,131],[326,240],[-17,20],[132,124],[43,35],[51,39],[149,109]],[[5689,13685],[-91,3],[-241,1]],[[2738,14484],[51,31],[61,34],[394,139],[237,35],[155,5],[66,4],[144,4],[43,4],[38,-1],[38,-8],[67,-8],[66,-5],[9,-4],[134,-16],[39,1],[86,-14],[97,-7],[103,2],[20,4],[19,-3],[71,0],[72,5],[165,3],[20,5],[28,-4],[125,-3],[28,5],[46,-1],[495,121],[13,4]],[[11344,13684],[-34,-29],[-13,-21],[-7,-33],[13,-55],[-57,-22],[-20,-29],[-6,-23],[-10,-8],[-10,-32],[10,-14],[21,-11],[18,-17],[12,-24],[-27,-20],[7,-28],[25,-54],[1,-40],[-15,-13],[-24,1],[-22,-10],[-12,-35],[9,-17],[35,-16],[34,-9],[35,11],[9,-7],[-8,-42],[15,-22],[17,-41],[25,-21],[21,-2],[6,-24],[-8,-18],[15,-23],[25,-3],[14,-32],[23,-12],[4,-12],[-34,-52],[37,-37],[12,8],[22,-5],[23,-12],[17,4],[18,25],[10,4],[9,-27],[-5,-22],[6,-9],[28,1],[13,-4]],[[7996,9758],[-36,-251],[121,-165],[6,-13],[46,-17],[-28,-31],[-46,-29],[-32,-33],[-32,-27],[-5,-16],[30,-46],[6,-28],[-35,-46],[4,-23],[51,-81]],[[8046,8952],[-29,-20],[-77,-60],[-55,-31],[-43,-18],[-23,0],[-27,-9],[-14,-10],[-56,-31],[74,-177],[-132,-52],[-75,-14],[-87,-12]],[[8697,9451],[-24,-145],[-29,-182],[-223,-147],[-87,-56],[-108,-73],[-58,-38],[-75,76],[-47,66]],[[9144,8261],[-48,174],[-48,145],[-21,85],[-8,50],[-4,78],[2,37],[8,76],[8,36],[24,92],[21,71],[7,35]],[[10369,7899],[37,227],[25,131],[187,-59]]],"transform":{"scale":[0.00003040058398986268,0.000022742712525917686],"translate":[-75.429061,39.514967]},"objects":{"Geometry\\34-015":{"type":"GeometryCollection","geometries":[{"arcs":[[0,1,2,3,4,5]],"type":"Polygon","properties":{"GEOID":"340155012051"}},{"arcs":[[6,7,8,9]],"type":"Polygon","properties":{"GEOID":"340155016051"}},{"arcs":[[10,11,12]],"type":"Polygon","properties":{"GEOID":"340155016043"}},{"arcs":[[13,14,15]],"type":"Polygon","properties":{"GEOID":"340155016082"}},{"arcs":[[16,17,18,19]],"type":"Polygon","properties":{"GEOID":"340155002032"}},{"arcs":[[20,21,22,23,24]],"type":"Polygon","properties":{"GEOID":"340155012103"}},{"arcs":[[25,26,-6,27,28]],"type":"Polygon","properties":{"GEOID":"340155012132"}},{"arcs":[[29,30,31,32,33]],"type":"Polygon","properties":{"GEOID":"340155014051"}},{"arcs":[[-32,34,35,36]],"type":"Polygon","properties":{"GEOID":"340155014052"}},{"arcs":[[37,-28,38,39,40,41,42]],"type":"Polygon","properties":{"GEOID":"340155016091"}},{"arcs":[[43,44,45,-40]],"type":"Polygon","properties":{"GEOID":"340155016092"}},{"arcs":[[46,47,48,49,50,51,52,53]],"type":"Polygon","properties":{"GEOID":"340155020012"}},{"arcs":[[54,55,56,57]],"type":"Polygon","properties":{"GEOID":"340155002024"}},{"arcs":[[58,59,60,61,62,-56]],"type":"Polygon","properties":{"GEOID":"340155002021"}},{"arcs":[[-57,-63,63,64,65]],"type":"Polygon","properties":{"GEOID":"340155002022"}},{"arcs":[[66,-58,-66,67,68,69]],"type":"Polygon","properties":{"GEOID":"340155002023"}},{"arcs":[[70,71,72]],"type":"Polygon","properties":{"GEOID":"340155003001"}},{"arcs":[[-72,73,74,75]],"type":"Polygon","properties":{"GEOID":"340155003002"}},{"arcs":[[76,77,-73,-76,78]],"type":"Polygon","properties":{"GEOID":"340155003003"}},{"arcs":[[79,80,81,82,83,84,85]],"type":"Polygon","properties":{"GEOID":"340155004001"}},{"arcs":[[86,87,-81,88,89,90]],"type":"Polygon","properties":{"GEOID":"340155004004"}},{"arcs":[[91,92,-87,93,94,95]],"type":"Polygon","properties":{"GEOID":"340155004005"}},{"arcs":[[96,97,98,99,-17,100,101,102]],"type":"Polygon","properties":{"GEOID":"340155002041"}},{"arcs":[[103,104,105,106,107]],"type":"Polygon","properties":{"GEOID":"340155005001"}},{"arcs":[[108,109,110,-99,111,112,113]],"type":"Polygon","properties":{"GEOID":"340155002042"}},{"arcs":[[-75,114,-70,115,116,117,-109,118]],"type":"Polygon","properties":{"GEOID":"340155002051"}},{"arcs":[[119,120,121,122,123,124,125,126]],"type":"Polygon","properties":{"GEOID":"340155012012"}},{"arcs":[[-127,127,128]],"type":"Polygon","properties":{"GEOID":"340155012013"}},{"arcs":[[129,-125,130,131]],"type":"Polygon","properties":{"GEOID":"340155012022"}},{"arcs":[[132,133,-132,134,135]],"type":"Polygon","properties":{"GEOID":"340155012023"}},{"arcs":[[136,137,-133,138,139]],"type":"Polygon","properties":{"GEOID":"340155012024"}},{"arcs":[[-135,-131,-124,140,141,142]],"type":"Polygon","properties":{"GEOID":"340155012031"}},{"arcs":[[-123,143,144,145,146,-141]],"type":"Polygon","properties":{"GEOID":"340155012032"}},{"arcs":[[147,148,149,150,151,-144,-122]],"type":"Polygon","properties":{"GEOID":"340155012041"}},{"arcs":[[152,153,154,-149]],"type":"Polygon","properties":{"GEOID":"340155012042"}},{"arcs":[[155,156,157,-30,158,159]],"type":"Polygon","properties":{"GEOID":"340155013011"}},{"arcs":[[160,161,162,163,164]],"type":"Polygon","properties":{"GEOID":"340155013021"}},{"arcs":[[165,-165,166,167,168,169]],"type":"Polygon","properties":{"GEOID":"340155013022"}},{"arcs":[[170,-161,-166,171,172]],"type":"Polygon","properties":{"GEOID":"340155013032"}},{"arcs":[[-172,-170,173,174]],"type":"Polygon","properties":{"GEOID":"340155013033"}},{"arcs":[[175,176,177,178]],"type":"Polygon","properties":{"GEOID":"340155001003"}},{"arcs":[[-155,179,-150]],"type":"Polygon","properties":{"GEOID":"340155012043"}},{"arcs":[[-152,180,-3,181,-145]],"type":"Polygon","properties":{"GEOID":"340155012061"}},{"arcs":[[-146,-182,-2,182,183]],"type":"Polygon","properties":{"GEOID":"340155012062"}},{"arcs":[[-142,-147,-184,184,185,186]],"type":"Polygon","properties":{"GEOID":"340155012063"}},{"arcs":[[-41,187,188]],"type":"Polygon","properties":{"GEOID":"340155014022"}},{"arcs":[[189,190,191,192,193]],"type":"Polygon","properties":{"GEOID":"340155014031"}},{"arcs":[[194,195,196,-192]],"type":"Polygon","properties":{"GEOID":"340155014032"}},{"arcs":[[-74,197,-59,-55,-67,-115]],"type":"Polygon","properties":{"GEOID":"340155002012"}},{"arcs":[[198,199,200,201,202,203,204,205,-49,206]],"type":"Polygon","properties":{"GEOID":"340155007031"}},{"arcs":[[207,208,209,210]],"type":"Polygon","properties":{"GEOID":"340155008002"}},{"arcs":[[211,212,-211,213,214]],"type":"Polygon","properties":{"GEOID":"340155008003"}},{"arcs":[[215,216,217,218,219,220,221]],"type":"Polygon","properties":{"GEOID":"340155009001"}},{"arcs":[[-221,222,223,224]],"type":"Polygon","properties":{"GEOID":"340155009002"}},{"arcs":[[225,226,-222,-225,227,228,229]],"type":"Polygon","properties":{"GEOID":"340155009003"}},{"arcs":[[-64,-62,230,231,232,233,234]],"type":"Polygon","properties":{"GEOID":"340155010011"}},{"arcs":[[-65,-235,235,236,237,-68]],"type":"Polygon","properties":{"GEOID":"340155010012"}},{"arcs":[[238,-140,239,-157,240]],"type":"Polygon","properties":{"GEOID":"340155012081"}},{"arcs":[[-240,-139,-136,-143,241,242,243,-31,-158]],"type":"Polygon","properties":{"GEOID":"340155012082"}},{"arcs":[[244,245,246,247]],"type":"Polygon","properties":{"GEOID":"340155012091"}},{"arcs":[[248,249,250,251]],"type":"Polygon","properties":{"GEOID":"340155014041"}},{"arcs":[[252,-174,-169,253,-252,254,-196]],"type":"Polygon","properties":{"GEOID":"340155014042"}},{"arcs":[[255,-247,256,257,258]],"type":"Polygon","properties":{"GEOID":"340155012092"}},{"arcs":[[259,-24,260,-35,-244]],"type":"Polygon","properties":{"GEOID":"340155012101"}},{"arcs":[[261,-25,-260,-243]],"type":"Polygon","properties":{"GEOID":"340155012102"}},{"arcs":[[262,263,264,265]],"type":"Polygon","properties":{"GEOID":"340155016031"}},{"arcs":[[-264,266,-10,267,268,269,270]],"type":"Polygon","properties":{"GEOID":"340155016033"}},{"arcs":[[-268,-9,271,272]],"type":"Polygon","properties":{"GEOID":"340155016042"}},{"arcs":[[273,274,-13,275]],"type":"Polygon","properties":{"GEOID":"340155016044"}},{"arcs":[[276,-270,277,-274,278]],"type":"Polygon","properties":{"GEOID":"340155016045"}},{"arcs":[[279,280,281,282,283]],"type":"Polygon","properties":{"GEOID":"340155016053"}},{"arcs":[[284,285,286,-280,287,288]],"type":"Polygon","properties":{"GEOID":"340155016061"}},{"arcs":[[-236,-234,289,290,291,292,293]],"type":"Polygon","properties":{"GEOID":"340155010021"}},{"arcs":[[294,295,296,-293,297,-216,-227]],"type":"Polygon","properties":{"GEOID":"340155010022"}},{"arcs":[[298,-237,-294,-297,299]],"type":"Polygon","properties":{"GEOID":"340155010023"}},{"arcs":[[-288,-284,300,301,302]],"type":"Polygon","properties":{"GEOID":"340155016062"}},{"arcs":[[303,-285,304]],"type":"Polygon","properties":{"GEOID":"340155016064"}},{"arcs":[[-69,-238,-299,305,-116]],"type":"Polygon","properties":{"GEOID":"340155010031"}},{"arcs":[[-61,306,307,-179,308,-231]],"type":"Polygon","properties":{"GEOID":"340155011011"}},{"arcs":[[-232,-309,-178,309,310]],"type":"Polygon","properties":{"GEOID":"340155011012"}},{"arcs":[[-233,-311,311,312,313,-290]],"type":"Polygon","properties":{"GEOID":"340155011013"}},{"arcs":[[314,315,316,317,318,-312,-310]],"type":"Polygon","properties":{"GEOID":"340155011021"}},{"arcs":[[-318,319,320,321]],"type":"Polygon","properties":{"GEOID":"340155011023"}},{"arcs":[[322,-301,-283,323,324,325]],"type":"Polygon","properties":{"GEOID":"340155017021"}},{"arcs":[[326,-302,-323,327,328,329,330]],"type":"Polygon","properties":{"GEOID":"340155017022"}},{"arcs":[[331,-328,-326,332,333,334,335,336]],"type":"Polygon","properties":{"GEOID":"340155017032"}},{"arcs":[[337,338,339,-337,340,341]],"type":"Polygon","properties":{"GEOID":"340155017033"}},{"arcs":[[342,343,344,-331,345,346]],"type":"Polygon","properties":{"GEOID":"340155017011"}},{"arcs":[[347,348,349,-339]],"type":"Polygon","properties":{"GEOID":"340155017013"}},{"arcs":[[350,-347,351,-348,-338,352]],"type":"Polygon","properties":{"GEOID":"340155017041"}},{"arcs":[[353,-353,-342,354,355]],"type":"Polygon","properties":{"GEOID":"340155017042"}},{"arcs":[[356,-128,-126,-130,-134,-138]],"type":"Polygon","properties":{"GEOID":"340155012021"}},{"arcs":[[357,-272,-8,358,-281,-287,359]],"type":"Polygon","properties":{"GEOID":"340155016052"}},{"arcs":[[360,361,362,-335]],"type":"Polygon","properties":{"GEOID":"340155018002"}},{"arcs":[[363,364,-356,365,366]],"type":"Polygon","properties":{"GEOID":"340155019002"}},{"arcs":[[367,368]],"type":"Polygon","properties":{"GEOID":"340155023001"}},{"arcs":[[369,-361,-334]],"type":"Polygon","properties":{"GEOID":"340155018001"}},{"arcs":[[370,371,-369,372,373]],"type":"Polygon","properties":{"GEOID":"340155023002"}},{"arcs":[[374,375,376,377]],"type":"Polygon","properties":{"GEOID":"340155011033"}},{"arcs":[[378,379,380,381]],"type":"Polygon","properties":{"GEOID":"340155011042"}},{"arcs":[[-291,-314,382,-382,383,-218,384]],"type":"Polygon","properties":{"GEOID":"340155011051"}},{"arcs":[[-298,-292,-385,-217]],"type":"Polygon","properties":{"GEOID":"340155011052"}},{"arcs":[[-223,-220,385,386,-209,387,388]],"type":"Polygon","properties":{"GEOID":"340155011061"}},{"arcs":[[-228,-224,-389,-212,389,390]],"type":"Polygon","properties":{"GEOID":"340155011072"}},{"arcs":[[391,-120,-129,-357,392,393,-258]],"type":"Polygon","properties":{"GEOID":"340155012011"}},{"arcs":[[394,395,-315,-177,396]],"type":"Polygon","properties":{"GEOID":"340155001002"}},{"arcs":[[-111,397,-230,398,-18,-100]],"type":"Polygon","properties":{"GEOID":"340155002031"}},{"arcs":[[-269,-273,-358,-11,-275,-278]],"type":"Polygon","properties":{"GEOID":"340155016041"}},{"arcs":[[399,-159,400,-167,-164]],"type":"Polygon","properties":{"GEOID":"340155013013"}},{"arcs":[[401,-329,-332,-340,-350]],"type":"Polygon","properties":{"GEOID":"340155017012"}},{"arcs":[[402,-321,403,-378,404,405,-380,406]],"type":"Polygon","properties":{"GEOID":"340155011041"}},{"arcs":[[-362,-370,-333,-325,407]],"type":"Polygon","properties":{"GEOID":"340155017031"}},{"arcs":[[408,409,-390,-215,410,411,412,-203,413,414]],"type":"Polygon","properties":{"GEOID":"340155007023"}},{"arcs":[[415,416,-162,-171]],"type":"Polygon","properties":{"GEOID":"340155013031"}},{"arcs":[[417,-407,-379,-383]],"type":"Polygon","properties":{"GEOID":"340155011043"}},{"arcs":[[418,419,-259,-394,420]],"type":"Polygon","properties":{"GEOID":"340155012093"}},{"arcs":[[421,-160,-400,-163,-417,422]],"type":"Polygon","properties":{"GEOID":"340155013012"}},{"arcs":[[423,-397,-176,-308,424]],"type":"Polygon","properties":{"GEOID":"340155001004"}},{"arcs":[[-384,-381,-406,425,426,-386,-219]],"type":"Polygon","properties":{"GEOID":"340155011062"}},{"arcs":[[427,-295,-226,-398,-110,-118]],"type":"Polygon","properties":{"GEOID":"340155010032"}},{"arcs":[[428,-395,-424,429]],"type":"Polygon","properties":{"GEOID":"340155001001"}},{"arcs":[[-430,-425,-307,-60,-198,-71,-78,430]],"type":"Polygon","properties":{"GEOID":"340155002011"}},{"arcs":[[431,-194,432,433,434,435,-364,436]],"type":"Polygon","properties":{"GEOID":"340155019003"}},{"arcs":[[437,438,439,440,441,442]],"type":"Polygon","properties":{"GEOID":"340155024002"}},{"arcs":[[-388,-208,-213]],"type":"Polygon","properties":{"GEOID":"340155008001"}},{"arcs":[[-101,-20,443,444,445,446]],"type":"Polygon","properties":{"GEOID":"340155002033"}},{"arcs":[[447,-33,-37,448,449,-249]],"type":"Polygon","properties":{"GEOID":"340155014062"}},{"arcs":[[-51,450,451,452,453]],"type":"Polygon","properties":{"GEOID":"340155020021"}},{"arcs":[[454,455,456,457]],"type":"Polygon","properties":{"GEOID":"340155021001"}},{"arcs":[[458,459,460,-103,461,-83]],"type":"Polygon","properties":{"GEOID":"340155002043"}},{"arcs":[[462,-421,-393,-137,-239,463]],"type":"Polygon","properties":{"GEOID":"340155012094"}},{"arcs":[[464,-52,-454,465,466]],"type":"Polygon","properties":{"GEOID":"340155020013"}},{"arcs":[[467,468,469,-437,-367,470]],"type":"Polygon","properties":{"GEOID":"340155019001"}},{"arcs":[[-306,-300,-296,-428,-117]],"type":"Polygon","properties":{"GEOID":"340155010033"}},{"arcs":[[-183,-1,-27,471,-185]],"type":"Polygon","properties":{"GEOID":"340155012064"}},{"arcs":[[-186,-472,-26,472,-22,473]],"type":"Polygon","properties":{"GEOID":"340155012121"}},{"arcs":[[-242,-187,-474,-21,-262]],"type":"Polygon","properties":{"GEOID":"340155012122"}},{"arcs":[[-261,-23,-473,-29,-38,474]],"type":"Polygon","properties":{"GEOID":"340155012131"}},{"arcs":[[-475,-43,475,476,-449,-36]],"type":"Polygon","properties":{"GEOID":"340155014061"}},{"arcs":[[-168,-401,-34,-448,-254]],"type":"Polygon","properties":{"GEOID":"340155014063"}},{"arcs":[[477,-266,478,479,-14,480]],"type":"Polygon","properties":{"GEOID":"340155016081"}},{"arcs":[[-457,481,-468,482,483]],"type":"Polygon","properties":{"GEOID":"340155021002"}},{"arcs":[[484,485,-458,-484,486]],"type":"Polygon","properties":{"GEOID":"340155021003"}},{"arcs":[[487,-188,-46,488,-344,489,490]],"type":"Polygon","properties":{"GEOID":"340155015012"}},{"arcs":[[-445,-409,491,492,493,494]],"type":"Polygon","properties":{"GEOID":"340155007041"}},{"arcs":[[-88,-93,495,-459,-82]],"type":"Polygon","properties":{"GEOID":"340155002052"}},{"arcs":[[496,-112,-98,497]],"type":"Polygon","properties":{"GEOID":"340155002044"}},{"arcs":[[-105,498,-84,-462,499,500,501]],"type":"Polygon","properties":{"GEOID":"340155006014"}},{"arcs":[[-500,-102,-447,502,503]],"type":"Polygon","properties":{"GEOID":"340155006011"}},{"arcs":[[504,-248,505]],"type":"Polygon","properties":{"GEOID":"340155011031"}},{"arcs":[[-106,-502,506,507,508]],"type":"Polygon","properties":{"GEOID":"340155006023"}},{"arcs":[[-426,509,-506,-256,510,511]],"type":"Polygon","properties":{"GEOID":"340155011032"}},{"arcs":[[-503,-446,-495,512,-199,513,514]],"type":"Polygon","properties":{"GEOID":"340155006013"}},{"arcs":[[515,516]],"type":"Polygon","properties":{"GEOID":"340155024001"}},{"arcs":[[-511,-420,517]],"type":"Polygon","properties":{"GEOID":"340155011063"}},{"arcs":[[518,-509,519,-54,520]],"type":"Polygon","properties":{"GEOID":"340155022042"}},{"arcs":[[-513,-494,521,522,523,-200]],"type":"Polygon","properties":{"GEOID":"340155007052"}},{"arcs":[[-508,524,525,-47,-520]],"type":"Polygon","properties":{"GEOID":"340155006022"}},{"arcs":[[-526,-514,-207,-48]],"type":"Polygon","properties":{"GEOID":"340155006021"}},{"arcs":[[-412,526,-464,-241,-156,-422,527]],"type":"Polygon","properties":{"GEOID":"340155007021"}},{"arcs":[[-528,-423,528,-413]],"type":"Polygon","properties":{"GEOID":"340155007022"}},{"arcs":[[529,-371,530,531,532,-441]],"type":"Polygon","properties":{"GEOID":"340155022012"}},{"arcs":[[-443,533,534]],"type":"Polygon","properties":{"GEOID":"340155024003"}},{"arcs":[[535,-521,536,537,-455,-486,538,-373,-368,-372,-530,-440]],"type":"Polygon","properties":{"GEOID":"340155022041"}},{"arcs":[[-529,-416,-173,-175,-253,539,540,-204]],"type":"Polygon","properties":{"GEOID":"340155007032"}},{"arcs":[[-53,-465,541,-537]],"type":"Polygon","properties":{"GEOID":"340155020014"}},{"arcs":[[-151,-180,-154,542,-481,-16,543,-4,-181]],"type":"Polygon","properties":{"GEOID":"340155012052"}},{"arcs":[[544,-534,545,-532,546,547]],"type":"Polygon","properties":{"GEOID":"340155022021"}},{"arcs":[[548,-466,-453,549,-469,-482]],"type":"Polygon","properties":{"GEOID":"340155020024"}},{"arcs":[[-50,-206,550,551,-451]],"type":"Polygon","properties":{"GEOID":"340155020022"}},{"arcs":[[-547,-531,-374,-539,-485,552]],"type":"Polygon","properties":{"GEOID":"340155022031"}},{"arcs":[[-544,-15,-480,553,554,555]],"type":"Polygon","properties":{"GEOID":"340155016083"}},{"arcs":[[-479,-265,-271,-277,-554]],"type":"Polygon","properties":{"GEOID":"340155016032"}},{"arcs":[[556,557,-354,-365]],"type":"Polygon","properties":{"GEOID":"340155015021"}},{"arcs":[[558,559,-345,-489,-45]],"type":"Polygon","properties":{"GEOID":"340155016094"}},{"arcs":[[560,-414,-202,561,-523]],"type":"Polygon","properties":{"GEOID":"340155007053"}},{"arcs":[[-504,-515,-525,-507,-501]],"type":"Polygon","properties":{"GEOID":"340155006012"}},{"arcs":[[-94,-91,562,563]],"type":"Polygon","properties":{"GEOID":"340155005003"}},{"arcs":[[-89,-80,564]],"type":"Polygon","properties":{"GEOID":"340155004002"}},{"arcs":[[-542,-467,-549,-456,-538]],"type":"Polygon","properties":{"GEOID":"340155020011"}},{"arcs":[[-255,-251,565,-433,-193,-197]],"type":"Polygon","properties":{"GEOID":"340155014033"}},{"arcs":[[566,-492,-415,-561]],"type":"Polygon","properties":{"GEOID":"340155007043"}},{"arcs":[[-562,-201,-524]],"type":"Polygon","properties":{"GEOID":"340155007051"}},{"arcs":[[567,-491,568,-557,-436]],"type":"Polygon","properties":{"GEOID":"340155015011"}},{"arcs":[[-569,-490,-343,-351,-558]],"type":"Polygon","properties":{"GEOID":"340155015022"}},{"arcs":[[-555,-279,-276,569,-305,-289,-303,-327,-560]],"type":"Polygon","properties":{"GEOID":"340155016063"}},{"arcs":[[-346,-330,-402,-349,-352]],"type":"Polygon","properties":{"GEOID":"340155017014"}},{"arcs":[[570,-563,-90,-565,-86,571]],"type":"Polygon","properties":{"GEOID":"340155004003"}},{"arcs":[[-19,-399,-229,-391,-410,-444]],"type":"Polygon","properties":{"GEOID":"340155011071"}},{"arcs":[[-12,-360,-286,-304,-570]],"type":"Polygon","properties":{"GEOID":"340155016065"}},{"arcs":[[-493,-567,-522]],"type":"Polygon","properties":{"GEOID":"340155007042"}},{"arcs":[[-533,-546,-442]],"type":"Polygon","properties":{"GEOID":"340155022011"}},{"arcs":[[-5,-556,-559,-44,-39]],"type":"Polygon","properties":{"GEOID":"340155016093"}},{"arcs":[[572,-375,573]],"type":"Polygon","properties":{"GEOID":"340155011024"}},{"arcs":[[574,575,-498,-97,-461]],"type":"Polygon","properties":{"GEOID":"340155002045"}},{"arcs":[[576,577,-535,-545,578]],"type":"Polygon","properties":{"GEOID":"340155024005"}},{"arcs":[[579,-107,-519,-536,-439,580,-517,-577,581]],"type":"Polygon","properties":{"GEOID":"340155024006"}},{"arcs":[[582,-114,583,-575,-460]],"type":"Polygon","properties":{"GEOID":"340155002047"}},{"arcs":[[-317,584,-574,-404,-320]],"type":"Polygon","properties":{"GEOID":"340155011025"}},{"arcs":[[-79,-119,-583,-496,-92,585]],"type":"Polygon","properties":{"GEOID":"340155002053"}},{"arcs":[[-95,-564,-571,586,-108,-580,587]],"type":"Polygon","properties":{"GEOID":"340155005004"}},{"arcs":[[-377,588,-245,-505,-510,-405]],"type":"Polygon","properties":{"GEOID":"340155011034"}},{"arcs":[[-516,-581,-438,-578]],"type":"Polygon","properties":{"GEOID":"340155024004"}},{"arcs":[[-113,-497,-576,-584]],"type":"Polygon","properties":{"GEOID":"340155002046"}},{"arcs":[[-319,-322,-403,-418,-313]],"type":"Polygon","properties":{"GEOID":"340155011022"}},{"arcs":[[-210,-387,-427,-512,-518,-419,-463,-527,-411,-214]],"type":"Polygon","properties":{"GEOID":"340155011064"}},{"arcs":[[-452,-552,589,590,-550]],"type":"Polygon","properties":{"GEOID":"340155020025"}},{"arcs":[[-551,-205,591,-590]],"type":"Polygon","properties":{"GEOID":"340155020023"}},{"arcs":[[-540,-195,-191,592]],"type":"Polygon","properties":{"GEOID":"340155020026"}},{"arcs":[[-591,-592,-541,-593,-190,-432,-470]],"type":"Polygon","properties":{"GEOID":"340155020027"}},{"arcs":[[-476,-42,-189,-488,-568,-435,593]],"type":"Polygon","properties":{"GEOID":"340155014023"}},{"arcs":[[-587,-572,-85,-499,-104]],"type":"Polygon","properties":{"GEOID":"340155005002"}},{"arcs":[[-566,-250,-450,-477,-594,-434]],"type":"Polygon","properties":{"GEOID":"340155014021"}}]}}}