{"type":"Topology","arcs":[[[6074,14345],[3,-17],[-7,-26],[9,-22],[30,-16],[32,-9]],[[6141,14255],[8,-24],[-31,-25],[-5,-35],[-16,-32],[2,-11],[32,-58],[1,-15],[-16,-29],[-35,-9],[-15,-16],[5,-12],[44,-36],[18,-41]],[[6133,13912],[-13,-47],[-16,-19],[-31,-19],[-11,-16],[-1,-55],[-17,-55]],[[6044,13701],[-211,65],[-23,-63]],[[5810,13703],[-59,20],[-10,12],[7,229],[-172,6]],[[5576,13970],[-10,178],[-7,97],[165,127],[310,-52],[40,25]],[[5810,13703],[-25,-71]],[[5785,13632],[-32,-89],[85,-29]],[[5838,13514],[-8,-24],[35,-14],[-20,-43],[-14,-48],[-16,-31],[35,-12],[-3,-10],[-32,-210]],[[5815,13122],[-30,35],[-25,0],[-27,11],[-21,-3],[-30,16],[-15,16],[-39,23],[-17,3],[-8,168],[-9,234]],[[5594,13625],[-3,77],[-7,135]],[[5584,13837],[-8,133]],[[5838,13514],[64,-22],[-8,-26],[123,-41]],[[6017,13425],[54,-18],[20,13],[21,-9]],[[6112,13411],[53,-64],[-41,-136],[53,-180],[1,-8]],[[6178,13023],[-66,-28],[-15,1],[-22,-11],[-56,5],[-69,-1],[-36,-4],[-15,12],[-9,21],[-22,35],[-11,46],[-42,23]],[[12063,12720],[110,11],[183,64]],[[12356,12795],[10,-123],[1,-221],[-2,-17]],[[12365,12434],[-28,4],[2,-27],[-10,-11],[-28,4]],[[12301,12404],[2,35],[-236,11]],[[12067,12450],[-2,121]],[[12065,12571],[-2,149]],[[11821,12569],[244,2]],[[12067,12450],[-157,8],[-88,-1]],[[11822,12457],[-1,112]],[[11744,12456],[37,1],[4,-24],[39,0],[-2,24]],[[12301,12404],[-48,-2],[-28,7],[-24,-8],[-19,-47],[-10,-15],[0,-41],[-6,-14],[-22,-12]],[[12144,12272],[-19,-19],[-38,-6],[-52,-4],[-29,10],[-15,25],[-29,-19],[-2,-31],[-37,-14]],[[11923,12214],[-8,-15],[10,-23],[-7,-18],[-41,-17],[-11,19],[-18,4],[-49,-32],[-34,-5]],[[11765,12127],[-11,73],[-12,31],[-16,4]],[[11726,12235],[1,14],[-14,44],[6,11],[-2,46],[20,66],[-6,35],[13,5]],[[11536,12750],[108,105],[68,7]],[[11712,12862],[12,-140],[13,-140]],[[11737,12582],[-3,0],[-126,103],[-51,43],[-21,22]],[[11280,12574],[63,67]],[[11343,12641],[21,20],[142,121]],[[11506,12782],[30,-32]],[[11737,12582],[7,-126]],[[11726,12235],[-59,17],[-17,20],[-16,0],[-63,-47],[-6,-9],[-50,-19],[-29,9],[-47,55],[-11,4]],[[11428,12265],[162,99],[1,33],[-46,11],[16,66],[-29,7],[-281,61],[29,32]],[[11428,12265],[-146,-87]],[[11282,12178],[-65,104],[-58,100],[-48,77],[54,12],[10,48],[-39,9],[9,38],[-23,5]],[[11122,12571],[-5,24],[-21,18],[30,49],[154,-88]],[[12418,10195],[13,-24],[-33,-31],[-75,9]],[[12323,10149],[-70,12],[-29,-2],[-58,7],[-72,33],[-116,55],[-195,5],[-51,13],[-61,21],[-9,9]],[[11662,10302],[8,75],[57,104],[45,74],[128,-75],[17,38],[35,20],[-31,66],[183,-79],[-12,-26],[158,-70],[50,17],[5,-13],[-26,-26],[-11,-25],[9,-26],[20,-7],[21,-19],[33,-15],[59,-20],[22,-10],[57,-20],[-2,-11],[-22,-3],[-20,-24],[-29,2],[-23,-25],[25,-9]],[[12144,12272],[224,-243],[248,-266],[-15,-30],[-23,-20],[-30,-14],[-326,-143],[-238,526],[-16,-7],[-11,23],[-32,-5],[-18,34],[47,21],[-31,66]],[[12471,15893],[4,82]],[[12475,15975],[225,-14]],[[12700,15961],[-13,-202]],[[12687,15759],[-223,14]],[[12464,15773],[7,120]],[[12723,16334],[60,-2],[257,-57]],[[13040,16275],[-76,-329]],[[12964,15946],[-264,15]],[[12700,15961],[23,373]],[[12451,16356],[130,-18],[142,-4]],[[12475,15975],[-322,19]],[[12153,15994],[17,259],[274,-16],[7,119]],[[12044,16401],[134,-8]],[[12178,16393],[273,-37]],[[12153,15994],[-271,16]],[[11882,16010],[12,205],[135,-8],[5,86],[5,19],[5,89]],[[11700,16689],[223,-13],[-16,-266],[137,-9]],[[11882,16010],[-6,-89]],[[11876,15921],[-221,30]],[[11655,15951],[16,280],[29,458]],[[11605,15175],[13,153],[29,494]],[[11647,15822],[222,-14],[-2,-38]],[[11867,15770],[-11,-178],[1,-48]],[[11857,15544],[11,-39],[-10,-160],[8,-30],[31,-45],[-142,-103],[-11,-3],[-139,8]],[[11605,15172],[0,3]],[[11113,15853],[263,-16]],[[11376,15837],[271,-15]],[[11605,15175],[-51,-12],[-58,8],[-17,-6],[-25,7],[-24,-6],[-53,-21],[-20,-13],[-16,-19],[-11,-24],[14,217],[-263,16],[32,531]],[[13906,15419],[26,26],[21,11],[51,16],[27,19],[11,15],[95,166],[-289,17],[-25,33],[-9,39],[-13,31],[12,36],[1,36],[-14,34],[-3,25],[3,38]],[[13800,15961],[0,28],[12,41],[-5,21],[15,43],[18,26],[6,23],[-3,29],[20,15],[29,36],[-272,16],[16,267]],[[13636,16506],[4,61]],[[13640,16567],[267,-238],[400,-357],[210,-187]],[[14517,15785],[3,-29],[9,-36],[0,-41],[-17,-11],[-6,-19],[-56,-125],[-4,-27],[-16,-247],[53,-224],[1,-15],[-28,-427],[-296,18]],[[14160,14602],[4,40],[-15,44],[-5,39],[-28,36],[3,24],[-21,20],[-62,22],[-31,-4],[-30,15]],[[13975,14838],[-23,14],[-92,25],[-28,-6],[-25,6],[-42,45],[-28,16],[-72,9],[-65,1],[-16,6],[-18,19],[-18,41]],[[13548,15014],[192,218],[166,187]],[[10684,16139],[21,4],[69,-3],[-16,58],[7,41],[37,51],[10,22],[8,120],[-2,43],[33,-2],[299,-18],[20,319],[23,6],[22,-9],[28,-39],[28,1],[42,21],[38,-4],[32,21],[22,33],[9,25],[29,17],[33,-9],[9,4],[22,34],[41,19],[18,17],[11,19],[31,18],[40,28],[39,21],[11,16],[15,6]],[[11713,17019],[4,-29],[-17,-301]],[[11655,15951],[-58,7],[-213,13],[-8,-134]],[[11113,15853],[-208,12],[-125,9],[-63,2]],[[10717,15876],[-1,18],[19,2],[-26,26],[17,7],[5,20],[-14,13],[9,20],[29,0],[-12,25],[12,7],[-7,21],[-15,5],[5,20],[-15,17],[-15,2],[-12,16],[-12,44]],[[11306,18643],[179,-159],[869,-773]],[[12354,17711],[-91,8],[-256,28],[-195,64],[-21,10],[-47,32],[-32,16],[-232,76]],[[11480,17945],[-69,277],[-94,378],[-11,43]],[[12354,17711],[668,-594]],[[13022,17117],[-335,-63],[-54,-8],[-416,-20]],[[12217,17026],[-273,16],[32,535],[-39,-2],[-198,-1],[-27,-2],[-132,-28]],[[11580,17544],[-100,401]],[[12217,17026],[-13,-224],[-9,-143]],[[12195,16659],[-17,-266]],[[11713,17019],[-21,74],[-40,244],[-5,18],[-52,131],[-15,58]],[[12195,16659],[271,-11],[24,4],[657,144],[11,0],[242,-15]],[[13400,16781],[240,-214]],[[13636,16506],[-271,17],[-271,16],[-54,-264]],[[11810,12700],[213,17]],[[12023,12717],[40,3]],[[11821,12569],[-11,131]],[[13981,6285],[-15,40],[-23,79],[-89,281],[-16,32],[-26,35],[-47,73]],[[13765,6825],[64,50],[-2,136],[184,-30],[32,16],[63,51],[29,8],[252,58],[32,-76],[38,-119],[53,-33],[220,-11],[129,-134],[-138,-73],[-400,-217],[-80,-42],[-211,-115],[-27,-8],[-22,-1]],[[7969,12009],[13,112],[109,-12],[23,93],[25,-4],[52,48],[191,17],[113,-272],[-148,-55],[-182,3],[-194,33],[-2,37]],[[6133,13912],[15,27],[4,21],[66,-28],[-33,-68],[82,5]],[[6267,13869],[-77,-171],[-5,-14]],[[6185,13684],[-5,-44],[13,-47],[-6,-15],[-43,31],[-38,6],[32,-64],[26,-17],[30,-109],[-17,-1],[-26,-11],[-39,-2]],[[6112,13411],[-15,30],[-32,37],[-26,113],[-2,94],[7,16]],[[6296,14334],[43,30],[39,50],[57,45],[47,28],[35,15],[21,21],[103,129],[111,21],[62,-401],[25,-154]],[[6839,14118],[-62,-3],[1,-17],[-302,-29],[-17,6],[-18,16]],[[6441,14091],[-57,39]],[[6384,14130],[60,87],[-123,12],[22,79],[-50,6]],[[6293,14314],[3,20]],[[11734,13307],[22,53],[38,-458],[-1,-38]],[[11793,12864],[2,-5]],[[11795,12859],[3,-12],[12,-147]],[[11712,12862],[-9,117],[43,4],[-22,270],[10,54]],[[3921,14580],[541,34],[440,-300],[112,-81],[181,-126]],[[5195,14107],[389,-270]],[[5594,13625],[-136,-71],[-23,-9],[-103,-29],[-218,-28],[-31,1],[-47,9],[-215,50],[-178,37],[-86,16],[-313,52],[-33,18],[-65,48],[-86,88],[-60,78],[-87,118],[-51,56],[-18,15],[-160,47],[-24,10]],[[3660,14131],[139,290],[26,41],[81,107],[15,11]],[[11372,10494],[-4,-15],[-19,-16],[14,-17],[20,1],[40,20],[70,-15],[15,-14],[11,-48],[10,-12],[70,-43],[63,-33]],[[11662,10302],[-1,-23],[27,-61],[16,-16],[62,-26],[44,-9],[-9,-50],[21,-1],[5,21],[19,39],[28,31],[19,3],[24,-19],[15,-25],[24,-10],[28,26],[22,5],[55,-43],[-17,-259],[-4,-65]],[[12040,9820],[-18,49],[-288,19],[-194,3],[0,56],[25,72],[-19,-1],[21,72],[-1,22],[-74,7],[29,111],[-46,36],[-101,112],[-37,18],[-21,20],[18,66],[38,12]],[[5779,14747],[-12,-16],[27,-55],[12,-4]],[[5806,14672],[1,-24],[37,-102],[44,-71],[38,-35],[51,-30],[38,-19],[53,-37],[6,-9]],[[5195,14107],[67,80],[16,9],[140,48],[-94,197],[9,10],[48,5],[5,8],[-11,205],[37,2],[230,-40],[13,1],[-50,58],[-20,66],[1,23],[23,-9],[48,16],[39,20],[70,-5],[17,-12],[-9,-27],[5,-15]],[[973,13377],[14,8],[27,-22],[8,-13],[1,-59],[4,-23],[13,-20],[26,-17],[24,0],[18,11],[19,33],[16,12],[21,5],[37,-1],[37,-11],[49,-49],[31,-5],[27,14],[54,9],[22,25],[37,11],[80,4],[45,-3],[76,-15],[30,-1],[36,5],[44,41],[18,38],[17,18],[39,26],[18,23],[35,22],[16,23],[19,4],[20,-8],[26,7],[12,10],[35,-28],[10,13],[25,-7],[23,25],[32,7],[28,15],[30,-3],[56,8],[31,-8],[77,16],[61,2],[69,21],[24,-3],[18,-16],[57,3],[24,18],[6,30],[11,11],[39,4],[43,30],[59,55],[15,35],[21,23],[24,6],[41,-11],[94,2],[38,18],[10,20],[44,32],[9,12],[30,19],[58,-2],[34,3],[19,-6],[339,-253]],[[3523,13570],[140,-110],[257,-273],[-12,-46],[-27,-37],[-45,-22],[-19,-33],[-35,-30],[-23,-37],[-47,-53],[-18,-43],[1,-18],[-16,-47],[-14,-18],[-26,-22],[-22,-36],[-7,-26],[-34,-8],[-43,-103],[-16,-22],[-3,-24],[-27,-34],[19,-13],[-18,-31],[-37,-50],[-42,-26],[-23,-63],[-29,-54],[-7,-4],[-4,-31],[-12,-39],[6,-24],[-15,-2],[-24,-24],[28,-11],[-1,-9]],[[3328,12147],[-34,10],[-59,-18],[-29,-32],[2,-39],[20,-33],[52,-55],[25,-49],[-1,-44],[-43,-55],[-57,-26],[-66,1],[-56,10],[-56,21],[-47,40],[-34,19],[-33,30],[-51,53],[-37,20],[-61,-9],[-85,-105],[-56,-51],[-8,-22],[27,-44],[48,-18],[92,-32],[28,-59],[6,-37],[-21,-108],[-16,-30],[-51,-22],[-51,5],[-70,1],[-35,-8],[-11,-18],[-2,-25],[13,-48],[40,-93],[-2,-43],[-21,-34],[-49,-42],[-71,-21],[-84,-12],[-47,-18],[-43,-51],[-16,-54],[4,-44],[20,-44],[34,-25],[45,-10],[87,0],[55,-5],[15,-12],[14,-40],[-12,-28],[-38,-24],[-66,-20],[-68,-37],[-17,-30],[-7,-55],[7,-21],[35,-35],[25,-13],[45,-5],[27,1],[63,20]],[[2546,10575],[14,-36],[-8,-16],[2,-20],[-17,-25],[-23,-14],[-3,-32],[-22,-6],[-38,-28],[-2,21],[-42,10],[-36,22],[-21,1],[-7,18],[-16,-7],[-22,26],[5,15],[-16,24],[1,12],[-10,50],[-28,46],[-13,35],[-16,9],[-8,25],[7,35],[-16,19],[-27,52],[3,11],[-19,15],[-1,14],[-18,15],[-20,-1],[-21,15],[-17,2],[-7,17],[-16,17],[-45,5],[-10,22],[-31,11],[-38,-5],[-54,9],[-15,-8],[-20,11],[-42,5],[-26,18],[-59,16],[-52,30],[-40,42],[-42,22],[-13,19],[-22,15],[-22,24],[-24,47],[-10,65],[-31,49],[-6,28],[0,46],[-8,18],[12,111],[-16,39],[12,19],[2,20],[-6,18],[-19,13],[-7,18],[-21,3],[-20,24],[-6,39],[-53,0],[-5,11],[15,32],[11,6],[2,30],[-7,25],[-11,11],[-7,43],[-32,24],[-26,-9],[-10,14],[-1,24],[-21,-1],[-13,12],[-37,-3],[-51,-27],[-44,14]],[[1099,11915],[-20,80],[-12,110],[-8,36],[-20,29],[-23,5],[-29,-8],[-24,-23],[-9,-71],[-17,-19],[-19,-2],[-28,11],[-22,23],[-62,82],[-10,43],[15,24],[27,18],[31,35],[-4,16],[-57,43],[-26,31],[-6,40],[7,33],[26,24],[33,-6],[64,-31],[56,-8],[64,10],[21,9],[34,29],[9,25],[-6,52],[-31,26],[-42,22],[-36,33],[-1,31],[49,44],[81,49],[34,37],[12,33],[1,62],[-9,15],[-128,39],[-31,0],[-25,-30],[-3,-21],[4,-68],[-39,-37],[-37,11],[-24,32],[-2,78],[-12,36],[-42,37],[-54,25],[-14,30],[-5,35],[0,40],[9,42],[14,26],[14,12],[26,2],[28,-7],[29,0],[19,7],[15,17],[-2,40],[-12,22],[-5,55],[5,13],[25,11],[67,16],[11,7]],[[10714,12664],[408,-93]],[[11282,12178],[-411,-247]],[[10871,11931],[-143,227],[-5,19],[-18,304],[9,183]],[[12365,12434],[227,-82]],[[12592,12352],[688,-250],[812,-300]],[[14092,11802],[225,-181],[-810,-419],[-685,-354],[-33,-40],[-2,-24],[-22,-32],[4,-16],[22,-18],[-17,-43],[-13,-9],[-63,11],[-14,-11],[2,-21],[46,-6],[13,-19],[11,-61],[-19,-19],[-37,-4],[-41,-20],[-25,-27],[-6,-43],[3,-48],[-28,-31],[-61,-76]],[[12542,10291],[-74,29],[-29,5],[-106,24],[-16,20],[125,114],[-14,42],[-133,66],[-43,29],[-1,186],[-183,87],[-78,88],[-1,14],[90,137],[-52,38],[-146,46],[-17,20],[-36,74],[-15,39],[-8,50],[13,37],[56,103],[-6,21],[-43,111],[-23,208],[3,30],[41,66],[0,23],[-65,93],[-16,36]],[[11083,10705],[47,-20],[6,-10],[-3,-32],[5,-12],[-6,-23],[12,-21],[33,-14],[22,-16],[27,-9],[41,-18],[94,-22],[11,-14]],[[12040,9820],[3,-64],[-217,-57],[-7,-19],[13,-119],[361,-41],[101,-13],[178,-20],[36,4],[80,34],[-197,430],[-58,126],[-6,20],[-4,48]],[[12418,10195],[-6,18],[13,15],[32,-5],[16,25],[28,-1],[3,27],[25,17],[13,0]],[[12542,10291],[33,-4],[19,-9],[58,-39],[29,-50],[-19,-69],[-7,-40],[-13,-18],[4,-17],[31,-22],[44,-6],[27,6],[84,-73],[10,-30],[-2,-14],[-31,-36],[-78,-71],[-8,-21],[0,-23],[12,-27],[19,-20],[43,-30],[109,-13],[30,-30],[33,-59],[-4,-41],[-15,-23],[-34,-30],[-52,-35],[-13,-14],[-7,-26],[-5,-41],[3,-19],[66,-102],[29,-32],[25,-14],[25,-7],[32,1],[35,13],[99,40],[17,1],[21,-17],[6,-36],[-3,-26],[-38,-49],[-20,-31],[-9,-34],[3,-41],[9,-29],[49,-41],[37,-7],[29,0],[44,23],[63,19],[26,0],[26,-15],[36,-43],[27,-63],[2,-28],[-34,-59],[-24,-16],[-28,-30],[-25,-35],[-36,-92],[-41,-43],[-82,-50],[-50,-41],[-11,-29]],[[13147,8434],[-6,-20],[-7,-73],[7,-51],[23,-49],[21,-31],[25,-22],[42,-3],[46,20],[39,30],[84,70],[39,8],[20,-12],[20,-20],[12,-26],[1,-56],[-4,-67],[-34,-104],[-43,-126],[-6,-21],[-34,-22],[-54,-3],[-66,32],[-71,54],[-31,2],[-35,-6],[-40,-18],[-41,-61],[-23,-31],[-18,-31],[-31,-22],[-54,-23],[-21,-12],[-40,-44],[-31,-66],[-6,-24]],[[12830,7606],[-21,-4],[-93,2],[-60,-10],[-167,-6],[-50,26],[-26,7],[-44,-7],[-11,-7],[-19,-59],[-145,48],[-8,-34],[-12,-144],[-7,-31],[-11,-23],[-77,-119],[-100,-114],[-10,-8],[-88,-43],[-114,2],[-208,-13],[-35,216],[-14,23],[-162,150],[-235,337],[-8,10],[-104,-97]],[[11001,7708],[-6,620],[-108,1339],[-268,30],[-24,-1],[-117,-21],[32,45],[62,109],[123,210],[113,194],[217,372],[58,100]],[[6549,12911],[31,13],[14,0],[32,20],[16,2],[41,27],[41,6],[51,18],[24,3]],[[6799,13000],[23,-61],[170,-305],[149,143],[87,10],[23,-4],[60,-32],[30,-27],[48,-9],[49,-28],[50,-26],[23,-3],[50,7],[30,23],[21,26],[46,13],[25,19],[38,38],[78,50],[12,35],[-11,220],[-15,243],[-48,11],[226,218],[203,199]],[[8166,13760],[73,-16],[305,-78]],[[8544,13666],[308,-579]],[[8852,13087],[397,-745]],[[9249,12342],[-63,-32],[-208,-117],[-957,-554],[-421,-226],[-24,-12],[-397,-209]],[[7179,11192],[5,74],[-18,99],[-6,21],[-23,49],[-8,30],[4,125],[-28,73],[-31,94],[-23,65],[-102,316],[-8,40],[-1,40],[11,22],[18,21],[-12,27],[-5,31],[-33,76],[-57,107],[-44,74],[-29,19],[-155,74],[-28,24],[-8,24],[8,52],[0,14],[-25,70],[-32,58]],[[11857,15544],[261,-15]],[[12118,15529],[7,0]],[[12125,15529],[-8,-117],[-21,-348],[-6,-91]],[[12090,14973],[-6,0],[7,103],[-347,22],[-145,10],[6,64]],[[12964,15946],[-108,-461]],[[12856,15485],[-186,11]],[[12670,15496],[17,263]],[[4341,16694],[33,30],[476,507],[204,203],[11,12]],[[5065,17446],[40,-30],[27,-33],[7,-21],[-8,-26],[3,-21],[18,-23],[-1,-15],[25,-30],[9,-18],[-4,-24],[19,-42],[-1,-44],[8,-37],[-16,-35],[-6,-26],[-23,-50],[-8,-46],[1,-32],[27,-58],[15,-39],[9,-42],[-9,-24],[-1,-27],[7,-47],[39,-56],[7,-36],[27,-49],[8,-30],[27,-12],[35,-47],[3,-29],[11,-22],[22,-23],[6,-31],[22,-63],[-7,-58],[27,-31],[8,-31],[33,-69],[5,-28],[-25,-50],[-30,-106],[-17,-43]],[[5404,15842],[13,-41],[14,-14],[0,-16],[19,0],[11,-16],[24,-58],[44,-29],[15,-2],[18,-23],[20,-49],[-10,-8],[7,-38],[-19,-41],[-25,-18],[-1,-14],[13,-16],[10,-45],[-5,-28],[-25,-20],[-20,-27],[-4,-28],[-19,-26],[-18,-16],[10,-20],[1,-64],[13,-18],[-2,-20],[29,-52],[21,-10],[21,-24],[38,-3],[19,-21],[39,-9],[17,11],[19,-1],[34,-28],[0,-28],[-14,-14],[-6,-21],[7,-68],[63,-48],[27,-17],[7,-29],[-6,-20],[-24,-18]],[[3921,14580],[-49,327],[-2,76],[21,44],[295,26],[-16,396],[-9,227],[1,18],[31,124],[79,210],[16,55],[53,611]],[[13022,17117],[378,-336]],[[10980,7214],[25,36],[5,53],[-4,24],[-2,85],[-3,296]],[[12830,7606],[6,-29],[12,-18],[34,-17],[41,-13],[44,7],[90,-8],[38,-15],[19,-23],[11,-33],[-8,-75],[-62,-95],[-55,-27],[-26,-9],[-42,-6],[-25,2],[-97,3],[-25,-18],[-12,-25],[-5,-36],[-3,-50],[3,-27],[12,-39],[-4,-26],[-25,-40],[-23,-16],[-31,-14],[-45,5],[-41,14],[-86,37],[-51,-3],[-47,-25],[-25,-30],[-21,-43],[-9,-44],[4,-26],[20,-36],[25,-27],[76,-43],[15,-4],[40,-30],[20,-23],[10,-53],[-2,-37],[-8,-21],[-23,-30],[-33,-26],[-43,-8],[-29,0],[-46,23],[-60,47],[-92,50],[-55,13],[-35,-6],[-31,-20],[-119,-109],[-38,-50],[-38,-55],[-40,-45],[-19,-54],[-1,-36],[19,-56],[34,-25],[90,-54],[15,-6],[73,-53],[32,-32],[13,-30],[-2,-21],[-22,-63],[-19,-33],[-37,-30],[-21,-9],[-38,-4],[-32,5],[-23,11],[-62,48],[-41,27],[-68,55],[-26,11],[-22,1],[-35,-15],[-35,-32],[-29,-40],[-39,-79],[-5,-30],[12,-38],[16,-17]],[[11618,5755],[-19,-21],[-49,-45],[-30,-10],[-16,21],[5,15],[-8,21],[-45,35],[-37,-2],[-30,6],[-13,12],[-29,-6],[-16,3],[-66,-5],[-18,4],[-68,-15],[-17,1],[-60,17],[-34,-8],[-9,-14],[-47,-5],[-13,-17],[-38,-18],[-15,3],[-107,-20],[-26,5],[-17,-5],[-49,-26],[-69,-7],[-35,-1],[-59,-16],[-30,-14],[-37,-12],[-10,-9],[-34,-12],[-12,-13],[-17,1],[-68,-14],[-19,-7],[-10,23],[-47,32],[-24,-1],[-30,16],[-12,13],[-32,-5],[-15,-9],[-31,-4],[-38,12],[-18,18],[-41,-3],[-24,13],[-39,0],[-19,29],[-20,6],[-51,1],[-36,-3],[-37,-27],[-8,14],[-41,-3],[-20,-32]],[[9764,5667],[-2,26],[7,25],[18,28],[30,24],[51,21],[17,-1],[3,49],[-3,42],[-12,19],[-40,10],[-76,8],[-34,9],[-15,13],[-12,40],[0,61],[-12,20],[-28,8],[-41,-5],[-21,-13],[-24,0],[-20,16],[-31,40],[-1,18],[22,21],[28,-3],[44,-14],[21,2],[10,14],[-2,19],[-22,21],[-40,9],[-29,33],[-6,21],[7,16],[31,3],[76,-48],[16,6],[48,60],[-11,24],[-29,13],[-53,-20],[-27,12],[-4,21],[21,32],[2,17],[-13,18],[-30,26],[4,26],[27,2],[43,-12],[22,3],[13,15],[0,15],[-25,28],[-2,19],[12,17],[18,8],[22,-13],[11,-67],[14,-13],[35,3],[6,65],[25,30],[-3,29],[-25,30],[12,13],[44,-21],[25,0],[29,20],[31,39],[20,18],[3,14],[-13,16],[6,12],[27,-8],[3,14],[-22,3],[1,15],[36,-4],[5,-24],[24,9],[16,-3],[11,-22],[69,-12],[7,31],[15,-19],[-12,-15],[10,-10],[27,-4],[42,20],[41,7],[15,-21],[32,7],[51,-18],[22,4],[24,-31],[15,6],[22,-12],[14,32],[23,8],[35,-1],[35,19],[11,14],[27,-11],[29,8],[-2,14],[26,18],[-5,13],[35,28],[24,56],[36,16],[7,9],[36,18],[20,33],[216,303]],[[3523,13570],[19,25],[13,33],[23,120],[11,140],[3,18],[68,225]],[[6178,13023],[13,-91],[-29,-99],[5,-105],[23,-17]],[[6190,12711],[19,-14],[76,-23],[30,-30],[10,-58],[-3,-77],[21,-148],[-9,-53],[-47,-61],[-8,-24],[-1,-57],[37,-143],[1,-36],[-23,-19],[-196,-95],[-33,-19],[-110,16],[-75,-6],[-67,-24],[-109,-75],[-41,9],[-27,56],[-37,42],[-26,12],[-42,-6],[-28,-19],[-46,-43],[-15,-19],[-37,-31],[-47,-3],[-33,11],[-17,16],[-9,29],[-2,30],[11,43],[1,39],[-4,37],[-48,3],[-29,-11],[-8,-15],[-34,-32],[-26,-30],[-24,-15],[-30,-6],[-24,15],[-10,27],[19,89],[-7,45],[-10,34],[-30,30],[-59,12],[-44,-11],[-48,-32],[-15,-35],[2,-44],[10,-98],[-8,-32],[-51,-30],[-33,2],[-27,20],[-18,33],[-14,16],[-7,22],[-37,28],[-42,4],[-63,-28],[-23,-24],[-7,-17],[-2,-106],[-10,-44],[-17,-23],[-82,-22],[-50,-4],[-31,17],[-32,29],[-24,33],[-11,43],[-7,89],[-8,34],[-26,32],[-40,20],[-51,4],[-49,-19],[-49,-30],[-40,6],[-31,43],[-28,51],[14,60],[3,46],[-2,41],[-7,3],[-36,42],[-178,22],[-79,6],[-50,-9],[-8,-12],[0,-54],[14,-45],[11,-53],[-5,-57],[-47,-62],[-54,-24],[-55,0],[-49,32],[-21,54],[-27,57],[-48,50],[-19,9]],[[10684,16139],[-3,16],[-17,29],[-41,4],[1,22],[-18,32],[-2,17],[9,12],[-17,12],[3,18],[-15,35],[1,16],[22,21],[9,59],[24,6],[-6,26],[33,15],[-29,22],[21,18],[-25,29],[10,19],[14,-6],[16,26],[-16,12],[14,13],[-25,15],[3,18],[-12,14],[21,48],[-25,32],[17,10],[1,23],[19,15],[-5,22],[7,15],[35,31],[-3,28],[7,42],[7,13],[-13,14],[-2,43],[24,9],[12,17],[-3,27],[7,18],[38,37],[-1,61],[18,7],[3,20],[-23,58],[2,17],[-13,14],[24,58],[-9,10],[25,22],[-8,9],[14,30],[-18,14],[24,25],[13,4],[-6,20],[8,19],[-16,8],[-14,-5],[0,38],[-11,7],[-4,85],[13,-7],[19,30],[-18,32],[17,26],[-1,25],[16,36],[-19,13],[-4,26],[5,15],[-14,9],[-6,28],[-24,26],[-18,2],[7,22],[-26,29],[12,13],[9,44],[3,46],[22,25],[9,20],[28,1],[18,55],[-3,15],[35,95],[38,52],[18,36],[37,26],[10,16],[8,35],[-8,15],[12,18],[-11,72],[2,28],[15,9],[36,88],[-1,31],[34,25],[8,37],[28,56],[6,30],[204,-181]],[[12889,14266],[422,479]],[[13311,14745],[236,-96],[46,-12],[147,-9]],[[13740,14628],[-2,-37],[-63,4],[-6,-3],[-3,-46],[3,-21],[35,-98],[100,-61],[21,-22],[21,-45],[57,-47],[-32,-29]],[[13871,14223],[-256,-224],[-112,-98],[-88,95],[-21,15],[-195,99],[-310,156]],[[973,13377],[2,13],[-35,51],[3,36],[14,19],[35,-1],[52,5],[17,18],[-3,30],[-55,67],[-6,17],[11,50],[-3,53],[-22,29],[-36,3],[-22,-21],[-24,-53],[-12,-9],[-27,-2],[-40,13],[-37,22],[-12,61],[-21,35],[12,30],[14,19],[22,17],[34,10],[51,-20],[38,-19],[27,4],[13,9],[29,64],[26,48],[7,31],[-9,32],[-23,7],[-66,-30],[-40,-31],[-32,11],[-39,45],[-4,23],[9,28],[24,11],[39,-21],[29,-4],[38,13],[20,23],[53,77],[6,18],[-25,33],[-15,9],[-28,46],[-1,46],[4,27],[19,38],[16,57],[-6,15],[-37,8],[-67,0],[-18,30],[0,29],[24,52],[48,36],[31,36],[26,40],[47,50],[27,26],[97,60],[48,42],[59,22],[24,4],[18,-7],[17,-20],[43,-19],[39,-24],[49,-21],[37,-12],[43,-4],[110,-38],[28,-18],[61,6],[72,-5],[21,12],[15,17],[35,-4],[10,-17],[3,-32],[31,-1],[67,-34],[10,-21],[29,-20],[37,23],[38,3],[36,7],[15,9],[23,-2],[29,9],[16,29],[41,36],[15,27],[3,35],[28,23],[0,15],[42,43],[4,24],[-6,13],[7,50],[35,23],[17,4],[-16,28],[19,13],[23,-7],[6,24],[14,30],[42,18],[14,26],[11,37],[10,16],[63,8],[54,-7],[21,17],[35,50],[-5,57],[18,44],[-4,28],[-8,14],[11,56],[17,52],[4,33],[33,19],[3,16],[16,23],[14,34],[32,33],[5,23],[25,21],[45,46],[-3,17],[4,41],[-8,19],[-1,29],[17,28],[36,46],[129,-5],[22,-26],[6,-15],[26,-24],[24,-11],[22,7],[26,19],[29,10],[53,5],[85,-12],[24,-22],[27,-4],[36,28],[58,35],[53,27],[46,17],[41,23],[28,30],[28,22],[72,84],[24,23],[29,38],[33,30],[38,52],[120,116],[3,24],[291,268]],[[6017,13425],[-4,62],[9,64],[-237,81]],[[7904,15284],[411,130],[727,229],[3,-7],[307,-945]],[[9352,14691],[-444,-265],[-61,-29],[-40,-14],[-456,-81],[-245,-43]],[[8106,14259],[27,195]],[[8133,14454],[34,253],[-55,5],[-80,-1],[-72,10],[-19,5],[-37,558]],[[7862,16968],[461,-397],[502,-433],[226,-196],[87,-75],[489,-421]],[[9627,15446],[125,-384],[73,-221],[-473,-150]],[[7904,15284],[-8,166],[-6,268],[-16,235],[-5,193],[1,263],[-9,509],[1,50]],[[6839,14118],[31,-192]],[[6870,13926],[37,-246],[21,-153]],[[6928,13527],[-376,85],[-100,23]],[[6452,13635],[31,48],[13,51],[9,90],[-7,53],[-18,64],[-14,66],[-19,41],[-6,43]],[[9627,15446],[286,-244],[552,-469]],[[10465,14733],[16,-26],[3,-25],[15,-6],[2,-15],[30,-13],[-6,-15],[5,-34],[-6,-17],[-20,-25],[-10,-39],[-9,-16],[4,-13],[21,-11],[4,-16],[-5,-27],[-125,-52],[37,-81]],[[10421,14302],[26,-55]],[[10447,14247],[-169,-66],[-34,2],[-253,-108],[-124,-148],[-22,-9],[-29,-2],[-31,-22],[-17,-6],[-79,-6],[-105,-22],[-23,-8],[-59,-3],[-42,-22],[-14,-12],[-28,-3],[-13,7],[-34,-11],[-39,4],[-18,10],[-68,-23],[-27,5],[-61,-10],[-39,-22],[-39,-5],[-34,6],[-26,-10],[-61,30],[-38,0],[-52,17],[-20,0],[-40,-10],[-15,-16],[-33,-3],[-50,-22],[-36,-3],[-52,-25],[-36,-38],[-43,-27]],[[8166,13760],[-121,28]],[[8045,13788],[25,211],[36,260]],[[6871,11028],[241,129],[67,35]],[[9249,12342],[17,-34],[483,-939],[16,-16],[82,-10],[30,-13]],[[9877,11330],[12,-6],[18,-29],[17,-17],[-2,-15],[42,-31],[32,-19],[1,-11],[31,-16],[28,-26],[34,-21],[25,-7],[46,-23],[28,-67],[21,7],[37,-28],[29,1],[45,-22],[21,11],[30,-20],[38,-1],[11,-12],[31,-15],[23,-30],[13,-27],[-4,-15],[24,-41],[21,-68],[17,-6],[8,-22]],[[10554,10754],[-23,-4],[-33,1],[-13,-8],[-31,10],[-22,-7],[-19,-16],[-11,4],[-20,24],[-41,-1],[-13,11],[-36,-4],[-23,-36],[-24,-3],[-40,8],[-19,-5],[-14,-14],[-55,-66],[-74,-48],[-65,-53],[-43,-25],[-51,-23],[-53,-67],[-34,-25],[-21,-28],[-66,-20],[-28,-16],[-17,-22],[-43,-34],[-3,-14],[-39,-43],[-821,-244],[-43,-85],[-26,-22],[-16,-21],[-34,-36],[-12,-22],[-26,-16],[-37,-44],[-15,-30],[-33,-39],[-25,-53],[-35,-27],[-30,-46],[-29,-68],[-10,-44],[-9,-19],[-18,-15],[-9,-24],[-23,-33],[-15,-46],[-19,-34],[-26,-12],[-19,-20],[-12,-2],[-56,-39],[-26,-31],[-27,-12]],[[8129,9146],[-26,38],[-175,165],[-341,327],[-302,284],[-24,23],[212,146],[-182,213],[-63,72],[-39,56],[-83,146],[-71,127],[-76,130],[-88,155]],[[6963,13227],[23,-170],[-39,-36],[-61,-9],[-39,-16],[-41,5]],[[6806,13001],[-34,104],[-2,90],[193,32]],[[10871,11931],[-382,-231],[-368,-223],[-244,-147]],[[8852,13087],[745,-170],[563,-127],[554,-126]],[[8129,9146],[-20,-6],[-16,-28],[-33,-31],[-37,-14],[-7,-21],[-35,-31],[-12,10],[-13,-11],[-14,3],[-3,-30],[-22,-10],[-12,4],[-10,19],[-26,-22],[3,-27],[-29,-5],[-26,-20],[-54,-3]],[[7763,8923],[-48,-9],[-32,-10],[-73,14],[-87,1],[-56,-2],[-39,-14],[-24,-14],[-42,-14],[-71,-11],[-44,1],[-33,14],[-63,-23],[-42,-29],[-1,-8],[-41,-13],[-28,0],[-3,-49],[36,-64],[21,-5],[35,5],[30,-19],[4,-33],[-15,-35],[-66,-10],[-26,-8],[-42,-5],[-10,-18],[18,-27],[-7,-31],[-24,-21],[-60,20],[-28,36],[-10,1],[-35,-23],[-26,2],[-29,17],[-38,-13],[-25,-17],[-36,-3],[-10,16],[-26,14],[-56,-20],[-36,34],[-16,9],[-32,5],[-8,-10],[-5,-36],[8,-31],[16,-28],[28,-24],[46,-30],[-17,-26],[-75,20],[-54,5],[-40,-6],[-20,-20],[-21,-31],[-35,-10],[-33,4],[-15,13],[-6,24],[6,20],[28,20],[36,5],[22,14],[-3,34],[-16,11],[-21,-3],[-59,-20],[-25,-2],[-20,-9],[-46,-43],[-20,-12],[-21,-1],[-14,13],[-5,20],[3,49],[-4,83],[-8,24],[-16,24],[-30,12],[-49,-5],[-37,-47],[1,-41],[48,-56],[1,-30],[-48,-47],[-28,-16],[-142,-28]],[[5829,8347],[-16,75],[-29,51],[6,22],[-22,15],[0,15],[-17,28],[-3,20],[-24,70],[-67,65],[-20,12],[-23,44],[-28,21],[-27,26],[7,22],[4,44],[8,6],[-75,97],[-21,11],[-22,2],[-11,13],[-16,-8],[-54,17],[-20,-7],[-56,4],[-31,21],[-46,20],[-87,10],[-12,4],[-7,37],[-11,5],[-45,1],[-50,-3],[-25,-33],[-18,-6],[-22,-23],[-8,-23],[-12,-6],[-24,14],[-11,-48],[-10,-4],[-10,-26],[-19,-20],[-107,-9]],[[4748,8923],[-2,28],[-10,14],[-24,15],[-37,13],[-29,36],[15,58],[22,18],[102,21],[75,34],[29,35],[7,52],[-4,44],[-19,55],[-42,39],[-57,37],[-11,12],[-20,42],[13,53],[15,25],[12,52],[3,26],[-5,37],[1,98],[12,56],[1,88],[-4,51],[6,41],[16,26],[70,52],[88,27],[31,16],[24,40],[-1,18],[-19,49],[-31,12],[-54,47],[-11,28],[12,36],[41,9],[36,40],[12,20],[3,27],[2,83],[14,8],[39,-5],[36,2],[13,28],[-4,27],[5,11],[30,16],[45,0],[64,-12],[26,26],[23,61],[8,10],[64,34],[4,45],[7,16],[53,-3],[22,12],[30,-41],[-2,-12],[42,-26],[7,-32],[27,14],[26,-19],[18,1],[19,-10],[21,9],[15,-15],[36,-11],[43,-7],[61,19],[53,31],[51,15],[36,24],[57,29],[45,54],[53,37],[48,15],[32,2],[66,-15],[96,-56],[23,-3],[20,-15],[16,-26],[23,3],[52,37],[44,50],[25,8],[55,7],[268,152]],[[6190,12711],[61,55],[27,-2],[8,15],[29,7],[9,13],[34,8],[26,32],[43,13],[42,30],[21,6],[59,23]],[[4748,8923],[-45,-4],[-5,-19],[-16,-19],[-4,-25],[-14,-10],[15,-34],[-17,-26],[2,-12],[-17,-16],[-14,-29],[2,-17],[-17,-33],[9,-9],[-8,-21],[5,-15],[-15,-19],[-46,-37],[-27,-2],[-4,-17],[-17,7],[10,31],[-5,15],[-47,17],[-17,-16],[-8,24],[-13,18],[-5,20],[-18,20],[-16,2],[-20,19],[-19,1],[-45,49],[-38,15],[-56,62],[-12,32],[-21,20],[11,27],[-31,24],[-9,-20],[-18,19],[-14,2],[-20,28],[-9,-3],[-12,24],[-24,14],[-27,0],[-21,15],[-2,26],[-11,24],[-15,10],[-24,3],[-16,14],[-5,19],[-29,43],[-18,6],[-26,24],[-9,20],[-23,18],[-5,21],[-19,23],[-23,14],[-24,51],[-18,47],[-30,48],[6,12],[-12,26],[-12,71],[-17,45],[-24,24],[-8,22],[-30,29],[-17,47],[-13,18],[-4,26],[-16,28],[-12,33],[-15,96],[-19,64],[-18,42],[-23,17],[2,46],[-21,31],[-31,24],[-16,29],[2,35],[-12,20],[6,38],[-10,94],[10,16],[-1,25],[-11,53],[-24,11],[-26,22],[-17,-14],[-30,25],[-2,22],[-47,-17],[-18,26],[2,20],[13,11],[0,39],[-31,33],[-19,1],[-44,18],[4,16],[-27,20],[-22,7],[-30,16],[-30,2],[-36,12],[-13,19],[-23,9],[-22,-6],[-32,12],[-82,8],[-20,6],[-10,-22],[-18,5],[-47,-9],[-29,8],[-9,-16],[-17,-1],[-5,14],[-22,-12],[-52,-11],[-15,-9],[-29,-2],[-8,-17],[-18,16],[-26,-7],[-7,-11],[12,-23],[-12,-16],[36,-77]],[[5829,8347],[22,-94],[-2,-43],[-13,-16],[-19,-53],[37,-26],[10,-32],[9,-56],[23,-32],[46,-26],[32,-22],[96,-23],[17,-1],[76,-21],[41,-17],[38,-24],[29,-39],[26,-13],[31,-23],[21,-8],[19,-16],[31,-14],[13,5],[30,-4],[28,-23],[56,-35],[62,-23],[124,-64],[27,-18],[30,-8],[15,-29],[15,-12],[69,-29],[86,15],[17,-9],[31,-30],[27,-20],[27,-46],[16,-19],[24,-13],[19,-22],[9,-32],[11,-13],[36,-3],[-1,-33],[-12,-7],[9,-39],[12,-22],[7,-36],[-7,-21],[24,-25],[31,-62],[30,-43],[32,-56],[43,-61],[20,-10],[30,-2],[6,16],[33,35],[22,2],[10,16],[50,30],[25,-1],[35,-12],[-14,-14],[4,-17],[25,-2],[10,-25],[44,5],[22,-13],[17,-2],[15,-19],[2,-20],[20,-27],[15,1],[25,-12],[29,-27],[41,-55],[41,-35],[43,-66],[43,-86],[25,-73],[8,-43],[8,-10],[13,-75],[1,-50],[14,-48],[-1,-24],[9,-34],[14,-15],[20,-49],[3,-49],[-8,-12],[1,-24],[-15,-40],[-5,-50],[6,-38],[24,-20],[16,1],[40,-22],[15,-45],[32,-21],[-3,-22],[14,-33],[-38,-100],[-18,-9],[-37,-46],[-5,-40],[-34,-19],[-10,-53],[-29,-84],[2,-48],[12,-32],[19,18],[36,-9],[29,-23],[20,-21],[5,-22],[18,-9],[18,-20],[-4,-27],[5,-21],[46,-35],[15,-23],[23,15],[26,-24],[26,-4],[0,-16],[21,-19],[27,-56],[11,-32],[-1,-25],[19,-5],[6,-12],[39,-29],[3,-32],[30,-16],[10,-22],[23,-26],[47,-20],[32,23],[18,-3],[33,-23],[-9,-30],[23,-20],[48,5],[13,26],[13,-2],[28,-50],[25,-30],[-1,-18],[19,-17],[3,-18],[27,-16],[12,-19],[16,-8],[2,-31],[14,-32],[3,-19],[25,2],[17,-19],[15,-5],[12,14],[23,1],[4,25],[31,44],[-6,22],[2,33],[8,15],[39,20],[13,12],[4,25],[37,34],[-6,24],[21,27],[39,7],[13,14],[-3,23],[34,7],[14,34],[17,10],[25,-8],[15,34],[13,9],[-4,15],[44,28],[-2,22],[19,18],[1,30],[-14,12],[6,27],[31,49],[2,15],[38,46],[10,20],[43,44],[-1,11],[13,29],[1,36],[-10,15],[18,18],[25,52],[15,23],[24,26],[19,-5],[11,37],[26,25],[-7,20],[37,28],[56,37],[25,2],[33,9],[23,-11],[14,38]],[[11618,5755],[24,29],[47,70],[9,-8],[37,4],[12,-11],[32,8],[26,-23],[21,-3],[16,17],[24,3],[30,-32],[37,-20],[70,-26],[18,-58],[15,-12],[23,-3],[8,-10],[40,-12],[38,-39],[19,-30],[7,-44],[-3,-68],[34,-17],[7,-19],[8,-73],[-5,-12],[-27,-11],[-55,-52],[-17,-6],[-3,-13],[-17,-9],[-12,-44],[4,-19],[-21,-57],[-5,-49],[5,-27],[18,0],[44,-15],[0,-9],[43,-15],[140,-5],[61,2],[61,-5],[97,-14],[45,-10],[10,-9],[41,-8],[90,-28],[60,-15],[23,6],[124,1],[29,12],[24,17],[59,15],[128,-3],[15,-4],[49,-1],[101,-12],[88,-2],[51,-7],[68,1],[12,24],[18,8],[41,-18],[57,-7],[100,-24],[46,4],[88,-18],[30,-10],[59,-10],[163,-50],[48,-17],[63,-3],[88,-36],[32,-15],[83,-29],[51,-31],[22,-10],[52,-13],[24,-9],[73,-9],[38,-15],[41,-28],[31,-12],[57,-35],[74,-52],[119,-61],[71,-43],[32,-7],[41,-27],[24,-7],[46,-26],[48,-2],[17,12],[23,35],[7,27],[11,7]],[[15363,4464],[-7,-37],[-16,-36],[-2226,-1343],[-207,-125],[-659,-391],[-1034,-627],[-1934,-1160],[-1269,-745],[-328,412],[-345,426],[-635,1086],[-159,271],[-143,261],[-376,676],[-324,599],[-26,43],[-554,906],[-425,692],[-514,838],[-455,736],[-139,223],[-329,346],[-411,429],[-711,738],[-292,303],[-388,413],[-212,228],[-529,573],[-716,778],[924,736],[180,190],[-5,12]],[[10554,10754],[17,-8],[29,-4],[55,26],[17,2],[46,-11],[15,6],[44,-3],[17,-12],[36,-5],[8,-11],[42,-16],[33,-5],[44,9],[29,-22],[35,0],[19,8],[43,-3]],[[10980,7214],[-766,497],[-31,14],[-80,29],[-27,19],[-107,90],[-175,159],[-52,22],[-40,24],[-89,85],[-37,28],[-52,34],[-31,12],[-444,103],[-30,8],[-179,52],[-54,23],[-504,256],[-122,60],[-25,16],[-47,18],[-316,73],[51,35],[-42,28],[-18,24]],[[14092,11802],[-9,7]],[[14083,11809],[75,65],[3,-3],[207,182],[216,184],[89,-122],[17,-10],[14,10],[9,28],[27,15],[22,20],[40,-5],[27,-13],[41,25],[7,10],[38,28],[13,16],[63,50],[37,53],[53,57],[11,48],[8,9],[7,40],[-2,31],[8,34],[23,15],[10,29],[9,9],[-1,26],[6,21],[-10,14],[12,13],[-7,21],[4,17],[-7,20],[4,49],[12,18],[23,16],[17,0],[60,21],[9,15],[59,17],[12,11],[39,17],[11,15],[40,29],[25,9],[62,48],[14,23],[3,31],[19,16],[-2,12],[18,25],[2,18],[-15,23],[1,51],[-13,37],[2,16],[-10,15],[-8,30],[-3,49],[14,16],[10,29],[-17,35],[-29,-1],[-40,26],[-51,22],[-12,30],[2,19],[14,24],[-3,49],[19,57],[9,5],[7,31],[21,40],[34,30],[11,43],[19,34],[-1,20],[10,22],[-5,36],[1,37],[10,23],[35,56],[27,25],[17,29],[13,11],[17,32],[22,15],[27,26],[34,22],[46,63],[18,34],[0,29],[11,15],[12,31],[15,18],[1,32],[8,38],[16,35],[14,66]],[[15889,14561],[710,-607],[108,-102],[365,-335],[-10,-19],[-20,0],[-12,-17],[6,-34],[17,-36],[-3,-48],[29,-27],[-1,-23],[25,-29],[13,-43],[20,-15],[19,-29],[-1,-30],[-7,-22],[10,-42],[10,-18],[-2,-37],[-11,-32],[3,-49],[-6,-44],[-11,-33],[-26,-53],[-24,-31],[-40,-42],[-16,-27],[-8,-39],[-14,-30],[-2,-55],[23,-53],[-1,-31],[-21,-37],[-4,-29],[7,-9],[3,-35],[11,-40],[16,-38],[16,-24],[1,-28],[24,-36],[11,-27],[31,-46],[8,-52],[28,-35],[25,-63],[2,-25],[0,-75],[-9,-24],[9,-21],[3,-37],[-9,-61],[4,-21],[-24,-70],[-34,-50],[16,-36],[-19,-32],[-8,-1],[-36,-64],[-10,-44],[-24,-38],[-17,-36],[-15,-43],[-23,-33],[2,-17],[-14,-16],[-27,-92],[6,-19],[1,-40],[15,-13],[3,-19],[-9,-16],[-5,-54],[3,-25],[-6,-56],[-9,-33],[-22,-14],[-25,-95],[-2,-26],[-14,-21],[1,-22],[-13,-40],[-5,-36],[-19,-17],[1,-29],[-9,-18],[6,-17],[-13,-44],[6,-26],[14,-25],[-8,-24],[-11,-4],[-9,-50],[-19,-29],[7,-71],[8,-4],[14,-36],[-12,-46],[8,-28],[0,-99],[-7,-7],[11,-56],[-7,-38],[52,-59],[7,-34],[14,-21],[10,-54],[-96,20],[-32,-36],[-23,-41],[-34,-122],[-17,-32],[-79,-103],[-80,-98],[-18,-17],[-46,-29],[-180,-109],[-145,-946],[-178,-1159],[-90,-588],[-312,-195],[-164,-102],[-46,-4],[-15,-21],[-55,-7],[-33,-24],[-32,6],[-43,-23],[-29,1],[-15,-11],[-21,-34],[2,-24],[-21,-33],[-6,-31],[29,-19],[-4,-17],[-24,-11],[4,-30],[-17,-14],[-27,14],[-18,-7],[-1,-34],[37,-11],[3,-25]],[[15092,5913],[-43,9],[-55,16],[-68,27],[-52,10],[-41,-4],[-145,-42],[-38,-17],[-78,-54],[-48,-22],[-70,-14],[-182,-35],[-38,1],[-21,6],[-42,31],[-69,85],[-16,24],[-35,87],[-12,35],[-58,229]],[[13765,6825],[-36,60],[-9,29],[-2,33],[19,331],[4,39],[25,228],[19,180],[11,39],[153,317],[23,67],[7,57],[-4,52],[-17,59],[-15,30],[-133,244],[-11,-5],[-462,-112],[-171,-43],[-19,4]],[[10465,14733],[19,15],[-8,19],[20,32],[18,-5],[13,18],[-1,17],[22,1],[18,14],[-15,21],[7,63],[-20,3],[8,34],[-20,14],[14,17],[-16,35],[10,11],[-5,33],[9,31],[20,2],[29,30],[-15,15],[4,23],[-21,6],[-2,18],[12,17],[-9,16],[10,39],[48,14],[5,20],[16,19],[-3,11],[-23,10],[15,19],[4,43],[8,40],[26,-8],[6,18],[-18,2],[14,32],[-10,20],[40,24],[6,20],[-5,69],[38,18],[1,25],[17,16],[-15,16],[7,18],[24,11],[-12,14],[17,11],[-3,16],[-27,17],[9,18],[-11,32],[-10,2],[-13,37]],[[12090,14973],[-11,-156]],[[12079,14817],[-13,-220],[-7,-88],[-12,-191]],[[12047,14318],[-813,51],[-540,33],[-33,-1],[-44,-16],[-196,-83]],[[12047,14318],[729,-45],[113,-7]],[[12889,14266],[-268,-305]],[[12621,13961],[-203,-230],[174,-100],[84,-18],[29,-8],[106,-90],[108,-130],[-61,-57],[-177,-154],[-142,-122]],[[12539,13052],[-420,338]],[[12119,13390],[-44,35],[-1133,911],[-110,7]],[[10832,14343],[-139,8],[-246,-104]],[[12119,13390],[-84,-194],[-55,23],[-54,-2],[-47,21],[-32,-136],[-54,-238]],[[11734,13307],[-89,-209],[-97,41],[-3,-2],[-96,-227],[10,-18],[-15,-24],[16,-85],[13,-4],[23,15],[10,-12]],[[11343,12641],[-24,22],[-176,346],[-56,297],[-32,205],[-47,179],[-28,68],[-64,62],[-57,173],[-19,15],[-9,21],[-4,79],[24,10],[42,127],[-8,21],[12,47],[-23,18],[-42,12]],[[12383,15242],[266,-17],[6,97],[-1,21],[10,153]],[[12664,15496],[6,0]],[[12856,15485],[-36,-156],[-163,-465]],[[12657,14864],[-28,-6],[-271,-21]],[[12358,14837],[13,206],[12,199]],[[12125,15529],[212,-13]],[[12337,15516],[62,-4]],[[12399,15512],[-1,-33],[-15,-237]],[[12358,14837],[-279,-20]],[[12657,14864],[5,2],[239,-34],[273,-16],[11,166]],[[13185,14982],[305,-19],[12,-1]],[[13502,14962],[-191,-217]],[[5065,17446],[243,270],[93,104],[581,648],[537,-428],[224,-175],[822,-655]],[[7565,17210],[-25,8],[-76,12],[-55,7],[-4,-7],[-391,-294],[-3,-7]],[[7011,16929],[-68,-47],[-230,-165],[-141,-103],[-81,-62],[-42,-35],[-211,327],[-219,-147],[-3,-4]],[[6016,16693],[-41,-81],[-6,-18],[-25,-97],[-22,-41],[-91,-92],[-16,-12],[-70,-38],[-59,-35],[-91,-77],[-22,-26],[-23,-42],[-21,-88],[-10,-31],[-34,-63],[-28,-112],[-53,2]],[[15092,5913],[-8,-17],[-33,-4],[-6,-27],[20,-24],[-19,-30],[6,-13],[27,-8],[7,-30],[-27,-17],[4,-20],[22,-9],[22,-36],[1,-17],[-32,-8],[-13,22],[-20,-13],[-2,-23],[-10,-17],[7,-15],[26,1],[12,-25],[15,-16],[23,4],[5,-26],[-12,-34],[17,5],[12,-9],[1,-22],[12,-23],[-7,-25],[-26,2],[-2,-12],[18,-25],[-16,-26],[-26,7],[-25,25],[-7,-8],[24,-35],[-7,-12],[-26,-24],[5,-110],[-15,-45],[4,-11],[21,-17],[-2,-35],[14,-9],[53,27],[34,2],[20,20],[26,7],[18,-10],[31,-47],[2,-14],[-16,-22],[-31,-29],[-11,-30],[-43,-10],[-11,-21],[-22,-19],[14,-17],[7,-40],[-5,-28],[47,-29],[12,12],[-10,31],[15,9],[27,-31],[35,-13],[43,21],[33,-17],[42,1],[15,-11],[-6,-15],[-34,-24],[-9,-15],[-2,-31],[-11,-20],[-1,-23],[39,-65],[4,-39],[41,-18],[6,-18],[-9,-16],[2,-24],[21,-39],[-15,-13],[-33,-1],[-31,-19]],[[6185,13684],[102,-12],[72,-16]],[[6359,13656],[-6,-49],[2,-17],[25,-125],[18,-53],[8,-122],[23,-94],[120,-285]],[[6016,16693],[12,-76],[10,-24],[81,-122],[5,-12],[10,-150],[19,-291],[227,-22],[171,-23],[9,-4],[113,-13],[126,-52],[27,-65]],[[6826,15839],[5,-19],[24,-147],[34,-220],[7,-92],[3,-80],[15,-203],[1,-37],[-4,-36],[-30,-127]],[[6881,14878],[-455,-31],[-25,-6],[-92,-33],[-60,-10],[-5,57],[-46,-4],[-4,34],[-20,10],[-293,-28],[-52,-5],[5,-24],[22,-38],[40,-20],[8,-50],[28,-16],[-29,-26],[-41,5],[-19,-3],[-37,-18]],[[6881,14878],[19,11],[32,48],[-5,-32],[-10,-104],[6,-78],[-6,-66],[153,71],[194,91],[307,142],[83,-169],[15,-18],[86,-60],[378,-260]],[[8045,13788],[-57,14],[-350,86],[-10,9],[-11,45],[-25,23],[-5,21],[-18,18],[-21,-4],[-33,7],[-58,-8],[-35,8],[-12,-12],[-21,-5],[-61,7],[-70,-14],[-9,-5],[-36,-43],[-53,-24],[-39,0],[-24,5],[-32,-15],[-37,7],[-47,3],[-32,-16],[-32,-5],[-24,14],[-23,22]],[[6296,14334],[-47,-18],[-38,-6],[-50,-55],[-20,0]],[[6293,14314],[-16,-107],[-26,-186],[61,1]],[[6312,14022],[-27,-40],[-29,-55],[31,-14],[-20,-44]],[[11876,15921],[230,-14],[35,-2],[-2,-37],[279,-17],[3,44],[50,-2]],[[12464,15773],[-17,-264]],[[12447,15509],[-48,3]],[[12337,15516],[14,225],[-219,13]],[[12132,15754],[-265,16]],[[6359,13656],[93,-21]],[[6928,13527],[4,-33],[22,-198],[9,-69]],[[6806,13001],[-7,-1]],[[12856,15485],[359,-24]],[[13215,15461],[-30,-479]],[[12621,13961],[238,-157],[130,-89],[29,-24],[177,-202],[84,-97],[80,-88],[23,-22],[11,-20],[17,-97],[-389,-137],[26,-339],[-49,-6]],[[12998,12683],[-292,235]],[[12706,12918],[-167,134]],[[13871,14223],[15,-21],[44,-34],[-9,-73],[16,-51],[3,-44],[21,-39],[5,-18],[16,7],[32,33],[4,28],[25,12],[19,22],[14,5],[17,39],[0,42],[-8,36],[21,24],[2,36],[6,30],[25,19],[12,22],[-5,44],[31,23],[-5,34],[4,24],[-6,15],[3,49],[-6,9],[22,33],[1,15],[-28,42],[-2,16]],[[14517,15785],[808,-722],[564,-502]],[[14083,11809],[-1085,874]],[[12539,13052],[-193,-168],[4,-5],[6,-84]],[[12023,12717],[-3,160],[-225,-18]],[[12706,12918],[-246,-87],[98,-316],[23,-97],[11,-66]],[[13906,15419],[-691,42]],[[13215,15461],[34,533],[354,-21],[197,-12]],[[13548,15014],[-46,-52]],[[13975,14838],[-6,-43],[-11,-180],[-218,13]],[[7011,16929],[-22,-78],[-11,-52],[-6,-70],[20,-134],[6,-82],[-5,-114],[-2,-86],[5,-116],[-9,-34],[-19,-32],[-42,-41],[-31,-53],[-33,-85],[-11,-36],[-16,-77],[-9,0]],[[12118,15529],[14,225]],[[6384,14130],[-72,-108]],[[6359,13656],[4,47],[-7,73],[-32,-3],[-9,100],[-48,-4]],[[7565,17210],[172,-137],[125,-105]],[[12664,15496],[-217,13]]],"transform":{"scale":[0.00003448793113476411,0.000027229441138971374],"translate":[-75.444751,39.056179]},"objects":{"Geometry\\34-011":{"type":"GeometryCollection","geometries":[{"arcs":[[0,1,2,3,4,5]],"type":"Polygon","properties":{"GEOID":"340110206001"}},{"arcs":[[-5,6,7,8,9,10,11]],"type":"Polygon","properties":{"GEOID":"340110206002"}},{"arcs":[[12,13,14,15,-9]],"type":"Polygon","properties":{"GEOID":"340110206003"}},{"arcs":[[16,17,18,19,20,21]],"type":"Polygon","properties":{"GEOID":"340110302001"}},{"arcs":[[22,-21,23,24]],"type":"Polygon","properties":{"GEOID":"340110302002"}},{"arcs":[[25,-24,-20,26,27,28,29,30]],"type":"Polygon","properties":{"GEOID":"340110302005"}},{"arcs":[[31,32,33]],"type":"Polygon","properties":{"GEOID":"340110303001"}},{"arcs":[[34,35,36,-34,37,-31,38,39]],"type":"Polygon","properties":{"GEOID":"340110303002"}},{"arcs":[[-40,40,41,42]],"type":"Polygon","properties":{"GEOID":"340110303003"}},{"arcs":[[43,44,45]],"type":"Polygon","properties":{"GEOID":"340110305012"}},{"arcs":[[-28,46]],"type":"Polygon","properties":{"GEOID":"340110305022"}},{"arcs":[[47,48,49,50,51]],"type":"Polygon","properties":{"GEOID":"340110403002"}},{"arcs":[[52,53,54,55]],"type":"Polygon","properties":{"GEOID":"340110404001"}},{"arcs":[[56,-56,-49,57,58]],"type":"Polygon","properties":{"GEOID":"340110404002"}},{"arcs":[[59,60,-59,61,62]],"type":"Polygon","properties":{"GEOID":"340110404003"}},{"arcs":[[63,-63,64,65,66]],"type":"Polygon","properties":{"GEOID":"340110404004"}},{"arcs":[[67,68,69,70,71]],"type":"Polygon","properties":{"GEOID":"340110405001"}},{"arcs":[[72,73,-68,74]],"type":"Polygon","properties":{"GEOID":"340110405002"}},{"arcs":[[75,76,77,78,79,80,81,82]],"type":"Polygon","properties":{"GEOID":"340110408001"}},{"arcs":[[83,84,-67,85,-73,86,87]],"type":"Polygon","properties":{"GEOID":"340110409012"}},{"arcs":[[88,89,90]],"type":"Polygon","properties":{"GEOID":"340110409021"}},{"arcs":[[91,92,93,94,-90]],"type":"Polygon","properties":{"GEOID":"340110409022"}},{"arcs":[[-94,95,96,-60,-64,-85,97]],"type":"Polygon","properties":{"GEOID":"340110409023"}},{"arcs":[[98,99,-78,100,-53,-57,-61,-97]],"type":"Polygon","properties":{"GEOID":"340110409025"}},{"arcs":[[101,102,-22,-23,103]],"type":"Polygon","properties":{"GEOID":"340110302003"}},{"arcs":[[104,105]],"type":"Polygon","properties":{"GEOID":"340110101031"}},{"arcs":[[106]],"type":"Polygon","properties":{"GEOID":"340110104021"}},{"arcs":[[-3,107,108,109,110]],"type":"Polygon","properties":{"GEOID":"340110201001"}},{"arcs":[[111,112,113,114,115]],"type":"Polygon","properties":{"GEOID":"340110204001"}},{"arcs":[[116,117,118,-104,-25,-26,-38,-33,119]],"type":"Polygon","properties":{"GEOID":"340110301001"}},{"arcs":[[120,121,-11,122,123]],"type":"Polygon","properties":{"GEOID":"340110106003"}},{"arcs":[[124,125,126]],"type":"Polygon","properties":{"GEOID":"340110102002"}},{"arcs":[[127,128,-6,-12,-122,129]],"type":"Polygon","properties":{"GEOID":"340110106001"}},{"arcs":[[130,131,132,133,134]],"type":"Polygon","properties":{"GEOID":"340110105002"}},{"arcs":[[135,-42,136,137]],"type":"Polygon","properties":{"GEOID":"340110305011"}},{"arcs":[[-29,-47,-27,-19,138,139,140,141]],"type":"Polygon","properties":{"GEOID":"340110305021"}},{"arcs":[[142,-127,143,-44,144,145,146,147,148]],"type":"Polygon","properties":{"GEOID":"340110102004"}},{"arcs":[[149,150,151,152,153,154,155],[-107]],"type":"Polygon","properties":{"GEOID":"340110104012"}},{"arcs":[[-71,156,157,158,159]],"type":"Polygon","properties":{"GEOID":"340110405003"}},{"arcs":[[-50,-55,160,161,162]],"type":"Polygon","properties":{"GEOID":"340110403001"}},{"arcs":[[163,164,165,-130,-121,166]],"type":"Polygon","properties":{"GEOID":"340110106002"}},{"arcs":[[-93,167,-99,-96]],"type":"Polygon","properties":{"GEOID":"340110409024"}},{"arcs":[[168,-148,169,170,171]],"type":"Polygon","properties":{"GEOID":"340110102003"}},{"arcs":[[172,-123,-10,-16,173,174,-132]],"type":"Polygon","properties":{"GEOID":"340110106004"}},{"arcs":[[-91,-95,-98,-84,175]],"type":"Polygon","properties":{"GEOID":"340110409011"}},{"arcs":[[176,177,178,179]],"type":"Polygon","properties":{"GEOID":"340110408002"}},{"arcs":[[-167,-124,-173,-131,180]],"type":"Polygon","properties":{"GEOID":"340110105001"}},{"arcs":[[-4,-111,-14,181,-7]],"type":"Polygon","properties":{"GEOID":"340110202001"}},{"arcs":[[-45,-144,-126]],"type":"Polygon","properties":{"GEOID":"340110102001"}},{"arcs":[[182,183,184,185]],"type":"Polygon","properties":{"GEOID":"340110108002"}},{"arcs":[[186,187,-183,188]],"type":"Polygon","properties":{"GEOID":"340110108003"}},{"arcs":[[-182,-13,-8]],"type":"Polygon","properties":{"GEOID":"340110202002"}},{"arcs":[[-113,189,190,191,192]],"type":"Polygon","properties":{"GEOID":"340110204002"}},{"arcs":[[-184,-188,193,194,195,196,-152,197,198]],"type":"Polygon","properties":{"GEOID":"340110108001"}},{"arcs":[[199,-155,200,201,202,203]],"type":"Polygon","properties":{"GEOID":"340110103012"}},{"arcs":[[204,205]],"type":"Polygon","properties":{"GEOID":"340110205021"}},{"arcs":[[-138,206,-201,-154,207]],"type":"Polygon","properties":{"GEOID":"340110305014"}},{"arcs":[[-204,208,209,210,211]],"type":"Polygon","properties":{"GEOID":"340110103011"}},{"arcs":[[-175,212,-156,-200,-212,213,-133]],"type":"Polygon","properties":{"GEOID":"340110104013"}},{"arcs":[[-134,-214,-211,214,-171,215,216]],"type":"Polygon","properties":{"GEOID":"340119900000"}},{"arcs":[[-203,217,-149,-169,218,-209]],"type":"Polygon","properties":{"GEOID":"340110103021"}},{"arcs":[[-210,-219,-172,-215]],"type":"Polygon","properties":{"GEOID":"340110103022"}},{"arcs":[[-141,219,220,221,222,-106,223,-146]],"type":"Polygon","properties":{"GEOID":"340110101012"}},{"arcs":[[-207,-137,-41,-39,-30,-142,-145,-46,-125,-143,-218,-202]],"type":"Polygon","properties":{"GEOID":"340110305013"}},{"arcs":[[224,-87,-75,-72,-160,225,226,227,-195]],"type":"Polygon","properties":{"GEOID":"340110410022"}},{"arcs":[[-228,228,229,230,231,232,233,-196]],"type":"Polygon","properties":{"GEOID":"340110410021"}},{"arcs":[[-233,234,-117,235,-36,236]],"type":"Polygon","properties":{"GEOID":"340110304023"}},{"arcs":[[237,238,-162,239,240,241]],"type":"Polygon","properties":{"GEOID":"340110406012"}},{"arcs":[[-159,242,243,244,-242,245,-226]],"type":"Polygon","properties":{"GEOID":"340110406022"}},{"arcs":[[-246,-241,246,247,248,-177,-229,-227]],"type":"Polygon","properties":{"GEOID":"340110407012"}},{"arcs":[[-120,-32,-37,-236]],"type":"Polygon","properties":{"GEOID":"340110304021"}},{"arcs":[[249,250,251,252,-165]],"type":"Polygon","properties":{"GEOID":"340110107012"}},{"arcs":[[-147,-224,-105,-223,253,-216,-170]],"type":"Polygon","properties":{"GEOID":"340110101011"}},{"arcs":[[254,255,-213,-174,-15,-110]],"type":"Polygon","properties":{"GEOID":"340110205031"}},{"arcs":[[-253,256,257,258,-128,-166]],"type":"Polygon","properties":{"GEOID":"340110107022"}},{"arcs":[[-259,259,-185,-199,260,-190,-112,261,-1,-129]],"type":"Polygon","properties":{"GEOID":"340110107021"}},{"arcs":[[-262,-116,262,263,-108,-2]],"type":"Polygon","properties":{"GEOID":"340110203011"}},{"arcs":[[-66,264,-52,265,266,-244,267,268,-69,-74,-86]],"type":"Polygon","properties":{"GEOID":"340110411012"}},{"arcs":[[269,-192,270,-206,271,-150,-256]],"type":"Polygon","properties":{"GEOID":"340110205032"}},{"arcs":[[-197,-234,-237,-35,-43,-136,-208,-153]],"type":"Polygon","properties":{"GEOID":"340110304022"}},{"arcs":[[272,273,-247,-240]],"type":"Polygon","properties":{"GEOID":"340110406011"}},{"arcs":[[274,275,276,-231]],"type":"Polygon","properties":{"GEOID":"340110410012"}},{"arcs":[[-230,-180,277,-80,278,-221,279,-275]],"type":"Polygon","properties":{"GEOID":"340110410011"}},{"arcs":[[-232,280,-17,-103,281,-118,-235]],"type":"Polygon","properties":{"GEOID":"340110304011"}},{"arcs":[[-277,282,-139,-18,-281]],"type":"Polygon","properties":{"GEOID":"340110304012"}},{"arcs":[[-76,283,284]],"type":"Polygon","properties":{"GEOID":"340110407021"}},{"arcs":[[-282,-102,-119]],"type":"Polygon","properties":{"GEOID":"340110302004"}},{"arcs":[[-276,-280,-220,-140,-283]],"type":"Polygon","properties":{"GEOID":"340110304013"}},{"arcs":[[-284,-83,285,-248,-274]],"type":"Polygon","properties":{"GEOID":"340110407011"}},{"arcs":[[-249,-286,-82,286,-178]],"type":"Polygon","properties":{"GEOID":"340110408004"}},{"arcs":[[287,-257,-252]],"type":"Polygon","properties":{"GEOID":"340110107011"}},{"arcs":[[-272,-205,-271,-191,-261,-198,-151]],"type":"Polygon","properties":{"GEOID":"340110104011"}},{"arcs":[[-62,-58,-48,-265,-65]],"type":"Polygon","properties":{"GEOID":"340110411011"}},{"arcs":[[-268,-243,-158,288]],"type":"Polygon","properties":{"GEOID":"340110411022"}},{"arcs":[[-115,289,-263]],"type":"Polygon","properties":{"GEOID":"340110203012"}},{"arcs":[[-290,-114,-193,-270,290,-264]],"type":"Polygon","properties":{"GEOID":"340110203022"}},{"arcs":[[-288,-251,291,-189,-186,-260,-258]],"type":"Polygon","properties":{"GEOID":"340110107013"}},{"arcs":[[-287,-81,-278,-179]],"type":"Polygon","properties":{"GEOID":"340110408003"}},{"arcs":[[-291,-255,-109]],"type":"Polygon","properties":{"GEOID":"340110203021"}},{"arcs":[[-54,-101,-77,-285,-273,-161]],"type":"Polygon","properties":{"GEOID":"340110407022"}},{"arcs":[[-269,-289,-157,-70]],"type":"Polygon","properties":{"GEOID":"340110411021"}},{"arcs":[[-51,-163,-239,292,-266]],"type":"Polygon","properties":{"GEOID":"340110403003"}},{"arcs":[[-267,-293,-238,-245]],"type":"Polygon","properties":{"GEOID":"340110406021"}}]}}}