{"type":"Topology","arcs":[[[4474,1473],[165,49]],[[4639,1522],[-8,-29],[57,-22],[-40,-94],[36,-14],[21,1]],[[4705,1364],[22,-83],[51,13]],[[4778,1294],[-1,-6]],[[4777,1288],[-35,-118]],[[4742,1170],[-78,34],[-50,17],[-111,27],[-93,39],[-70,46]],[[4340,1333],[18,52],[27,41],[-2,43],[49,-7],[42,11]],[[4709,2307],[31,-16],[-10,-23],[31,-15]],[[4761,2253],[25,-12],[-22,-56],[4,-11]],[[4768,2174],[-2,-29],[20,-4],[20,23],[38,7],[54,-5],[52,-25],[45,-6]],[[4995,2135],[13,-16]],[[5008,2119],[-43,-4],[-27,-54],[-48,-42],[-59,-18],[-30,7],[-73,45]],[[4728,2053],[-40,54],[-6,34],[-33,52]],[[4649,2193],[13,10],[-34,32],[-41,20],[-44,37],[8,21],[62,53],[38,-28],[58,-31]],[[4601,1574],[40,52]],[[4641,1626],[69,-52],[43,-5],[27,-20],[29,14]],[[4809,1563],[32,-34]],[[4841,1529],[-40,-68]],[[4801,1461],[-67,22],[-64,42]],[[4670,1525],[-69,49]],[[4705,1364],[22,54],[19,-3],[8,-24],[47,14]],[[4801,1405],[-2,-42],[-21,-69]],[[5426,1737],[39,27]],[[5465,1764],[68,-80]],[[5533,1684],[-36,-30]],[[5497,1654],[-71,83]],[[5764,2113],[29,-20],[30,7],[39,-3],[65,8]],[[5927,2105],[-2,-89]],[[5925,2016],[-69,10],[-82,18]],[[5774,2044],[-5,23]],[[5769,2067],[-5,46]],[[5892,2229],[-39,-54],[-55,-41],[-29,24]],[[5769,2158],[16,24],[-35,25],[-10,62],[-32,34]],[[5708,2303],[-58,68]],[[5650,2371],[121,-49],[49,-13],[16,-12],[14,-39],[42,-29]],[[5465,1764],[45,33]],[[5510,1797],[9,6]],[[5519,1803],[31,1]],[[5550,1804],[51,-60],[13,-33],[-11,-13]],[[5603,1698],[-23,26],[-47,-40]],[[5892,2229],[41,35]],[[5933,2264],[-6,-159]],[[5764,2113],[5,45]],[[5575,1562],[36,27]],[[5611,1589],[35,25],[31,0],[30,17],[47,-58]],[[5754,1573],[-32,-44],[-26,-72],[-18,-19]],[[5678,1438],[-59,70]],[[5619,1508],[-44,54]],[[5925,2016],[-4,-77]],[[5921,1939],[-83,5],[-7,-36],[-44,63]],[[5787,1971],[-13,73]],[[5921,1939],[-1,-36]],[[5920,1903],[-1,-41]],[[5919,1862],[-48,-1],[-10,-32],[-57,31]],[[5804,1860],[-10,40]],[[5794,1900],[-7,71]],[[5817,1772],[97,-74]],[[5914,1698],[-5,-133],[6,-48]],[[5915,1517],[-58,123]],[[5857,1640],[-18,48],[-11,4],[-24,72],[13,8]],[[5538,1390],[61,15],[79,33]],[[5678,1438],[89,-107]],[[5767,1331],[14,-17]],[[5781,1314],[-28,-24],[13,-16],[-28,-25]],[[5738,1249],[-101,-88],[-5,13]],[[5632,1174],[5,58],[60,103],[-40,57],[-42,-40],[-7,10],[-60,-16]],[[5548,1346],[-10,44]],[[5781,1314],[79,-93]],[[5860,1221],[11,-14]],[[5871,1207],[-20,-54],[-48,22],[-65,74]],[[5871,1207],[122,-147]],[[5993,1060],[-30,-8],[-243,-39]],[[5720,1013],[-98,116]],[[5622,1129],[10,45]],[[5860,1221],[50,9],[7,154]],[[5917,1384],[39,-22],[41,-38],[33,-50],[52,-10],[24,-24],[48,-25]],[[6154,1215],[7,-24],[-11,-42],[59,-57]],[[6209,1092],[-123,-21],[-93,-11]],[[6092,1598],[71,-16],[94,-61],[87,-89]],[[6344,1432],[-11,-76],[-20,-32],[-9,-127],[-8,-47],[-25,-50]],[[6271,1100],[-62,-8]],[[6154,1215],[10,10],[17,52],[-5,25],[-28,54],[-47,132],[-29,34],[20,76]],[[6344,1432],[52,-26],[63,-17],[81,-40]],[[6540,1349],[62,-24],[156,-67],[96,-33],[35,-25]],[[6889,1200],[-618,-100]],[[5029,2942],[0,-64],[6,-18],[38,-47],[42,-136],[10,-130]],[[5125,2547],[-25,-67],[-54,-56]],[[5046,2424],[-109,80],[28,88],[34,-25],[7,81],[-34,6],[11,86],[-21,2],[-27,-81],[-13,3],[-40,-62],[-25,20],[-39,-66]],[[4818,2556],[-121,78]],[[4697,2634],[-8,44],[60,37],[15,34],[42,36],[15,24],[2,44],[13,16],[-3,54],[110,164],[86,-145]],[[5572,2558],[29,22],[20,-2],[87,42],[60,57]],[[5768,2677],[51,20],[57,3]],[[5876,2700],[76,-15],[37,-2]],[[5989,2683],[-6,-23],[-31,-47],[-23,-138],[8,-60],[-4,-151]],[[5650,2371],[-55,58]],[[5595,2429],[-40,41],[51,34],[-34,54]],[[4801,1405],[0,56]],[[4801,1461],[45,-18],[56,-34]],[[4902,1409],[49,-33]],[[4951,1376],[-174,-88]],[[3149,3487],[118,-94],[235,-199],[47,-31],[120,-59],[46,-31],[49,-53],[69,-94],[89,-137],[73,-90],[152,-157],[27,-30],[43,-100],[6,-31],[3,-67],[-22,-80],[-46,-95],[-49,-5],[-33,6],[-25,-9],[-34,3],[-55,33],[-40,5],[-12,-22],[49,-41],[24,-53],[39,-41],[27,-41],[18,-61],[-18,-87],[-2,-39],[7,-62],[18,-32],[44,-33],[31,-14]],[[4147,1646],[7,-83]],[[4154,1563],[-169,-139],[-51,-35],[-33,-16]],[[3901,1373],[-120,117],[-205,185],[-136,125],[-9,13],[-52,317]],[[3379,2130],[-14,105],[-5,11],[-33,191],[-13,117],[-37,199],[-21,145],[-15,74],[-28,159],[-64,356]],[[4641,1626],[41,63]],[[4682,1689],[80,-82]],[[4762,1607],[47,-44]],[[6108,2223],[82,-55],[71,-99],[43,-53],[5,-19],[-9,-127],[-28,-17],[8,-23],[-22,-56],[-21,6],[-37,-133]],[[6200,1647],[-71,22]],[[6129,1669],[20,127],[-9,34],[27,113],[-5,49],[-47,22],[-31,-2],[-32,28]],[[6052,2040],[12,15],[26,3],[14,100],[11,49],[-7,16]],[[5114,3218],[2,-88],[7,-67]],[[5123,3063],[-28,-51],[17,-36],[-52,23],[-31,-57]],[[4697,2634],[-309,117],[-132,49],[-39,24],[-33,34],[-34,60]],[[4150,2918],[30,58],[37,47],[15,43],[55,58],[41,59],[89,98],[-6,30],[277,25],[-7,-26],[131,-20],[21,-10],[6,-22],[26,-6],[60,42],[71,-26],[29,9],[61,-34],[28,-25]],[[5121,1669],[17,22]],[[5138,1691],[98,22],[19,14]],[[5255,1727],[118,-54]],[[5373,1673],[-7,-7]],[[5366,1666],[-56,-3],[-86,-20]],[[5224,1643],[-61,-14],[19,-63]],[[5182,1566],[-18,-6],[-26,65]],[[5138,1625],[-17,44]],[[5123,3063],[43,-8],[69,17],[115,-25]],[[5350,3047],[-4,-128],[-8,-24],[-36,-45],[-84,-127],[-14,-58]],[[5204,2665],[-29,-69],[-50,-49]],[[5119,2100],[72,44]],[[5191,2144],[25,-46],[19,-69]],[[5235,2029],[-47,-102]],[[5188,1927],[-50,-108],[-5,-3]],[[5133,1816],[-9,-3]],[[5124,1813],[-66,-33],[-15,-2]],[[5043,1778],[-22,9],[-33,-21],[-65,2],[-59,-4],[-76,5],[-53,9],[-62,-7],[-46,-22]],[[4627,1749],[36,40],[125,124],[70,-48],[46,-7],[59,34],[111,27],[-18,46],[25,15],[2,79],[36,41]],[[5970,1949],[29,37],[36,26],[17,28]],[[6129,1669],[-53,5]],[[6076,1674],[-8,29],[33,169],[10,32],[-18,4],[-15,-46],[-22,9],[-6,22],[-38,34],[-42,22]],[[5767,1331],[74,81],[4,12],[72,-40]],[[4818,2556],[105,-76],[-33,-45]],[[4890,2435],[-127,37]],[[4763,2472],[-57,132],[-9,30]],[[5754,1573],[30,35],[27,18],[46,14]],[[5915,1517],[2,-133]],[[4930,1089],[21,40],[24,69],[-1,29],[20,119]],[[4994,1346],[24,-20]],[[5018,1326],[6,-10]],[[5024,1316],[49,-92],[50,-48]],[[5123,1176],[50,-223],[22,-15]],[[5195,938],[-14,-2]],[[5181,936],[-176,115],[-75,38]],[[4951,1376],[43,-30]],[[4930,1089],[-188,81]],[[5914,1698],[72,-65]],[[5986,1633],[52,-22],[54,-13]],[[4639,1522],[31,3]],[[5622,1129],[-95,111],[43,10],[-22,96]],[[5204,2665],[22,-98],[50,-92],[74,-73],[18,-87],[14,-25]],[[5382,2290],[-13,-23],[-65,-36],[-48,-43]],[[5256,2188],[-38,-29]],[[5218,2159],[-16,10],[-49,134],[-32,56],[-49,44]],[[5072,2403],[-26,21]],[[5008,2119],[111,-19]],[[4627,1749],[-143,-81],[-34,-16],[-35,3],[-24,17]],[[4391,1672],[-35,83],[2,25],[-17,61],[35,10],[45,181],[10,-3],[58,18],[23,60],[30,16],[23,-61],[14,-21],[42,-30],[22,-3],[123,-34],[9,14],[-47,65]],[[5919,1862],[-5,-164]],[[5817,1772],[-13,88]],[[5933,2264],[118,-15],[39,-9],[18,-17]],[[5970,1949],[-26,-12],[-24,-34]],[[5989,2683],[89,14],[30,-45],[55,-275],[130,-114],[119,-161],[31,-69],[51,-95],[92,-128]],[[6586,1810],[-21,-12],[-2,-37],[38,-46],[2,-62],[9,-39],[-42,-38]],[[6570,1576],[-32,21],[-9,29],[-38,21],[-55,-1],[-41,9],[-74,-5],[-71,-14],[-50,11]],[[5986,1633],[42,32],[48,9]],[[6570,1576],[-3,-27],[23,-20],[42,-13],[-28,-28],[-19,-54],[-45,-85]],[[6586,1810],[67,-134],[135,-92],[44,-56],[9,-102],[11,-21],[79,-68],[183,-27],[-3,-74],[-222,-36]],[[5072,2403],[-55,-30],[-36,-37],[-11,-28]],[[4970,2308],[-37,-6]],[[4933,2302],[-30,121],[-13,12]],[[5218,2159],[-27,-15]],[[4995,2135],[-27,41],[-32,25]],[[4936,2201],[34,107]],[[4768,2174],[27,-3],[49,79],[19,-7]],[[4863,2243],[34,-14],[39,-28]],[[4761,2253],[20,44],[50,21]],[[4831,2318],[19,-44]],[[4850,2274],[13,-31]],[[4798,2393],[33,-75]],[[4709,2307],[26,47],[-44,32],[41,5],[32,-34],[34,36]],[[5572,3015],[90,-4],[109,-1]],[[5771,3010],[34,2],[41,-10]],[[5846,3002],[30,-302]],[[5768,2677],[-7,24],[-29,13],[-6,31],[18,37],[-45,37],[10,28],[26,115],[-99,19],[-6,-32],[-61,23],[3,43]],[[5350,3047],[88,-19],[72,-10],[62,-3]],[[5572,2558],[-70,-73],[-77,-120],[-43,-75]],[[4627,1749],[55,-60]],[[4601,1574],[-2,-15],[-78,30],[-5,-18],[-35,9],[-50,1]],[[4431,1581],[-40,91]],[[5304,1941],[22,26],[20,39]],[[5346,2006],[22,-9]],[[5368,1997],[64,-30]],[[5432,1967],[-23,-45]],[[5409,1922],[-31,1],[-32,13],[-42,5]],[[5123,1176],[141,-133]],[[5264,1043],[71,-83]],[[5335,960],[-62,-13],[-78,-9]],[[5244,1487],[62,10]],[[5306,1497],[87,20]],[[5393,1517],[-8,-89],[-6,-20]],[[5379,1408],[-19,-50]],[[5360,1358],[-35,15],[-66,41]],[[5259,1414],[-6,25],[-25,34]],[[5228,1473],[16,14]],[[4850,2274],[83,28]],[[5523,1623],[55,46]],[[5578,1669],[25,-34],[-8,-25],[16,-21]],[[5575,1562],[-29,32]],[[5546,1594],[-23,29]],[[5369,2115],[4,0]],[[5373,2115],[-50,-100]],[[5323,2015],[-42,12]],[[5281,2027],[29,61],[26,2],[33,25]],[[4091,4401],[22,-24],[26,-70],[57,-114],[-47,-35],[18,-80],[-1,-27],[36,-23],[-19,-44],[37,-63],[2,-18],[-41,-23],[-51,-68],[13,-79],[-46,-68],[-6,-25],[1,-44],[-28,-78],[-4,-34],[12,-33],[-17,-54],[9,-93],[-6,-21],[0,-106],[10,-33],[-13,-67],[-17,-44]],[[4038,3033],[-4,-33],[-27,-26],[-10,-24]],[[3997,2950],[-52,47],[-14,79],[-43,69],[-31,32],[-69,33],[-13,-2],[-27,31],[-39,30],[-33,46],[-30,26],[-33,16],[-39,-11],[-47,-33],[-33,-2],[-42,25],[7,12],[-41,42],[-39,59],[-89,60],[-69,26],[-48,47]],[[3173,3582],[14,9],[-14,137],[-47,377],[-2,63],[-44,381],[-23,169],[70,-10],[467,-40],[188,-95],[77,-65],[57,-35],[175,-72]],[[5520,1572],[23,-36],[45,-52],[31,24]],[[5538,1390],[-8,32],[-28,-6],[-7,34],[-19,25],[17,33],[-17,28]],[[5476,1536],[44,36]],[[4885,1588],[42,54]],[[4927,1642],[30,-125]],[[4957,1517],[-116,12]],[[4841,1529],[44,59]],[[5205,1778],[54,37]],[[5259,1815],[48,-52],[-16,-15]],[[5291,1748],[-18,8],[-18,-29]],[[5255,1727],[-60,40]],[[5195,1767],[10,11]],[[5368,1997],[87,16],[13,26]],[[5468,2039],[30,-27],[43,-20],[17,-18]],[[5558,1974],[-48,-45]],[[5510,1929],[-78,38]],[[5727,2074],[21,-14],[21,7]],[[5794,1900],[-50,15]],[[5744,1915],[-44,31]],[[5700,1946],[16,110],[11,18]],[[4779,1733],[130,-44]],[[4909,1689],[-59,-32]],[[4850,1657],[-68,-39]],[[4782,1618],[-23,56],[20,59]],[[5558,1974],[32,28]],[[5590,2002],[38,-19]],[[5628,1983],[-80,-73]],[[5548,1910],[-27,14]],[[5521,1924],[-11,5]],[[5273,1916],[25,21]],[[5298,1937],[87,-73],[-36,-35]],[[5349,1829],[-31,35]],[[5318,1864],[-45,52]],[[4154,1563],[10,-44],[21,-47],[21,-32],[59,-56],[75,-51]],[[4340,1333],[-2,-26],[6,-85],[-25,-33],[31,-54],[4,-82],[15,-28],[-38,-21],[-24,-29]],[[4307,975],[-201,198],[-205,200]],[[3139,3558],[34,24]],[[3997,2950],[81,-53],[16,-40],[-27,-61],[-8,-36],[10,-34],[70,-69],[36,-13],[24,3],[63,23],[54,4],[40,-21],[20,-59],[11,-56],[25,-29],[4,-47],[31,-52],[19,-43],[53,-75],[28,-32],[42,-19],[60,-48]],[[4431,1581],[-56,19],[-57,7],[-147,28],[-24,11]],[[3149,3487],[-10,71]],[[5409,1922],[21,-7],[39,-42],[-5,-40],[46,-36]],[[5426,1737],[-77,92]],[[5298,1937],[6,4]],[[5744,1915],[-15,-68],[-10,-22]],[[5719,1825],[-21,11]],[[5698,1836],[-67,37]],[[5631,1873],[10,19],[59,54]],[[5054,1702],[73,8]],[[5127,1710],[11,-19]],[[5121,1669],[-67,-26]],[[5054,1643],[-17,44],[17,15]],[[4782,1618],[-20,-11]],[[4627,1749],[50,17],[102,-33]],[[4970,3627],[54,-37],[16,3],[124,62],[125,73]],[[5289,3728],[108,-97],[-2,-30],[-19,-28],[-3,-21],[36,-91],[21,-29],[23,-69]],[[5453,3363],[-65,-144],[0,-52]],[[5388,3167],[-33,33],[-27,8],[-18,27],[-61,3],[-20,80],[-56,-27],[-30,-7]],[[5143,3284],[-55,95],[-51,27],[1,61],[-59,114],[-9,46]],[[1829,2692],[22,-131],[0,-27],[73,-83],[-17,-27],[-39,-22],[5,-45],[-6,-30],[14,-32],[9,-86],[8,-37],[-27,-40],[2,-22],[-95,-23],[6,-53],[38,-50],[17,-56],[25,-50],[112,-156],[18,-120],[7,-10],[63,-40],[33,-29],[39,-9],[-10,-53],[27,-191],[2,-30]],[[2155,1240],[7,-128],[-66,10],[-145,9],[-31,-2],[-173,-36]],[[1747,1093],[-234,-47],[-171,-32],[-329,-29],[-232,-31],[-46,6]],[[735,960],[35,54],[19,50],[-41,118],[-5,28],[5,45],[39,94],[51,71],[-1,44],[-20,27],[-32,16],[-23,28],[-7,76],[-8,15],[-30,11],[-56,-14],[-21,6],[-24,25],[-17,43],[7,22],[51,20],[32,24],[45,71],[6,72],[-27,46],[377,252],[399,265],[23,12],[317,211]],[[5595,2429],[-26,-37],[-57,-130]],[[5512,2262],[7,-31],[-11,-23]],[[5508,2208],[-18,9],[-103,26],[-5,47]],[[5520,1572],[26,22]],[[5379,1408],[34,-37]],[[5413,1371],[19,-75],[-20,-55],[-58,-13],[-27,20]],[[5327,1248],[20,76],[13,34]],[[5764,2113],[-149,99],[-52,26]],[[5563,2238],[29,56],[28,-29],[62,-26],[26,64]],[[5727,2074],[-79,52]],[[5648,2126],[-38,25],[-31,-30],[-35,-22],[-48,5]],[[5496,2104],[67,134]],[[5563,2238],[-51,24]],[[5508,2208],[-50,-106]],[[5458,2102],[-26,-2],[-59,15]],[[5369,2115],[-62,16],[-38,-3],[-1,33],[-12,27]],[[5281,2027],[-46,2]],[[5458,2102],[38,2]],[[5496,2104],[-10,-38],[-18,-27]],[[5346,2006],[-23,9]],[[5648,2126],[-30,-52],[-4,-36],[-19,2],[-5,-38]],[[5817,1772],[-98,53]],[[5628,1983],[72,-37]],[[5631,1873],[-83,37]],[[5550,1804],[65,55],[39,-22],[-21,-38],[25,-35],[40,72]],[[5578,1669],[25,29]],[[5519,1803],[-44,31],[46,90]],[[5523,1623],[-26,31]],[[5259,1815],[40,34]],[[5299,1849],[19,15]],[[5349,1829],[-3,-32],[-30,-26],[44,-49]],[[5360,1722],[-69,26]],[[5426,1737],[-28,-30]],[[5398,1707],[-38,15]],[[5398,1707],[-25,-34]],[[5273,1916],[-56,-33]],[[5217,1883],[-29,44]],[[5299,1849],[-21,30],[-39,-35],[-7,12]],[[5232,1856],[-15,27]],[[5205,1778],[-41,24],[10,14],[58,40]],[[5043,1778],[-40,-12],[-46,-54]],[[4957,1712],[-48,-23]],[[4927,1642],[30,70]],[[5043,1778],[-23,-27]],[[5020,1751],[-28,-61],[16,-67]],[[5008,1623],[45,-37]],[[5053,1586],[137,-70]],[[5190,1516],[54,-29]],[[5244,1487],[-287,30]],[[4850,1657],[35,-69]],[[5133,1816],[62,-49]],[[5127,1710],[-13,87],[10,16]],[[5020,1751],[26,-26],[8,-23]],[[5054,1643],[-46,-20]],[[5182,1566],[16,-18],[-8,-32]],[[5053,1586],[85,39]],[[5366,1666],[-94,-81]],[[5272,1585],[-48,58]],[[5373,1673],[38,-30]],[[5411,1643],[-19,-29],[-83,-71],[-37,42]],[[5411,1643],[20,-38],[27,-74]],[[5458,1531],[-65,-14]],[[5306,1497],[-58,68],[24,20]],[[5520,1572],[-32,57],[-54,-19],[-23,33]],[[5476,1536],[-18,-5]],[[1747,1093],[35,-128],[4,-63],[-20,-87],[-5,-42],[-52,-61],[-11,-22],[11,-103],[-1,-60],[18,-42],[17,-176],[-1,-39],[8,-61],[24,-45]],[[1774,164],[-23,-132],[-264,-32],[-531,156],[-17,-40],[-394,-45],[-53,-5],[22,102],[-102,-2],[-62,92],[-74,101],[-257,345],[-19,52],[27,40],[93,44],[73,25],[88,18],[166,2],[81,11],[32,-10],[32,-20],[25,-4],[68,30],[11,31],[39,37]],[[2155,1240],[83,10],[40,13],[19,32],[35,10],[59,44],[76,23],[120,22],[184,22],[31,-7],[16,-19],[48,3]],[[2866,1393],[36,-271]],[[2902,1122],[-94,-57],[-73,-34],[-38,-12],[-92,-6],[-35,-8],[-115,-34],[-56,-20],[-19,-14],[-20,-50],[-39,-36],[-172,-49],[-58,-23],[-83,-81],[-60,-26],[-73,-65],[46,-13],[9,-70],[20,-26],[24,-75],[-2,-26]],[[1972,397],[-164,-28],[-34,-205]],[[2902,1122],[8,-36],[138,20],[474,67],[87,-506]],[[3609,667],[-503,-82],[-501,-79],[-208,-35],[-425,-74]],[[1829,2692],[397,258],[48,30],[322,211]],[[2596,3191],[1,-18],[30,-170],[24,-206],[56,-277],[62,-374],[15,-116]],[[2784,2030],[82,-637]],[[4091,4401],[43,-19],[172,-95],[159,-118],[253,-221],[173,-266],[79,-55]],[[5143,3284],[-29,-66]],[[4150,2918],[-59,71],[-53,44]],[[5771,3725],[42,-376],[31,-318],[2,-29]],[[5771,3010],[4,16],[-26,49],[-30,21],[-27,64],[-4,73],[9,93],[-98,-7],[-38,21],[28,31],[14,41],[-107,45]],[[5496,3457],[59,84],[76,30],[86,71],[54,83]],[[5453,3363],[17,50],[26,44]],[[5350,3047],[29,67],[9,53]],[[5289,3728],[35,21],[229,93],[202,15],[16,-132]],[[4474,1473],[-43,108]],[[4957,1517],[17,-83],[-30,-3],[-42,-22]],[[5228,1473],[-91,-72],[-109,-60],[-10,-15]],[[5622,1129],[-90,23],[-94,8]],[[5438,1160],[12,75],[21,71],[-58,65]],[[5720,1013],[-70,-6],[-75,-15],[-187,-23]],[[5388,969],[27,84],[23,107]],[[5305,1207],[22,41]],[[5388,969],[-53,-9]],[[5264,1043],[30,140],[11,24]],[[5239,1306],[32,56],[-12,52]],[[5305,1207],[-27,12],[-42,57],[3,30]],[[5143,1343],[40,9],[56,-46]],[[5123,1176],[3,30],[46,10],[-29,127]],[[5024,1316],[119,27]],[[5181,936],[-89,-16],[-137,-20],[-483,-88]],[[4472,812],[-165,163]],[[2596,3191],[436,296],[107,71]],[[3379,2130],[-52,-10],[-92,-28],[-34,-6],[-57,0],[-71,-13],[-212,-68],[-46,-3],[-31,28]],[[4472,812],[-306,-53],[-446,-76],[-111,-16]],[[4763,2472],[35,-79]]],"transform":{"scale":[0.00006990385156030243,0.000051937685459941724],"translate":[-74.306665,42.710826]},"objects":{"Geometry\\36-093":{"type":"GeometryCollection","geometries":[{"arcs":[[0,1,2,3,4,5,6]],"type":"Polygon","properties":{"GEOID":"360930330044"}},{"arcs":[[7,8,9,10,11,12,13]],"type":"Polygon","properties":{"GEOID":"360930324032"}},{"arcs":[[14,15,16,17,18,19]],"type":"Polygon","properties":{"GEOID":"360930327003"}},{"arcs":[[20,21,-3]],"type":"Polygon","properties":{"GEOID":"360930330042"}},{"arcs":[[22,23,24,25]],"type":"Polygon","properties":{"GEOID":"360930207004"}},{"arcs":[[26,27,28,29,30]],"type":"Polygon","properties":{"GEOID":"360930320002"}},{"arcs":[[31,32,33,34]],"type":"Polygon","properties":{"GEOID":"360930320006"}},{"arcs":[[35,36,37,38,39,-24]],"type":"Polygon","properties":{"GEOID":"360930207005"}},{"arcs":[[-32,40,41,-27,42]],"type":"Polygon","properties":{"GEOID":"360930320001"}},{"arcs":[[43,44,45,46,47]],"type":"Polygon","properties":{"GEOID":"360930207001"}},{"arcs":[[-29,48,49,50]],"type":"Polygon","properties":{"GEOID":"360930320003"}},{"arcs":[[-50,51,52,53,54,55]],"type":"Polygon","properties":{"GEOID":"360930320004"}},{"arcs":[[56,57,58,59]],"type":"Polygon","properties":{"GEOID":"360930319021"}},{"arcs":[[60,61,62,63,64,65,66]],"type":"Polygon","properties":{"GEOID":"360930218022"}},{"arcs":[[-64,67,68,69]],"type":"Polygon","properties":{"GEOID":"360930218023"}},{"arcs":[[-65,-70,70,71,72,73]],"type":"Polygon","properties":{"GEOID":"360930218024"}},{"arcs":[[74,75,76,77,-71,-69]],"type":"Polygon","properties":{"GEOID":"360930319023"}},{"arcs":[[78,79,80,-77,81]],"type":"Polygon","properties":{"GEOID":"360930319012"}},{"arcs":[[82,83,84,-80]],"type":"Polygon","properties":{"GEOID":"360930319011"}},{"arcs":[[85,86,87,88,89]],"type":"Polygon","properties":{"GEOID":"360930324044"}},{"arcs":[[90,91,92,93,-41,-35,94,95]],"type":"Polygon","properties":{"GEOID":"360930320007"}},{"arcs":[[-22,96,97,98,99,-4]],"type":"Polygon","properties":{"GEOID":"360930330043"}},{"arcs":[[100,101,102,103,104]],"type":"Polygon","properties":{"GEOID":"360930326022"}},{"arcs":[[105,106,107,-16]],"type":"Polygon","properties":{"GEOID":"360930327002"}},{"arcs":[[108,109,110,111]],"type":"Polygon","properties":{"GEOID":"360930321015"}},{"arcs":[[112,113,-90,114,115]],"type":"Polygon","properties":{"GEOID":"360930324041"}},{"arcs":[[116,117,118,119,120,121,122,123]],"type":"Polygon","properties":{"GEOID":"360930215002"}},{"arcs":[[-114,124,125,126,-86]],"type":"Polygon","properties":{"GEOID":"360930324042"}},{"arcs":[[127,128,129,130,131,132,133,134]],"type":"Polygon","properties":{"GEOID":"360930335001"}},{"arcs":[[135,-111,136,137]],"type":"Polygon","properties":{"GEOID":"360930321012"}},{"arcs":[[138,-75,-68,-63]],"type":"Polygon","properties":{"GEOID":"360930218012"}},{"arcs":[[-89,139,140,141]],"type":"Polygon","properties":{"GEOID":"360930324043"}},{"arcs":[[-46,142,-59,143,-139,-62]],"type":"Polygon","properties":{"GEOID":"360930218011"}},{"arcs":[[144,145,146,147,148,149,150]],"type":"Polygon","properties":{"GEOID":"360930330033"}},{"arcs":[[-100,151,-145,152,-5]],"type":"Polygon","properties":{"GEOID":"360930330031"}},{"arcs":[[153,154,-82,-76,-144,-58]],"type":"Polygon","properties":{"GEOID":"360930319022"}},{"arcs":[[155,-19,-97,-21,-2]],"type":"Polygon","properties":{"GEOID":"360930330041"}},{"arcs":[[-66,-74,156]],"type":"Polygon","properties":{"GEOID":"360930218021"}},{"arcs":[[-127,157,158,159,160,161,-87]],"type":"Polygon","properties":{"GEOID":"360930324023"}},{"arcs":[[-12,162,-135,163,164]],"type":"Polygon","properties":{"GEOID":"360930326023"}},{"arcs":[[-54,165,-57,166]],"type":"Polygon","properties":{"GEOID":"360930320005"}},{"arcs":[[-49,-28,-42,167,-112,-136,168,-52]],"type":"Polygon","properties":{"GEOID":"360930321014"}},{"arcs":[[169,170,171,-109,-168,-94]],"type":"Polygon","properties":{"GEOID":"360930321011"}},{"arcs":[[172,-137,-110,-172,173,-83,-79,-155]],"type":"Polygon","properties":{"GEOID":"360930321022"}},{"arcs":[[-171,174,-84,-174]],"type":"Polygon","properties":{"GEOID":"360930321021"}},{"arcs":[[-162,175,176,177,-140,-88]],"type":"Polygon","properties":{"GEOID":"360930322002"}},{"arcs":[[-176,-161,178,-128,-163,-11,179,180]],"type":"Polygon","properties":{"GEOID":"360930322004"}},{"arcs":[[181,182,-180,-10]],"type":"Polygon","properties":{"GEOID":"360930323001"}},{"arcs":[[183,184,185,-182,-9]],"type":"Polygon","properties":{"GEOID":"360930323002"}},{"arcs":[[186,-184,-8,187]],"type":"Polygon","properties":{"GEOID":"360930323003"}},{"arcs":[[188,189,190,-92,191]],"type":"Polygon","properties":{"GEOID":"360930324021"}},{"arcs":[[-126,192,-192,-91,193,-158]],"type":"Polygon","properties":{"GEOID":"360930324022"}},{"arcs":[[194,-106,-15,195,196,-164]],"type":"Polygon","properties":{"GEOID":"360930327001"}},{"arcs":[[197,198,199,200,201]],"type":"Polygon","properties":{"GEOID":"360930208001"}},{"arcs":[[202,203,204,-149]],"type":"Polygon","properties":{"GEOID":"360930330032"}},{"arcs":[[205,206,207,208,209,210,211]],"type":"Polygon","properties":{"GEOID":"360930329021"}},{"arcs":[[212,-177,-181,-183,-186]],"type":"Polygon","properties":{"GEOID":"360930322003"}},{"arcs":[[213,214,-44,215,216]],"type":"Polygon","properties":{"GEOID":"360930207003"}},{"arcs":[[217,218,219,220]],"type":"Polygon","properties":{"GEOID":"360930203002"}},{"arcs":[[-53,-169,-138,-173,-154,-166]],"type":"Polygon","properties":{"GEOID":"360930321013"}},{"arcs":[[221,222,223,224]],"type":"Polygon","properties":{"GEOID":"360930325041"}},{"arcs":[[225,-47,-61,226,227]],"type":"Polygon","properties":{"GEOID":"360930217003"}},{"arcs":[[228,229,230,231]],"type":"Polygon","properties":{"GEOID":"360930332002"}},{"arcs":[[232,233,234,235,236]],"type":"Polygon","properties":{"GEOID":"360930209004"}},{"arcs":[[237,238,239,240,-200]],"type":"Polygon","properties":{"GEOID":"360930334002"}},{"arcs":[[241,-30,-51,-56,242,243,244]],"type":"Polygon","properties":{"GEOID":"360930205001"}},{"arcs":[[245,246,247,248]],"type":"Polygon","properties":{"GEOID":"360930212002"}},{"arcs":[[249,250,251,252,253,-240]],"type":"Polygon","properties":{"GEOID":"360930205005"}},{"arcs":[[254,255,256,257]],"type":"Polygon","properties":{"GEOID":"360930208004"}},{"arcs":[[-103,258,259,260]],"type":"Polygon","properties":{"GEOID":"360930326011"}},{"arcs":[[261,-224,262,-13,-165,-197,263,-101,264]],"type":"Polygon","properties":{"GEOID":"360930326021"}},{"arcs":[[-202,265,-36,-23,266,-256,267]],"type":"Polygon","properties":{"GEOID":"360930208003"}},{"arcs":[[-244,268,269,270,271]],"type":"Polygon","properties":{"GEOID":"360930205003"}},{"arcs":[[272,273,-117,274,275]],"type":"Polygon","properties":{"GEOID":"360930214002"}},{"arcs":[[-249,276,-107,-195,277]],"type":"Polygon","properties":{"GEOID":"360930212003"}},{"arcs":[[278,279,280,281,282]],"type":"Polygon","properties":{"GEOID":"360930325032"}},{"arcs":[[283,284,285,286]],"type":"Polygon","properties":{"GEOID":"360930331022"}},{"arcs":[[-96,287,288,289,-194]],"type":"Polygon","properties":{"GEOID":"360930202001"}},{"arcs":[[290,-216,-48,-226]],"type":"Polygon","properties":{"GEOID":"360930217002"}},{"arcs":[[-209,291,292,293]],"type":"Polygon","properties":{"GEOID":"360930329014"}},{"arcs":[[-33,-43,294,295]],"type":"Polygon","properties":{"GEOID":"360930201011"}},{"arcs":[[-295,-31,-242,296,297,298]],"type":"Polygon","properties":{"GEOID":"360930201012"}},{"arcs":[[-95,-34,-296,299,-288]],"type":"Polygon","properties":{"GEOID":"360930201022"}},{"arcs":[[-159,-290,300,301,-218,302]],"type":"Polygon","properties":{"GEOID":"360930202002"}},{"arcs":[[-179,-160,-303,-221,303,-129]],"type":"Polygon","properties":{"GEOID":"360930203001"}},{"arcs":[[-302,304,305,-238,-199,306,-219]],"type":"Polygon","properties":{"GEOID":"360930334003"}},{"arcs":[[-298,307,-250,-239,-306]],"type":"Polygon","properties":{"GEOID":"360930334001"}},{"arcs":[[-243,-55,-167,308,-269]],"type":"Polygon","properties":{"GEOID":"360930205002"}},{"arcs":[[-252,309,-272,310]],"type":"Polygon","properties":{"GEOID":"360930205004"}},{"arcs":[[-297,-245,-310,-251,-308]],"type":"Polygon","properties":{"GEOID":"360930205006"}},{"arcs":[[-289,-300,-299,-305,-301]],"type":"Polygon","properties":{"GEOID":"360930201021"}},{"arcs":[[311,-270,-309,-60,-143,-45,-215,312,-39]],"type":"Polygon","properties":{"GEOID":"360930206001"}},{"arcs":[[-253,-311,-271,-312,-38,313]],"type":"Polygon","properties":{"GEOID":"360930206002"}},{"arcs":[[-25,-40,-313,-214,314]],"type":"Polygon","properties":{"GEOID":"360930207002"}},{"arcs":[[-241,-254,-314,-37,-266,-201]],"type":"Polygon","properties":{"GEOID":"360930208002"}},{"arcs":[[315,316,-257,317,318,-234]],"type":"Polygon","properties":{"GEOID":"360930209001"}},{"arcs":[[-267,319,320,-318]],"type":"Polygon","properties":{"GEOID":"360930209002"}},{"arcs":[[-319,-321,321,-119,-235]],"type":"Polygon","properties":{"GEOID":"360930209003"}},{"arcs":[[-130,-304,-220,-307,-198,-268,-255,322,323]],"type":"Polygon","properties":{"GEOID":"360930210011"}},{"arcs":[[-323,-258,-317,324,325]],"type":"Polygon","properties":{"GEOID":"360930210021"}},{"arcs":[[-325,-316,-233,326]],"type":"Polygon","properties":{"GEOID":"360930210022"}},{"arcs":[[-134,327,328,-246,-278]],"type":"Polygon","properties":{"GEOID":"360930212001"}},{"arcs":[[329,-328,330,331,332,333,334,335,-230]],"type":"Polygon","properties":{"GEOID":"360930332001"}},{"arcs":[[-248,336,-232,-17,-108,-277]],"type":"Polygon","properties":{"GEOID":"360930332004"}},{"arcs":[[-329,-330,-229,-337,-247]],"type":"Polygon","properties":{"GEOID":"360930332003"}},{"arcs":[[-132,337,-236,-118,-274,338]],"type":"Polygon","properties":{"GEOID":"360930214001"}},{"arcs":[[339,-276,340,-332]],"type":"Polygon","properties":{"GEOID":"360930214003"}},{"arcs":[[-331,-133,-339,-273,-340]],"type":"Polygon","properties":{"GEOID":"360930214004"}},{"arcs":[[-123,341,-334,342]],"type":"Polygon","properties":{"GEOID":"360930215003"}},{"arcs":[[-131,-324,-326,-327,-237,-338]],"type":"Polygon","properties":{"GEOID":"360930210023"}},{"arcs":[[-275,-124,-343,-333,-341]],"type":"Polygon","properties":{"GEOID":"360930215001"}},{"arcs":[[-121,343,344]],"type":"Polygon","properties":{"GEOID":"360930216001"}},{"arcs":[[-120,345,346,-344]],"type":"Polygon","properties":{"GEOID":"360930216002"}},{"arcs":[[-347,347,348,-207,349]],"type":"Polygon","properties":{"GEOID":"360930216003"}},{"arcs":[[-345,-350,-206,-335,-342,-122]],"type":"Polygon","properties":{"GEOID":"360930216004"}},{"arcs":[[-320,-26,-315,-217,-291,350,-346,-322]],"type":"Polygon","properties":{"GEOID":"360930217001"}},{"arcs":[[-351,-228,351,-348]],"type":"Polygon","properties":{"GEOID":"360930217004"}},{"arcs":[[-286,352,353]],"type":"Polygon","properties":{"GEOID":"360930331023"}},{"arcs":[[-285,354,355,356,357,-353]],"type":"Polygon","properties":{"GEOID":"360930331024"}},{"arcs":[[358,359,-357]],"type":"Polygon","properties":{"GEOID":"360930331025"}},{"arcs":[[360,361,362,-355,-284]],"type":"Polygon","properties":{"GEOID":"360930331021"}},{"arcs":[[363,-283,364,-116,365,-222]],"type":"Polygon","properties":{"GEOID":"360930325042"}},{"arcs":[[366,-190,367,368]],"type":"Polygon","properties":{"GEOID":"360930325021"}},{"arcs":[[-281,369,-368,-189,-193,370]],"type":"Polygon","properties":{"GEOID":"360930325022"}},{"arcs":[[371,-369,-370,-280]],"type":"Polygon","properties":{"GEOID":"360930325031"}},{"arcs":[[-20,-156,-1,372,-196]],"type":"Polygon","properties":{"GEOID":"360930327004"}},{"arcs":[[-231,373,-98,-18]],"type":"Polygon","properties":{"GEOID":"360930333002"}},{"arcs":[[-374,-336,-212,374,-146,-152,-99]],"type":"Polygon","properties":{"GEOID":"360930333001"}},{"arcs":[[-349,-352,-227,-67,-157,375,376,-292,-208]],"type":"Polygon","properties":{"GEOID":"360930329011"}},{"arcs":[[-376,-73,377,378]],"type":"Polygon","properties":{"GEOID":"360930329012"}},{"arcs":[[379,-293,-377,-379,380,-204,381]],"type":"Polygon","properties":{"GEOID":"360930329013"}},{"arcs":[[382,-210,-294,-380,383]],"type":"Polygon","properties":{"GEOID":"360930329022"}},{"arcs":[[384,-384,-382,-203,385]],"type":"Polygon","properties":{"GEOID":"360930329023"}},{"arcs":[[-386,-148,386]],"type":"Polygon","properties":{"GEOID":"360930329024"}},{"arcs":[[-211,-383,-385,-387,-147,-375]],"type":"Polygon","properties":{"GEOID":"360930329025"}},{"arcs":[[-260,-6,-153,-151,387,388]],"type":"Polygon","properties":{"GEOID":"360930330021"}},{"arcs":[[-264,-373,-7,-259,-102]],"type":"Polygon","properties":{"GEOID":"360930326012"}},{"arcs":[[389,-265,-105,390,-362]],"type":"Polygon","properties":{"GEOID":"360930331011"}},{"arcs":[[-391,-104,-261,-389,391,-359,-356,-363]],"type":"Polygon","properties":{"GEOID":"360930331012"}},{"arcs":[[-365,-282,-371,-125,-113]],"type":"Polygon","properties":{"GEOID":"360930325033"}},{"arcs":[[-366,-115,-142,392,-188,-14,-263,-223]],"type":"Polygon","properties":{"GEOID":"360930324031"}},{"arcs":[[-141,-178,-213,-185,-187,-393]],"type":"Polygon","properties":{"GEOID":"360930322001"}}]}}}