{"type":"Topology","arcs":[[[1031,1701],[179,0]],[[1210,1701],[1,-219],[0,-53]],[[1211,1429],[-43,1],[-71,-3]],[[1097,1427],[-1,36],[-6,2],[8,26],[-26,9],[1,10],[-30,-1],[-3,4],[-9,188]],[[5250,2519],[59,1],[262,5],[91,1],[62,0],[61,2],[50,-1]],[[5835,2527],[-1,-39],[-6,-257],[-5,-286],[-1,-85],[-2,-241],[-1,-138]],[[5819,1481],[-34,18],[-34,10],[-142,21],[-28,6],[-16,9],[-33,27],[-14,14],[-24,38],[-4,9]],[[5490,1633],[-6,24],[-4,35],[-6,18],[-20,17],[1,75],[-1,10],[-10,34]],[[5444,1846],[157,2],[15,19],[5,11],[9,39],[31,104],[21,38],[-44,20],[-39,16],[-64,33],[-11,6],[-64,47],[-12,6],[-94,46],[-28,15],[-53,34],[-57,33],[35,108],[10,26],[-4,20],[-13,19],[-3,16],[9,15]],[[5836,3762],[-60,11],[-5,12],[-21,15],[-28,12],[-9,2],[-54,0],[-24,-4],[-39,-12],[-18,0],[-73,-9],[-42,-3],[-53,10],[-17,0],[-33,11],[-34,24],[-22,25],[-235,-15],[-53,0],[-12,1],[-109,20],[-35,18],[-13,2]],[[4847,3882],[-64,9],[-8,-2],[-31,4],[-58,3],[-37,6],[-26,8],[-21,12],[-63,6],[-47,3],[-82,-2],[-38,-2],[-41,1],[-29,2],[-114,2],[-11,-1],[-85,-2],[-46,1],[-56,-1],[-67,-13],[-54,-5]],[[3869,3911],[-21,-2],[-32,9],[-25,-5],[-36,-11],[-48,-14],[-36,-12],[-51,-11],[-43,-13],[-45,-7],[-36,0],[-30,5],[-22,13],[-12,12],[-11,4],[-21,-15],[-18,-7],[-52,-4],[-38,1],[-65,16],[-17,0],[-29,-2],[-19,-6],[-51,-9],[-29,-3],[-57,-10],[-27,-5],[-41,-2],[-55,-10],[-39,0],[-70,4],[-31,3],[-23,-1],[-32,9],[-24,10],[-17,22],[-35,7],[-61,7],[-71,-2]],[[2499,3882],[-19,1],[-2,-7],[-22,4],[-22,-9],[-27,-6],[-38,-4],[-34,3],[-34,7],[-32,2],[-38,-2],[-20,-3],[-22,0],[-17,-6],[-22,0],[-41,2],[-28,-3],[-30,4],[-53,18],[-11,10],[-18,3]],[[1969,3896],[-12,3],[-35,-1],[-23,-2],[-36,-7],[-46,-4],[-28,0],[-35,-4],[-39,4],[-52,-4],[-45,3],[-15,4],[-20,-1],[-32,10],[-36,1],[-28,3],[-44,-3],[-36,2],[-35,-2],[-64,5],[-30,4],[-19,17],[-10,14],[-39,4],[-27,-2],[-117,-4],[-36,0],[-44,-2]],[[986,3934],[-47,-7],[-76,-8],[-14,1],[-21,-3],[-43,3],[-21,-2],[-91,3],[-30,-3],[-9,-3],[-52,-5],[-8,2],[-26,-8],[-24,-4],[-30,-1],[-35,-7],[-40,-6],[-34,-8],[-69,-6],[-38,1],[-27,2],[-28,8],[-15,1],[-38,-2],[-27,-8],[-88,-12],[-15,2]],[[40,3864],[-2,58],[4,253],[4,479],[5,663],[3,594],[-11,424],[-32,1274],[-11,424],[985,-3],[174,-1],[0,-17],[90,-1],[917,-3],[535,-1],[688,-5],[854,-5],[86,0],[976,1],[480,1],[71,-1],[0,-98],[0,-1989],[-1,0],[-9,-1989],[-10,-160]],[[28,2771],[91,6],[83,3],[127,8],[109,3],[112,7],[19,-1],[208,11],[34,-1],[174,6]],[[985,2813],[116,2],[136,3]],[[1237,2818],[-5,-14],[-5,-285],[-6,-226],[-10,-3],[2,-44],[-2,-15],[1,-51],[-1,-94],[3,-59],[0,-49],[-1,-107],[-3,-170]],[[1031,1701],[-5,5],[-20,0],[-20,-6],[-23,-1],[-11,9],[1,6],[-18,24],[-18,2],[-4,-11],[0,-12],[-35,-1],[-5,-78]],[[873,1638],[-96,-3],[-1,-15],[1,-188],[-17,-1],[0,9],[-9,4],[-20,-1],[4,14],[-27,-1],[-12,-43]],[[696,1413],[-37,-2]],[[659,1411],[-179,-8],[-21,-1],[-89,-2],[-119,-2],[0,-1],[-149,-3]],[[102,1394],[-6,176],[-11,234],[-7,112],[-4,70],[-7,137],[-19,297],[-12,212],[-5,82],[-3,57]],[[659,1411],[-3,-41],[62,10],[-47,-143],[49,3],[207,8],[53,2]],[[980,1250],[-5,-44],[-21,-75],[-35,-106],[1,-17],[16,-31],[3,-36],[5,-12],[14,-15],[6,-12],[1,-130],[1,-213],[1,-300],[-1,-228]],[[966,31],[-142,0],[-111,1],[-164,-8],[-8,1],[-158,-8],[-125,-6],[-106,-5],[-66,-3],[-46,-3],[-3,37],[-1,116],[2,87],[8,173],[9,193],[11,181],[3,60],[8,139],[4,49],[10,179],[11,180]],[[980,1250],[96,2],[141,3],[0,131],[-1,21],[-5,22]],[[1211,1429],[72,1],[108,1],[125,-1],[55,2],[220,1],[161,1]],[[1952,1434],[1,-216],[0,-47]],[[1953,1171],[1,-23],[1,-250],[0,-133],[0,-123],[-1,-204],[0,-41],[-1,-223],[0,-103],[-2,-28]],[[1951,43],[-35,-3],[-98,-2],[-48,2],[-93,-2],[-164,-5],[-104,-2],[-170,0],[-80,-1],[-55,0],[-70,1],[-68,0]],[[1237,2818],[298,3],[46,1],[370,4]],[[1951,2826],[169,0]],[[2120,2826],[-9,-413],[-1,-31],[-9,-421]],[[2101,1961],[-1,-29],[1,-49],[-5,-269],[-1,-83],[-3,-88],[1,-7],[-84,-2],[-57,0]],[[1097,1427],[-111,-4]],[[986,1423],[-27,0]],[[959,1423],[-1,16],[-6,0],[-3,98],[-1,10],[-15,12],[-51,47],[-9,15],[0,17]],[[959,1423],[-54,-2],[-130,-8],[-79,0]],[[980,1250],[8,70],[-2,103]],[[4356,2702],[75,1],[264,10],[153,5]],[[4848,2718],[115,4],[2,-210],[189,6],[96,1]],[[5444,1846],[-5,1],[-143,-1],[-76,73],[-18,13],[-117,51],[-56,24],[-32,1],[-25,-5],[-34,-12],[-18,-11],[-30,-7],[-41,7],[-34,17],[-21,5],[-17,-1],[-57,-16],[-14,-3],[-22,1],[-62,17],[-25,0],[-108,-15],[-35,-5],[-98,-19]],[[4356,1961],[1,25],[0,367],[0,216],[0,43],[-1,90]],[[5819,1481],[0,-62]],[[5819,1419],[-48,1],[-25,-2],[-81,-2]],[[5665,1416],[-92,25],[-100,28],[-33,13],[-37,20],[-88,52],[27,2],[59,0],[-1,37],[16,0],[2,12],[36,0],[0,29],[36,-1]],[[5836,3762],[1,-75],[2,-76],[2,-194],[0,-175],[-1,-135],[0,-134],[-4,-370],[-1,-76]],[[4848,2718],[-1,151],[-1,131],[0,99],[-1,120],[1,76],[0,217],[0,81],[1,289]],[[4356,1397],[147,2],[238,3],[92,1],[375,4],[138,1],[60,2],[40,-1],[139,5],[80,2]],[[5819,1419],[-1,-319]],[[5818,1100],[-61,-15],[-43,-14],[-27,-7],[-11,-1],[-240,-7],[-21,-5],[-23,-16],[-49,-45],[-13,-8],[-21,-6],[-55,0],[-122,0],[-30,3],[-30,10],[-32,22],[-18,9],[-36,10],[-14,10],[-118,69],[-19,8],[-18,2],[-218,-3],[-218,-1],[-26,-2]],[[4355,1113],[0,40],[0,93],[0,52],[1,99]],[[3869,3911],[2,-10],[-12,-8],[-5,-14],[-42,-11],[-5,-5],[-3,-157],[-2,-203],[-1,-92],[0,-187],[0,-95],[2,-289],[-10,-6]],[[3793,2834],[-224,-5],[-144,-5]],[[3425,2824],[-102,1],[-169,0],[-183,0],[-56,1],[-193,-1],[-38,-1]],[[2684,2824],[-2,149],[-1,73],[-2,45],[22,1],[35,15],[7,9],[1,16],[1,195],[3,20],[1,53],[-4,18],[-65,94],[-11,5],[-35,0],[1,8],[4,131],[1,36],[-132,1],[5,19],[1,35],[2,108],[5,18],[-22,9]],[[4356,2702],[1,151],[-54,-2],[-60,-5],[-318,-10],[-132,-2]],[[2684,2824],[-374,1],[-140,0],[-50,1]],[[1951,2826],[5,214],[4,194],[3,188],[4,274],[3,159],[-1,41]],[[985,2813],[1,321],[1,111],[-1,259],[1,253],[-1,171],[0,6]],[[28,2771],[2,164],[2,197],[0,40],[2,138],[1,76],[2,105],[1,94],[1,269],[1,10]],[[5818,1100],[-1,-270],[0,-383],[3,-122],[-4,-86],[-1,-170],[-30,0],[-54,-2],[-109,-5],[-70,-2],[-141,-7],[-106,-3],[-93,-4],[-95,-1],[-127,-2],[-184,2],[-178,-1],[-28,0],[-123,1],[-120,1],[0,14]],[[4357,60],[0,188],[0,120],[-1,113],[1,141],[0,195],[-2,6],[2,45],[-3,63],[1,182]],[[3383,1438],[186,4],[4,201],[2,150],[158,4],[1,86]],[[3734,1883],[2,138],[-66,-14],[-62,-20],[-27,-6]],[[3581,1981],[6,156],[-57,0],[-102,-2],[-29,1]],[[3399,2136],[2,14],[3,82],[11,265],[0,20],[10,307]],[[4356,1961],[1,-5],[-1,-146],[1,-217],[-1,-32],[-1,-128],[1,-36]],[[4355,1113],[-24,-2],[-179,-3],[-12,1],[-16,7],[-12,13],[-6,21],[-2,102],[5,81],[-5,24],[-11,14],[-11,8],[-62,33],[-15,7],[-28,5],[-47,-1],[-31,-3],[-118,-19],[-25,-2],[-74,3],[-14,-2],[-78,-29],[-33,-7],[-101,-9],[-18,-3],[-26,-6],[-29,-3]],[[3383,1343],[0,95]],[[2101,1961],[125,0],[192,-1],[98,-2],[128,0],[15,-1]],[[2659,1957],[115,-1],[206,-1],[76,0],[26,-7],[12,-6],[45,-31]],[[3139,1911],[-3,-6],[-32,-13],[-15,0],[-21,-4],[-45,-4],[-3,-114],[94,16],[22,4]],[[3136,1790],[-1,-6],[44,0],[114,2],[-2,-106],[97,2]],[[3388,1682],[-1,-56],[-4,-188]],[[3383,1343],[-38,-4],[-36,-11],[-43,-17],[-20,-4],[-69,-3],[-21,-2],[-128,-36],[-83,-17],[-36,-6],[-95,-2],[-34,-8],[-82,-29],[-92,-32],[-10,-2],[-85,-9],[-12,0],[-170,20],[-67,-1],[-108,-5],[-71,-2],[-55,0],[-52,-4],[-23,2]],[[3383,1343],[1,-288],[0,-62],[2,-183],[2,-58],[5,-354],[4,-347]],[[3397,51],[-97,-2],[-113,-1],[-154,-1],[-184,1],[-89,-3],[-253,-4],[-229,-1],[-184,0],[-53,3],[-90,0]],[[3393,1931],[79,-10],[30,3],[55,22],[23,6],[1,29]],[[3734,1883],[-95,-3],[-22,5],[-39,0],[-39,-5],[-27,-4],[-120,-4]],[[3392,1872],[1,59]],[[3398,2105],[-5,-174]],[[3392,1872],[-9,0],[-177,-5]],[[3206,1867],[0,2],[-40,24],[-27,18]],[[2659,1957],[47,26],[21,6],[102,18],[144,22],[18,1],[22,-6],[23,-15],[37,-41],[20,-20],[58,-39],[22,-9],[19,-6],[20,-2],[10,14],[1,22],[12,29],[10,15],[-1,23],[-4,24],[8,5],[10,12],[23,8],[9,6],[-1,8],[18,6],[19,3],[16,19],[13,5],[14,-6],[4,8],[25,12]],[[3388,1682],[4,190]],[[3136,1790],[0,25],[51,1],[1,45],[3,5],[15,1]],[[4357,60],[-100,-1],[-169,0],[-65,-1],[-110,0],[-204,-1],[-56,-1],[-162,-4],[-94,-1]],[[3399,2136],[-1,-31]]],"transform":{"scale":[0.00008107257513661218,0.00006284190215361653],"translate":[-78.468711,43.128619]},"objects":{"Geometry\\36-073":{"type":"GeometryCollection","geometries":[{"arcs":[[0,1,2,3]],"type":"Polygon","properties":{"GEOID":"360730404001"}},{"arcs":[[4,5,6,7,8]],"type":"Polygon","properties":{"GEOID":"360730408022"}},{"arcs":[[9,10,11,12,13,14,15]],"type":"Polygon","properties":{"GEOID":"360739900000"}},{"arcs":[[16,17,18,-1,19,20,21,22,23]],"type":"Polygon","properties":{"GEOID":"360730402002"}},{"arcs":[[-23,24,25,26]],"type":"Polygon","properties":{"GEOID":"360730403002"}},{"arcs":[[27,28,29,30,31,-26]],"type":"Polygon","properties":{"GEOID":"360730403001"}},{"arcs":[[-19,32,33,34,35,-29,-2]],"type":"Polygon","properties":{"GEOID":"360730402001"}},{"arcs":[[-20,-4,36,37,38]],"type":"Polygon","properties":{"GEOID":"360730404002"}},{"arcs":[[-21,-39,39]],"type":"Polygon","properties":{"GEOID":"360730404003"}},{"arcs":[[-37,-3,-28,40]],"type":"Polygon","properties":{"GEOID":"360730405001"}},{"arcs":[[-22,-40,-38,-41,-25]],"type":"Polygon","properties":{"GEOID":"360730405002"}},{"arcs":[[41,42,-9,43,44]],"type":"Polygon","properties":{"GEOID":"360730408021"}},{"arcs":[[-7,45,46,47]],"type":"Polygon","properties":{"GEOID":"360730408023"}},{"arcs":[[-10,48,-5,-43,49]],"type":"Polygon","properties":{"GEOID":"360734013001"}},{"arcs":[[50,-47,51,52,53]],"type":"Polygon","properties":{"GEOID":"360730408012"}},{"arcs":[[-12,54,55,56,57]],"type":"Polygon","properties":{"GEOID":"360734013003"}},{"arcs":[[-11,-50,-42,58,-55]],"type":"Polygon","properties":{"GEOID":"360734013002"}},{"arcs":[[-13,-58,59,-34,60]],"type":"Polygon","properties":{"GEOID":"360734012002"}},{"arcs":[[-14,-61,-33,-18,61]],"type":"Polygon","properties":{"GEOID":"360734012001"}},{"arcs":[[-15,-62,-17,62]],"type":"Polygon","properties":{"GEOID":"360734012003"}},{"arcs":[[-53,63,64]],"type":"Polygon","properties":{"GEOID":"360730408011"}},{"arcs":[[65,66,67,68,-56,-59,-45,69,-54,70,71]],"type":"Polygon","properties":{"GEOID":"360730406031"}},{"arcs":[[-44,-8,-48,-51,-70]],"type":"Polygon","properties":{"GEOID":"360730408024"}},{"arcs":[[-36,72,73,74,75,76,-72,77,-30]],"type":"Polygon","properties":{"GEOID":"360730406033"}},{"arcs":[[-78,78,79,-31]],"type":"Polygon","properties":{"GEOID":"360730406011"}},{"arcs":[[80,-67,81,82]],"type":"Polygon","properties":{"GEOID":"360730407021"}},{"arcs":[[83,-83,84,85,-74,86]],"type":"Polygon","properties":{"GEOID":"360730407022"}},{"arcs":[[87,-82,-66,-77]],"type":"Polygon","properties":{"GEOID":"360730407012"}},{"arcs":[[88,-85,-88,-76]],"type":"Polygon","properties":{"GEOID":"360730407011"}},{"arcs":[[-86,-89,-75]],"type":"Polygon","properties":{"GEOID":"360730406021"}},{"arcs":[[-71,-65,89,-79]],"type":"Polygon","properties":{"GEOID":"360730406012"}},{"arcs":[[-60,-57,-69,90,-87,-73,-35]],"type":"Polygon","properties":{"GEOID":"360730406032"}},{"arcs":[[-91,-68,-81,-84]],"type":"Polygon","properties":{"GEOID":"360730407023"}}]}}}