{"type":"Topology","arcs":[[[4667,3297],[407,31],[59,6]],[[5133,3334],[26,-152],[-2,-18],[49,-334]],[[5206,2830],[2,-7]],[[5208,2823],[-29,-18],[-66,-19],[-61,-10],[-56,-44],[-84,-27],[-143,-35],[-11,-5],[-74,-81],[-37,-45],[-58,-77],[-50,-61],[-82,-63]],[[4457,2338],[-107,76],[-50,14],[-35,-4],[-37,-14],[-7,63],[4,49],[24,36],[-9,93],[-22,91],[4,47],[-2,92],[-6,54],[-2,72],[-77,-15],[-36,-16],[-54,-5],[-39,8],[-70,23],[-52,-1],[-69,-17],[-25,-17],[-24,-30]],[[3766,2937],[-15,257]],[[3751,3194],[-1,12],[133,16],[230,21],[273,26],[281,28]],[[5208,2823],[20,-211],[55,-400],[60,-415]],[[5343,1797],[43,-268]],[[5386,1529],[-95,-9],[-59,-13],[-196,-19],[-16,3],[-9,31],[-89,-9]],[[4922,1513],[-29,145],[-28,80],[-48,93]],[[4817,1831],[-43,83],[-22,66],[10,5],[12,99],[-12,112],[-9,41],[-103,-51]],[[4650,2186],[-53,49],[-140,103]],[[5386,1529],[64,-445],[105,3],[6,-257],[8,-23],[95,2],[15,-374],[82,0],[-1,-387],[2,-44]],[[5762,4],[-301,-4]],[[5461,0],[-13,37],[-61,116],[-103,115],[-23,18]],[[5261,286],[32,63],[-6,9],[-139,107],[-17,21],[-65,138],[-42,111],[-15,117],[-10,31],[-31,54],[46,45],[-85,223],[-9,50],[2,48],[12,98],[1,39],[-13,73]],[[2798,2355],[62,-50]],[[2860,2305],[47,-37]],[[2907,2268],[-11,-28]],[[2896,2240],[-93,-9]],[[2803,2231],[-10,116],[5,8]],[[2692,2185],[55,-45],[65,-32]],[[2812,2108],[65,-34],[32,-10],[-13,176]],[[2907,2268],[47,-39]],[[2954,2229],[7,-97]],[[2961,2132],[14,-169]],[[2975,1963],[-85,11],[-36,15],[-155,105]],[[2699,2094],[-7,91]],[[2812,2108],[-11,123]],[[2801,2231],[2,0]],[[2689,2219],[112,12]],[[2692,2185],[-3,34]],[[2679,2354],[52,9]],[[2731,2363],[52,5]],[[2783,2368],[15,-13]],[[2689,2219],[1,16],[-11,119]],[[2975,1963],[37,-3],[115,64],[31,34]],[[3158,2058],[40,17]],[[3198,2075],[8,-33]],[[3206,2042],[-28,-23],[-2,-48],[14,-3],[-1,-100]],[[3189,1868],[-14,-3],[7,-33],[-5,-21]],[[3177,1811],[-9,23],[-49,10],[-2,31],[-15,49],[-34,-20],[-27,-5],[-114,27]],[[2927,1926],[-31,8],[-47,27],[-123,88],[-23,9]],[[2703,2058],[-4,36]],[[3177,1811],[-3,-48],[13,-43],[-9,-38],[-32,-9],[-23,-23],[8,-22]],[[3131,1628],[-135,-12],[-21,282],[-53,-5]],[[2922,1893],[5,33]],[[2922,1893],[-67,-4],[-100,-13],[-41,9]],[[2714,1885],[0,27],[-11,146]],[[3198,2075],[117,28]],[[3315,2103],[3,-30]],[[3318,2073],[4,-47]],[[3322,2026],[5,-51]],[[3327,1975],[-47,-4],[-32,-16]],[[3248,1955],[-12,72],[-24,-8],[-6,23]],[[3327,1975],[3,-41],[19,-32]],[[3349,1902],[-63,-15],[-36,-2]],[[3250,1885],[-2,70]],[[3349,1902],[14,-12],[29,0]],[[3392,1890],[3,-47],[68,3],[42,-6],[-7,-61],[-29,-42]],[[3469,1737],[-4,68],[-67,-2],[13,-145],[-13,-1]],[[3398,1657],[-76,51],[-60,11],[-12,152]],[[3250,1871],[0,14]],[[3189,1868],[61,3]],[[3398,1657],[-41,-6],[-207,-22]],[[3150,1629],[-19,-1]],[[3593,2156],[48,33],[132,59],[52,-8],[21,6],[45,-10]],[[3891,2236],[-103,-90]],[[3788,2146],[-21,72],[-30,-5],[-83,-37],[2,-27],[-42,-22]],[[3614,2127],[-21,29]],[[3457,2054],[-2,17],[64,20],[-8,33]],[[3511,2124],[32,9]],[[3543,2133],[27,7],[23,16]],[[3614,2127],[40,-95]],[[3654,2032],[-19,-10],[-77,-64],[-130,-20]],[[3428,1938],[7,17],[35,44],[54,9],[7,22],[-5,26],[-15,12],[-54,-14]],[[3322,2026],[75,7],[-1,14],[61,7]],[[3428,1938],[-40,-2],[4,-46]],[[969,3998],[21,54],[13,67],[0,30],[17,75],[57,-14],[-37,-49],[-10,-39],[35,-49],[9,-27],[25,7],[101,18],[18,8],[42,38],[39,19],[91,-9],[66,-65],[24,-39],[49,-51],[21,-67],[27,-12],[36,-40],[10,-36],[3,-83],[24,-87],[4,-38],[-4,-47],[-40,-63],[-8,-25]],[[1602,3474],[-283,-13],[-3,21],[-94,-2],[4,-88],[-324,-18]],[[902,3374],[-8,138],[-22,134],[-17,46],[-2,23],[19,83],[15,37],[82,163]],[[646,4126],[84,-90],[44,-10],[130,-13],[65,-15]],[[902,3374],[-160,-4],[-4,50],[-386,-17],[-112,-7]],[[240,3396],[-8,151],[-18,365],[-6,68],[-1,119],[439,27]],[[2562,2484],[14,2]],[[2576,2486],[32,4]],[[2608,2490],[2,-29],[30,2],[3,-47]],[[2643,2416],[-75,-16]],[[2568,2400],[-6,84]],[[1482,1193],[40,-6],[25,5],[46,34],[55,14],[96,20],[53,-9],[64,2],[81,15],[33,30],[33,63],[8,37],[29,67],[16,23],[48,36],[22,23],[25,5],[48,-7]],[[2204,1545],[36,2],[72,36],[44,8],[75,6],[75,-13],[32,6],[29,15],[25,29],[22,38]],[[2614,1672],[20,19],[29,46],[29,34],[30,67]],[[2722,1838],[3,-285],[-185,-7],[13,-296],[-2,-64]],[[2551,1186],[-139,-25],[-108,-1],[-26,-14],[-22,-26],[-48,-40],[4,-51],[-12,-29],[-19,-8],[-43,-39],[-17,-30],[-50,-42],[-52,-34],[-21,-35],[-25,1],[-116,-14],[-53,49],[-56,-29],[-16,-35],[-22,-24]],[[1710,760],[-40,69],[-21,68],[-20,31],[-45,49],[-18,45],[-29,51],[-19,46],[-36,74]],[[5261,286],[-60,54],[-28,41],[-43,53],[-21,41],[-56,40],[-43,41],[-39,46],[-2,18],[8,79],[-22,54],[-67,53],[-24,41]],[[4864,847],[-41,107],[31,68],[26,41],[-3,96],[-29,22],[2,72],[-9,98],[-21,98],[-1,71],[-55,75]],[[4764,1595],[-15,37],[-21,69]],[[4728,1701],[22,13],[2,17],[-49,89]],[[4703,1820],[114,11]],[[4650,2186],[-97,-57],[-22,-7],[-44,8],[55,-86],[108,-145],[53,-79]],[[4728,1701],[-6,17],[-34,45],[-14,29],[-37,38],[-109,12],[-22,12]],[[4506,1854],[-16,32],[-5,30],[5,38],[14,52],[-3,33],[-46,37],[-34,9],[-105,39],[-29,20],[-76,114],[-79,10],[-88,38]],[[4044,2306],[13,0],[-16,191],[-10,100],[-228,-23]],[[3803,2574],[-26,-2]],[[3777,2572],[-3,181],[-8,184]],[[4764,1595],[-58,-37],[-168,230]],[[4538,1788],[-43,56],[11,10]],[[2045,4272],[93,2],[47,73],[17,16],[96,54],[26,7],[108,6],[52,-20]],[[2484,4410],[17,-5],[6,-178],[159,7],[57,0],[13,-297],[17,-391]],[[2753,3546],[-36,-5],[-317,-19],[-42,2],[-180,-13],[-96,-4],[-140,-10],[-181,-9]],[[1761,3488],[10,19],[9,47],[29,36],[17,51],[-21,48],[-31,101],[9,19],[44,37],[9,93],[27,45],[-4,15],[45,57],[29,21],[24,34],[31,87],[15,20],[32,22],[10,32]],[[2192,7327],[30,-34],[60,-46],[28,-13],[79,-4],[66,5],[27,-35],[57,-39],[13,-22],[4,-51]],[[2556,7088],[-184,-7],[-27,5],[-21,-6],[-123,-3]],[[2201,7077],[-10,157],[1,93]],[[890,9034],[706,23],[23,-33],[-3,-48],[134,4],[383,17]],[[2133,8997],[4,-115],[14,-346],[9,-155],[8,-186],[7,-252],[1,-66],[9,-271],[6,-80],[-3,-65]],[[2188,7461],[-44,47],[-64,48],[-88,60],[-35,32],[-14,30],[-29,12],[-79,60],[-35,10],[-62,-11],[-20,6],[-76,44],[-75,4],[-68,13],[-110,-4],[-96,15],[-38,19],[-73,29],[-63,13],[-23,-1],[-65,-22],[-42,18],[-11,122],[-38,72],[-10,118],[-4,200],[18,92],[14,34],[12,81],[-13,82],[3,77],[-6,31],[-32,32],[-14,49],[-2,67],[-16,94]],[[461,6670],[280,7],[655,16],[-6,182],[48,0],[-2,168],[668,25],[97,9]],[[2201,7077],[4,-284],[5,-30],[-3,-92],[4,-191],[7,-163]],[[2218,6317],[28,-630],[7,-178],[-1,-62],[14,-291]],[[2266,5156],[-63,-7],[-267,-4],[-123,3],[0,115],[3,216],[-87,1],[-1,76],[-129,-2],[-5,166],[-636,-29],[-136,-10],[-87,-2]],[[735,5679],[-8,147],[-24,0],[-9,155],[-56,-3],[-7,154],[-192,-7],[-9,193],[-80,2],[1,135],[116,2],[-6,213]],[[3438,3915],[33,45],[105,150],[81,120],[39,-26],[33,42],[64,34]],[[3793,4280],[79,23],[71,24],[38,31],[15,20],[27,-10]],[[4023,4368],[-3,-53],[5,-73],[-7,-30],[-24,-36]],[[3994,4176],[-49,-21],[-33,-27],[-45,-62],[-58,-103],[-12,-52],[-5,-62]],[[3792,3849],[-62,-5],[-25,-30],[0,-78],[-61,-12],[-43,-4],[-85,-140]],[[3516,3580],[-37,61]],[[3479,3641],[4,71],[-29,142],[-16,61]],[[4023,4368],[25,-3],[77,-24],[233,17],[28,-19],[13,-42],[6,-41],[-1,-79]],[[4404,4177],[-48,7],[-27,-15],[-76,-21],[-76,-4],[-2,70],[-11,16],[-170,-54]],[[3190,5213],[176,11],[148,13],[58,3],[223,21],[315,15],[61,0],[47,-16]],[[4218,5260],[46,-55]],[[4264,5205],[-32,-80]],[[4232,5125],[-265,-21],[-22,-20],[-16,-69],[-7,-16],[6,-118],[-79,-117],[-10,-40],[3,-105],[-7,-55],[-57,-139],[-22,-91],[34,-34],[3,-20]],[[3438,3915],[-42,125],[-8,33],[0,49],[47,204],[7,52],[1,75],[-16,97]],[[3427,4550],[-15,49],[-103,286],[-24,49],[-55,74],[-19,54],[-21,151]],[[4864,847],[-26,-15],[19,-69],[32,-65],[15,-50],[-28,2]],[[4876,650],[-61,123],[-16,67],[-2,67],[6,45],[-10,36],[-83,404],[-29,60]],[[4681,1452],[-214,329],[71,7]],[[1340,2562],[18,2]],[[1358,2564],[157,11]],[[1515,2575],[10,-18],[5,-94]],[[1530,2463],[-31,-3],[-80,-16],[-36,-3]],[[1383,2441],[-2,78],[-38,-2],[-3,45]],[[2520,2652],[60,3]],[[2580,2655],[156,10]],[[2736,2665],[3,-92]],[[2739,2573],[4,-47]],[[2743,2526],[-37,28],[-47,24],[-39,10],[-50,6]],[[2570,2594],[-58,6]],[[2512,2600],[-2,53],[10,-1]],[[1002,2120],[84,0],[53,28]],[[1139,2148],[50,32]],[[1189,2180],[87,57]],[[1276,2237],[5,-91]],[[1281,2146],[-101,-46],[-9,-27],[-21,3],[-45,-16],[-42,-27],[-57,-14]],[[1006,2019],[-9,2]],[[997,2021],[8,17],[-3,82]],[[2568,2400],[-45,-8]],[[2523,2392],[-79,-14]],[[2444,2378],[-13,21],[0,24],[-16,43]],[[2415,2466],[147,18]],[[4232,5125],[-25,-77],[-21,-31],[-5,-47],[10,-17],[0,-55],[-11,-72],[1,-64],[24,-67],[46,-33],[18,-42],[5,-64],[12,-32],[44,-55],[12,-28]],[[4342,4441],[61,-79],[53,-135],[-3,-40],[-15,-19]],[[4438,4168],[-34,9]],[[4232,5125],[43,4],[149,109],[177,3],[3,-207],[66,-3],[78,4],[-35,-82],[1,-122],[-70,-74],[-10,-24],[-18,-95]],[[4616,4638],[3,-77],[-18,-125]],[[4601,4436],[-19,-67],[-148,-2],[-9,6],[-52,90],[-17,16],[-14,-38]],[[3775,3612],[5,62]],[[3780,3674],[42,-9]],[[3822,3665],[115,-22],[75,-21],[64,-56],[65,-15]],[[4141,3551],[22,3]],[[4163,3554],[6,-15],[47,7],[101,44],[89,8]],[[4406,3598],[40,-51],[25,-49],[78,-78],[25,-60],[51,-26],[42,-37]],[[3751,3194],[-15,-2]],[[3736,3192],[16,20],[11,34],[0,31],[-18,6],[15,57],[-70,-6]],[[3690,3334],[70,194],[15,84]],[[2739,2573],[65,8]],[[2804,2581],[91,-41],[21,-4]],[[2916,2536],[-3,-23]],[[2913,2513],[-26,-16],[-51,10],[18,-65]],[[2854,2442],[-111,84]],[[3434,3117],[15,53]],[[3449,3170],[169,15],[118,7]],[[3777,2572],[-90,-8],[-2,4]],[[3685,2568],[-18,30],[-75,113],[-61,95],[-22,-3]],[[3509,2803],[2,121],[18,100],[1,41],[-46,-3],[-3,-31],[-60,32]],[[3421,3063],[13,54]],[[4163,3554],[43,7],[41,17],[52,43],[33,64],[54,83],[21,12],[37,63],[39,137],[-50,108],[-2,43],[7,37]],[[4601,4436],[60,3],[22,16],[20,-6],[28,-45],[27,-69],[7,-113],[-1,-43],[-11,-61],[0,-53],[8,-22],[-32,-19],[-45,-69],[-44,-90],[-31,-31],[-21,-31],[-47,-96],[-56,-24],[-39,18],[-20,16],[-22,-27],[30,-20],[-36,-52],[8,-20]],[[3915,2252],[48,18],[13,12]],[[3976,2282],[46,11],[22,13]],[[4681,1452],[-112,-12],[-44,-17],[-135,-141],[-32,-13],[-23,2],[-22,14],[-13,35],[-27,37],[-112,123],[-59,35],[-19,39],[-14,64],[-17,38],[-20,25],[-16,60],[-15,4]],[[4001,1745],[-10,59],[-25,189],[-33,-10],[-17,137],[-1,132]],[[2239,3113],[19,-20],[19,-40],[-6,-100],[77,4]],[[2348,2957],[4,-118],[107,14],[34,-25]],[[2493,2828],[6,-102],[16,1],[5,-75]],[[2512,2600],[-49,6]],[[2463,2606],[-69,7]],[[2394,2613],[-178,19]],[[2216,2632],[-4,141],[-8,119],[-35,6]],[[2169,2898],[-3,89],[82,2],[-25,133],[16,-9]],[[2643,2416],[35,7]],[[2678,2423],[1,-69]],[[2692,2185],[-41,21],[-3,65],[-84,-10],[-2,9]],[[2562,2270],[-39,122]],[[5781,3981],[72,13],[74,23],[242,102],[73,18],[47,1],[70,-13],[78,-25],[36,-2],[57,16],[38,28],[20,23],[73,110],[45,46],[31,19],[51,20],[39,7],[48,-2],[51,-17],[32,-17],[47,-41],[53,-66],[36,-34],[49,-27],[25,-7],[348,-75],[46,-7]],[[7562,4074],[-27,-70],[-29,-49],[5,-18],[41,-80],[23,-30],[74,-66],[23,-41],[27,-72],[20,-36],[50,-53],[54,-48],[54,-43],[14,-16],[26,-53],[2,-22],[-7,-198],[-6,-24],[-56,-106],[-16,-44],[-16,-66],[-16,-41],[-31,-29],[-100,-27],[-29,8],[-29,20],[-53,8],[-84,-4],[-42,3],[-61,23],[-21,2],[-6,-84]],[[7346,2818],[-47,-1],[-23,-8],[-63,-65],[-16,-5],[-130,5]],[[7067,2744],[-108,2],[-164,-4],[-13,-3],[-103,2],[-498,-9],[-7,45],[-1,66],[-422,-6],[-82,-4]],[[5669,2833],[-4,249],[67,19],[52,32],[83,37],[18,14],[20,47],[26,29],[20,7],[90,13],[83,1],[92,-4],[98,-14],[107,25],[42,14],[60,8],[60,-16],[89,-51],[34,-12],[30,-1],[57,8],[28,11],[58,53],[37,12],[144,2],[32,15],[18,27],[24,77],[33,55],[11,30],[29,128],[31,56],[35,33],[-89,44],[-70,37],[-131,1],[-72,-5],[-175,-44],[-60,-27],[-7,-17],[-32,6],[-10,-19],[-34,-2],[-112,113],[-44,48],[-132,1],[-34,33],[-52,-8],[-55,23],[-120,0],[-80,-2],[-57,6],[-106,-15],[-6,39],[-14,32]],[[8873,4309],[492,-2],[237,1],[537,-3],[81,2],[81,-2],[150,0],[98,-3],[22,2],[-2,-120],[2,-59],[-6,-133],[-9,-455],[-3,-178],[-8,-330],[-5,-119],[-1,-133],[-6,-243],[-11,-484],[2,-82],[-4,-221],[-5,-167]],[[10515,1580],[-3,59],[-31,39],[-3,63],[-8,66],[-8,20],[-41,30],[-66,55],[-14,35],[0,65],[-11,70],[-36,45],[-14,37],[-28,27],[-37,0],[-45,26],[-25,45],[-47,65],[-25,49],[-34,24],[-87,-21],[-54,-34],[-35,-6],[-66,5],[-155,-55],[-33,-6]],[[9609,2283],[-11,34],[-23,37],[-21,84],[-27,66],[-22,88],[-22,35],[-62,79],[-36,27],[-49,17],[-69,35],[-89,36],[-71,67],[-28,14],[-67,48],[-23,7],[-18,20],[0,28],[-35,1],[-40,19],[-27,0]],[[8869,3025],[4,961],[-2,199],[2,124]],[[4264,5205],[43,109],[58,61]],[[4365,5375],[41,25],[70,11],[25,29],[82,19],[33,24],[166,0],[646,6],[224,-3],[178,3]],[[5830,5489],[-1,-381],[4,-690],[-6,-44],[-1,-348],[-54,1]],[[5772,4027],[-120,0],[-394,-10],[-159,-2]],[[5099,4015],[-5,40],[4,68],[18,192],[-2,113],[-11,48],[-19,33],[22,25],[9,77],[-6,38],[-25,42],[-120,-41],[-260,-4],[-47,-7],[-41,-1]],[[10515,1580],[-3,-294],[-4,-19]],[[10508,1267],[-63,-12],[-111,-62],[-42,-13],[-27,-2],[-84,6],[-41,-14],[-30,-26],[-55,-65],[-49,-39],[-42,-6],[-46,16],[-81,55],[-31,11],[-115,29],[-31,5],[-74,-4],[-91,20],[-46,4],[-42,-5],[3,32],[14,58],[13,77],[25,60],[4,44],[12,28],[54,64],[32,73],[32,28],[34,50],[8,32],[1,49],[-3,143],[-5,33],[1,119],[-3,94],[-8,60],[-10,27],[-2,47]],[[3190,5213],[-562,-36],[-81,-6]],[[2547,5171],[-86,-8],[-195,-7]],[[2218,6317],[66,34],[46,6],[21,-6],[81,-57],[64,-13],[89,8],[89,2],[-12,-65],[284,17],[32,55],[19,9],[102,7],[-4,108],[27,7],[14,59],[22,21],[28,-2],[18,15],[37,6],[40,25],[20,20],[25,-23],[151,-182],[75,-72],[30,-54],[44,-168],[30,-89],[14,-53],[38,-81],[37,-51],[73,-44],[53,-38],[28,-10],[64,-42],[51,-63],[28,-59],[38,-28],[36,-39],[31,-57],[36,-80],[48,-69],[-13,-11]],[[3332,2317],[183,-1]],[[3515,2316],[45,-1],[-1,-12]],[[3559,2303],[-92,-26],[-8,-12]],[[3459,2265],[-56,-96]],[[3403,2169],[-34,2],[-11,35]],[[3358,2206],[-23,67]],[[3335,2273],[-3,44]],[[5830,5489],[228,1],[3,-35],[502,5],[76,0],[161,7],[505,9],[4,-140],[6,-41],[4,-92],[-2,-69],[7,-459],[-4,-170],[2,-8],[1,-180],[326,-3],[78,1],[477,-3]],[[8204,4312],[-39,-41],[-87,-113],[-7,7],[-42,-43],[-62,-33],[-48,-9],[-272,-9],[-85,3]],[[5781,3981],[-9,46]],[[2463,2606],[-2,-33],[5,-88],[-61,-4]],[[2405,2481],[-6,18],[-5,114]],[[8204,4312],[669,-3]],[[8869,3025],[1,-23],[-293,-7],[3,-218],[-3,-73],[-41,-1]],[[8536,2703],[-831,-12],[-6,36],[-28,34],[-25,14],[-63,21],[-83,36],[-25,2],[-75,-16],[-54,0]],[[5099,4015],[-68,-4],[69,-447],[33,-230]],[[2897,2359],[52,-42]],[[2949,2317],[5,-88]],[[2860,2305],[37,54]],[[3358,2206],[-83,-34]],[[3275,2172],[-19,38],[13,38],[66,25]],[[3318,2073],[31,3],[58,21],[45,9],[59,18]],[[362,257],[76,45],[56,65],[-49,61],[-11,27],[-3,50],[14,42],[17,1],[80,24],[38,2],[36,10],[65,4],[21,58],[18,7],[13,-60],[11,-118],[201,12],[28,89],[83,9],[37,-45],[6,-16],[146,6],[25,4],[31,18],[51,2],[22,10],[84,76],[59,1],[29,18],[82,33]],[[1628,692],[82,68]],[[2551,1186],[4,-56],[28,-880],[-38,-3],[-5,-23],[11,-200]],[[2551,24],[-324,1],[-424,0],[-759,0],[-682,-2],[0,234]],[[2133,8997],[130,6],[375,24],[11,2],[520,30],[70,7],[204,16]],[[3443,9082],[-31,-68],[-11,-65],[-8,-160],[-5,-67],[-18,-155],[-6,-37],[-2,-58],[6,-104],[-6,-71],[-30,-118],[-6,-4],[-182,-13],[-59,25],[-64,-5],[-72,-31],[-87,-5],[-58,-48],[-77,-89],[-47,-35],[-80,-31],[-116,-51],[-49,-44],[-46,-33],[47,-165],[133,5],[70,0],[101,-32],[29,-2],[104,8],[4,-81],[-6,-55],[4,-50],[14,9],[127,46],[39,7],[30,-2],[39,-13],[46,-24],[16,-121],[-29,-93],[2,-56],[21,-79]],[[3180,7117],[-624,-29]],[[2192,7327],[-4,134]],[[359,1000],[140,8],[23,17],[48,51],[9,20],[-7,121],[29,-6],[23,-38],[47,-56],[8,-29],[2,-45],[41,3],[91,23],[65,10],[90,33],[1,46],[19,33],[44,44],[-3,86],[55,4],[15,11],[39,47],[54,20],[112,84]],[[1304,1487],[22,-36],[-5,-41]],[[1321,1410],[9,-86],[30,-108],[22,-46],[12,-53],[-15,-33],[26,-75],[-2,-32],[-12,-40],[6,-86],[37,24],[107,12],[19,-30],[18,-65],[50,-100]],[[362,257],[-7,399],[0,71],[22,9],[-18,264]],[[557,1562],[46,35],[27,51],[90,70],[50,33]],[[770,1751],[18,-21],[51,-19],[17,26],[61,4],[40,-4],[30,-35],[10,-23],[19,1],[-4,63],[-58,86],[30,13]],[[984,1842],[21,-39],[53,-33],[44,0],[24,-32],[49,-34],[-21,-45],[8,-17],[47,-50],[29,11]],[[1238,1603],[49,20],[24,-9],[6,-16],[-5,-54],[10,-43],[14,-23],[-4,-44],[11,-10]],[[1343,1424],[-22,-14]],[[1304,1487],[-22,26],[-10,31],[-34,-5],[-55,-61],[-55,-20],[-23,1],[-49,14],[-29,-24],[-65,-21],[-66,-2],[-49,6],[-267,-20],[-5,38],[-16,43],[-2,69]],[[3495,2563],[113,2]],[[3608,2565],[11,-125]],[[3619,2440],[-116,-11]],[[3503,2429],[1,44],[-12,3]],[[3492,2476],[3,87]],[[3910,3703],[66,-16],[91,-11]],[[4067,3676],[100,-12],[2,-48],[19,1],[5,-25],[-52,-41]],[[3822,3665],[-12,39],[-59,30],[71,1],[26,-6],[62,-26]],[[1819,2594],[-148,-10]],[[1671,2584],[-15,49]],[[1656,2633],[-36,96]],[[1620,2729],[2,49],[8,6],[156,9],[10,-163],[46,5],[-23,-41]],[[4876,650],[-25,0],[-44,34],[-19,8],[-18,30],[-55,-5],[-3,-37],[-24,-13],[-19,13],[-33,-19],[-42,4],[-14,25],[-68,23],[-30,45],[-80,36],[-23,0],[-16,21],[-24,5],[-39,-23],[-55,-19],[-31,-28],[-35,-46],[-16,-85],[-14,-47],[-87,-14],[-36,-27],[-34,-17],[-44,8],[-59,23],[-125,-4]],[[3764,541],[-20,447],[-9,157]],[[3735,1145],[-6,125]],[[3729,1270],[-5,121],[210,7],[102,9],[-11,124],[-24,214]],[[729,5055],[19,-9],[99,-11],[26,-17],[21,-42],[20,-11],[58,1],[54,-52],[-2,-63],[-7,-40],[20,-56],[6,-36],[1,-52],[14,-29],[18,-61],[45,-39],[46,106],[46,44],[57,73],[11,21],[57,-25],[11,-10],[18,-42],[87,-41],[51,-6],[36,3],[80,20],[164,-44],[38,-14],[102,-55],[43,-39],[16,-27],[58,-205],[3,-25]],[[1761,3488],[-77,-4],[-82,-10]],[[646,4126],[-5,18],[-4,129],[53,6],[-7,119],[-10,-1],[-5,135],[-6,118],[62,3],[-7,167],[12,0],[0,235]],[[3509,2803],[-95,-9]],[[3414,2794],[-20,116],[1,34],[12,65],[14,54]],[[3994,4176],[-66,-38],[19,-9],[220,14],[-33,-132],[-51,-149],[-22,-48],[-2,-49],[8,-89]],[[3910,3703],[17,33],[-34,39],[-75,9],[-4,65],[-22,0]],[[3509,2803],[-1,-102],[-8,-56]],[[3500,2645],[-50,-4],[-4,-30],[-54,-4],[5,29],[-38,19]],[[3359,2655],[39,44],[15,51],[1,44]],[[2547,5171],[5,-123],[-59,-2],[4,-141],[-20,-1],[5,-160],[-25,-2],[5,-104],[-5,-19],[8,-121],[14,-8],[6,-60]],[[2485,4430],[-1,-20]],[[729,5055],[-1,24],[-50,-1],[-3,96],[-26,0],[-11,205],[-50,-1],[-5,118],[-80,-2],[-5,173],[237,12]],[[461,6670],[-36,-1],[-1,154],[-69,-1],[-2,183],[-89,-3],[0,173],[-59,1],[-5,233],[110,2],[-9,219],[-22,-1],[-8,217],[-40,1],[0,214],[-116,2],[-2,172],[-4,125],[39,-1],[-41,243],[-22,3],[-1,218],[-76,1],[-8,181],[82,3],[808,26]],[[3180,7117],[176,8],[799,76]],[[4155,7201],[22,-321],[25,-371],[30,-382],[9,-147],[12,-264],[102,-318],[10,-23]],[[1172,2829],[4,-94],[27,-14],[-2,62],[42,3],[4,-114],[-99,-5],[1,-37],[-30,-2]],[[1119,2628],[-9,194],[62,7]],[[933,2195],[85,38]],[[1018,2233],[3,-46],[-19,-1],[0,-66]],[[1002,2120],[-67,4]],[[935,2124],[-2,71]],[[1230,2557],[11,1]],[[1241,2558],[99,4]],[[1383,2441],[-36,-9],[2,-36]],[[1349,2396],[-83,-15]],[[1266,2381],[-2,54],[-12,-1],[-2,39],[-16,-1],[-4,85]],[[5669,2833],[-7,-3],[-306,2],[-150,-2]],[[10508,1267],[-6,-41],[19,-84],[1,-23],[17,-82],[-4,-35],[-14,-38],[5,-22],[36,-60],[42,-29],[45,-67],[14,-52],[33,-36],[23,-77],[39,-183],[45,-71],[3,-24],[-8,-32],[13,-31],[32,-28],[53,-61],[32,-6],[45,13],[30,-10],[30,-44],[39,-31],[81,-19],[33,6],[36,20],[113,101],[23,9],[23,-13],[26,-64],[-11,-69],[8,-16],[40,-31],[-294,-1],[-859,-3],[-574,-3],[-109,0],[-1037,-5]],[[8571,25],[-3,24],[-8,1159],[-10,608],[-14,887]],[[1602,3474],[14,-81],[-1,-48],[-9,-87]],[[1606,3258],[-97,36],[-94,-4]],[[1415,3290],[-84,-7],[-70,-32],[-32,-20]],[[1229,3231],[-62,18],[-51,-18],[-15,-18],[-57,-6],[-2,-33],[40,-92],[5,-21],[-1,-69],[-10,-63],[-17,-82],[-29,-52],[-20,-51],[-24,-44],[-34,-100],[6,-76],[-19,-75]],[[939,2449],[-1,54],[-9,31],[-39,-3],[-6,-32]],[[884,2499],[-5,107],[17,41],[36,113],[-27,-10],[-25,8],[-40,-2],[-21,-33],[-16,28],[-17,-8],[16,-34],[-19,-4],[-26,46],[-67,-2],[4,16],[26,9],[-7,29],[-74,-6],[8,-204]],[[647,2593],[-25,9],[-37,0],[-117,-42],[-65,-7],[-23,-8],[-66,-42],[-36,-1]],[[278,2502],[-35,793],[-3,101]],[[2534,2250],[28,20]],[[2699,2094],[-164,73],[-26,16]],[[2509,2183],[7,43],[18,24]],[[1586,2371],[27,2],[-5,91]],[[1608,2464],[67,4]],[[1675,2468],[-3,-66],[44,-1],[8,-19]],[[1724,2382],[-75,-72],[-39,-18],[-24,79]],[[3494,2386],[9,43]],[[3619,2440],[3,-41]],[[3622,2399],[6,-76],[10,-35]],[[3638,2288],[-79,15]],[[3515,2316],[-23,21],[-5,27],[7,22]],[[3443,9082],[478,35],[32,5],[32,-480],[22,-173],[16,-106],[16,-128],[25,-164],[47,-351],[20,-134],[24,-385]],[[3315,2103],[60,14],[28,52]],[[3459,2265],[22,-51],[33,10],[29,-91]],[[3788,2146],[-66,-53],[-7,-12],[-61,-49]],[[2493,2828],[66,5]],[[2559,2833],[7,-103],[9,3]],[[2575,2733],[5,-78]],[[1773,1928],[0,75]],[[1773,2003],[56,-22],[6,-37],[49,4],[-1,28],[16,2]],[[1899,1978],[2,-17],[38,14],[52,-2],[-2,33],[17,13],[-9,135]],[[1997,2154],[0,3]],[[1997,2157],[46,4],[114,-5],[141,-20]],[[2298,2136],[-2,-40],[-68,-97],[-12,-22],[-17,-55],[-4,-49],[-15,-40],[-1,-101],[6,-102],[17,-58],[2,-27]],[[1482,1193],[-8,43],[-26,61],[-36,123],[-17,45]],[[1395,1465],[53,22],[22,30],[57,49],[36,3],[18,31],[114,26],[-1,63],[11,41],[17,35],[36,-6],[34,20],[2,12],[-8,137],[-13,0]],[[2745,2477],[-20,-35],[6,-79]],[[2678,2423],[-4,43],[71,11]],[[3780,3674],[-74,-9],[-43,-23],[-76,-84],[-40,-56]],[[3547,3502],[-14,27],[-17,51]],[[3547,3502],[-22,-52],[-76,-280]],[[3434,3117],[-38,1],[-91,-8],[-77,1],[0,-29],[-262,-12]],[[2966,3070],[58,64],[19,15],[17,32],[-5,99],[58,11],[11,23],[4,39],[18,14],[56,-34],[36,-77],[27,-20],[67,5],[5,31],[30,2],[38,-9],[9,14],[45,114],[-10,49],[2,25],[28,174]],[[3427,4550],[-5,9],[-49,-53],[-61,-46],[-136,-160],[-55,-77],[-55,-97],[-51,69],[-39,61],[-35,49],[-31,60],[-66,80],[-33,24],[-35,7],[-26,-3],[-65,-29],[-193,-12],[-7,-2]],[[2966,3070],[-74,2]],[[2892,3072],[-10,478],[-129,-4]],[[2745,2477],[0,23]],[[2745,2500],[-2,26]],[[2854,2442],[5,-18]],[[2859,2424],[-44,32],[-34,-51],[2,-37]],[[2859,2424],[12,-44],[26,-21]],[[2916,2536],[179,-32]],[[3095,2504],[2,-94],[-11,-66],[5,-25]],[[3091,2319],[-64,4]],[[3027,2323],[-46,24]],[[2981,2347],[-2,25],[-31,24],[-8,118],[-27,-1]],[[2981,2347],[-127,95]],[[2804,2581],[119,9],[182,8],[2,27],[-32,-3],[-24,17],[-107,-7],[-5,52],[52,7],[-13,167],[-1,53]],[[2977,2911],[61,12],[3,-63],[50,-2]],[[3091,2858],[6,-32],[29,11],[56,-65],[-21,-25],[34,-44],[14,0],[12,-63],[-39,-5],[6,-15],[76,6]],[[3264,2626],[63,5]],[[3327,2631],[-20,-51],[22,-9]],[[3329,2571],[-19,-17]],[[3310,2554],[-21,-8],[-27,-69],[-51,-4],[-49,13]],[[3162,2486],[-67,18]],[[3310,2554],[-38,-97],[-65,-138]],[[3207,2319],[-58,0]],[[3149,2319],[20,89],[-7,78]],[[3149,2319],[-22,-1]],[[3127,2318],[-36,1]],[[3327,2631],[32,24]],[[3500,2645],[-5,-82]],[[3492,2476],[-64,-1],[-15,-13],[-39,4]],[[3374,2466],[12,91],[-57,14]],[[3494,2386],[-69,-6],[-1,19],[-60,3]],[[3364,2402],[4,29],[-11,17],[17,18]],[[3332,2317],[-32,1]],[[3300,2318],[64,84]],[[3300,2318],[-93,1]],[[3775,3612],[-96,-75],[-38,-43],[-20,-37],[-69,-170],[36,-22],[15,14],[69,6],[18,49]],[[3685,2568],[-29,-9]],[[3656,2559],[-48,6]],[[3803,2574],[2,-14],[34,6],[4,-39],[-34,-5],[4,-31],[41,-28],[4,-37],[-89,-11]],[[3769,2415],[-70,-8]],[[3699,2407],[-3,33],[25,2],[-3,52],[-57,-12],[-5,77]],[[3976,2282],[-93,-13],[-44,13],[-40,20]],[[3799,2302],[2,23],[-35,2],[3,88]],[[3622,2399],[77,8]],[[3799,2302],[-23,6],[-46,-22],[-22,-4],[-70,6]],[[3915,2252],[-24,-16]],[[3164,2081],[15,57],[-1,64]],[[3178,2202],[25,0],[3,-28],[40,-8],[29,6]],[[3158,2058],[6,23]],[[3178,2202],[5,62],[24,55]],[[3178,2202],[-72,16]],[[3106,2218],[21,100]],[[3071,2229],[20,90]],[[3106,2218],[-35,11]],[[3013,2264],[14,59]],[[3071,2229],[-51,30]],[[3020,2259],[-7,5]],[[3013,2264],[-64,53]],[[647,2593],[45,-54]],[[692,2539],[37,-26],[-1,-76],[-15,-58],[-25,-30],[9,-31],[25,6],[16,25],[30,-16]],[[768,2333],[-32,-38],[-40,-7],[-22,-17],[47,-37]],[[721,2234],[-28,-18],[-1,-17],[-21,-39],[-46,2],[-19,-50],[-6,-62],[52,3]],[[652,2053],[-84,-96],[-23,-37],[-12,-31],[-33,-46],[-33,-19],[-106,-114],[0,-4]],[[361,1706],[-45,-37]],[[316,1669],[-2,40],[-37,546],[44,2],[20,17],[-5,225],[-58,3]],[[884,2499],[-26,-5],[-46,13],[-14,10],[-56,3],[-50,19]],[[1606,3258],[119,-14],[-14,-61],[10,-26],[-2,-25],[-32,-15],[-3,-41],[-24,-44],[-22,-52]],[[1638,2980],[-48,-3]],[[1590,2977],[-4,37],[-27,0],[-54,67],[-88,179],[-2,30]],[[1590,2977],[6,-56],[-5,-32]],[[1591,2889],[-122,-6],[-8,-11],[-121,75]],[[1340,2947],[-7,160],[-23,44],[-39,46],[-19,30],[-23,4]],[[1340,2947],[4,-86]],[[1344,2861],[-96,-27],[-76,-5]],[[1119,2628],[1,-22]],[[1120,2606],[-7,-28],[-44,-1],[3,-29]],[[1072,2548],[-44,-3],[0,-38],[-21,-1],[4,-174],[-11,-7]],[[1000,2325],[-11,26],[-45,-1]],[[944,2350],[-7,80],[2,19]],[[1344,2861],[8,-176]],[[1352,2685],[3,-79]],[[1355,2606],[3,-42]],[[1241,2558],[-1,26],[-34,-2],[0,58],[-49,-2],[0,-30],[-37,-2]],[[1230,2557],[-106,-7]],[[1124,2550],[-52,-2]],[[1124,2550],[8,-176],[16,8],[43,3],[1,-22]],[[1192,2363],[-60,-36]],[[1132,2327],[-74,-66],[-40,-28]],[[1018,2233],[0,17]],[[1018,2250],[-3,63],[-15,12]],[[2745,2500],[-43,1],[-94,-11]],[[2576,2486],[-6,108]],[[2415,2466],[-4,-1]],[[2411,2465],[-6,16]],[[2534,2250],[-37,39],[-56,74],[3,15]],[[2509,2183],[-26,37],[-75,64],[-15,26],[-102,143]],[[2291,2453],[120,12]],[[2348,2957],[37,88],[24,71],[53,85],[6,45]],[[2468,3246],[66,1],[8,-100],[16,25],[51,0],[7,-56],[42,-1],[1,-26],[36,-2],[6,-50],[10,0]],[[2711,3037],[3,-104],[7,-85]],[[2721,2848],[-58,-4]],[[2663,2844],[-2,7],[-64,-5],[-38,-13]],[[2239,3113],[44,14],[29,0],[1,56],[19,0],[0,59],[136,4]],[[1645,2209],[81,83]],[[1726,2292],[187,188],[48,35],[51,27],[8,10],[71,2],[21,-20],[28,0]],[[2140,2534],[31,-22],[89,-30],[31,-29]],[[2703,2058],[-94,37]],[[2609,2095],[-16,11],[-58,23],[-151,55],[-13,3],[-86,-24],[-34,-1],[-35,18],[-75,72],[-73,37],[-61,16],[-15,-73],[5,-75]],[[1997,2154],[-126,-26]],[[1871,2128],[-8,1],[-143,-26]],[[1720,2103],[-5,64],[-32,-11],[1,19],[-39,34]],[[2609,2095],[-50,20],[-38,8],[-74,5]],[[2447,2128],[-149,8]],[[1899,1978],[-7,86],[-21,64]],[[1773,2003],[-3,31],[-48,58],[-2,11]],[[2714,1885],[5,-24]],[[2719,1861],[-27,-16],[-10,-22],[-22,-10],[-46,46],[-63,-10]],[[2551,1849],[-9,-1],[-15,105],[-7,78],[-34,66],[-39,31]],[[2719,1861],[3,-23]],[[2614,1672],[-7,41],[-35,34],[-10,27],[-11,75]],[[1281,2146],[116,66]],[[1397,2212],[44,18],[74,21],[51,0],[79,-42]],[[1720,2103],[-184,-34],[-237,-73]],[[1299,1996],[-13,88],[-5,62]],[[1773,1928],[-27,-5],[-21,-17],[-111,9],[-52,-13],[-17,-14],[-40,-64],[-53,-56],[-139,-97],[-9,31],[2,33],[19,70]],[[1325,1805],[-26,189]],[[1299,1994],[0,2]],[[1325,1805],[-25,-21],[-39,-2],[-21,-15],[-90,-5]],[[1150,1762],[-12,154],[161,78]],[[984,1842],[6,39]],[[990,1881],[6,24],[-5,41],[24,16],[2,25],[-11,32]],[[1150,1762],[4,-23],[47,-45],[14,-34],[11,-44],[12,-13]],[[1395,1465],[-21,-7],[-31,-34]],[[361,1706],[43,-11],[63,-85],[27,-6],[43,29],[101,225],[22,10],[110,-8],[64,23],[31,38],[32,29],[57,63],[43,8]],[[990,1881],[-163,-95],[-57,-35]],[[557,1562],[-62,-34],[-86,-13],[9,-17],[-2,-56],[-45,-6],[-3,41],[-20,-1],[-2,26],[-20,-6]],[[326,1496],[-10,173]],[[359,1000],[-11,140],[-22,356]],[[3729,1270],[-9,24],[-13,80],[-3,37],[-16,16],[-48,-12],[-13,12],[-9,113],[-4,3],[-119,-2],[-43,63],[6,14],[11,119]],[[5461,0],[-163,0],[-887,7],[-557,5]],[[3854,12],[-9,184],[-4,233],[-73,2],[-4,110]],[[3735,1145],[-115,-11],[-94,-7],[-23,1],[-162,-16],[-32,0],[-69,64],[-47,-9],[-32,55],[0,20]],[[3161,1242],[17,37],[11,70],[14,39],[46,42],[12,23],[-11,75],[-38,-6],[-31,3],[-7,64],[-33,-4],[9,44]],[[652,2053],[97,10],[3,-95],[19,-10],[56,2],[-5,114]],[[822,2074],[113,50]],[[2575,2733],[26,1],[70,-35],[-8,145]],[[2721,2848],[2,-37],[13,-146]],[[1192,2363],[1,-27],[-13,-12],[9,-144]],[[1139,2148],[-10,152],[3,27]],[[908,2345],[1,18],[35,-13]],[[1018,2250],[-106,-5],[-1,6]],[[911,2251],[-3,94]],[[933,2195],[-82,-32]],[[851,2163],[-16,85],[76,3]],[[818,2150],[33,13]],[[822,2074],[-4,76]],[[1276,2237],[81,51]],[[1357,2288],[40,-76]],[[1349,2396],[8,-108]],[[1276,2237],[-10,144]],[[1192,2363],[74,18]],[[3161,1242],[-50,11],[-31,14],[-77,58],[-40,21],[11,125],[-2,10],[-49,-25],[-20,-23],[-82,48],[-37,2],[-5,-14],[32,-63],[-9,-48],[-9,-13],[-101,-71],[-23,-23],[-24,-37],[-29,-16],[-65,-12]],[[3264,2626],[6,17],[60,118],[-18,43],[18,82],[-35,-1],[-18,-14],[-186,-13]],[[2977,2911],[-3,0],[-8,159]],[[2711,3037],[46,12],[135,23]],[[2169,2898],[-14,8],[-15,92],[6,87],[-10,9],[-85,13],[-108,-8],[-23,-34],[-28,7],[-88,-18],[-34,-22],[-21,-24],[-49,-25],[-62,-3]],[[2216,2632],[-121,10],[-47,-10],[-42,-17],[-72,-40],[-27,36],[-88,-17]],[[1620,2729],[-48,64]],[[1572,2793],[19,96]],[[2140,2534],[27,19],[-6,43],[5,17],[44,8],[6,11]],[[1726,2292],[17,37],[-19,53]],[[1675,2468],[2,72],[-6,44]],[[1357,2288],[148,74],[81,9]],[[1530,2463],[78,1]],[[1515,2575],[156,9]],[[1572,2793],[-45,39],[-38,-10],[-16,-38],[30,-29],[2,-20],[-21,-15],[-5,-26],[-127,-9]],[[1656,2633],[-121,-9],[-41,-10],[-139,-8]],[[768,2333],[47,100],[64,4],[5,62]],[[908,2345],[-106,-26],[-46,-15],[-22,-34],[-13,-36]],[[818,2150],[-82,-32],[-29,-15],[-55,-50]],[[3854,12],[-398,5],[-905,7]],[[8571,25],[-840,-3]],[[7731,22],[-22,35],[-40,51],[-47,67],[-29,7],[-15,40],[-40,50],[-32,69],[-4,31],[-16,39],[9,75],[52,118],[-3,59],[12,108],[30,88],[38,97],[-6,31],[-32,20],[-8,61],[-25,55],[-32,49],[-20,17],[-83,54],[-40,37],[-72,36],[-45,70],[-7,35],[13,76],[1,40],[-12,55]],[[7256,1592],[5,41]],[[7261,1633],[43,-15],[13,29],[22,23],[55,24],[2,42],[10,54],[-12,42],[-17,19],[-10,29],[-40,12],[-51,-42]],[[7276,1850],[-21,35],[-10,40],[10,136],[-1,48],[-31,56],[-10,84],[-12,39],[-37,65],[-24,26],[-86,114],[-18,50],[3,38],[10,31],[5,112],[13,20]],[[5669,2833],[-6,-73],[92,3],[10,-6],[3,-47],[13,-9],[65,11],[89,-2],[9,-8],[78,-101],[22,-41],[58,-155],[52,-49],[35,-45],[17,-38],[39,-58],[46,-25],[48,-16],[90,-95],[7,-99],[-16,-34],[15,-16],[-153,14],[-122,23],[-77,19],[-123,45],[-58,12],[-41,-3],[-95,-17],[-64,0],[-66,24],[-94,58],[4,-104],[-18,-95],[13,-38]],[[5541,1868],[-126,-29],[-72,-42]],[[7276,1850],[-109,-87],[-29,-14],[-62,-3],[-41,-8],[-67,34],[-31,-25],[119,-35],[93,-37],[112,-42]],[[7256,1592],[-43,-13],[-42,-58],[-27,-49],[-47,-14],[-32,-1],[-42,22],[-68,52],[-84,15],[-26,-9],[-48,-41],[-95,-41],[-87,0],[-41,4],[-36,16],[-25,1],[-27,-20],[-67,-15],[-37,-15],[-88,-13],[-58,0],[-71,-11],[-75,-40],[-38,-13],[-86,31],[-57,42],[-34,-2],[-12,11],[-11,51],[-25,36],[-47,83],[-99,103],[-29,37],[-111,127]],[[7731,22],[-373,-2],[-309,-4],[-580,-4],[-707,-8]],[[2961,2132],[61,5]],[[3022,2137],[13,0]],[[3035,2137],[5,-75],[92,14]],[[3132,2076],[32,5]],[[3132,2076],[7,43]],[[3139,2119],[8,32],[-54,18]],[[3093,2169],[13,49]],[[3020,2259],[-1,-80]],[[3019,2179],[3,-42]],[[3093,2169],[-74,10]],[[3139,2119],[-32,9],[-72,9]]],"transform":{"scale":[0.0000673310031457526,0.000045804867353650976],"translate":[-76.130181,41.99787]},"objects":{"Geometry\\36-007":{"type":"GeometryCollection","geometries":[{"arcs":[[0,1,2,3,4,5,6]],"type":"Polygon","properties":{"GEOID":"360070126001"}},{"arcs":[[-4,7,8,9,10,11,12]],"type":"Polygon","properties":{"GEOID":"360070126002"}},{"arcs":[[-10,13,14,15,16]],"type":"Polygon","properties":{"GEOID":"360070126003"}},{"arcs":[[17,18,19,20,21]],"type":"Polygon","properties":{"GEOID":"360070015001"}},{"arcs":[[22,23,-20,24,25,26,27,28]],"type":"Polygon","properties":{"GEOID":"360070015002"}},{"arcs":[[-21,-24,29,30]],"type":"Polygon","properties":{"GEOID":"360070015003"}},{"arcs":[[31,-30,-23,32]],"type":"Polygon","properties":{"GEOID":"360070015004"}},{"arcs":[[33,34,35,-22,-31,-32,36]],"type":"Polygon","properties":{"GEOID":"360070015005"}},{"arcs":[[-28,37,38,39,40,41,42,43,44]],"type":"Polygon","properties":{"GEOID":"360070016001"}},{"arcs":[[-43,45,46,47]],"type":"Polygon","properties":{"GEOID":"360070016002"}},{"arcs":[[-44,-48,48,49]],"type":"Polygon","properties":{"GEOID":"360070016003"}},{"arcs":[[50,51,52,53,54,55,-40]],"type":"Polygon","properties":{"GEOID":"360070017001"}},{"arcs":[[-55,56,57,58]],"type":"Polygon","properties":{"GEOID":"360070017002"}},{"arcs":[[-58,59,60,61,62,63]],"type":"Polygon","properties":{"GEOID":"360070017003"}},{"arcs":[[-42,64,-63,65,66,-46]],"type":"Polygon","properties":{"GEOID":"360070017004"}},{"arcs":[[-56,-59,-64,-65,-41]],"type":"Polygon","properties":{"GEOID":"360070017005"}},{"arcs":[[67,68,69,70]],"type":"Polygon","properties":{"GEOID":"360070018001"}},{"arcs":[[71,72,73,-71,74,75,76]],"type":"Polygon","properties":{"GEOID":"360070018003"}},{"arcs":[[77,-77,78,-60,-57,-54]],"type":"Polygon","properties":{"GEOID":"360070018004"}},{"arcs":[[79,80,81]],"type":"Polygon","properties":{"GEOID":"360070102003"}},{"arcs":[[82,-82,83,84]],"type":"Polygon","properties":{"GEOID":"360070102004"}},{"arcs":[[85,86,87,88,89]],"type":"Polygon","properties":{"GEOID":"360070140002"}},{"arcs":[[90,91,92,93,94,95]],"type":"Polygon","properties":{"GEOID":"360070146002"}},{"arcs":[[-11,-17,96,97,98,99,100]],"type":"Polygon","properties":{"GEOID":"360070126004"}},{"arcs":[[-5,-13,101,-100,102,103,104,105,106]],"type":"Polygon","properties":{"GEOID":"360070126005"}},{"arcs":[[-12,-101,-102]],"type":"Polygon","properties":{"GEOID":"360070126006"}},{"arcs":[[-103,-99,107,108]],"type":"Polygon","properties":{"GEOID":"360070127012"}},{"arcs":[[109,110,111,112]],"type":"Polygon","properties":{"GEOID":"360070102005"}},{"arcs":[[113,114,115]],"type":"Polygon","properties":{"GEOID":"360070119013"}},{"arcs":[[116,117,118]],"type":"Polygon","properties":{"GEOID":"360070119032"}},{"arcs":[[119,120,121,122,123]],"type":"Polygon","properties":{"GEOID":"360070120001"}},{"arcs":[[124,125,126,127,128,129,130]],"type":"Polygon","properties":{"GEOID":"360070121014"}},{"arcs":[[131,132,-127]],"type":"Polygon","properties":{"GEOID":"360070121013"}},{"arcs":[[133,134,135,136,-125,137,138]],"type":"Polygon","properties":{"GEOID":"360070121011"}},{"arcs":[[-108,-98,139,140,141]],"type":"Polygon","properties":{"GEOID":"360070127013"}},{"arcs":[[142,143,144,145,146]],"type":"Polygon","properties":{"GEOID":"360070132012"}},{"arcs":[[147,148,149,150,151,152,153]],"type":"Polygon","properties":{"GEOID":"360070138002"}},{"arcs":[[154,155,156,157,158,159,160]],"type":"Polygon","properties":{"GEOID":"360070137002"}},{"arcs":[[-90,161,162,163,164]],"type":"Polygon","properties":{"GEOID":"360070140003"}},{"arcs":[[165,166,167,-132,-126,-137]],"type":"Polygon","properties":{"GEOID":"360070121012"}},{"arcs":[[168,169,170,-166]],"type":"Polygon","properties":{"GEOID":"360070122023"}},{"arcs":[[171,172,173,174,175,176,-7,177,178,179]],"type":"Polygon","properties":{"GEOID":"360070122013"}},{"arcs":[[180,181,182,183,184,-151]],"type":"Polygon","properties":{"GEOID":"360070002003"}},{"arcs":[[185,186,-178,-6,-107,187,188,189,190]],"type":"Polygon","properties":{"GEOID":"360070128002"}},{"arcs":[[191,-167,-171,192,-176]],"type":"Polygon","properties":{"GEOID":"360070122024"}},{"arcs":[[193,194,-104,-109,-142,195,196]],"type":"Polygon","properties":{"GEOID":"360070127014"}},{"arcs":[[197,198,199,-154,200,201,202,203,204]],"type":"Polygon","properties":{"GEOID":"360070142003"}},{"arcs":[[-89,205,206,-37,-33,207,208,-162]],"type":"Polygon","properties":{"GEOID":"360070141003"}},{"arcs":[[209,210,211,212,213]],"type":"Polygon","properties":{"GEOID":"360070123002"}},{"arcs":[[214,215,216,217]],"type":"Polygon","properties":{"GEOID":"360070124001"}},{"arcs":[[-136,218,219,220,221,222,-169]],"type":"Polygon","properties":{"GEOID":"360070122021"}},{"arcs":[[-216,223,224]],"type":"Polygon","properties":{"GEOID":"360070124002"}},{"arcs":[[-134,225,226,-122,227]],"type":"Polygon","properties":{"GEOID":"360070119022"}},{"arcs":[[228,229,230,231,232,233,234]],"type":"Polygon","properties":{"GEOID":"360070011001"}},{"arcs":[[-221,235,236,-210,237]],"type":"Polygon","properties":{"GEOID":"360070123001"}},{"arcs":[[-202,238,239]],"type":"Polygon","properties":{"GEOID":"360070139003"}},{"arcs":[[-237,240,-218,241,242,-211]],"type":"Polygon","properties":{"GEOID":"360070123003"}},{"arcs":[[-170,-223,243,-1,-177,-193]],"type":"Polygon","properties":{"GEOID":"360070122022"}},{"arcs":[[244,245,-25,-19,246]],"type":"Polygon","properties":{"GEOID":"360070001004"}},{"arcs":[[-234,247,248]],"type":"Polygon","properties":{"GEOID":"360070012001"}},{"arcs":[[249,-72,-78,-53]],"type":"Polygon","properties":{"GEOID":"360070018005"}},{"arcs":[[250,251,-95,252,253]],"type":"Polygon","properties":{"GEOID":"360070146004"}},{"arcs":[[254,255,256,-114,257,-118]],"type":"Polygon","properties":{"GEOID":"360070119012"}},{"arcs":[[258,259,260,-251,261]],"type":"Polygon","properties":{"GEOID":"360070146003"}},{"arcs":[[262,263,264,265,266,-260,267]],"type":"Polygon","properties":{"GEOID":"360070145003"}},{"arcs":[[268,269,270,271,272]],"type":"Polygon","properties":{"GEOID":"360070006002"}},{"arcs":[[273,274,-174,275]],"type":"Polygon","properties":{"GEOID":"360070121022"}},{"arcs":[[276,277,278,279]],"type":"Polygon","properties":{"GEOID":"360070130004"}},{"arcs":[[-196,-141,280,281,282,283]],"type":"Polygon","properties":{"GEOID":"360070127015"}},{"arcs":[[284,-113,285,-80,-83,286]],"type":"Polygon","properties":{"GEOID":"360070102002"}},{"arcs":[[-190,287,288]],"type":"Polygon","properties":{"GEOID":"360070128003"}},{"arcs":[[-128,289,-274,290]],"type":"Polygon","properties":{"GEOID":"360070121021"}},{"arcs":[[-288,291,292,293]],"type":"Polygon","properties":{"GEOID":"360070004002"}},{"arcs":[[-123,-227,294,295,-110,-285,296]],"type":"Polygon","properties":{"GEOID":"360070102001"}},{"arcs":[[-119,-258,-116,-120,297]],"type":"Polygon","properties":{"GEOID":"360070119031"}},{"arcs":[[-115,-257,298,299,-219,-135,-228,-121]],"type":"Polygon","properties":{"GEOID":"360070119021"}},{"arcs":[[300,301]],"type":"Polygon","properties":{"GEOID":"360070133045"}},{"arcs":[[302,303,304,305]],"type":"Polygon","properties":{"GEOID":"360070136004"}},{"arcs":[[306,307,-147,308,309,310]],"type":"Polygon","properties":{"GEOID":"360070134004"}},{"arcs":[[-222,-238,-214,311,-2,-244]],"type":"Polygon","properties":{"GEOID":"360070123004"}},{"arcs":[[-242,-217,-225,312,313]],"type":"Polygon","properties":{"GEOID":"360070124003"}},{"arcs":[[-84,-81,314,315,316,317,318,319,320,321]],"type":"Polygon","properties":{"GEOID":"360070133032"}},{"arcs":[[322,-208,-29,323,324]],"type":"Polygon","properties":{"GEOID":"360070141002"}},{"arcs":[[325,326,327,328]],"type":"Polygon","properties":{"GEOID":"360070131001"}},{"arcs":[[329,-271,330,331,332,-230,333]],"type":"Polygon","properties":{"GEOID":"360070006003"}},{"arcs":[[334,-299,-256]],"type":"Polygon","properties":{"GEOID":"360070119011"}},{"arcs":[[335,-232,336,-73,-250,-52]],"type":"Polygon","properties":{"GEOID":"360070009002"}},{"arcs":[[-70,337,-75]],"type":"Polygon","properties":{"GEOID":"360070018002"}},{"arcs":[[338,339,340,-148,-200]],"type":"Polygon","properties":{"GEOID":"360070138003"}},{"arcs":[[341,342,343,344,345,346,-91,347,348]],"type":"Polygon","properties":{"GEOID":"360070143011"}},{"arcs":[[349,-34,-207,350]],"type":"Polygon","properties":{"GEOID":"360070001001"}},{"arcs":[[-129,-291,-276,-173,351,352]],"type":"Polygon","properties":{"GEOID":"360070121023"}},{"arcs":[[-133,-168,-192,-175,-275,-290]],"type":"Polygon","properties":{"GEOID":"360070121024"}},{"arcs":[[-130,-353,353,-186,354,355]],"type":"Polygon","properties":{"GEOID":"360070121031"}},{"arcs":[[-226,-139,356,-295]],"type":"Polygon","properties":{"GEOID":"360070121032"}},{"arcs":[[-357,-138,-131,-356,357,358,-111,-296]],"type":"Polygon","properties":{"GEOID":"360070121033"}},{"arcs":[[359,360,-185,361,362,-35,-350]],"type":"Polygon","properties":{"GEOID":"360070001002"}},{"arcs":[[363,-247,-18,-36,-363]],"type":"Polygon","properties":{"GEOID":"360070001003"}},{"arcs":[[364,365,366,367,368,-183]],"type":"Polygon","properties":{"GEOID":"360070002001"}},{"arcs":[[-369,369,-184]],"type":"Polygon","properties":{"GEOID":"360070002002"}},{"arcs":[[370,371,372,373,374,375,376,377,-365,-182]],"type":"Polygon","properties":{"GEOID":"360070003001"}},{"arcs":[[-377,378,379,380]],"type":"Polygon","properties":{"GEOID":"360070003002"}},{"arcs":[[-378,-381,381,382,-366]],"type":"Polygon","properties":{"GEOID":"360070003003"}},{"arcs":[[383,-293,384,-273,385,386,-375]],"type":"Polygon","properties":{"GEOID":"360070004001"}},{"arcs":[[-386,-272,-330,387,388]],"type":"Polygon","properties":{"GEOID":"360070005001"}},{"arcs":[[-388,-334,-229,389,390]],"type":"Polygon","properties":{"GEOID":"360070005002"}},{"arcs":[[-376,-387,-389,-391,391,-379]],"type":"Polygon","properties":{"GEOID":"360070005003"}},{"arcs":[[-352,-172,392,-179,-187,-354]],"type":"Polygon","properties":{"GEOID":"360070122011"}},{"arcs":[[-180,-393]],"type":"Polygon","properties":{"GEOID":"360070122012"}},{"arcs":[[-292,-189,393,394,-269,-385]],"type":"Polygon","properties":{"GEOID":"360070006001"}},{"arcs":[[-394,-188,-106,395,396,397]],"type":"Polygon","properties":{"GEOID":"360070007001"}},{"arcs":[[-396,-105,-195,398,399]],"type":"Polygon","properties":{"GEOID":"360070007004"}},{"arcs":[[400,-397,-400,401,-332]],"type":"Polygon","properties":{"GEOID":"360070007002"}},{"arcs":[[-231,-333,-402,-399,-194,402,-68,-74,-337]],"type":"Polygon","properties":{"GEOID":"360070009001"}},{"arcs":[[403,404,-248,-233,-336,-51,-39,405]],"type":"Polygon","properties":{"GEOID":"360070011002"}},{"arcs":[[-392,-390,-235,-249,-405,406]],"type":"Polygon","properties":{"GEOID":"360070012002"}},{"arcs":[[-382,-380,-407,407,408]],"type":"Polygon","properties":{"GEOID":"360070013001"}},{"arcs":[[409,-383,-409,410]],"type":"Polygon","properties":{"GEOID":"360070013002"}},{"arcs":[[411,-367,-410,412,413]],"type":"Polygon","properties":{"GEOID":"360070013003"}},{"arcs":[[-370,-368,-412,414,-245,-364,-362]],"type":"Polygon","properties":{"GEOID":"360070013004"}},{"arcs":[[-321,415,416,417,418,419,420,421]],"type":"Polygon","properties":{"GEOID":"360070133015"}},{"arcs":[[422,-416,-320]],"type":"Polygon","properties":{"GEOID":"360070133031"}},{"arcs":[[-316,423,424,425]],"type":"Polygon","properties":{"GEOID":"360070133041"}},{"arcs":[[-426,426,427,428,-317]],"type":"Polygon","properties":{"GEOID":"360070133042"}},{"arcs":[[-318,-429,429,430,-302,431,432,433,434,435]],"type":"Polygon","properties":{"GEOID":"360070133043"}},{"arcs":[[-301,-431,436,437,438,-143,-308,439,-432]],"type":"Polygon","properties":{"GEOID":"360070133044"}},{"arcs":[[-440,-307,440,441,-433]],"type":"Polygon","properties":{"GEOID":"360070134001"}},{"arcs":[[-434,-442,442,443,444,445,446]],"type":"Polygon","properties":{"GEOID":"360070134003"}},{"arcs":[[-152,-361,447,-87,448]],"type":"Polygon","properties":{"GEOID":"360070139001"}},{"arcs":[[-201,-153,-449,-86,-165,449,450,-239]],"type":"Polygon","properties":{"GEOID":"360070139002"}},{"arcs":[[-448,-360,-351,-206,-88]],"type":"Polygon","properties":{"GEOID":"360070140001"}},{"arcs":[[-163,-209,-323,451]],"type":"Polygon","properties":{"GEOID":"360070141004"}},{"arcs":[[-450,-164,-452,-325,452,453]],"type":"Polygon","properties":{"GEOID":"360070141001"}},{"arcs":[[454,455,456,457,458,-339,-199]],"type":"Polygon","properties":{"GEOID":"360070142001"}},{"arcs":[[459,-455,-198]],"type":"Polygon","properties":{"GEOID":"360070142002"}},{"arcs":[[460,461,462,-453,-324,-45,463,464,-345,465,466,467]],"type":"Polygon","properties":{"GEOID":"360070143012"}},{"arcs":[[468,469,-346,-465]],"type":"Polygon","properties":{"GEOID":"360070143013"}},{"arcs":[[-466,-344,470]],"type":"Polygon","properties":{"GEOID":"360070143014"}},{"arcs":[[-467,-471,-343,471]],"type":"Polygon","properties":{"GEOID":"360070143015"}},{"arcs":[[-469,-464,-50,472,473,474]],"type":"Polygon","properties":{"GEOID":"360070143021"}},{"arcs":[[-474,475,-93,476]],"type":"Polygon","properties":{"GEOID":"360070143022"}},{"arcs":[[-470,-475,-477,-92,-347]],"type":"Polygon","properties":{"GEOID":"360070143023"}},{"arcs":[[477,478,-468,479,480]],"type":"Polygon","properties":{"GEOID":"360070144001"}},{"arcs":[[-480,-472,-342,481,482,483]],"type":"Polygon","properties":{"GEOID":"360070144002"}},{"arcs":[[-483,484,485]],"type":"Polygon","properties":{"GEOID":"360070144003"}},{"arcs":[[486,487,-159,-481,-484,-486,488,-265]],"type":"Polygon","properties":{"GEOID":"360070144004"}},{"arcs":[[-485,-482,-349,489,-266,-489]],"type":"Polygon","properties":{"GEOID":"360070144005"}},{"arcs":[[-421,490,-160,-488,491,-263,492,493]],"type":"Polygon","properties":{"GEOID":"360070145001"}},{"arcs":[[-492,-487,-264]],"type":"Polygon","properties":{"GEOID":"360070145002"}},{"arcs":[[-493,-268,-259,494]],"type":"Polygon","properties":{"GEOID":"360070145004"}},{"arcs":[[-267,-490,-348,-96,-252,-261]],"type":"Polygon","properties":{"GEOID":"360070146001"}},{"arcs":[[-76,-338,-69,-403,-197,-284,495,-61,-79]],"type":"Polygon","properties":{"GEOID":"360070127022"}},{"arcs":[[-140,-97,-16,496,497,-281]],"type":"Polygon","properties":{"GEOID":"360070127011"}},{"arcs":[[-66,-62,-496,-283,498,499]],"type":"Polygon","properties":{"GEOID":"360070127021"}},{"arcs":[[500,501,-305,-161,-491,-420]],"type":"Polygon","properties":{"GEOID":"360070137003"}},{"arcs":[[502,-458,503,-149,-341]],"type":"Polygon","properties":{"GEOID":"360070138001"}},{"arcs":[[-459,-503,-340]],"type":"Polygon","properties":{"GEOID":"360070138004"}},{"arcs":[[-444,504,-156,505]],"type":"Polygon","properties":{"GEOID":"360070135003"}},{"arcs":[[506,-435,-447,507,508]],"type":"Polygon","properties":{"GEOID":"360070136001"}},{"arcs":[[-508,-446,-303,509,510]],"type":"Polygon","properties":{"GEOID":"360070136002"}},{"arcs":[[511,-510,-306,-502,512]],"type":"Polygon","properties":{"GEOID":"360070136005"}},{"arcs":[[-445,-506,-155,-304]],"type":"Polygon","properties":{"GEOID":"360070136003"}},{"arcs":[[513,514,-478,-158]],"type":"Polygon","properties":{"GEOID":"360070137001"}},{"arcs":[[-310,515,-514,516]],"type":"Polygon","properties":{"GEOID":"360070135001"}},{"arcs":[[517,-517,-157,-505]],"type":"Polygon","properties":{"GEOID":"360070135002"}},{"arcs":[[-476,-473,-49,-47,-67,-500,518,-94]],"type":"Polygon","properties":{"GEOID":"360070127023"}},{"arcs":[[-355,-191,-289,-294,-384,-374,519,-372,520]],"type":"Polygon","properties":{"GEOID":"360070128004"}},{"arcs":[[-520,-373]],"type":"Polygon","properties":{"GEOID":"360070128005"}},{"arcs":[[-358,-521,-371,-181,-150,-504,-457,521]],"type":"Polygon","properties":{"GEOID":"360070128001"}},{"arcs":[[-286,-112,-359,-522,-456,-460,-205,522,-424,-315]],"type":"Polygon","properties":{"GEOID":"360070129001"}},{"arcs":[[-427,-425,-523,-204,523,-280,524,525]],"type":"Polygon","properties":{"GEOID":"360070130001"}},{"arcs":[[526,-203,-240,-451,-454,-463]],"type":"Polygon","properties":{"GEOID":"360070130002"}},{"arcs":[[-277,-524,-527,-462,527,-328,528]],"type":"Polygon","properties":{"GEOID":"360070130003"}},{"arcs":[[-329,-528,-461,-479,-515,529]],"type":"Polygon","properties":{"GEOID":"360070131002"}},{"arcs":[[-146,530,-326,-530,-516,-309]],"type":"Polygon","properties":{"GEOID":"360070131003"}},{"arcs":[[531,-529,-327,-531,-145]],"type":"Polygon","properties":{"GEOID":"360070132011"}},{"arcs":[[-428,-526,532,-437,-430]],"type":"Polygon","properties":{"GEOID":"360070132021"}},{"arcs":[[-533,-525,-279,533,-438]],"type":"Polygon","properties":{"GEOID":"360070132022"}},{"arcs":[[-534,-278,-532,-144,-439]],"type":"Polygon","properties":{"GEOID":"360070132023"}},{"arcs":[[534,-319,-436,-507,535,-418]],"type":"Polygon","properties":{"GEOID":"360070133012"}},{"arcs":[[-423,-535,-417]],"type":"Polygon","properties":{"GEOID":"360070133011"}},{"arcs":[[-536,-509,-511,-512,536,-419]],"type":"Polygon","properties":{"GEOID":"360070133013"}},{"arcs":[[-537,-513,-501]],"type":"Polygon","properties":{"GEOID":"360070133014"}},{"arcs":[[-519,-499,-282,-498,537,-253]],"type":"Polygon","properties":{"GEOID":"360070127024"}},{"arcs":[[-212,-243,-314,538,539,540,541,542]],"type":"Polygon","properties":{"GEOID":"360070125012"}},{"arcs":[[-312,543,544,-8,-3]],"type":"Polygon","properties":{"GEOID":"360070125023"}},{"arcs":[[-213,-543,545,-541,546,-544]],"type":"Polygon","properties":{"GEOID":"360070125021"}},{"arcs":[[-547,-540,547,-14,-9,-545]],"type":"Polygon","properties":{"GEOID":"360070125011"}},{"arcs":[[-395,-398,-401,-331,-270]],"type":"Polygon","properties":{"GEOID":"360070007003"}},{"arcs":[[548,549,550,551,-406,-38,-27]],"type":"Polygon","properties":{"GEOID":"360070014021"}},{"arcs":[[-408,-404,-552,552,553,554]],"type":"Polygon","properties":{"GEOID":"360070014011"}},{"arcs":[[-415,-414,555,556,-549,-26,-246]],"type":"Polygon","properties":{"GEOID":"360070014023"}},{"arcs":[[-542,-546]],"type":"Polygon","properties":{"GEOID":"360070125022"}},{"arcs":[[-413,-411,-555,557,-556]],"type":"Polygon","properties":{"GEOID":"360070014013"}},{"arcs":[[-558,-554,558,-550,-557]],"type":"Polygon","properties":{"GEOID":"360070014012"}},{"arcs":[[-559,-553,-551]],"type":"Polygon","properties":{"GEOID":"360070014022"}},{"arcs":[[-441,-311,-518,-443]],"type":"Polygon","properties":{"GEOID":"360070134002"}}]}}}