{"type":"Topology","arcs":[[[5320,10281],[14,-14],[35,-5],[16,7],[59,45],[12,26],[34,56]],[[5490,10396],[67,-39],[129,-93],[19,6],[15,-16],[64,-16],[201,-34]],[[5985,10204],[-10,-40],[-67,-249],[-187,47],[-107,32],[-51,-6],[-50,13],[-64,29],[-47,13],[-120,45],[-2,21],[-36,9],[9,36],[-7,13],[-22,1],[3,18],[20,3],[2,11],[-18,10],[-22,-5],[1,18],[30,9],[16,18],[9,31],[20,16],[13,-28],[22,12]],[[5444,10622],[204,-3],[103,0],[25,59],[31,62],[40,-7],[-42,-120],[-24,-40],[7,-11],[109,-26],[84,-22],[82,-18],[-76,-291],[-2,-1]],[[5490,10396],[7,25],[-2,44],[-16,97],[-14,37],[-21,23]],[[2278,10431],[274,-12],[219,-5],[328,-5],[153,1]],[[3252,10410],[3,-97],[2,-226],[1,-84],[2,-449],[-14,-58],[-10,-32],[-36,-77],[-31,-81],[-49,-292],[-2,-34],[8,-61],[-1,-45],[-7,-29],[-49,-148],[-48,-143],[-60,-186],[0,-137],[2,-153],[3,-207]],[[2966,7871],[-7,3],[-73,0],[-258,4],[-111,1],[-286,8],[-138,3],[-183,7]],[[1910,7897],[4,125],[-1,120],[6,487],[2,261],[-1,205],[-6,17],[1,139],[-2,98],[0,49],[-9,718],[367,-14],[7,329]],[[822,3217],[283,6],[247,2],[118,4],[159,3],[278,3]],[[1907,3235],[0,-203],[2,-268],[-1,-103],[2,-68],[2,-144],[27,-15],[22,9],[32,23],[12,4],[33,-24],[18,-2],[52,5],[19,12],[-16,-121],[0,-23],[17,-25],[69,-60],[15,-21],[3,-35],[-11,-88],[-31,-77],[-17,-25]],[[2156,1986],[-261,-3],[-60,-3],[-72,-13],[-117,-37],[-68,-20],[-40,2],[-25,-6],[-74,-62],[-36,-27],[-42,-21],[-84,-26],[-138,-13],[-45,-3],[1,-23],[-177,-2],[-46,6],[-38,-2],[-39,-6],[-148,-1],[-20,-12],[-70,-98],[-3,-36],[-7,-14],[-20,-12],[-17,-45],[-26,-26],[17,-26],[0,-46],[5,-21],[30,-41],[-8,-5],[-29,12],[-33,47],[-12,25],[-17,-13],[4,-33],[-10,-30],[3,-68],[-19,-3],[-15,25],[-26,12],[12,-43],[-6,-16]],[[380,1259],[-64,-26],[-29,7],[-39,21],[-21,36],[1,29],[22,35],[42,27],[14,21],[6,32],[-2,46],[-10,19],[-23,20],[-33,12],[-15,34],[-31,3],[-19,-14],[-20,-25],[-51,-53],[-45,-52],[-14,-8],[-36,0],[-13,27],[1,54],[6,26],[21,41],[67,51],[24,11],[54,13],[23,12],[17,39],[1,21],[-42,37],[-5,14],[0,32],[25,121],[22,62],[12,21],[30,38],[81,75],[85,91],[27,18],[20,7],[34,2],[46,-16],[21,2],[18,13],[4,18],[-33,32],[-44,81],[-15,13],[-27,5],[-19,-3],[-50,-41],[-58,-18],[-47,-28],[-25,4],[-24,15],[-59,71],[-11,38],[10,33],[24,41],[18,21],[29,17],[41,35],[20,25],[37,26],[35,35],[34,49],[21,9],[19,-5],[21,-19],[23,-11],[29,-2],[40,8],[35,-6],[39,-27],[29,-8],[36,16],[57,12],[14,13],[27,5],[55,-2],[77,72],[10,19],[56,82],[8,25],[-1,31],[-20,38],[-16,15],[-29,-1],[-50,6],[-49,14],[-39,-4],[-23,-13],[-28,-44],[-17,-17],[-34,-8],[-29,12],[-35,21],[-24,9],[-23,18],[-11,22],[-18,62],[-5,27],[15,27],[43,23],[21,0],[45,-7],[22,0],[21,17],[40,14],[31,23],[11,47]],[[7288,10059],[135,311],[106,241],[105,242],[21,56]],[[7655,10909],[46,105],[237,-7],[180,0],[84,-2],[251,0],[236,-3],[15,-21],[30,-26],[-7,-47],[5,-13],[21,-12],[35,-14],[20,-20],[16,-47],[67,4],[25,17],[15,-4],[13,-26],[-6,-21],[-22,-16],[-7,-21],[13,-36],[8,-52],[40,-57],[47,-17],[8,-17],[3,-43],[22,-23],[-31,-17],[6,-21],[-27,-1],[6,-31],[-4,-29],[30,1],[21,18],[12,-22],[-39,-49],[2,-15],[21,-20],[-3,-21],[14,-11],[18,-49],[12,-75],[-32,-56],[-12,-13],[6,-13],[29,7],[-3,-41],[-18,-21],[-9,-31],[75,-23],[32,-23],[1,-19],[-43,-31],[-7,-27],[18,-8],[43,0],[25,-20],[2,-17],[-7,-22],[-46,-9],[-17,-11],[-5,-21],[10,-7],[27,11],[22,-6],[8,-30],[-17,-18],[-10,-39],[10,-29],[36,-54],[44,-78],[-20,-16],[-23,-1],[-35,-60],[-6,-39],[9,-15],[32,-6],[19,25],[17,5],[29,-2],[8,-9],[-1,-30],[-15,-12],[-50,-25],[-13,-15],[-5,-35],[11,-19],[19,3],[33,32],[17,-1],[20,-19],[11,-64],[-2,-15],[-19,-28],[-26,-5],[-18,5],[-3,16],[11,14],[-10,30],[-21,3],[5,-71],[-27,13],[-23,-12],[-25,-23],[8,-14],[0,-53],[17,-14],[0,-30],[7,-30],[13,-20],[15,-9],[3,-15],[-8,-28],[-263,-1],[-73,0],[-317,0]],[[8551,8909],[-229,0],[-8,4],[-249,2],[-326,1],[-28,-1],[-101,5],[-97,1],[-282,10],[-14,-1]],[[7217,8930],[-208,7],[-215,5]],[[6794,8942],[66,150],[33,78],[124,283],[4,9],[69,153],[32,74],[166,370]],[[7923,10051],[5,-11],[1,-92],[25,-1],[1,-40],[44,1],[-2,-35],[59,0],[-3,73],[73,-4],[0,-7],[107,10],[53,0],[16,13],[-4,29],[10,10],[1,23],[8,16],[-4,20],[7,25],[-26,25],[20,17],[-6,17],[10,28],[-18,17],[6,29],[-8,12],[-8,34],[4,14],[-6,53],[-21,48],[-120,-23],[-21,3],[-196,3],[-1,-9],[-6,-298]],[[2156,1986],[237,1],[37,-3],[21,-18],[4,51],[9,34],[13,69]],[[2477,2120],[69,-74],[37,-16],[42,-2],[20,-8],[51,-37],[18,-64],[12,-14],[28,-12],[41,-1],[125,-29],[96,-41],[67,-14],[84,-9],[82,-51],[57,3],[68,-41],[145,-65],[167,-131],[24,-21],[268,-213]],[[3978,1280],[3,-197]],[[3981,1083],[-615,8],[-148,-1],[-103,1],[-170,-1],[-66,6],[-65,-5],[-202,5],[-13,-3],[-75,2],[-608,2],[-811,4],[-790,-1],[22,11],[69,56],[-6,26],[16,26],[4,41],[-7,13],[-33,-14]],[[3300,12024],[48,-92],[-9,0],[32,-80],[-53,-2],[-89,-45],[-11,-31],[-6,-213],[236,-5],[-1,-49],[110,0],[176,-5],[188,-4]],[[3921,11498],[187,-207],[208,-234],[149,-166],[34,-25],[18,-6],[148,-39],[45,-17],[78,-38],[153,-83],[235,-122],[256,-136],[58,-29]],[[5320,10281],[-22,43],[-79,26],[-22,-2],[-27,-42],[-15,-12],[-41,-24],[-25,-3],[-40,3],[-43,-17]],[[5006,10253],[-77,40],[-125,71],[-88,46],[-72,4],[-380,-1],[-140,1],[-32,2],[-412,-1],[-213,-4],[-215,-1]],[[2278,10431],[6,345],[3,77],[2,187],[217,-7],[119,-2],[77,-3],[7,216],[9,214],[7,212],[2,136],[2,55],[2,161],[174,2],[395,0]],[[2966,7871],[244,-1],[1,31],[246,3],[83,-1],[115,3],[112,-1]],[[3767,7905],[6,-38],[-5,-32],[-32,-34],[1,-21],[15,-45],[0,-12],[-24,-45],[-45,-58],[1,-26],[10,-5],[46,-3],[41,-13],[53,-25],[3,-30],[-55,-43],[-23,8],[-1,11],[13,26],[-20,23],[-22,7],[-27,0],[-13,-9],[-3,-19],[27,-44],[8,-47],[10,-25],[1,-30],[9,-21],[21,-15],[22,2],[18,9],[21,20],[11,29],[13,19],[17,7],[27,-16],[18,-3],[8,-28],[-19,-30],[-20,-13],[-24,-45],[7,-20],[18,-8],[18,2],[20,25],[3,48],[18,40],[16,13],[14,-9],[-6,-40],[23,-19],[24,2],[16,13],[25,-1],[18,-22],[11,-59],[-10,-38],[-7,-1],[-41,22],[-16,1],[-50,-14],[-4,-18],[29,-23],[6,-16],[-4,-28],[-12,-39],[-24,-8],[-58,-3],[-17,-18],[7,-21],[29,-8],[29,4],[20,14],[19,27],[15,8],[12,-20],[-13,-28],[8,-17],[24,-9],[8,-16],[3,-31],[-20,-92],[-7,-19],[-15,-5],[-48,13],[-39,-6],[-26,-24],[15,-30],[17,-6],[42,15],[38,6],[12,-16],[-11,-47],[5,-58],[-1,-62],[-15,-23],[4,-22],[-3,-37]],[[3980,6563],[-12,-22],[-6,-32],[-19,-14],[0,-15],[22,-22],[12,-27],[8,-39],[-84,-59],[-28,-25],[-36,-42],[-33,-3],[-40,-9],[-12,31],[-1,28],[18,74],[-14,13],[-168,-29],[42,-24],[-1,-26],[20,-23],[18,-37],[3,-32],[10,-13],[82,-20],[16,-16],[-4,-16],[-182,-69],[-17,-2],[-48,112],[-14,52],[-5,33],[3,29],[26,52],[28,32],[-7,75],[13,25],[-55,10],[-25,-8],[-31,-33],[1,-49],[-8,-14],[-16,-61],[-22,-22],[-47,-32]],[[3367,6294],[-29,-21],[-97,-52]],[[3241,6221],[-13,38],[-16,79],[-4,58],[5,63],[-5,67],[-20,100],[-32,94],[-14,85],[-11,35],[-36,56],[-68,82],[-11,27],[-47,1],[-3,77],[-8,68],[0,64],[7,58],[7,125],[-3,327],[-3,146]],[[4312,7371],[49,118],[10,12],[31,3]],[[4402,7504],[54,-17],[115,-15]],[[4571,7472],[20,3],[179,58]],[[4770,7533],[-2,-161],[-2,-13],[-91,1],[76,-84],[8,-19],[-105,-14],[-17,-1],[-69,8],[-50,8],[-28,-3],[-23,-8],[10,-15],[-15,-27],[0,-16],[-18,-31],[4,-13],[-14,-72],[-17,-10],[12,-29],[-17,-13],[-20,11],[-34,-19],[-39,5],[-10,-6],[-38,23],[-42,8],[-12,16],[9,29],[15,95],[11,41],[60,147]],[[5463,10921],[6,-18],[-5,-43],[-12,-32],[-10,-7],[-52,4],[-12,25],[8,22],[-3,21],[-22,26],[-35,11],[-15,-8],[-28,-46],[-24,-27],[-40,-37],[-7,-39],[15,-32],[20,-20],[13,-28],[13,-54],[28,-29],[25,46],[20,20],[40,18],[27,2],[19,-15],[3,-40],[9,-19]],[[3921,11498],[-13,15],[71,-1],[4,234],[2,117],[-186,3],[4,100],[-56,0],[-12,59]],[[3735,12025],[294,5],[243,-1],[320,2],[276,0],[362,4],[515,3],[221,-2],[-11,-31],[-5,-51],[-20,-68],[26,-27],[118,-31],[40,3],[36,-9],[26,-45],[21,-65],[5,-43],[-17,-27],[-20,-5],[-45,20],[-18,3],[-21,-22],[1,-32],[-10,-43],[-20,-49],[11,-55],[10,-102],[-13,-44],[-22,-43],[-26,-57],[-13,4],[-21,44],[-41,20],[-24,-8],[-11,-19],[15,-34],[13,-61],[23,-37],[14,-16],[-5,-35],[-22,-38],[-25,0],[-27,35],[-42,25],[-17,-3],[-49,-58],[-26,-11],[-36,1],[-31,-17],[-69,7],[-43,29],[-11,1],[-42,-29],[-71,2],[-18,-17],[-4,-28],[29,-49],[5,0]],[[3965,4433],[315,-5],[22,0]],[[4302,4428],[160,-1],[144,-3],[10,1],[312,-8],[267,-6],[97,6],[33,0]],[[5325,4417],[20,-28],[14,-11],[125,-82],[24,-22],[32,-61],[54,-137],[10,-22],[64,-118],[95,-224],[16,-51],[16,-40],[18,-34],[38,-54],[38,-49],[69,-78],[43,-55],[91,-146],[22,-43],[42,-106],[19,-91],[8,-74],[25,-95],[16,-38],[43,-73],[16,-37],[7,-26],[29,-158],[15,-33],[77,-101]],[[6411,2330],[-44,-30],[-128,-82],[13,-14],[-23,-7],[-17,12],[-19,-10],[11,-23],[43,14],[25,-27],[37,-59],[29,-32]],[[6338,2072],[-34,0],[-53,10],[-37,17],[-25,17],[-45,40],[-18,12],[-30,7],[-23,-2],[-64,-29],[-33,-6],[-157,3],[-27,-2],[-42,-12],[-89,-41],[-65,-28],[-57,-17],[-99,-18],[-27,-3],[-67,0],[-34,9],[-119,60],[-45,9],[-32,-2],[-44,-18],[-35,-7],[-75,-2],[-15,3],[-49,-14],[-34,-28],[-61,-77],[-32,-14],[-95,3],[-127,10],[-88,1],[-17,4],[-57,24],[-45,8],[-99,4],[-234,6],[-31,8]],[[3978,2007],[2,96],[-2,152],[2,148],[-1,131],[1,227],[-1,91],[-1,233],[-2,154]],[[3976,3239],[0,95],[-2,67],[0,175],[-2,126],[-3,347],[-2,8],[-2,376]],[[4173,8986],[304,-4],[507,-9],[233,-2],[114,-2],[167,-2],[112,2],[84,-4],[12,2],[134,-4]],[[5840,8963],[-6,-335],[-128,-119],[-56,-45],[-281,-222],[-116,-111],[-41,-22],[-117,-93],[-236,-184]],[[4859,7832],[5,40],[-7,42],[10,12],[-5,18],[0,47],[4,26],[-190,4],[-93,-187],[-18,-30],[-67,-77],[-67,-74]],[[4431,7653],[-68,28]],[[4363,7681],[-99,40]],[[4264,7721],[11,33],[71,170],[-50,20]],[[4296,7944],[7,31],[19,36],[30,30],[9,22],[8,64],[-5,28],[-25,0],[-52,-50],[-21,-14],[-28,-3],[-31,24],[-20,46],[-11,46],[7,22],[42,0],[22,6],[55,33],[-9,27],[-38,42],[-12,33],[-3,31],[-12,15],[-31,-1],[-43,-13],[-58,-42],[-23,0],[-23,55],[-5,43],[-12,9],[-17,-11],[-16,-32],[-17,-2],[-24,17],[-5,15],[19,33],[38,40],[54,32],[34,10],[13,17],[-29,15],[-108,-21],[-31,-11],[-12,-12],[-29,-58],[-24,2],[-3,22],[10,34],[22,62],[0,36],[-19,38],[2,15],[48,23],[73,18],[28,11],[89,64],[32,1],[11,15],[1,62],[10,48],[1,21],[-11,18]],[[4431,7653],[165,-24],[-25,-157]],[[4402,7504],[4,20],[-21,3],[11,72],[-41,8],[-5,17],[13,57]],[[6411,2330],[220,144],[41,-62],[32,-55]],[[6704,2357],[-43,-24],[10,-25],[31,-101],[40,-51],[-103,-75],[-17,-22]],[[6622,2059],[-140,182],[-71,89]],[[5006,10253],[-6,-6],[-13,-44],[13,-19],[65,5],[10,-14],[2,-53],[-17,-18],[-23,-13],[-56,-12],[-42,-21],[-52,-42],[-103,-113],[-23,-39],[-21,-10],[-66,-10],[-25,11],[-19,22],[-20,32],[-18,18],[-80,66],[-29,18],[-57,-3],[-34,-15],[-36,-25],[-22,-28],[-8,-19],[-3,-56],[3,-49],[9,-73],[3,-59],[-29,-48],[-41,-29],[-37,-11],[-95,-52],[-38,-34],[-9,-28],[48,-115],[43,-68],[0,-19],[-30,-52],[-14,-13],[-16,-32],[-14,-5],[-89,61],[-26,12],[-65,13],[-64,0],[-18,-12],[-25,-35],[-11,-82],[2,-30],[26,-55],[15,-47],[21,-16],[24,2],[9,12],[2,31],[15,15],[29,4],[35,-7],[70,-29],[47,-5],[41,-9],[29,-15]],[[4296,7944],[-5,-63],[-23,-85],[-22,-34],[-13,-4],[-45,6],[-35,29],[-4,21],[8,35],[-38,37],[-22,57],[-13,21],[-20,5],[-52,-31],[-29,0],[-32,20],[-11,22],[-2,19],[17,34],[-4,23],[-13,6],[-37,-6],[-26,-36],[2,-18],[32,-30],[14,-22],[-2,-30],[-24,-29],[-13,-6],[-21,3],[-33,22],[-46,9],[-17,-14]],[[5325,4417],[79,0],[131,-4],[51,-5],[340,-11],[269,-5],[4,292]],[[6199,4684],[271,-3],[157,0],[161,-2]],[[6788,4679],[399,-2],[137,1],[4,-69]],[[7328,4609],[-2,-6],[11,-165],[12,-209],[14,-301],[8,-203],[13,-320],[12,-314],[10,-308],[2,-66],[6,-177]],[[7414,2540],[-164,1],[-8,-335],[-1,-156],[-5,-81],[-11,-483],[-133,0]],[[7092,1486],[8,15],[-21,30],[-68,20],[-2,33],[-6,35],[-15,14],[-25,5],[-33,19],[-10,22],[-1,28],[7,31],[-55,36],[-42,38]],[[6829,1812],[82,58],[-109,139],[0,20],[9,15],[69,45],[36,39],[-60,44],[-35,23],[-21,18],[-25,34],[-48,71],[-23,39]],[[1907,3235],[265,4],[178,2],[242,0]],[[2592,3241],[-40,-85],[-45,-90],[-10,-25],[-8,-69],[-72,-228],[-2,-12],[174,1],[-18,-46],[-71,-179],[-5,-18],[-12,-114],[-2,-226],[-4,-30]],[[3964,4670],[0,111],[1,44],[-1,210],[2,29]],[[3966,5064],[3,34],[-1,179],[147,0],[37,-64],[67,0],[10,-49],[139,-7],[0,-40],[-53,-6],[7,-247],[-15,8],[-5,-444]],[[3965,4433],[1,88],[-3,7],[1,142]],[[3224,6207],[17,14]],[[3241,6221],[14,-34],[145,-313]],[[3400,5874],[-260,-111]],[[3140,5763],[-82,175],[-15,33],[84,-14],[36,4],[95,42],[17,-1],[-25,53],[-26,113],[0,39]],[[5270,6536],[13,4],[40,-6],[4,7],[273,-1],[114,-4],[28,1],[329,-2],[154,-1]],[[6225,6534],[-2,-544],[-2,-123],[-9,8],[-1,-233],[0,-73],[-2,-79],[2,-177],[-12,-629]],[[5325,4417],[-27,41],[-75,99],[-63,61],[-19,27],[-12,38],[-43,108],[-24,55],[-26,71],[-25,59],[-24,86],[-20,52],[-21,50],[-27,48],[-30,44],[-19,36],[25,18],[174,59],[138,15],[24,0],[73,-10],[46,-2],[42,-14],[56,0],[138,3],[2,63],[-4,130],[-23,181],[-32,112],[-28,178],[-28,150],[-10,96],[-5,13],[-100,147],[-88,105]],[[6338,2072],[40,-59],[78,-103]],[[6456,1910],[-7,-5],[61,-82],[32,-38],[34,-33],[72,-58],[16,2],[109,78],[56,38]],[[7092,1486],[-514,0],[-126,6],[1,-17],[-54,1],[-246,10],[-14,-487],[-10,-328],[-3,-75],[-16,-596],[-484,12],[-27,3],[-88,1],[-383,14],[-45,4],[-1094,44],[-3,217],[-5,376],[1,34],[-1,361],[0,17]],[[3978,1280],[1,213],[-1,514]],[[3400,5874],[107,-231]],[[3507,5643],[-18,-8],[-43,-28],[-20,4],[-32,-46],[-34,7],[-22,-25],[-12,6],[-26,-11],[-6,-15],[-38,-14],[-116,250]],[[4312,7371],[-41,1],[-47,126],[-12,43],[-2,63],[14,85],[3,44],[37,-12]],[[3367,6294],[18,11],[140,-296],[136,-306],[-98,-34],[-56,-26]],[[6622,2059],[-30,-24],[-68,-80],[-13,-25],[-29,-6],[-26,-14]],[[6622,2059],[111,-142],[96,-105]],[[2592,3241],[251,-4],[492,1],[125,0],[516,1]],[[3300,12024],[289,0],[39,2],[32,-2],[75,1]],[[4859,7832],[-8,-22],[3,-25],[-10,-38],[-49,-30],[-31,-47],[-2,-25],[3,-50],[13,-16],[-1,-20],[7,-21]],[[4784,7538],[-14,-5]],[[7435,6802],[355,-2],[171,-5],[162,0]],[[8123,6795],[-1,-43],[4,-53],[8,-37],[3,-57],[20,-71],[11,-60],[-1,-27],[10,-55],[-3,-26],[-9,-23],[10,-12],[8,-76],[-6,-32],[14,-28],[-7,-43],[9,-16],[-3,-38],[9,-17],[-3,-52],[9,-19],[-8,-37],[16,-31],[-1,-32],[15,-30],[13,-91],[116,-1117],[142,-3]],[[8498,4669],[-12,-67],[-38,-143],[-14,-60],[-25,-127],[-1,-67],[13,-144],[9,-90],[-2,-22],[-22,-84],[-38,6],[-105,1],[-57,-24],[-17,-3],[-34,10],[-40,-2],[-38,5],[-35,18],[-14,18],[-8,19],[-15,19],[-38,29],[-3,15],[-6,115],[-9,26],[-106,202],[-31,58],[-24,24],[-72,69],[-9,14],[-5,25],[-2,57],[-46,-3],[-38,-9],[-27,-14],[-27,0],[-22,8],[-43,9],[-54,31],[-115,21]],[[6788,4679],[2,28],[16,99],[34,87],[21,40],[24,36],[14,33],[40,132],[4,22],[0,141],[12,110],[5,34],[17,170],[-2,76],[-14,54],[-2,25],[5,45],[10,48],[42,94],[8,28],[40,95],[21,77],[8,48],[15,44],[60,109],[8,21],[2,64],[6,35],[60,92],[73,85],[76,82],[26,32],[16,37]],[[6410,10194],[252,-97],[30,-7],[149,-15],[242,-15],[16,1],[64,14],[83,-6],[42,-10]],[[6794,8942],[-90,3]],[[6704,8945],[-201,4],[-252,3]],[[6251,8952],[9,47],[87,714],[30,228],[33,253]],[[5463,10921],[821,-5],[400,0],[379,-2],[69,-2],[331,-1],[192,-2]],[[6410,10194],[-121,15],[-26,1],[-148,-20],[-46,-2],[-84,16]],[[8498,4669],[253,-5]],[[8751,4664],[-22,-42],[-3,-17],[0,-93],[-5,-47],[2,-31],[-2,-97],[-3,-123],[-5,-206],[-7,-449],[3,-89],[44,-106],[23,-10],[48,15],[9,-12],[-13,-27],[-6,-60],[-8,-7],[-97,0],[-5,-5],[-9,-430],[4,-156],[-5,-31],[-65,-122]],[[8629,2519],[-296,9],[-86,2],[-14,4],[-40,-3],[-122,2],[-31,2],[-38,-3],[-38,4],[-18,-8],[-23,7],[-164,3],[-345,2]],[[6251,8952],[-10,0]],[[6241,8952],[-195,5],[-206,6]],[[8551,8909],[0,-144],[-2,-1062]],[[8549,7703],[-93,31],[-30,-18],[-28,12],[-178,57],[-57,19],[-172,48],[-70,38],[-111,39],[-107,4],[-129,0],[-38,10],[-277,108]],[[7259,8051],[3,106],[-51,0],[4,356],[6,334],[0,65],[-4,18]],[[4784,7538],[5,-9],[166,-4],[284,-4],[287,-2],[391,0],[174,0],[135,-1]],[[6226,7518],[1,-304],[0,-286],[1,-123]],[[6228,6805],[-3,-271]],[[5270,6536],[-816,8],[-172,8],[-302,11]],[[6241,8952],[1,-314],[-1,-97],[2,-22],[-6,-126],[1,-76],[-3,-223],[-1,-126],[-3,-98],[1,-19]],[[6232,7851],[-2,-12],[-3,-167],[-1,-154]],[[3966,5064],[-87,31],[-60,43],[-34,33],[-94,110],[-24,44],[-31,105],[-12,26],[-79,114],[-38,73]],[[7259,8051],[-3,-108],[2,-135],[-28,-79],[-19,-79],[-21,-61],[-66,-114],[-16,-42],[-17,-29],[-39,-52],[-9,-23],[-2,-25]],[[7041,7304],[-97,0],[-127,-2],[-1,154],[-4,32],[-12,57],[-5,41],[-26,50],[-7,26],[-2,67],[0,121],[-2,146],[17,107],[-1,154],[-77,48],[-20,17],[-12,23]],[[6665,8345],[38,172],[-2,285],[0,119],[3,24]],[[8549,7703],[-2,-913],[-424,5]],[[7435,6802],[-102,2],[-284,1]],[[7049,6805],[-2,167],[-6,332]],[[6665,8345],[-7,-98],[-12,-58],[-46,-66],[-19,4],[6,70],[-15,43],[19,43],[-4,19],[26,52],[-3,23],[-10,15],[-37,35],[-31,17],[-40,12],[-16,-1],[-13,-28],[-12,19],[-24,2],[-11,-24],[-18,-10],[-13,-41],[-11,-1],[-20,-18],[1,-73],[-10,-69],[-15,-26],[-13,-37],[1,-31],[-10,-31],[-1,-35],[-20,-69],[-26,-54],[-1,-13],[-25,-52],[-3,-13]],[[7049,6805],[-197,-1],[-190,0],[-222,1],[-32,1],[-180,-1]],[[3224,6207],[-45,-36],[-35,-22],[-32,-7],[-44,0],[-92,13],[-38,-6],[-62,-23],[-80,-28]],[[2796,6098],[-37,18],[-50,-6],[-24,-11],[-26,-23],[-32,-52],[-9,-61],[3,-50],[-3,-20],[-15,-20],[-18,17],[-48,34],[-24,6],[-33,-2],[-20,-8],[-19,-17],[-11,-24],[1,-22],[12,-14],[25,-12],[30,-9],[59,-10],[26,-23],[9,-36],[2,-65],[-7,-37],[-12,-10],[-1,-17],[-16,-53],[-2,-45],[-15,-35],[-33,-43],[-31,-14],[-39,-10],[-23,-17],[-12,-21],[0,-23],[15,-55],[27,-62],[6,-23],[-2,-30],[-205,-28],[-23,-10],[-38,-25],[-61,-64],[-31,-36],[-24,-45],[-13,-15],[-28,-57],[-20,-5],[-22,-16],[-26,-32],[-15,-29],[-13,-36],[0,-54],[8,-90],[-4,-52],[-21,-25],[-24,-1]],[[1889,4573],[9,4],[8,498],[2,225],[-1,436],[1,49],[3,383],[-1,20],[2,296],[1,51],[-3,226],[-3,215],[-1,250],[1,176],[4,401],[-1,94]],[[3964,4670],[-13,-44],[-22,-29],[-25,-26],[-73,-49],[-248,0],[-13,-84],[-154,1],[-329,0],[-316,-2],[-187,-1],[127,483],[39,139],[131,491],[-26,8],[-33,17],[-26,20],[-27,31],[-19,28],[-29,55],[-15,45],[-9,60],[2,39],[12,51],[14,31],[32,48],[19,20],[30,19],[-6,19],[24,10],[-4,22],[-26,-5],[2,31]],[[822,3217],[14,48],[25,19],[46,-1],[31,-16],[30,-35],[27,-4],[56,26],[47,34],[24,41],[31,37],[18,5],[24,-6],[44,-25],[23,-1],[21,18],[29,50],[13,71],[-11,43],[-32,77],[0,15],[18,42],[15,15],[69,15],[14,10],[11,20],[-6,46],[1,31],[9,18],[24,27],[57,37],[23,27],[5,25],[-1,23],[-15,54],[7,25],[24,26],[40,6],[20,15],[10,41],[-4,36],[-20,30],[-23,57],[7,35],[34,23],[12,18],[7,57],[18,44],[23,29],[32,16],[29,-5],[45,-21],[13,5],[10,24],[31,51],[22,30],[18,18],[28,10]],[[8751,4664],[260,-6],[152,-3],[300,-5],[162,-6],[523,-9],[16,1],[216,-3],[-5,-108],[-21,-343],[-11,-104],[-18,-3],[-4,-311],[-2,-266],[-3,-162],[-3,-307],[-6,-560],[-159,5],[-632,18],[-496,14],[-229,7],[-162,6]]],"transform":{"scale":[0.000055293063583815256,0.000042967851802625414],"translate":[-78.060817,42.471216]},"objects":{"Geometry\\36-051":{"type":"GeometryCollection","geometries":[{"arcs":[[0,1,2]],"type":"Polygon","properties":{"GEOID":"360510303001"}},{"arcs":[[3,-2,4]],"type":"Polygon","properties":{"GEOID":"360510303002"}},{"arcs":[[5,6,7,8]],"type":"Polygon","properties":{"GEOID":"360510302011"}},{"arcs":[[9,10,11,12]],"type":"Polygon","properties":{"GEOID":"360510312003"}},{"arcs":[[13,14,15,16,17],[18]],"type":"Polygon","properties":{"GEOID":"360510306001"}},{"arcs":[[-19]],"type":"Polygon","properties":{"GEOID":"360510306002"}},{"arcs":[[-12,19,20,21,22]],"type":"Polygon","properties":{"GEOID":"360510312004"}},{"arcs":[[23,24,-1,25,26,-6,27]],"type":"Polygon","properties":{"GEOID":"360510301003"}},{"arcs":[[28,29,30,31,32]],"type":"Polygon","properties":{"GEOID":"360510308001"}},{"arcs":[[33,34,35,36]],"type":"Polygon","properties":{"GEOID":"360510304003"}},{"arcs":[[37,-5,-25,38,39]],"type":"Polygon","properties":{"GEOID":"360510301001"}},{"arcs":[[40,41,42,43,44,45,46]],"type":"Polygon","properties":{"GEOID":"360510313002"}},{"arcs":[[47,48,49,50,51,52,53]],"type":"Polygon","properties":{"GEOID":"360510302013"}},{"arcs":[[-51,54,-35,55]],"type":"Polygon","properties":{"GEOID":"360510304002"}},{"arcs":[[56,57,58]],"type":"Polygon","properties":{"GEOID":"360510314001"}},{"arcs":[[-27,59,-54,60,-29,-7]],"type":"Polygon","properties":{"GEOID":"360510302012"}},{"arcs":[[61,62,63,64,65,66,67,-57,-43]],"type":"Polygon","properties":{"GEOID":"360510313001"}},{"arcs":[[68,69,-20,-11]],"type":"Polygon","properties":{"GEOID":"360510312002"}},{"arcs":[[70,71,-41,72]],"type":"Polygon","properties":{"GEOID":"360510310001"}},{"arcs":[[73,74,75,76]],"type":"Polygon","properties":{"GEOID":"360510309002"}},{"arcs":[[77,78,-62,79]],"type":"Polygon","properties":{"GEOID":"360510308005"}},{"arcs":[[-45,80,81,-67,82,-22,83]],"type":"Polygon","properties":{"GEOID":"360510313003"}},{"arcs":[[84,85,-76]],"type":"Polygon","properties":{"GEOID":"360510309003"}},{"arcs":[[-52,-56,-34,86]],"type":"Polygon","properties":{"GEOID":"360510305001"}},{"arcs":[[-32,87,-85,-75]],"type":"Polygon","properties":{"GEOID":"360510309001"}},{"arcs":[[-59,88,-81,-44]],"type":"Polygon","properties":{"GEOID":"360510314002"}},{"arcs":[[-89,89,-82]],"type":"Polygon","properties":{"GEOID":"360510314003"}},{"arcs":[[-58,-68,-90]],"type":"Polygon","properties":{"GEOID":"360510314004"}},{"arcs":[[90,-46,-84,-21,-70]],"type":"Polygon","properties":{"GEOID":"360510312001"}},{"arcs":[[91,-39,-24]],"type":"Polygon","properties":{"GEOID":"360510301002"}},{"arcs":[[-50,92,93,-36,-55]],"type":"Polygon","properties":{"GEOID":"360510304001"}},{"arcs":[[94,95,96,-64,97]],"type":"Polygon","properties":{"GEOID":"360510311021"}},{"arcs":[[98,-18,99,100,101]],"type":"Polygon","properties":{"GEOID":"360510302042"}},{"arcs":[[102,-14,-99,103,-4,-38]],"type":"Polygon","properties":{"GEOID":"360510302041"}},{"arcs":[[-97,104,105,106,-65]],"type":"Polygon","properties":{"GEOID":"360510311011"}},{"arcs":[[-26,-3,-104,-102,107,108,-48,-60]],"type":"Polygon","properties":{"GEOID":"360510302043"}},{"arcs":[[-16,109,110,111]],"type":"Polygon","properties":{"GEOID":"360510307012"}},{"arcs":[[-61,-53,-87,-37,-94,112,113,114,-78,115,-30]],"type":"Polygon","properties":{"GEOID":"360510302032"}},{"arcs":[[-49,-109,116,117,-113,-93]],"type":"Polygon","properties":{"GEOID":"360510302031"}},{"arcs":[[-116,-80,-42,-72,118,-88,-31]],"type":"Polygon","properties":{"GEOID":"360510308006"}},{"arcs":[[-100,-17,-112,119,120,121]],"type":"Polygon","properties":{"GEOID":"360510307022"}},{"arcs":[[-111,122,-95,123,124,-120]],"type":"Polygon","properties":{"GEOID":"360510307011"}},{"arcs":[[-108,-101,-122,125,-117]],"type":"Polygon","properties":{"GEOID":"360510307021"}},{"arcs":[[-126,-121,-125,126,-114,-118]],"type":"Polygon","properties":{"GEOID":"360510307023"}},{"arcs":[[-115,-127,-124,-98,-63,-79]],"type":"Polygon","properties":{"GEOID":"360510311022"}},{"arcs":[[-8,-33,-74,127,128,129]],"type":"Polygon","properties":{"GEOID":"360510308002"}},{"arcs":[[-128,-77,-86,-119,-71,130]],"type":"Polygon","properties":{"GEOID":"360510308003"}},{"arcs":[[-129,-131,-73,-47,-91,-69,-10,131]],"type":"Polygon","properties":{"GEOID":"360510308004"}},{"arcs":[[132,-106]],"type":"Polygon","properties":{"GEOID":"360510311012"}}]}}}