{"type":"Topology","arcs":[[[8931,1964],[-39,-10],[-40,2],[-21,18],[-17,2],[-36,-13],[-20,23],[-23,-1],[-43,-19],[-23,-15],[-11,-24],[-6,-46],[-16,-26],[-16,-4],[-16,21],[-46,-32],[-46,2],[-47,-16]],[[8465,1826],[13,22],[37,39],[-50,33],[-22,4],[-7,43],[-46,-9],[-14,6],[-2,61],[-10,100],[-4,16],[-29,59],[-4,28],[-29,31],[17,20],[3,24],[13,21],[29,14],[30,27],[-12,27],[1,25],[-14,8],[-17,31],[-24,19],[-10,29],[2,27],[-5,43],[-12,25],[55,-15],[59,-27],[168,17],[6,2],[33,-39],[13,-25],[75,-189],[36,-60],[78,-95],[9,-16],[38,-93],[23,-42],[39,-53]],[[9706,2368],[1,-38]],[[9707,2330],[-76,-108],[-98,-111],[-122,-100],[-169,-34],[-158,-55],[-43,15],[-24,89]],[[9017,2026],[-37,78]],[[8980,2104],[44,34],[11,0],[37,-39],[34,-22],[41,8],[55,26],[68,-16],[20,3],[30,22],[9,38],[26,11],[-22,215],[140,12],[29,9],[47,3],[18,-7],[69,36],[15,-14],[38,-72],[17,17]],[[585,6272],[110,32],[54,9],[111,4],[156,30],[115,18],[37,9],[53,19],[76,10],[29,7],[101,48],[35,5],[33,-3],[148,5]],[[1643,6465],[80,-1],[35,-8],[139,-40],[56,-3],[43,14],[71,40],[25,11],[114,37],[96,41],[130,75],[66,45],[65,41],[180,102],[37,13],[26,2],[43,-7],[166,-57],[33,-4],[69,17]],[[3117,6783],[-8,-269],[-3,-121],[0,-96],[-4,-117],[0,-101],[-3,-441],[-3,-118],[1,-178],[-11,-565]],[[3086,4777],[-473,5]],[[2613,4782],[-315,4],[-381,4],[-412,5],[-9,3],[-179,0],[-100,1],[-65,-2],[-154,0],[-420,3]],[[578,4800],[7,1284],[0,188]],[[6412,4750],[33,36],[53,73],[29,52],[7,60],[-23,23],[-14,36],[11,20],[31,14],[21,28],[43,-21],[16,4],[12,19],[-14,31],[6,25],[18,24],[52,25],[9,91],[-3,56],[-12,24],[0,36],[12,17],[-11,33],[-19,17],[-10,46],[8,49]],[[6667,5568],[309,12],[244,13],[177,11]],[[7397,5604],[129,6],[87,12],[401,23],[63,-2],[18,6],[188,10],[45,3]],[[8328,5662],[-32,-59],[-18,-41],[-15,-48],[-28,-25],[-72,-87],[-17,-45],[-43,-55],[-26,-27],[-7,-22],[-5,-49],[-54,-87],[-20,-37],[-65,-70],[-18,-32],[-24,-100],[-30,-39],[-30,-56],[-10,-28],[-21,-19],[-39,-2],[-56,-28],[-34,-24],[-30,-39]],[[7634,4643],[13,-42],[4,-35],[-6,-31],[-25,-69],[-13,-18],[-7,-33],[-35,-19],[-58,1],[-31,-5],[-57,9],[-36,31],[-23,11],[-117,24],[-32,9],[-31,26],[-14,-17],[-46,-83],[-26,-35],[-8,-27],[-18,-113],[-53,-301],[-63,-37],[-13,-17],[-41,-37],[-60,-42],[-14,-5],[-110,16],[-44,-9],[-73,-29],[-56,-57],[-10,-3],[-49,7]],[[6482,3713],[-17,23],[-51,10],[-36,-8],[-31,-1],[-7,-17],[-55,0],[-12,-9]],[[6273,3711],[-35,-10],[-89,18],[-45,-31]],[[6104,3688],[-4,14]],[[6100,3702],[-16,51],[4,31],[19,35],[-1,38],[33,-2],[68,-15],[35,9],[11,37],[2,60],[-17,55],[0,47],[33,26],[10,33],[-21,29],[-8,28],[-17,0],[-10,20],[-7,40],[-17,44],[-38,67],[-12,47],[10,51],[16,26],[35,23],[21,28],[-3,36],[10,17],[-1,28],[12,44],[32,55],[39,-43],[43,33],[20,36],[27,34]],[[3117,6783],[247,66],[35,4],[108,-4],[33,6],[44,24],[43,48],[51,44],[105,74],[23,14],[55,18],[199,40],[43,7],[131,8],[133,23],[139,20],[63,1],[150,-12],[11,-5]],[[4730,7159],[8,-10],[58,-107],[34,-47],[30,-17],[75,-1],[31,-153],[49,-164],[12,-26],[52,-54]],[[5079,6580],[-2,-93],[1,-258],[5,-24],[39,-50],[18,-15],[33,29],[11,-23],[30,-33],[6,-28],[46,-92],[31,-42],[20,-76],[28,-56],[33,-26],[19,-29],[51,-46],[12,-27],[-9,-32],[-9,-58],[-9,-22],[-32,-54],[-37,-31],[-10,-71],[-11,-15],[-26,-65],[-29,-39],[-3,-41],[14,-31],[-6,-49],[3,-36],[13,-27],[36,-33],[-70,-18],[-26,-12],[28,-52],[40,-91],[112,-164]],[[5429,4750],[-689,7],[-121,1]],[[4619,4758],[-293,4],[-292,-2],[-299,6],[-360,6],[-52,3],[-237,2]],[[466,1619],[83,-19],[17,1],[26,-13],[9,-28],[52,-142],[16,-35],[55,-87],[115,-217],[18,-51],[3,-43],[-8,-58],[19,-67],[7,-44],[15,-159],[-5,-75],[-24,-115],[-8,-74]],[[856,393],[-48,-7],[-33,-19]],[[775,367],[7,28],[1,60],[40,92],[-170,47],[-7,-5],[-36,-63],[-49,-95],[-9,-35],[-116,28],[9,-93]],[[445,331],[-165,-37],[-19,-22],[54,-70],[26,-17],[5,-36],[-74,-17],[-54,6],[20,-32],[16,-15],[37,-9],[21,5]],[[312,87],[4,-36]],[[316,51],[-191,2],[10,64],[0,40],[-8,51],[-16,39],[-21,35],[-42,60],[88,268],[59,181],[251,763],[20,65]],[[7634,4643],[54,-13],[51,-34],[17,-16],[42,-55],[66,-114],[21,-39],[44,-107],[9,-14],[21,-9],[54,9],[14,-14],[3,-33],[20,-48],[37,-126],[7,-7],[64,2],[-3,-60],[6,-26],[14,-26],[8,-53],[-16,-48],[-11,-58],[-24,-101],[-1,-58],[10,-61],[-19,-55],[-100,-142]],[[8022,3337],[-39,-1],[-15,-18],[-42,-20],[-39,-7],[-37,-23],[-10,-34],[-86,-41],[-27,14],[-23,28],[-21,-12],[-5,-29],[-21,-70],[-1,-17],[-22,-22],[-21,-36],[-86,-41],[-20,-1],[-17,-12],[7,-38],[-8,-22],[-97,-58],[-107,80],[-35,10],[-65,-7],[-18,-10],[-7,-26],[-29,-68]],[[7131,2856],[-166,209],[-141,117]],[[6824,3182],[12,22],[25,150]],[[6861,3354],[15,88],[-143,-4],[-131,9],[-137,21],[8,135],[9,110]],[[6153,2890],[34,40]],[[6187,2930],[0,-31],[84,-222],[332,242],[57,30],[132,76],[2,82],[13,46],[17,29]],[[7131,2856],[125,-144],[47,-57],[48,-36],[110,58],[64,72],[220,0],[132,85],[27,23]],[[7904,2857],[74,-26],[18,-23],[-65,-40],[-171,-97],[-25,-18],[-36,-61],[-3,-26],[11,-42],[-58,-23],[-53,-8],[9,-96],[10,-20],[46,-39],[5,-33],[-12,-55],[-8,-18],[-33,-43],[-3,-28],[5,-45],[-12,-73],[-17,-56],[-2,-158],[-3,-53],[-6,-6],[-121,-9],[-220,-15],[-113,-10],[17,-126],[-20,-32],[2,-47],[19,-92],[32,-71],[48,-99],[30,-48],[11,-33],[31,-53],[16,-55],[14,-31],[53,-95]],[[7374,954],[36,-43],[59,-46],[9,-21],[-13,-36],[38,-96],[11,-35],[-8,-69],[19,-138],[35,-79],[38,-12],[27,-54],[15,-45],[0,-53],[15,-196],[4,-23]],[[7659,8],[-850,-5],[-526,0],[-139,-1]],[[6144,2],[2,33],[5,409],[30,928],[1,38],[-15,769],[-4,195],[18,-2],[-5,198],[4,122],[-23,-5],[-4,203]],[[952,8655],[23,-130],[19,-69],[24,-60],[58,-98],[88,-216],[18,-49],[15,-105],[5,-114],[3,-189],[7,-73],[32,-205],[17,-54],[149,-205],[49,-65],[19,-45],[3,-86],[21,-149],[16,-159],[-4,-74],[124,-38],[5,-7]],[[585,6272],[3,658],[4,720],[1,42],[-36,642],[-19,326],[414,-5]],[[8931,1964],[20,7],[42,24],[24,31]],[[9707,2330],[14,-225]],[[9721,2105],[-82,-34],[-97,-57],[-63,-45],[-46,-25],[-67,-22],[2,-87],[20,-71],[15,-66],[-9,-21],[15,-23],[36,-16],[23,-21],[45,-60],[-6,-66],[-124,-5]],[[9383,1486],[-44,-3],[-115,-3],[-92,1]],[[9132,1481],[2,69],[-15,31],[-31,33],[-18,31],[-52,37],[-25,31],[-6,26],[22,42],[44,37],[-42,18],[16,40],[-62,48],[-34,40]],[[4730,7159],[5,188],[6,54],[12,23],[24,21],[21,34],[-3,53],[5,14],[36,45],[11,45],[-10,87],[-1,79],[25,64],[-17,43],[-5,30],[6,35],[24,94],[74,173],[11,51],[14,38],[4,55],[1,64],[4,27],[22,54],[24,99],[28,64],[-7,32],[2,40],[11,12],[88,38],[25,19],[95,104],[67,136],[7,20],[30,134],[3,33],[-8,36],[-19,64],[-18,68],[-2,42]],[[5325,9471],[443,-4],[18,4],[93,-2],[0,-125],[1,-225],[812,-3]],[[6692,9116],[-18,-32],[14,-40],[-3,-31],[6,-18],[25,-15],[-6,-38],[-18,-23],[-6,-32],[8,-46],[-2,-25],[-24,-51],[8,-20],[0,-29],[11,-25],[43,-41],[-7,-10],[6,-41],[-15,-5],[16,-102],[15,-36],[4,-26]],[[6749,8430],[25,-12],[30,-88],[-1,-17],[-22,-32],[-5,-26],[8,-9],[5,-56],[23,-43],[6,-30],[-2,-46],[-31,-7],[-6,-29],[7,-33],[82,-77],[23,-11],[21,-34],[-16,-38],[2,-40]],[[6898,7802],[-3,-42],[16,-35],[8,-34],[-10,-37],[19,-11],[13,-22],[-12,-34],[3,-21],[25,-22],[17,-41],[0,-27],[12,-29],[-25,-49],[-10,-29],[-19,-11],[-5,-22],[25,-18],[5,-27],[-5,-62],[28,-28],[18,6],[30,-35],[-2,-30],[-18,-32],[-26,-7],[-10,-43],[9,-35],[0,-33],[12,-19],[13,-64],[28,-39],[20,-41],[24,-14],[12,-31],[-6,-56],[-14,-39],[5,-16],[-7,-54],[2,-40],[-23,-42],[-37,-81],[-21,-61],[-16,-27],[-6,-29],[-20,6],[-14,-33],[8,-40],[-11,-42],[-27,-64]],[[6903,6166],[-67,16],[-26,-29],[-12,-22],[-33,-78],[-41,25],[-10,17],[-14,60],[-8,55],[-16,63],[-9,28],[-22,41],[-42,64],[-77,102],[-23,8],[-17,20],[-16,46],[-18,34],[-86,136],[-23,31],[-53,32],[-40,33],[-29,42],[-10,1],[-73,-19],[13,-45],[23,-35],[-50,-15],[-28,-13],[-160,-7],[-55,2],[-14,6],[-47,61],[-56,22],[-38,4],[-16,-22],[-123,-42],[-62,-31],[-9,-9],[-16,-37],[-14,-60],[-34,-72],[-22,-35],[-14,-31],[-7,-32],[-20,-28],[-11,-34],[6,-47],[-42,-11],[-53,-4],[-33,-18],[-64,-26],[-6,20],[-12,93],[-12,38],[-30,58],[-53,58]],[[9665,2964],[40,-585],[1,-11]],[[8980,2104],[-46,98],[-112,106],[-73,95],[-53,82],[-24,145]],[[8672,2630],[36,-64],[141,9],[54,-3],[-11,46],[-54,182],[107,13],[64,3],[49,-4],[34,16],[75,11],[33,12],[46,29],[77,66],[15,10],[64,18],[24,2],[78,-4],[96,10],[65,-18]],[[7904,2857],[272,227],[277,3],[155,-49],[92,-119],[-38,-229],[10,-60]],[[8465,1826],[-1,-50],[5,-53],[-6,-31],[-38,-87],[-11,-47],[-2,-53]],[[8412,1505],[-77,-5],[-36,-8],[-13,-10],[-25,-50],[-20,-18],[-60,-4],[-94,0],[-54,-12],[-84,-26],[-124,-61],[-11,-11],[-29,-44],[-13,-34],[-17,-61],[-12,-26],[-77,-123],[-21,-24],[-23,-16],[-248,-18]],[[9721,2105],[33,-523],[20,-269]],[[9774,1313],[-173,-9],[-23,27],[-39,-4],[-36,9],[-20,-11],[-45,43],[8,10],[-52,71],[-11,37]],[[6861,3354],[-96,18],[-116,-2],[-22,-12],[-53,15],[-2,-10],[-71,-49],[-2,4],[-89,-62]],[[6410,3256],[-104,171],[-16,52],[-9,54],[0,45],[9,52],[-4,38],[-13,43]],[[6824,3182],[-90,35],[-86,24],[-56,-5],[-98,-61],[-30,-35],[-41,72],[10,6],[-23,38]],[[6085,3460],[10,17],[38,91],[-2,67],[-27,53]],[[6410,3256],[-78,-54],[-14,121],[-201,-57]],[[6117,3266],[-7,27],[-14,29],[-16,12],[-5,76],[10,50]],[[1590,2459],[33,-38],[4,-23],[-7,-39],[4,-42],[40,-95],[13,-44],[22,-24],[-9,-24],[-7,-62],[0,-43],[-23,-43],[-1,-64],[12,-69],[-11,-38],[9,-29],[21,-1],[10,-49],[22,-24],[-7,-33],[-18,-20],[-2,-63],[17,-28],[9,-41],[-9,-83],[34,-41],[-4,-42],[-8,-17],[4,-26],[-27,-80],[45,-12],[9,-29],[-12,-16],[-6,-42],[-29,-12],[-6,-14],[0,-30],[-7,-39],[10,-56],[-1,-16],[-17,-25],[15,-56],[23,-18],[14,-33],[27,-45],[10,-33],[3,-40],[-19,-40],[-10,-34],[-15,-11],[-16,-33],[-13,-57],[11,-32],[-7,-29],[25,-69],[3,-58],[22,-67],[5,-49],[9,-10],[37,-14],[18,16],[21,-19],[29,-12],[40,-10],[13,-9],[8,-34],[-7,-28],[21,4],[69,91]],[[2033,214],[9,-26],[-3,-16],[-42,-38],[-22,-25],[-34,-55],[-8,-29]],[[1933,25],[-500,9],[-331,6]],[[1102,40],[-11,145],[-24,179],[-41,1],[-74,11],[-72,16],[-24,1]],[[466,1619],[5,13],[-119,524]],[[352,2156],[26,13],[54,18],[-5,24],[56,16],[34,20],[20,22],[32,54],[42,29],[53,18],[81,31],[44,39],[12,5],[81,14],[64,6],[102,3],[10,-15],[55,-3],[28,-42],[15,-38],[125,40],[55,3],[51,8],[60,39],[143,-1]],[[775,367],[-186,-113]],[[589,254],[-116,-71]],[[473,183],[-28,148]],[[1102,40],[-492,8]],[[610,48],[-21,42],[-71,-6],[0,18],[20,73],[37,24],[14,55]],[[610,48],[-294,3]],[[312,87],[161,96]],[[8022,3337],[71,4],[70,10],[331,23],[294,27],[31,9],[71,44],[43,37],[25,10],[142,16],[46,18],[77,53],[22,5],[137,5],[29,-4],[83,-28],[42,-26],[43,-15],[35,-24],[39,-13]],[[9653,3488],[0,-5],[84,1],[8,-315],[-31,-2],[1,-22],[-63,-2],[13,-179]],[[952,8655],[412,-9],[113,-1],[165,1],[142,-7],[129,2],[-11,-531],[155,-2],[178,-5],[559,-10],[351,-6]],[[3145,8087],[-3,-171],[-24,-1019],[-1,-114]],[[2657,3410],[18,-337],[13,-276],[9,-29],[8,-134],[75,-1229],[20,-333]],[[2800,1072],[-17,34],[-57,79],[-43,37],[-51,28],[-63,16],[-91,-5],[-65,-5],[-48,-11],[-56,-24],[-40,-37],[-53,-39],[-39,-54],[-74,-76],[-14,-41],[-6,-51],[6,-31],[67,-128],[4,-38],[-6,-59],[-23,-125],[-2,-50],[-10,-64],[-75,-119],[-12,-61],[1,-34]],[[1590,2459],[6,29],[56,90],[8,23],[-7,31],[1,26],[18,24],[-2,22],[-26,63],[-5,29],[0,143],[73,47],[43,0],[12,10],[7,84],[-1,33],[7,29],[35,40],[32,59],[30,38],[2,24],[136,2],[24,-21],[130,3],[0,46],[91,-2],[17,13],[21,-12],[256,-3],[8,2],[27,45],[18,21],[50,13]],[[6903,6166],[-15,-15],[-18,-44],[-17,-16],[26,-27],[1,-24],[-11,-20],[10,-18],[25,-21],[-11,-52],[-3,-66],[-38,-77],[-6,-20],[-28,-38],[-19,-10],[-70,12],[-31,-10],[-21,-36],[-10,-77],[0,-39]],[[6412,4750],[-96,-5],[-137,2],[-307,0],[-338,1],[-105,2]],[[8328,5662],[133,7],[460,27],[339,20],[128,2],[164,10],[0,-5]],[[9552,5723],[1,-167],[9,-94],[25,-512],[12,-211],[4,-141],[31,-694],[13,-292],[6,-124]],[[8412,1505],[4,-44],[14,-49],[20,-29],[37,-37],[18,-27],[23,-47],[4,-43],[41,-65],[35,34],[13,30],[-4,45],[16,36],[48,22],[36,36],[21,26],[19,13],[61,30],[68,30],[79,6],[167,9]],[[9774,1313],[21,-297],[-31,-12],[0,-100],[10,-552],[-1,-334],[-431,-1],[-111,0],[-108,-1],[-35,2],[-400,-4],[-371,-4],[-14,1],[-331,-2],[-313,-1]],[[2613,4782],[-2,-374],[3,-41],[-12,-40],[-3,-147],[23,-3],[15,-290],[1,-109],[20,-337],[-1,-31]],[[352,2156],[-75,328],[-30,311],[-66,713],[-24,414],[-68,140],[110,6],[-10,22],[-34,24],[-24,34],[-15,29],[-10,41],[30,50],[11,30],[-2,38],[-18,50],[5,32],[-6,20],[1,33],[-36,96],[-2,21],[-30,17],[-20,21],[-26,51],[-13,37],[11,14],[-2,34],[23,5],[8,18],[-22,30],[50,-1],[510,-14]],[[6187,2930],[27,24],[-12,9],[-59,15],[-19,22],[-13,33],[1,16],[26,67],[0,46],[-18,38],[6,36],[-9,30]],[[4619,4758],[-11,-21],[-49,-68],[-23,-41],[-28,-26],[24,-25],[12,-22],[18,-51],[11,-15],[66,-48],[160,-6],[64,0],[47,-179],[7,-84],[11,-32],[20,-22]],[[4948,4118],[19,-43],[8,-32],[3,-38],[22,-30],[5,-20],[4,-69],[36,-81],[11,-61],[0,-59],[24,-26],[-90,-4],[-27,26],[-72,-1],[0,-27],[-9,-10],[-48,-11],[-78,-34],[-50,-52],[70,-78],[49,-27],[49,-51],[-4,-19],[-37,-62],[-9,-46],[7,-15],[158,-169],[30,-17],[61,8],[69,27],[15,-12],[35,-82],[23,-25],[54,-34],[71,-48],[61,54],[59,42],[25,7],[66,4],[19,12],[37,39],[29,40],[21,14],[159,16],[13,5],[46,38],[8,13],[-3,39],[25,37],[46,45],[43,66],[30,39],[24,60],[30,-6]],[[6153,2890],[-37,-45],[-29,-59],[-28,-31],[-128,-99],[-66,-42],[-40,-12],[-155,4],[-36,-5],[-65,-29],[-56,-7],[-104,2],[-78,14],[-67,-7],[-72,-21],[-85,-30],[-57,-23],[-22,-13],[-37,-35],[-24,-40],[-35,-91],[-13,-52],[-13,-97],[-15,-89]],[[4891,2083],[-19,-44],[-40,-59],[-35,-98],[-7,-28]],[[4790,1854],[-60,24],[-47,-73],[-47,28],[34,61],[-30,57],[-32,29],[-24,32],[-36,56],[-13,35],[-33,56],[-34,25],[-8,24],[7,44],[-2,32],[-24,69],[-30,57],[-21,66],[-62,99],[-35,50],[-19,38],[-45,152],[-10,19],[-77,115],[-31,51],[-35,51],[-41,93],[-36,101],[-27,43],[-23,24],[-86,-6],[-67,22],[-61,0],[-26,12],[-36,23],[-53,10],[-43,0],[-77,15],[-62,-7],[-34,-14],[-26,-3],[-32,14],[-31,3],[-73,-10],[-76,-40],[-70,-13],[-62,0],[-191,4],[-24,2],[-47,23],[-46,36],[-45,28],[-24,-1]],[[4790,1854],[-21,-120],[-54,-160],[-29,-52],[-46,-60],[-26,-39],[-66,-110],[-128,-236],[-23,-31],[-9,-23],[-25,-140],[-12,-33],[-24,-30],[-58,-12],[-59,-1],[-41,6],[-34,25],[-19,24],[0,23],[-12,10],[-41,19],[-73,8],[-63,-14],[-42,-3],[-64,12]],[[3821,917],[-33,5],[-70,21],[-32,4],[-219,4],[-174,41],[-64,21],[-51,9],[-224,-45],[-32,1],[-45,12],[-33,21],[-30,33],[-14,28]],[[6100,3702],[-24,-2],[-94,22],[-8,5],[-30,69],[-36,46],[-13,12],[-80,53],[-34,3],[-82,-2],[-57,0],[-57,-11],[-139,9],[-36,17],[-81,66],[-30,39],[-39,6],[-37,-2],[-54,10],[-24,9],[-135,59],[-40,13],[-22,-5]],[[3821,917],[-23,-85],[116,-27],[105,-36],[82,-33],[95,-16],[6,-148],[13,-30],[55,-66],[45,-84],[9,-46],[20,-48],[23,-29],[80,-70],[33,-42],[13,-22],[40,-97],[29,-36]],[[4562,2],[-610,3],[-139,0],[-860,4],[-376,4],[-524,9],[-120,3]],[[4891,2083],[34,1],[15,-6],[12,-19],[4,-40],[13,-36],[4,-61],[7,-17],[48,-51],[30,-20],[31,-27],[26,-12],[19,-33],[37,-14],[20,-31],[0,-12],[-22,-53],[5,-34],[9,-23],[32,-30],[13,-18],[31,-72],[29,-49],[43,-104],[-49,-44],[-11,-15],[-40,-76],[-67,-73],[-31,-56],[-67,-148],[-61,-115],[-12,-81],[-1,-49],[-17,-96],[-3,-55],[8,-59],[23,-138],[-16,-31],[-24,-32],[-40,-31],[-31,-31],[-29,-60],[0,-22],[10,-25],[-6,-21],[-38,-12],[-41,5],[-33,-16],[-36,-28],[-19,-9],[-29,-2]],[[4671,2],[-109,0]],[[6144,2],[-604,-2],[-869,2]],[[10212,6371],[4,-131],[5,-99],[15,0],[3,-82],[7,-85],[-25,-6],[-52,-1],[7,-180],[7,-26],[-631,-38]],[[7397,5604],[7,19],[28,20],[14,34],[27,35],[47,32],[12,36],[17,15],[-38,32],[4,28],[24,14],[3,26],[16,22],[23,10],[41,1],[17,37],[-32,3],[-28,10],[-1,17],[39,83],[9,38],[28,55],[17,42],[11,49],[1,42],[7,49],[38,123],[1,14],[-6,114],[5,23],[-18,12],[-27,43],[159,8],[26,15],[35,-9],[-3,-19],[-16,-43],[13,-26],[-3,-26],[89,4],[-52,-139],[42,-13],[84,5],[80,9],[30,-3],[20,-9],[89,-57],[30,-11],[44,5],[83,31],[34,3],[29,-5],[32,-16],[58,-58],[26,-14],[117,-39],[60,-32],[45,-47],[17,22],[19,52],[31,48],[16,40],[74,89],[4,31],[-5,25],[57,41],[46,14],[41,24],[16,25],[33,-47],[8,-70],[19,-32],[32,-33],[75,-83],[45,-56],[212,15],[45,21],[30,35],[64,59],[13,46],[-2,36],[21,11],[33,-13],[65,-36],[68,-31],[31,-10],[50,3],[119,-16],[70,5],[31,-40]],[[3145,8087],[2,-1],[5,470],[6,315],[0,101],[8,807],[441,4],[427,-10],[508,3],[-1,-33],[6,-267],[778,-5]],[[6749,8430],[569,23],[241,7],[164,6],[446,16],[311,11],[514,19],[217,10],[500,24],[181,7],[0,6]],[[9892,8559],[268,9],[10,-216],[82,4],[13,-216],[34,-1],[12,-205],[-194,-9],[-147,-7],[6,-243],[116,4],[7,-165],[73,0],[7,-120],[7,-167],[39,0],[4,-134]],[[10229,7093],[-191,70],[-128,44],[-76,29],[-85,50],[-41,29],[-48,0],[-61,-12],[-59,-31],[-76,9],[-29,12],[-63,41],[-55,56],[-37,46],[-25,12],[-59,9],[-21,16],[-73,1],[-222,-8],[-45,3],[-60,-2],[-37,12],[-16,-7],[-61,-5],[-23,2],[-24,-7],[-30,4],[-34,22],[-19,-1],[-87,-15],[-146,-55],[-65,-8],[-4,-60],[-158,-10]],[[8071,7339],[-54,89],[-19,38],[-8,44],[-11,27],[-39,64],[-13,27],[-15,62],[-1,39],[-8,10],[-58,32],[-71,3],[-53,-24],[-88,-7],[-29,21],[-113,111],[-58,64],[-18,16],[-24,3],[-58,-24],[-94,-5],[-70,-31],[-63,-46],[-40,-22],[-15,-16],[-28,-11],[-125,-1]],[[8071,7339],[0,-37],[6,-281],[-70,-3],[1,-104],[-66,-2],[1,-50],[31,13],[65,14],[2,25],[38,1],[74,-69],[12,-29],[37,-18],[31,4],[43,17],[68,7],[28,13],[26,19],[50,8],[39,1],[42,8],[49,32],[36,14],[28,4],[146,6],[106,5],[26,5],[91,10],[51,-3],[55,-24],[36,-2],[48,26],[53,35],[17,3],[97,-25],[117,-9],[60,-14],[15,-11],[31,-59],[52,-7],[62,-20],[143,6],[43,-1],[41,-10],[58,-45],[67,-67],[9,-4],[219,11]],[[10285,6732],[10,-233],[-90,-5],[7,-123]],[[6762,10156],[16,-18],[3,39],[39,30],[82,96],[70,59],[35,43],[63,85],[6,13],[30,143],[29,-3],[36,8],[22,-6],[14,-13],[24,-40],[10,-8],[119,1],[45,3],[55,18],[33,0],[63,-10],[80,2],[25,-8],[33,13],[27,2],[4,59],[-7,60],[-2,46],[7,7],[11,-131],[14,-37],[93,-164],[26,-36],[68,-74],[75,-102],[22,-44],[35,-102],[39,11],[21,0],[36,-12],[47,-1],[20,6],[29,21],[46,42],[11,18],[23,66],[10,73],[-2,30],[22,128],[-2,42],[-12,105],[-13,30],[-43,68],[-14,30],[-15,48],[-11,85],[85,16],[24,-23],[27,-86],[9,-18],[31,-27],[19,-6],[71,-3],[84,9],[28,-4],[73,-17],[25,-1],[75,15],[27,2],[32,-51],[2,-18],[-11,-46],[13,-81],[4,-51],[23,-43],[9,-38],[9,-67],[19,-47],[7,-125],[6,-162],[43,23],[15,17],[33,86],[18,71],[71,124],[16,22],[73,86],[67,68],[49,32],[31,29],[71,58],[1,-46],[11,-10],[149,2],[71,22],[21,1]],[[9690,10590],[10,-232],[-158,-3],[7,-326],[84,-1],[0,-242],[129,4],[3,-256],[99,1],[0,-216],[53,3],[8,-298],[-167,-4],[0,-189],[114,-2],[13,-271],[7,1]],[[6692,9116],[4,62],[16,14],[5,18],[-9,20],[9,21],[-3,47],[-7,39],[-13,20],[6,26],[-15,38],[-13,14],[-6,45],[-1,41],[25,26],[4,18],[-4,30],[-13,12],[16,60],[16,32],[-13,18],[-12,39],[-5,51],[-7,10],[22,38],[0,44],[-19,24],[2,19],[-11,36],[13,46],[18,18],[4,41],[51,15],[8,9],[-3,29],[5,20]],[[10229,7093],[72,1],[1,-362],[-17,0]],[[6762,10156],[19,49],[-3,20],[-18,11],[-6,40],[17,24],[15,5],[2,30],[-9,5],[13,46],[-10,13],[-4,41],[15,36],[-1,21],[38,25],[2,18],[16,46],[26,40],[6,25],[22,11],[14,84],[36,26],[6,15],[-11,34],[-12,69],[5,58],[-25,63],[-1,31],[-23,34],[-29,37],[10,15],[-9,35],[-12,11],[-27,-4],[-54,48],[-27,5],[-53,28],[-12,22],[-18,18],[-52,35],[-8,29],[-31,23],[-56,19],[-32,41],[-67,24],[-33,19],[-7,33],[-37,13],[-8,10],[-46,11],[-32,18],[-31,-11],[-75,18],[-45,21],[-28,28],[-5,37],[-27,11],[-29,-11],[-22,5],[-48,-21],[-48,16],[-34,4],[-17,-14],[-29,11],[-29,-5],[-60,10],[-13,16],[-1,17],[-38,14],[-11,-3],[-16,40],[3,35],[-12,12],[3,19],[34,34],[15,37],[19,70],[-6,39],[-16,27],[-8,52],[2,21],[-18,46],[22,41],[-2,15],[17,52],[7,43],[-3,8],[31,57],[-2,39],[10,33],[22,12],[11,33],[850,30],[79,5],[1020,33],[36,0],[621,20],[874,27],[11,-254],[110,0],[1,-306],[32,-3],[59,-341],[-57,1],[7,-175],[2,-240],[167,-3],[1,-4],[-1,-296],[57,-1],[12,-304],[32,1],[3,-74]]],"transform":{"scale":[0.00004683338182523551,0.00003272849312892214],"translate":[-76.563565,41.998318]},"objects":{"Geometry\\36-107":{"type":"GeometryCollection","geometries":[{"arcs":[[0,1]],"type":"Polygon","properties":{"GEOID":"361070204011"}},{"arcs":[[2,3,4,5]],"type":"Polygon","properties":{"GEOID":"361070203005"}},{"arcs":[[6,7,8,9,10,11]],"type":"Polygon","properties":{"GEOID":"361070207013"}},{"arcs":[[12,13,14,15,16,17,18,19,20]],"type":"Polygon","properties":{"GEOID":"361070203002"}},{"arcs":[[21,22,23,24,25,-9]],"type":"Polygon","properties":{"GEOID":"361070202004"}},{"arcs":[[26,27,28,29,30,31]],"type":"Polygon","properties":{"GEOID":"361070207024"}},{"arcs":[[-17,32,33,34,35,36]],"type":"Polygon","properties":{"GEOID":"361070203003"}},{"arcs":[[37,38,-35,39,40,41,42,43]],"type":"Polygon","properties":{"GEOID":"361070204014"}},{"arcs":[[44,-7,45]],"type":"Polygon","properties":{"GEOID":"361070207012"}},{"arcs":[[46,-4,47,48,49,50]],"type":"Polygon","properties":{"GEOID":"361070204023"}},{"arcs":[[51,52,53,54,55,56,-23]],"type":"Polygon","properties":{"GEOID":"361070202002"}},{"arcs":[[57,-6,58,59]],"type":"Polygon","properties":{"GEOID":"361070203006"}},{"arcs":[[60,-59,-5,-47,-2,61,62,-41]],"type":"Polygon","properties":{"GEOID":"361070204013"}},{"arcs":[[63,64,-49]],"type":"Polygon","properties":{"GEOID":"361070204021"}},{"arcs":[[-18,-37,65,66]],"type":"Polygon","properties":{"GEOID":"361070205001"}},{"arcs":[[-66,-36,67]],"type":"Polygon","properties":{"GEOID":"361070205002"}},{"arcs":[[68,-19,-67,69,70]],"type":"Polygon","properties":{"GEOID":"361070205003"}},{"arcs":[[71,72,73,74,-27,75,76]],"type":"Polygon","properties":{"GEOID":"361070207023"}},{"arcs":[[77,78,79,-29]],"type":"Polygon","properties":{"GEOID":"361070207032"}},{"arcs":[[-78,-28,-75,80,81]],"type":"Polygon","properties":{"GEOID":"361070207033"}},{"arcs":[[-79,-82,82,-31,83]],"type":"Polygon","properties":{"GEOID":"361070207034"}},{"arcs":[[84,85,-60,-61,-40,-34]],"type":"Polygon","properties":{"GEOID":"361070203004"}},{"arcs":[[86,87,-8,-45]],"type":"Polygon","properties":{"GEOID":"361070207011"}},{"arcs":[[88,89,-72,90]],"type":"Polygon","properties":{"GEOID":"361070207022"}},{"arcs":[[-80,-84,-30]],"type":"Polygon","properties":{"GEOID":"361070207031"}},{"arcs":[[-57,91,-13,92,-24]],"type":"Polygon","properties":{"GEOID":"361070202003"}},{"arcs":[[93,94,-85,-33,-16]],"type":"Polygon","properties":{"GEOID":"361070203001"}},{"arcs":[[-63,95,-50,-65,96,-42]],"type":"Polygon","properties":{"GEOID":"361070204012"}},{"arcs":[[-11,97,-91,-77,98]],"type":"Polygon","properties":{"GEOID":"361070207021"}},{"arcs":[[-1,-51,-96,-62]],"type":"Polygon","properties":{"GEOID":"361070204022"}},{"arcs":[[-70,-68,-39,99]],"type":"Polygon","properties":{"GEOID":"361070205004"}},{"arcs":[[-10,-26,100,101,-71,-100,-38,102,103,104,-98]],"type":"Polygon","properties":{"GEOID":"361070206003"}},{"arcs":[[105,106,-89,-105]],"type":"Polygon","properties":{"GEOID":"361070206004"}},{"arcs":[[-25,-93,-21,107,-101]],"type":"Polygon","properties":{"GEOID":"361070206001"}},{"arcs":[[-108,-20,-69,-102]],"type":"Polygon","properties":{"GEOID":"361070206002"}},{"arcs":[[-90,-107,108,109,-73]],"type":"Polygon","properties":{"GEOID":"361070206007"}},{"arcs":[[-106,-104,110,111,-109]],"type":"Polygon","properties":{"GEOID":"361070206006"}},{"arcs":[[-103,-44,112,-111]],"type":"Polygon","properties":{"GEOID":"361070206005"}},{"arcs":[[113,-94,-15,114]],"type":"Polygon","properties":{"GEOID":"361070201022"}},{"arcs":[[115,-52,-22,-88]],"type":"Polygon","properties":{"GEOID":"361070202001"}},{"arcs":[[116,117,118,119,-55]],"type":"Polygon","properties":{"GEOID":"361070201021"}},{"arcs":[[-56,-120,120,121,-115,-14,-92]],"type":"Polygon","properties":{"GEOID":"361070201024"}},{"arcs":[[122,123,-117,-54,124]],"type":"Polygon","properties":{"GEOID":"361070201012"}},{"arcs":[[-119,125,-121]],"type":"Polygon","properties":{"GEOID":"361070201023"}},{"arcs":[[-123,126]],"type":"Polygon","properties":{"GEOID":"361070201011"}}]}}}