{"type":"Topology","arcs":[[[8449,2597],[11,13]],[[8460,2610],[18,13],[57,15],[58,33],[26,8],[36,-9],[45,-34],[51,-9],[66,12],[61,42],[46,16],[31,-9],[58,-29],[107,2],[166,15],[31,4],[-5,-95],[11,-99],[-8,-44],[37,-100],[28,-10],[78,6],[169,-67]],[[9627,2271],[-52,-126],[-22,-135],[-39,3],[-73,-5],[-50,-46],[-20,-41],[-29,-39],[-29,-19],[-52,-50],[-80,-19],[-43,2],[-49,-11],[-113,-4],[-29,-8]],[[8947,1773],[-47,28],[-41,37],[-38,64],[-6,55],[-40,5],[-33,24],[-86,140],[-52,46],[-32,65],[-14,108],[-12,42],[-35,62],[-67,67],[5,81]],[[7996,2212],[73,293],[1,50],[-18,52]],[[8052,2607],[77,26],[34,-13],[30,0],[47,-14],[27,5],[54,-19],[74,-7],[54,12]],[[8947,1773],[-77,-52],[-51,-74],[-66,-67],[-103,14],[-51,40],[-94,52],[-64,92],[-56,12],[-64,7],[-34,15],[-43,4],[-21,28],[-128,-11]],[[8095,1833],[-69,131],[-25,64],[-13,84],[8,100]],[[9922,2189],[36,-38],[57,-34],[37,-14]],[[10052,2103],[93,-26],[50,-23],[204,-111],[153,-53],[109,-78],[19,-17],[69,-91]],[[10749,1704],[-53,-34],[-78,-57],[-49,2],[-56,-17],[-148,0],[-24,23],[-40,22],[-30,3],[-46,-17],[-50,4],[-32,-54]],[[10143,1579],[-67,67],[-221,263],[6,82],[-17,62],[-3,119],[10,10],[71,7]],[[9687,4233],[12,-11],[82,-134],[54,-34],[20,-25],[40,-107],[19,-134],[13,-25],[53,-60],[24,-53],[1,-64],[104,-5],[30,-14],[26,-38],[20,-9],[47,-1],[92,-127],[42,-28],[60,-13],[48,-27]],[[10474,3324],[16,-48],[25,-46],[64,-70],[17,-60],[0,-66],[19,-35],[37,-44],[28,-107],[-55,3],[-57,-12],[-45,-24],[-36,-29],[-61,-19]],[[10426,2767],[-145,60],[-39,33],[-17,-5]],[[10225,2855],[-120,130],[-308,298],[-57,61],[-290,375]],[[9450,3719],[83,65],[15,30],[7,81],[-44,130],[1,32],[28,35],[147,141]],[[12010,8761],[88,45],[66,63],[171,138],[124,94],[203,124],[126,88],[153,98],[97,79],[38,15],[110,16],[83,32],[54,29],[64,67],[124,80],[98,38]],[[13609,9767],[443,-964],[-221,-1403],[-109,-698],[-94,-592],[2,-21],[84,-500]],[[13714,5589],[-79,-29],[-45,-2],[-45,7],[-44,17],[-45,32],[-106,95],[-47,32],[-32,6],[-114,-16],[-92,16],[-55,-5],[-58,-18],[-514,-181],[-119,-31],[-140,-12],[-273,26]],[[11906,5526],[27,75],[44,88],[56,32],[101,103],[-9,40],[-45,96],[-49,117],[-4,89],[8,194],[24,68],[19,25],[29,13],[79,17],[49,38],[103,28],[28,11],[14,21],[-3,73],[-13,17],[-54,109],[-37,29],[-10,90],[-21,16],[41,78],[-10,69],[-15,37],[-69,63],[-13,51],[-14,7],[-67,-33],[-20,3],[-39,29],[-31,-13],[-52,30],[6,42],[-18,33],[-56,23],[8,51],[-24,41],[-27,63],[-23,24],[-106,-42],[28,29],[-49,94],[-69,149],[-43,36],[-69,21],[-51,46],[23,56],[28,26],[8,25],[29,21],[30,61],[30,47],[73,28],[42,63],[25,-9],[63,8],[28,43],[-5,72],[38,95],[5,46],[19,54],[28,43],[53,34],[66,30],[14,41],[-34,110],[-13,21]],[[10841,2300],[43,-20],[10,-29],[-3,-48],[12,-86],[113,-125],[67,-90],[44,-85]],[[11127,1817],[-16,-38],[-55,-29],[-13,-36],[-8,-195],[-7,-18]],[[11028,1501],[-65,41]],[[10963,1542],[-116,74],[-98,88]],[[10052,2103],[18,72],[0,38],[64,1],[41,33],[64,23],[28,20],[46,-3],[49,-15],[34,19],[40,7],[48,-3],[42,-23],[33,5],[33,61],[32,18],[54,-37],[-8,-14],[10,-52],[61,-10],[20,3],[80,54]],[[9627,2271],[20,64],[45,125],[14,10],[45,0],[36,16]],[[9787,2486],[91,-179],[44,-118]],[[10143,1579],[14,-30],[-46,-57],[-2,-60],[7,-29],[68,-25],[8,-41],[23,-11],[27,9],[25,-15],[12,-29],[18,-108],[33,-88],[19,-76]],[[10349,1019],[-257,-23],[-218,-17],[-85,-10],[-89,-16],[-176,-40],[-191,-54],[-279,4],[-149,0],[-128,3],[-119,-2],[-53,6],[-96,-10],[-77,-4],[-100,-16]],[[8332,840],[-25,56],[-22,26],[-44,30],[-36,56],[-6,35],[3,84],[16,140],[17,84],[5,58],[-3,73],[-10,62],[-24,77],[-41,84],[-67,128]],[[13191,4236],[35,13],[139,27],[146,78],[58,11],[210,-22],[47,6],[36,42],[43,84]],[[13905,4475],[-25,-135],[-116,-754],[-170,-1104],[18,-62],[31,-24],[40,24],[4,37],[28,5],[17,-29],[22,-87],[30,-83],[4,-30],[-68,-38],[3,-38],[65,-15],[48,-34],[-5,-19],[-59,-50],[67,-193],[17,-133],[21,-12],[41,14],[27,-27],[6,-70],[-16,-48],[-39,-38],[-12,-23],[-5,-72],[-74,7],[-140,-18],[-79,-32],[-53,-42],[-31,-36]],[[13502,1316],[-38,38],[-53,34],[-49,51],[62,0],[24,80],[17,36],[35,34],[-12,31],[-33,27],[-55,29],[-27,24],[-23,44],[-54,76],[-12,35],[-25,32],[-121,56],[-100,-4],[-2,24],[-23,58],[-27,22],[-22,36],[-17,50],[-78,80],[-73,61],[-30,15],[-81,14],[-36,21],[-46,14],[-57,34]],[[12546,2368],[-33,34],[-34,66],[-77,114],[-22,45],[-9,73],[292,-4],[83,26],[141,-7],[62,16],[128,9],[-5,69],[-15,67],[-3,99],[10,101],[26,49],[35,11],[-5,65],[-58,29],[3,60],[43,83],[8,43],[41,122],[-5,22],[-60,79],[-24,56],[29,107],[32,88],[7,34],[2,63],[14,52],[-10,43],[6,23],[29,34],[14,97]],[[5905,3621],[166,241],[124,177]],[[6195,4039],[35,-44],[22,-16],[92,-34],[131,-8],[45,-29],[111,-35],[37,121],[41,-14],[45,7],[20,-6],[39,-61],[58,-25],[35,-6],[-14,-38],[25,-51],[40,-23]],[[6957,3777],[-833,-973]],[[6124,2804],[-34,77],[-30,27],[-59,9],[-58,21],[-75,-16],[-63,-29],[-31,8],[-104,97],[-24,56],[2,45],[19,35],[57,86],[62,35],[87,100],[17,47],[4,79],[13,100],[-2,40]],[[6859,2383],[32,22],[23,28],[50,-11],[42,47],[30,4],[76,54],[-16,37],[-33,53],[-4,34],[-52,66],[-3,58],[27,51],[28,38],[21,44],[24,2],[61,-20],[82,-5],[25,23],[14,75],[0,40],[-24,23],[-12,77],[21,76],[19,48],[-5,127],[10,72],[22,48]],[[7317,3494],[63,-14],[43,-19],[95,-16],[158,3],[76,15],[39,-10],[84,-3]],[[7875,3450],[-57,-122],[-7,-73],[23,-60],[52,-57],[34,-64],[10,-43],[0,-46],[-11,-133],[6,-47],[23,-55],[104,-143]],[[7996,2212],[-55,6],[-25,-17],[-24,0],[-42,33],[-42,-24],[-53,-11],[-23,-15],[-52,-76],[1,-127],[-17,-9],[-23,20],[-32,-17],[-1,-46],[-29,-28],[-58,56],[-32,44],[-47,42],[-51,-1],[-40,43],[-28,60],[-49,122],[-138,54],[-22,-6],[-26,-30]],[[7088,2285],[-71,15],[-69,3],[-45,12],[-19,15],[-25,53]],[[11972,1830],[65,29],[37,38],[45,82],[46,50],[88,55],[31,27],[87,107],[126,105],[49,45]],[[13502,1316],[-32,-57],[-33,-101],[-31,-111]],[[13406,1047],[-61,-10],[-39,1],[-32,-21],[-22,2],[-19,54],[-33,19],[-77,-63],[-24,-34],[-28,-15],[-26,18],[-11,45],[-98,-1],[-22,-6],[-44,-41],[-37,25],[3,26],[-30,43],[-50,4],[-8,16],[27,114],[-17,37],[-104,15],[-39,-14],[-130,9],[-134,-19],[-278,-26],[-116,-17],[-84,-28],[-36,1],[-13,12],[-217,115]],[[11607,1308],[-4,21],[32,25],[12,199],[-6,43],[-29,33],[-22,45],[23,33],[-19,47],[42,42],[26,15],[47,11],[225,4],[38,4]],[[11620,2675],[15,43],[51,333],[5,20]],[[11691,3071],[22,39],[51,41],[131,26],[56,4],[13,7],[48,72],[34,84],[-2,62],[8,38],[86,130],[37,24],[80,11],[73,29],[49,11],[82,-1],[35,4],[51,40],[66,17],[82,55],[29,69],[24,35],[77,51],[210,211],[100,59],[58,47]],[[11972,1830],[-33,101],[-81,16],[-44,51],[-30,79],[-6,43],[3,79],[-24,86],[-10,20],[-63,69],[-21,55],[4,138],[-14,59],[-33,49]],[[11607,1308],[-54,-39]],[[11553,1269],[-183,170],[-58,56],[-42,58],[-95,160],[-48,104]],[[11127,1817],[46,80],[20,50],[17,152],[22,93],[35,73],[-1,137],[13,33],[22,23],[121,77],[168,110],[30,30]],[[13406,1047],[-30,-68],[-19,-25],[-89,-86],[-13,-40],[15,-56],[32,-39],[41,-84],[8,-80],[-2,-35],[-20,-69],[-22,-36],[-70,-54],[-56,-13],[-65,15],[-43,-4],[-81,22],[-75,-1],[-53,-20],[-61,-36],[-31,-37],[-75,-124],[-17,-18],[-20,-60],[-4,-58],[-26,-25]],[[12630,16],[-27,34],[-103,110],[-116,171],[-166,249],[-123,178],[-70,74],[-472,437]],[[6124,2804],[42,-71],[14,-10],[64,-10],[85,10],[74,4],[45,32],[55,22],[93,8],[26,9],[13,-17],[54,-31],[20,-22],[23,-52],[19,-65],[41,-40],[29,-78],[33,-46],[5,-64]],[[7088,2285],[-16,-27],[-6,-64],[-55,-95],[-37,-57],[-53,-68],[-80,-32],[-48,-4],[-47,-29],[-19,-66],[-62,-95]],[[6665,1748],[-554,749],[-279,-202],[-573,396],[32,11],[63,55],[20,48],[-175,83]],[[5199,2888],[140,172],[84,95],[102,89],[236,203],[59,57],[52,67],[33,50]],[[6957,3777],[40,-42],[43,-64],[61,-65],[32,-64],[13,-39],[40,-4],[8,15]],[[7194,3514],[123,-20]],[[8332,840],[-20,-5],[-129,-6],[-158,-2],[-92,-10],[-121,-18],[-37,-13],[-126,-66],[-177,6],[-55,22],[-330,433],[-245,327],[-177,240]],[[9131,3440],[40,23],[147,38],[31,42],[15,37],[13,56],[12,24]],[[9389,3660],[22,28],[39,31]],[[10225,2855],[-19,-28],[-10,-34],[-72,-58],[-92,-48],[-51,-30],[-35,-10],[-157,2],[-64,-41]],[[9725,2608],[-40,78],[-8,42],[0,85],[-11,33],[-114,141],[-28,17],[-64,13],[-43,16],[-50,38],[-37,47],[-53,81],[-44,57]],[[9233,3256],[-9,11],[-93,173]],[[7875,3450],[77,122]],[[7952,3572],[117,-61],[62,10],[58,47],[35,6],[76,-17],[73,32],[86,-18]],[[8459,3571],[-4,-73],[9,-14],[44,0],[11,-20],[-13,-72],[-3,-73],[55,-3],[-8,-65],[2,-90],[-36,-77],[-2,-18],[31,-41],[13,-34],[47,-69],[-10,-190]],[[8595,2732],[-46,-29],[-69,-65],[-20,-28]],[[7565,5225],[136,96],[40,21],[54,17],[102,25],[20,9]],[[7917,5393],[60,26],[85,43],[39,25],[41,44],[18,38]],[[8160,5569],[90,207],[32,-11],[35,2]],[[8317,5767],[-26,-150],[-2,-50],[8,-54],[100,-306],[8,-44]],[[8405,5163],[-40,-25],[-41,-159],[-9,-57],[28,-53]],[[8343,4869],[-24,-19],[-101,-106],[-38,-23]],[[8180,4721],[-83,47],[-65,11],[-48,-3],[-85,-63],[-33,-9],[-41,2],[-96,17],[-52,19],[-42,38],[-46,90],[-12,40],[-32,75],[-3,52],[17,60],[6,128]],[[10662,1009],[65,23],[71,17],[-4,32],[15,28],[38,161],[63,107],[18,42],[14,83],[21,40]],[[11028,1501],[54,-62],[57,-83],[32,-217],[-2,-22],[-29,-69],[1,-21],[33,-116],[11,-66],[21,-37],[35,-29],[69,-90],[20,-43],[3,-87],[7,-32],[21,-33],[62,-33],[137,-57],[40,-10],[79,-9],[32,-26],[7,-57]],[[11718,302],[-79,26],[-38,5],[-96,55],[-231,119],[-82,38],[-77,18],[-86,6],[-83,27],[-37,3],[-52,-12],[-40,-1],[-36,10],[-46,38],[-19,70],[-36,283],[-18,22]],[[10662,1009],[-50,23],[-96,0],[-167,-13]],[[8405,5163],[26,-137],[24,-77],[37,-83],[73,-142]],[[8565,4724],[95,-183],[74,-96],[92,-80],[195,-146],[70,-62],[74,-74],[47,-56],[238,-308]],[[9389,3660],[-16,26],[-63,-31],[-40,3],[-21,11],[-20,35],[7,17],[-25,38],[-14,39],[2,26],[-13,40],[-31,-12],[-19,11],[-25,53],[-73,-22],[-69,15],[-37,-7],[-25,17],[-27,2],[-32,-22]],[[8848,3899],[-34,55],[-23,92],[-15,35],[-84,135],[-110,185]],[[8582,4401],[-92,148],[-88,203],[-59,117]],[[12630,16],[-49,-14],[-99,-2],[-89,21],[-118,49],[-53,13],[-70,-9],[-85,-30],[-27,-3],[-54,9],[-73,41],[-34,26],[-115,148],[-46,37]],[[8459,3571],[41,-3],[111,33],[26,0],[135,-51],[185,58],[63,36],[111,-204]],[[9233,3256],[-42,-20],[-15,-59],[-43,-41],[-54,-149],[-34,-36],[-17,3],[-105,-23],[-111,-38],[-63,-51],[-29,-41],[-34,-12],[-36,-30],[-55,-27]],[[7696,5639],[30,70],[7,52],[0,72],[15,110],[19,49],[40,39],[14,51]],[[7821,6082],[20,-24],[8,-56]],[[7849,6002],[-5,-118],[63,-122],[20,11]],[[7927,5773],[134,-265],[89,73],[10,-12]],[[7917,5393],[-16,37],[-54,-7],[-11,39],[-1,71],[-12,61],[17,32],[-59,113],[-42,-25],[-29,-61],[-14,-14]],[[7327,5411],[11,25]],[[7338,5436],[14,-1],[86,49],[42,20],[94,67],[83,31],[39,37]],[[7565,5225],[-73,-45],[-40,-12],[-140,-34]],[[7312,5134],[15,129],[16,61],[-3,54],[-13,33]],[[8582,4401],[-17,-26],[-8,-38],[-39,-33],[-86,2],[-22,21],[-15,34],[-26,15],[-68,3],[-37,-29],[-70,7],[-22,24],[-44,133],[-8,47],[-20,10],[-110,10]],[[7990,4581],[25,38],[-5,58],[23,28],[118,3],[29,13]],[[8203,6514],[15,-3],[16,-32],[25,-13],[37,1],[44,17],[39,-13],[68,27],[52,-22],[21,-24],[23,-53],[70,-110],[92,-136],[-25,-12],[10,-43]],[[8690,6098],[-48,-23],[-30,-49],[-57,-45],[-62,-106],[-17,-58],[-71,-15],[-88,-35]],[[8317,5767],[16,89],[0,78],[-19,119]],[[8314,6053],[-63,295],[-8,31],[-29,43],[-27,27]],[[8187,6449],[16,65]],[[7723,6169],[52,-50],[46,-37]],[[7338,5436],[4,19],[4,142],[26,80],[38,77],[82,140],[11,29],[15,85],[13,40],[19,23],[102,46],[48,25],[23,27]],[[6201,5625],[21,-22],[25,-63],[76,-16],[22,-25],[31,-70],[9,-41],[55,-53],[19,-6],[36,-46],[9,-27],[37,-46],[26,86],[29,-1],[38,18],[74,64],[28,14],[31,46],[120,9],[55,-5],[48,-28],[62,-13],[27,12],[39,57],[35,18],[33,1],[44,-15]],[[7230,5473],[42,-32],[37,-58],[18,28]],[[7312,5134],[-136,-33],[-121,-33],[-35,-17],[-80,-49],[-137,-101],[-89,-80],[-39,-50],[-84,-130]],[[6591,4641],[-206,-326],[-65,-97],[-125,-179]],[[6195,4039],[-31,49],[-98,80],[-60,60],[-20,45],[-110,41],[-44,32],[-60,-1],[-20,19],[8,66],[-59,43],[-117,117]],[[5584,4590],[21,40],[12,50],[35,36],[-1,21],[-81,89],[-40,21],[-45,8],[-29,37]],[[5456,4892],[36,47],[91,98],[64,42],[48,71],[108,94],[32,65],[44,46],[50,34],[49,10],[30,25],[154,178],[39,23]],[[8880,7274],[17,-19],[-4,-28],[34,-48],[-16,-33],[2,-64],[-42,-115],[18,-67],[11,-21],[28,-97],[-3,-44],[48,-87],[12,-36],[2,-43],[39,25],[45,60],[69,61],[15,23],[126,90],[96,106],[45,39],[31,13],[35,-15],[22,-23],[22,-4],[43,-61],[16,0],[38,22],[28,-24]],[[9657,6884],[-21,-25],[-133,-219],[-29,-31],[-111,-67],[-138,-90],[-60,-56],[-48,-86],[-54,-57],[-68,-43],[-71,-61]],[[8924,6149],[-38,30],[-52,0],[-81,-57],[-63,-24]],[[8203,6514],[4,42],[-11,80],[-23,50],[133,46],[75,71],[88,138],[88,67],[122,110],[13,21],[4,41],[69,27],[37,34],[78,33]],[[7849,6002],[38,2],[23,16],[42,-3],[50,11],[17,12],[34,56],[10,-70],[16,-42],[61,-77]],[[8140,5907],[-32,-41],[-38,2],[-36,-18],[-43,-42],[-64,-35]],[[7753,6281],[30,89],[6,33],[2,84],[23,168]],[[7814,6655],[193,-69],[70,-41],[110,-96]],[[8314,6053],[-60,-33],[-50,-52],[-45,-25],[-19,-36]],[[7723,6169],[30,112]],[[4368,13282],[296,-1],[734,-9],[642,-8]],[[6040,13264],[-20,-46],[-36,-56],[-26,-15],[70,-97],[46,-7],[36,-27],[35,-38],[-1,-26],[34,-65],[42,-20],[7,33],[31,-4],[39,-29],[-7,-56],[20,-30],[26,-12],[41,9],[22,-7],[46,4],[37,-28],[-4,-61],[6,-47],[-19,-13],[19,-37],[43,-13],[13,-19],[76,28],[-5,-18],[53,-77],[49,-31],[-74,-110],[4,-16],[78,-50],[-32,-35],[14,-40],[52,-20],[65,15],[44,-60],[12,-33],[-27,-63],[-51,-41],[-18,-41],[6,-21],[65,-33],[13,-15],[9,-53],[27,-50],[39,-42],[55,9],[51,-38],[32,13],[6,31],[36,15],[99,-113],[5,-11],[-13,-60],[2,-42],[22,-51],[37,-27],[79,3],[21,-13],[-1,-26],[15,-29],[88,-98],[3,-13],[-34,-86],[-33,-30],[-24,-36],[-1,-27],[13,-56],[16,-23],[86,-49],[45,6],[41,-11],[27,-39],[4,-38],[20,-56],[18,-87],[-14,-51],[5,-36],[-55,-25],[-1,-59],[-18,-45],[-47,-85],[-38,-36],[-6,-25],[12,-52],[-11,-81],[13,-37],[-10,-71],[-25,-34],[-33,-28],[-8,-25],[-8,-86],[-31,-31],[-17,-39],[-42,-31],[-17,-45],[41,-4],[39,-19],[14,-18],[50,-10],[11,-54],[27,-24],[38,-48],[13,0],[35,41],[59,5],[9,-93],[30,-66],[32,-5],[10,-19],[-13,-73],[63,-103],[-12,-62],[-35,-40],[1,-16],[63,-70],[29,-64],[1,-20],[28,-42],[72,-59],[32,-32]],[[7940,8952],[-24,-19],[-7,-37],[-34,-66],[-86,-121],[-75,-82],[-42,-54],[-46,-31],[-42,-2],[-78,-14],[-72,51],[-25,7],[-72,-16],[29,-257],[-44,-28],[-55,7],[-89,-33],[-39,-27]],[[7139,8230],[-54,105],[-111,125],[-28,59],[-10,54],[7,85],[82,284],[14,65],[-8,109],[-23,66],[-26,43],[-15,69],[0,181],[-23,66],[-66,70],[-13,24],[-42,124],[-45,69],[-39,50],[-26,17],[-41,10],[-69,3],[-56,12],[-37,23],[-23,25],[-73,99],[-62,48],[-34,33],[-75,141],[-10,26],[-1,50],[12,64],[27,41],[59,42],[11,14],[9,52],[-35,104],[-17,85],[-26,89],[-65,119],[-41,49],[-119,114],[-104,95],[-39,32],[-23,9],[-67,-3],[-37,18],[-57,90],[-33,45],[-17,53],[-52,53],[-61,29],[-87,75],[-30,77],[-12,14],[-59,25],[-59,54],[-23,52],[15,94],[-14,86],[-21,38],[-35,23],[-63,25],[-28,38],[-21,73],[-123,191],[-46,21],[-18,58],[-49,27],[-2,22],[38,35],[-13,42],[-27,2],[-18,22],[-6,43],[-23,14],[-35,67],[-128,93],[-11,4],[-80,-4],[-25,8],[-39,37],[-68,11],[-29,22],[-27,70],[39,77],[34,27],[118,24],[11,14],[-15,27],[-33,17],[-11,39],[-31,17],[-51,-35],[-21,1],[-63,56]],[[5701,6905],[29,-20],[67,-14],[56,43],[27,-1],[59,-18],[53,-32],[57,40],[39,51],[32,17],[43,80],[65,75],[20,7],[34,-11]],[[6282,7122],[43,-15],[31,1],[100,45],[57,55],[49,9],[30,45],[35,5],[23,53],[13,-6],[65,-147],[16,-26],[84,-37],[52,-34],[60,-62],[-9,-34],[9,-32],[19,-10],[24,-44],[-2,-43],[19,-65],[51,-89],[50,-44]],[[7101,6647],[-55,-27],[71,-36],[14,-46],[-23,-40],[9,-22],[-58,-87],[-27,-50],[-41,-15],[-25,-35],[-7,-33],[-43,-98],[28,-75],[34,-54],[39,-22],[18,-27],[35,10],[44,-18],[69,-9],[-18,-38],[-5,-32],[-22,-45],[5,-25],[37,-34],[13,-165],[37,-151]],[[6201,5625],[22,13],[-174,240],[-66,99],[-24,30],[-246,194],[-48,35],[-50,16],[-103,5]],[[5512,6257],[4,77],[38,97],[2,52],[31,45],[36,67],[15,12],[55,3],[72,-2],[63,37],[5,43],[-38,130],[-15,10],[-63,19],[-25,28],[9,30]],[[7940,8952],[57,24],[39,-4],[27,16],[56,112],[22,18],[121,77],[34,8],[40,-11],[33,21],[19,43],[202,153],[65,70],[48,39],[136,-78]],[[8839,9440],[-18,-20],[0,-26],[-25,-26],[-24,-2],[-18,-44],[19,-31],[-26,-48],[-26,-27],[-2,-21],[-34,-32],[21,-36],[-47,-62],[-43,-35],[-54,-21],[-60,-52],[-4,-41],[20,-45],[18,-20],[16,-47],[-44,-42],[-38,-5],[-13,-41],[-26,7],[-24,-11],[15,-30],[-51,-60],[-19,22],[-82,-18],[-27,-53],[-15,-4],[-28,-56],[26,-53],[1,-35],[-26,-42],[-16,-3],[-12,-99],[-27,-33],[-4,-38],[13,-21],[22,5],[3,-33],[20,-26],[-18,-13],[26,-52],[-41,-86],[25,-33],[-8,-81],[-78,-87],[-37,-33],[-28,19],[-49,-60],[-11,-37],[-38,-28],[-63,-64],[-2,-88],[-16,-56],[-53,-76],[-80,-91],[-37,-58],[-32,-18],[-22,-45],[19,-46],[-23,-33]],[[7634,7069],[-26,21],[-169,121],[-140,120],[-70,30],[-37,29],[-26,38],[-13,60],[3,116],[-18,131],[-46,125],[-2,57],[9,32],[63,124],[12,57],[-10,43],[-25,57]],[[7990,4581],[-8,-52],[8,-77],[11,-47]],[[8001,4405],[-48,-4],[-51,-26],[-30,-3],[-34,-42],[-64,15],[-164,99],[-132,84],[-107,33]],[[7371,4561],[-22,31],[-33,20],[-36,1],[-30,-18],[-40,-6],[-31,6],[-43,27],[-24,23],[-23,38],[-19,10],[-97,-6],[-79,1],[-34,-6],[-37,-32],[-25,-62],[-16,-10],[-55,-85],[-123,-93],[-67,-12],[-35,6],[61,69],[26,48],[2,130]],[[9725,2608],[62,-122]],[[7139,8230],[-61,-26],[-15,-13],[-21,-57],[-23,-20],[-39,-58],[-17,-48],[3,-21],[-89,-51],[-44,-32],[-48,-54],[-28,-22],[-79,-26],[-30,-18],[-63,-54],[-66,-41],[-68,-31],[-16,-41],[31,-48],[8,-48],[-3,-32],[-22,-76],[-62,-99],[-25,-63],[-80,-129]],[[5701,6905],[-60,39],[13,29],[54,12],[10,13],[-1,49],[34,53],[-43,32],[-28,8],[-51,55],[-22,40],[-48,44],[-43,13],[-3,29],[-91,237],[-21,13],[-86,85],[-61,51],[-95,93],[-4,33],[14,27],[1,46],[-28,56],[-26,27],[20,63],[-11,30],[43,60],[-6,30],[-39,24],[-49,7],[-64,42],[-20,51],[-22,36],[-1,20],[51,145],[-9,55],[34,70],[-8,40],[-43,24],[-33,40],[-15,46],[13,59],[-6,42],[-25,19],[-55,2],[-17,-12],[-6,-28],[-17,-18],[-35,8],[-77,64],[-20,50],[-29,12],[-60,53],[-8,38],[17,30],[74,40],[-25,37],[10,26],[-14,42],[-32,1],[-11,40],[8,32],[-35,10],[-20,19],[-11,97],[-24,23],[2,104],[-52,25],[-21,152],[1,53],[-7,27],[-38,47],[-60,47],[-36,19],[-15,50],[-30,18],[-16,-22],[-25,20],[-27,-36],[-32,-1],[-7,33],[-29,17],[-31,1],[-20,14],[-27,-13],[-36,16],[-22,-16],[-127,-28],[-29,8],[-121,6],[-55,-9],[-14,20],[-63,41],[-21,2],[-89,-19],[-58,-24],[-18,4],[-91,50],[-29,42],[-41,20],[-105,25],[-44,-6],[-6,34],[7,49],[-35,47],[-45,30],[-35,43],[-5,28],[9,91],[-17,140],[0,28],[-48,35],[-4,70],[-28,74],[-80,138],[-18,39],[-95,21],[-47,1],[-35,13],[-54,53],[-43,12],[-35,-1],[-74,-20],[-23,2],[-60,33],[-59,-5],[-15,62],[-2,44],[-28,31],[-14,63],[-17,21],[-6,60],[-13,32]],[[2181,11413],[-22,11],[-5,32],[-63,43],[4,28],[-43,10],[-29,35],[-33,-5],[-49,21],[-33,22],[-34,-5],[-31,-25],[-33,18],[-59,7],[-46,-28],[-33,12],[-33,26],[-27,67],[-1,36],[-25,26],[-50,24],[-21,-2],[15,197],[-30,49],[-49,150],[5,51],[-17,29],[-44,11],[-35,43],[-31,17],[-37,45],[-103,49],[-33,28],[-62,71],[-33,50],[-40,23],[-96,20],[-74,49],[-44,-3],[-45,-19],[-49,0],[-37,26],[-84,46],[-58,24],[-78,78],[-24,41],[-31,25],[-64,28],[-43,29],[-65,14],[-35,29],[-43,17],[-59,33],[-39,1],[-53,12],[356,37],[711,72],[621,64],[638,67],[236,23],[550,56],[232,26],[363,36],[247,27],[46,-15],[38,-43],[27,6],[33,-24],[94,5],[103,-25],[21,-10],[52,-49]],[[8924,6149],[53,-51],[70,-38],[77,-62],[36,-22],[51,-16],[116,-16],[65,-26],[130,-85],[48,-28],[47,-18],[67,-9],[52,3],[144,25]],[[9880,5806],[3,-40],[-51,-32],[-25,-7],[-74,-50],[-30,-13],[-28,-31],[-8,-33],[-31,-18],[-21,-38],[-88,-55],[-25,-25],[8,-31],[-20,-51],[-26,-28],[-48,-12],[-17,-39],[-178,-48],[-87,-9],[-43,14],[-51,-14],[-25,-28],[16,-15],[36,-8],[-11,-28],[-23,-25],[-75,-103],[-33,-16],[20,-80],[-22,-44],[-78,11],[-46,-27],[-48,-19]],[[8751,4864],[-25,-23],[-14,-56],[-16,-39],[-32,-26],[-25,-3],[-57,19],[-17,-12]],[[8880,7274],[87,117],[39,39],[37,49],[29,27],[93,70],[54,20],[61,80],[22,57],[12,62],[10,23],[105,62],[83,73],[36,24],[43,46],[64,24],[38,23],[227,161],[112,68],[41,58],[56,48],[47,68],[38,12],[26,19],[29,68],[83,45],[154,112],[21,21],[50,15],[37,18],[49,43],[48,24],[36,47],[118,58],[92,37],[29,30],[35,56],[38,49],[54,83],[20,40],[-1,29],[-27,47],[25,26]],[[11130,9352],[23,-29],[59,-20],[61,-10],[59,39],[33,13],[46,-1],[41,-12],[45,-27],[53,4],[47,-19],[59,-34],[39,-67],[24,-18],[10,-51],[42,-77],[6,-66],[-21,-57],[12,-118],[35,-38],[14,-34],[41,-27],[33,-40],[6,-38]],[[11897,8625],[-136,-118],[-60,-46],[-25,-25],[-27,-53],[-29,-41],[-76,-58],[-170,-162],[-181,-122],[-32,-64],[-31,-41],[-66,-69],[-56,-35],[-128,-55],[-19,-15],[-319,-293],[-123,-144],[-31,-29],[-34,-19],[-82,-29],[-52,-29]],[[10220,7178],[-50,-26],[-119,-48],[-248,-81],[-62,-41],[-84,-98]],[[9880,5806],[47,13],[119,41],[129,57],[75,9],[52,-10],[47,-20],[63,-49],[36,-20],[61,-13],[47,-24],[35,-30]],[[10591,5760],[68,-57],[69,-38],[46,-11],[48,1],[97,14],[55,-1],[57,-14],[60,-22],[102,-29],[54,-11],[103,-14],[523,-49]],[[11873,5529],[-8,-14],[-61,-29],[-135,-10],[-52,-35],[-113,-86],[-77,-110],[-34,-53],[-50,-24],[-16,-55],[-31,-30],[-80,-118],[20,-25],[37,-27],[26,-69],[-14,-53],[-30,-41],[-4,-57],[-22,-28],[11,-87],[29,-47],[-2,-54],[28,-14],[86,-67],[42,3],[56,-22],[34,-76],[-5,-75],[-16,-78],[1,-32],[66,-152],[16,-31]],[[11575,3933],[-36,-22],[-39,-41],[-42,-9],[-88,-6],[-58,-25],[-119,-14],[-33,-90],[-52,-29],[-42,-13],[-79,0],[-31,22],[-43,-1],[-43,-17],[-59,-36],[-103,5],[-55,-44],[-38,-68],[3,-70],[-5,-45],[-38,-65],[-59,-32],[-42,-9]],[[9687,4233],[-59,28],[-45,60],[-44,35],[-22,35],[-25,126],[5,26],[29,21],[-14,17],[-41,-1],[-37,22],[-65,-13],[-33,-56],[-17,2],[-32,59],[-20,22],[-28,5],[-21,-27],[-54,-18],[-52,12],[-37,30],[-17,32],[-43,21],[-66,45],[-57,4],[-17,18],[-7,42],[-29,28],[-48,6],[-10,31],[-30,19]],[[7634,7069],[29,-46],[11,-44],[38,-197],[10,-41],[25,-43],[67,-43]],[[7753,6281],[-25,14],[-43,58],[-56,12],[-19,13],[-51,63],[-12,54],[-83,57],[-30,10],[-60,-37],[-73,-6],[-20,17],[-9,46],[-21,37],[-37,-4],[-37,13],[-46,-5],[-30,24]],[[7952,3572],[11,45],[0,53],[-52,199]],[[7911,3869],[31,-4],[27,-20],[56,-5],[75,35],[52,-8],[56,16],[56,38],[14,26],[30,30],[77,-5],[28,20],[35,49],[54,-10],[56,-24],[63,-44],[133,-75],[50,-2],[44,13]],[[7911,3869],[-20,75],[-7,50],[-17,41],[-2,29],[27,58],[67,55],[26,32],[40,77],[2,29],[-26,90]],[[5199,2888],[-4,2],[-203,462],[-213,104]],[[4779,3456],[3,121],[7,17],[62,47],[55,-12],[51,28],[44,47],[23,12],[266,24],[67,41],[-27,36],[23,85],[27,80],[-3,89],[-44,26],[-41,91],[13,35],[37,64],[11,7],[81,-3],[10,9],[-1,48],[-14,19],[3,53],[29,5],[23,33],[-8,25],[18,31],[56,40],[12,39],[22,-3]],[[11897,8625],[59,52],[37,68],[17,16]],[[11906,5526],[-33,3]],[[10591,5760],[24,31],[14,35],[-33,43],[-19,35],[8,26],[-4,71],[25,71],[7,37],[-51,60],[16,51],[17,27],[34,30],[19,48],[22,25],[55,23],[9,21],[-14,31],[-79,-19],[-96,-2],[-98,-27],[-13,-14],[-46,-13],[-35,15],[-151,120],[-24,32],[-9,27],[14,16],[-48,21],[-27,40],[-35,24],[-44,45],[-24,70],[35,8],[36,30],[21,66],[64,22],[51,36],[-11,29],[15,36],[5,41],[-26,51],[4,29],[27,28],[-6,42]],[[7194,3514],[10,22],[97,138],[-1,84],[24,58],[71,-11],[56,13],[44,-7],[47,13],[35,21],[27,54],[42,39],[-62,43],[-45,-7],[-28,24],[-9,22],[-5,68],[10,51],[54,56],[10,24],[-4,60],[8,26],[-13,20],[-167,43],[-56,-12],[-17,45],[9,58],[40,102]],[[10426,2767],[49,-31],[78,-66],[171,-184],[28,-34],[10,-71],[35,-64],[44,-17]],[[8839,9440],[56,-30],[29,8],[35,50],[-13,30],[5,21],[52,18],[44,-22],[29,0],[24,14],[10,23],[-2,36],[43,36],[52,19],[18,42],[51,33],[44,10],[28,18],[35,51],[171,185],[9,37],[30,38],[30,58],[45,55],[52,97],[37,91],[157,119],[69,23],[67,-1],[19,8],[53,43],[49,20],[49,1],[40,41],[72,10],[25,22],[30,47],[69,28],[40,23],[68,-23],[26,12],[33,66],[5,33],[-12,57],[-48,106],[4,11],[84,64],[28,42],[117,62],[72,-6],[56,9]],[[10925,11175],[69,-57],[74,-90],[99,-72],[26,-77],[23,-21],[15,-35],[29,-4],[22,-23],[34,-61],[32,-23],[23,-40],[-25,-44],[-43,-16],[-104,-103],[-44,-53],[-50,-14],[-63,-59],[-96,-42],[-100,-52],[-63,-46],[-18,-36],[-19,-15],[-5,-42],[43,-59],[16,-60],[4,-46],[-8,-50],[-2,-51],[36,9],[-3,-34],[21,-47],[69,-48],[34,-50],[8,-36],[15,-24],[-2,-25],[33,-6],[79,-101],[43,-97],[3,-73]],[[6040,13264],[487,-4],[1196,-12],[526,-418],[162,-128],[55,-1],[16,-37],[-8,-28],[25,-39],[46,-10],[17,-13],[5,-38],[25,-19],[61,-8],[30,12],[19,-10],[66,16],[36,-33],[43,20],[61,17],[22,20],[69,41],[88,30],[47,-3],[42,8],[31,-32],[18,-73],[42,-8],[30,32],[68,7],[59,-27],[13,-22],[54,-41],[62,2],[33,-10],[58,23],[67,11],[9,-9],[-7,-75],[-19,-50],[2,-16],[56,-58],[30,-15],[32,-31],[35,-49],[82,-45],[11,-41],[16,-18],[45,-4],[46,28],[15,25],[-4,50],[77,50],[66,37],[47,20],[67,3],[38,-27],[46,-22],[-2,-56],[8,-60],[49,-50],[15,-37],[112,-58],[-21,-81],[1,-52],[23,-48],[82,-104],[-14,-35],[1,-79],[34,23],[28,-8],[37,6],[24,17],[42,52],[40,27],[41,-11],[25,25],[53,7],[33,-30],[46,8],[63,38],[41,2],[11,17],[38,23],[49,11],[45,-58],[40,-63],[26,-17],[33,-43],[30,-29],[20,-43],[33,14],[41,50],[38,-1],[63,9],[35,-21],[-3,-40],[27,-18],[38,34],[28,-15],[12,-100]],[[11766,11448],[-52,-20],[-45,-9],[-21,-47],[-14,-13],[-133,-27],[-33,-60],[-3,-74],[-9,-12],[-94,-46],[-33,-2],[-45,31],[-68,0],[-36,14],[-75,-19],[-115,22],[-65,-11]],[[13714,5589],[191,-1105],[0,-9]],[[11691,3071],[-10,25],[-9,67],[4,56],[-4,55],[-12,29],[-53,84],[-26,75],[-4,147],[-1,140],[-3,67],[2,117]],[[11766,11448],[17,-32],[85,-63],[18,-9],[52,3],[55,29],[35,-5],[-5,-27],[-62,-105],[18,-41],[38,-32],[-10,-44],[57,-84],[-7,-17],[43,-55],[59,-52],[22,-71],[27,-15],[27,4],[25,-26],[10,-35],[-31,-24],[-28,-37],[-9,-63],[-87,-46],[-27,-62],[-49,-33],[27,-74],[11,-6],[73,41],[103,33],[34,20],[54,7],[31,-13],[57,6],[32,14],[27,28],[33,-3],[12,-25],[-3,-58],[23,-8],[61,-46],[65,-18],[204,-127],[75,-52],[157,-94],[81,-60],[95,-65],[154,-112],[56,-33],[28,-1],[25,13],[44,-49],[11,-57]],[[4687,6086],[7,-22],[28,-33],[30,-17],[61,1],[41,-53],[36,-8],[32,2],[59,-66],[11,-22],[-43,-207],[9,-41],[9,-95],[-9,-51],[-13,-28],[9,-50],[2,-47],[41,-74],[3,-18],[-18,-36],[5,-66],[15,-50],[48,-7],[23,-55],[32,-34],[29,-18],[43,-59],[59,-42],[29,-31],[46,-4],[35,7],[20,25],[55,28],[35,-23]],[[4779,3456],[-962,473],[-880,403],[-50,50],[-38,30],[-19,27],[-22,64],[-83,132],[-55,0],[-17,37],[-35,40],[-47,35],[-68,124],[-23,11],[-40,-3],[-55,40]],[[2385,4919],[46,37],[45,46],[65,40],[42,33],[61,68],[40,31],[153,76],[102,70],[38,56],[29,30],[64,26],[80,-9],[50,3],[55,19],[128,102],[57,108],[62,53],[56,18],[127,74],[13,18],[30,76],[33,36],[37,19],[42,7],[52,-4],[31,14],[16,34],[19,86],[2,112],[57,-35],[59,12],[52,27],[56,17],[29,24],[28,-2],[61,52],[45,-22],[72,-6],[-10,-25],[54,-27],[40,-36],[25,-12],[38,6],[59,-21],[62,-64]],[[5512,6257],[-211,13],[-51,-9],[-32,-15],[-96,-60],[-20,-18],[-21,-40],[-44,-27],[-272,-52],[-49,13],[-29,24]],[[2385,4919],[-16,52],[17,18],[-9,57],[-25,48],[-29,84],[-19,24],[-57,39],[-43,106],[-44,48],[-73,89],[-32,31],[-79,43],[-45,7],[-15,32],[-22,88],[-1,67],[-14,46],[9,55],[-32,56],[-33,31],[-1,54],[-19,34],[-53,22],[-23,32],[-37,67],[-39,20],[-86,21],[-10,59],[-46,49],[-39,-36],[-15,-32],[-43,-27],[-48,-5],[-71,58],[-11,44],[-33,15],[-56,7],[-29,-14],[-59,-9],[-62,-55],[-39,0],[-21,53],[9,23],[-31,11],[-4,20],[13,74],[33,26],[21,37],[-26,26],[-9,32],[-46,24],[-1,28],[-28,28],[-17,48],[6,50],[15,12],[64,28],[7,60],[-28,45],[11,51],[-9,70],[-46,-21],[-95,20],[-72,9],[-33,19],[-34,-16],[-38,18],[-30,45],[-81,16],[-68,18],[-22,-11],[-15,-39],[-41,24],[-26,34],[-45,-2],[-13,9],[-14,90],[-36,36],[-70,23],[-17,12],[-9,42],[-90,62],[-19,19],[3,48],[40,48],[6,36],[476,893],[183,345],[180,344],[388,719],[104,194],[315,584],[123,222],[314,583]]],"transform":{"scale":[0.000034314830629092794,0.000027195579370394945],"translate":[-81.810516,35.757192]},"objects":{"Geometry\\37-027":{"type":"GeometryCollection","geometries":[{"arcs":[[0,1,2,3]],"type":"Polygon","properties":{"GEOID":"370270307004"}},{"arcs":[[4,5,-4,6,7]],"type":"Polygon","properties":{"GEOID":"370270307005"}},{"arcs":[[8,9,10,11]],"type":"Polygon","properties":{"GEOID":"370270314012"}},{"arcs":[[12,13,14,15,16]],"type":"Polygon","properties":{"GEOID":"370270306002"}},{"arcs":[[17,18,19,20]],"type":"Polygon","properties":{"GEOID":"370270312013"}},{"arcs":[[21,22,23,24,-10,25]],"type":"Polygon","properties":{"GEOID":"370270314032"}},{"arcs":[[-3,26,27,-12,28,29,30,-7]],"type":"Polygon","properties":{"GEOID":"370270314011"}},{"arcs":[[31,32,33,34]],"type":"Polygon","properties":{"GEOID":"370270313022"}},{"arcs":[[35,36,37,38]],"type":"Polygon","properties":{"GEOID":"370270308021"}},{"arcs":[[39,40,41,-5,42,43]],"type":"Polygon","properties":{"GEOID":"370270308012"}},{"arcs":[[44,-34,45,46,47]],"type":"Polygon","properties":{"GEOID":"370270313012"}},{"arcs":[[48,49,-35,-45,50]],"type":"Polygon","properties":{"GEOID":"370270313021"}},{"arcs":[[-51,-48,51,52,53]],"type":"Polygon","properties":{"GEOID":"370270313023"}},{"arcs":[[-47,54,55,-52]],"type":"Polygon","properties":{"GEOID":"370270313011"}},{"arcs":[[-39,56,-44,57,58,59]],"type":"Polygon","properties":{"GEOID":"370270308023"}},{"arcs":[[-38,60,61,-40,-57]],"type":"Polygon","properties":{"GEOID":"370270308022"}},{"arcs":[[-43,-8,-31,62,-58]],"type":"Polygon","properties":{"GEOID":"370270308011"}},{"arcs":[[63,64,-16,65,66,67]],"type":"Polygon","properties":{"GEOID":"370270306001"}},{"arcs":[[68,69,70,71,-1,-6,-42]],"type":"Polygon","properties":{"GEOID":"370270307001"}},{"arcs":[[72,73,74,75,76,77,78]],"type":"Polygon","properties":{"GEOID":"370270303001"}},{"arcs":[[79,-24,80,81]],"type":"Polygon","properties":{"GEOID":"370270314022"}},{"arcs":[[-11,-25,-80,82,-29]],"type":"Polygon","properties":{"GEOID":"370270314023"}},{"arcs":[[83,84,-65,85,86,87,-77]],"type":"Polygon","properties":{"GEOID":"370270304001"}},{"arcs":[[-53,-56,88,-81,-23]],"type":"Polygon","properties":{"GEOID":"370270314021"}},{"arcs":[[89,-68,90,-71]],"type":"Polygon","properties":{"GEOID":"370270307002"}},{"arcs":[[91,92,93,94,-74,95]],"type":"Polygon","properties":{"GEOID":"370270301004"}},{"arcs":[[96,97,-96,-73,98,99]],"type":"Polygon","properties":{"GEOID":"370270301006"}},{"arcs":[[-78,-88,100,101]],"type":"Polygon","properties":{"GEOID":"370270304002"}},{"arcs":[[102,103,104,105,106]],"type":"Polygon","properties":{"GEOID":"370270305002"}},{"arcs":[[107,-92,-98,108]],"type":"Polygon","properties":{"GEOID":"370270301005"}},{"arcs":[[109,110,-100,111,112,113,114,115]],"type":"Polygon","properties":{"GEOID":"370270302004"}},{"arcs":[[116,117,118,-103,119]],"type":"Polygon","properties":{"GEOID":"370270305001"}},{"arcs":[[120,121,-94]],"type":"Polygon","properties":{"GEOID":"370270301002"}},{"arcs":[[122,123,-106,124,-121,-93,-108,125]],"type":"Polygon","properties":{"GEOID":"370270301001"}},{"arcs":[[126,127,128,129]],"type":"Polygon","properties":{"GEOID":"370270310002"}},{"arcs":[[130,131,132,-110,133,134]],"type":"Polygon","properties":{"GEOID":"370270302003"}},{"arcs":[[-129,135,136,137]],"type":"Polygon","properties":{"GEOID":"370270311004"}},{"arcs":[[-112,-99,-79,-102,138,139,140]],"type":"Polygon","properties":{"GEOID":"370270303002"}},{"arcs":[[-72,-91,-67,141,-27,-2]],"type":"Polygon","properties":{"GEOID":"370270307003"}},{"arcs":[[-130,142,-131,143,144]],"type":"Polygon","properties":{"GEOID":"370270310001"}},{"arcs":[[-104,-119,145,146,147,-84,-76]],"type":"Polygon","properties":{"GEOID":"370270305003"}},{"arcs":[[148,149,150,151,-117]],"type":"Polygon","properties":{"GEOID":"370270311002"}},{"arcs":[[-147,152,153,154,155,-13,156]],"type":"Polygon","properties":{"GEOID":"370270312021"}},{"arcs":[[-138,157,-123,158,-132,-143]],"type":"Polygon","properties":{"GEOID":"370270302001"}},{"arcs":[[-86,-64,-90,-70,159,160]],"type":"Polygon","properties":{"GEOID":"370270304004"}},{"arcs":[[-139,-101,-87,-161,161]],"type":"Polygon","properties":{"GEOID":"370270304003"}},{"arcs":[[-114,-36,-60,162,163]],"type":"Polygon","properties":{"GEOID":"370270309004"}},{"arcs":[[-125,-105,-75,-95,-122]],"type":"Polygon","properties":{"GEOID":"370270301003"}},{"arcs":[[-151,164,-21,165,-154,166]],"type":"Polygon","properties":{"GEOID":"370270312012"}},{"arcs":[[-140,-162,-160,-69,-41,-62,167]],"type":"Polygon","properties":{"GEOID":"370270303003"}},{"arcs":[[-66,-15,168,-26,-9,-28,-142]],"type":"Polygon","properties":{"GEOID":"370270314031"}},{"arcs":[[-137,169,170,-149,-120,-107,-124,-158]],"type":"Polygon","properties":{"GEOID":"370270311003"}},{"arcs":[[171,172,-170,-136,-128]],"type":"Polygon","properties":{"GEOID":"370270310003"}},{"arcs":[[-166,-20,173,-32,-50,174,-155]],"type":"Polygon","properties":{"GEOID":"370270312014"}},{"arcs":[[-157,-17,-85,-148]],"type":"Polygon","properties":{"GEOID":"370270306003"}},{"arcs":[[-159,-126,-109,-97,-111,-133]],"type":"Polygon","properties":{"GEOID":"370270302002"}},{"arcs":[[-118,-152,-167,-153,-146]],"type":"Polygon","properties":{"GEOID":"370270312011"}},{"arcs":[[-173,175,-18,-165,-150,-171]],"type":"Polygon","properties":{"GEOID":"370270311001"}},{"arcs":[[176,-115,-164,177,178]],"type":"Polygon","properties":{"GEOID":"370270309003"}},{"arcs":[[-156,-175,-49,-54,-22,-169,-14]],"type":"Polygon","properties":{"GEOID":"370270312022"}},{"arcs":[[-141,-168,-61,-37,-113]],"type":"Polygon","properties":{"GEOID":"370270303004"}},{"arcs":[[-144,-135,179,-179,180]],"type":"Polygon","properties":{"GEOID":"370270309001"}},{"arcs":[[-180,-134,-116,-177]],"type":"Polygon","properties":{"GEOID":"370270309002"}}]}}}