{"type":"Topology","arcs":[[[8994,12788],[12,57],[14,150],[3,12],[26,45],[7,51]],[[9056,13103],[82,9],[63,13],[0,-38]],[[9201,13087],[2,-74],[3,-37],[15,-20],[94,-54],[73,-63],[44,-20]],[[9432,12819],[-13,-29],[1,-27],[-19,-42],[-12,-35],[-43,-30],[-57,-9],[-17,-8],[-13,-18],[-10,-43],[0,-43],[-18,-9],[-2,-18],[-86,0],[-86,-3],[-90,-1]],[[8967,12504],[14,230],[13,54]],[[9642,12748],[40,8],[29,-28],[27,-33],[29,10],[16,16],[5,17],[-9,69],[-1,38],[9,13],[43,10],[29,38],[13,7]],[[9872,12913],[220,-308],[184,-258],[25,-29],[31,-44]],[[10332,12274],[-80,-50],[-99,-69],[-132,-97],[-38,-24],[-52,-26],[-74,-26],[-224,-64]],[[9633,11918],[-5,23],[-18,16],[-6,18],[9,21],[14,51],[37,41],[12,24],[41,19],[17,27],[-21,29],[38,37],[5,35],[-29,-8],[-18,7],[3,30],[-9,10],[21,41],[-6,24],[34,22],[-38,46],[-12,-2],[-21,43],[-48,-28],[-24,45],[-40,56],[-14,30],[0,28],[48,109],[39,36]],[[9432,12819],[57,-26],[23,-4],[75,-2],[34,-13],[21,-26]],[[9633,11918],[-41,-12],[-619,-176],[-112,-33],[-58,-15],[-112,-36],[-11,114],[-5,27]],[[8675,11787],[-2,22]],[[8673,11809],[-1,66],[10,48],[35,79],[23,29],[192,196],[14,27],[17,194],[4,56]],[[15426,12919],[50,-20],[44,-7],[63,-16],[82,12],[31,18],[57,48],[45,-43],[21,-27],[95,-171],[18,-29],[19,-17],[27,-10],[69,-9],[58,-16],[170,-32],[42,-18],[30,-7],[33,9],[21,17],[24,7],[122,2],[28,-5]],[[16575,12605],[-46,-859],[-51,-1005]],[[16478,10741],[-192,70],[-332,123],[-66,23],[-62,19],[-199,55],[-903,248]],[[14724,11279],[124,198],[57,74],[144,161],[44,67],[29,64],[12,39],[10,63],[33,393],[10,74],[17,70],[35,99],[50,98],[137,240]],[[14894,13271],[-4,-41],[91,-18],[42,-20],[70,-53],[103,-80],[106,-81],[124,-59]],[[14724,11279],[-158,43],[-72,24],[-76,34],[-331,175],[-122,72],[-1043,699]],[[12922,12326],[387,188],[372,177],[147,102],[17,7],[186,135],[39,5],[95,-31],[197,137],[71,55],[173,94],[191,47],[29,6],[53,-6],[15,29]],[[10249,13428],[17,15],[42,1],[118,-25],[33,-5],[97,-8],[56,-23],[73,-39],[63,-20],[248,-47],[136,-37],[29,-6],[102,-12],[17,-4],[156,-63],[36,-8],[50,2],[105,9],[194,59],[60,14],[235,18],[46,5],[48,10],[27,10],[68,35],[69,31],[47,30],[23,18],[38,44],[42,34],[41,15],[49,9],[123,10]],[[12737,13500],[84,9],[26,4],[129,42],[39,8],[56,1],[56,6],[57,14],[110,35],[94,17],[33,-16],[80,-50],[23,-7],[164,-14],[89,-4],[51,-10],[196,-44]],[[14024,13491],[167,-44],[32,-7],[76,-8],[51,-13],[110,-36],[66,-16],[293,-26],[31,-9],[39,-18]],[[14889,13314],[8,-2],[-3,-41]],[[12922,12326],[-140,96],[-132,84],[-70,40],[-83,40],[-87,35],[-392,140],[-61,23],[-324,115],[-255,92],[-14,2],[-472,168],[-440,157],[-77,34],[-62,34],[-64,42]],[[10332,12274],[45,-68],[105,-147],[46,-7],[42,-19],[20,1],[63,18],[61,1],[207,-5],[64,-8],[65,-30],[67,-35],[65,-54],[25,-8],[78,-5],[-19,-69],[-31,-93],[-11,-40],[-14,-106],[62,-17]],[[11272,11583],[-310,-173],[-110,-63],[-149,-82],[-147,-77],[-125,-39],[-86,-15],[-148,-54],[-46,-14],[-14,2],[-393,-29],[-80,8],[-138,-231],[-47,-45]],[[9479,10771],[-9,9],[5,95],[-18,57],[36,28],[0,66],[44,64],[36,34],[36,61],[22,77],[-13,15],[-14,36],[-23,34],[-43,46],[-39,17],[-38,5],[-24,10],[-45,11],[-24,28],[-18,63],[8,68],[19,19],[102,3],[24,33],[7,24],[-5,28],[70,51],[29,15],[46,48],[12,27],[-29,75]],[[10581,9626],[133,-57],[18,69],[44,88],[49,119],[54,100],[36,80],[30,86],[23,33],[44,34],[19,30],[23,71],[23,32],[46,54],[65,109],[19,23],[69,62],[130,226],[81,84],[99,91],[25,28],[22,40],[6,25],[-9,29],[-27,42],[-1,24],[17,31],[109,101],[22,52]],[[11750,11332],[78,-48],[190,-161],[58,-45],[241,-178],[28,-22],[31,-33],[65,-87],[-45,-60],[-15,-26],[-6,-23],[-15,-193],[-12,-177],[-15,-150],[-33,-140],[-21,-37],[-71,-58],[-37,-43],[-14,-34],[-15,-100],[-19,-102],[-8,-175],[-4,-17],[-34,-90],[-16,-28],[-65,-78],[-18,-34],[-9,-26],[-10,-51],[-19,-173],[-4,-34],[29,-36],[41,-78],[35,-53],[21,-21],[-8,-80],[-9,-43],[-22,-58],[-51,-78],[-24,-43],[-25,-63],[-6,-47],[-18,-209],[-2,-44],[5,-30],[68,-242],[47,-257],[-5,-28],[-18,-21],[-42,-17]],[[11952,7461],[-98,-31],[-34,-17],[-89,-74],[-64,-35],[-22,-22],[-26,-80],[-237,4],[-38,-5],[-58,8],[-60,2],[-54,20],[-48,29],[-51,24],[-49,28],[-9,10]],[[11015,7322],[-20,234],[-15,51],[-102,273],[-15,35],[-37,63],[-21,52],[-23,103],[0,29],[15,100],[-3,31],[-39,169]],[[10755,8462],[-14,59],[-32,47],[-36,45],[-17,35],[-5,42],[-6,208],[0,29],[13,202],[-3,54],[-39,201],[-6,23],[-29,69],[-5,32],[7,78],[-2,40]],[[11272,11583],[70,-23],[36,-19],[372,-209]],[[10581,9626],[-15,31],[-28,31],[-17,11],[-166,77],[-119,55],[-70,41],[-186,137],[-58,32],[-35,9],[-94,12],[-30,8],[-37,24],[-57,54],[-36,26],[-133,78],[-44,17],[-62,17]],[[9394,10286],[22,20],[74,89],[77,22],[14,10],[61,98],[-12,51],[-25,33],[-8,20],[-21,25],[-34,27],[-15,28],[-34,36],[-14,26]],[[11009,22044],[362,0],[969,-2],[568,0],[223,-38]],[[13131,22004],[-22,-7],[-32,-27],[-27,-46],[-3,-41],[-19,-35],[-14,-62],[-22,-34],[-70,-76],[-46,-92],[-16,-43],[-1,-31]],[[12859,21510],[-12,-36],[-16,-25],[-55,-66],[-21,-18],[-49,-30],[-11,-24],[7,-62],[16,-46],[-25,-80],[-14,-65],[-3,-81],[-23,-86],[-8,-49],[-14,-29],[-33,-44],[-38,-57],[-3,-18],[17,-50],[14,-67],[-14,-43],[9,-61],[-20,-48],[-39,-62],[-32,-70],[-60,-84]],[[12432,20209],[-35,47],[-62,126],[-83,191],[-17,33],[-81,107],[-17,39],[-22,106],[-19,48],[-148,260],[-37,55]],[[11911,21221],[-51,73],[-165,212],[-57,71],[-23,32],[-54,107],[-29,38],[-112,89],[-35,24],[-59,29],[-81,26],[-44,18],[-98,54],[-97,32],[3,18]],[[4631,16558],[18,-1],[33,31],[7,13],[-2,44],[-38,12],[-5,30],[14,21],[-11,20],[38,53],[-1,27],[9,16],[-29,36],[3,43],[30,57],[47,29],[27,8],[50,4],[12,18],[25,14],[22,-5],[60,14],[30,-48],[25,-19],[30,-14],[116,-33],[31,-11],[52,-31],[89,-79],[30,-41],[20,-55],[24,-32],[118,-96],[-49,7],[-53,2],[-19,-5],[-26,-17],[-37,-39],[-8,-32],[0,-116],[-12,-42],[-80,-137],[-25,-30],[-65,-54],[-22,-15],[-83,-41],[-52,-32],[-106,-81],[-76,-43],[-67,-42],[-94,-77],[51,-56],[35,-69],[33,-6],[17,-10],[7,-17],[37,-5],[104,9],[165,-11],[68,-14],[166,-24],[58,9],[37,11],[71,55],[22,10],[48,12],[71,12],[114,23],[91,17],[160,18],[26,11],[107,98],[54,26],[53,14],[45,1],[37,-7],[66,-23],[20,-3]],[[6394,15870],[34,-55],[16,-32]],[[6444,15783],[47,-127],[7,-41],[-7,-65],[-69,-206],[-65,-221],[-17,-43],[-29,-50],[-29,-37],[-68,-71],[-26,-45],[-10,-51],[-3,-118],[-3,-22],[-18,-53]],[[6154,14633],[-128,123],[-36,30],[-61,42],[-54,27],[-62,25],[-78,21],[-246,52],[-108,25],[-381,97],[-41,8],[-89,10],[-86,-2],[-55,-7],[-89,-21],[-144,-39],[-124,-31],[-319,-73],[-104,-17],[-92,-21]],[[3857,14882],[-20,36],[-13,41],[-13,114],[-33,138],[-26,86],[-29,61],[-25,32],[-34,34],[-69,40],[-76,34],[-88,33],[-32,10],[-260,68],[-71,23],[-28,18],[-135,77],[-55,42],[-48,34],[-44,21],[-29,25],[-17,23],[-4,25],[10,55],[29,71],[123,163],[66,92],[50,37],[57,21],[46,9],[127,16],[101,18],[125,10],[57,1],[55,-3],[50,-6],[87,-17],[38,-12],[55,-28],[64,-49],[45,-26],[107,-50],[61,-33],[34,-24],[36,-31],[17,-21],[34,-20],[80,-21],[87,-10],[59,6],[38,18],[42,32],[55,69],[25,45],[32,79],[23,52],[42,64],[11,35],[-6,38],[-8,23],[-31,58]],[[2192,13707],[68,-24],[12,-31],[3,-39],[21,-28],[-8,-28],[34,-38],[-12,-66],[-4,-41],[2,-50],[5,-34],[-41,-4],[-38,-20],[-13,-29],[2,-25],[18,-67],[39,-118],[3,-50],[-16,-70],[-11,-62],[22,-1],[171,19],[43,0],[30,-8],[62,-27],[62,-56],[33,-49],[49,-46],[21,-27],[20,-57],[16,-24],[36,-38],[45,-40],[69,-88],[23,-33],[42,-73],[11,-34],[4,-103]],[[3015,12198],[-134,-96],[-133,-94],[-35,-39],[-32,-51],[-3,-31],[10,-27],[40,-64],[54,-88],[50,-65],[18,-43],[3,-35],[0,-71],[-17,-152],[-9,-144],[2,-24],[29,-97],[25,-40],[129,-146],[40,-25],[82,-29],[40,-28],[27,-30],[53,-72],[53,-41],[67,-41],[27,-36],[10,-38],[2,-68],[10,-34],[70,-106],[24,-27],[91,-81],[27,-18],[39,-6],[193,17],[40,1]],[[3907,10229],[40,-8],[28,-16],[151,-120],[32,-34],[24,-46],[4,-35],[8,-136],[12,-107],[28,-69],[27,-48]],[[4261,9610],[-125,-97],[-92,-80],[-51,-49],[-67,-68],[-65,-69],[-50,-61],[-70,-92]],[[3741,9094],[-26,25],[-22,36],[-43,86],[-16,18],[-53,35],[-53,19],[-54,8],[-64,-10],[-60,-26],[-64,-42],[-68,-25],[-92,-21],[-57,-8],[-71,-2],[-45,1],[-87,11],[-60,14],[-63,21],[-92,35],[-76,35],[-94,42],[-81,42],[-66,42],[-135,80],[-52,25],[-116,42],[-92,41],[-81,42],[-31,15],[-64,38],[-67,23],[-34,9],[-55,7],[-53,-1],[-49,-10],[-92,-31],[-70,-6],[-25,6],[-31,15],[-35,26],[-26,24],[-34,59],[-55,121],[-14,45],[-29,64],[1,11],[-14,47],[-10,78],[8,72],[27,134],[22,78],[23,56],[30,47],[44,47],[39,29],[43,25],[21,19],[13,37],[7,86],[7,48],[15,54],[31,72],[8,30],[-5,56],[-18,55],[-13,25],[-72,112],[-57,59],[-32,25],[-148,62],[-36,24],[-88,65],[-82,72],[-62,50],[-67,45],[-38,22],[-83,60],[-43,37],[-22,27],[-59,104],[-69,84],[-11,56],[6,51],[33,116],[34,82],[23,41],[24,30],[42,35],[49,30],[32,14],[56,13],[80,13],[46,30],[26,31],[24,48],[5,52],[-1,28],[-12,70],[-28,113],[-6,34],[-38,129],[-46,124],[-33,74],[-53,94],[-20,38],[-10,32],[-17,88],[-18,40],[-20,31],[-48,58],[-112,129],[-18,17],[-40,23],[-34,13],[-41,6],[-42,1],[-53,-10],[-90,-25],[-35,2],[-27,15],[-33,36],[-9,29],[6,46],[28,46],[53,75],[24,37],[43,79],[39,47],[60,48],[61,45],[37,34],[32,15],[43,6],[33,-8],[29,-15],[37,-28],[28,-28],[41,-57],[70,-130],[38,-83],[38,-56],[64,-79],[37,-58],[18,-48],[4,-41],[15,-30],[35,-29],[42,-22],[39,-10],[52,-7],[68,-5],[60,9],[35,11],[28,16],[42,32],[130,122],[39,54],[25,44],[16,41],[12,45],[26,36],[22,16],[34,5],[30,-6],[34,-20],[64,-56],[72,-51],[53,-29],[43,-29],[21,-21],[19,-32],[15,-57],[17,-32],[24,-18],[28,-9],[40,-4],[54,4],[36,10],[36,15],[23,18]],[[4949,18391],[30,40],[24,16],[83,26],[29,16],[70,68],[24,43],[13,44],[3,40],[15,55],[24,107],[25,104],[8,61],[20,70],[9,66],[24,86],[2,26],[14,56],[23,33],[43,39],[30,22],[29,32],[41,68],[51,77],[6,38],[2,59],[-12,143],[6,27],[59,51],[28,9]],[[5672,19913],[16,-27],[24,-22],[30,-13],[65,-3],[197,9],[106,-4],[38,3],[109,30],[45,4],[15,-10],[38,-43],[49,-47],[13,-32],[7,-186],[188,-27],[108,-19],[29,-10],[29,-21],[50,-69],[16,-32],[5,-38],[-2,-52],[8,-19],[25,-10],[211,-9]],[[7091,19266],[32,-90],[7,-30],[1,-45],[-6,-35],[-37,-116],[-11,-29],[-21,-35],[-27,-30],[-144,-123],[-50,-39]],[[6835,18694],[-78,-53],[-73,-32],[-394,-146],[-27,-13]],[[6263,18450],[-1,31],[18,33],[27,29],[-79,4],[-54,0],[-37,15],[-87,57],[-44,35],[-28,17],[-48,22],[-70,16],[-84,6],[-41,-3],[-19,-7],[-102,-48],[-48,-24],[-39,-38],[-64,-107],[-19,-21],[-107,-80],[-31,-18],[-114,-21],[-59,-32],[-122,62],[-62,13]],[[7989,14527],[121,147],[51,77],[37,78],[159,370],[34,64],[46,58],[26,25]],[[8463,15346],[40,-25],[56,-16],[45,4],[120,31],[27,5],[60,1],[39,-4],[69,-17],[99,-13],[46,-12]],[[9064,15300],[-66,-327],[-22,-104],[-16,-53],[-34,-90],[-26,-77]],[[8900,14649],[-13,2],[-104,-272]],[[8783,14379],[-191,3],[-319,-5],[-181,6],[-40,-1],[-17,34],[-46,111]],[[14889,13314],[16,99],[49,152],[11,72],[7,25],[49,113],[19,55],[5,38],[25,251],[5,38],[28,71]],[[15103,14228],[16,4]],[[15119,14232],[74,17],[186,120],[55,45],[71,76],[98,102],[34,28],[9,14],[25,62],[15,28],[86,50],[27,12],[149,45]],[[15948,14831],[32,-133],[38,-140],[-96,-15],[-25,-100],[-7,-18],[-61,-225],[-12,-51],[-9,-63],[-4,-58],[-1,-169],[-5,-66],[-7,-63],[-15,-80],[-17,-69],[-39,-116],[-29,-67],[-26,-53],[-51,-95],[-106,-183],[-82,-148]],[[9064,15300],[146,-31],[231,-24],[18,0],[71,27],[34,1],[4,-30],[22,-39],[29,-27],[142,-103],[40,-38],[35,-50],[73,-121],[43,-94],[10,-73],[120,28],[67,2],[166,-33],[35,2],[43,15],[56,41],[9,12],[38,0],[50,8],[56,14],[30,0],[-10,-54],[0,-58],[47,20],[53,16],[71,16],[70,6],[114,-3],[63,-27],[52,39]],[[11092,14742],[3,-14],[-26,-46],[2,-40],[-8,-24],[3,-26],[-12,-32],[-19,-26],[-21,-11],[0,-23],[-17,-48],[7,-42],[-10,-15],[-1,-41],[44,-33],[15,-17],[-7,-21],[-46,-20],[8,-50],[0,-50],[-31,-37],[-7,-31],[-3,-68]],[[10966,14027],[-17,-9],[-48,-40],[-27,-9],[-38,2],[-26,7],[-41,22],[-16,2],[-5,-22],[-21,2],[-38,21],[-34,5],[-34,30],[-20,-15],[-36,-44],[-21,6],[-20,-63],[13,-23],[-14,-44],[25,-22],[-16,-18],[-49,-9],[-20,-11],[-37,-30],[-26,2],[-57,43],[-41,21],[-41,11],[-40,0],[-21,-5],[-50,-23],[-20,-2],[-6,-23],[25,-53],[3,-28],[-27,-67],[-5,-28],[7,-17],[32,-19],[54,-12],[55,-2],[11,-18],[-1,-20],[-35,-40],[-29,-6],[-46,11],[-13,-3]],[[10155,13487],[-96,62]],[[10059,13549],[-216,139]],[[9843,13688],[-102,65],[-56,39],[-105,69],[-64,51]],[[9516,13912],[-33,14],[-73,-13],[-42,-2],[-26,3],[-168,37],[-64,13],[-102,10],[-73,-1]],[[8935,13973],[-18,341],[-8,97],[-17,172],[8,66]],[[4261,9610],[425,335],[315,248],[61,55],[87,91]],[[5149,10339],[183,192],[180,191],[9,8],[133,141],[55,52],[99,82],[231,191],[103,85]],[[6142,11281],[55,-122],[37,-98],[-9,-29],[10,-40],[0,-38],[-6,-19],[13,-8],[17,-58],[-6,-57],[2,-19],[16,-32],[-7,-29],[19,-41],[27,-85],[4,-59],[22,-25],[3,-30],[12,-28],[39,27],[25,-41],[36,-36],[26,-17],[44,-1]],[[6521,10396],[-47,-191],[-16,-36],[-40,-49],[-13,-25],[-7,-47],[7,-19],[38,-60],[28,-33],[56,-44],[40,-47],[20,-54],[1,-35],[-4,-83],[-10,-105]],[[6574,9568],[-26,-176],[12,-43],[65,-62],[242,-269],[33,-51],[36,-83],[6,-47],[-7,-82],[6,-38],[1,-66],[-13,-27],[-46,-58],[-27,-50],[-39,-99],[4,-24],[22,-21],[88,-62],[20,-44],[6,-117],[13,-120],[10,-20],[60,-41],[52,-62]],[[7092,7906],[-64,-79],[0,-85],[-78,-98],[-110,-124],[-155,-195],[-203,-217]],[[6482,7108],[-83,16],[-156,42],[-63,28],[-49,32],[-63,52],[-76,88],[-44,72],[-29,57],[-31,72],[-5,38],[-22,89],[-13,85],[-5,49],[2,100],[9,40],[21,62],[41,80],[24,36],[58,67],[105,87],[81,79],[28,38],[22,52],[6,37],[-4,80],[-14,73],[-14,40],[-36,65],[-38,44],[-61,48],[-50,55],[-37,51],[-36,59],[-26,36],[-54,48],[-53,32],[-42,14],[-91,8],[-54,2],[-81,-10],[-108,-31],[-67,-15],[-185,-33],[-95,-23],[-145,-43],[-47,-9],[-57,-4],[-121,-2],[-32,-6],[-73,-26],[-66,-17],[-38,-4],[-48,1],[-84,18],[-93,41],[-73,24],[-123,49],[-81,26],[-39,-5],[-31,-21],[-26,-10],[-80,1],[-61,14],[-35,18]],[[8561,12784],[36,-1],[4,20],[393,-15]],[[8673,11809],[-16,52],[-27,52],[-10,45],[-5,79],[-2,88],[-6,109],[-8,100],[-40,275],[2,175]],[[8548,9844],[16,31],[48,108],[14,58],[1,35],[-9,80],[-16,97],[-28,91],[-12,55],[1,76]],[[8563,10475],[44,5],[294,73],[126,42],[19,-16],[35,-56],[16,-21],[77,-68],[39,-51],[17,-14],[111,-63],[53,-20]],[[9394,10286],[-19,-56],[-21,-97],[-15,-32],[-17,-46],[-70,-272],[-4,-44],[8,-34],[56,-122],[-17,-37],[-32,-59],[-21,-43],[-45,-66],[-67,-117],[-27,-71],[-18,-143],[-8,-191],[8,-203],[17,-201],[0,-19],[-30,-44],[-167,-65],[-101,-31],[-44,-28],[-27,-49],[9,-41],[60,-28],[100,14],[60,4],[60,-10],[19,-30],[-12,-71],[5,-52],[30,-53],[24,-30],[135,-194],[-1,-19],[-16,-35],[-43,-49],[-103,-126],[-53,-48],[-24,-50],[-4,-56],[6,-11]],[[8985,7331],[-52,-21],[-27,4],[-40,99],[-17,16],[25,25],[2,16],[-14,29],[-5,38],[-13,19],[-40,35],[-14,36],[-32,26],[-92,22],[-107,41],[-77,4],[-43,11],[-39,-1],[-54,44]],[[8346,7774],[10,111],[47,499],[3,52],[-4,333],[-3,82],[-8,84],[5,73],[15,67],[22,121],[34,210],[4,81],[-5,158],[7,33],[64,138],[11,28]],[[15948,14831],[37,16],[27,24],[19,27],[14,48],[16,311]],[[16061,15257],[347,36],[312,31]],[[16720,15324],[-16,-285],[0,-26],[-22,-374],[-43,-815],[-64,-1219]],[[7303,12264],[36,48],[44,77],[29,71],[25,76],[102,2],[79,-4],[54,7],[44,16],[140,73],[5,1],[154,83]],[[8015,12714],[193,103],[99,61],[36,25],[91,86]],[[8434,12989],[78,-208],[49,3]],[[8675,11787],[-196,1],[-100,-1],[-46,10],[-165,51],[-276,96],[-50,12],[-112,18],[-41,13],[-26,16],[-129,96],[-17,-15],[-107,-144],[-19,25],[-34,11],[-3,15],[29,71],[-2,20],[-20,79],[-3,33],[-12,27],[-43,43]],[[8985,7331],[14,-31],[48,-40],[16,-5]],[[9063,7255],[29,7],[366,-340]],[[9458,6922],[-59,-59],[-49,-82],[-10,-146],[-128,-270],[-100,-216],[-35,-46],[-134,-185],[-50,-67]],[[8893,5851],[-41,57],[-77,112],[-22,56],[-45,102],[-48,82],[-17,39],[-29,160],[-32,86],[-32,68],[-63,87],[-23,22],[-57,82],[-1,17],[9,53],[5,49],[-7,59]],[[8413,6982],[-13,78],[1,74],[9,136],[0,32],[-29,121],[-10,79],[-30,72],[-8,35],[0,30],[13,135]],[[7343,19642],[53,49],[39,51],[134,231],[43,53],[37,29],[49,26],[55,19]],[[7753,20100],[122,12]],[[7875,20112],[83,-6],[29,-40],[41,-23],[149,-28],[27,-7],[45,-22],[26,-20],[76,-87],[15,-12],[24,-6],[96,28],[47,7],[90,-24],[43,-2],[80,22],[34,4],[235,6],[35,-1],[64,-17]],[[9114,19884],[20,-9]],[[9134,19875],[-7,-92],[-11,-35],[-39,-58],[-18,-31],[-11,-48],[-27,-149],[-9,-31],[-49,-106],[-20,-37],[-86,-141]],[[8857,19147],[-29,17],[-43,15],[-34,27],[-37,4],[-84,-6],[-66,1],[-55,4],[-58,12],[-53,25],[-49,11],[-33,3],[-52,-4],[-76,25],[-79,3],[-117,37],[-81,41],[-42,5],[-64,20],[-93,15],[-53,22],[-53,58],[-40,38],[-79,45],[-44,11],[-51,23],[-26,17],[-23,26]],[[6566,20370],[16,17],[20,51],[34,123],[12,26],[58,50],[25,43],[21,60],[19,29]],[[6771,20769],[185,0],[145,2],[136,-1],[1103,1]],[[8340,20771],[20,-71],[11,-17]],[[8371,20683],[-42,-80],[-35,-55],[-18,-17],[-105,-76],[-34,-33],[-28,-41],[-79,-150],[-53,-66],[-29,-23],[-43,-21],[-30,-9]],[[7753,20100],[-75,18],[-109,38],[-24,14],[-40,44],[-38,17],[-82,1],[-60,-27],[-55,10],[-115,1],[-64,-10],[-96,-5],[-26,7],[-33,17],[-67,26],[-45,34],[-55,22],[-46,11],[-93,14],[-35,14],[-29,24]],[[8371,20683],[46,-36],[31,-9],[40,1],[142,7],[143,-8],[72,-10],[47,-15],[29,-16],[78,-55],[30,-26],[58,-83],[57,-75],[-6,-55],[-5,-111],[-19,-130],[0,-178]],[[16592,21434],[369,-67],[-9,-237],[-3,-60],[-9,-226]],[[16940,20844],[-27,-12],[-26,-33],[-78,-36],[-36,-11],[-36,3],[-36,-3],[-18,-13],[-31,-10],[-66,-34],[-15,-64]],[[16571,20631],[-27,1]],[[16544,20632],[-8,40],[-2,50],[-8,34],[-37,103],[-18,138],[3,45],[11,42],[9,68],[20,53],[-13,3],[4,38],[-20,17],[12,46],[4,45],[32,32],[39,24],[20,24]],[[13844,21887],[640,-106],[1127,-185],[14,-2]],[[15625,21594],[-19,-31],[-5,-34],[10,-30],[14,-13],[30,-14],[12,-18],[-1,-22],[-40,-41],[-8,-20],[23,-25],[27,2],[17,-23],[-46,-89],[-4,-73],[3,-19],[19,-53],[-10,-36],[23,-38],[3,-23],[-1,-61],[11,-117],[12,-40],[23,-27],[7,-22],[10,-71],[12,-32],[13,-49],[-39,-71],[-75,-68],[-11,-37],[3,-16],[-6,-41],[-13,-44],[-12,-16],[-40,-18],[-51,-7],[-17,-24],[-15,-45],[-41,-69],[-44,-43],[-12,-3],[-38,-41],[-71,-11],[-50,-6],[-18,-8],[-53,-11],[-32,-24],[-14,-38],[-27,-24],[-14,-40],[-61,-60],[-49,-32],[-32,-6],[-45,-2],[-22,-22],[-23,-32],[-12,-43],[1,-45],[-35,-67],[-29,-21],[-9,-19],[-29,-26],[-56,-29],[-17,-3],[-18,13],[-48,-33],[-14,-22],[-2,-63],[-13,-23],[-23,-6],[-18,-22],[-18,0],[-14,-16],[-7,-36],[-35,-2],[-46,-34],[-18,-22],[-19,-34],[-30,-5],[-35,-28],[-54,-38],[-62,-34],[-22,-41],[-41,-11],[-39,-2],[-70,-15],[-19,9],[-34,49]],[[13953,19047],[56,32],[30,53],[11,48],[10,106],[-6,19],[12,40],[32,28],[17,3],[40,23],[-11,20],[9,39],[32,32],[25,19],[24,45],[26,28],[22,15],[16,29],[7,58],[-16,43],[-27,41],[-49,45],[4,27],[-8,31],[-20,23],[-5,77],[-18,34],[-8,45],[-16,42],[-7,35],[-23,56],[-32,49],[0,11],[17,33],[20,18],[39,61],[-6,37],[-15,7],[-13,21],[11,65],[-4,80],[19,41],[-1,34],[-20,37],[-40,51],[-13,38],[-4,44],[4,27],[0,57],[-10,25],[2,26],[13,50],[3,32],[-7,32],[-14,23],[-17,45],[-16,33],[-15,45],[-5,41],[-12,39],[-19,37],[-54,151],[-21,64],[-30,56],[-2,24],[5,53],[-8,135],[-18,35],[-5,47]],[[13823,19057],[26,-7],[40,10],[15,20],[16,0],[33,-33]],[[15625,21594],[682,-112]],[[16307,21482],[-16,-315],[-7,-33],[-62,-108],[-12,-28],[-6,-86],[2,-66],[20,-164]],[[16226,20682],[9,-78],[-14,-43],[-70,-64],[-81,-85],[28,-60],[3,-22],[-16,-65],[-3,-25],[2,-59],[15,-46],[-50,-33],[-75,-24],[-53,-21],[-23,-16],[-23,-28],[-24,-42],[-28,-27],[-24,-11],[-80,-13],[-45,-23],[-85,-79],[-51,-28],[-66,-21],[-32,-14],[-50,-41],[-21,-35],[-16,-45],[31,-14],[19,-16],[47,-75],[13,-15],[30,-18],[77,-32],[19,-14],[25,-48],[59,-77],[105,-106],[23,-28],[11,-27],[5,-29]],[[15817,19135],[-23,-26],[-26,-16],[-77,-16],[-46,-25],[-31,-32],[-25,-39],[-36,-26],[-41,-8]],[[15512,18947],[-57,-30],[-101,-46],[-125,-67],[-76,-15],[-93,-31],[-36,-3],[-43,2],[-44,-8],[-61,-27],[-53,-5],[-33,9],[-41,20],[-51,35],[-84,64],[-43,34],[-61,60],[-28,15],[-46,1],[-90,-7],[-35,-15],[-78,-76],[-71,-44],[-42,-17],[-84,-21],[-75,-28]],[[13961,18747],[-38,74],[-76,153],[-12,31],[-12,52]],[[16226,20682],[60,-26],[71,-11],[90,-8],[97,-5]],[[16571,20631],[-29,-41],[1,-10],[28,-62],[42,-28],[21,-38],[-16,-34],[-15,-13],[-9,-42],[-3,-51],[-14,-59],[-15,-39],[-10,-14],[-25,-8],[-1,-21],[-18,-60],[-17,-15],[-22,-7],[-23,-41],[-19,-9],[-15,-19],[-57,-36],[-24,19],[-24,1],[-12,-16],[251,-96],[41,-19],[72,-49],[57,-32],[27,-22],[38,-61]],[[16781,19709],[-70,-49],[-53,-26],[-48,-12],[-24,-10],[-223,-132],[-73,-37],[-65,-36],[-52,-35],[-104,-54],[-77,-47],[-110,-72],[-27,-23],[-38,-41]],[[16784,17191],[23,4]],[[16807,17195],[-1,-35],[-16,-366],[-22,-455],[-16,-384],[-4,-55]],[[16748,15900],[-17,19],[-128,129],[-18,21],[-15,35],[-20,61],[-21,49],[-34,55],[-96,136],[-37,32],[-38,15],[-47,12]],[[16277,16464],[33,32],[45,50],[82,99],[56,78],[62,94],[229,374]],[[8783,14379],[-60,-156],[-27,-70],[-70,-182],[-22,-56]],[[8604,13915],[-115,-5],[-48,-6],[-54,-20],[-49,-28],[-42,-42],[-62,-71],[-133,-159]],[[8101,13584],[-172,54],[-51,10],[-97,6]],[[7781,13654],[19,193],[5,36],[39,377],[12,53],[13,37],[26,52],[42,61],[52,64]],[[13937,14544],[252,40],[53,14],[75,29],[121,59],[102,39],[81,21],[74,12]],[[14695,14758],[54,6],[161,12],[93,10],[57,10],[78,25],[35,16]],[[15173,14837],[45,-110],[13,-58],[-5,-42],[-10,-26],[-66,-138],[-9,-22],[-6,-42],[-8,-122],[-8,-45]],[[15103,14228],[-49,-11],[-104,-20],[-119,-27],[-88,-25],[-102,-56],[-30,-9],[-90,-15],[-65,-6],[-65,-11],[-62,-17],[-33,-6],[-97,5],[-46,-12],[-40,-19]],[[14113,13999],[2,92],[-10,17],[-70,61],[-36,46],[-17,51],[-36,59],[-16,38],[-4,23],[4,115],[7,43]],[[11015,7322],[-55,50],[-61,64],[-28,23],[-48,30],[-98,47],[-42,38],[-28,16],[-266,15],[-76,0],[-91,-76],[-23,-16],[-34,-10],[-54,-5],[-36,2],[-129,23],[-37,15],[-48,37],[-13,-16],[-6,-29],[6,-19],[1,-45],[-32,-32],[-6,-35],[-11,-19],[0,-18],[-26,-25],[-3,-29],[-39,-25],[-274,-361]],[[9063,7255],[-15,8],[36,50],[63,70],[28,22],[162,101],[166,105],[-4,40],[5,25],[30,54],[56,46],[59,53],[54,57],[115,89],[56,40],[54,28],[32,21],[46,47],[32,28],[31,16],[74,25],[49,24],[34,11],[74,5],[34,6],[57,32],[43,49],[40,13],[42,2],[39,9],[40,29],[56,78],[13,16],[24,11],[25,2],[42,-5]],[[16067,16269],[35,27],[67,59],[108,109]],[[16748,15900],[-14,-259]],[[16734,15641],[-178,6],[-28,4],[-36,22],[-99,77],[-20,12],[-46,13],[-43,0],[-153,-14],[-44,-14]],[[16087,15747],[6,105],[13,227],[6,77],[-3,35],[-7,19],[-35,59]],[[15760,15462],[133,56],[1,145],[-1,72],[108,-11],[30,1],[56,22]],[[16734,15641],[-14,-317]],[[16061,15257],[-95,-9],[-50,6],[-54,26],[-42,69]],[[15820,15349],[-60,113]],[[16307,21482],[226,-38],[59,-10]],[[10966,14027],[39,3],[45,19],[25,32],[52,6],[52,21],[53,38],[2,12],[-6,67],[24,60]],[[11252,14285],[17,14],[22,0],[46,-35],[51,-10],[18,6],[24,-17],[37,-72],[2,-38],[-5,-50],[14,-11],[31,1],[15,9],[41,12],[71,-37],[24,9],[27,-23],[31,-11],[95,-43],[37,-25],[29,-31],[42,-76],[61,-49],[27,-42],[17,-36],[17,-11],[48,14],[13,18],[-3,50],[7,27],[16,29],[4,22],[25,25],[49,8],[18,-8],[10,-17],[8,-34],[15,-35],[13,-15],[21,0],[63,26],[24,-8],[27,-68],[25,-4],[35,15],[32,47],[32,30],[16,-1],[22,-20],[26,-51],[28,-35],[38,-22],[5,-19],[21,-12],[24,-27],[31,-13],[11,-19],[-33,-46],[-7,-17],[16,-17],[35,1],[6,-16],[-27,-27]],[[10249,13428],[-94,59]],[[12859,21510],[146,-118],[28,-18],[40,-18],[50,-10],[175,-10],[22,-4],[43,-25],[150,-147],[44,-37],[41,-54],[16,-32],[18,-63],[-2,-37],[-14,-30],[-54,-75],[-39,-77],[-41,-63],[-14,-41],[-21,-208],[0,-35],[14,-148],[12,-62],[12,-39],[120,-366],[69,-208],[24,-66],[69,-171],[20,-77],[36,-214]],[[13961,18747],[27,-57]],[[13988,18690],[-28,-2],[-54,9],[-22,-5],[-134,48],[-44,21],[-104,60],[-31,22]],[[13571,18843],[-25,16],[-77,29],[-28,17],[-59,47],[-76,39],[-56,31],[-30,22],[-17,23],[-21,41],[-31,40],[-47,53],[-36,70],[-15,19],[-55,37],[-36,33],[-49,56],[-13,21],[-9,47],[-10,85],[3,31],[25,65],[7,31],[-9,28],[-25,31],[-107,96],[-65,64],[-187,184],[-91,110]],[[13131,22004],[713,-117]],[[15173,14837],[28,15],[58,39],[91,68],[56,37],[35,15],[62,19],[72,9],[65,-3],[17,89],[8,27],[24,47],[38,57],[93,93]],[[5320,20477],[-22,-75],[-9,-18],[-36,-37],[-11,-17],[-3,-27],[9,-30],[19,-20],[39,-15],[69,-14],[39,-16],[69,-50],[23,-21],[53,-88],[16,-20],[67,-66],[30,-50]],[[4949,18391],[-6,-8],[-22,-84],[-23,-56],[-3,-21],[-13,-38],[-19,-30],[-11,-9],[-113,-42],[-64,-33],[-54,-40],[-61,-35],[-36,-17]],[[4524,17978],[-38,58],[-57,73],[-90,130],[-20,38],[-23,54],[-16,66],[-5,46],[6,40],[16,83],[7,78],[-1,86],[1,59],[18,81],[7,66],[-16,71],[-27,75],[-59,130],[-35,92],[-22,30],[-40,39],[-33,25],[-50,30],[-105,45],[-67,21],[-47,8],[-51,0],[-41,10],[-39,29],[-26,46],[-18,77],[-22,40],[-26,29],[-45,32],[746,307],[331,135],[11,3],[672,267]],[[3744,14333],[22,28],[28,56],[9,24],[33,120],[38,113],[12,66],[0,40],[-8,48],[-21,54]],[[6154,14633],[-16,-28],[-25,-29],[-163,-174],[-58,-77],[-51,-63],[-27,-25],[-45,-33],[-30,-30],[-35,-55],[-12,-34],[2,-62],[6,-48],[14,-69],[1,-47],[-18,-48],[-43,-45],[-36,-18],[-117,-38],[-61,-27],[-39,-24],[-22,-20],[-170,-171]],[[5209,13468],[-162,6],[-49,8],[-77,30],[-54,18],[-47,-4],[-108,-52],[-93,-20],[-95,-3],[-46,5],[-114,19],[-28,45],[-31,23],[-70,40],[-34,33],[-30,79],[-17,28],[-47,37],[-94,46],[-30,11],[-35,6],[-66,3],[-28,51],[-4,20],[5,27],[11,18],[85,83],[38,28],[73,32],[56,41],[51,55],[-31,45],[-47,31],[-50,9],[-56,30],[-26,8],[-36,3],[-27,-5],[-72,-31],[-23,7],[-44,31],[-13,24]],[[2192,13707],[34,34],[20,36],[33,78],[13,44],[13,72],[10,239],[11,71],[18,101],[16,99],[33,76],[26,74],[34,39],[40,19],[59,10],[64,0],[92,-12],[54,-17],[41,-20],[36,-22],[25,-25],[117,-138],[43,-46],[29,-24],[136,-80],[102,-53],[54,-24],[43,-16],[46,-6],[78,3],[40,6],[79,30],[113,78]],[[5209,13468],[-92,-126],[-27,-22],[-22,-11],[-82,-19]],[[4986,13290],[-58,-12],[-77,-10],[-70,-12],[-70,-9],[-46,-12],[-43,-35],[-99,-112],[-19,-28],[-53,-103],[-18,-29],[-55,-67],[-29,-28]],[[4349,12833],[-98,-86],[-71,-54],[-42,-30],[-107,-54],[-28,-9],[-96,-20],[-51,-5]],[[3856,12575],[-227,-8],[-147,-3],[-32,-3],[-106,-38],[-79,-31],[-23,-11],[-25,-21],[-31,-40],[-75,-103],[-31,-46],[-33,-42],[-32,-31]],[[6574,9568],[47,3],[60,-12],[200,-72],[36,-8],[11,6],[34,-2],[149,19],[55,3],[124,3],[179,19],[38,5],[35,11],[157,61],[76,23],[66,15],[22,2],[101,1],[104,22],[172,43],[82,12],[41,10],[55,20],[45,31],[57,48],[28,13]],[[8413,6982],[-58,-2],[-55,-8],[-28,-1],[-49,46],[-49,52],[-70,53],[-62,32],[-47,15],[-84,14],[-34,13],[-28,33],[-7,38],[14,131],[-12,41],[-15,23],[-27,24],[-77,53],[-26,22],[-67,71],[-53,52],[-26,19],[-78,51],[-86,45],[-28,5],[-125,-5],[-30,1],[-32,12],[-22,16],[-60,78]],[[8935,13973],[-88,-10],[-53,-10],[-88,-24],[-53,-11],[-49,-3]],[[8696,13250],[83,-68]],[[8779,13182],[15,-30],[28,17],[63,20],[97,34],[37,-108],[37,-12]],[[8434,12989],[123,121],[139,140]],[[8893,5851],[-81,-67],[-26,-28],[-78,-31],[269,-608],[70,-232],[14,-22]],[[9061,4863],[-73,39],[-110,46],[-50,33],[-38,34],[-17,22],[-34,56],[-133,122],[-63,49],[-37,22],[-62,32],[-90,32],[-96,22],[-73,11],[-101,8],[-117,17],[-138,29],[-44,12],[-78,28],[-52,25],[-48,31],[-44,39],[-44,49],[-30,45],[-23,53],[-21,64],[-25,47],[-23,35],[-47,58],[-65,76],[-57,70],[-69,76],[-28,25],[-89,59],[-36,41],[-22,31],[-32,63],[-33,83],[-15,116],[5,149],[-6,51],[-20,50],[-44,47],[-118,110],[-127,95],[-58,28],[-54,15]],[[6521,10396],[61,7],[49,20],[218,163],[29,14],[26,4],[82,-15],[57,-2],[90,4],[44,11],[63,34],[23,23],[28,51],[26,23],[34,15],[440,89],[45,6],[30,-3],[113,-19],[43,-12],[217,-104],[22,-7],[41,-2],[186,6],[48,10],[65,24],[8,-43],[-7,-86],[-10,-36],[-19,-49],[-10,-47]],[[14024,13491],[13,111],[15,156],[3,114],[-6,91],[64,36]],[[5320,20477],[143,55],[551,-8],[-10,72],[3,43],[15,56],[-5,35],[-13,38],[767,1]],[[6566,20370],[-77,-51],[-14,-14],[-9,-48],[-17,-14],[-110,-70],[-23,-19],[-16,-41],[2,-75],[17,1],[162,27],[20,-5],[36,-18],[21,-3],[17,-20],[31,-4],[131,-33],[74,-4],[55,0],[73,-9],[51,3],[38,-7],[48,-23],[18,-13],[23,-31],[57,-29],[86,-72],[12,-47],[16,-16],[25,-9],[23,-55],[7,-29]],[[7343,19642],[-174,-157],[-29,-31],[-28,-43],[-19,-48],[-5,-31],[3,-66]],[[6308,14507],[83,-41],[45,-16],[63,-16],[51,-9],[291,-43],[74,-16],[25,-42],[70,-57],[33,-17],[26,-25],[70,-18],[36,-6],[23,-26],[22,-42],[10,-64],[31,-88],[7,-39],[3,-45],[22,-153],[-2,-50],[18,-37]],[[7309,13657],[3,-18],[-6,-56],[-8,-26],[-22,-38],[-27,-64],[-19,-52],[-11,-17],[-32,-34],[-9,-22],[9,-46],[-3,-49],[-9,-56],[-28,-70],[-8,-37],[-6,-121],[5,-42],[-13,-84],[-2,-52],[1,-48],[12,-82],[21,-81],[-11,-47],[2,-46],[25,-42],[37,-50],[32,-59],[16,-17],[45,-37]],[[7303,12264],[-57,-63],[-37,-35],[-131,-109],[-120,-99]],[[6958,11958],[-43,42],[-33,17],[-73,12],[-19,9],[-28,30],[-6,36],[10,111],[-12,52],[-13,25],[-102,-63],[-46,88],[-50,90],[-97,148],[-54,120],[-121,272],[-28,58],[7,189],[3,139],[8,375],[3,440],[3,26],[1,192],[40,141]],[[16940,20844],[-22,-581],[-4,-109],[-15,-310],[-3,-83]],[[16896,19761],[-44,-14],[-71,-38]],[[8864,18599],[100,-21]],[[8964,18578],[104,-23],[74,-18],[37,-16],[120,-75],[63,-53],[47,-34],[78,-46],[29,-20],[23,-22],[53,-64],[47,44],[62,48],[30,18],[94,47],[66,38],[26,22],[254,250],[17,23],[38,76],[14,37],[43,138],[6,-1]],[[10289,18947],[145,-8],[42,-14],[21,-15],[83,-74],[45,-29],[41,-13],[30,0]],[[10696,18794],[36,-39],[17,-43],[8,-30],[0,-40],[33,-3],[130,-22],[25,-18],[7,-15],[10,-66],[2,-32],[7,-20],[39,-67],[66,-77],[57,-51],[106,-61],[52,-20],[45,-24],[21,-16],[58,-75],[26,-42],[15,-37],[30,-95],[21,-79],[38,-61],[33,-23]],[[11578,17738],[-1,-24],[24,-105],[2,-42],[-14,-27],[-25,-27],[-154,-137],[-31,-21],[-29,-10],[-33,-2],[-135,17],[-154,4],[-47,-5],[-19,-18],[-8,-105],[-106,5],[-28,-3],[-21,-14],[62,-75],[-39,0],[-180,-16],[-47,-15],[-170,-74],[-20,-9],[-41,-33],[-22,-51],[-27,-50],[-51,-36],[-100,98],[-20,23],[-42,68],[-50,111],[-25,40],[-96,146],[-24,25],[-149,109],[-43,30]],[[9715,17515],[-25,19],[-216,155],[-22,13],[-31,8],[-78,-5],[-39,15],[-122,-76],[-17,-21],[-8,-28],[-109,21],[-71,8],[-69,20],[-109,48]],[[8799,17692],[-42,38],[-12,27],[-19,65],[-15,25],[-27,18],[-55,26],[1,85],[-10,28],[-7,62],[9,25],[70,93],[49,75],[7,29],[9,112],[7,28],[9,4],[59,0],[17,14],[11,62],[4,91]],[[4986,13290],[41,-128],[4,-29],[1,-113],[6,-24],[33,-14],[62,-3],[83,-7],[24,-13],[118,-100],[144,-136],[27,-31],[7,-46],[-34,-125],[-21,-59],[42,-19],[-8,-37],[-35,-67],[35,-27],[18,-30],[9,-37],[15,-34],[14,-71],[1,-24],[11,-23],[33,-34],[-133,-270],[-31,-84]],[[5452,11705],[-55,63],[-46,64],[-27,32],[-30,21],[-59,33],[-66,31],[-107,46],[-35,18],[-53,35],[-24,27],[-23,55],[-30,36],[-99,77],[-31,20],[-40,8],[-120,11],[-50,13],[-30,23],[-19,32],[-10,83],[-8,27],[-49,119],[-30,90],[-62,164]],[[14785,6711],[38,8],[43,3],[46,0],[396,-25],[94,-4],[51,4],[90,19],[59,8],[194,6],[28,-4],[50,-17],[62,-29],[37,-6],[45,4],[34,12],[75,52],[26,31],[10,24],[23,86],[9,23],[23,28],[37,23],[52,13]],[[16307,6970],[-54,-1328],[-41,-990],[-5,-155]],[[16207,4497],[-91,30],[-21,11],[-277,175],[-28,23],[-17,22],[-76,127],[-16,19],[-31,19],[-63,17],[-218,46],[-192,36],[-24,8],[-185,55],[-26,11],[-44,28],[-108,78],[-63,43],[-86,50]],[[14641,5295],[-50,16],[-124,5],[6,185],[13,68],[27,62],[34,60],[142,244],[39,80],[19,48],[28,95],[14,81],[6,80],[-10,392]],[[11539,5951],[18,27],[0,19],[64,59],[27,11],[72,67],[15,25],[35,21],[26,6],[27,27],[8,16],[3,40],[5,16],[44,80],[35,24],[82,9],[18,11],[44,1],[29,27],[9,21],[-1,56],[14,34]],[[12113,6548],[50,20],[23,13],[31,43],[8,78],[18,45],[60,19],[16,17],[29,45],[21,66],[-13,24],[-21,21],[-26,17],[-25,28],[-16,41],[17,59],[-34,36],[-12,23],[-12,40],[-1,43],[-6,29],[-20,48],[17,26],[50,38],[56,24],[35,22],[17,24],[30,22],[7,55],[10,8],[23,-10],[29,-32],[22,5],[13,14],[8,31],[-5,42],[6,14],[28,-7],[15,-41],[34,-3],[33,6],[44,24],[21,22],[6,19],[24,36],[34,19],[17,-7],[47,27],[12,15],[4,33],[32,-8],[32,2],[14,12],[-6,30],[22,99],[17,33],[52,43],[-1,91],[13,31],[23,11],[18,-1],[11,-16],[-8,-20],[20,-1],[19,10],[39,68],[26,53],[37,55],[34,39],[29,52],[21,31],[32,7],[19,-11],[15,3],[25,42],[14,32],[-11,44],[24,30],[10,20],[3,56],[-15,51],[21,25],[23,-29],[39,-97],[21,-24],[55,-32],[40,-9],[146,-9],[171,-13],[39,10],[113,65],[35,16],[218,85],[42,32],[103,110],[38,11],[83,1],[198,-7],[28,-3]],[[14810,8749],[167,-34],[35,-13],[47,-28],[42,-44],[125,-81],[99,-70],[61,-39],[19,-29],[38,-69],[18,-45],[30,-27],[44,-13],[49,-6],[85,0],[136,-4],[264,-17],[30,3],[29,15],[31,28],[46,33],[62,50],[47,44],[25,18],[33,16]],[[16372,8437],[-48,-1076],[-17,-391]],[[14785,6711],[-153,-34],[-127,-26],[-85,-8],[-74,3],[-49,8],[-177,57],[-35,6],[-21,-2],[-43,-17]],[[14021,6698],[-173,245],[-36,-40],[-8,-32],[11,-126],[-1,-161],[-10,-61],[-20,-41],[-21,-20],[-65,-44],[-229,-143],[-33,-24],[-27,-48],[-11,-37],[-28,-68],[-50,-141],[-2,-52],[4,-86],[5,-20],[19,-26],[30,-26],[-32,-14],[-38,4],[-33,-12],[-20,-15],[-57,-19],[-47,-6],[-43,8],[-20,12],[-24,-10],[-41,3],[-15,-15],[-29,-18],[-24,-3],[-32,12],[-21,-42],[-51,-25]],[[12849,5607],[-253,54],[-71,8],[-38,12],[-21,14],[-84,95],[-23,20],[-40,25],[-316,151],[-43,12],[-39,2],[-37,-8],[-39,-17],[-25,-17],[-191,-183],[-31,-15],[7,83],[-3,35],[-20,40],[-43,33]],[[10131,19846],[39,7],[22,12],[44,38],[15,18],[25,64],[24,36],[26,26],[43,34],[124,74],[25,21],[15,26]],[[10533,20202],[66,-65],[108,-102],[48,-75],[118,-136],[35,-30],[14,-18],[16,-60],[15,-16],[40,-18]],[[10993,19682],[24,-25],[46,-92],[57,-151],[24,-39],[89,-96],[15,-32],[4,-31],[-7,-20],[-48,-58],[-33,-51],[-14,-31],[17,-72],[13,-33],[-80,-16],[-57,-9],[-179,-51],[-50,-21],[-118,-60]],[[10289,18947],[19,79],[2,32],[-3,52],[-16,59],[-120,318]],[[10171,19487],[-67,174],[-13,56],[0,25],[11,45],[29,59]],[[15919,18140],[43,-4],[20,-14],[25,-30],[22,-12],[40,-6],[52,4],[30,-6],[91,-9],[44,-11],[27,11],[11,40],[19,16],[21,8],[20,27],[5,18],[30,36],[35,11],[32,-24],[0,-38],[20,-3],[9,20],[21,-2],[22,-12],[44,4],[28,20],[27,-4],[12,-25],[44,-28],[25,4],[27,29],[26,-2],[28,11],[21,18]],[[16840,18187],[-3,-136],[-6,-76],[2,-28],[-5,-214],[-14,-422],[-6,-61],[-1,-55]],[[16784,17191],[-537,-96]],[[16247,17095],[6,25],[62,93],[12,23],[90,194],[5,25],[-29,15],[-128,53],[-67,45],[-56,41],[-41,26],[-31,10],[-34,2],[-99,-2]],[[15937,17645],[27,129],[3,26],[3,91],[-8,43],[-24,56],[-8,32],[-11,118]],[[7309,13657],[37,-26],[28,-7],[41,1],[41,8],[60,21],[28,2],[109,1],[128,-3]],[[8101,13584],[48,-15]],[[8149,13569],[-27,-9],[-4,-16],[7,-29],[-73,-134],[-10,-28],[-7,-51],[-27,-62],[-2,-21],[-24,-42],[-23,-27],[-9,-39],[3,-50],[-21,-66],[-44,-69],[-32,-22],[-28,-35],[-26,-24],[-51,-15],[46,-175],[22,50],[34,27],[46,1],[32,-21],[-10,95],[6,9],[33,0],[13,-14],[42,-88]],[[8857,19147],[-11,-25],[2,-37],[41,-79],[6,-37],[-6,-150],[12,-62],[17,-39],[43,-68],[7,-35],[-4,-37]],[[8864,18599],[-29,6],[-154,42],[-80,20],[-111,22],[-77,-7],[-70,-1],[-26,-5],[-81,-50],[-63,-22],[-153,-38],[-129,-23],[-68,-19],[-208,-35],[-43,-2],[-98,3],[-61,9],[-43,11],[-170,56],[-35,13],[-133,54],[-140,31],[-26,8],[-31,22]],[[16478,10741],[-53,-1108],[-53,-1196]],[[14810,8749],[4,37],[31,458],[31,455],[4,67],[-4,79],[-10,58],[-16,59],[-224,620],[-19,63],[-17,84],[-6,67],[-1,57],[6,85],[12,60],[23,83],[34,83],[14,28],[52,87]],[[8149,13569],[248,-77],[41,-12]],[[8438,13480],[-40,-102],[-37,-102],[-6,-43],[9,-63],[55,-148],[15,-33]],[[8072,17210],[-23,40],[-6,23],[-7,110],[10,17],[16,5],[76,-3],[-20,30],[-80,98],[76,7],[57,9],[73,24],[42,3],[123,-6],[28,3],[66,40],[127,66],[27,11],[52,12],[32,2],[58,-9]],[[9715,17515],[-54,-310],[-14,-104],[-3,-59],[1,-92],[5,-62],[12,-92]],[[9662,16796],[-60,24],[-38,25],[-24,11],[-31,3],[-149,-20],[-24,-7],[-161,-86],[-39,-18],[-117,-33],[-36,-6],[-181,3],[42,-110],[-33,-9],[-101,4],[-40,-4],[-18,-140],[-12,-105],[-55,7],[-32,-8],[-16,-30],[-13,-58],[-35,-150],[-58,-21],[-52,-32],[-19,-6],[-31,3],[-92,25],[-119,28],[-97,16],[-53,5]],[[7968,16107],[-4,25],[-66,194],[-14,36],[-27,54],[-17,29]],[[7840,16445],[48,-10],[32,7],[87,47],[84,64],[136,112],[123,122],[32,29],[58,46],[-36,45],[-57,35],[-34,13],[-91,15],[-40,10],[-37,17],[-1,31],[-7,33],[-34,91],[-31,58]],[[14641,5295],[-18,-30],[-4,-68],[3,-14],[-8,-137],[-6,-7],[-81,-28],[-55,126],[-8,23],[-172,5],[-61,3],[1,51],[-58,2],[4,104],[9,80],[-2,49]],[[14185,5454],[-2,111],[-8,175],[-7,114],[-26,171],[-5,73],[-14,53],[-19,39],[-8,27],[-5,69],[-23,51],[-42,83],[-9,40],[8,188],[-4,50]],[[11578,17738],[19,-2],[76,9],[17,0],[41,-15],[6,-47],[-12,-43],[-5,-64],[-11,-46],[-37,-93],[-24,-75],[-54,-132],[-35,-59],[-2,-54],[34,-32],[18,-2],[15,-15],[6,-28],[28,-23],[33,-37],[46,-17],[16,-34],[14,-72],[-36,-54],[-48,-48],[-15,-40],[10,-151],[5,-23],[18,-25],[28,-8],[29,-37]],[[11758,16471],[-20,-20],[-5,-27],[-58,-79],[-62,-21],[-16,-11],[-13,-26],[-29,-4],[-41,-53],[-27,-25],[-18,-5],[-71,-9],[-8,-4],[-29,-40],[-26,-13],[-10,-56],[1,-30],[-21,-35],[-31,-34],[-45,-115],[-8,-30],[5,-17],[21,-20],[35,-19],[17,-20],[1,-46],[-13,-14],[-32,-21],[-37,-33],[-38,-11],[-11,-13],[5,-51],[-1,-42],[38,-25],[8,-32],[21,-1],[40,-26],[14,-29],[-32,-13],[-9,-14],[9,-21],[-6,-13],[-22,-8],[-2,-18],[-20,-44],[0,-37],[17,-47],[27,-8],[28,-31],[4,-13],[-14,-38],[1,-26],[16,-26],[-18,-24],[11,-24],[-5,-17],[-20,-7],[3,-29],[-10,-18],[-22,-7],[-24,2],[-23,-15],[-14,-30],[-7,-39],[-16,-11],[-28,-4],[-41,-57],[15,-35]],[[9064,15300],[25,137],[10,36],[23,49],[20,52],[401,94],[64,22],[36,18],[46,31],[31,29],[25,29],[25,36],[26,61],[10,37],[4,71],[-6,45],[-142,749]],[[8604,13915],[-43,-116],[51,-13],[22,-10],[162,-152],[-185,-157]],[[8611,13467],[-22,8],[-120,1],[-31,4]],[[13656,15595],[75,43],[84,35],[100,30],[85,15],[86,6],[66,-1],[136,-9],[86,-3],[89,5],[91,13],[63,13],[202,51]],[[14819,15793],[-3,-24],[1,-79],[-24,-42],[-92,-112],[-21,-41],[-11,-36],[-6,-49],[1,-106],[9,-56],[36,-69]],[[14709,15179],[-38,2],[-32,-12],[-21,-13],[-29,-30],[-23,-69],[-47,-77],[-13,-26],[-5,-46],[-12,-46],[-37,-56],[28,-1],[56,13],[68,22],[70,9]],[[14674,14849],[21,-91]],[[13937,14544],[11,30],[87,189],[42,80],[6,28],[-13,70],[7,84],[24,66],[7,29],[4,50],[-5,37],[-28,66],[1,25],[-37,4],[-21,68],[-17,39],[-31,40],[-34,58],[-17,20],[-43,29],[-74,16],[-26,0],[-53,-9],[-44,8],[-27,24]],[[11092,14742],[130,93],[209,152],[91,67],[112,78],[48,28],[73,33],[119,44]],[[11874,15237],[383,136],[76,28],[610,219],[110,41],[105,47],[231,124]],[[13389,15832],[2,-6],[49,-9],[-11,-14],[76,-51],[84,-89]],[[13589,15663],[-49,-25],[-41,3],[-5,-13],[20,-14],[-10,-13],[-42,-15],[2,-28],[-13,-15],[5,-28],[-13,-24],[-42,-16],[-37,-58],[-20,-11],[-18,-23],[-29,-13],[-21,-58],[-26,-12],[-51,6],[-15,10],[-34,-6],[-15,-17],[-6,-41],[-20,-26],[-27,-8],[-31,1],[-45,29],[-32,3],[-39,-10],[-17,-17],[6,-24],[-7,-28],[-45,-36],[-26,3],[-9,22],[-25,2],[-30,-27],[-18,-63],[-13,-15],[-56,-36],[-18,-30],[-34,-10],[-29,1],[-68,-127],[-12,-19],[-96,-89],[-35,-19],[-53,-43],[-57,-55],[-41,-24],[-25,-22],[-7,-16],[4,-22],[-45,-40],[-60,-37],[-61,-23],[-43,-10],[-119,-19],[-294,-46],[-191,-28],[-148,-24],[-11,-35]],[[14819,15793],[106,27]],[[14925,15820],[350,89]],[[15275,15909],[121,31],[98,34]],[[15494,15974],[88,-169]],[[15582,15805],[-55,-3],[-18,9],[-28,-7],[-27,-15],[-19,-50],[-16,-14]],[[15419,15725],[-42,-22],[-58,-21],[-58,-16],[-48,1],[-20,-19],[-9,-32],[-43,-41],[-7,-26],[-31,-25],[-34,16],[-26,-16],[11,-60],[-5,-12],[-31,-20],[-21,-5],[-60,-7],[-24,-15],[-36,-48],[-31,-22],[-34,-13],[-82,-9],[-25,-5],[-28,-17],[2,-22],[31,-24],[35,-52],[1,-16],[-20,-5],[-17,7]],[[15419,15725],[-2,-12],[-35,-41],[-8,-56],[-6,-21],[-61,-130],[-101,-112],[-39,-59]],[[15167,15294],[-100,-41],[-66,-48],[-23,-39],[-24,-82],[-22,-40],[-48,-63],[-33,-85],[-33,-32],[-52,-16],[-92,1]],[[11758,16471],[60,54],[118,159],[47,28],[79,25],[39,36],[73,101],[18,60],[14,57],[4,36],[14,34],[20,35],[26,30],[14,35],[-3,23],[9,37],[15,11],[-15,23],[-3,20],[29,23],[56,15],[30,44],[30,34],[-1,19],[9,36],[47,28],[25,53],[30,33],[3,23],[-19,21],[11,13],[-6,25],[34,26],[-15,21],[0,17],[-17,23],[-36,20],[-7,12],[-44,33],[-24,10],[-11,30],[27,6],[12,14],[8,28],[23,31],[22,9],[38,28],[8,16],[22,10],[13,21],[24,14],[34,4],[17,22],[6,28],[31,28],[44,14],[71,16],[85,30],[14,8],[36,36],[32,11],[13,21],[5,38],[10,17],[4,30]],[[13010,18314],[58,67],[15,86],[-5,22],[-18,13],[-17,43],[9,26],[-4,43],[11,10],[59,20],[42,31],[35,12],[73,4],[55,13],[32,12],[23,1],[41,13],[23,-3],[43,37],[78,-13],[-1,20],[10,18],[-1,54]],[[13988,18690],[42,-78],[-7,-4],[65,-100],[36,-70],[52,-110],[17,-47]],[[14193,18281],[-44,-19],[-19,-22],[-37,-75],[-34,-31],[-25,6],[-30,-13],[-5,-40],[-97,-67],[-19,-7],[-14,-24],[19,-32],[0,-30],[-7,-39],[-20,-19],[7,-19],[-24,-19],[15,-33],[-28,-10],[-18,-21],[-21,-14],[-45,-56],[-6,-18],[-38,-36],[-45,-20],[-35,-38],[-5,-27],[6,-30],[-12,-23],[2,-27],[-32,-62],[-39,-100],[-25,-36],[-28,2],[-21,-13],[-37,-79],[-12,-49],[-9,-53],[8,-25],[-19,-33],[-23,-23],[-53,-26],[-28,-20],[-11,-17],[-19,1],[-47,-31],[-44,-68],[-2,-22],[-34,-32],[-37,-28],[-38,-61],[-9,-40],[26,-77],[16,-26],[34,-34],[24,-38],[4,-18],[-34,-24],[-41,-37],[-47,-52],[-33,-29],[-51,-25],[-27,-20],[-71,-20],[-30,-39],[-21,-12],[-11,-34],[3,-35],[-4,-16],[7,-22],[-27,-25],[-24,-3],[-32,15],[-22,23],[-30,15],[-27,28],[-16,-1],[-30,11],[-44,-14],[-49,-8],[-13,-21],[-58,-24],[-8,-18],[-29,-31],[-9,-31],[7,-12],[-5,-35],[12,-17],[-2,-22],[8,-16],[2,-42],[-64,-29],[-30,-8],[-12,-12],[-10,-52],[-1,-29],[-8,-48],[-14,-17],[-23,-7],[-34,22],[-37,7],[-24,-16],[25,-66],[23,-30],[20,-46],[34,-43],[-2,-27],[-42,-35],[-31,5],[-24,13],[-36,-52],[-10,-41],[3,-23],[-19,-14],[-13,12],[-29,-26],[-41,-15],[-61,8],[-32,-7],[-31,-25],[-6,-39]],[[15512,18947],[24,-50],[85,-112],[17,-15],[55,-38],[32,-15],[-8,-31],[4,-33],[52,-148],[18,-31],[79,-99],[24,-38],[8,-30],[17,-167]],[[15937,17645],[-180,-7],[-68,-11],[-70,-20],[-34,-4],[-70,4],[-45,-4],[-151,-37],[-38,-1],[-51,9],[-22,-1],[-54,-14],[-154,-42],[-125,-6]],[[14875,17511],[10,50],[-6,39],[-22,88],[-24,42],[-31,30],[-104,65],[-30,24],[-61,60],[-52,29],[-93,29],[-55,34],[-69,62],[-55,61],[-45,62],[-38,72],[-7,23]],[[14875,17511],[-26,-63],[-12,-52],[-3,-54],[9,-82],[0,-29],[-11,-15],[21,-36],[18,-150],[22,-38],[157,-193],[21,-30]],[[15071,16769],[-36,-18],[-57,-37],[-72,-50],[-96,-63],[-187,-138]],[[14623,16463],[-97,-72],[-46,-31],[-98,-56],[-104,-50],[-69,-30],[-108,-43],[-239,-101],[-74,-34],[-68,-35],[-166,-91],[-67,-34],[-98,-54]],[[8463,15346],[-203,138],[-183,146],[-11,13],[-9,30],[-7,106],[-2,15],[-72,189],[-8,45],[0,79]],[[16896,19761],[-7,-249],[-15,-380],[-9,-206],[-14,-386],[-5,-101],[-6,-252]],[[9201,13087],[60,6],[37,11],[230,-38],[52,-1],[64,9],[88,22],[-54,65],[77,-11],[-27,25],[-55,60],[-77,106],[-22,35],[50,4],[52,24],[107,89],[44,25],[69,23],[85,-6],[44,-7],[34,21]],[[10155,13487],[-26,-11],[-48,-27],[-34,-28],[-16,-25],[-9,-43],[-2,-26],[-14,-29],[-26,-5],[-81,1],[-14,-4],[-17,-25],[1,-17],[23,-35],[82,-50],[59,-32],[20,-23],[1,-45],[24,-29],[28,-12],[-13,-33],[-25,-26],[-42,-31],[-94,-14],[-60,-5]],[[15792,16129],[46,16],[28,16],[6,19],[7,207],[12,62]],[[15891,16449],[25,89],[19,22],[76,53],[21,27],[117,212],[51,67],[18,33],[16,49],[3,53],[10,41]],[[16067,16269],[-37,-27],[-50,-32],[-90,-47],[-95,-45]],[[15795,16118],[-3,11]],[[7989,14527],[-25,64],[-6,39],[3,39],[-5,36],[-48,119],[-17,29],[-114,125],[-23,23],[-68,39],[-34,27],[-67,69],[-32,45],[-23,24],[-100,59],[-33,24],[-155,144],[-41,52],[-32,33],[-293,264],[-18,12],[-54,24],[-28,5],[-41,0]],[[6735,15822],[5,18],[16,18],[145,61],[41,27],[41,33],[104,95],[180,188],[121,80],[158,100],[45,28],[46,15],[99,0],[51,-11],[53,-29]],[[8611,13467],[167,-136]],[[8778,13331],[-82,-81]],[[12922,12326],[-43,-19],[-570,-217],[-198,-77],[-121,-49],[-87,-52],[-461,-208],[-127,-104],[-43,-17]],[[15167,15294],[82,-6],[25,5],[366,120],[120,49]],[[15494,15974],[75,33],[59,32],[140,65],[27,14]],[[15760,15462],[-44,87],[-134,256]],[[15151,16615],[25,0],[77,-11],[35,5],[59,30],[64,13],[27,0],[53,-12],[61,-6],[34,2],[57,15],[51,-8],[129,-61],[-70,-78],[-14,-25]],[[15739,16479],[-37,-56],[-5,-19],[-34,7],[-34,-1],[3,-64],[-28,3],[-16,12],[-6,-84],[1,-30],[28,-50],[25,9],[70,-117],[34,8],[52,32]],[[15494,15974],[-101,195],[-18,28],[-42,42],[-33,24],[-25,39],[-19,20],[-28,19],[-15,23],[-40,193],[-22,58]],[[14756,16247],[26,1],[6,35],[47,58],[4,16],[-15,27],[36,11],[21,1],[70,-16],[32,-1],[-9,-270],[43,-4],[-4,-107],[48,1],[202,-9],[-2,-45],[14,-36]],[[14925,15820],[2,67],[-20,4],[-1,59],[-112,7],[4,73],[-3,32],[-23,75],[-13,60],[-3,50]],[[14623,16463],[42,-39],[19,-37],[42,-55],[21,-40],[9,-45]],[[13656,15595],[-67,68]],[[15739,16479],[152,-30]],[[6142,11281],[211,173],[150,127],[396,326],[59,51]],[[9134,19875],[71,-29],[130,-25],[40,-11],[76,-32],[32,-9],[48,-5],[158,4],[39,-35],[126,-89],[117,-75],[29,-16],[54,-13],[43,0],[27,4],[37,-63],[10,6]],[[8340,20771],[1474,2],[99,-4],[128,2],[14,3],[254,0]],[[10309,20774],[36,-65],[17,-38],[18,-86],[-3,-61],[-37,-173],[-26,-132],[-16,-50],[-98,-194],[-69,-129]],[[16247,17095],[-689,-123],[-42,-9],[-73,-21],[-59,-22],[-313,-151]],[[6154,14633],[60,-56],[42,-34],[52,-36]],[[5149,10339],[-19,46],[-2,24],[-19,33],[-39,35],[-10,16],[-2,66],[-9,27],[-23,46],[1,105],[46,63],[18,46],[6,37],[-8,27],[-33,59],[-27,118],[21,93],[55,100],[10,35],[6,57],[21,58],[18,31],[19,19],[7,21],[46,34],[23,12],[15,17],[27,45],[71,32],[50,33],[34,31]],[[3907,10229],[-16,139],[0,28],[11,96],[0,82],[5,24],[35,53],[29,61],[7,24],[19,100],[9,25],[54,108],[-90,34],[-28,14],[-14,14],[-37,64],[-8,26],[-25,121],[-11,32],[-36,73],[-85,324],[-2,22],[5,73],[15,49],[36,68],[12,36],[12,115],[19,271],[22,131],[8,78],[3,61]],[[14185,5454],[-160,-3],[-38,3],[-84,20],[-108,20],[-86,21],[-111,17],[-380,19],[-78,5],[-76,9],[-105,18],[-110,24]],[[6263,18450],[-27,-15],[-90,-64],[-32,-25],[-25,-26],[-103,-148],[-26,-45],[-40,-76],[-38,-47],[-63,-63],[-29,-46],[-14,-52],[-1,-51],[9,-42],[68,-241],[16,-48],[22,-47],[45,-67],[53,-54],[50,-40]],[[6038,17253],[115,-93],[25,-23],[28,-38],[71,-155],[14,-55],[1,-37],[-17,-295],[-12,-100],[-11,-37],[-20,-49],[-32,-58],[-26,-51],[-9,-50],[5,-38],[23,-49],[88,-117],[113,-138]],[[4631,16558],[-44,61],[-62,82],[-82,139],[-50,146],[-70,133],[-23,60],[-6,38],[5,74],[36,119],[44,88],[28,46],[29,40],[49,57],[26,42],[21,53],[13,46],[6,77],[-1,34],[-15,62],[-11,23]],[[16207,4497],[-8,-303],[-9,-210],[-6,-238],[-8,-231],[-10,-326]],[[16166,3189],[-89,-72],[-74,-66],[-405,-355],[-344,-305],[-293,-256],[5,16],[20,16],[3,27],[-15,32],[-20,19],[-170,83],[-25,9],[-76,17],[-106,-11],[-54,-9],[-24,1],[-59,30],[-110,34],[-110,28],[-23,14],[-73,85],[-21,20],[-55,36],[-39,16],[-67,16],[-42,18],[-36,34],[-22,15],[-74,27],[-33,8],[-107,17],[-41,2],[-231,28],[-33,3],[-97,0],[-97,4],[-41,9],[-68,21],[-82,33],[-62,17],[-57,6],[21,73],[11,70],[-1,40],[-10,55],[-75,241],[-5,51],[4,73],[-4,48],[-10,29],[-52,131],[-24,51],[-20,34],[-129,178],[-72,106],[162,92],[19,20],[19,53],[43,72],[38,40],[15,22],[4,24],[3,117],[3,29],[17,103],[7,23],[25,43],[44,64],[12,61],[5,126],[4,21],[38,134],[-36,15],[-19,15],[-31,42],[-48,6],[19,27],[35,28],[5,33],[13,18],[-13,21],[8,11],[38,-11],[0,14],[14,36],[-16,18],[12,23],[25,6],[-4,23],[-34,15],[-19,43],[9,30],[-21,21],[-12,35],[17,26],[-4,32]],[[9559,4340],[24,23],[-19,23],[1,41],[15,21],[29,30],[8,27],[18,16],[56,6],[75,70],[162,42],[47,24],[64,38],[32,27],[21,3],[55,35],[97,38],[24,3],[23,17],[47,16],[26,19],[44,19],[50,38],[15,3],[23,21],[15,3],[20,19],[18,5],[58,49],[38,22],[29,21],[27,6],[23,21],[0,74],[-47,42],[-4,48],[35,33],[18,0],[128,118],[23,35],[67,57],[35,16],[118,1],[29,35],[0,19],[52,48],[30,33],[5,16],[35,37],[47,33],[52,43],[187,170],[5,7]],[[16166,3189],[-46,-1343],[-34,-1009],[-25,-754],[-1,-19],[-294,2],[-1219,-23],[-1014,-19],[-574,-11],[-547,0],[-796,-13],[-41,98],[-10,43],[-5,55],[10,121],[14,81],[10,93],[-6,29],[-32,64],[-84,133],[-62,80],[-55,91],[-20,25],[-34,26],[-97,36],[-35,15],[-52,43],[-36,50],[-8,46],[4,25],[13,35],[49,111],[9,40],[0,30],[-8,32],[-38,103],[-47,120],[-9,29],[-39,97],[-22,28],[-69,42],[-122,41],[-57,25],[-51,34],[-32,36],[-51,73],[-16,72],[-7,63],[5,63],[20,88],[5,34],[24,92],[21,65],[26,100],[14,84],[7,64],[8,111],[1,81],[-5,86],[-9,78],[-8,31],[-26,72],[-29,48],[-61,59],[-19,22],[-57,54],[-31,19],[-79,27],[-142,73],[-206,167],[-107,73],[-38,33],[-56,43],[-72,65],[-70,79],[-14,31],[-6,35],[-19,77],[-15,47],[-26,66],[-29,59],[-28,49]],[[11149,20829],[30,-18],[19,-27],[12,-34],[5,-79],[5,-32],[23,-67],[6,-29],[15,-106],[1,-29],[-11,-164],[9,-40],[30,-43]],[[11293,20161],[-11,-45],[-60,-83],[-9,-55],[-7,-76],[-37,-125],[-15,-21],[-18,-10],[-61,-23],[-82,-41]],[[10533,20202],[6,47],[5,146],[10,43],[24,65],[19,40],[20,29],[39,41],[27,21],[41,20],[129,45],[42,18],[77,37],[149,65],[28,10]],[[12113,6548],[-3,30],[-18,29],[0,37],[-22,48],[-40,80],[-19,62],[-17,90],[-5,37],[-1,50],[-10,67],[6,29],[-21,25],[-13,62],[-18,45],[-21,29],[-12,60],[12,35],[30,26],[15,54],[-4,18]],[[15151,16615],[-47,98],[-33,56]],[[8778,13331],[106,105],[220,210],[60,50],[83,66],[13,15],[75,51],[91,47],[90,37]],[[9843,13688],[-84,-48],[-250,-138],[-54,-24],[-70,-21],[-53,-10],[-124,-21],[-74,-19],[-80,-30],[-112,-65],[-47,-31],[-41,-37],[-75,-62]],[[8072,17210],[-117,-40],[-48,12],[-32,-27],[-32,-20],[0,-12],[-23,-34],[-28,-15],[-37,-1],[-33,-8],[-26,8],[-25,31],[-34,11],[-62,26],[-22,16],[-123,62],[-33,11],[-74,14],[-35,-1],[-35,11],[-42,0],[-59,14],[-104,-4],[-81,-28],[-96,-26],[-86,-35],[-77,-22],[-42,-9],[-114,-8],[-52,-7],[-50,9],[-59,19],[-62,7],[-162,59],[-68,28],[-25,5],[-36,-3]],[[11293,20161],[29,-16],[80,-20],[47,-22],[59,-39],[26,-8],[63,16],[40,-11],[160,-82],[45,-16],[178,-26],[44,-24],[23,-8],[68,-6],[18,-8],[193,-109],[39,-30],[15,-22],[31,-76],[2,-41],[-20,-363],[12,-35],[106,-128],[34,-48],[107,-144],[5,-41],[-18,-81],[9,-48],[42,-74],[32,-30],[84,-48],[23,-21],[9,-34],[-1,-34],[6,-19],[63,-107],[23,-23],[41,-21]],[[6444,15783],[118,16],[173,23]],[[11149,20829],[46,19],[159,82],[93,56],[36,20],[105,49],[147,84],[137,60],[39,22]],[[9559,4340],[-29,48],[-45,68],[-76,92],[-90,104],[-87,78],[-102,78],[-30,28],[-39,27]],[[10309,20774],[140,0],[1,899],[2,13],[-2,173],[3,185],[556,0]]],"transform":{"scale":[0.00002619780673309323,0.000023710170567955252],"translate":[-80.487579,35.504141]},"objects":{"Geometry\\37-057":{"type":"GeometryCollection","geometries":[{"arcs":[[0,1,2,3,4]],"type":"Polygon","properties":{"GEOID":"370570615021"}},{"arcs":[[5,6,7,8]],"type":"Polygon","properties":{"GEOID":"370570615023"}},{"arcs":[[-4,9,-9,10,11,12]],"type":"Polygon","properties":{"GEOID":"370570615022"}},{"arcs":[[13,14,15,16]],"type":"Polygon","properties":{"GEOID":"370570619032"}},{"arcs":[[17,-17,18,19]],"type":"Polygon","properties":{"GEOID":"370570619031"}},{"arcs":[[20,21,22,23,-20,24]],"type":"Polygon","properties":{"GEOID":"370570619041"}},{"arcs":[[-8,25,26,27]],"type":"Polygon","properties":{"GEOID":"370570618051"}},{"arcs":[[28,29,30,31,32]],"type":"Polygon","properties":{"GEOID":"370570618063"}},{"arcs":[[-27,33,-29,34,35]],"type":"Polygon","properties":{"GEOID":"370570618052"}},{"arcs":[[36,37,38,39,40]],"type":"Polygon","properties":{"GEOID":"370570601041"}},{"arcs":[[41,42,43,44,45]],"type":"Polygon","properties":{"GEOID":"370570617051"}},{"arcs":[[46,47,48,49,50]],"type":"Polygon","properties":{"GEOID":"370570617042"}},{"arcs":[[51,52,53,54,55]],"type":"Polygon","properties":{"GEOID":"370570603033"}},{"arcs":[[56,57,58,59,60]],"type":"Polygon","properties":{"GEOID":"370570612032"}},{"arcs":[[61,62,63,64,-18,-24]],"type":"Polygon","properties":{"GEOID":"370570611022"}},{"arcs":[[-59,65,66,67,68,69,70,71,72]],"type":"Polygon","properties":{"GEOID":"370570612041"}},{"arcs":[[-50,73,74,75,76,77,78,79]],"type":"Polygon","properties":{"GEOID":"370570618071"}},{"arcs":[[80,-5,-13,81]],"type":"Polygon","properties":{"GEOID":"370570615013"}},{"arcs":[[82,83,84,85,86]],"type":"Polygon","properties":{"GEOID":"370570618083"}},{"arcs":[[87,88,89,-14,-65]],"type":"Polygon","properties":{"GEOID":"370570611023"}},{"arcs":[[90,91,92,-82,-12,93]],"type":"Polygon","properties":{"GEOID":"370570615011"}},{"arcs":[[-86,94,95,96,97,98]],"type":"Polygon","properties":{"GEOID":"370570618081"}},{"arcs":[[99,100,101,102,103,104]],"type":"Polygon","properties":{"GEOID":"370570603012"}},{"arcs":[[105,106,107,108,-101,109]],"type":"Polygon","properties":{"GEOID":"370570603023"}},{"arcs":[[110,-102,-109]],"type":"Polygon","properties":{"GEOID":"370570603013"}},{"arcs":[[111,112,113,114]],"type":"Polygon","properties":{"GEOID":"370570601014"}},{"arcs":[[115,116,117]],"type":"Polygon","properties":{"GEOID":"370570601031"}},{"arcs":[[118,-117,119,120,121,122,123,124]],"type":"Polygon","properties":{"GEOID":"370570601032"}},{"arcs":[[125,-114,126,127,-122]],"type":"Polygon","properties":{"GEOID":"370570601012"}},{"arcs":[[128,129,130,131]],"type":"Polygon","properties":{"GEOID":"370570610004"}},{"arcs":[[-61,132,133,134,135]],"type":"Polygon","properties":{"GEOID":"370570612031"}},{"arcs":[[136,137,138,-63,139,140]],"type":"Polygon","properties":{"GEOID":"370570611012"}},{"arcs":[[-32,141,-96,142]],"type":"Polygon","properties":{"GEOID":"370570618061"}},{"arcs":[[143,-131,144,145,146]],"type":"Polygon","properties":{"GEOID":"370570610003"}},{"arcs":[[147,-146,148,-89,149,150]],"type":"Polygon","properties":{"GEOID":"370570610001"}},{"arcs":[[151,-115,-126,-121]],"type":"Polygon","properties":{"GEOID":"370570601013"}},{"arcs":[[152,153,-21,154,-68]],"type":"Polygon","properties":{"GEOID":"370570619042"}},{"arcs":[[-39,155,-125,156,157,158]],"type":"Polygon","properties":{"GEOID":"370570601042"}},{"arcs":[[-38,159,-118,-119,-156]],"type":"Polygon","properties":{"GEOID":"370570601043"}},{"arcs":[[160,-150,-88,-64,-139]],"type":"Polygon","properties":{"GEOID":"370570611011"}},{"arcs":[[161,-52,162,163]],"type":"Polygon","properties":{"GEOID":"370570603032"}},{"arcs":[[164,-45,165,166]],"type":"Polygon","properties":{"GEOID":"370570617052"}},{"arcs":[[167,-167,168,169,170,171,-47]],"type":"Polygon","properties":{"GEOID":"370570617041"}},{"arcs":[[172,-87,-99,173,-78]],"type":"Polygon","properties":{"GEOID":"370570618082"}},{"arcs":[[-60,-73,174,-133]],"type":"Polygon","properties":{"GEOID":"370570612042"}},{"arcs":[[175,176,-1,-81,-93,177]],"type":"Polygon","properties":{"GEOID":"370570615012"}},{"arcs":[[-174,-98,178,179,-79]],"type":"Polygon","properties":{"GEOID":"370570618072"}},{"arcs":[[180,-83,-173,-77]],"type":"Polygon","properties":{"GEOID":"370570618032"}},{"arcs":[[-35,-33,-143,-95,-85]],"type":"Polygon","properties":{"GEOID":"370570618062"}},{"arcs":[[-140,-62,-23,181]],"type":"Polygon","properties":{"GEOID":"370570611021"}},{"arcs":[[182,-106,183,184,-53,-162]],"type":"Polygon","properties":{"GEOID":"370570603021"}},{"arcs":[[185,186,187,188]],"type":"Polygon","properties":{"GEOID":"370570617011"}},{"arcs":[[-113,189,190,-127]],"type":"Polygon","properties":{"GEOID":"370570601011"}},{"arcs":[[191,192,193,194,195,196,197]],"type":"Polygon","properties":{"GEOID":"370570602033"}},{"arcs":[[-110,-100,-184]],"type":"Polygon","properties":{"GEOID":"370570603022"}},{"arcs":[[198,199,-170]],"type":"Polygon","properties":{"GEOID":"370570617031"}},{"arcs":[[200,201,202,203]],"type":"Polygon","properties":{"GEOID":"370570620021"}},{"arcs":[[204,205,206,207,-201,208,209,210]],"type":"Polygon","properties":{"GEOID":"370570620012"}},{"arcs":[[211,212,213,-194,214,215]],"type":"Polygon","properties":{"GEOID":"370570602011"}},{"arcs":[[216,217,-129,218,219,220]],"type":"Polygon","properties":{"GEOID":"370570606022"}},{"arcs":[[221,-135,222,223,-91,-187]],"type":"Polygon","properties":{"GEOID":"370570616003"}},{"arcs":[[-185,-105,224,-192,225,-54]],"type":"Polygon","properties":{"GEOID":"370570603011"}},{"arcs":[[-16,226,-207,227]],"type":"Polygon","properties":{"GEOID":"370570619023"}},{"arcs":[[228,229,-92,-224]],"type":"Polygon","properties":{"GEOID":"370570616002"}},{"arcs":[[230,-197,231,232,233,234]],"type":"Polygon","properties":{"GEOID":"370570604002"}},{"arcs":[[-209,-204,235,236]],"type":"Polygon","properties":{"GEOID":"370570620022"}},{"arcs":[[-232,-196,237,238,-66,239]],"type":"Polygon","properties":{"GEOID":"370570604001"}},{"arcs":[[-134,240,241,-229,-223]],"type":"Polygon","properties":{"GEOID":"370570613002"}},{"arcs":[[242,243,244,245,-137,246]],"type":"Polygon","properties":{"GEOID":"370570609005"}},{"arcs":[[247,248,249,250,-153,-67]],"type":"Polygon","properties":{"GEOID":"370570605003"}},{"arcs":[[251,252,253,254,255,256,-244]],"type":"Polygon","properties":{"GEOID":"370570609001"}},{"arcs":[[-257,257,258,-245]],"type":"Polygon","properties":{"GEOID":"370570609004"}},{"arcs":[[259,260,-158,261,262,-248,-239]],"type":"Polygon","properties":{"GEOID":"370570605001"}},{"arcs":[[-124,263,-221,264,265,-262,-157]],"type":"Polygon","properties":{"GEOID":"370570606012"}},{"arcs":[[-266,266,267,268,-249,-263]],"type":"Polygon","properties":{"GEOID":"370570605002"}},{"arcs":[[-233,-240,-58,269]],"type":"Polygon","properties":{"GEOID":"370570604003"}},{"arcs":[[-128,-191,270,-217,-264,-123]],"type":"Polygon","properties":{"GEOID":"370570606021"}},{"arcs":[[271,-69,272,-6,-10,-3]],"type":"Polygon","properties":{"GEOID":"370570614001"}},{"arcs":[[273,274,-219,-132,-144,275,276]],"type":"Polygon","properties":{"GEOID":"370570607001"}},{"arcs":[[-234,-270,-57,277,278]],"type":"Polygon","properties":{"GEOID":"370570612021"}},{"arcs":[[-242,279,280,-178,-230]],"type":"Polygon","properties":{"GEOID":"370570616001"}},{"arcs":[[-155,-25,281,-26,-7,-273]],"type":"Polygon","properties":{"GEOID":"370570619021"}},{"arcs":[[-259,282,-151,-161,-138,-246]],"type":"Polygon","properties":{"GEOID":"370570609003"}},{"arcs":[[283,-276,-147,-148,284,-255]],"type":"Polygon","properties":{"GEOID":"370570610002"}},{"arcs":[[285,286,-277,-284,287]],"type":"Polygon","properties":{"GEOID":"370570607004"}},{"arcs":[[288,-253,289]],"type":"Polygon","properties":{"GEOID":"370570608002"}},{"arcs":[[-269,290,-290,-252,-243,291,-250]],"type":"Polygon","properties":{"GEOID":"370570608003"}},{"arcs":[[-256,-285,-283,-258]],"type":"Polygon","properties":{"GEOID":"370570609002"}},{"arcs":[[292,-274,-287]],"type":"Polygon","properties":{"GEOID":"370570607002"}},{"arcs":[[293,-188,-94,-11,-28,-36,-84,-181,-76]],"type":"Polygon","properties":{"GEOID":"370570618031"}},{"arcs":[[-104,294,-215,-193,-225]],"type":"Polygon","properties":{"GEOID":"370570602032"}},{"arcs":[[295,296,-216,-295,-103,-111,-108]],"type":"Polygon","properties":{"GEOID":"370570602031"}},{"arcs":[[-265,-220,297,-267]],"type":"Polygon","properties":{"GEOID":"370570606011"}},{"arcs":[[-169,-166,298,-189,-294,-75,299,-199]],"type":"Polygon","properties":{"GEOID":"370570617012"}},{"arcs":[[-171,-200,-300,-74,-49,300]],"type":"Polygon","properties":{"GEOID":"370570617032"}},{"arcs":[[-237,301,-210]],"type":"Polygon","properties":{"GEOID":"370570620023"}},{"arcs":[[-163,-56,302,303,-42,304]],"type":"Polygon","properties":{"GEOID":"370570603031"}},{"arcs":[[-302,-236,-203,305,306]],"type":"Polygon","properties":{"GEOID":"370570620024"}},{"arcs":[[307,-211,-307,308]],"type":"Polygon","properties":{"GEOID":"370570620013"}},{"arcs":[[309,310,-213,311]],"type":"Polygon","properties":{"GEOID":"370570602014"}},{"arcs":[[-282,-19,-228,-206,312,-30,-34]],"type":"Polygon","properties":{"GEOID":"370570619022"}},{"arcs":[[-298,-275,-293,-286,313]],"type":"Polygon","properties":{"GEOID":"370570607003"}},{"arcs":[[314,-71,315,-176,-281]],"type":"Polygon","properties":{"GEOID":"370570614003"}},{"arcs":[[-175,-72,-315,-280,-241]],"type":"Polygon","properties":{"GEOID":"370570613001"}},{"arcs":[[-172,-301,-48]],"type":"Polygon","properties":{"GEOID":"370570617033"}},{"arcs":[[-55,-226,-198,-231,316,-303]],"type":"Polygon","properties":{"GEOID":"370570603041"}},{"arcs":[[-311,317,-260,-238,-195,-214]],"type":"Polygon","properties":{"GEOID":"370570602012"}},{"arcs":[[318,-278,-136,-222,-186,-299,-44]],"type":"Polygon","properties":{"GEOID":"370570612022"}},{"arcs":[[-316,-70,-272,-2,-177]],"type":"Polygon","properties":{"GEOID":"370570614002"}},{"arcs":[[-292,-247,-141,-182,-22,-154,-251]],"type":"Polygon","properties":{"GEOID":"370570605004"}},{"arcs":[[-40,-159,-261,-318,-310,319]],"type":"Polygon","properties":{"GEOID":"370570602013"}},{"arcs":[[-97,-142,-31,-313,-205,-308,320,-179]],"type":"Polygon","properties":{"GEOID":"370570620011"}},{"arcs":[[-297,321,-41,-320,-312,-212]],"type":"Polygon","properties":{"GEOID":"370570602021"}},{"arcs":[[-268,-314,-288,-254,-289,-291]],"type":"Polygon","properties":{"GEOID":"370570608001"}},{"arcs":[[-235,-279,-319,-43,-304,-317]],"type":"Polygon","properties":{"GEOID":"370570603042"}}]}}}