{"type":"Topology","arcs":[[[5585,4976],[56,16],[217,85],[-8,17],[-49,51],[-14,35],[-11,56],[-24,76],[-8,83],[-49,26],[-20,21],[3,79],[86,54],[24,-15],[8,-41],[46,14],[21,-26],[26,12],[37,58],[-14,28],[11,18],[58,46],[21,49],[35,23],[18,-4],[56,-39],[39,-11],[17,27],[12,61],[-19,69],[9,29],[21,15]],[[6190,5888],[62,23],[71,8],[73,-26],[32,-2],[39,8],[-14,46],[61,14],[88,12],[64,-39],[32,6],[26,27],[39,24],[22,57],[15,17],[192,180],[51,-30],[27,-9],[74,-9],[27,-17],[46,-56],[58,-45],[34,-40],[17,-31],[12,-60],[29,-79],[62,-106],[124,137],[44,8],[58,-3],[45,10]],[[7700,5913],[49,-143],[44,-48],[29,-49],[15,-47],[32,-164],[33,-133],[21,-50],[-2,-46],[-51,-93],[-32,-77],[-38,-79],[-129,-226],[-71,-131],[-55,-94]],[[7545,4533],[-78,-15],[-56,-5],[-116,-4],[-534,-82],[-111,-26],[-59,-21],[-141,-59],[-64,-42]],[[6386,4279],[-18,145],[-46,-16],[-27,1],[-41,34],[-28,11],[-48,-1],[-99,-81],[-53,-15],[-28,35],[-54,46],[-9,71],[18,77],[-16,54],[-48,32],[-27,46],[-99,40],[-110,97],[-35,56],[-33,65]],[[6319,3735],[33,27],[43,45],[183,113],[42,-55],[57,-28],[25,-5],[135,-10],[33,3],[92,39],[36,23],[160,138],[171,109],[39,47],[104,241],[73,111]],[[7545,4533],[70,24],[59,28],[50,14],[56,2],[180,-16],[71,-15],[44,-15],[163,-69],[81,-45],[70,-16],[59,6],[41,15]],[[8489,4446],[-21,-134],[23,-27],[-11,-35],[-75,-38],[-29,-26],[-10,-37],[-25,-1],[-59,-25],[-11,-35],[-23,-12],[-51,-2],[-77,-56],[-23,-4],[-90,-55],[-42,-47],[-6,-28],[-42,-46],[-4,-29],[-22,-13],[-49,30],[-43,-6],[-34,-22],[5,-45],[-14,-19],[-1,-43],[-47,-29],[-12,-54],[-50,-92],[-14,-76],[-13,-27],[-27,-25],[37,-32],[-26,-20],[-15,-29],[22,-18],[30,-55],[4,-33],[-37,-17],[-8,-52],[-43,-6],[-26,48],[-29,11],[-2,20],[-45,-12],[-43,43],[-42,-6],[-50,-73],[-63,-56],[42,-27],[21,-53],[-12,-14],[-118,-1],[-34,24],[-7,17],[-30,17],[-83,-17],[-12,-14],[0,-31],[-16,-37],[-34,-5],[20,-51],[36,9],[14,-24],[7,-51],[-13,-17],[-28,-8],[-40,30],[-96,-28],[-85,39],[2,22],[-9,86],[-36,74],[-37,59],[-33,35],[-66,21],[-67,9],[-58,73],[-63,62]],[[6421,3300],[-42,107],[-21,78],[-25,206],[-14,44]],[[7067,3468],[30,-41],[19,-129],[8,-23],[75,-54],[43,-7],[-30,58],[-7,47],[-5,126],[-32,31],[3,102],[-13,4],[-1,-108],[-90,-6]],[[6386,4279],[-62,-55],[-20,-27],[-93,-164],[-13,-72]],[[6198,3961],[7,-45],[25,-50],[80,-112],[9,-19]],[[6421,3300],[5,-28],[-6,-66],[-115,-347],[-15,-30],[-26,-30]],[[6264,2799],[-37,12],[-44,-6],[-46,25],[-67,24],[-74,14],[-68,38],[-34,40],[-37,79],[-32,17],[-64,18],[-38,1],[-57,12],[-60,0],[-35,49],[-30,15],[-18,35],[-29,13],[-37,58],[-10,59],[-35,43],[-1,34],[-11,33],[-24,39],[-5,71],[15,61],[52,45],[54,79],[65,45],[55,19],[38,26],[36,33],[12,32],[1,32],[27,66],[0,21],[-16,40],[-26,27],[-14,41],[14,31],[-24,31],[-33,1],[-31,-9],[-53,-40],[-51,-24],[-47,4],[-60,39],[-27,26],[-7,42],[-38,19],[-40,57]],[[5273,4266],[3,27],[-22,42],[-4,87],[-24,9],[180,296],[15,22],[-58,48],[-29,14],[26,73],[38,37],[35,16],[152,39]],[[4878,1363],[19,-18],[36,8],[18,33],[44,40],[62,44],[15,15],[5,21],[-28,39],[-41,30],[-30,43],[-15,43],[6,30],[56,21],[53,31],[26,0],[29,-13],[32,-38],[24,-8],[19,-1],[23,24],[27,6],[11,-17],[45,69],[44,160],[40,163],[80,295],[16,38],[33,36],[115,93],[54,29],[84,29],[36,8],[105,11],[66,13],[43,19],[216,127],[18,13]],[[8489,4446],[394,177],[235,120],[32,13],[128,38]],[[9278,4794],[243,72],[38,2],[71,-13],[6,-50],[-4,-28],[31,-7],[11,20],[26,15],[8,-30],[28,-25],[63,-69],[9,-27],[49,-52],[27,27],[25,10],[14,-16],[-28,-30],[49,-15],[5,40],[48,-21],[15,-26],[1,-25],[27,-2],[-11,-56],[45,-23],[26,5],[28,-26],[-15,-35],[-28,0],[-8,-24],[23,-47],[18,3],[22,35],[18,0],[13,-26],[-29,-38],[2,-15],[79,-16],[6,-16],[-39,-25],[12,-55],[23,-8],[25,27],[57,10],[15,-12],[-6,-30],[-20,-38],[25,-15],[36,37],[-4,72],[41,-2],[14,-23],[-12,-52],[20,-3],[52,32],[19,-11],[0,-37],[51,-3],[27,16],[116,99],[97,101],[73,67],[77,80],[163,161]],[[11091,4653],[76,-72]],[[11167,4581],[-193,-193],[-14,-35],[-5,-54],[6,-34],[44,-51],[40,-85],[28,-90],[13,-105],[-7,-92],[-25,-67],[-103,-158],[-76,-71],[-201,-138],[-64,-49],[-114,-102],[-69,-76],[-20,-26],[-29,-57],[-14,-51],[-24,-218],[7,-37],[26,-19],[45,13],[147,130],[38,16],[32,-2],[135,-48],[42,1],[32,18],[89,84]],[[10933,2985],[-43,-62],[-39,-82],[-14,-51],[2,-70],[-23,-90],[-19,-38],[-57,-93],[-16,-72],[-33,-38],[-113,11],[-59,-19],[-106,-77],[-32,-34],[-54,-112],[-8,-127],[-20,-62],[-49,-90],[-27,-91],[-16,-91],[-23,-66],[-41,-58],[-17,-34],[-35,-98],[-144,-171],[-97,-71],[-65,-30],[-29,-5],[-129,-37],[-59,-10],[-67,-21],[-68,-1],[-27,12],[-66,13],[-1,10],[-45,18],[-41,43],[-92,60],[-78,73],[-39,52],[-51,92],[-28,35],[-68,49],[-86,31],[-117,29],[-49,7],[-43,-1],[-89,-20],[-45,-23],[-47,-45],[-26,-60],[-9,-87],[19,-102],[44,-126],[23,-134],[3,-72],[-26,-81],[-32,-56],[-87,-116],[-52,-54],[-45,-38],[-120,-154],[-101,-141],[-53,-52],[-24,-7],[-34,-32],[-82,-87],[-35,-43],[-53,-48],[-80,-35],[-46,-5],[-62,10],[-158,18],[-42,32],[30,40],[51,24],[-13,32],[-78,20],[-43,22],[-37,40],[-14,25],[4,23],[19,14],[75,21],[36,24],[25,30],[14,31],[-6,35],[-25,28],[-38,17],[-63,17],[-32,48],[6,51],[10,24],[7,61],[9,25],[59,67],[16,33],[-1,28],[-19,52],[-20,32],[-13,38],[9,42],[66,46],[33,28],[17,44],[-10,22],[-26,17],[-80,28],[-39,25],[-22,39],[-8,46],[-4,71],[-25,49],[-84,67],[-14,18],[-28,64],[-58,188],[-28,42],[-58,46],[-71,38],[-54,17],[-47,4],[-130,28],[-32,-9],[-47,-43],[-60,-42],[7,-42],[-7,-33],[-44,-49],[-61,-33],[-34,-41],[-42,-40],[1,-40],[-20,-19],[-51,-21],[-108,1],[-57,-35],[-19,-28],[-40,-18],[-77,-68],[1,-40],[-28,-20],[-49,79],[-46,9],[-22,-21],[3,-95],[-9,-44],[-21,-40],[-37,-53],[-52,-33],[-56,-4],[-44,-34],[-51,-54],[-28,-18],[-36,23],[-25,43],[-35,17],[-85,8],[-102,-52],[-35,-9],[-84,-44],[-38,-9],[-67,0],[-39,18],[-44,30],[-73,40],[-10,13],[10,32],[33,21],[20,30],[9,43],[-11,48],[-69,71],[-4,38],[16,7],[36,-8]],[[6386,4279],[11,-73],[72,-119],[30,-47],[-77,-45],[-13,15],[-100,-25],[-111,-24]],[[11167,4581],[608,-525],[177,-184],[177,-159],[108,-83],[87,-51],[-108,-8],[-95,-16],[-108,-27],[-85,-24],[-99,-35],[-207,-81],[-149,-68],[-142,-70],[-97,-52],[-93,-55],[-141,-101],[-67,-57]],[[2650,6690],[46,107],[13,42],[49,246],[8,25],[32,59],[92,58],[68,81],[164,123]],[[3122,7431],[52,-38],[30,-42],[6,-39],[66,-47],[31,-35],[7,-48],[39,-118],[15,-70],[9,-14],[-4,-44],[-22,-58],[-11,-63],[17,-34],[13,-47],[44,-22],[36,-4],[42,18],[37,-5],[-39,-40],[-46,-30],[-56,-71],[-70,-41],[-36,-7],[90,-56],[274,-273],[26,-43],[70,-192],[35,-58],[37,-33],[197,-157],[-49,-32],[41,-58],[7,-44],[-8,-41],[99,-73],[64,-36],[35,-36],[47,-87],[5,-26],[31,-13],[12,-33],[-19,-28],[7,-24],[30,-19],[15,-40],[44,-48],[9,-58],[12,-28],[26,-31],[1,-20],[-17,-35],[2,-15],[-21,-55],[-44,-23],[45,-45],[6,-67],[-14,-35],[2,-47],[9,-32],[7,-65],[18,-75],[18,-25],[76,-49],[140,-1],[60,-22],[42,-39],[67,-51],[9,-69],[30,-53],[30,-14],[69,0],[25,-21],[34,17],[14,22],[56,51],[35,2],[23,16],[44,14],[33,30],[25,-5],[30,12]],[[4878,1363],[27,-16],[18,4],[29,44],[30,28],[45,29],[39,31],[6,23],[-13,20],[-46,36],[-36,51],[-17,56],[-3,21],[9,11],[45,7],[41,31],[26,9],[42,-2],[48,-49],[13,-9],[31,0],[10,18],[-43,53],[-14,47],[2,30],[17,25],[2,44],[-17,53],[-17,27],[-22,12],[-39,-3],[-10,29],[54,61],[11,26],[-16,101],[5,70],[-14,10],[-46,-26],[-18,16],[2,36],[61,137],[10,84],[-37,7],[-48,-15],[-53,3],[-40,15],[-23,27],[-13,38],[-16,71],[-20,58],[-12,67],[-20,25],[-50,18],[-90,-5],[-49,17],[-12,-9],[1,-60],[-31,-40],[-29,-22],[-46,-1],[-59,37],[-59,66],[-21,10],[-19,-13],[3,-22],[34,-43],[38,-27],[6,-29],[-26,-35],[-59,-30],[-35,-4],[-32,8],[-55,32],[-31,27],[-16,-9],[6,-50],[-4,-41],[-19,-29],[-45,-7],[-35,18],[-11,-42],[-19,-27],[-56,-13],[7,-42],[-11,-24],[-29,-11],[-30,50],[-47,41],[-45,77],[-30,16],[-44,-8],[-35,-31],[-46,-77],[-17,-9],[-36,29],[-52,4],[-24,-18],[-35,-44],[-31,-7],[-36,6],[-34,30],[-13,30],[-22,152],[-23,70],[-15,25],[-35,7],[-30,-27],[-35,-51],[-49,-47],[-34,-19],[-38,8],[-36,32],[-31,7],[-71,-3],[-46,5],[-74,19],[-81,11],[-31,-7],[-40,-35],[-33,-66],[-9,-40],[-15,-23],[-51,-17],[-77,2],[-81,20],[-55,19],[-51,32],[-68,62],[-74,54],[-32,48],[-35,119],[-22,42],[6,51],[24,25],[17,-2],[62,-40],[29,15],[-16,43],[-66,70],[-10,29],[29,27],[51,2],[71,-21],[33,1],[-6,37],[-105,39],[-38,35],[20,25],[46,-44],[22,-11],[27,12],[-49,37],[-40,53],[-7,51],[12,25],[55,42],[39,64],[-41,30],[-28,32],[-39,133],[17,23],[53,19],[0,24],[-31,37],[-20,49],[-8,49],[-13,19],[-81,5],[-35,7],[-56,-13],[-45,-42],[-51,-1],[-16,35],[5,36],[23,51],[35,38],[20,36],[21,61],[24,54],[-8,31],[-18,22],[-49,33],[-28,25],[-50,70],[-9,1]],[[1924,4349],[105,119],[18,32],[13,48],[1,33],[-1,340],[9,93],[86,350],[11,35],[169,424],[17,60],[6,51],[6,142],[22,68],[80,128],[184,418]],[[3459,7777],[15,22],[85,60],[29,9],[66,-3],[148,90],[102,-26],[84,-39],[29,-3],[63,30],[84,-4],[77,-81],[18,-36],[-3,-71],[45,-66],[7,-53],[1,-95],[18,-31],[22,-54],[0,-87],[-6,-43],[13,-35],[56,-87],[47,-49],[50,-2],[22,-31],[78,-38],[30,-33],[19,-40],[83,-75],[40,-11],[44,-43],[-5,-66],[50,-82],[53,-51],[-53,-129],[10,-60],[-7,-32],[43,-60],[90,22],[59,39],[46,41],[65,30],[34,41],[64,33],[19,-4],[24,17],[40,48],[68,0],[54,-35],[69,-9],[30,-33],[63,-34],[68,3],[36,-5],[40,-18],[44,1],[128,-33],[60,-28],[72,-29],[8,33],[31,82],[28,42]],[[6156,6576],[29,-42],[0,-46],[-24,-34],[-3,-19],[-26,-16],[-1,-40],[17,-35],[13,-44],[0,-34],[37,-41],[26,-46],[-1,-53],[-10,-15],[-12,-53],[-11,-93],[9,-36],[-9,-41]],[[3122,7431],[72,53],[74,47],[153,120],[14,13],[64,91],[-40,22]],[[1248,8758],[10,-18],[154,-308],[37,-75],[50,-118],[20,-24],[189,-186],[46,-76],[60,-67],[11,-23],[100,-451],[67,-230],[23,-43],[67,-46],[29,-29],[11,-24],[57,-168],[41,-64],[121,-92],[41,-10],[31,9],[115,1],[39,-6],[63,-20],[20,0]],[[1924,4349],[-33,30],[-41,5],[-95,-11],[-41,1],[-50,14],[-40,24],[-31,29],[-126,78],[-92,39],[-95,30],[-43,21],[-155,100],[-77,24],[-91,45],[-87,78],[-107,77],[-73,61],[-46,29],[-216,107],[-146,80],[-79,36],[-37,23],[-36,45],[-35,112],[-42,112],[-10,97],[6,59],[22,15],[90,22],[19,15],[22,36],[17,64],[41,94],[35,33],[76,14],[178,10],[74,15],[55,24],[116,95],[62,30],[87,25],[76,15],[70,7],[94,-6],[98,-15],[83,-7],[103,-37],[43,6],[24,13],[62,56],[110,81],[8,35],[-11,57],[-23,29],[-46,26],[-98,4],[-64,17],[-89,35],[-27,18],[-12,23],[4,30],[14,14],[55,13],[74,0],[49,10],[5,42],[-20,12],[-137,3],[-64,9],[-28,21],[-1,59],[46,83],[25,70],[-5,42],[-23,30],[-27,12],[-57,10],[-49,20],[-79,24],[-18,17],[-12,59],[8,56],[-23,74],[1,51],[19,43],[52,91],[-2,32],[-23,14],[-61,-17],[-107,-35],[-51,19],[-16,23],[-30,97],[-44,74],[-37,33],[-28,15],[-33,6],[-55,-21],[-40,27],[-20,36],[-33,16],[-16,31],[26,14],[7,36],[-29,55],[-10,45],[-25,21],[9,35],[5,65],[59,40],[8,22],[0,43],[-13,53],[15,10],[21,47],[-1,50],[-63,86],[-17,75],[2,41],[59,48],[40,15],[22,42],[18,9],[29,-30],[17,-4],[55,29],[98,7],[39,26],[30,2],[41,-19],[49,1],[38,46],[49,32],[57,10],[47,-3],[28,19],[24,2]],[[2886,9272],[1159,-31]],[[4045,9241],[-95,-203],[-17,-29],[-626,-993]],[[3307,8016],[-22,141],[-16,117],[-38,119],[6,92],[20,47],[54,47],[29,38],[8,50],[13,42],[58,105],[-48,24],[-36,11],[-81,0],[-22,4],[-28,34],[-7,63],[-18,92],[-30,21],[-129,70],[-40,30],[-60,7],[-31,23],[-26,7],[19,46],[4,26]],[[7417,8174],[61,5],[127,74],[73,77],[46,64],[67,42],[52,75],[64,79],[101,110],[16,34],[44,38],[118,141],[134,170],[42,45],[29,23],[47,55]],[[8438,9206],[21,-17],[53,-66],[87,-43],[79,-73],[99,-29],[86,-62],[104,-48],[75,-69],[41,-44],[100,-64],[-36,-55],[19,-37],[0,-39],[20,-58],[20,-23],[39,-25],[16,-86],[6,-91],[26,-7],[117,4],[44,25],[27,-27],[50,-28],[-25,-79],[-28,-111],[-27,-124]],[[9451,7930],[-38,-177],[-68,-164],[-13,-42],[-34,-143],[15,-30],[39,-31],[-144,-285],[-98,-14]],[[9110,7044],[-134,-21],[-58,38],[-134,21],[-239,35],[-115,-12],[-20,-6],[-119,-106],[-42,-12],[-128,-12],[-66,-13],[-127,21],[-35,28]],[[7893,7005],[45,54],[19,42],[26,40],[60,60],[-111,430],[-11,72],[-2,80],[-23,156],[-60,-2],[-50,-14],[-25,-15],[-46,-47],[-15,-5],[-48,33],[-29,11],[-93,66],[-64,75],[-49,133]],[[7700,5913],[29,143],[-8,148],[-30,189],[1,40],[27,152],[9,65],[20,57],[12,68],[62,123],[71,107]],[[9110,7044],[-3,-115],[23,-172],[3,-101],[5,-25],[96,-216],[37,-86],[-5,-79],[-8,-45],[-4,-216],[9,-40],[49,-121],[72,11],[-9,-36],[-32,-77],[-29,-98],[-25,-50],[-10,-53],[2,-30],[23,-87],[-24,-44],[-47,-55],[-13,-49],[2,-57],[30,-141],[1,-65],[15,-46],[-8,-70],[1,-28],[17,-59]],[[8371,9292],[453,3],[746,3],[758,5],[282,0],[-49,-64],[-47,-90],[-35,-95],[-30,-69],[-48,-62],[-90,-54],[-63,-56],[-56,-87],[-32,-95],[-6,-150],[11,-174],[-24,-114],[-35,-125],[-1,-52]],[[10105,8016],[-295,3],[-39,7],[-19,12],[-31,50],[-12,3],[-21,45],[-41,7],[-20,-168],[-7,-23],[-27,-24],[-18,-5],[-124,7]],[[8438,9206],[-27,23],[-40,63]],[[6156,6576],[47,61],[65,131],[73,227],[14,55],[-1,76],[-10,33],[-30,44],[-54,60],[-22,31],[-20,73],[-5,103],[2,46],[20,113],[16,61],[20,50],[42,89]],[[6313,7829],[84,35],[22,2],[102,-15],[51,-12],[34,0],[89,48],[100,18],[55,23],[32,2],[94,-9],[132,14],[57,2],[39,9],[56,29],[45,49],[0,35],[19,53],[93,62]],[[1248,8758],[71,3],[52,-16],[23,-35],[48,-26],[39,3],[95,-26],[52,11],[70,-2],[-4,64],[334,614],[13,15],[263,-48],[169,-33],[413,-10]],[[3307,8016],[15,-68],[60,-76],[39,-73],[38,-22]],[[6313,7829],[9,41],[20,206],[9,140],[20,59],[149,222],[19,40],[16,62],[9,81],[24,57],[54,73],[18,42],[-3,55],[-88,313],[-12,31]],[[6557,9251],[96,-9],[165,-18],[79,10],[224,34],[129,18],[496,2],[625,4]],[[4045,9241],[464,-12],[372,-11],[576,-16],[150,21],[230,43],[15,-2],[237,-83],[468,70]],[[10105,8016],[-2,-64],[-11,-213],[-6,-271],[6,-173],[33,-169],[25,-105],[42,-115],[72,-158],[250,-491],[22,-57],[22,-103],[1,-88],[-12,-281],[6,-99],[18,-91],[24,-72],[48,-110],[152,-279],[119,-203],[107,-155],[70,-66]]],"transform":{"scale":[0.00005856694255112075,0.00004642870874719615],"translate":[-77.327993,35.811866]},"objects":{"Geometry\\37-015":{"type":"GeometryCollection","geometries":[{"arcs":[[0,1,2,3,4]],"type":"Polygon","properties":{"GEOID":"370159604011"}},{"arcs":[[5,6,7,8],[9]],"type":"Polygon","properties":{"GEOID":"370159604021"}},{"arcs":[[-5,10,11,-9,12,13,14]],"type":"Polygon","properties":{"GEOID":"370159604014"}},{"arcs":[[15,-13,-8,16,17,18,19,20]],"type":"Polygon","properties":{"GEOID":"370159604022"}},{"arcs":[[21,-11]],"type":"Polygon","properties":{"GEOID":"370159604013"}},{"arcs":[[-22,-4,-6,-12]],"type":"Polygon","properties":{"GEOID":"370159604012"}},{"arcs":[[-10]],"type":"Polygon","properties":{"GEOID":"370159604023"}},{"arcs":[[22,-20]],"type":"Polygon","properties":{"GEOID":"370159604020"}},{"arcs":[[23,24,-14,-16,25,26]],"type":"Polygon","properties":{"GEOID":"370159603003"}},{"arcs":[[27,28,-1,-15,-25,29]],"type":"Polygon","properties":{"GEOID":"370159602003"}},{"arcs":[[30,-27,31]],"type":"Polygon","properties":{"GEOID":"370159603002"}},{"arcs":[[32,33,34]],"type":"Polygon","properties":{"GEOID":"370159602001"}},{"arcs":[[35,36,37,38,39]],"type":"Polygon","properties":{"GEOID":"370159601002"}},{"arcs":[[40,-39,41,-17,-7,-3]],"type":"Polygon","properties":{"GEOID":"370159601005"}},{"arcs":[[42,43,-37,44]],"type":"Polygon","properties":{"GEOID":"370159601001"}},{"arcs":[[45,46,-40,-41,-2,-29]],"type":"Polygon","properties":{"GEOID":"370159601004"}},{"arcs":[[47,-35,48,-30,-24,-31]],"type":"Polygon","properties":{"GEOID":"370159603001"}},{"arcs":[[49,50,-45,-36,-47]],"type":"Polygon","properties":{"GEOID":"370159601003"}},{"arcs":[[-34,51,-50,-46,-28,-49]],"type":"Polygon","properties":{"GEOID":"370159602002"}},{"arcs":[[-38,-44,52,-18,-42]],"type":"Polygon","properties":{"GEOID":"370159601006"}}]}}}