{"type":"Topology","arcs":[[[482,2487],[114,424],[113,413],[286,1051],[-53,847]],[[942,5222],[70,-23],[46,3],[19,8],[59,43],[16,21],[3,44],[76,18],[106,37],[58,11],[56,19],[55,12],[34,13],[17,-54],[14,-74],[59,21],[36,19],[45,39],[44,20],[40,5],[47,-13],[26,46],[54,19],[24,-6],[47,9],[25,17],[38,-7],[19,4],[36,33],[58,-20],[32,0],[94,19],[69,8]],[[2364,5513],[162,-514],[82,-6],[19,3],[92,48],[35,14],[50,-69],[68,-4],[50,-25],[20,-39],[28,-36],[90,-70],[9,-19],[50,-49],[23,-46],[14,-62],[0,-34],[8,-29]],[[3164,4576],[-35,-30],[-72,-83],[-41,-41],[-139,-119],[-42,-49],[-131,-39]],[[2704,4215],[-104,-31],[-13,-10],[-232,-270],[-44,-48],[-63,-40],[-44,-49],[-10,-17],[-28,-79],[-30,-43],[-27,-15],[-88,-37],[-44,-40],[-75,-152],[-19,-29],[-73,-46],[-133,-135],[-16,-25],[-44,-144],[-24,-26],[-68,-39],[-211,-96],[-166,-57],[-20,-9],[-147,-108],[-40,-18],[-38,-9],[-65,12],[-97,-9],[-97,-21],[-23,-14],[-96,-94],[-43,-30]],[[5870,1482],[28,-10],[6,-29],[23,14],[-12,19],[10,47],[-11,31],[15,14],[33,6],[-10,26],[31,2],[22,29],[2,27],[-15,22],[43,9],[25,-11],[6,-21],[18,-12],[11,28],[17,2],[27,-17],[14,33],[19,1],[8,-34],[68,2],[23,11],[-16,23],[26,4],[42,-53],[58,-12],[9,36],[29,11],[11,22],[-25,20],[11,17],[23,-21],[33,-3],[14,12],[-35,26],[-7,38],[38,1],[36,-15],[-6,-31],[48,-2],[21,8],[-1,-34],[12,-25],[31,10],[15,39],[16,7],[33,-23],[-6,-60],[10,-10],[60,29],[80,21],[73,0],[30,-24],[19,-31],[23,29]],[[6976,1680],[26,-58],[21,-21],[169,-57],[96,-41],[60,-13],[117,-35],[87,51],[32,8],[51,-12],[87,-15],[75,9],[116,38],[97,38],[17,65],[25,43],[29,28]],[[8081,1708],[21,-12],[65,8],[-11,-21],[-9,-42],[6,-18],[-23,-41],[9,-13],[-15,-47],[21,-56],[13,-15],[67,-13],[34,-11],[58,13],[29,-21],[23,2],[49,14],[31,-11],[8,-15],[4,-66],[9,-37],[24,-43],[23,-62],[28,-22],[49,-12],[70,30],[30,-2],[45,-36],[29,-6],[-6,-32],[35,-45],[143,-65],[94,-16],[65,-66],[98,-16],[26,66],[61,28],[149,-4],[17,90],[27,5],[50,87],[17,13],[65,23],[16,21],[-19,52],[7,26],[-5,64],[-49,47],[-27,87],[2,21],[27,25],[13,32],[-22,60],[19,37],[-8,42],[14,41],[58,27],[83,-1],[32,17],[25,53],[5,63],[44,12],[44,33],[40,2],[56,22],[63,1],[25,-15],[18,10]],[[10070,2000],[-32,-309],[-11,-556],[-7,-476],[-6,-423],[-565,-3],[-989,-5],[-642,-5],[-288,1],[-1221,0],[-807,-3],[-150,-4]],[[5352,217],[1,20],[37,66],[24,5],[19,19],[-12,27],[0,42],[-57,69],[-47,16],[-43,40],[-35,7],[-54,-7],[-32,15],[-9,33],[8,32],[22,29],[60,32],[28,34],[29,15],[6,34],[20,22],[11,34],[36,-10],[-1,-103],[47,-44],[36,-14],[25,18],[36,-8],[13,24],[24,15],[-42,30],[-30,32],[-1,21],[21,44],[-26,68],[-43,28],[21,51],[35,9],[1,24],[-14,18],[-1,40],[9,6],[37,-19],[-19,-24],[44,-29],[23,0],[-12,62],[15,17],[26,-22],[13,3],[36,72],[36,-40],[55,12],[-1,28],[28,12],[-38,142],[32,33],[32,18],[25,61],[-5,32],[17,23],[-4,41],[18,10],[38,0]],[[8081,1708],[27,27],[22,11],[52,6],[112,154],[65,92],[9,27],[4,55],[-5,71],[13,41],[33,34],[11,35],[-25,158],[-2,60],[-50,117],[-38,99],[-25,118],[-2,22],[11,145],[-9,84],[-1,45],[192,23],[32,11],[29,27],[113,160],[22,18]],[[8671,3348],[57,8]],[[8728,3356],[53,0],[220,-20],[130,-9],[89,-16],[546,-200],[157,-56],[74,-4],[25,-7],[264,-99]],[[10286,2945],[-213,-911],[-3,-34]],[[356,2073],[27,102],[99,312]],[[2704,4215],[32,-100],[2,-28],[-21,-248],[-1,-133],[-32,-122],[-6,-57],[-23,-68],[-25,-34]],[[2630,3425],[-30,-39],[-109,-227],[-50,-91],[-33,-82],[-28,-118]],[[2380,2868],[-30,-37],[-35,-59],[-44,-100],[-31,-37],[-30,-68],[-13,-19],[-89,-64],[-24,3],[-180,-9],[-16,2],[-112,-110],[-17,-31],[-3,-45],[-28,-26],[-56,-9]],[[1672,2259],[-147,-62],[-20,17],[-5,29],[-18,31],[-22,13],[-62,18],[-37,-1],[-202,-50],[-105,-57],[-34,-23],[-30,-4],[-35,5],[-125,3],[-78,-21],[-38,-17],[-143,-93],[-42,-17],[-39,-2],[-60,11],[-74,34]],[[7072,2929],[44,-10],[30,18],[35,-3],[28,-17],[53,28],[32,-23],[55,-50],[55,-19],[29,5],[34,-43],[35,4],[48,-10],[42,36],[12,-1],[22,36],[-11,46],[-18,9],[0,37],[19,7],[45,-3],[27,17],[24,33],[28,1],[11,-14],[78,18],[46,19],[88,-3],[76,42],[40,42],[8,48],[-18,40],[5,20],[20,14],[47,12],[21,26],[34,80],[46,-22],[30,1],[17,29],[39,20],[71,-9],[19,18],[48,15],[1,-34],[17,-34],[27,-20],[28,1],[128,15],[4,-3]],[[6976,1680],[8,53],[28,34],[-4,19],[-51,9],[26,45],[8,36],[34,2],[10,81],[-10,44],[5,25],[-15,9],[-49,118],[-12,13],[24,34],[-14,28],[22,9],[11,32],[24,-4],[2,26],[24,22],[26,-15],[20,71],[-4,48],[-35,46],[-11,30],[16,104],[24,93],[-7,43]],[[7076,2735],[-12,10],[-41,-9],[-52,-1],[-30,47]],[[6941,2782],[5,38],[38,17],[5,30],[28,35],[36,4],[19,23]],[[8763,5354],[99,90],[53,38],[205,108],[125,47],[40,26],[22,29],[97,185],[43,53],[160,125],[113,104],[38,31],[51,30]],[[9809,6220],[308,-221],[-102,-63],[516,-696],[44,-387]],[[10575,4853],[-626,-149],[-216,-52],[-62,-2],[-574,75]],[[9097,4725],[-113,15]],[[8984,4740],[14,30],[2,29],[-11,32],[-47,115],[-24,28],[-48,26],[-23,22],[-9,60],[-24,33],[-201,103],[150,136]],[[782,7877],[77,-151],[41,38],[10,-11],[1,-60],[-6,-34],[27,-81],[14,-17],[31,-8],[128,17]],[[1105,7570],[31,-64],[35,-101],[15,-28],[71,-82],[22,-13],[66,-12],[14,-14],[10,-78],[25,-40],[22,-104],[56,-89],[35,-60],[27,-61],[55,-110],[64,-31],[74,-65],[49,-26],[56,-14],[135,56],[-7,23],[39,12]],[[1999,6669],[24,-105]],[[2023,6564],[-328,-100],[-8,-1],[-349,-18],[-355,-5],[-116,6]],[[867,6446],[-57,946],[-28,485]],[[3354,745],[40,-12]],[[3394,733],[129,-59],[59,-42],[105,-90],[47,-24],[41,2],[139,41]],[[3914,561],[129,-408]],[[4043,153],[-38,-20],[-88,53],[1,30],[-22,27],[-19,5],[-56,44],[-44,22],[19,26],[-11,22],[-43,20],[-17,-19],[-42,2],[-6,11],[14,44],[-30,1],[-26,30],[20,28],[-33,7],[-31,24],[-36,-29],[-11,22],[-18,-15],[-38,12],[-50,-29],[-18,2],[-38,-13],[-16,-65],[-15,-26],[-19,-12],[-17,16],[-38,3],[-17,-45],[-22,5],[-3,42],[-28,15],[-43,-15],[-15,-19],[-15,19],[-40,0],[-20,-12],[-20,30],[-17,-20],[-35,-4]],[[3002,372],[-6,24],[-23,16],[9,18],[66,18],[56,-8],[36,8],[28,24],[16,65],[165,192],[5,16]],[[3286,6844],[91,21],[65,8],[114,3],[187,-5],[17,1],[-107,280],[-30,49]],[[3623,7201],[47,27],[23,-20],[40,-17],[15,4],[30,-23],[40,-7],[37,9],[39,22],[54,1],[19,-9],[43,5],[67,34],[16,18],[-11,14],[17,17],[7,27],[16,8],[13,34],[3,44],[11,13],[7,36],[30,23],[46,62],[-3,19],[39,13],[47,7],[39,-3],[62,27],[56,16],[75,1],[25,6],[14,27],[44,5],[34,17],[51,-3],[20,22],[1,24],[-16,40],[-9,45],[4,32],[19,28],[54,27],[41,39]],[[4829,7912],[11,-25],[28,-26]],[[4868,7861],[-8,-63],[1,-25],[14,-39],[2,-60],[29,-174],[-5,-32],[-31,-74],[0,-73],[9,-38],[27,-50],[17,-52],[30,-57],[32,-113],[9,-20],[40,-55],[38,-26],[28,-34],[28,-130],[-7,-91],[-5,-147],[23,-131],[6,-14]],[[5145,6363],[-121,-197],[-20,-60],[-32,-3],[-308,-137],[-15,-11],[-16,-35]],[[4633,5920],[-29,-5],[-9,-12],[-26,2],[-46,-11],[-19,-20],[-36,-11],[0,-21],[-24,0],[-29,15],[-14,-26],[-52,-36],[-27,13],[-34,-50],[-31,-54],[16,-62]],[[4273,5642],[-94,8],[-23,5],[-168,54],[-14,6],[-395,242],[-142,77]],[[3437,6034],[108,162],[84,92],[17,30],[-6,45],[-143,214],[-36,23],[-34,-1],[-32,-11],[-33,0],[-36,24],[-54,82],[-9,22],[2,29],[23,64],[-2,35]],[[4210,5111],[10,137]],[[4220,5248],[116,13],[90,32],[51,3],[33,-10],[55,44],[18,92],[84,36],[14,9],[33,46],[30,25],[98,63],[32,11],[63,10],[42,-4],[33,8],[24,20],[18,35],[14,52],[-2,21],[17,13],[10,69],[-2,33],[-13,20],[11,31],[-20,5],[-31,-16],[-62,-3],[-69,-33],[-36,8],[-48,-1],[-29,9],[-23,-3],[-43,5],[-12,12],[-41,-1],[-42,18]],[[5145,6363],[9,14],[73,74],[22,15],[49,14],[16,11],[268,239],[29,16],[366,122],[26,6],[268,34],[41,16],[78,45],[164,126],[62,59],[70,57],[10,12]],[[6696,7223],[34,-13],[39,-44],[39,-2]],[[6808,7164],[6,-12],[-18,-108],[13,-28],[-12,-44],[-2,-50],[33,-58],[10,-51],[-23,-27],[-14,-3],[-40,-82],[-12,13],[-27,-38],[-7,-93],[-23,-65],[-25,-32],[-33,0],[-1,-32],[12,-27],[-5,-26],[-22,-38],[-50,-41],[-4,-15],[-52,-46],[34,-29],[-41,-33],[19,-18],[-5,-21],[-28,-20]],[[6491,6140],[-66,-35],[-11,1],[-33,-24],[-4,-29],[-27,-6],[-16,-39],[-22,-83],[20,-9],[31,39],[11,-8],[3,-31],[-18,-14],[12,-21],[-23,-43],[25,-1],[26,-13],[-1,-18],[32,-27],[13,-35],[-16,-13],[10,-27],[30,-15],[-4,-28],[16,-71],[-26,-13],[12,-41],[-18,-20],[41,-39],[-4,-48],[22,-36],[33,-13],[25,-48],[-22,-26],[-20,-58],[12,-62],[17,-8],[-4,-30]],[[6547,5148],[-13,-27],[-25,1],[-3,-16],[-28,-47],[14,-40],[-8,-13],[-9,-63],[-21,-31],[-21,11],[-14,-17],[15,-28],[-33,-15],[-6,-24],[22,-53],[16,-14],[31,-8],[-5,-23],[26,-7],[-10,-40],[33,-7],[1,-44],[30,-4],[-2,-16],[26,-11],[8,-25],[22,5],[43,-9],[24,20],[23,-39],[56,12],[16,-6],[11,-30],[29,-4],[0,-24],[28,0],[23,24],[15,-42],[17,-3],[25,-27],[22,-36],[-28,-8],[-6,-61],[-39,-30],[-14,-30],[8,-17],[30,-4],[-17,-24],[-27,-6],[-10,-18],[31,-49],[6,-36],[22,10],[11,-15],[53,-22],[9,-60],[22,-33],[30,-7],[22,34],[15,-20],[-20,-23],[-19,-57],[47,20],[9,-15],[-9,-26],[10,-22],[22,-22],[-22,-14],[42,-50],[3,-28],[-33,-19],[12,-18],[29,-71],[-8,-17],[-5,-50],[-28,-20],[-5,-19],[19,-21],[6,-26],[-10,-57],[-26,9],[-77,-17],[-4,-59],[-28,-52],[102,-57],[-2,-25],[-21,-16],[-32,18],[-61,-21],[-32,7],[-46,-15],[4,-27],[-36,-9],[-8,-27],[11,-22],[-33,-35],[-2,-17],[20,-29],[-60,-11],[-16,-107],[-17,-47]],[[6719,2918],[-9,51],[-39,40],[-16,40],[-30,8],[-14,20],[-42,31],[4,31],[-12,21],[-1,57],[5,18],[38,89],[41,26],[15,120],[-15,29],[-20,-5],[-21,13],[-58,52],[-28,43],[-12,0],[-17,28],[-51,14],[-48,47],[-9,24],[-54,23],[-55,-22],[-35,-2],[-21,16],[-53,-10],[-102,52],[-17,25],[-31,20],[-40,-1],[-21,16],[-22,-11],[-18,8],[-48,-20],[-34,-7],[-7,-10],[-50,-32],[-17,4],[-21,-15],[-28,-7],[2,-24],[-19,-27],[-61,-29],[-2,-15],[-37,-28],[-21,-3],[-6,-24],[-75,-26],[-19,-25],[-26,-66],[-24,-19],[-11,-28],[-19,-17],[-9,-23],[-49,-17],[-50,-11],[-39,30],[-29,61],[-35,27],[-124,52],[-15,-2],[-40,47],[-77,40],[-60,9],[-26,-2],[-62,-17],[5,-19],[-22,-23],[-20,10],[-10,-17],[-64,14],[-68,3],[-17,-19],[-29,27],[-41,-5],[-28,12]],[[4479,3588],[-22,94],[-17,27],[-79,81],[-14,28],[-21,89],[4,49],[-15,73],[-96,260],[-9,29],[-30,156],[-3,49],[33,588]],[[4220,5248],[10,118],[5,27],[17,29],[116,164],[-10,49],[-85,7]],[[4868,7861],[19,-3],[27,-47],[27,2],[37,19],[1,42],[47,86],[69,-82],[28,-78],[33,4],[42,-31],[33,-9],[42,0],[142,-152],[121,29],[17,-25],[18,-4],[34,18],[40,9],[2,18],[35,-8],[13,-15],[-7,-19],[80,-45],[27,-30],[1,-11],[49,-7],[64,28],[20,-5],[27,-27],[37,7],[13,30],[33,15],[27,23],[103,-106],[52,22],[33,-5],[59,13],[47,-5],[19,-8],[48,2],[26,-43],[34,-10],[18,10],[32,-4],[8,-35],[28,-24],[17,-27],[63,-14],[6,-20],[31,-12],[-13,-29],[19,-75]],[[2364,5513],[70,32],[38,64],[28,22],[124,49],[22,14],[47,46],[101,74],[44,40],[91,31],[31,20],[92,114],[23,54],[4,151]],[[3079,6224],[358,-190]],[[4210,5111],[-159,-45],[-383,-109],[-41,-15],[-66,-38],[-45,-37],[-118,-118],[-55,-44],[-179,-129]],[[668,10657],[12,252],[589,-117],[1073,-215],[169,106]],[[2511,10683],[118,-90],[67,-115],[5,-22],[4,-232],[-18,-243],[2,-33],[16,-72],[46,-125]],[[2751,9751],[-12,-1],[-195,51],[-53,3],[-22,-7],[-234,-139],[-29,-21],[-35,-40],[-39,-60],[-62,-86],[-28,-63],[-27,0],[-15,-15],[-47,-2],[-37,-8],[-53,25],[-23,3],[-43,20],[-19,22],[-38,19],[-23,25],[-65,31],[-34,9],[-29,33],[-29,21],[-20,2]],[[1540,9573],[-32,15],[-6,29],[-19,13],[-35,63],[2,38],[-15,43],[0,37],[-20,34],[6,28],[-27,39],[-12,67],[4,25],[-7,41],[-52,147],[-26,53],[-46,36],[-16,19],[-11,47],[-25,33],[-70,46],[-18,24],[-52,32],[-27,10],[-29,21],[-32,12],[-81,51],[-48,12],[-19,18],[-56,-5],[-44,38],[-25,0],[-34,18]],[[8365,5400],[20,-9],[32,22],[20,-10],[17,22],[28,-18],[28,-8],[77,-7],[8,-5],[86,-20],[66,-1],[16,-12]],[[8984,4740],[-435,57],[-148,18],[-193,42]],[[8208,4857],[-275,58]],[[7933,4915],[11,94],[96,43],[48,67],[61,27],[100,52],[85,53],[31,149]],[[2467,7680],[217,-121],[31,-14],[415,-152],[267,-88],[167,-58],[22,-10],[37,-36]],[[3286,6844],[-45,-8],[-268,-11],[-24,-2],[-149,-34],[-167,-36],[-39,-10],[-308,-98]],[[2286,6645],[-133,59]],[[2153,6704],[-59,26]],[[2094,6730],[-16,7],[-38,123],[5,28],[155,271],[83,149],[65,109],[85,104],[11,29],[11,94],[12,36]],[[5674,1699],[10,-21],[39,-35],[20,17],[64,-4],[12,-7],[11,-33],[16,-22],[-2,-35],[12,-31],[20,-20],[-6,-26]],[[5352,217],[-31,5],[-59,37],[-55,11],[-30,21],[-40,-21],[-63,7],[11,-35],[-36,-14],[-17,17],[4,39],[-14,15],[-45,-53],[26,-20],[-35,-16],[-54,-13],[-24,3]],[[4890,200],[3,67],[15,444],[-3,66],[-19,80],[-34,77],[-30,45],[-33,40]],[[4789,1019],[110,159],[22,22],[30,12],[131,10],[29,14],[54,42],[295,218],[28,24],[139,159],[47,20]],[[4479,3588],[-44,-15],[-28,-34],[-23,-8],[-30,-23],[-35,12],[-28,-4],[-42,27],[-30,10],[-11,14],[-22,-5],[-17,-19],[-8,-32],[-27,-28],[-34,0],[-44,33],[-37,4],[-34,34],[-23,-6],[-49,50],[-35,80],[-31,5],[-12,-10],[-25,21],[-13,33],[-51,10]],[[3746,3737],[-20,38],[-40,51],[-16,50],[-13,17],[-62,25],[-15,14],[-32,53],[-44,23],[-22,25],[-9,24],[6,21],[-3,38],[8,17],[-38,62],[-15,9],[-2,36],[-39,68],[-26,37],[-42,17],[-39,26],[-16,59],[-28,47],[-44,32],[-26,29],[-5,21]],[[6719,2918],[35,-4],[42,-21],[61,-52],[24,-12],[31,-52],[29,5]],[[7076,2735],[-46,-22],[-62,-58],[-16,-24],[-13,-77],[-18,-41],[-50,-71],[-29,-59],[-42,-75],[-16,-19],[-69,-62],[-33,-41],[-104,-184],[-32,-43],[-25,-17],[-63,-31],[-29,40],[-12,34],[-53,54],[-23,72],[-4,229],[-23,0],[-82,240],[-47,128],[49,19],[-37,70],[-28,-1],[-32,9],[-38,1],[-23,-8],[-49,-43],[-109,-53],[-30,-3],[-81,21],[-72,5],[-86,12],[-70,-9],[-57,2],[-16,-5],[-46,-36],[-56,0],[-24,-7],[-48,-50],[-66,-57],[-18,-21]],[[5248,2554],[-108,24],[-64,4],[-82,-16],[-86,8],[-154,-13],[-109,-23]],[[4645,2538],[102,208],[15,16],[-170,558],[-8,16],[-64,86],[-14,35],[-27,131]],[[2630,3425],[239,23],[51,-7],[87,-22],[23,1],[126,16],[47,-150]],[[3203,3286],[58,-184],[183,-586],[83,-272]],[[3527,2244],[-44,2],[-18,-8],[-137,-107],[-114,-53],[-53,-1]],[[3161,2077],[4,42],[-42,33],[-5,28],[3,90],[-1,77],[-30,71],[1,44],[15,47],[-328,135],[-31,2],[-21,79],[-31,32],[-66,-8],[-53,12],[-56,-14],[-3,9],[-53,47],[-45,26],[-21,30],[-18,9]],[[2842,8870],[27,9],[58,-16],[33,-29],[50,-14],[42,13],[38,-18],[48,-39],[15,-18],[2,-40],[33,-39],[43,-7],[16,-32],[29,-30],[39,-15],[39,18],[38,1],[52,-23],[36,-3],[41,-12],[14,-30],[67,-14],[18,-19],[10,-31],[4,-43],[20,-15],[13,-30],[-4,-15],[29,-22],[19,-24],[41,-6],[-1,-36],[51,-50],[38,46],[19,-32],[26,-3],[32,-42],[59,-25],[28,-7],[41,-39],[24,2],[46,-55],[62,-12],[16,-26],[51,8],[35,-11],[29,-23],[24,5],[57,-2],[21,-14],[42,-2],[50,17],[9,-16],[47,-15],[12,-17],[56,17],[16,-9],[11,-26],[23,-10],[41,12],[32,-6],[18,-16],[62,-28]],[[2467,7680],[-191,105],[-45,30],[-63,74],[-21,19],[-104,64],[-28,5],[-111,-14]],[[1904,7963],[-14,47],[-8,62],[-26,37],[-10,47],[38,62],[25,22],[15,25],[16,42],[20,30],[45,41],[13,26],[-3,27],[19,42],[29,20],[27,-3],[22,16],[11,20],[39,18],[45,1],[44,40],[50,-2],[62,12],[17,-4],[32,27],[60,40],[3,10],[85,69],[35,23],[38,16],[29,1],[55,24],[25,17],[76,23],[24,29]],[[2511,10683],[180,112],[139,84]],[[2830,10879],[22,-14],[61,-56],[83,-29],[24,-17],[38,-44],[123,-121],[29,-23],[228,-72],[33,-13],[87,-49],[20,-28],[216,-491],[28,-52],[168,-248],[14,-28],[3,-113],[12,-39],[48,-128],[32,-51],[66,-71],[89,-124],[212,-279]],[[4466,8789],[95,-127],[19,-29]],[[4580,8633],[75,-125],[43,-99],[22,-38],[75,-114],[7,-16],[10,-84],[-1,-118],[2,-19],[38,-116],[17,-43]],[[2842,8870],[-43,7],[-32,43],[-4,34],[9,43],[17,42],[26,31],[-7,41],[16,76],[45,91],[29,32],[31,23],[23,71],[-25,22],[-35,51],[-38,126],[-13,26],[-90,122]],[[3079,6224],[-783,416],[-10,5]],[[3746,3737],[-15,-17],[-65,-36],[-15,-24],[3,-116],[-23,-30],[-144,-64],[-12,-9],[-55,-71],[-36,-28],[-181,-56]],[[2364,5513],[-180,569],[-8,0],[-52,165]],[[2124,6247],[33,10],[-13,88],[-30,99],[54,16],[-25,77],[57,21],[-47,146]],[[3161,2077],[-17,-158],[-57,-275],[-3,-116],[-8,-27],[-45,-91],[-78,-195],[66,-44]],[[3019,1171],[-12,-17],[-1,-41],[-32,-26],[-2,-21],[-22,-42],[-28,-1],[-9,-21],[-53,-57],[-35,-8],[-37,1],[-32,-8],[-28,5],[-33,18],[-25,-32],[-25,-3],[-4,22],[-45,22],[-26,-6],[-18,36],[-19,1],[-14,18],[-36,-20],[-14,12],[-64,5],[-78,12],[-39,23],[-15,-14],[-35,23],[7,14],[-22,26],[10,19],[-13,30],[-21,20],[-60,24],[-27,0],[-41,-27],[-19,21],[-44,64],[-35,28],[-32,68],[-34,29],[-39,5],[-72,59],[-21,7],[-29,33],[-6,35],[-42,47],[-57,44],[-6,35],[9,26],[-16,26],[0,59],[21,30],[-6,55],[8,67],[-3,37],[13,58],[-2,86],[-14,63],[8,27],[18,13],[1,79]],[[1105,7570],[191,24],[14,10],[41,60],[18,44],[69,126],[15,13],[160,47],[100,-21],[42,-1],[30,12],[58,53],[41,23],[20,3]],[[2094,6730],[-106,-32],[11,-29]],[[2023,6564],[101,-317]],[[942,5222],[-42,694],[-33,530]],[[9097,4725],[-31,-126],[-26,-73],[-2,-75],[16,-54],[-9,-45],[-32,-94],[-33,-62],[-7,-36],[19,-21],[11,-40],[-2,-29]],[[9001,4070],[-70,-2],[-137,-17],[-175,-15],[-88,-12],[-29,1],[-88,23],[-49,21],[-21,3],[-121,-12],[-95,4],[-92,-6],[-30,6]],[[8006,4064],[141,517],[31,145],[30,131]],[[5053,2247],[46,12],[57,-1],[23,-36],[4,-44],[12,-21],[90,-67],[85,-16],[92,-27],[-4,-77],[48,9],[41,-22],[9,-13],[35,-3],[25,-29],[-19,-73],[-19,-26],[-32,-13],[15,-33],[38,-28],[55,-18],[20,-22]],[[4789,1019],[-276,326]],[[4513,1345],[48,38],[62,71],[15,31],[27,87],[165,340],[15,25],[102,125],[8,18],[1,46],[-13,74],[52,9],[27,10],[31,28]],[[3019,1171],[50,-34],[38,-34],[153,-183],[15,-26],[35,-80],[44,-69]],[[3002,372],[-62,-23],[-36,-8],[-21,9],[-51,-11],[-83,43],[-59,0],[-24,16],[-30,3],[-47,-17],[-31,18],[-56,-12],[-24,-14],[-8,-26],[-32,-9],[-41,2],[-116,-57],[-20,-5],[-35,19],[-35,29],[-22,26],[-42,3],[-50,-36],[-30,1],[-25,-9],[-68,36],[-47,5],[-33,-4],[-44,-21],[-15,-13],[-51,-7],[-127,-44],[-23,-16],[-24,-29],[-19,-7],[-21,-38],[-43,-47],[-38,-21],[-24,-24],[-92,-59],[-128,-25],[-296,267],[-929,448],[156,597],[200,761]],[[3914,561],[138,41],[6,43]],[[4058,645],[50,32],[40,13],[157,-11],[34,1],[107,40],[23,13],[101,78],[140,99],[17,17],[62,92]],[[4890,200],[-21,2],[-37,-15],[-26,-18],[-28,8],[-21,-34],[12,-25],[-27,-8],[-56,2],[-4,14],[-32,9],[-52,51],[-24,33],[-13,-14],[-64,-9],[-26,7],[-53,-30],[-3,28],[-32,-5],[-18,12],[-52,-15],[41,-22],[-20,-37],[-5,-32],[-26,-8],[-15,50],[-48,9],[-13,-6],[15,-43],[-18,0],[-16,-18],[-22,10],[8,32],[-43,6],[-15,-28],[-27,14],[-25,44],[-41,-11]],[[5248,2554],[-59,-78],[-36,-78],[-35,-41],[-47,-63],[-18,-47]],[[4513,1345],[-118,140],[-31,48],[-25,56],[-55,175],[-36,67],[-97,124],[-37,52],[-38,67],[-23,50],[-48,138]],[[4005,2262],[83,26],[61,2],[110,-27],[82,-34],[63,-6],[37,-16],[106,137],[10,15],[88,179]],[[4005,2262],[-94,10],[-85,-15],[-98,-26],[-91,-6],[-34,3],[-76,16]],[[6547,5148],[55,-21],[51,-9],[148,-9],[72,-9],[178,-34],[391,-72],[323,-61]],[[7765,4933],[25,-241],[-2,-28],[-20,-51],[-4,-66],[-6,-17],[-39,-61],[-7,-51],[6,-55],[-15,-4],[-93,-4],[-31,-19],[-11,-20],[-6,-34]],[[7562,4282],[-24,10],[-205,66],[2,-239],[5,-19],[45,-108],[26,-28],[51,-20],[19,-22],[30,-70],[5,-43],[-20,-81],[-21,-43],[-17,-75],[0,-51],[-15,-37],[-51,-38],[-137,-45],[-23,-18],[-75,-90],[-42,-56],[-27,-47],[-21,-48],[-4,-24],[-3,-77],[5,-49],[0,-76],[7,-25]],[[782,7877],[-32,531],[-232,312]],[[518,8720],[78,58],[31,18],[39,12],[109,22],[55,26],[22,25],[90,143],[45,12],[27,-74],[0,-61],[25,7],[22,-12],[44,5],[20,21],[27,12],[-5,43],[36,29],[49,3],[6,-24],[46,-11],[68,14],[53,32],[37,40],[7,45],[-18,32],[-30,26],[-13,26],[7,44],[-3,43],[6,21],[46,24],[11,26],[20,18],[15,48],[-7,84],[9,24],[44,36],[4,16]],[[6965,7794],[70,29]],[[7035,7823],[183,78],[30,3],[404,-17],[127,20],[167,29],[35,4],[33,-5],[-10,46],[45,29],[24,27],[24,47],[98,90],[66,22],[84,8],[45,-1],[109,-21],[52,15],[66,-5],[85,22]],[[8702,8214],[11,-297],[-33,-1],[6,-156],[32,2],[12,-348]],[[8730,7414],[-233,-1146]],[[8497,6268],[-100,118],[-122,151],[-54,60],[-208,245],[-86,99],[-37,49],[-152,110],[-190,144],[-226,168],[-96,75],[-52,37],[-206,153]],[[6968,7677],[19,12],[-17,41],[2,46],[-7,18]],[[8318,9851],[355,-787],[29,-850]],[[7035,7823],[5,38],[-6,22],[14,52],[-21,14],[-6,30],[22,29],[-8,23],[15,23],[-5,35],[12,13],[20,63],[-10,42],[13,9],[13,36],[36,24],[12,28],[-6,40],[-25,9],[-4,31],[-33,15],[-15,25],[80,77],[8,30],[-33,102],[-10,44],[16,12],[8,98],[0,39],[-29,14],[0,44],[-10,34],[-21,30],[-36,62],[-17,5],[-36,69]],[[6978,9084],[94,167],[41,-6],[77,-21],[38,-41],[33,-15],[74,15],[-3,15],[78,6],[266,24],[54,30],[107,76],[51,63],[170,132],[46,29],[69,33],[20,14],[36,52],[49,54],[11,34],[3,55],[26,51]],[[5738,9696],[-19,-50],[-61,-75],[-72,-111],[-4,-40],[38,-96],[6,-42],[-7,-77],[-24,-195],[8,-117],[-1,-47],[35,-92]],[[5637,8754],[-105,66],[-102,50],[-77,7],[-134,-9],[-27,-9],[-51,-49],[-17,-9],[-46,20],[-122,-39],[-40,-55],[-64,-45],[-47,-24],[-94,0],[-72,-4],[-59,-21]],[[4466,8789],[52,219],[1,312],[-4,28],[-15,32],[-3,31],[12,55],[51,63],[59,60],[64,123],[47,72],[30,138],[10,73],[72,-10],[79,-4],[87,-27],[127,-25],[66,-27],[38,0],[27,-8],[122,-61],[143,-56],[60,-35],[45,-17],[102,-29]],[[4058,645],[10,66],[-6,20],[-70,46],[-13,16],[-52,131],[-24,28],[-54,32]],[[3849,984],[-32,111],[125,69],[27,4],[44,-10],[59,-58],[45,-29],[132,-19],[79,-24],[7,48],[14,34],[105,175],[21,30],[38,30]],[[6808,7164],[27,41],[-14,27],[19,48],[20,37],[1,41],[21,30],[7,65],[-7,37],[23,33],[10,28],[-4,36],[6,22],[51,68]],[[8497,6268],[-123,-605],[-21,-105]],[[8353,5558],[-44,5],[-41,16],[-39,27],[-109,54],[-17,6],[-64,4],[-21,6],[-94,56],[-119,53],[-59,-6],[-95,3],[-154,14],[-24,8],[-239,143],[-42,18],[-103,27],[-114,25],[-154,-2],[-24,4],[-191,104],[-62,-5],[-53,22]],[[8730,7414],[11,-313],[290,-323],[778,-558]],[[8365,5400],[-35,2],[-16,-35],[39,191]],[[7562,4282],[39,-17],[343,-207],[49,-35],[13,41]],[[9001,4070],[-27,-161],[-8,-18],[-36,-47],[-37,-35],[-54,-44],[-11,-28],[-2,-174],[-7,-20],[-62,-90],[-29,-97]],[[7933,4915],[-168,18]],[[3770,1030],[107,-340],[37,-129]],[[3394,733],[34,34],[51,25],[47,36],[14,20],[109,301],[0,31],[-16,49],[5,9],[47,14],[5,36],[80,-258]],[[2830,10879],[148,94],[29,4],[120,-20],[57,-1],[30,7],[18,15],[108,20],[30,-6],[72,12],[31,-29],[11,-23],[32,-14],[45,-11],[45,-2],[21,9],[31,-4],[54,3],[52,-20],[11,-20],[44,-1],[43,-27],[38,-51],[15,-34],[25,-20],[127,15],[33,7],[40,-6],[50,-75],[22,-57],[-1,-45],[28,-71],[7,-35],[38,-45],[29,-13],[91,-63],[18,-5],[25,8],[32,1],[71,-20],[47,0],[37,7],[101,-5],[22,15],[0,22],[34,15],[54,59],[19,27],[45,22],[49,-11],[52,-3],[39,-20],[23,-1],[52,28],[69,30],[79,-14],[43,-43],[93,-39],[33,-39],[35,-19],[12,2],[27,-21],[-2,-14],[43,-30],[29,-53],[-3,-84],[21,-27],[83,-46],[32,-35],[34,-47],[72,-64]],[[5824,9968],[-61,-99],[-9,-104],[-16,-69]],[[3849,984],[-79,46]],[[5824,9968],[28,3],[13,-22],[24,-16],[39,-5]],[[5928,9928],[42,2],[50,-42],[42,8],[72,-5],[47,-36],[13,-23],[41,-16],[28,-20],[63,-29],[87,-33]],[[6413,9734],[28,-8],[41,-23],[54,-67],[28,-93],[31,-71],[110,-125],[88,-64],[65,-87],[62,-63],[58,-49]],[[6965,7794],[-82,-30],[-85,101],[-40,75],[-35,28],[-37,1],[-33,15],[-83,86],[-205,220],[-18,15],[-202,130],[-120,74],[-388,245]],[[7370,10444],[-69,-41],[-20,-37],[-19,-18],[-73,-44],[-25,-8],[-38,-57],[-73,-20],[-21,-20],[-66,-21],[-30,9],[-23,-16],[-68,-10],[-42,-26],[-50,-62],[-70,-19],[-43,-28],[-131,-148],[-30,-30],[-29,-49],[-8,-34],[-29,-31]],[[5928,9928],[-14,39],[-20,29],[-8,44],[8,30],[-8,34],[22,51],[50,17],[13,44],[40,33],[71,37],[929,342],[26,11],[333,-195]],[[7370,10444],[924,-539],[24,-54]],[[10575,4853],[-14,-104],[-8,-38],[-133,-815],[2,-4],[-38,-233],[-98,-714]],[[518,8720],[21,486],[149,510],[-31,723],[11,218]]],"transform":{"scale":[0.0000517798581560286,0.00004395565249000371],"translate":[-78.198642,34.710214]},"objects":{"Geometry\\37-061":{"type":"GeometryCollection","geometries":[{"arcs":[[0,1,2,3,4]],"type":"Polygon","properties":{"GEOID":"370610908011"}},{"arcs":[[5,6,7,8,9]],"type":"Polygon","properties":{"GEOID":"370610906001"}},{"arcs":[[10,11,12,13,-8]],"type":"Polygon","properties":{"GEOID":"370610906002"}},{"arcs":[[14,-5,15,16,17,18]],"type":"Polygon","properties":{"GEOID":"370610908012"}},{"arcs":[[19,-11,-7,20,21,22]],"type":"Polygon","properties":{"GEOID":"370610906003"}},{"arcs":[[23,24,25,26,27]],"type":"Polygon","properties":{"GEOID":"370610905033"}},{"arcs":[[28,29,30,31,32]],"type":"Polygon","properties":{"GEOID":"370610903011"}},{"arcs":[[33,34,35,36,37]],"type":"Polygon","properties":{"GEOID":"370610907063"}},{"arcs":[[38,39,40,41,42,43,44,45]],"type":"Polygon","properties":{"GEOID":"370610904022"}},{"arcs":[[46,47,-43,48,49,50,51,52,53,54]],"type":"Polygon","properties":{"GEOID":"370610904013"}},{"arcs":[[-44,-48,55]],"type":"Polygon","properties":{"GEOID":"370610904021"}},{"arcs":[[56,-49,-42]],"type":"Polygon","properties":{"GEOID":"370610904023"}},{"arcs":[[57,58,-45,-56,-47,59,-3]],"type":"Polygon","properties":{"GEOID":"370610904012"}},{"arcs":[[60,61,62,63]],"type":"Polygon","properties":{"GEOID":"370610902021"}},{"arcs":[[64,-28,65,66,67]],"type":"Polygon","properties":{"GEOID":"370610905031"}},{"arcs":[[68,-39,69,70,71,72]],"type":"Polygon","properties":{"GEOID":"370610903023"}},{"arcs":[[73,-10,74,75,76]],"type":"Polygon","properties":{"GEOID":"370610907031"}},{"arcs":[[-60,-55,77,78]],"type":"Polygon","properties":{"GEOID":"370610904011"}},{"arcs":[[-54,79,-22,80,81,82]],"type":"Polygon","properties":{"GEOID":"370610907043"}},{"arcs":[[83,84,85,86,-17]],"type":"Polygon","properties":{"GEOID":"370610908042"}},{"arcs":[[87,-40,-69,88,89]],"type":"Polygon","properties":{"GEOID":"370610902011"}},{"arcs":[[90,91,92,93,-41,-88,94,-62]],"type":"Polygon","properties":{"GEOID":"370610901023"}},{"arcs":[[-70,-46,-59,95]],"type":"Polygon","properties":{"GEOID":"370610903022"}},{"arcs":[[-16,-4,-79,96,-84]],"type":"Polygon","properties":{"GEOID":"370610908013"}},{"arcs":[[-71,-96,-58,97,98]],"type":"Polygon","properties":{"GEOID":"370610903014"}},{"arcs":[[-18,-87,99,100]],"type":"Polygon","properties":{"GEOID":"370610908031"}},{"arcs":[[101,-89,-73,102,-30]],"type":"Polygon","properties":{"GEOID":"370610903021"}},{"arcs":[[-32,103,-98,-2,104]],"type":"Polygon","properties":{"GEOID":"370610903012"}},{"arcs":[[-66,-27,105,106,107]],"type":"Polygon","properties":{"GEOID":"370610905051"}},{"arcs":[[108,-77,109,110]],"type":"Polygon","properties":{"GEOID":"370610907032"}},{"arcs":[[-19,-101,111,-38,112]],"type":"Polygon","properties":{"GEOID":"370610908032"}},{"arcs":[[113,114,-76,115,-36]],"type":"Polygon","properties":{"GEOID":"370610907053"}},{"arcs":[[-82,116,-111,117,118]],"type":"Polygon","properties":{"GEOID":"370610907042"}},{"arcs":[[-97,-78,-83,-119,119,-85]],"type":"Polygon","properties":{"GEOID":"370610908041"}},{"arcs":[[120,121,122,-23,-80,-53]],"type":"Polygon","properties":{"GEOID":"370610905062"}},{"arcs":[[-63,-95,-90,-102,-29,123,124]],"type":"Polygon","properties":{"GEOID":"370610902012"}},{"arcs":[[125,126,127,128,129,130]],"type":"Polygon","properties":{"GEOID":"370610905042"}},{"arcs":[[131,-127,132,133]],"type":"Polygon","properties":{"GEOID":"370610901011"}},{"arcs":[[134,135,-93,136]],"type":"Polygon","properties":{"GEOID":"370610901032"}},{"arcs":[[-110,-115,137,138]],"type":"Polygon","properties":{"GEOID":"370610907052"}},{"arcs":[[-51,139,-130,140,141]],"type":"Polygon","properties":{"GEOID":"370610905041"}},{"arcs":[[-141,-129,142,-24,-65,143]],"type":"Polygon","properties":{"GEOID":"370610905034"}},{"arcs":[[144,-107,145,-12,-20,-123]],"type":"Polygon","properties":{"GEOID":"370610905061"}},{"arcs":[[-142,-144,-68,146,-121,-52]],"type":"Polygon","properties":{"GEOID":"370610905032"}},{"arcs":[[-147,-67,-108,-145,-122]],"type":"Polygon","properties":{"GEOID":"370610905053"}},{"arcs":[[147,-35,148]],"type":"Polygon","properties":{"GEOID":"370610907062"}},{"arcs":[[149,150,-137,-92]],"type":"Polygon","properties":{"GEOID":"370610901031"}},{"arcs":[[-86,-120,-118,-139,151,-149,-34,-112,-100]],"type":"Polygon","properties":{"GEOID":"370610907061"}},{"arcs":[[-151,152,153,154,-133,-126,155,-135]],"type":"Polygon","properties":{"GEOID":"370610901022"}},{"arcs":[[156,-154,157]],"type":"Polygon","properties":{"GEOID":"370610901013"}},{"arcs":[[-157,158,-134,-155]],"type":"Polygon","properties":{"GEOID":"370610901012"}},{"arcs":[[-156,-131,-140,-50,-57,-94,-136]],"type":"Polygon","properties":{"GEOID":"370610901021"}},{"arcs":[[-117,-81,-21,-6,-74,-109]],"type":"Polygon","properties":{"GEOID":"370610907041"}},{"arcs":[[-146,-106,-26,159,-13]],"type":"Polygon","properties":{"GEOID":"370610905052"}},{"arcs":[[160,-64,-125]],"type":"Polygon","properties":{"GEOID":"370610902022"}},{"arcs":[[-138,-114,-148,-152]],"type":"Polygon","properties":{"GEOID":"370610907051"}},{"arcs":[[-72,-99,-104,-31,-103]],"type":"Polygon","properties":{"GEOID":"370610903013"}}]}}}