{"type":"Topology","arcs":[[[11537,9964],[105,129]],[[11642,10093],[58,83],[123,6],[308,9]],[[12131,10191],[38,-84],[26,-43],[17,-38],[21,-55],[32,-114],[23,-66],[18,-40],[29,-47],[61,-72],[25,-56],[30,-79],[35,-49],[48,-98],[9,-38],[9,-81],[4,-14]],[[12556,9217],[-72,2],[-134,18],[-18,9],[-66,-24],[-17,4],[-12,-9],[-15,27],[-102,-86],[-52,68],[-12,-4],[-50,-4]],[[12006,9218],[-59,142],[-14,44],[-33,135],[-18,54],[-24,47],[-58,88],[-33,69],[-28,45],[-33,30],[-66,38],[-103,54]],[[12413,8665],[50,29],[29,14],[23,19],[-27,32],[19,31],[74,59],[58,43],[66,74]],[[12705,8966],[16,-5],[43,-29],[879,-906]],[[13643,8026],[77,-114],[63,-115],[70,-158],[61,-116],[64,-102]],[[13978,7421],[-313,-190],[-323,-131],[-67,-17],[-26,-1],[-148,-81],[-113,-60]],[[12988,6941],[-57,134]],[[12931,7075],[-7,20],[8,11],[-34,187],[-18,44],[-38,51],[-11,26],[-25,78],[-17,73],[-5,42],[0,66],[15,134],[1,29],[-10,62],[-37,129],[-19,46],[-17,32],[-276,492],[-18,38],[-10,30]],[[10773,10649],[72,-52],[58,91],[25,-17],[23,30],[7,29],[25,-23],[12,-21],[19,-20],[16,-3],[45,12],[0,-22],[76,4],[0,-21],[48,2],[26,18]],[[11225,10656],[2,-35],[15,-22],[-16,-170],[-14,-9]],[[11212,10420],[-149,37],[-18,6],[-79,-9],[-33,-8],[-52,-18],[-34,-15],[-149,-72]],[[10698,10341],[-7,65],[2,34],[18,74],[62,135]],[[19118,5011],[46,15],[161,80],[171,129],[176,130],[518,383],[331,247],[706,-608],[141,-145],[742,-779],[-141,-495],[-76,-269],[-55,-129],[-105,-103],[-10,-26],[-52,-69],[-19,-35],[-21,-15],[-27,-10],[-21,-14],[-38,-51],[-29,-21],[-63,-24],[-55,-29],[-19,-3],[-88,-36],[-37,-45],[-51,-91],[-2,-41],[8,-59],[-8,-44],[-3,-48],[-17,-63],[-76,-124],[-31,-71],[-9,-56],[-6,-60],[-1,-104],[-3,-73],[-3,-99],[-36,-3],[5,-63],[-1078,-485],[-369,-166],[-158,-71],[4,-8],[-72,-17],[-23,-14]],[[19325,1329],[-91,266],[1,24],[8,28],[-2,20],[11,43],[-32,8],[-27,38],[-29,27],[-8,38],[4,97],[12,66],[-6,45],[1,45],[9,69],[-6,30],[-27,51],[-52,74],[-8,83],[4,132],[18,107],[1,69],[-20,93],[2,32],[25,59],[11,42],[2,75],[-12,38],[13,67],[19,60],[37,67],[29,59],[-1,69],[18,33],[53,185],[8,57],[9,92],[-32,140],[-104,848],[-45,306]],[[14797,2561],[76,-3],[182,4],[90,1],[67,-5]],[[15212,2558],[5,0]],[[15217,2558],[0,-59],[13,-17],[11,-92],[6,-17],[-3,-27],[6,-31],[24,-37],[-10,-51],[-8,-19],[2,-26],[-9,-21],[-1,-29],[-6,-19],[-1,-31],[10,-46],[-2,-20],[-18,-46],[-21,-21],[-2,-18],[-31,-51],[-57,-40],[-48,-10],[109,-211],[123,-234],[92,-177],[168,-323]],[[15564,885],[-1162,-251]],[[14402,634],[-17,73],[-11,26],[-14,16],[-39,24],[-138,174],[-48,195],[-69,278],[-3,28],[4,28],[23,87],[69,248],[16,50],[10,20],[39,29],[342,177],[17,15],[17,29],[94,204],[103,226]],[[10483,11022],[138,-46],[96,-30],[210,-71],[124,-40],[10,11],[19,1],[48,18]],[[11128,10865],[13,-26],[-1,-34]],[[11140,10805],[-4,-31],[16,-56],[20,-23],[27,-9],[26,-30]],[[10773,10649],[-184,132],[-16,14],[-38,44]],[[10535,10839],[-103,123]],[[10432,10962],[51,60]],[[10655,10105],[87,94],[46,36],[23,12],[52,16],[122,32],[102,23],[101,7],[76,-5],[7,4],[81,4]],[[11352,10328],[-64,-41],[-14,-4],[-1,-46],[-70,-73],[-25,-30]],[[11178,10134],[-35,7],[-50,3],[-77,-7],[-198,-49],[-41,-7],[-64,4],[-58,20]],[[11140,10805],[175,-56],[57,-12],[139,-53]],[[11511,10684],[0,-4]],[[11511,10680],[-31,-24],[32,-40],[0,-13],[-44,-1],[1,-46],[-101,25],[-106,27],[1,21],[-25,37],[-13,-10]],[[11352,10328],[35,2],[250,12]],[[11637,10342],[-17,-99],[22,-150]],[[11537,9964],[-262,135],[-52,23],[-45,12]],[[13135,9474],[31,2],[343,78],[377,93],[123,-89],[126,-92],[3,-12],[-138,-112],[-28,-37],[-44,-115],[-17,-65],[-3,-28],[16,-73],[2,-19],[-6,-31],[-9,-17],[-47,-70],[-14,-28],[-3,-40],[14,-38],[91,-116],[59,-61],[-32,-13],[-81,8],[-21,23],[-68,7],[-29,-4],[-38,4],[-27,9],[-62,31],[-19,31],[-40,14],[-27,-13],[-10,101],[3,52],[-10,84],[-34,81],[-37,39],[-72,65],[-121,122],[-41,81],[-31,18],[-6,28],[-11,20],[-17,17],[-37,17],[-8,48]],[[9003,9768],[175,97],[50,21],[53,7],[208,16],[65,6],[241,18],[30,3]],[[9825,9936],[29,-9],[44,-8],[369,-77]],[[10267,9842],[-6,-45],[53,-12],[-3,-44],[-136,-19]],[[10175,9722],[-6,-7],[-43,21],[-18,-18],[-59,-26],[-9,-8],[-3,-30],[-21,-14],[-9,-21],[-12,-57],[-7,-10]],[[9988,9552],[-68,58],[-22,7],[-22,-11],[-26,9],[-19,-6],[-19,-25],[-34,-20],[-46,3],[-19,22],[-23,14],[-28,27],[-8,35],[8,67],[-7,43],[-53,-16],[-4,-7],[-76,-34],[-26,-27]],[[9496,9691],[-30,27],[-17,-7],[-10,12],[-21,-5],[-6,-15],[-44,20],[-39,12],[-54,-30],[-40,-9],[-19,6],[-44,-7],[-13,-11],[-27,-3],[-52,-14],[-15,-10],[-22,-3],[-34,14],[-21,56],[0,12],[17,25],[-2,7]],[[14840,2853],[11,6],[2,27],[15,16],[17,3],[16,36],[12,10],[-8,28],[1,21],[31,51],[22,0],[-4,61],[31,9],[15,19],[39,2],[8,12]],[[15048,3154],[10,1],[13,-19],[6,-30],[13,-18],[5,-42],[-36,5],[-35,-8],[3,-220],[-23,-13],[1,-55],[5,-18],[-8,-26],[129,-104],[44,-33],[37,-16]],[[14797,2561],[2,9],[-82,187],[15,11],[12,37],[23,-8],[26,1],[-6,23],[27,17],[5,14],[21,1]],[[15048,3154],[25,235],[-3,0]],[[15070,3389],[11,97],[11,22],[13,71],[15,19],[5,19],[-11,52],[6,45],[16,53]],[[15136,3767],[50,-25],[111,-69],[22,-11],[-15,-44],[-6,-32],[-3,-62],[-2,-302],[0,-125],[13,-109],[10,-96],[20,-168],[1,-19],[-10,-29],[-27,-32],[-16,-39],[-4,-53]],[[15280,2552],[-63,6]],[[10175,9722],[-1,-4],[-46,-353],[-2,-29],[13,-19],[14,-3],[71,-1],[19,-3],[129,-38],[106,-37],[34,-11],[57,-3],[40,9],[48,22],[112,77],[26,24],[19,28]],[[10814,9381],[11,-11],[29,-49],[9,21],[29,-1],[-5,-20],[15,-21],[21,15],[29,-30],[57,-50]],[[11009,9235],[-108,-68],[-79,-42],[-32,-11],[-89,-18],[-68,-26],[-65,9],[-75,5],[-30,9],[-36,-3],[-123,22],[-39,11],[-86,36],[-43,8],[-38,12],[-76,15]],[[10022,9194],[-16,62],[-10,14],[-52,19],[-3,28],[-9,21],[7,8],[26,4],[20,51],[18,13],[16,24],[10,29],[-7,24],[-18,27],[-16,34]],[[10022,9194],[-43,6],[-62,-4],[-124,-5],[-52,1],[-50,8],[-61,-3]],[[9630,9197],[-14,-10],[-55,-18],[-45,-8],[-29,3],[-38,-7]],[[9449,9157],[-60,160],[-12,27],[-41,81],[6,45],[45,37],[73,41],[65,57],[-7,56],[-22,30]],[[10267,9842],[30,-6],[40,5],[22,12],[92,72]],[[10451,9925],[68,-101],[54,48],[35,15],[4,13],[78,-27],[-25,-90],[51,-16],[-18,-61],[177,-58],[5,8],[32,-14],[-32,-59],[-58,-181],[-8,-21]],[[10451,9925],[108,83],[96,97]],[[11537,9964],[-18,-29],[-33,-25],[-33,-51],[-40,-102],[-16,-50],[-62,-99],[-65,-62],[-17,-23],[-23,-50],[-16,-59],[-23,-47],[-37,-46]],[[11154,9321],[-20,-15],[-125,-71]],[[15584,1627],[79,68],[33,38],[14,24],[16,42],[7,28],[2,39],[-1,267]],[[15734,2133],[12,58],[70,189],[9,31],[7,56],[1,81]],[[15833,2548],[258,-3],[146,0],[70,-4],[47,-15]],[[16354,2526],[46,-34],[325,-363],[25,-19],[26,-15],[30,-9],[29,-4],[30,1],[54,15],[472,143],[30,8],[121,20],[61,0],[58,-17],[311,-138],[29,-11],[59,-12],[271,-50],[31,-10]],[[18362,2031],[25,-13],[24,-20],[43,-44],[26,-18],[28,-12],[343,-139],[28,-12],[24,-18],[124,-145],[18,-26],[171,-261]],[[19216,1323],[-20,-16],[-37,57],[-45,-13],[-70,32],[-144,-73],[-763,-16],[-1168,-24],[-1065,-22]],[[15904,1248],[-31,57],[-89,125],[-46,51],[-116,104],[-38,42]],[[16130,5696],[279,-139],[230,-113],[370,-190],[72,-35]],[[17081,5219],[-340,-772],[-16,-35],[-38,-69],[34,-64],[18,-64],[7,-66],[2,-115],[-8,-77],[-27,-108],[-73,-113],[-125,-236],[-23,-73],[-3,-61],[13,-46],[20,-58],[2,-32],[-6,-38],[-13,-25],[-51,-76],[-37,-60],[-9,-37],[7,-74],[18,-35],[1,-20],[341,-375],[-112,-114],[-35,-38],[-52,52],[-219,240],[-8,-79],[5,-25]],[[15833,2548],[-361,3],[-192,1]],[[15136,3767],[6,30],[11,16],[17,6],[50,-3],[43,12],[2,19],[-11,14],[-28,14],[-48,13],[-7,19],[23,21],[11,68],[9,18],[29,15],[31,70],[2,18],[-8,54],[-8,24],[-24,31],[-6,25],[14,46],[-3,24],[-28,27],[-21,36],[-6,19],[27,66],[23,83],[14,69],[16,140],[17,13],[49,48],[30,61],[-2,49],[20,34],[70,22],[71,10],[34,-16],[89,-26],[88,59],[398,681]],[[9825,9936],[47,9],[63,21],[34,14],[126,61]],[[10095,10041],[395,193]],[[10490,10234],[106,-91],[24,-18],[35,-20]],[[9303,10977],[423,-164],[83,-37],[58,-32],[42,-25],[61,-43],[63,-51],[104,-90]],[[10137,10535],[349,-297]],[[10486,10238],[4,-4]],[[10095,10041],[-15,124],[-37,-13],[-21,-14],[-38,-13],[-99,-13],[-61,-2],[-1,114],[-22,12],[-35,5],[-74,4],[-21,15],[-113,257],[-47,103],[-216,4],[5,330],[3,23]],[[9229,9096],[-24,-52],[-3,-53],[-8,-35],[-11,-7],[-59,-73],[-14,-25],[-36,-36],[-21,-14],[-18,-28],[-6,-20],[-22,-6],[-35,19],[7,15],[-39,-4],[-24,-10],[-35,-24],[-36,-33],[-22,-47],[3,-7],[-12,-43],[-17,-24],[-13,-8],[-24,0],[-33,8],[-8,-28],[41,-38],[-42,2],[-31,39],[-2,26],[6,17],[16,16],[-1,21],[-35,36],[-6,12],[-42,48],[-5,18],[-18,20],[-10,21],[-16,1]],[[8574,8800],[-7,18],[-42,16],[2,11],[-13,19],[-1,14],[-37,11],[0,23],[-20,28],[-10,26],[-3,42],[11,-2],[70,-32],[57,-12],[47,7],[29,-5],[52,0],[-2,33],[4,15],[-11,68],[-11,49],[72,16],[13,6],[-16,37],[37,40],[4,15],[-9,42],[4,15],[31,57],[17,7],[56,9],[44,3],[23,-9],[25,-27],[52,-68],[44,-76],[19,-22],[33,-27],[42,-28],[49,-23]],[[15584,1627],[-27,44],[-19,52],[-59,235],[-7,23],[-43,114]],[[15429,2095],[166,63],[12,-41],[56,17],[71,-1]],[[15429,2095],[-38,106],[-60,188],[-33,108],[-17,34],[-1,21]],[[15541,5995],[88,-52],[501,-247]],[[15136,3767],[-56,33],[-6,-14],[-20,-81],[-17,-17],[-66,-27],[-29,-5],[-91,16],[-25,-4],[-33,-11],[-27,-2],[-31,8],[4,-33],[35,-89],[-25,-11],[-35,3]],[[14714,3533],[-97,63],[1,172],[-87,-43],[-140,-71],[-58,110]],[[14333,3764],[-15,28],[173,17],[23,-1],[23,39],[10,62],[5,60],[-25,85],[-7,36],[-26,60],[9,15],[24,73],[-1,38],[33,40],[42,37],[12,60],[16,40],[37,30],[0,26],[-6,20],[-22,21],[1,9],[-20,34],[-6,28],[-22,54],[0,26],[-9,34],[10,41],[11,70],[61,93],[252,297],[150,180],[63,43],[143,155],[269,381]],[[12931,7075],[-316,748],[-52,121]],[[12563,7944],[-217,484],[-66,152]],[[12280,8580],[9,5],[120,102],[4,-22]],[[7673,8918],[21,12],[87,75],[84,64],[176,124],[36,22],[637,354],[107,59],[29,18],[61,61],[43,34],[49,27]],[[9449,9157],[-23,-12],[-38,-4],[-53,3],[-52,-6],[-38,-1],[-8,-7],[-8,-34]],[[8574,8800],[-27,-18],[-57,-4],[-42,11],[-50,28],[-43,35],[-20,44],[-22,-12],[-9,-24],[-38,-43],[-28,-10],[-8,-24],[2,-22],[-13,-33],[-29,-21],[-40,2],[-6,26],[-17,2],[-12,-10],[-10,-33],[-31,-50],[-78,-52],[-28,-22],[-45,-30],[-31,2],[72,44],[42,36],[36,19],[20,21],[2,17],[-32,-25],[-38,-16],[-36,11],[-30,2],[-9,28],[-20,27],[-29,27],[-24,39],[-2,27],[-47,14],[-13,8],[-22,-3],[-10,25],[-16,22],[-30,-2],[-19,56],[-14,-1]],[[11128,10865],[19,32],[11,10],[18,-14],[18,6],[22,19],[21,-2],[17,23],[17,4],[35,32],[34,2],[36,50],[35,23],[60,68],[99,87],[34,39]],[[11604,11244],[35,-61],[54,-81],[29,-36],[51,-55],[43,-83]],[[11816,10928],[-211,-174],[-16,5],[-21,-30],[-57,-45]],[[10590,10288],[108,53]],[[11212,10420],[133,-33]],[[11345,10387],[23,-4],[64,-3]],[[11432,10380],[3,0]],[[11435,10380],[-83,-52]],[[10486,10238],[104,50]],[[11511,10680],[44,-70],[2,-10],[3,-140],[-125,-80]],[[11432,10380],[-5,76],[-1,53],[-84,-2],[3,-120]],[[11816,10928],[77,-139],[30,-48],[58,-113],[18,-42],[35,-55],[9,-20]],[[12043,10511],[18,-40],[24,-69],[21,-69],[12,-64],[4,-54],[9,-24]],[[11637,10342],[23,151],[3,33],[-58,103],[-13,20],[-36,24],[-45,11]],[[10802,14665],[27,19],[21,6],[32,21],[29,-6],[37,0],[15,10],[28,-1],[12,23],[49,24],[30,-32],[18,6],[5,37],[7,13]],[[11112,14785],[8,-13],[57,-109],[59,-83],[35,-40],[31,-52],[39,-61],[-14,-30],[13,-13],[13,-91],[-3,-32],[46,-56],[26,-15],[80,-29],[56,-30],[47,-52],[53,-46],[33,-51],[39,-66],[4,-12],[3,-73],[15,-71],[39,-96],[32,-102],[33,-44],[109,-93],[17,-12],[74,-40],[108,-48],[11,-71],[58,-123],[27,-48],[53,-78],[71,-70],[33,-42],[202,-283],[-40,-112],[-27,-61],[-52,-132],[-8,-30],[6,-110],[-7,-30],[-53,-134],[-7,-46],[15,-190],[-7,-40]],[[12439,11725],[-19,-28],[-75,-89],[-29,-19],[-114,-33],[-30,0],[-97,19],[-53,3],[-39,-118]],[[11983,11460],[-403,1135],[-284,798],[-165,463],[-94,263],[-27,73],[-18,35],[-156,307],[-16,34],[-10,37],[-8,60]],[[11112,14785],[9,11],[41,25],[24,5],[36,-5],[32,-47],[34,-21],[45,-19],[23,2],[24,9],[29,21],[39,56],[32,29],[53,27],[38,21],[25,25],[86,43],[12,3],[59,-1],[25,13],[57,39],[30,14],[18,0],[53,-14],[28,1],[103,24],[28,16],[47,43],[43,35],[27,27],[15,7],[50,7],[29,-7],[27,-24],[22,-11],[31,3],[25,10],[28,25],[50,14],[29,11],[36,21],[14,16],[36,64],[20,20],[-5,54],[5,21],[43,44],[19,14],[79,68],[17,5],[11,27],[3,33],[-6,47],[8,16],[70,105],[144,32],[39,28],[1,38],[9,41],[13,31],[28,35],[26,24],[76,55],[61,49],[17,10],[128,49],[28,19],[45,61],[53,88],[106,179],[24,34],[60,56],[21,35],[13,40],[21,81],[43,93],[15,37],[33,97],[3,41],[-10,54]],[[13865,17064],[535,-515],[603,-581],[554,-535],[-273,-623],[-714,-196],[-268,-367],[-4,-26],[4,-53],[1,-112],[-3,-30],[-15,-23],[-26,-24],[-11,-39],[-37,-25],[-7,-15],[-24,-22],[-48,-16],[-52,-1],[-19,-17],[-25,-9],[-2,-27],[-8,-14],[-21,5],[-35,-26],[-17,-6],[-24,-25],[-19,-30],[-20,-4],[-5,-26],[-15,1],[-24,-21],[3,-16],[-24,-44],[-18,-16],[-41,-70],[3,-12],[-16,-15],[6,-43],[-17,-34],[-2,-56],[-29,-58],[0,-22],[-11,-76],[-23,-36],[2,-42],[-3,-32],[5,-24],[-8,-54],[-13,-55],[-21,-19],[-23,-50],[2,-24],[-12,-14],[-45,-1],[-8,-9],[-2,-33],[3,-26],[-22,-16],[-10,-34],[5,-33],[21,-17],[-6,-14],[13,-45],[10,-10],[0,-24],[18,-27],[-8,-33],[-26,-51],[-16,-17],[12,-27],[-27,-26],[-2,-15],[14,-31],[3,-26],[22,-32],[3,-51],[-24,-16],[-15,-27],[-3,-31],[-13,-24],[-30,-23],[-23,-45],[-47,-49],[-57,-33],[-26,3],[-28,-8],[-56,12],[-44,0],[-33,9],[-61,-19],[-7,-23],[8,-26],[-3,-19],[11,-19],[-11,-15],[0,-32],[28,-32],[-2,-17],[13,-18],[24,-62],[2,-80],[28,-32],[32,-21],[17,-17],[-13,-39],[14,-30],[35,-39],[40,-20],[19,-21]],[[13333,11439],[-60,-4],[-50,-13],[-166,-80],[-38,-28]],[[13019,11314],[-55,27],[-24,8],[-58,11],[-30,14],[-115,65],[-22,17],[-136,131],[-35,47],[-37,54],[-37,36],[-31,1]],[[10590,10288],[-11,37],[-10,79],[-6,22],[-20,27],[-54,39],[72,110],[-15,9],[-23,0],[-17,9],[-65,48],[75,101],[4,9],[-10,29],[25,32]],[[17081,5219],[312,-148],[104,-46],[129,-46],[117,-32],[67,-9],[254,-10],[408,-15],[191,-5],[132,11],[117,22],[64,22]],[[18976,4963],[-434,-870],[-34,-61],[-125,-247],[-41,-61],[-27,-79],[-1,-17],[21,-64],[12,-48],[63,-169],[-1,-63],[-16,-51],[8,-56],[20,-64],[10,-24],[42,-74],[15,-65],[-15,-35],[-11,-64],[-15,-42],[0,-39],[24,-64],[45,-210],[35,-126],[5,-44],[-2,-23],[-17,-56],[-12,-31],[-24,-46],[-70,-117],[-22,-17],[-47,-5]],[[7950,11501],[698,-271],[515,-199]],[[9163,11031],[140,-54]],[[7673,8918],[-19,21],[-3,56],[11,79],[-9,17],[1,24],[-21,12],[-14,29],[-9,71],[1,55],[32,48],[12,38],[37,64],[9,7],[-574,361]],[[7127,9800],[76,79],[3,19],[-9,35],[-6,53],[-9,49],[0,50],[7,28],[32,55],[10,46],[2,45],[-9,38],[-11,27],[-3,36],[14,45],[3,33],[14,32],[19,27],[1,58],[4,29],[-7,71],[-21,58],[-5,43],[2,51],[4,23],[3,86],[15,63],[14,24],[41,47],[21,53],[18,29],[12,45],[21,18],[61,2],[48,23],[29,-8],[39,2],[27,17],[35,51],[2,44],[14,32],[59,35],[37,41],[27,10],[13,19],[21,11],[42,0],[33,-10],[24,-23],[36,5],[20,32],[0,23]],[[15904,1248],[16,-65],[5,-55],[-3,-107],[5,-57],[-363,-79]],[[12556,9217],[8,-33],[37,-79],[19,-27],[25,-45],[60,-67]],[[12280,8580],[-274,638]],[[12043,10511],[203,121],[47,31],[11,4],[164,105],[73,68],[20,-6],[29,15],[178,113],[19,19],[223,322],[9,11]],[[13333,11439],[14,-12],[14,-28],[-3,-49],[15,-33],[20,-21],[12,-33],[23,-21],[18,-2],[35,-32],[54,-22],[40,-39],[3,-20],[26,-16],[34,-5],[18,7],[65,-18],[9,-21],[23,10],[33,-16],[49,-9],[25,-8],[6,-24],[39,-16],[7,-14],[37,-19],[15,2],[26,-8],[28,-3],[26,6],[9,-12],[30,-3],[52,-52],[26,-11],[13,-22],[7,-39],[22,-12],[24,6],[10,11],[38,-7],[8,-16],[28,-31],[5,-14],[32,-15],[2,-28],[-23,-47],[-9,-50],[39,-18],[7,-10],[61,1],[7,18],[42,7],[-7,-16],[-27,-1],[-5,-13],[6,-33],[-13,-26],[25,-34],[10,-24],[14,-52],[-7,-37],[2,-17],[27,-2],[26,-21],[13,-42],[-19,-27],[-56,-5],[-6,-7],[6,-48],[-17,-26],[-22,-8],[-33,6],[-14,14],[-12,-14],[18,-32],[7,-5],[36,10],[21,-8],[11,-15],[1,-28],[-21,-26],[-5,-33],[5,-21],[-6,-14],[20,-9],[-2,-14],[-20,-11],[3,-14],[-9,-52],[-11,-14],[3,-15],[-5,-35],[26,-24],[5,-23],[-13,-39],[-15,-15],[-5,-22],[3,-42],[23,-2],[0,-20],[15,-3],[17,-34],[-16,-36],[-26,-25],[29,-10],[12,-16],[15,-3],[-2,-39],[19,-2],[15,-25],[24,-11],[7,-23],[-8,-16],[15,-25],[2,-19],[-8,-12],[4,-26],[-7,-33],[-12,-13],[-42,-33],[-10,7],[-38,-11],[-3,-11],[14,-32],[-6,-17],[12,-36],[40,-43],[5,-29],[-9,-35],[8,-40],[-17,-64],[4,-28],[-8,-23],[-1,-35],[-17,-13],[0,-21],[9,-23],[3,-43],[-11,-20],[-13,-6],[-7,-31],[-33,-48],[-28,-14],[-12,-12],[-27,-12],[-2,-50],[9,-78],[-3,-31],[-30,-15],[-21,-5],[-3,-44],[-279,6],[-52,-44],[-327,-333],[8,-11]],[[10238,10671],[146,192],[9,19],[14,48],[25,32]],[[10137,10535],[81,107],[20,29]],[[11983,11460],[48,-135],[12,-64],[6,-92],[5,-36],[-23,-28],[-215,-177]],[[11604,11244],[-46,77],[-36,55],[-70,94],[-45,52],[-54,52],[-89,72],[-33,22]],[[11231,11668],[-46,25],[-98,39],[-67,22],[-68,15],[-46,18],[-94,29],[-40,24],[-20,16]],[[10752,11856],[-15,21],[-14,29],[-8,33],[-9,78],[3,80],[-9,74],[-23,51],[-23,30],[-47,24],[-54,19],[-56,8],[-58,20],[-36,33],[-45,68],[-6,24],[9,34],[42,78],[11,33],[2,34],[-22,79],[-24,42],[-46,104],[-43,59],[-39,59],[-19,44],[-38,114],[-56,71],[-62,75],[-18,13]],[[10049,13287],[2,23],[52,95],[33,40],[40,5],[25,-5],[20,-13],[23,-25],[54,-48],[57,-62],[51,-42],[35,-4],[44,22],[11,19],[6,26],[-4,33],[-13,24],[-19,17],[-54,31],[-108,44],[-109,37],[-24,15],[-11,35],[-19,28],[-24,24],[-17,9],[-21,43],[-1,114],[-4,23],[6,13],[23,1],[22,-11],[8,-33],[20,-39],[9,-33],[28,-2],[47,46],[15,26],[-7,31],[5,34],[29,30],[3,24],[-8,17],[4,19],[31,4],[18,15],[-2,11],[-21,51],[-13,3],[1,-36],[-19,11],[-18,-2],[-9,62],[7,18],[44,19],[38,-19],[19,14],[20,4],[22,-11],[16,4],[3,23],[28,0],[19,15],[22,-3],[34,9],[31,22],[5,57],[13,38],[23,19],[8,18],[8,39],[49,39],[35,-1],[17,13],[28,6],[29,-2],[22,38],[11,36],[-9,18],[-12,3],[-13,27],[-26,24],[-24,12],[6,34],[2,45],[16,37],[26,-2],[16,21],[23,14]],[[11154,9321],[9,-13],[1,-23],[19,-32],[34,-35],[18,-38]],[[11235,9180],[-18,-64],[-25,-22],[-36,-8],[-106,-4],[-59,12],[-17,-2],[-18,-19],[-39,-65]],[[10917,9008],[-28,-4],[-23,-10],[-35,-26],[39,-131],[5,-30],[4,-158],[-10,-83],[1,-71],[3,-50],[-91,-4],[-66,7],[-25,-7],[-75,-2],[-16,11],[-35,71],[-15,17],[-15,3],[-93,1],[-23,10],[-38,27],[-88,1],[-25,3],[-34,10],[-55,24],[-18,4],[-63,-2],[-185,-8],[-62,-1],[-29,3]],[[9822,8613],[-5,21],[14,23],[-6,24],[6,46],[-4,41],[-8,26],[-13,21],[8,38],[-14,10],[-13,-8],[4,62],[11,20],[16,8],[-3,13],[-20,25],[8,21],[-21,3],[-10,20],[-35,33],[-2,10],[-23,3],[-7,23],[-15,27],[9,17],[-33,21],[-23,5],[-13,31]],[[728,16848],[214,75],[74,-171],[121,-274],[23,-35],[241,-234],[26,-22],[126,-96],[22,-12],[137,-54],[21,-12],[95,-76],[127,173],[24,27],[81,60],[26,14],[48,14],[43,0],[111,-6],[83,3],[34,-2],[222,-29],[33,-3],[53,9],[32,15],[58,42],[54,23],[108,24],[126,35],[57,10],[114,5],[55,11],[-28,-39],[-1,-13],[273,-494],[23,-40],[25,-23],[265,-180],[18,-15],[98,-118],[22,-19],[72,-35],[19,-7],[22,3],[45,31],[84,64],[21,24],[118,-122],[27,-35],[53,-79],[13,-11],[62,-36],[21,-17],[21,-28],[5,18],[100,136],[109,147],[24,24],[84,68],[82,-107],[39,-46]],[[5033,15413],[-35,-20],[12,-24],[62,-19],[19,-23],[72,-48],[10,-35],[16,-32],[34,-34],[18,-51],[-12,-17],[-31,-9],[-24,-25],[-29,-2],[-8,-16],[29,-21],[15,-18],[4,-39],[30,-21],[20,-36],[13,-3],[24,8],[17,-1],[25,-31],[2,-20],[-14,-18],[-12,-1],[-50,24],[-10,-5],[7,-24],[30,-29],[-8,-29],[-20,-2],[-12,-13],[-24,3],[4,-40],[12,-30],[14,-22],[0,-16],[-17,-5],[-26,15],[-34,44],[-20,-9],[-34,1],[-33,-12],[-16,-12],[10,-20],[-2,-29],[-19,-42],[3,-81],[24,-19],[46,-11],[8,-26],[-16,-50],[-34,-33],[-4,-24],[3,-29],[-3,-24],[-20,-8],[1,-43],[-25,-27],[-18,-2],[-45,27],[-25,4],[-20,-14],[7,-37],[16,-5],[26,7],[20,-21],[4,-35],[-24,-36],[-5,-23],[5,-43],[-49,-11],[-15,-29],[0,-25],[-10,-20],[22,-31],[-5,-26],[-49,0],[-18,-12],[2,-23],[13,-18],[71,-55],[7,-30],[-9,-20],[2,-40],[10,-49],[2,-50],[-16,-23],[-36,0],[-13,-6],[-11,-22],[31,-63],[-1,-17],[-15,-39],[1,-41],[23,-52],[2,-70],[39,-123],[3,-33],[-15,-26],[-35,-28],[-22,-9],[-46,1],[-74,-3],[-2,-54],[-23,-25],[0,-19],[38,-37],[0,-26]],[[4768,12898],[-109,36],[-470,151],[-67,24],[-99,30],[-135,46],[-750,244],[-635,206],[-1136,368],[-3,19],[3,61],[-1,138],[-10,30],[-30,-4],[-59,-2],[-267,56],[-103,3],[-215,-2],[-81,-47],[-26,-33]],[[575,14222],[-575,347],[11,72],[206,123],[35,158],[219,113],[277,144],[185,47],[149,59],[25,19],[25,30],[126,167],[23,58],[13,52],[0,25],[-14,91],[-17,17],[-15,4],[-34,38],[2,26],[-11,17],[3,28],[-66,146],[-20,40],[-68,100],[-38,44],[-46,47],[-79,263],[18,174],[-102,86],[-74,48],[-9,24],[4,19]],[[3953,18757],[567,660],[309,360],[115,-52],[70,-36],[27,-8],[127,-11],[50,-8],[30,-17],[58,-48],[83,-71],[48,-37],[67,-59],[23,-35],[14,-51],[-5,-66],[-18,-35],[-25,-41],[-17,-44],[-3,-23],[5,-33],[32,-75],[30,-82],[21,-30],[30,-23],[148,-66],[31,-5],[30,7],[121,72],[44,15],[94,0],[27,7],[25,17],[207,205],[30,22],[-12,17],[11,50],[-1,36],[-14,35],[-22,30],[5,32],[15,57],[0,27],[8,19],[20,27],[19,19],[0,15],[-30,54],[-6,21],[1,30],[-8,17],[9,28],[15,24],[2,29],[-7,16],[-14,68],[-37,37],[11,36],[11,13],[22,2],[20,19],[-7,24],[12,20],[5,26],[17,26],[-7,33],[8,19],[-9,23],[3,22],[24,25],[17,36],[16,18],[18,4],[35,-2],[23,19],[22,8],[36,-9],[39,17],[-3,14],[25,17],[-10,15],[-3,24],[-25,33],[13,15],[-1,38],[16,64],[13,29],[-4,13],[37,11],[24,-3],[34,6],[46,3],[11,11],[12,38],[27,10],[21,-22],[37,8],[20,-34],[19,-6],[23,16],[5,-68],[113,-28],[25,0],[92,26],[33,-4],[62,-18],[22,2],[26,11],[25,21],[36,39],[8,36],[-11,28],[24,6],[17,24],[14,50],[19,7],[9,42],[7,7],[-8,40],[29,42],[14,29],[-11,18],[33,25],[19,55],[0,25],[12,33],[83,71],[12,24],[4,61],[667,-437],[559,-366]],[[8889,20334],[-129,-373],[-13,-38],[-5,-41],[-40,-728],[-1,-40],[-15,-736],[0,-80],[3,-41],[8,-57],[-4,-7]],[[8693,18193],[-12,-38],[-3,-185],[8,-201],[-6,-53],[-23,-84],[-41,-115],[-12,1],[-189,-59],[-22,6],[-43,-3],[-169,-16],[-65,1],[-53,10],[-95,27],[-40,7],[-61,0],[-126,-18]],[[7741,17473],[-60,-9],[-53,8],[-35,15],[-45,32],[-211,213],[-25,28],[-30,43],[-34,61],[-55,107],[-22,37],[-22,25],[-170,189],[-26,23],[-29,19],[-30,14],[-94,34],[-37,19],[-43,40],[-104,147],[-21,26],[-31,30],[-77,53],[-30,16],[-56,20],[-34,5],[-206,22],[-50,0],[-33,-8],[-30,-14],[-128,-68],[-31,-14],[-47,-17],[-123,-24],[-49,-7],[-34,1],[-123,16],[-59,4],[-101,0],[-42,-2],[-417,-28],[-502,-35],[-48,-1],[-47,8],[-37,14],[-54,35],[-191,161],[-62,46]],[[9877,2925],[98,374],[41,123],[-6,12],[28,30],[226,283],[149,189],[74,90],[35,34],[401,362],[26,18],[133,78],[655,383],[61,45],[86,74],[41,13],[252,18],[54,8],[53,20],[64,27],[34,5],[272,7],[119,1],[141,6],[123,4],[32,5],[42,25],[82,62],[215,167],[186,146],[15,9]],[[13609,5543],[44,-31],[252,-153],[53,-38],[32,-35],[57,-68],[30,-50],[24,-64]],[[14101,5104],[16,-52],[16,-75],[4,-41],[8,-127],[-1,-85],[-19,-167],[-2,-34],[6,-220],[8,-80],[10,-51],[11,-41],[22,-62],[16,-38],[114,-254],[11,-21]],[[14321,3756],[279,-515],[25,-47],[108,-202],[30,-44],[77,-95]],[[14402,634],[-429,-93],[9,-536],[-312,-5],[-1130,32],[-1175,32],[-717,19],[26,40],[9,51],[18,12],[21,1],[32,72],[26,43],[26,8],[47,41],[69,39],[29,29],[457,427],[6,7],[12,44],[12,16],[45,41],[-549,-63],[-365,-43],[-27,-4],[-536,-63],[-182,-23],[2,139],[13,628],[20,820],[11,404],[7,176]],[[14321,3756],[12,8]],[[14714,3533],[32,-19],[9,-13],[31,-14],[67,-59],[8,-13],[40,-19],[40,-3],[22,9],[22,-34],[20,-1],[36,20],[29,2]],[[14564,6827],[209,-194],[180,-161],[292,-267],[167,-129],[129,-81]],[[14101,5104],[157,97],[250,152],[13,13],[124,180],[31,58],[-73,19],[-12,8],[-37,11],[-24,15],[-15,18],[-25,7],[-6,14],[-46,43],[-11,24],[-13,10],[-25,38],[-28,62],[-38,46],[3,13],[-28,23],[-32,34],[-17,7],[-50,38],[-57,50],[-39,62],[-31,29],[-15,20],[-33,32],[-38,27],[-12,-2],[-45,23],[635,552]],[[11235,9180],[49,0],[21,16],[21,-1],[24,8],[10,44],[-5,33],[-51,113],[135,-24],[60,-13],[9,2],[117,97],[35,26],[41,11],[23,-4],[45,-18],[32,-25],[2,-21],[-9,-42],[17,-116],[18,-53],[14,-8],[163,13]],[[12280,8580],[-47,-46],[-53,-47],[-74,140],[-79,-13],[-12,-94],[-12,-32],[-60,9],[-16,-9],[-7,204],[-205,-33],[-3,34],[-30,16],[-16,3],[-26,-16],[-23,-25],[-53,-8],[-36,12],[-20,-5],[-27,-35],[-21,-8],[-14,25],[-12,5]],[[11434,8657],[-1,19],[-11,7],[-19,-17],[-12,-38],[-7,-10],[-24,-3],[-11,11],[4,35],[19,24],[-6,15],[-14,2],[-21,-9],[-20,5],[0,28],[15,15],[23,3],[13,13],[1,16],[-10,37],[24,1],[38,-20],[14,17],[-9,13],[-41,6],[-18,8],[-42,1],[-51,6],[-28,-23],[-21,-48],[-26,-7],[-14,40],[-2,26],[-2,98],[-5,33],[-42,51],[-22,3],[-3,-31],[-22,-63],[-5,-22],[11,-36],[4,-27],[-6,-8],[-28,1],[-26,-5],[-20,9],[-4,31],[-15,35],[-16,11],[-13,-8],[-15,-45],[-15,-29],[-17,-11],[-17,2],[-10,24],[6,42],[-9,26],[-22,20],[-1,18],[20,10],[29,27],[5,22]],[[5089,16742],[26,-70],[44,-85],[97,-91],[68,-22],[80,-38],[73,-3],[56,-22],[87,-40],[70,-18],[30,4],[25,16],[18,54],[23,-5],[39,-21],[83,-72],[31,-50],[20,-52],[-5,-64],[-4,-84],[20,-108],[10,-79],[10,-50],[14,-34],[28,-32],[47,-8],[42,-15],[60,-43],[23,-2],[18,-10],[32,-8],[23,3],[35,10],[38,-10],[45,-46],[77,-21],[40,-23],[37,-26],[21,-25],[32,-27],[36,13],[14,12],[33,-6],[22,-68],[27,-34],[54,-30],[28,-12],[72,2],[27,-11],[25,-23],[26,-32],[28,-58],[27,-29],[24,-10],[66,13],[26,-11],[39,-94],[7,-47],[9,-30],[38,-21],[36,-7],[52,15],[14,-12],[11,-29],[2,-102],[18,-29],[20,-21],[37,-15],[49,-24],[64,-10],[42,-2],[29,15],[30,30],[37,20],[33,1],[70,-49],[38,-3],[43,16],[40,36],[27,44],[58,12],[42,-21],[40,-37],[46,-7],[37,3],[37,11],[50,5],[22,-9]],[[8254,14880],[28,-34],[15,-57],[37,-131],[-1,-38],[-38,-82],[-3,-26],[4,-29],[19,-31],[47,-33],[59,-22],[79,-9],[121,16],[23,-12],[24,-33],[-21,-65],[9,-26],[57,-8],[123,-40],[78,-58],[96,-56],[51,-11],[69,-5],[30,-14],[59,-32],[48,-37],[36,-32],[63,-32],[36,-15],[19,0],[30,11],[55,-60],[9,-27],[2,-30],[6,-27],[25,-73],[21,-36],[31,-47],[44,-48],[105,-128],[87,-120],[52,-48],[53,-17],[44,2],[32,7],[32,0]],[[10752,11856],[-23,-35],[-40,-22],[-22,1],[-124,47],[-10,29],[-19,28],[7,19],[-19,47],[-35,65],[-38,38],[-11,17],[-36,10],[-16,10],[-42,57],[-19,33],[-38,77],[-6,23],[-21,23],[-25,6],[-7,12],[7,29],[-7,14],[-34,21],[-28,27],[-7,24],[-14,20],[-53,63],[-29,19],[-1,17],[29,13],[1,30],[-8,13],[-41,21],[-4,11],[18,26],[11,-6],[8,-20],[29,7],[7,15],[-14,63],[-33,28],[-40,12],[-25,-12],[-68,-56],[-5,-22],[15,-81],[-1,-45],[-14,-20],[-27,-7],[-38,2],[-14,10],[-5,86],[26,30],[-1,22],[-19,20],[-5,23],[2,36],[-12,38],[5,23],[-5,21],[-22,3],[-36,-14],[-45,22],[-15,4],[-39,-8],[-52,1],[-10,-9],[-1,-33],[40,-26],[5,-17],[-7,-10],[-40,-6],[-52,-26],[-53,-39],[-18,4],[-6,37],[12,13],[51,35],[14,44],[-1,18],[-21,4],[-62,-62],[-32,-19],[-15,-3],[-11,11],[-22,-2],[-33,34],[-27,14],[-16,-1],[-7,-17],[31,-29],[0,-20],[-22,-8],[-17,-23],[-14,10],[-9,26],[-23,25],[-35,31],[-17,31],[-16,-5],[-12,-24],[-15,11],[-11,34],[-14,3],[-14,-12],[-8,-36],[-33,-1],[-21,-9],[-16,-28],[-12,-11],[-21,-2],[-49,-17],[-46,-7],[-3,8],[-38,25],[-21,-7],[-14,11],[-29,-3],[-26,-9],[-17,7],[-31,-5],[-30,-19],[-52,-19],[-34,-5],[-26,4],[-24,-21],[-71,-36],[-50,-13],[-12,-10],[-5,-19],[-14,0],[-23,21],[-40,-4],[-23,-8],[-42,11],[-25,-4],[-6,-29],[6,-30],[-3,-36],[20,-41],[16,-19],[27,-11],[11,-25]],[[8320,12461],[-39,12],[-41,21],[-115,83],[-51,51],[-259,313],[-98,105],[-170,200],[-17,16],[-145,126],[-18,17],[-165,201],[-19,30],[-8,20],[-55,257],[-17,47],[-192,377],[-24,69],[-32,118],[-18,45],[-31,35],[-330,205],[-38,33],[-79,100],[-67,77],[-38,33],[-45,22],[-49,11],[-147,10],[-46,12],[-201,94],[-43,25],[-41,30],[-43,27],[-44,20],[-48,15],[-48,8],[-173,11],[-96,18],[-146,21],[-22,10],[-29,27]],[[5033,15413],[1,16],[-22,40],[6,54],[7,15],[16,2],[26,-8],[27,3],[79,19],[32,27],[10,26],[-8,19],[-39,8],[-33,-6],[-65,-25],[-12,14],[37,59],[20,20],[40,15],[6,18],[-17,23],[-49,-6],[-31,16],[-4,20],[10,10],[29,10],[35,-7],[41,1],[10,14],[-2,28],[-21,31],[-7,37],[-8,10],[-53,6],[-12,12],[1,14],[18,21],[18,10],[43,-4],[36,2],[26,15],[-8,37],[-21,15],[-29,6],[-14,16],[-15,59],[5,45],[20,24],[2,36],[-46,12],[-19,-6],[-13,-16],[-10,-31],[-23,-18],[-9,23],[-12,9],[0,23],[15,59],[-8,24],[-22,0],[-46,39],[0,14],[15,14],[13,40],[21,43],[25,-3],[24,10],[3,12],[-22,14],[3,23],[-23,-10],[-17,8],[-1,20],[10,14],[-9,16],[-46,13],[-27,36],[-28,27],[7,19],[22,12],[12,16],[6,45],[16,33],[36,34],[18,-4],[9,-17],[27,-25],[24,-10]],[[11231,11668],[-23,-38],[-30,-26],[-35,-41],[-38,-8],[-33,3],[-60,28],[-11,-16],[-75,-73],[-152,-128],[-10,-10],[-281,-337]],[[10432,10962],[-76,89],[-128,166]],[[10228,11217],[-104,137],[-174,218],[-38,37],[-30,20],[-110,63],[-191,110],[-202,115],[-39,15],[-210,55],[-36,9],[-25,16],[-264,126],[-41,25],[-355,257],[-20,13],[-42,20],[-27,8]],[[11434,8657],[2,-19],[16,-43],[1,-15],[-8,-38],[-28,-10],[2,-14],[28,-3],[27,-12],[6,-11],[-7,-19],[-44,-24],[-18,-19],[3,-15],[36,-73],[36,-23],[58,2],[22,-7],[23,-16],[-3,-23],[-25,-10],[-34,-31],[-21,-28],[4,-18],[22,-23],[9,-41],[27,-10],[-12,35],[18,11],[36,-29],[9,1],[42,-18],[-3,-8],[-47,14],[-23,14],[-23,-90],[26,-8],[44,-29],[7,6],[45,12],[12,-26],[18,-3],[10,24],[16,2],[21,-33],[24,-11],[19,-18],[21,10],[17,-19],[2,-22],[-46,-58],[9,-17],[-32,-28],[7,-13],[-4,-19],[-13,-12],[10,-22],[-27,-58],[6,-7],[45,-17],[21,1],[4,-13],[-14,-11],[-1,-20],[-17,-17],[-3,-23]],[[11792,7595],[-15,-11],[-11,-22],[-27,0],[1,-13],[29,-36],[17,-7],[6,17],[14,-6],[-2,-31],[-18,-17],[15,-13],[-19,-15],[-15,-36],[17,-1],[3,-25],[-6,-15],[9,-19],[8,-33],[-4,-21],[16,-17],[12,-3],[2,-28],[13,-18],[-17,-7],[19,-40],[25,-9],[-26,-19],[3,-22],[18,-6],[-3,-24],[-20,-21],[5,-21],[19,18],[12,-2],[3,-44],[17,-12],[63,-13],[8,-14],[-9,-26],[8,-22],[39,4],[9,-18],[15,18],[11,-1],[7,-24],[4,-36],[-20,-67],[-3,-59],[0,-74],[145,-30],[76,-26],[100,-42],[67,-31],[80,-52],[32,-14],[41,-6],[43,-3],[43,1],[42,15],[27,4],[35,-11],[30,0],[39,7],[92,-18],[32,-14],[23,-17],[61,-61],[62,-74],[39,-73],[32,-64],[77,65]],[[13242,6240],[219,-517],[21,-38],[35,-48],[67,-72],[25,-22]],[[9877,2925],[15,447],[5,181],[16,492],[12,354],[6,166],[12,676],[9,564],[14,799],[13,615],[3,45],[8,45],[-2,25],[17,52],[-9,33],[12,38],[36,41],[29,18],[19,53],[-15,13],[-17,32],[-17,19],[-37,26],[-17,28],[-37,46],[-40,64],[-24,20],[-11,22],[-4,36],[9,20],[-24,23],[-8,31],[6,27],[12,22],[-8,77],[-12,33],[-12,49],[-38,44],[-10,5],[-1,41],[7,4],[7,46],[8,9],[0,24],[12,47],[-2,14],[11,19],[6,52],[14,47],[-13,37],[1,14],[-18,24],[2,29]],[[18976,4963],[142,48]],[[19325,1329],[-54,-33],[-11,39],[-44,-12]],[[4768,12898],[6,-22],[19,-26],[3,-66],[24,-38],[71,-36],[35,-31],[21,-44],[40,-39],[45,-24],[18,-23],[26,-82],[34,-44],[8,-39],[-19,-19],[-13,-70],[5,-87],[7,-82],[12,-75],[32,-162],[29,-632],[13,-242]],[[5184,11015],[-462,288],[-36,23],[-797,498],[-383,278],[-675,489],[-483,350],[-625,453],[-700,506],[-424,307],[-24,15]],[[8320,12461],[-4,-25],[-13,-5],[-50,-5],[-28,7],[-13,-11],[-4,-18],[23,-30],[-46,-11],[4,-22],[-4,-22],[29,-8],[5,-25],[-24,-44],[0,-39],[16,-30],[-8,-57],[-32,-26],[-16,-4],[-18,-27],[0,-24],[-20,-17],[0,-17],[23,-26],[-2,-15],[-37,-23],[-12,-49],[-5,-65],[-17,-33],[-8,-39],[3,-41],[-8,-20],[-26,-21],[-39,-5],[-18,-8],[-44,-9],[-9,-13],[-4,-43],[29,-43],[7,-47]],[[7127,9800],[-836,523],[-1107,692]],[[8889,20334],[885,-580],[1098,-721],[876,-575],[780,-513],[590,-388],[744,-490],[3,-3]],[[10802,14665],[-6,53],[-16,71],[-18,28],[-209,246],[-338,398],[-121,141],[-595,701],[-25,30],[-67,96],[-42,66],[-56,82],[-13,26]],[[9296,16603],[-5,20],[-74,354],[-9,42],[-14,41],[-18,39],[-59,116],[-254,492],[-33,74],[-14,39],[-93,275],[-30,98]],[[12563,7944],[-33,-26],[-26,-15],[-50,-17],[-14,0],[-327,-103],[11,-50],[-47,-11],[14,-71],[-15,-6],[-14,7],[-30,-13],[-15,1],[-225,-45]],[[12988,6941],[175,-414],[16,-45],[39,-162],[24,-80]],[[13978,7421],[35,-57],[109,-131],[99,-93],[146,-129],[197,-184]],[[7741,17473],[5,-51],[-10,-26],[3,-18],[21,-50],[26,-14],[21,-4],[60,4],[38,-12],[23,0],[24,-19],[24,-9],[20,13],[14,30],[17,4],[26,-42],[-1,-23],[-14,-30],[-34,-35],[-16,-30],[-11,-40],[3,-72],[9,-20],[21,-8],[87,-12],[25,-15],[13,-15],[20,-39],[-1,-12],[-22,-25],[-5,-40],[18,-8],[20,6],[28,1],[21,13],[1,12],[-25,31],[-1,23],[16,25],[27,12],[31,2],[18,7],[37,26],[19,1],[15,-8],[31,-51],[43,-30],[5,-18],[-7,-42],[-32,-11],[-30,20],[-33,4],[-13,-7],[-4,-27],[14,-39],[2,-17],[79,-69],[6,-35],[28,-3],[15,12],[27,32],[30,13],[20,2],[30,26],[15,30],[33,28],[31,6],[31,-10],[16,4],[9,18],[-6,21],[11,37],[-1,27],[-27,14],[-8,13],[13,11],[35,-15],[26,-25]],[[8741,16925],[-12,-20],[-23,-74],[-16,-29],[-94,-149],[-9,-33],[13,-136],[38,-138],[1,-25],[-334,-102],[-33,-22],[-17,-21],[-14,-93],[-8,-16],[-19,-14],[-214,-97],[-45,-30],[-11,-19],[-18,-94],[-14,-16],[-43,-33],[-23,-9],[-141,-41],[-23,-21],[-100,-206],[80,-45],[259,-136],[71,-35],[64,-20],[65,-14],[61,-23],[168,-66],[-74,-211],[-22,-57]],[[5089,16742],[6,31],[-4,51],[-22,59],[-77,85],[-38,-7],[-55,-28],[-23,0],[-34,24],[-25,46],[-10,46],[-17,119],[-18,73],[-27,60],[-68,97],[-102,117],[-37,52],[-29,16],[-184,20],[-145,40],[-83,25],[-97,5],[-84,19],[-62,-4],[-74,-2],[-40,19],[-20,50],[-38,56],[-35,18],[-87,31],[-71,14],[-71,26],[-60,46],[-23,14],[-73,34]],[[3262,17994],[47,48],[11,-24],[617,719],[16,20]],[[728,16848],[10,39],[-4,14],[-18,18],[-36,21],[3,25],[-33,42],[7,25],[4,64],[8,6],[48,12],[16,11],[24,-2],[75,17],[29,3],[32,11],[8,26],[9,102],[14,119],[25,40],[32,7],[141,10],[25,25],[-4,81],[-9,164],[-4,108],[-14,40],[5,24],[18,47],[-20,48],[20,66],[37,25],[21,5],[18,-23],[37,-4],[56,7],[29,-13],[8,-22],[25,-6],[15,17],[0,25],[19,42],[20,2],[32,-24],[32,22],[35,-1],[25,-8],[27,-18],[18,2],[13,18],[-6,51],[-17,10],[-4,23],[10,14],[31,3],[25,-16],[36,-7],[13,-15],[13,39],[6,33],[-22,65],[-1,44],[40,26],[14,17],[34,15],[64,19],[55,7],[19,15],[100,27],[20,12],[25,5],[20,18],[34,12],[31,-13],[16,-48],[-3,-7],[18,-34],[23,-20],[38,-1],[17,-31],[54,-41],[83,-51],[61,-55],[30,-13],[40,-7],[92,0],[28,-4],[47,-1],[61,-13],[47,-1],[27,9],[56,-4],[34,-6],[72,-25],[33,-25],[28,-28],[25,-40],[37,-32],[23,-14],[27,-8],[25,2],[22,-14],[44,-16],[11,11]],[[9296,16603],[-17,23],[-16,6],[-40,56],[-36,34],[-21,13],[-44,20],[-273,97],[-22,9],[-10,-11],[-47,10],[-8,38],[-21,27]],[[10228,11217],[-6,-11],[-34,-85]],[[10188,11121],[-294,96],[-362,118],[-169,-94],[5,-7],[-48,-27],[-23,-7],[-47,-44],[-87,-125]],[[10238,10671],[-55,42],[-118,93],[14,37],[109,278]]],"transform":{"scale":[0.00003713799185888761,0.00002883308889624833],"translate":[-77.473692,34.808917]},"objects":{"Geometry\\37-049":{"type":"GeometryCollection","geometries":[{"arcs":[[0,1,2,3,4]],"type":"Polygon","properties":{"GEOID":"370499610024"}},{"arcs":[[5,6,7,8,9,10]],"type":"Polygon","properties":{"GEOID":"370499610021"}},{"arcs":[[11,12,13,14]],"type":"Polygon","properties":{"GEOID":"370499606004"}},{"arcs":[[15,16]],"type":"Polygon","properties":{"GEOID":"370499613031"}},{"arcs":[[17,18,19,20,21]],"type":"Polygon","properties":{"GEOID":"370499613011"}},{"arcs":[[22,23,24,-12,25,26,27]],"type":"Polygon","properties":{"GEOID":"370499606003"}},{"arcs":[[28,29,30]],"type":"Polygon","properties":{"GEOID":"370499607002"}},{"arcs":[[31,32,33,-25]],"type":"Polygon","properties":{"GEOID":"370499608003"}},{"arcs":[[-30,34,35,-1,36]],"type":"Polygon","properties":{"GEOID":"370499609002"}},{"arcs":[[37]],"type":"Polygon","properties":{"GEOID":"370499601012"}},{"arcs":[[38,39,40,41,42,43]],"type":"Polygon","properties":{"GEOID":"370499604023"}},{"arcs":[[44,45,-18,46]],"type":"Polygon","properties":{"GEOID":"370499613013"}},{"arcs":[[47,48,49,50,-19,-46]],"type":"Polygon","properties":{"GEOID":"370499612012"}},{"arcs":[[-42,51,52,53,54]],"type":"Polygon","properties":{"GEOID":"370499604031"}},{"arcs":[[-43,-55,55,56,57]],"type":"Polygon","properties":{"GEOID":"370499604033"}},{"arcs":[[-41,58,59,-52]],"type":"Polygon","properties":{"GEOID":"370499604032"}},{"arcs":[[60,-31,-37,61,62,-53,-60]],"type":"Polygon","properties":{"GEOID":"370499604021"}},{"arcs":[[63,64,65,66,67,68,69]],"type":"Polygon","properties":{"GEOID":"370499613021"}},{"arcs":[[70,71,-66,72,-50,73]],"type":"Polygon","properties":{"GEOID":"370499612021"}},{"arcs":[[74,75,76,-61,-59,-40]],"type":"Polygon","properties":{"GEOID":"370499604022"}},{"arcs":[[77,78,79,-76,80]],"type":"Polygon","properties":{"GEOID":"370499604011"}},{"arcs":[[81,82]],"type":"Polygon","properties":{"GEOID":"370499604041"}},{"arcs":[[-64,83,84]],"type":"Polygon","properties":{"GEOID":"370499613022"}},{"arcs":[[-73,-65,-85,85]],"type":"Polygon","properties":{"GEOID":"370499613023"}},{"arcs":[[86,-74,87,88,89]],"type":"Polygon","properties":{"GEOID":"370499612011"}},{"arcs":[[-11,90,91,92]],"type":"Polygon","properties":{"GEOID":"370499610022"}},{"arcs":[[93,-44,-58,94,-83,95]],"type":"Polygon","properties":{"GEOID":"370499604042"}},{"arcs":[[96,97,98,-32,-24]],"type":"Polygon","properties":{"GEOID":"370499608002"}},{"arcs":[[99,-14,100,101,102,103,-29,-77,-80,104]],"type":"Polygon","properties":{"GEOID":"370499607001"}},{"arcs":[[-13,-34,105,-103,106,-101]],"type":"Polygon","properties":{"GEOID":"370499608004"}},{"arcs":[[107,108,-2,-36,109,-99]],"type":"Polygon","properties":{"GEOID":"370499609001"}},{"arcs":[[110,111,112,113]],"type":"Polygon","properties":{"GEOID":"370499601022"}},{"arcs":[[114,115,116,117,-112]],"type":"Polygon","properties":{"GEOID":"370499601021"}},{"arcs":[[-26,-15,-100,118]],"type":"Polygon","properties":{"GEOID":"370499606002"}},{"arcs":[[119,120,-67,-72]],"type":"Polygon","properties":{"GEOID":"370499613032"}},{"arcs":[[121,122,-81,-75,-39,-94,123,124]],"type":"Polygon","properties":{"GEOID":"370499604012"}},{"arcs":[[-51,-86,-84,-70,125,-20]],"type":"Polygon","properties":{"GEOID":"370499613012"}},{"arcs":[[126,-6,-93,127,-4]],"type":"Polygon","properties":{"GEOID":"370499610023"}},{"arcs":[[128,-117,129,-7,-127,-3,-109],[-38]],"type":"Polygon","properties":{"GEOID":"370499601011"}},{"arcs":[[130,-27,-119,-105,-79,131]],"type":"Polygon","properties":{"GEOID":"370499606001"}},{"arcs":[[-102,-107]],"type":"Polygon","properties":{"GEOID":"370499608001"}},{"arcs":[[-114,132,-98,133,134,135,136]],"type":"Polygon","properties":{"GEOID":"370499601023"}},{"arcs":[[-56,-54,-63,137,138,139,140]],"type":"Polygon","properties":{"GEOID":"370499610042"}},{"arcs":[[141,142,143,144]],"type":"Polygon","properties":{"GEOID":"370499603022"}},{"arcs":[[145,146,147,148]],"type":"Polygon","properties":{"GEOID":"370499602022"}},{"arcs":[[149,150,151,152,-47,-22,153]],"type":"Polygon","properties":{"GEOID":"370499611022"}},{"arcs":[[154,-89,155,-48,-45,-153]],"type":"Polygon","properties":{"GEOID":"370499611021"}},{"arcs":[[156,-90,-155,-152,157]],"type":"Polygon","properties":{"GEOID":"370499611012"}},{"arcs":[[-88,-49,-156]],"type":"Polygon","properties":{"GEOID":"370499612013"}},{"arcs":[[-139,158,-128,159,160]],"type":"Polygon","properties":{"GEOID":"370499610031"}},{"arcs":[[161,162,-136,163,164,165]],"type":"Polygon","properties":{"GEOID":"370499603011"}},{"arcs":[[-135,166,-28,167,168,-164]],"type":"Polygon","properties":{"GEOID":"370499605022"}},{"arcs":[[-140,-161,169,170,171,-150,172]],"type":"Polygon","properties":{"GEOID":"370499610043"}},{"arcs":[[173,-17,174,-68,-121]],"type":"Polygon","properties":{"GEOID":"370499613033"}},{"arcs":[[175,176,-144]],"type":"Polygon","properties":{"GEOID":"370499603023"}},{"arcs":[[-165,177,-125,178,-176,-143]],"type":"Polygon","properties":{"GEOID":"370499603012"}},{"arcs":[[-106,-33,-110,-35,-104]],"type":"Polygon","properties":{"GEOID":"370499609003"}},{"arcs":[[-5,-159,-138,-62]],"type":"Polygon","properties":{"GEOID":"370499610041"}},{"arcs":[[179,-115,-111,180,181,-147]],"type":"Polygon","properties":{"GEOID":"370499602021"}},{"arcs":[[-160,-92,182,-170]],"type":"Polygon","properties":{"GEOID":"370499610032"}},{"arcs":[[-183,-91,-10,183,-171]],"type":"Polygon","properties":{"GEOID":"370499610033"}},{"arcs":[[184,-158,-151,-172,-184,-9]],"type":"Polygon","properties":{"GEOID":"370499611011"}},{"arcs":[[-149,185,186,-162,187,188]],"type":"Polygon","properties":{"GEOID":"370499602012"}},{"arcs":[[-188,-166,-142,189]],"type":"Polygon","properties":{"GEOID":"370499603021"}},{"arcs":[[-148,-182,190,-186]],"type":"Polygon","properties":{"GEOID":"370499602023"}},{"arcs":[[-169,191,192,-122,-178]],"type":"Polygon","properties":{"GEOID":"370499605012"}},{"arcs":[[-191,-181,-137,-163,-187]],"type":"Polygon","properties":{"GEOID":"370499602011"}},{"arcs":[[-192,-168,-131,193]],"type":"Polygon","properties":{"GEOID":"370499605013"}},{"arcs":[[-133,-113,-118,-129,-108]],"type":"Polygon","properties":{"GEOID":"370499601024"}},{"arcs":[[-134,-97,-23,-167]],"type":"Polygon","properties":{"GEOID":"370499605021"}},{"arcs":[[-194,-132,-78,-123,-193]],"type":"Polygon","properties":{"GEOID":"370499605011"}}]}}}