{"type":"Topology","arcs":[[[6128,5626],[20,51],[29,53],[38,42],[33,27],[50,28],[39,-23],[39,-6],[22,-43],[47,-12],[36,33],[39,66],[6,52],[59,5],[90,-30],[46,6],[48,-49],[58,3],[24,47],[36,36],[48,13],[65,-5],[40,6],[10,13],[3,41],[-24,49],[-8,33],[-4,65],[-17,66],[13,35],[63,-1],[80,9],[66,24],[15,24],[10,50],[-16,36],[-56,19],[-49,34],[-35,33],[-32,51],[-83,76],[-43,65],[-15,42],[17,48],[4,41],[27,36],[-19,21],[9,25],[27,31],[40,2],[-2,20],[76,13],[45,-7],[77,2],[71,41],[30,-5],[28,33],[47,29],[47,2],[40,20],[0,37],[11,50],[48,46],[33,2],[13,-19],[38,-1],[33,25],[38,0],[71,-11],[36,31],[31,-1],[65,22],[26,19],[6,21],[-14,26],[7,35],[32,37],[39,3],[86,70],[51,87],[18,69],[-25,31],[-12,43],[1,48],[44,10],[76,26],[36,-1],[97,11],[30,-7],[17,-19],[33,-13],[47,0],[52,37]],[[8546,7756],[55,10],[51,31],[51,14],[28,-3],[117,-32],[56,13],[17,17],[7,49],[-33,77],[7,27],[102,98],[24,31],[32,25]],[[9060,8113],[9,-52],[-26,-75],[-13,-17],[23,-33],[40,0],[17,-11],[17,-48],[-7,-32],[-53,-51],[0,-37],[25,-15],[27,-42],[23,-8],[13,-42],[70,-17],[34,1],[30,-28],[-6,-98],[-76,-2],[-17,-24],[21,-28],[-3,-37],[36,-39],[-9,-34],[-72,9],[-30,36],[-26,3],[-27,-15],[-115,-24],[-11,-26],[7,-21],[32,-4],[-11,-62],[26,-23],[30,-56],[21,-6],[21,-24],[-1,-37],[20,-33],[-3,-28],[35,-2],[23,-38],[12,-60],[-18,-15],[-10,-50],[-23,-20],[-13,-46],[-31,-26],[-38,-18],[-83,-31],[-46,-4],[-19,-25],[-21,-55],[-5,-39],[-21,-19],[-12,-37],[-36,-2],[-32,-17],[-53,-15],[-13,-18],[-2,-45],[24,-28],[2,-39],[11,-16],[1,-39],[-37,-121],[-38,-83],[-32,-59],[10,-26],[-6,-43],[9,-74],[18,-44],[-6,-23],[7,-46],[-38,-35],[9,-76],[21,-17],[16,-58],[1,-34],[15,-18]],[[8677,5572],[-79,-30],[-136,-45],[-154,-44],[-82,-20],[-302,-68],[-101,-18],[-70,-9],[-77,4],[-48,17],[-70,35],[-75,25],[-53,6],[-414,16],[-83,12],[-65,23],[-82,51],[-86,71],[-38,27],[-61,28]],[[6601,5653],[-51,15],[-82,8],[-115,-6],[-225,-44]],[[9414,8738],[74,-22],[43,10],[26,18]],[[9557,8744],[68,-154],[35,-50],[100,-94],[18,-25],[56,-99],[54,-129],[18,-65],[29,-60],[15,-16],[97,-79],[66,-47],[117,-72],[46,-22]],[[10276,7832],[85,-33],[19,-18],[50,-123]],[[10430,7658],[-69,-30],[-29,-6],[-95,-38],[-44,-39],[-37,4],[-44,36],[-22,-11],[3,-54],[-18,-48],[-26,-19],[-43,8],[-23,-10],[-41,-80],[-44,-115]],[[9898,7256],[-63,51],[-14,39],[-43,1],[-89,41],[-33,48],[-10,36],[11,65],[-10,45],[-25,46],[-33,17],[-29,47],[9,39],[-18,86],[-7,52],[-32,45],[-85,21],[-23,18],[-30,44],[-80,59],[-33,6],[-22,17],[-32,52],[-56,12],[-9,30],[12,43],[-11,23],[-71,60],[3,45],[-34,-29]],[[9041,8315],[-21,21],[-48,2],[-36,81],[29,62],[8,156],[14,37],[60,53],[57,5],[46,-21],[110,21],[125,11],[29,-5]],[[5277,3988],[68,-1],[31,-6],[102,-54],[113,-83],[52,-25],[34,-3],[122,33],[34,17],[23,0],[85,-34],[91,27],[48,34],[62,18],[39,39],[63,22],[25,36],[62,8],[87,44],[94,-22]],[[6512,4038],[-22,-11],[-51,-10],[-50,-57],[29,-44],[29,-61],[-12,-41],[-38,7],[-23,-24],[-25,8],[-24,-13],[-9,-51],[17,-76],[-33,-54],[1,-28],[-74,-59],[-27,-29],[78,-78],[45,-14],[70,-51],[63,-61],[19,-7],[65,-1],[29,-17],[42,-57],[33,-14],[49,-41],[39,-51],[25,-22],[39,-12],[51,-29],[39,-41],[213,-40],[91,-61],[30,-11],[-3,-26],[-36,-23],[-81,11],[-42,21],[-36,-4],[-31,-14],[-40,-30],[-77,-27],[-23,-17],[-31,-40],[-25,-17],[-235,-126],[-39,-32],[-134,-36],[-48,-30],[-26,-87],[-20,-141],[-17,-27],[-35,-88],[-16,-17],[-50,-29],[-40,-42],[-61,-48],[-62,-32],[-130,-57],[-19,-16],[-102,-156],[-51,-73],[-132,-115],[-44,-63],[-153,-196],[-21,-49],[-2,-35],[20,-90],[13,-33],[46,-91],[61,-80],[1,-31],[-117,-189],[-41,-41],[-87,-80],[-41,-50],[-60,-99],[-26,-69],[15,-72],[5,-62],[-4,-29],[-38,-100]],[[5105,110],[-368,246],[-341,229],[-99,64],[-120,82],[-384,256],[-23,16],[-382,255],[-172,116],[-480,247],[-259,66],[-186,49],[-462,118],[-165,47],[-68,33],[-256,240],[-114,108],[-123,122]],[[1103,2404],[18,21],[43,7],[12,-46],[28,3],[16,24],[82,33],[50,39],[78,36],[83,20],[36,-8],[39,-25],[75,-59],[66,-42],[83,-13],[40,-14],[66,1],[157,38],[22,-6],[21,-22],[107,-17],[57,-37],[61,13],[22,-3],[51,-39],[46,-13],[155,-1],[78,25],[221,49],[26,-6],[70,-32],[-28,147],[13,56],[41,21],[34,56],[10,62],[19,26],[37,9],[51,-7],[59,32],[30,40],[63,17],[50,-4],[86,78],[46,-23],[57,-16],[56,5],[66,-30],[44,0],[46,15],[8,49],[58,81],[5,38],[22,62],[43,56],[38,24],[79,-11],[33,5],[53,36],[23,70],[51,92],[-17,53],[-3,34],[11,39],[61,24],[47,26],[62,-9],[32,-35],[95,-44],[45,-15],[3,-126],[26,-23],[86,-35],[27,8],[15,60],[19,2],[38,-54],[36,-81],[34,-1],[93,76],[59,10],[100,47],[53,16],[110,1],[-20,69],[8,31],[61,77],[6,24],[-16,51],[22,57],[30,43],[15,136],[-17,21],[-50,22],[-18,29],[1,35],[15,50],[3,54]],[[4158,4834],[73,34],[54,40],[38,38],[428,445],[74,65],[96,56],[89,32],[111,17]],[[5121,5561],[338,17],[177,7],[346,14],[146,27]],[[6601,5653],[12,-32],[106,-86],[2,-21],[-36,-49],[27,-48],[32,-14],[21,-23],[10,-44],[15,-16],[29,-1],[33,14],[72,-26],[28,-20],[24,-29],[25,-16],[3,-19],[-33,-39],[-22,12],[-7,34],[-84,18],[-23,-7],[-19,-26],[10,-55],[23,-78],[-11,-16],[-58,-11],[-13,49],[7,33],[-45,14],[-19,-26],[17,-57],[15,-135],[79,-45],[40,-41],[11,-35],[20,-11],[-8,-29],[-30,4],[-29,-17],[-46,-14],[-23,-39],[-12,-40],[-37,-5],[-18,-23],[-31,27],[-31,-15],[-4,-43],[-31,-13],[-16,-22],[-39,-16],[-26,-40],[-24,-20],[-3,-24],[-24,-26],[-20,-57],[-1,-35],[-27,-26],[-3,-23],[-25,-23],[5,-24],[66,-13],[43,-31],[40,-17],[2,-39],[-23,-27],[-40,-17],[-13,-17],[50,-41],[-2,-18]],[[5277,3988],[-197,8],[-43,19],[-12,19],[-18,56],[-21,41],[-41,30],[-72,0],[-17,11],[-45,57],[-46,18],[-31,37],[0,34],[14,62],[-87,81],[-83,55],[-60,13],[-55,30],[-43,-8],[-88,63],[-146,169],[-28,51]],[[10430,7658],[22,-53]],[[10452,7605],[-107,-54],[-15,-27],[9,-112],[-21,-61],[-48,-61],[-44,-83],[-16,-22],[-85,-80],[-29,-45],[-10,-33],[-6,-87]],[[10080,6940],[-19,-55],[-105,-116],[-63,-78],[-19,-48],[-12,-90],[-20,-72],[-22,-42],[-137,-159],[-42,-37]],[[9641,6243],[-16,25],[-9,78],[-10,24],[-79,118],[-32,43],[-16,50],[-12,126],[-45,107],[41,30],[48,63],[140,64],[20,4],[58,-44],[31,34],[16,49],[30,56],[17,19],[43,79],[32,88]],[[10451,8036],[6,-29],[88,-6],[53,-9],[48,-29],[60,2],[33,-44],[38,54],[39,33],[39,-66]],[[10855,7942],[-106,-66],[-19,-18],[-45,-66],[-22,-18],[-151,-78],[-82,-38]],[[10276,7832],[47,87],[-7,68],[12,46],[-16,38],[19,5],[99,-15],[21,-25]],[[10977,8019],[124,75],[45,38],[95,92],[60,39],[53,23],[63,16]],[[11417,8302],[-10,-102],[2,-67],[43,-181],[1,-86],[-13,-83],[-122,-165],[-19,-35],[-12,-73],[7,-49],[34,-90],[34,-81],[35,-90],[88,-200],[27,-39],[35,-33]],[[11547,6928],[-281,170],[-37,-3],[-74,43],[-89,70],[-162,70],[-83,55]],[[10821,7333],[23,69],[31,32],[106,81],[17,43],[-3,23],[-39,41],[-15,26],[15,30],[43,34],[39,13],[-13,46],[-12,100],[-27,79],[-9,69]],[[10855,7942],[122,77]],[[10821,7333],[-75,45],[-165,6],[-40,17],[-65,153],[-24,51]],[[10681,9285],[85,-4],[68,-30],[50,-8],[25,6],[29,-30],[11,-50],[20,-39],[61,-18],[26,13],[25,58],[16,63],[52,54],[12,58],[-6,55],[-27,111],[18,51],[86,38],[50,-23],[68,-106],[116,-126],[105,-100]],[[11571,9258],[-69,-82],[-83,-62],[-90,-31],[32,-43],[12,-49],[-4,-87],[11,-108],[51,-235],[2,-80],[-16,-179]],[[10451,8036],[-10,68],[38,36],[37,5],[64,22],[12,35],[-9,62],[-58,74],[-65,59],[-54,33],[0,71],[-24,32],[-36,71],[-12,52],[-1,59],[8,19],[102,118],[69,45],[51,49],[16,53],[-22,106],[19,30],[65,70],[40,80]],[[3730,10075],[17,68],[50,80],[12,39],[-1,57],[54,65],[8,54],[31,50],[32,90],[83,127],[-18,22],[14,50],[17,28],[5,54],[49,-5],[30,7],[66,43],[59,51],[68,22],[20,23],[-10,44],[16,34],[31,20],[37,-3],[21,16],[21,-4],[124,96],[5,32],[-32,51],[31,51],[1,24],[51,35],[13,21],[13,56],[35,26],[22,84],[24,42],[27,27]],[[4756,11652],[10,-25],[-22,-55],[0,-36],[10,-27],[-28,-29],[65,0],[20,40],[41,-30],[-2,-20],[-52,-50],[65,26],[25,37],[-6,34],[36,-5],[38,-35],[-15,-25],[8,-33],[68,-82],[-21,-22],[35,-68],[24,-20],[-10,-35],[13,-22],[15,-51],[27,-11],[8,-20],[-6,-41],[47,-29],[5,-17],[-7,-86],[28,-26],[-4,-44],[20,-18],[9,-85],[15,-10],[85,54],[27,42],[37,23],[-31,-120],[-60,-82],[-3,-54],[18,-102],[30,-46],[58,-45],[25,-33],[19,-49],[47,-81],[45,-42],[53,-25],[22,-30],[131,-3],[34,-5],[50,-23],[32,0],[1,43],[16,16],[40,-3],[38,-29],[89,-101],[49,2],[24,10],[135,84],[92,21],[38,-35],[6,-53],[47,9],[19,-10],[42,-55],[34,20],[17,-1],[30,-42],[40,-16],[36,-44],[39,-12],[28,-23],[46,13],[43,35],[60,-15],[37,-32],[45,27],[59,-6],[53,-19],[4,19],[-39,65],[22,35],[50,-7],[81,-51],[61,-31],[20,-56],[22,-30],[66,-19],[12,-11],[19,-75],[16,-28],[32,-24],[35,10],[35,-22],[8,-24],[-12,-143],[22,-32],[78,-19],[31,-3],[42,27],[47,-17],[8,-33],[40,-36],[-4,-41],[31,5],[40,78],[36,9],[31,-55],[52,-50],[4,-77],[14,-22],[40,-30],[159,-41],[15,-7],[16,-33],[3,-127],[46,-337],[12,-106],[50,-258],[17,-32],[202,-237]],[[8501,8029],[-426,-74],[-35,-14],[-149,-94],[-38,-31],[-138,-131],[-26,-12],[-123,-8],[-25,-13],[-51,-59],[-24,-19],[-358,-187],[-63,-36],[-129,-92],[-329,-234],[-28,-29],[-109,-157],[-24,6],[-147,21],[-158,56],[-40,21],[-49,35],[-45,16],[-31,-8],[-31,-26],[-226,-7],[-21,-12],[-29,-49],[-7,-58],[-21,-60],[-23,-89],[12,-101],[5,-80],[-68,-13],[-24,-10],[-97,-108],[-107,-73],[-52,-22],[-26,-24],[-73,-97],[-77,-46],[-16,-32],[-5,-55],[-17,-64],[-45,-52]],[[5008,5908],[-28,20],[-83,28],[-23,22],[-20,90],[-12,35],[-23,21],[-58,24],[-36,42],[-151,37],[-23,18],[-3,50],[-27,46],[-30,17],[-59,6],[-67,-14],[-92,-2],[-49,29],[-42,67],[-40,23],[-24,24],[-52,16],[-50,8],[-39,32],[-10,46],[-14,21],[-50,46],[-16,22],[-2,30],[28,49],[4,184],[-35,64],[-47,-20],[-43,1],[-8,35],[-31,69],[-8,48],[10,41],[-8,19],[-130,20],[-81,3],[-32,59],[4,68],[-9,43],[-34,41],[-28,11],[-20,25],[-13,95],[-33,10],[-11,30],[29,69],[56,16],[22,33],[-17,32],[8,45],[17,20],[62,48],[61,91],[-14,53],[-7,55],[-22,53],[17,76],[-2,62],[53,48],[-11,27],[-32,4],[-4,45],[34,72],[45,12],[16,24],[0,36],[25,42],[22,3],[64,49],[7,21],[-30,56],[3,44],[23,55],[19,106],[-6,26],[-27,50],[10,75],[45,-5],[36,7],[1,26],[-24,97],[30,18],[24,0],[7,29],[-13,29],[11,26],[58,-12],[21,28],[6,35],[54,49],[-10,44],[39,-29],[-25,120],[-4,43],[-18,27],[-19,75],[-19,-47],[-32,-10],[-20,7],[-41,-19],[-64,78],[52,20],[-20,14],[-46,14],[-9,18],[24,52],[-21,72],[13,57],[-13,71],[-49,63],[-25,23]],[[9467,5930],[63,0],[38,-9],[52,-24],[247,-143],[360,-210],[261,-153],[41,-21],[91,-25],[79,-2]],[[10699,5343],[80,13],[99,37],[88,59],[57,57],[257,296]],[[11280,5805],[-14,-345]],[[11266,5460],[-1,-61],[-14,-335],[3,-141],[33,-463]],[[11287,4460],[-53,-31],[-134,1],[-45,6],[-73,31],[-53,-200],[-36,-85],[0,-60],[-9,-31],[-37,-54],[-10,-46],[0,-39],[-9,-63],[3,-29],[19,-79],[64,-137],[20,-29],[52,-47],[5,-27],[-9,-66],[-3,-70],[15,-50],[30,-44],[-39,4],[-70,-51],[-47,4],[-87,-56],[-64,-102],[-23,-9],[-73,41],[-79,8],[-214,-47],[-68,-30],[-51,-17],[-55,-9]],[[10154,3047],[-87,-11],[-231,-86],[-104,6],[-33,-5],[-20,-15],[-59,-69],[-17,-14],[-32,5],[-139,75],[-40,8],[-145,-17],[-91,20]],[[9156,2944],[21,93],[18,28],[72,73],[66,86],[66,69],[28,82],[42,52],[103,61],[71,63],[23,53],[14,113],[-7,36],[-112,106],[-220,166],[-215,163],[-87,93],[-66,79],[-49,38],[-95,46],[-22,22],[-73,98],[-64,72],[-46,89],[-19,75],[-79,155],[-2,23],[14,30],[64,50],[31,70],[59,46],[17,29],[17,77],[95,133],[58,53],[94,62],[31,28],[17,42],[2,50],[24,29],[49,25],[138,44],[62,29],[95,66],[76,89]],[[6512,4038],[55,-13],[54,9],[26,22],[17,38],[37,56],[92,104],[26,10],[47,-6],[79,-37],[64,-119],[43,21],[52,-25],[18,46],[-16,69],[-44,6],[-10,24],[61,28],[32,-38],[23,0],[45,-19],[26,4],[17,-32],[29,1],[9,-25],[86,-66],[39,-20],[35,3],[60,-22],[29,9],[61,-36],[39,-15],[114,-61],[73,-47],[54,-48],[36,-45],[29,-24],[78,-27],[51,2],[82,-21],[44,-19],[56,-40],[42,-45],[47,-22],[66,-51],[51,-25],[153,-96],[52,-21],[22,-19],[137,-155],[39,-28],[74,-36],[76,-98],[29,-83],[39,-82],[38,-26],[31,46]],[[10154,3047],[10,-96],[-2,-49],[9,-178],[31,-93],[53,-92],[3,-34],[-8,-76],[-36,-149],[9,-45],[66,-100],[19,-12],[113,-6],[40,-14],[66,-43],[46,-16],[-24,-60],[3,-46],[-6,-35],[-53,-27],[-15,-70],[-27,-13],[-25,5],[-34,32],[-54,2],[-11,-22],[-44,-37],[-112,-112],[-90,-83],[-39,-40],[-25,-36],[-11,-36],[-16,-83],[-45,-115],[-55,-158],[6,-87],[38,-136]],[[9934,887],[-69,6],[-306,-125],[-253,-90],[-1560,32],[-480,-80],[-1137,-357],[-227,-73],[-252,-79],[-381,-121],[-164,110]],[[12944,8676],[68,-23],[50,8],[151,166],[153,78],[56,25],[77,14],[57,-6],[48,-17],[120,-61],[91,-31],[106,-4],[76,15],[62,0],[84,35],[101,14],[30,-3],[102,-27],[140,10],[91,-23],[63,5],[32,-22],[11,-43],[40,-24],[19,-31],[56,-26],[69,-55],[42,-11],[42,0],[72,21],[31,23],[57,88],[77,69],[49,69],[48,20],[79,-5],[39,3],[103,27],[72,-6]],[[15608,8948],[204,-830]],[[15812,8118],[-73,60],[-47,21],[-43,11],[-75,-2],[-64,-16],[-94,-35],[-66,-34],[-319,-179],[-42,-18],[-77,-18],[-45,-2],[-94,13]],[[14773,7919],[-88,13],[-79,-3],[-55,-13],[-53,-22],[-173,-106],[-80,-36],[-56,-18],[-114,-21],[-468,-46],[-79,-9],[-135,-21],[-149,-30]],[[13244,7607],[127,156],[96,122],[-42,12],[-59,42],[-62,53],[-78,17],[-96,88],[-22,36],[-32,29],[-68,40],[-75,66],[-43,78],[-74,48],[-6,21],[10,52],[22,52],[35,45],[27,23],[40,89]],[[9557,8744],[32,23],[2,26],[-20,62],[22,85],[-7,89],[16,59],[21,24],[46,23],[29,-15],[92,-7],[57,-8],[33,-28],[54,-22],[54,45],[50,68],[16,36],[8,39],[-11,18],[-44,-9],[-20,-28],[-30,-12],[-28,4],[-9,33],[44,35],[51,67],[69,75],[61,16],[22,18],[33,67],[44,38],[37,-1],[75,-44],[27,-36],[27,-9],[35,28],[53,-13],[59,-40],[34,-44],[22,-80],[19,-29],[49,-12]],[[9467,5930],[61,76],[27,56],[22,89],[31,58],[33,34]],[[10080,6940],[179,-7],[6,-11],[-12,-49],[-14,-15],[4,-50],[-12,-49],[6,-26],[30,-31],[27,-15],[22,3],[11,31],[28,22],[17,-20],[1,-27],[34,-81],[0,-33],[43,-11],[38,-28],[-22,-59],[-42,-70],[-65,-52],[-19,-34],[-6,-61],[-13,-17],[-37,-11],[-37,9],[-34,42],[12,-174],[-9,-77],[-25,-106],[1,-67],[6,-43],[18,-63],[43,-124],[13,-11],[54,12],[42,-17],[41,-40],[82,-58],[28,-31],[67,-33],[24,-29],[58,-52],[31,-34]],[[5008,5908],[74,-122],[19,-44],[20,-181]],[[4158,4834],[-88,-21],[-221,-3],[-86,12],[-86,36],[-48,15],[-51,6],[-106,-16],[-45,-1],[-38,17],[-54,43],[-33,20],[-58,6],[-68,-15],[-40,-3],[-147,14],[-89,-2],[-56,-19],[-85,-84],[-56,-17],[-41,6],[-79,29],[-84,-6],[-108,-39],[-51,-6],[-70,13],[-35,21],[-42,42],[-52,30],[-40,0],[-53,-29],[-25,-44],[-4,-107],[-11,-53],[-17,-26],[-42,-32],[-46,-23],[-85,-59],[-39,-8],[-39,6],[-75,25],[-79,0],[-96,13],[-119,-37],[-36,0],[-76,30],[-60,39],[-65,47],[-74,36],[-74,53],[-60,22]],[[926,4765],[-7,9],[-54,4],[-53,17],[36,67],[7,48],[-61,117],[-31,65],[-1,22],[23,43],[40,15],[30,-2],[26,47],[-1,37],[-32,64],[-46,57],[-15,29],[-62,60],[-36,56],[-42,2],[-81,18],[-44,17],[-47,46],[-9,85],[-35,81],[14,80],[-8,94],[-22,25],[-66,23],[-10,21],[-21,99],[0,59],[-15,59],[7,41],[18,51],[5,87],[-24,40],[1,18],[36,69],[-4,70],[38,66],[58,73],[33,62],[56,76],[6,26],[-15,31],[-11,80],[-46,110],[-43,72],[-24,121],[-69,58],[-60,33],[-46,45],[-64,93],[-27,18],[-40,11],[-72,51],[-16,39],[60,146],[35,93],[59,79],[32,90],[33,50],[-2,78],[12,16],[111,67],[46,23],[28,21],[47,71],[42,89],[30,19],[68,27],[79,49],[30,10],[130,-9],[62,-17],[71,-66],[42,-71],[27,-25],[38,-5],[36,16],[177,-58],[36,-29],[26,6],[24,23],[26,50],[9,36],[22,46],[87,124],[20,44],[31,30],[107,25],[46,22],[36,32],[63,27],[31,29],[29,45],[19,94],[13,24],[48,24],[39,0],[41,-11],[38,3],[60,42],[60,18],[23,17],[74,93],[39,31],[50,4],[60,34],[47,7],[62,-2],[23,23],[12,43],[21,25],[45,12],[31,17],[54,71],[67,30],[45,36],[18,6],[72,-6],[26,9],[19,20],[115,86],[26,44],[44,87],[17,21],[48,19],[31,27],[36,71],[43,35],[89,17],[31,15],[28,27],[32,61],[20,21],[36,5],[73,-58],[29,-3],[26,24],[14,39]],[[9060,8113],[37,50],[5,39],[-7,40],[-33,53],[-21,20]],[[9467,5930],[-70,-20],[-363,-179],[-163,-78],[-194,-81]],[[8501,8029],[26,2],[45,-61],[-8,-53],[-46,-61],[1,-29],[27,-71]],[[1103,2404],[-180,182],[-122,127],[-279,283],[-139,142],[-188,190],[-50,53],[1,42],[-7,58],[-27,68],[33,19],[55,67],[10,37],[18,28],[5,30],[-10,23],[50,76],[107,74],[55,5],[27,13],[9,73],[-2,61],[56,83],[7,47],[64,30],[36,35],[66,20],[26,15],[35,-2],[47,36],[52,13],[35,-18],[43,19],[21,26],[39,9],[22,21],[38,2],[25,13],[20,46],[-7,53],[18,85],[-4,14],[-46,22],[-34,33],[-60,47],[-42,61]],[[11571,9258],[110,20],[45,17],[123,31],[60,5],[44,31],[8,47],[-14,27],[-64,58],[-31,43],[-3,74],[47,34],[81,30],[33,41],[5,26],[-15,30],[-48,50],[-61,52],[-14,28],[-4,118],[2,64],[10,49],[39,90],[110,36],[65,25],[28,54],[5,74],[13,36],[31,24],[78,34],[35,22],[172,128],[32,14],[70,6],[44,-18],[125,-90],[164,-136],[84,-22],[80,-2],[95,7],[51,51],[31,124],[62,115],[92,124],[19,8],[48,1],[233,14],[36,-9],[30,-46],[191,-334],[76,-126],[99,-80],[93,-65],[259,-121],[154,-40],[67,8],[22,13]],[[14718,10052],[301,-283],[503,-471],[86,-350]],[[12944,8676],[-60,11],[-37,-15],[-136,-69],[-29,-11],[-187,-14],[-31,-4],[-523,-95],[-42,-3],[-65,17],[-71,32],[-27,3],[-54,-23],[-180,-168],[-40,-24],[-45,-11]],[[13244,7607],[-101,-27],[-85,-28],[-49,-24],[-63,-42],[-67,-57],[-80,-78],[-37,-42],[-383,-446],[-64,-87],[-196,-329],[-57,-77]],[[12062,6370],[-136,184],[-39,47],[-150,145],[-84,79],[-106,103]],[[12062,6370],[-77,-59],[-433,-254],[-55,-36],[-69,-55],[-55,-55],[-93,-106]],[[11287,4460],[27,-372],[39,-538],[11,-167],[13,-146],[18,-89],[63,-191],[15,-57],[32,-83],[30,-57],[72,-69],[28,-36],[103,-228],[46,-114],[49,-126],[36,-86],[78,-110],[5,-54],[-8,-40],[-76,-87],[-15,-32],[-5,-39],[19,-61],[25,-30],[104,-86],[25,-30],[34,-66],[14,-44],[23,-50],[51,-76],[6,-51],[-9,-46],[-91,-179],[-27,-65],[-45,-160],[-38,-105],[-32,-55],[-96,-128],[-27,-47]],[[11784,460],[-135,81],[-33,-9],[-24,32],[-31,19],[-34,54],[-26,57],[-112,95],[-36,64],[-68,37],[-23,36],[2,46],[23,39],[-27,36],[-19,-14],[-35,52],[-60,-7],[-125,77],[-60,46],[-171,197],[-9,52],[-124,111],[-98,-92],[-71,-16],[-77,-36],[-51,-15],[-75,-32],[-18,-44],[-35,-43],[-66,-134],[-45,-35],[-65,-19],[-15,-10],[-6,-54],[-31,-40],[-5,-42],[-45,-56],[-20,-6]],[[9251,12200],[53,191]],[[9304,12391],[81,13],[172,50],[245,105],[46,30],[136,105],[37,38],[36,-15],[38,-54],[75,-14],[33,-12],[57,-42],[28,-62],[-2,-44],[-59,-62],[-5,-24],[9,-38],[23,-32],[14,-50],[2,-45],[15,-46],[-7,-34],[11,-48],[13,-18],[38,13],[32,35],[49,10],[36,21],[35,-7],[48,55],[47,44],[43,15],[31,2],[142,96],[102,32],[60,-12],[199,-12],[17,5],[30,131],[26,60],[14,74],[-4,55],[9,32],[23,33],[50,92],[11,59],[-1,82],[-12,89],[-31,85],[-61,135],[0,8]],[[11235,13324],[1189,-1085],[680,-620],[412,-376],[524,-516],[129,-128],[399,-409],[150,-138]],[[9414,8738],[-15,223],[-15,58],[-23,50],[-66,108],[-41,88],[-15,73],[-5,68],[-21,92],[-34,61],[-68,102],[-39,85],[-35,124],[-38,117],[-13,71],[-23,232],[0,52],[9,52],[32,144],[20,119],[26,67],[38,42],[54,44],[51,65],[23,58],[7,44],[16,147],[27,159],[5,75],[-2,37],[-32,277],[-9,50],[-11,133],[1,95],[23,194],[10,56]],[[4756,11652],[17,34],[2,63],[62,32]],[[4837,11781],[122,-3],[40,-25],[36,-38],[63,-49],[97,-2],[50,-20],[22,-20],[89,7],[50,-29],[47,-49],[111,-56],[23,-26],[54,-38],[64,-28],[46,-3],[47,41],[59,30],[30,35],[19,66],[42,58],[93,24],[51,-18],[46,12],[105,36],[45,23],[34,3],[22,22],[81,14],[57,-12],[4,50],[14,20],[56,15],[28,16],[36,5],[54,-6],[37,8],[32,-13],[46,39],[18,33],[42,48],[36,26],[23,28],[39,10],[62,39],[30,-17],[45,-55],[42,-7],[97,15],[34,-33],[21,-2],[154,0],[92,-86],[39,-17],[46,-34],[45,-46],[7,-23],[39,-38],[22,-56],[35,-60],[75,-14],[22,-29],[27,-19],[18,-28],[17,0],[65,-35],[49,-15],[48,8],[33,-15],[30,35],[47,4],[32,18],[86,9],[34,13],[24,42],[31,18],[33,42],[31,17],[15,30],[39,26],[40,13],[146,0],[21,5],[-17,69],[-15,13],[9,48],[20,19],[61,-47],[86,-10],[59,15],[13,54],[17,32],[38,42],[43,40],[22,37],[45,101],[58,59],[46,14],[46,-6]],[[15812,8118],[424,-1731]],[[16236,6387],[-16,-13],[-53,-13],[-22,-16],[20,-63],[-3,-20],[-32,-52],[-8,-31],[2,-56],[-23,-33],[-27,-7],[-74,1],[-30,-8],[-35,-26],[-66,6],[-20,53],[-50,-36],[-42,-13],[-66,-37],[-236,4],[-56,5],[-52,30],[-47,-7],[-119,-75],[-51,-10],[-48,9],[-169,69],[-49,9],[-47,-13],[-79,-65],[-93,-57],[-47,-59],[3,-46]],[[14601,5817],[-69,98],[-46,44],[-71,44],[-116,52],[-68,24],[-78,18],[-31,1],[-38,-20],[-77,-97],[-21,-13],[-57,13],[-50,0],[-171,-50],[-238,-55],[-88,-35],[-128,-80],[-43,-8],[-114,10],[-22,10],[-65,69],[-33,8],[-47,-2]],[[12930,5848],[9,28],[39,23],[-6,31],[15,22],[47,35],[49,19],[28,52],[-2,16],[-58,74],[-14,49],[4,52],[11,29],[23,14],[39,-7],[55,-46],[43,-10],[20,59],[47,39],[20,41],[21,12],[37,-34],[53,-38],[24,5],[77,57],[11,21],[-18,49],[20,45],[48,49],[42,30],[-5,21],[-31,26],[16,28],[55,40],[94,38],[12,21],[-13,19],[-39,23],[-8,43],[10,26],[-30,48],[6,36],[22,14],[69,12],[11,13],[6,42],[13,11],[53,3],[25,-17],[9,-26],[22,-21],[14,18],[33,88],[33,27],[51,-6],[13,51],[-66,12],[-5,22],[22,27],[25,10],[36,-11],[58,-52],[24,8],[26,33],[5,107],[37,-4],[33,-13],[30,15],[16,111],[2,57],[29,12],[50,-9],[9,7],[-4,59],[4,28],[25,24],[39,9],[118,69],[-27,22],[-15,27],[57,32],[25,38],[53,16],[25,25],[42,15],[54,38],[-9,43]],[[11878,4689],[41,44],[58,46],[71,86],[32,26],[62,75],[37,96],[20,77],[17,37],[19,77],[16,39],[29,29],[66,103],[70,81],[94,-6],[24,5],[95,-91],[32,11],[21,20],[30,-7],[33,15],[3,17],[57,24],[44,68],[3,18],[41,43],[26,42],[21,55],[3,52],[-8,19],[-5,58]],[[14601,5817],[44,-73],[32,-110],[34,-72],[33,-45],[108,-123],[36,-52],[110,-204],[29,-89],[45,-64],[19,-40],[49,-144],[56,-113],[24,-110],[0,-32],[-23,-105],[8,-62],[32,-79],[7,-76],[11,-48],[123,-247],[18,-33],[38,-41],[49,-42],[53,-25],[79,-15],[66,-51],[45,-26],[238,-109],[51,-37],[29,-44],[355,-563],[20,-42],[6,-54],[-6,-36],[-31,-104],[-2,-41],[44,-434],[10,-61],[15,-43],[38,-58],[48,-42],[45,-23],[122,-51],[133,-51]],[[16841,1903],[-34,-47],[-40,-23],[-49,-1],[-40,-45],[-65,-35],[-28,-63],[-23,-16],[-18,-50],[8,-46],[-6,-47],[7,-36],[-8,-16],[-37,-15],[-15,-33],[0,-51],[-42,-72],[6,-106],[47,-82],[-1269,-9],[-1010,-7],[-89,-56],[-182,-119],[-310,-206],[-11,70],[-104,-53],[-231,70],[-100,24],[-313,-136],[-570,-246],[-375,-82],[-137,79]],[[11803,448],[101,136],[41,26],[25,68],[65,97],[61,60],[20,28],[151,351],[10,46],[-2,26],[80,4],[36,11],[-13,60],[6,57],[41,89],[13,48],[59,80],[179,197],[27,49],[29,66],[19,32],[55,52],[30,47],[114,120],[42,69],[23,25],[52,40],[56,73],[66,38],[-29,35],[-18,8],[-43,-1],[-40,9],[-32,30],[-19,1],[-39,56],[-64,27],[-41,-8],[-37,27],[-15,70],[-16,15],[29,51],[14,50],[0,35],[-18,33],[-2,56],[-11,33],[-81,63],[-112,67],[-46,21],[-21,22],[4,62],[-17,47],[-1,83],[12,83],[1,56],[-21,42],[-37,32],[-17,26],[-46,26],[-33,9],[-44,53],[-30,14],[-7,56],[-67,27],[-16,18],[-22,50],[-8,142],[-22,32],[-32,11],[-90,5],[-16,9],[31,79],[4,56],[-7,79],[-28,67],[-37,51],[23,83],[-4,40],[-22,49],[-15,12],[-61,19],[-25,32],[-4,47],[-16,49]],[[11878,4689],[-52,-27],[-42,23],[-18,35],[2,41],[-10,65],[-67,63],[-55,29],[-63,41],[-29,7],[-9,65],[-29,40],[-14,3],[-43,-21],[-43,-32],[-7,121],[-13,51],[-105,249],[-15,18]],[[11803,448],[-19,12]],[[16236,6387],[131,-531],[17,-39],[-1,-29],[215,-874],[51,-205],[198,-768],[130,-523],[9,-42],[89,-354],[51,-208],[47,-186],[-62,-41],[-34,-3],[-34,12],[-25,-17],[-9,-45],[-30,-51],[-4,-49],[13,-25],[-2,-91],[-27,-51],[-57,-43],[-17,-26],[-13,-55],[-38,-34],[-15,-40],[4,-71],[-16,-26],[6,-25],[23,-9],[5,-35]],[[10276,16929],[43,-19],[8,-18],[89,-49],[58,-18],[29,-25],[63,-78],[32,-22],[52,-107],[-3,-38],[-14,-40],[11,-25],[75,-37],[61,-35],[45,13],[33,-12],[39,15],[66,55],[86,16],[20,12],[19,30],[5,84],[43,74],[73,38],[51,-9],[24,54],[23,28],[46,24],[68,51],[50,17],[11,19],[-12,76],[-15,50],[-3,83],[27,48],[2,78],[13,63],[11,154],[-25,69],[32,69],[12,44],[-5,41],[-22,51],[-8,42],[-17,40],[-1,45],[-13,52],[-32,37],[6,74],[-19,44],[-4,47],[36,35],[47,14],[34,25],[29,75],[55,30],[37,12],[62,2],[50,-28],[19,7],[36,42],[37,20],[73,108],[37,29],[44,-2],[24,60],[12,12],[90,22],[76,1],[27,46],[100,142],[39,39],[41,21],[10,16],[-16,83],[15,35],[-7,51],[4,39],[-9,37],[-87,67],[-25,45],[-39,36],[-50,26],[-16,46],[-16,17],[-55,30],[-28,68],[14,102],[31,39],[261,303],[430,500],[22,-76],[31,-53],[64,-20],[9,-41],[15,-13],[42,7],[33,-29],[9,-39],[7,-89],[12,-23],[83,-74],[6,-23],[-3,-61],[77,-50],[21,-24],[17,-63],[-45,-65],[-17,-52],[4,-47],[16,-36],[64,-38],[47,-48],[86,-52],[39,-35],[1,-18],[-50,-81],[-36,-92],[-18,-80],[29,-62],[17,-16],[22,-50],[37,-30],[29,-41],[10,-38],[16,-14],[46,-110],[29,-31],[9,-58],[17,-39],[31,-14],[-12,-41],[7,-30],[39,-27],[109,-37],[30,-23],[31,-35],[9,-60],[19,-27],[23,-149],[11,-32],[22,-20],[21,-53],[3,-57],[34,-32],[25,-72],[-20,-27],[-23,-64],[-27,-31],[-75,-61],[6,-26],[37,-40],[37,-12],[20,-24],[9,-36],[28,-17],[32,-1],[15,-31],[-9,-47],[-10,-90],[12,-23],[32,-105],[36,-46],[4,-46],[-22,-144],[2,-13],[37,-77],[12,-62],[-42,-80],[-10,-31],[-61,-109],[-1,-65],[-48,-72],[-40,-43],[12,-44],[-23,-82],[0,-43],[-17,-18],[-24,-50],[-22,-77],[2,-56],[-18,-43],[-30,-33],[-47,-82],[-10,-56],[-33,-68],[-5,-25],[26,-40],[30,-11],[-11,-32],[-43,-73],[2,-43],[13,-111],[2,-75],[-55,-123],[-52,-89],[-57,-58],[-35,-46],[-45,-39],[-26,-42],[-65,-39],[-39,-40],[-61,-15],[-43,-24],[-19,-20],[-26,-50],[-47,-22],[-74,-50],[-22,1],[-74,26],[-67,-14],[-71,-75],[-24,-47],[-12,-75],[-13,-32],[-61,-65],[-45,-55],[-40,-82],[-33,-34],[2,-34],[19,-23],[-25,-30],[-34,1],[-22,-23],[-22,-57],[-44,-41],[-22,-12],[-60,-15],[-25,-25],[-32,-59],[-62,-48],[-37,-17],[-78,0],[-39,16],[-35,-16],[-35,0],[-40,16],[-67,-13],[-44,11],[-57,1],[-61,43],[-87,34],[-34,-11],[-29,-69],[-18,-10],[-66,-18],[-74,-88],[-8,-42],[-27,-36],[-14,-74],[-15,-27],[-49,-43],[-52,-98],[-39,-37],[-90,-104],[-2,-7]],[[9304,12391],[41,139],[25,68],[43,73],[151,216],[32,63],[19,74],[41,123],[24,92],[33,53],[51,40],[160,59],[82,53],[39,49],[17,39],[60,194],[24,56],[29,48],[39,52],[50,51],[47,35],[50,53],[16,40],[20,76],[84,189],[33,56],[88,95],[22,34],[41,96],[-18,29],[-42,26],[-15,21],[-5,38],[-44,84],[-4,34],[-26,70],[10,60],[-30,50],[-19,76],[-2,113],[-5,31],[0,66],[-9,23],[-28,25],[-83,1],[-21,36],[16,88],[9,122],[-12,75],[18,131],[17,57],[-18,129],[-12,140],[13,50],[27,25],[-53,-1],[-13,10],[-5,42],[18,36],[-46,47],[-76,37],[4,20],[-19,21],[4,27],[-20,34],[-34,4],[-35,22],[10,40],[-34,74],[39,102],[1,86],[62,41],[29,6],[22,26],[7,51],[33,-3]],[[4837,11781],[8,13],[61,24],[30,90],[31,71],[18,72],[0,20],[-64,79],[-34,13],[-53,44],[-78,32],[-80,70],[-37,123],[-3,72],[21,33],[38,17],[24,57],[19,32],[55,20],[-17,27],[49,47],[18,34],[27,30],[-21,80],[11,31],[18,13],[28,47],[37,29],[28,54],[31,23],[80,-6],[64,55],[19,36],[24,22],[65,19],[29,-22],[35,-7],[32,8],[28,20],[5,37],[-8,38],[13,36],[-4,46],[-34,-3],[-62,82],[60,64],[28,5],[25,23],[49,18],[59,5],[74,24],[27,16],[-1,51],[8,18],[59,49],[28,59],[46,20],[27,63],[31,54],[70,68],[19,154],[79,23],[33,16],[48,-16],[44,-7],[17,-13],[60,-6],[46,-18],[70,26],[45,5],[22,18],[17,40],[-4,25],[36,112],[23,39],[3,27],[47,107],[91,54],[18,3],[19,37],[65,5],[77,13],[31,50],[45,22],[59,91],[56,49],[84,33],[18,23],[36,87],[12,154],[14,87],[20,50],[-17,55],[11,50],[12,17],[63,29],[58,-8],[39,-29],[26,-38],[68,-65],[43,3],[41,68],[14,8],[58,-5],[58,-18],[25,-28],[45,-24],[27,-2],[67,8],[58,-29],[43,0],[26,13],[62,-13],[70,-28],[46,3],[56,54],[22,41],[71,5],[74,-10],[25,7],[69,50],[60,20],[48,-16],[102,-20],[56,19],[44,29],[46,9],[60,-26],[79,25],[29,21],[42,1],[53,18],[61,60],[54,40],[48,18],[35,38],[62,32],[42,49],[19,10],[59,4],[32,21],[29,58],[43,39],[29,44],[22,118],[41,47],[88,79],[11,42],[-9,17],[-2,74],[10,51],[33,75],[-9,54],[3,27],[20,52],[32,52],[-1,47],[-38,61],[35,13],[54,32],[25,55],[4,37],[44,43],[23,40],[45,41],[78,11],[147,2],[72,-6],[28,-8]]],"transform":{"scale":[0.0000274200780294646,0.00002168390071617776],"translate":[-82.295007,35.518002]},"objects":{"Geometry\\37-111":{"type":"GeometryCollection","geometries":[{"arcs":[[0,1,2,3,4]],"type":"Polygon","properties":{"GEOID":"371119706003"}},{"arcs":[[5,6,7,8,9,10]],"type":"Polygon","properties":{"GEOID":"371119706001"}},{"arcs":[[11,12,13,14]],"type":"Polygon","properties":{"GEOID":"371119708003"}},{"arcs":[[15,16,-5,17,-12,18]],"type":"Polygon","properties":{"GEOID":"371119708001"}},{"arcs":[[-9,19,20,21,22]],"type":"Polygon","properties":{"GEOID":"371119705002"}},{"arcs":[[23,24,-8,25]],"type":"Polygon","properties":{"GEOID":"371119703003"}},{"arcs":[[26,27,28,29]],"type":"Polygon","properties":{"GEOID":"371119704001"}},{"arcs":[[-25,30,-30,31,-20]],"type":"Polygon","properties":{"GEOID":"371119704002"}},{"arcs":[[32,33,-27,-31,-24,34]],"type":"Polygon","properties":{"GEOID":"371119703001"}},{"arcs":[[35,36,37,38]],"type":"Polygon","properties":{"GEOID":"371119707002"}},{"arcs":[[39,40,41,42,43,44,45]],"type":"Polygon","properties":{"GEOID":"371119709021"}},{"arcs":[[-13,46,-45,47,48]],"type":"Polygon","properties":{"GEOID":"371119709023"}},{"arcs":[[49,50,51,52,53]],"type":"Polygon","properties":{"GEOID":"371119702003"}},{"arcs":[[54,-35,-26,-7]],"type":"Polygon","properties":{"GEOID":"371119703002"}},{"arcs":[[55,-22,56,-40]],"type":"Polygon","properties":{"GEOID":"371119705003"}},{"arcs":[[-39,57,-16,58,59]],"type":"Polygon","properties":{"GEOID":"371119707001"}},{"arcs":[[60,-10,-23,-56,61,-3]],"type":"Polygon","properties":{"GEOID":"371119706002"}},{"arcs":[[-38,62,-1,-17,-58]],"type":"Polygon","properties":{"GEOID":"371119707003"}},{"arcs":[[-59,-19,-15,63]],"type":"Polygon","properties":{"GEOID":"371119708002"}},{"arcs":[[64,65,-50,66,-34]],"type":"Polygon","properties":{"GEOID":"371119702001"}},{"arcs":[[-67,-54,67,68,-28]],"type":"Polygon","properties":{"GEOID":"371119702002"}},{"arcs":[[-32,-29,-69,69,-41,-57,-21]],"type":"Polygon","properties":{"GEOID":"371119705001"}},{"arcs":[[-44,70,71,-48]],"type":"Polygon","properties":{"GEOID":"371119709022"}},{"arcs":[[72,73,74,-65,-33,-55,-6,75]],"type":"Polygon","properties":{"GEOID":"371119701022"}},{"arcs":[[76,77,-76,-11,-61,-2,-63,-37]],"type":"Polygon","properties":{"GEOID":"371119701012"}},{"arcs":[[-4,-62,-46,-47,-18]],"type":"Polygon","properties":{"GEOID":"371119709024"}},{"arcs":[[-52,78,79,80,81]],"type":"Polygon","properties":{"GEOID":"371119709041"}},{"arcs":[[82,-81,83,84,85]],"type":"Polygon","properties":{"GEOID":"371119709032"}},{"arcs":[[-70,-68,-53,-82,-83,86,-42]],"type":"Polygon","properties":{"GEOID":"371119709031"}},{"arcs":[[-87,-86,87,-71,-43]],"type":"Polygon","properties":{"GEOID":"371119709033"}},{"arcs":[[88,-84,-80]],"type":"Polygon","properties":{"GEOID":"371119709042"}},{"arcs":[[89,-74,90]],"type":"Polygon","properties":{"GEOID":"371119701021"}},{"arcs":[[-91,-73,-78,91]],"type":"Polygon","properties":{"GEOID":"371119701011"}}]}}}