{"type":"Topology","arcs":[[[3991,10758],[212,368],[510,893],[528,925]],[[5241,12944],[17,-75],[28,-56],[28,-31],[41,-28],[12,-18],[12,-56],[18,-31],[25,-25],[44,-64],[65,-101],[105,-144],[74,-89],[15,-34],[12,-212],[7,-101],[20,-34],[125,-141],[34,-30],[127,-94],[31,22],[123,62],[115,60],[121,104],[101,122],[40,53],[79,96],[86,95],[32,26],[155,115],[54,61]],[[6987,12396],[43,-19],[24,-18],[36,-37],[25,-33],[80,14],[149,-9],[262,-45],[44,-13],[75,-29],[143,-58],[39,-30],[11,-16],[61,-114],[34,-32],[31,-9],[89,-5],[37,7],[72,23],[128,34],[68,13],[148,4],[20,-3],[138,-54],[41,-12],[-39,-143],[-33,-102],[-19,-107],[-18,-86],[-3,-31],[7,-42],[52,-187],[22,-66],[23,-49],[48,-91],[35,-92],[40,-162],[9,-58],[-14,-57],[-90,-234]],[[8805,10448],[-28,-59],[-25,-36],[-22,-46]],[[8730,10307],[-11,-32],[-183,49],[-63,24],[-43,21],[-49,17],[-60,10],[-95,-9],[-112,8],[-50,-4],[-172,-29],[-1,-85],[-94,34],[-178,52],[-58,29],[-39,37],[-77,97],[-98,124],[-65,68],[-219,-93],[-30,-16],[-41,-42],[-16,-31],[-9,-43],[-2,-113],[-4,-28],[-30,-82],[-18,-114],[-17,-217],[-41,-4],[-68,-15],[-118,-39],[-44,-19],[-97,-36]],[[6528,9826],[-85,-28],[-68,-10],[-243,18],[-30,-7],[-36,73],[-31,36],[-23,50],[-6,89],[5,94],[-5,11],[-51,-48],[-49,-18],[-34,23],[-7,-17],[-37,-43],[-33,-5],[-26,-15],[-22,-33],[-30,-33],[-42,-16],[-14,-14],[-34,-18],[-25,-3]],[[5602,9912],[-22,-10],[-50,-7],[-24,2],[-57,-19],[-36,7],[-37,1],[-46,-13],[-35,23],[-17,20],[-41,-6],[-42,-16],[-31,-20],[-23,-42],[-49,-12],[-28,3],[-11,-11],[-35,1],[-34,-16],[-68,3],[-17,8],[-35,2],[-60,24],[-26,0],[-34,-9],[-43,10],[-39,43],[-66,23],[-78,44],[-46,35],[-17,28],[-26,25],[-4,15],[-46,46],[-12,35],[4,20],[-21,33],[-38,10],[-32,47],[-35,18],[-24,19],[-31,40],[-21,37],[-16,51],[-27,46],[-32,18],[3,45],[-3,29],[-24,46],[-9,46],[4,52],[-27,44],[-33,15],[-14,13]],[[12508,10646],[129,217],[38,52],[24,24],[44,32],[414,253],[60,41],[36,33],[54,68],[33,65],[190,556],[30,82],[58,136],[39,78],[53,97],[52,84],[35,53]],[[13797,12517],[11,-12],[52,-34],[75,-37],[260,-118],[57,-34],[189,-144],[77,-57],[38,-18],[25,-6],[443,-35],[86,-5],[80,7],[55,-3],[27,-6],[34,-16],[34,-24],[66,-63],[215,-211],[24,-31],[13,-57],[-12,-52],[-59,-147],[-13,-40],[-19,-72],[22,-9],[37,-6],[62,10],[40,0],[26,-14],[65,-13]],[[15807,11270],[-282,-598]],[[15525,10672],[-116,40],[62,250],[-120,27],[-21,3],[-39,-6],[-23,-13],[-45,-54],[-26,-37],[-8,-38],[-3,-172],[-341,82],[-47,10],[-136,21],[-43,12],[-381,121],[-53,16],[23,-83],[2,-48],[-54,-182],[-34,-153],[-5,-51]],[[14117,10417],[-120,8],[-9,-36]],[[13988,10389],[-32,-116],[-13,-61],[-34,-90],[-62,-137],[-22,-43],[-61,-132]],[[13764,9810],[-74,62],[-39,29],[-196,137],[-54,35],[-115,80]],[[13286,10153],[-205,144],[-56,38],[-207,144],[-64,43],[-165,85],[-81,39]],[[6987,12396],[96,75],[198,181],[111,94],[63,44],[46,25],[145,64],[52,30],[30,28],[117,159],[51,55],[117,100],[157,206],[31,26],[39,14],[45,2]],[[8285,13499],[142,-9],[134,-11],[31,3],[145,63],[84,27],[46,17],[47,28],[99,66],[41,22],[121,37],[155,43],[76,16],[153,12],[49,1],[68,11],[77,7],[121,15],[90,29],[91,17],[50,12],[75,25],[41,22],[21,25],[26,48],[28,34],[138,112],[68,53],[17,10],[128,45],[28,18]],[[10675,14297],[8,-8],[56,-7],[16,-10],[18,-71],[0,-50],[-26,-75],[40,-23],[48,-20],[17,-26],[-2,-40],[-14,-25],[-50,-48],[-25,-40],[-1,-17],[18,-30],[8,-51],[17,-23],[46,-17],[19,-17],[-4,-17],[-35,-12],[-29,-58],[-2,-47],[12,-40],[20,-31],[19,-43],[12,-13]],[[10861,13438],[-6,-17],[-43,-13],[-20,4],[-41,-13],[-29,14],[-22,23],[-61,13],[-21,12],[-42,-7],[-24,-50],[-42,-46],[-25,-56],[-6,-38],[-41,-60],[-30,-27],[0,-34],[14,-47],[-24,-22],[-32,18],[-63,-22],[-13,3],[-20,-22],[-18,5],[-57,-140],[-54,-121],[-16,-47],[-87,-139],[-36,-36],[-37,-13],[-50,-3],[-50,-62],[-20,-36],[-26,-85],[-30,-56],[-6,-49],[-27,-148],[-15,-44],[-22,-34],[-97,-101],[-19,-61]],[[9603,11881],[-16,-53],[-99,-267],[-43,-74],[-17,-37],[-15,-45],[-11,-58],[-14,-34],[-69,-102],[-30,-68],[-42,-104],[-25,-55],[-17,-21],[-108,-147],[-27,-40],[-44,-80],[-146,-210],[-75,-38]],[[12605,8495],[357,-79]],[[12962,8416],[13,-60],[12,-147],[-1,-20],[79,-14],[37,5],[50,-39],[15,-18],[21,-11],[11,-39]],[[13199,8073],[-22,-40],[6,-33],[-21,-26],[-13,0],[-16,24],[-27,25],[-6,32],[-28,10],[-26,-11],[-19,-42],[-34,-52],[-38,-8]],[[12955,7952],[-12,46],[-107,-21],[-59,-4],[-26,-17],[-21,-2],[-28,26],[-24,62],[-18,-4],[-31,49],[5,38],[-11,50],[-13,12],[-57,20],[7,23],[-7,32],[-1,100],[12,17],[54,30],[-17,29],[-4,22],[8,35]],[[11231,7592],[255,386],[35,61],[26,54]],[[11547,8093],[23,61],[69,212],[19,50],[158,363],[38,93],[38,99]],[[11892,8971],[138,-33],[88,-28],[125,-51]],[[12243,8859],[-4,-37],[-16,-74],[-6,-48],[-2,-120]],[[12215,8580],[0,-103],[-22,-117],[3,-28],[33,-99],[11,-53],[3,-102],[-9,-56]],[[12234,8022],[-6,-50],[-1,-66],[-14,-364],[-3,-132],[12,-67],[42,-121],[15,-54]],[[12279,7168],[5,-185]],[[12284,6983],[-62,-7],[-49,-18],[-22,9],[-104,3],[-45,7],[-56,17],[-26,17],[-21,24],[-42,72],[-31,35],[-27,23],[-66,42],[-44,13],[-58,2],[-34,18],[-64,64],[-30,14],[-51,15],[-75,32],[-31,9],[-123,18],[8,146],[0,54]],[[14931,15454],[64,-44],[40,-15],[32,5],[34,48],[68,43],[22,3],[30,-17],[48,-38],[55,0],[5,44],[-4,32],[4,49],[15,23],[26,18],[18,3],[39,-32],[46,-2],[47,16],[62,34],[35,13],[78,14],[36,13],[49,5],[67,2],[88,64],[29,26],[22,37],[-12,116],[2,39],[17,29],[19,10],[72,2],[33,-19],[30,-63],[39,-59],[36,-25],[27,3],[33,18],[37,42],[24,15],[22,1],[29,-10],[68,-33],[30,-9],[11,-12],[5,-26],[26,-79],[11,-20],[42,-53],[56,-45],[18,0],[25,35],[45,24],[8,-24],[-25,-23],[-20,-32],[5,-64],[19,-61],[-36,-120],[-11,-24],[15,-23],[79,-22],[34,-1],[50,-23],[49,-54],[29,-57],[16,-19],[44,-18],[27,2],[107,53],[24,29],[6,39],[-33,32],[-54,26],[-21,24],[5,24],[-14,30],[-36,9],[-9,9],[12,24],[41,22],[21,18],[31,38],[46,66],[36,27],[23,4],[65,-40],[44,-5],[46,20],[50,8],[63,23],[9,12],[-20,16],[-7,28],[9,26],[58,72],[20,13],[32,-4],[16,-25],[25,12],[21,33],[59,46],[24,11],[24,-3],[-49,-51],[-51,-67],[-30,-51],[-31,-72],[-14,-43],[-13,-65],[-5,-47],[-16,-292],[-5,-67],[-22,-397],[-14,-104],[-15,-73],[-21,-72],[-24,-68],[-25,-58],[-37,-73],[-162,-289],[-363,-645],[-215,-383]],[[16625,12916],[-35,-24],[-27,-9],[-9,-19],[15,-16],[-18,-11],[-14,16],[-51,-15],[-18,9],[45,31],[-5,23],[-44,13],[-23,-4],[-7,14],[22,11],[5,20],[-16,19],[-17,-18],[-5,-21],[-18,1],[-11,43],[-12,-7],[5,-35],[-27,14],[-13,30],[-43,-14],[-13,-14],[-33,19],[-9,22],[-21,4],[15,42],[-34,21],[-17,-7],[15,-20],[-5,-14],[-24,5],[-41,24],[3,45],[12,34],[30,41],[148,143],[263,250],[24,16],[-207,39],[-40,5],[-63,1],[-108,-10],[21,215],[18,68],[-2,38],[-12,46],[-18,32],[-45,45],[-28,48],[-5,42],[-274,19],[-52,8],[-205,47],[-209,26],[-95,27],[-47,24],[-104,84],[-36,37],[-26,19],[-78,45],[-20,17],[-29,36],[-22,35],[-127,194],[-30,22],[-127,61]],[[14647,14848],[200,385],[41,91],[25,69],[18,61]],[[13920,12696],[91,132],[76,119],[46,88],[55,124],[23,63],[31,106],[22,96],[12,73],[98,737],[14,74],[32,98],[26,56],[201,386]],[[16625,12916],[-236,-420],[-47,-88],[-37,-77],[-180,-382],[-60,-131],[-51,-106],[-207,-442]],[[13797,12517],[123,179]],[[2581,2628],[98,-16],[80,-22],[134,-50],[79,-25],[70,-16],[152,-27],[139,-30],[138,-38],[171,-55],[127,-36],[127,-29],[141,-24],[91,-11],[76,-7],[105,-6],[140,-2]],[[4449,2234],[97,-4],[109,-9],[143,-19],[124,-23],[98,-22],[109,-30],[124,-41],[133,-51],[244,-100],[81,-29],[89,-29],[72,-21],[160,-43]],[[6032,1813],[-951,-427],[-349,-157],[-539,-243],[-706,-314],[-533,-139]],[[2954,533],[28,98],[21,36],[3,23],[-13,9],[-39,-7],[-68,-35],[-27,10],[1,19],[59,35],[63,24],[15,14],[34,57],[4,18],[24,37],[48,37],[72,77],[22,18],[21,40],[-8,20],[8,38],[-19,11],[-34,38],[-14,38],[2,36],[-37,19],[-25,34],[1,39],[34,23],[15,28],[-17,42],[-25,21],[-19,-6],[-4,-36],[-38,25],[-12,22],[-24,23],[1,15],[25,41],[1,28],[-12,53],[-12,31],[0,61],[-5,29],[28,54],[14,63],[60,90],[0,42],[-25,29],[-62,46],[-49,124],[-33,46],[10,30],[-12,11],[-38,89],[-5,22],[3,51],[-38,37],[-28,3],[-40,21],[-14,19],[25,33],[0,12],[-55,17],[-41,-4],[-42,5],[-37,22],[-7,20],[-28,13],[-9,17]],[[6715,2957],[41,30],[46,23],[117,30],[39,13],[43,32],[60,78],[25,29],[60,60],[21,52],[-1,48],[-43,148],[10,127],[-3,32],[55,51],[25,32],[11,24],[40,108],[28,55],[64,89],[24,45],[20,54],[-286,134],[-21,12],[-39,9],[-29,-3],[-57,-16],[-66,-4],[-35,7],[-25,13],[-21,21],[-14,27],[-75,379],[33,20],[14,23],[43,113],[13,22],[83,117],[295,-93],[143,-47],[201,-76],[198,-29],[2,126],[5,139],[9,29],[17,28],[37,33],[30,14]],[[7852,5115],[-10,-50],[9,-56],[21,-22],[24,-16],[130,23],[74,11],[21,7],[102,47],[52,6],[38,-2],[44,-21],[24,-25],[19,-29],[3,-33],[-12,-82],[-7,-87],[-10,-62],[-21,-71],[-1,-18],[30,-49],[28,-27],[69,-43],[49,-39],[63,-24],[86,-6],[91,-59],[24,1],[36,10],[86,61],[66,31],[59,13],[46,-2]],[[9085,4502],[-61,-175],[-35,-85],[-43,-85],[-265,-461],[-29,-57],[-19,-51],[-22,-89],[-6,-63],[-3,-173],[-10,-110],[-14,-79],[-25,-111]],[[8553,2963],[-262,-124],[-214,-105],[-135,-64],[-1312,-588]],[[6630,2082],[210,185],[17,29],[4,22],[-6,79],[5,114],[-6,109],[7,21],[53,85],[14,28],[20,79],[-110,19],[-22,11],[-101,94]],[[11589,15710],[-72,-21],[-39,-22],[-22,-27],[-12,-34],[-14,-60],[-14,-162],[4,-29],[17,-32],[21,-20],[59,-34],[19,-16],[20,-54],[7,-77],[-18,-134],[-24,-106],[-21,-73],[-12,-28],[-32,-39],[-80,-70],[-27,-36],[-31,-58],[-81,-203],[-17,-87],[-24,-72],[-14,-55],[-26,23],[-103,96],[-12,15],[-82,117],[-169,-48],[-33,-12],[-82,-55]],[[8285,13499],[1,104],[-23,47],[-140,112],[-30,43],[-7,22],[-69,271],[-22,45],[-21,28],[-54,44],[-65,28],[-173,44],[-32,11],[-32,18],[-37,31],[-117,150],[-17,15],[-38,18],[-17,1],[-89,-15],[-8,203],[16,60],[58,95],[-24,9],[-32,-56],[-16,-18],[-2,-23],[-17,-23],[-58,4],[-31,-16],[0,-47],[-14,-25],[-43,0],[-22,12],[-4,25],[-21,22],[-13,34],[25,20],[3,52],[25,35],[19,3],[11,20],[19,-2],[6,22],[-23,39],[-24,3],[-32,14],[-49,31],[-40,30],[-61,61],[-19,47],[-16,16],[-44,18],[-26,28],[0,33],[-8,10],[7,34],[-33,8],[-11,-21],[-23,-27],[-16,-28],[-19,-52],[11,-44],[29,-29],[0,-31],[17,-21],[-28,-27],[-27,6],[-38,-16],[-13,1],[-32,25],[-27,6],[-63,41],[-36,20],[-43,36]],[[6493,15133],[439,765],[346,603],[5,10],[530,924],[133,240],[21,-31],[22,24],[95,-115],[38,-22],[42,-3],[81,0],[19,-21],[-26,-14],[-14,-17],[6,-39],[30,-142],[9,-10],[60,-29],[21,-20],[15,-43],[-9,-76],[1,-26],[16,-34],[18,-19],[31,-17],[21,-1],[18,22],[-27,26],[5,17],[35,19],[13,22],[38,44],[21,17],[18,-2],[27,-35],[42,-34],[44,-22],[19,-18],[-11,-45],[-30,-43],[-11,-35],[0,-31],[15,-57],[32,-38],[55,-10],[31,-10],[25,-23],[22,-47],[3,-58],[7,-17],[29,-6],[40,37],[13,42],[18,10],[47,-30],[29,0],[15,8],[7,25],[30,11],[7,39],[28,62],[13,64],[22,30],[5,22],[-13,81],[-11,23],[-30,34],[-57,55],[-21,45],[-21,127],[16,19],[31,6],[32,-14],[41,18],[63,2],[22,-11],[39,-42],[53,-44],[28,-56],[54,-27],[10,-26],[65,-38],[48,-43],[22,-29],[42,-62],[39,-41],[50,-39],[41,-48],[18,-12],[19,3],[54,30],[51,13],[74,-2],[26,19],[14,49],[26,105],[-2,14],[-42,46],[-4,16],[13,36],[-17,22],[19,54],[-9,23],[11,19],[72,-2],[28,-12],[40,-54],[44,-52],[27,-25],[91,-61],[22,-23],[11,-29],[25,-86],[26,-29],[61,-15],[35,-2],[24,6],[62,34],[12,17],[-5,80],[25,95],[16,22],[31,-9],[45,-57],[28,-47],[27,-38],[34,-71],[45,-53],[8,-39],[-2,-33],[-28,-70],[-50,-94],[-9,-31],[-25,-42],[-21,-91],[-35,-71],[-3,-44],[4,-30],[23,-31],[75,-46],[49,-19],[41,-10],[48,-20],[27,4],[69,40],[61,22],[67,-1],[43,-9],[65,-26],[42,-19],[85,-34],[18,-25],[-23,-73],[-3,-29],[3,-54],[-3,-51],[20,-26],[114,-54],[50,-31],[102,-93],[20,-50]],[[4621,8113],[153,-150],[160,-152],[33,-40],[17,-30],[138,-276],[80,-126],[56,-83],[22,-52],[31,-86],[15,-66],[22,-170],[2,-42],[-5,-38]],[[5345,6802],[-30,-112],[-31,-94],[-21,-69],[-5,-31],[-2,-55],[8,-53],[93,-435],[0,-59],[-41,-145]],[[5316,5749],[-107,11],[-54,2],[-120,12],[-16,8],[-30,31],[-46,99],[-49,187],[-13,97],[-5,89],[2,25],[17,27],[-1,99],[-24,102],[-19,29],[-56,26],[-53,5],[-26,-3],[-93,1],[-52,6]],[[4571,6602],[-25,4],[-115,1],[-31,7],[-53,1],[-39,-7],[-47,-26],[-34,-37],[-16,-50],[-68,-89],[-14,-36],[-15,-11],[-32,-10],[-89,-8],[-67,-1],[-21,11],[-28,32],[-14,27],[-12,38],[-19,42],[-41,61],[-18,40],[-11,61],[0,45],[8,109],[-5,15],[-8,79],[-9,32],[-12,14],[-49,19],[-17,18],[-8,21],[0,51],[-9,49],[3,121],[-7,30],[-24,42],[-47,43],[-77,52],[-38,48],[-9,16]],[[3454,7456],[56,44],[34,20],[60,23],[600,169],[37,13],[56,29],[42,35],[28,31],[27,43],[42,73],[35,38],[150,139]],[[12215,8580],[390,-85]],[[12955,7952],[-84,-2],[-42,-12],[-8,-10],[-37,-11],[-31,-3],[-29,-22],[-41,-7],[-28,-22],[-4,-31],[-24,12],[-96,73],[-61,32],[-114,68],[-42,8],[-80,-3]],[[5345,6802],[22,-17],[103,-134],[127,-173],[37,-33],[31,-11],[82,-7],[81,-12],[37,-11],[202,-89],[87,-33],[150,-54],[68,-9],[115,-8],[163,9],[132,20],[-133,61],[46,96],[20,49],[23,72],[4,27],[-5,30],[-14,27],[-83,92],[-13,42],[-1,105],[10,62],[60,156],[4,32],[-6,30],[-14,21],[-147,116],[16,10],[87,68]],[[6636,7336],[70,-37],[25,-2],[26,-30],[18,-2],[16,-28],[27,-22],[-20,-23],[31,-22],[-6,-15],[33,-17],[62,-6],[12,4],[35,-18],[53,3],[71,-46],[60,-10],[18,-13],[28,7],[19,-5],[5,-19],[63,-40],[27,0],[40,-44],[12,-22],[-4,-17],[5,-39],[-12,-31],[-4,-44],[10,-21],[43,-19],[22,-18],[18,4],[41,-12],[17,9],[26,-7],[28,17],[40,1],[67,-13],[21,-28],[12,0],[40,-21],[26,-26],[5,-18],[55,-26],[41,-11],[52,14],[41,-9],[11,-8],[67,-16],[26,-9],[65,-15],[79,35],[18,14],[62,-2],[29,-13],[56,4],[21,-9],[68,-10],[17,-8],[28,-33],[27,-2],[24,-11],[16,-20],[35,6],[36,-6],[8,8],[32,-8],[67,-32],[11,22],[30,35],[34,26],[9,21],[25,22],[31,54],[2,14],[22,28],[-1,10],[29,34],[15,2],[27,30],[15,-9],[34,6],[15,24],[-4,56],[32,28],[17,-2],[9,45],[35,32],[15,-2],[19,34],[53,43],[1,17],[41,59],[68,45],[8,49],[38,29],[5,18],[16,12],[26,35],[13,56],[46,43],[6,54],[-34,-3],[-60,-20],[51,64],[43,91],[28,25],[55,3],[18,30],[-2,55],[27,42],[21,44],[44,26],[22,21],[43,4],[39,20],[33,40],[17,6],[17,-16],[15,-45],[49,-16],[25,-23]],[[9936,7797],[14,-5],[11,-24],[34,-17],[18,5],[70,-26],[33,-19],[14,-32],[32,-16],[18,-19],[18,-2],[20,-33],[18,-17],[8,-49],[26,-9],[11,-41],[-8,-18],[-36,-17],[-2,-14],[14,-23],[-8,-40],[15,-30],[21,1],[28,-28],[20,-34],[12,-55],[12,-16],[26,-11],[52,-50],[-5,-40],[-18,-10],[-5,-58],[26,-55],[-9,-17],[-25,-7],[-13,-19],[-24,-19],[-9,-41],[3,-34],[14,-28],[29,-14],[7,-26],[-9,-29],[-28,-58],[-20,-11],[-3,-21],[-22,-35],[-34,13],[-29,-27],[-12,-39],[-4,-32],[7,-37],[16,-16],[24,3],[36,-14],[-33,-113],[-11,-17],[1,-29],[12,-4],[27,27],[23,10],[45,5]],[[10384,6366],[-68,-109],[-49,-61],[-30,-33],[-278,-275],[-50,-53],[-54,-66],[-41,-57],[-467,-699],[-49,-78],[-94,-159],[-30,-58],[-45,-98],[-44,-118]],[[7852,5115],[-12,29],[-60,18],[-93,2],[-61,44],[-30,31],[-36,59],[-14,56],[-10,113],[-5,22],[2,71],[-17,37],[-26,19],[-81,15],[-81,30],[-54,10],[-39,-6],[-88,-33],[-46,-23],[-51,-18],[-64,-37],[-102,-80],[-46,-45],[-57,-75],[-30,-28],[-29,-14],[-47,-41],[-40,-14],[-45,8],[-38,29],[-21,54],[1,28],[10,46],[-24,28],[-28,14],[-70,2],[-54,14],[-44,26],[-23,23],[-38,59],[-67,80],[-54,81],[-29,67],[-14,41],[-29,35],[-48,26],[-118,37],[-86,38],[-36,7],[-43,-1],[-46,-15],[-36,-20],[-44,-41],[-29,-47],[-18,-47],[-16,-28],[-34,-40],[-28,-18],[-90,-3],[-43,1],[-37,8]],[[14367,8657],[40,28],[49,3],[25,10],[45,-13],[26,-34],[67,-5],[39,-15],[43,-26],[62,-52],[65,-62]],[[14828,8491],[-74,-207]],[[14754,8284],[-50,16],[-36,0],[-60,-23],[-34,-20],[-56,80],[-64,100]],[[14454,8437],[-88,135],[-19,66],[20,19]],[[14117,10417],[5,-16],[103,-159],[30,-41],[52,-56]],[[14307,10145],[26,-29],[7,-30],[-5,-22],[-87,-187]],[[14248,9877],[-16,-39],[-3,-21],[14,-93]],[[14243,9724],[-24,20],[-9,41],[-19,23],[3,17],[-28,42],[-2,29],[-15,21],[-24,19],[-13,20],[-7,29],[-13,17],[1,31],[-40,59],[16,22],[18,43],[1,25],[-22,36],[-27,83],[11,40],[-1,25],[-13,10],[-48,13]],[[14754,8284],[-96,-271],[-11,-28],[-41,-119],[-39,-107]],[[14567,7759],[-152,-21],[-65,-4]],[[14350,7734],[1,52],[25,43],[-57,35],[-88,68]],[[14231,7932],[48,-6],[19,67],[-71,23],[69,193],[57,164],[7,7],[94,57]],[[13658,8347],[27,20],[49,5],[89,-19],[47,8]],[[13870,8361],[82,38],[37,34],[20,28],[25,26],[77,65],[72,-16],[42,5],[76,22],[36,32],[-4,33],[12,20],[22,9]],[[14231,7932],[-330,252],[-62,34],[-32,12],[-167,37]],[[13640,8267],[0,27],[18,53]],[[6715,2957],[-88,85],[-42,44],[-111,137],[-20,14],[-140,60],[-22,11],[-102,69],[-15,32],[3,93],[-134,60],[-126,74],[-40,14],[-210,6],[-459,11],[-42,20],[-48,18],[-83,54],[-46,11],[-99,-16],[-121,-13],[-67,0],[-86,12],[-21,7]],[[4596,3760],[-3,98],[0,77],[12,62],[12,41],[19,81],[1,33],[-15,161],[2,48],[21,56],[48,60],[200,213],[11,4],[32,44],[25,41],[11,38],[4,33],[-1,196],[-6,122],[1,43],[22,55],[28,30],[27,19],[113,55],[49,37],[28,36],[30,71],[22,125],[27,110]],[[9413,10071],[53,5],[11,9],[33,1],[13,-11],[47,-11],[17,-24],[63,-1],[16,-10],[32,26],[53,-2],[24,-12],[29,22],[23,-4],[33,15],[34,-20],[48,36],[30,0],[32,10],[-7,28],[15,23],[19,53],[17,21],[43,-8],[32,15],[12,29],[18,4],[14,27],[24,-2],[18,18],[47,-7],[30,12],[34,32],[43,-12],[36,19],[15,25],[16,-3],[61,-43],[8,-16],[26,-14],[11,-19],[32,-25],[61,-17],[7,-28],[33,-2],[26,7],[38,-23],[39,20],[33,-15],[28,-22],[33,-10],[10,-32],[52,-14],[21,2],[15,-25],[16,-9],[-1,-27],[34,-31],[10,-34],[27,-15],[1,-23],[38,-31],[-19,-49],[-7,-40],[28,-5],[13,-12],[-4,-18],[18,-40],[21,-5],[15,9],[25,-18],[16,-31],[49,-1],[41,-7]],[[11285,9711],[26,-3],[14,10],[24,-5],[9,-17],[5,-62],[33,-12],[57,2],[12,-22],[28,16],[23,-17],[45,22],[34,6],[29,15],[18,19],[18,-12],[14,5],[9,27],[20,-11],[39,19],[-11,21],[8,23],[29,7],[14,19],[37,-12],[10,-13],[3,-50],[24,-58],[25,-16],[18,-31],[39,-7],[33,8],[28,22],[21,-10],[25,30],[35,9],[26,-13]],[[12106,9620],[-48,-157]],[[12058,9463],[-67,-221],[-21,-64],[-78,-207]],[[11892,8971],[-55,13],[-82,12],[-33,10],[-95,41],[-92,19],[-25,1],[-306,-10],[-38,-5],[-75,-17],[-46,-3]],[[11045,9032],[-778,13],[-47,7],[-32,-5],[-103,6],[10,22],[45,72],[-98,-17],[-63,-3],[-44,5],[-46,13],[-43,19],[-199,135],[-52,33],[-63,27],[-219,62]],[[9313,9421],[5,213],[12,68],[39,138],[30,97],[22,59],[2,16],[-10,59]],[[13944,7391],[192,-105],[25,-3],[-2,-43],[-10,-13],[-1,-35],[89,10],[73,-4],[4,10],[53,-16]],[[14367,7192],[-62,-172]],[[14305,7020],[-45,8],[-197,0],[-19,3],[5,23],[-22,16],[-180,95],[-108,62]],[[13739,7227],[22,23],[38,26],[62,32],[52,42],[31,41]],[[5602,9912],[9,-33],[16,-128],[16,-148],[14,-55],[-93,-37],[-14,-2],[-101,0],[-156,-22],[-97,-11],[-150,-8],[-29,-3],[-88,-22],[-43,-15],[-21,-13],[-29,-31],[-77,-130],[-39,-78],[-21,-74],[-3,-65],[-12,-33],[-35,-49],[-15,-38],[43,-87],[73,-165],[34,-124],[14,-88],[9,-36],[45,-102],[-32,-22],[-77,-68],[-122,-112]],[[3454,7456],[-5,26],[5,73],[25,131],[-1,32],[-52,56],[-51,3],[-22,-23],[-14,-40],[-8,-52],[0,-39],[-9,-30],[-20,-33],[-28,-27],[-46,-29],[-42,-17],[-76,6],[-77,17],[-86,4],[-46,-11],[-74,-40],[-25,-6],[-88,-13],[-33,0],[-53,21],[-92,52],[-138,135],[-67,59],[-21,21]],[[2310,7732],[64,121],[688,1242],[273,492],[139,251],[353,635],[164,285]],[[13528,6890],[85,112]],[[13613,7002],[24,-12],[104,-16],[47,4],[36,8],[3,-46],[160,6],[93,6],[20,-10],[-24,-68],[108,-34],[-25,-68],[53,-14]],[[14212,6758],[-25,-72],[-96,-271],[-21,-56],[-161,-454]],[[13909,5905],[-86,17],[-27,11],[-158,83],[-23,16],[-37,35],[-41,52],[-30,20],[-97,17],[-34,11],[-86,40],[-63,45],[-41,21],[-53,13],[-116,18],[-95,34],[-27,4],[-65,0],[-45,-8]],[[12785,6334],[15,22],[88,159],[44,53],[65,60],[133,92],[61,28],[182,41],[36,14],[52,27],[30,23],[37,37]],[[14023,7501],[13,17],[89,83]],[[14125,7601],[43,39],[39,45],[22,17],[47,18],[74,14]],[[14567,7759],[-21,-63],[-96,-269]],[[14450,7427],[-52,18],[16,45],[-336,-18],[-55,29]],[[14003,7473],[20,28]],[[14450,7427],[-64,-178],[-19,-57]],[[13944,7391],[59,82]],[[13613,7002],[39,63],[64,127],[23,35]],[[14305,7020],[-93,-262]],[[12106,9620],[37,122],[16,60],[79,326],[19,62],[26,70],[39,85],[36,66],[142,239]],[[12500,10650],[8,-4]],[[13286,10153],[8,-215],[6,-105]],[[13300,9833],[10,-159],[-2,-28],[-25,-89]],[[13283,9557],[-20,-54],[-26,-34],[-89,-72],[-64,-58],[-49,-60],[-30,-43]],[[13005,9236],[-116,92],[-64,40],[-88,31],[-63,11],[-616,53]],[[13005,9236],[-21,-38],[-30,-73],[-17,-54],[-9,-43],[-6,-68],[1,-56],[10,-124]],[[12933,8780],[-275,14],[-53,2],[-134,-2],[-95,8],[-33,11],[-100,46]],[[12933,8780],[8,-66],[10,-157],[7,-77]],[[12958,8480],[4,-64]],[[5241,12944],[163,286],[385,672],[177,309],[527,922]],[[6528,9826],[-4,-139],[0,-77],[14,-117],[-2,-65],[-11,-67],[-27,-80],[-81,-163],[-15,-22],[-47,-43],[-64,-42],[-40,-31],[-50,-51],[-15,-38],[-8,-183],[72,18],[38,-4],[57,-27]],[[6345,8695],[1,-91],[23,-67],[-1,-36],[-23,-63],[-33,-110],[-7,-15],[-28,-27],[-128,-70],[89,-104],[184,-179],[88,-94],[32,-23],[40,-16],[99,-25],[32,-19],[44,-33],[36,-34],[65,-45],[102,-58],[-21,-34],[-4,-30],[10,-58],[-113,-39],[-143,-52],[-53,-37]],[[31,3358],[417,-104],[76,-21],[907,-278],[148,-51],[112,-46],[257,-116],[82,-33],[99,-31]],[[2129,2678],[-59,-54],[-70,-41],[-205,-98],[-71,-27],[-36,-20],[-3,-36],[-3,-152],[0,-110],[-9,-156],[-3,-226],[1,-101],[5,-38],[33,-213],[25,-179],[18,-48],[52,-113],[21,-37],[25,-77],[4,-56],[-6,-27],[-32,-81],[-42,-83],[-36,-82],[-40,-135],[-9,-48],[-15,-148],[5,-57],[17,-52],[6,-38],[-15,-38],[-34,-33]],[[1653,74],[-11,19],[-52,45],[-17,-2],[-17,-29],[-15,-11],[-23,6],[-14,17],[-15,43],[-26,17],[-23,30],[-31,18],[-1,29],[-35,32],[-55,13],[-4,18],[9,42],[19,4],[-31,62],[13,30],[27,29],[-3,15],[19,40],[3,29],[24,57],[-1,13],[-56,-3],[-10,4],[-19,32],[-6,32],[10,13],[7,53],[-14,25],[-21,12],[-22,23],[11,48],[10,18],[-13,32],[-35,17],[0,21],[-23,42],[-30,8],[-50,-34],[-34,-39],[-2,-10],[-65,-1],[-16,-12],[-13,-32],[-26,17],[-19,-17],[-6,-20],[-25,-19],[-14,11],[-16,-12],[-25,6],[-24,17],[-27,-5],[-50,10],[-31,41],[-8,21],[1,32],[-38,49],[-3,15],[15,53],[-24,12],[-10,29],[32,52],[-12,29],[-32,31],[-30,20],[-34,55],[0,31],[-9,23],[0,61],[6,40],[-47,36],[-44,-2],[-37,19],[-15,-5],[-50,33],[-16,18],[-3,43],[-23,45],[-15,13],[-92,-10],[-49,33],[-9,23],[19,21],[23,12],[37,1],[-1,49],[14,23],[-12,34],[-1,39],[14,77],[26,55],[26,65],[7,30],[-25,21],[-10,21],[28,6],[23,60],[14,17],[-19,39],[8,32],[31,19],[2,23],[20,28],[-23,9],[-2,28],[-28,-2],[-23,24],[-14,28],[-30,1],[-55,36],[1,19],[-11,30],[-22,12],[5,21],[-7,21],[-14,8],[20,20],[9,38],[29,51],[-30,20],[4,17],[-32,32],[-23,43],[-1,25],[27,27],[-11,42],[-19,17],[-15,39],[0,20],[26,81],[-18,13],[-15,23],[-41,19],[-19,22],[-13,-1],[-10,-26],[-30,3],[-32,31],[2,25],[30,26],[-10,11],[18,22],[5,24],[-18,41],[4,29]],[[11589,15710],[24,-55],[56,-84],[28,-28],[5,-39],[30,-17],[26,5],[16,20],[8,26],[3,35],[18,28],[24,14],[51,-4],[28,-22],[31,-51],[27,-51],[16,-20],[22,7],[-6,45],[40,-6],[42,11],[36,24],[22,0],[48,-15],[52,8],[51,41],[54,2],[26,44],[46,33],[33,10],[91,11],[42,-9],[27,-17],[41,-41],[44,-32],[45,-18],[26,5],[45,20],[34,-3],[92,-43],[37,-10],[44,-2],[69,15],[67,6],[41,-1],[164,-38],[54,-8],[47,-1],[28,11],[41,35],[44,4],[27,-22],[88,-24],[41,-16],[39,8],[41,21],[35,-12],[50,-34],[12,-18],[15,-42],[21,-30],[30,-11],[39,-31],[27,-15],[48,-15],[36,-4],[103,-32],[40,6],[16,15],[27,40],[28,54],[4,31],[-17,93],[-7,59],[5,61],[22,50],[23,19],[37,-14],[33,-29],[6,-15],[-8,-39],[1,-27],[32,-41],[16,-11],[44,-20],[25,2],[33,25],[23,7],[46,1],[88,-10],[49,-25],[81,-17],[23,-9],[40,-30]],[[13920,12696],[-4,28],[-21,0],[-13,-21],[-19,-9],[-23,17],[-4,-28],[-14,-23],[-34,-18],[-56,-3],[-19,24],[-32,-3],[-28,40],[-35,9],[-38,36],[-48,22],[-26,-6],[-21,-20],[-17,-34],[-4,-22],[1,-63],[-33,-28],[-13,6],[-13,39],[-30,36],[-34,55],[-44,31],[-42,46],[-28,-15],[-26,26],[-21,-9],[-16,-20],[-60,-19],[-27,-27],[-23,-13],[-45,-48],[-30,-15],[-48,-6],[-62,-19],[-44,2],[-29,19],[-16,-12],[15,-20],[5,-27],[-23,-32],[-53,-19],[-29,5],[-4,19],[-26,22],[-38,15],[-43,6],[-32,-6],[-16,5],[-22,30],[-2,49],[-19,18],[-30,13],[-25,-3],[-11,9],[2,32],[-40,35],[-78,82],[-19,11]],[[12293,12895],[-29,-13],[-23,3],[-29,31],[-37,48],[-37,23],[-61,9],[-32,-9],[-35,19],[-15,35],[4,35],[16,28],[-5,11],[-58,17],[-50,-5],[-50,38],[-9,15],[0,25],[13,25],[26,34],[24,46],[19,74],[0,22],[-29,52],[-16,7],[-25,-12],[-30,-1],[-30,-11],[-48,-37],[-64,-21],[-14,-11],[-16,-34],[14,-52],[-2,-30],[-36,-13],[-18,2],[-20,28],[5,39],[-24,8],[-34,-44],[-13,-9],[-29,26],[-104,19],[-17,17],[26,7],[11,21],[-10,13],[-29,10],[-49,29],[-47,22],[-31,31],[-30,20],[-73,83],[-6,55],[-8,21],[-29,22],[-48,-10],[-26,-21],[-47,-117],[-8,-36],[-18,-26],[-14,-5],[-78,-10]],[[13199,8073],[19,3],[24,-11],[15,8],[60,-15],[17,13],[45,-23],[23,-26],[41,0],[23,23],[19,39],[51,32],[13,15],[-8,19],[11,14],[-13,29],[7,22],[28,8],[11,56],[55,-12]],[[13640,8267],[1,-51],[10,-56],[4,-53],[-1,-65],[-7,-54],[-3,-53],[1,-42],[17,-76],[36,-69],[17,-54],[2,-25],[-9,-31]],[[13708,7638],[-17,-32],[-27,-35],[-20,-40],[-11,-49],[-23,-28],[-86,-84]],[[13524,7370],[-40,-10],[-33,1],[-29,-34],[-67,26],[-27,-22],[-52,69],[-38,8],[-22,-16],[-23,3],[-11,-11],[-29,-9],[-11,7],[-37,-19],[-19,19],[-29,6],[-51,25],[-30,8],[-39,-5],[-24,29],[-30,0],[-10,11],[-45,-3],[-46,-62],[-30,-27],[-10,-30],[6,-18],[-15,-16],[17,-19],[8,-28],[-27,-24],[-55,-24],[-36,-5],[-21,11],[-24,-27],[-31,-6],[-16,-22],[-43,-5],[-26,15],[-15,-6],[-50,15],[-135,-7]],[[12500,10650],[-268,129],[-68,42],[-105,68],[-232,140],[-51,29]],[[11776,11058],[5,71],[54,-7],[73,12],[42,13],[17,15],[19,35],[46,64],[16,37],[-11,39],[9,48],[-8,19],[-7,71],[-14,24],[-87,6],[-43,1],[10,106],[15,64],[20,48],[15,60],[19,31],[36,26],[74,31],[36,19],[50,52],[-20,45],[-139,223],[-96,153],[-25,33],[-23,23],[71,81],[166,196],[58,54],[69,59],[42,41],[28,44]],[[12449,6099],[109,101],[29,25],[32,19],[93,34],[58,39],[15,17]],[[13909,5905],[-31,-87],[-45,-116],[-44,-102],[-90,-190],[-37,-82],[-218,-465],[-118,-252],[-178,-383],[-68,-139],[-265,233],[-11,4]],[[12804,4326],[35,47],[27,27],[-1,12],[20,48],[3,22],[-8,59],[-35,188],[-1,29],[13,228],[2,20],[18,62],[18,195],[-13,44],[-34,43],[-15,27],[-47,103],[-12,71],[-22,83],[-64,123],[-23,51],[-18,76],[-22,30],[-40,36],[-5,20],[-45,30],[-26,23],[-60,76]],[[2129,2678],[119,-26],[128,-15],[144,-5],[61,-4]],[[2954,533],[-363,-95],[-141,-35],[-43,-12],[-49,-26],[-92,-86],[-37,-25],[-70,-13],[-6,-5],[-94,-132],[-6,-13],[-40,-24],[7,-24],[-14,-19],[-14,1],[-18,-17],[-53,14],[-34,-18],[-41,8],[-11,-11],[-52,5],[-44,-6],[-57,5],[-29,69]],[[1273,5757],[639,1218],[398,757]],[[4571,6602],[-9,-30],[-53,-98],[-29,-50],[-159,-205],[-75,-76],[-59,-53],[-27,-35],[-41,-77],[-12,-13],[-161,-119],[-19,-22],[-11,-35],[-6,-95],[-12,-49],[-26,-55],[-72,-83],[-64,-55],[-24,-14],[-64,-16],[-37,-23],[-33,-35],[-34,-43],[-57,-50],[-126,-80],[-56,-30],[-62,-27],[-2,18],[12,62],[24,104],[10,84],[-57,-5],[-124,-22],[-54,-18],[-46,-8],[-36,2],[-35,10],[-25,19],[-40,43],[-25,16],[-56,18],[-54,2],[-88,-4],[-70,-21],[-48,-29],[4,-37],[-1,-164],[0,-122],[-8,-54],[-27,-74],[-8,-35],[-71,-1],[-58,7],[-43,1],[-31,-5],[-202,-55]],[[2084,4866],[-29,35],[-27,21],[-181,112],[-38,34],[-27,45],[-18,58],[-65,139],[-27,44],[-62,109],[-20,48],[-39,142],[-16,38],[-24,32],[-28,25],[-19,30],[-5,27],[9,71],[-125,-70],[-70,-49]],[[4596,3760],[-152,53],[-59,13],[-82,53],[-75,65],[-12,14],[-184,14],[-122,11],[-40,5],[-155,4],[-440,5],[-198,1],[-42,-11],[-20,-14],[-30,-36],[-23,-12],[-86,12]],[[2876,3937],[-36,7],[-56,22],[-38,6],[-142,2],[-71,-3],[-53,-25],[-132,-37],[-20,-10],[3,86],[-2,33],[-18,27],[-46,32],[-46,18],[-148,80],[-35,35],[-27,49],[-29,22],[-223,103],[-35,23],[-68,115],[78,72],[37,38],[74,85],[25,24],[53,43],[100,62],[63,20]],[[2876,3937],[-2,-26],[-23,-4],[-8,-19],[11,-21],[2,-24],[16,-16],[1,-16],[-16,-13],[-44,4],[-38,-4],[-25,18],[-36,-8],[-20,-25],[1,-28],[29,-25],[-3,-30],[-41,-42],[-26,-17],[-44,-38],[-33,-46],[-23,-56],[-1,-22],[12,-18],[0,-39],[-38,-35],[-16,-25],[-16,-40],[1,-35],[24,-16],[34,-6],[14,-10],[-7,-36],[8,-20],[26,-22],[6,-47],[14,-39],[11,-14],[-4,-18],[-45,6],[-17,-12],[0,-21],[33,-82],[0,-31],[-7,-12],[0,-37],[-19,-15],[8,-39],[-19,-45],[15,-29],[10,-35],[-3,-64],[3,-15]],[[31,3358],[16,33],[469,933],[367,696],[390,737]],[[4596,3760],[-24,-192],[-2,-39],[7,-77],[12,-122],[13,-46],[37,-112],[5,-63],[-4,-22],[-39,-140],[-56,-156],[-17,-40],[-40,-74],[-14,-32],[-4,-29],[9,-99],[1,-35],[-13,-132],[-11,-80],[-7,-36]],[[6630,2082],[-598,-269]],[[13283,9557],[157,-106],[13,-11],[117,-152],[18,-20],[113,-87],[73,-46]],[[13774,9135],[-68,-152],[-43,-84],[-19,12],[-66,-6],[-10,-10],[-79,9]],[[13489,8904],[-45,71],[-23,26],[-27,17],[-32,10],[-56,7],[-34,8],[-52,21],[-2,9],[-52,33],[-31,27],[-130,103]],[[13489,8904],[110,-174],[6,-14]],[[13605,8716],[-83,7],[-150,18],[-155,21],[-81,7],[-203,11]],[[13764,9810],[413,-351],[42,-46]],[[14219,9413],[79,-95]],[[14298,9318],[94,-105],[33,-59]],[[14425,9154],[-147,-70],[-179,-91],[-64,-40],[-34,23],[-81,68],[-20,14],[-126,77]],[[13774,9135],[110,180],[9,19],[-36,19],[0,16],[-46,80],[2,34],[-12,28],[-27,12],[-16,24],[-2,35],[-56,74],[-11,10],[-40,14],[-9,34],[-30,18],[-46,11],[-41,19],[-81,5],[-12,14],[-48,20],[-29,0],[-25,15],[-10,17],[-18,0]],[[14425,9154],[9,-59],[1,-120],[-9,-32],[-83,-117],[-23,-40],[-7,-48],[12,-25],[42,-56]],[[13870,8361],[-43,76],[-78,111],[-96,120],[-29,42],[-19,6]],[[14298,9318],[116,88],[45,37],[123,114],[37,56],[45,43]],[[14664,9656],[39,31],[27,6],[65,-6],[105,-18],[47,-24],[26,-25],[32,-19],[103,237],[17,34],[26,39],[65,-71],[45,-31]],[[15261,9809],[-50,-228],[-13,-46],[-34,-98],[-336,-946]],[[13658,8347],[-20,7],[-11,-13],[-19,2],[48,76],[-28,17],[20,32],[-12,15],[-79,8],[-395,-54],[-204,43]],[[10384,6366],[12,-8],[8,-34],[22,-34],[-9,-20],[-33,0],[-48,-43],[-13,-30],[2,-27],[29,-20],[7,-39],[15,-20],[6,-60],[-4,-16],[-29,-23],[3,-42],[41,-29],[18,-20],[8,-35],[16,-25],[66,-74],[26,-10],[125,6],[30,11],[64,45],[3,18],[-8,27],[0,27],[18,16],[121,-4],[51,-18],[48,-25],[25,-24],[34,-15],[25,4],[46,21],[40,27],[31,0],[7,-25],[20,-33],[35,-13],[36,17],[18,20],[96,42]],[[11392,5881],[30,-51],[38,-51],[20,-9],[49,-6],[42,0],[30,-13],[59,-38],[43,-42],[15,-31],[13,-61],[-16,-133],[-12,-43],[-32,-62],[-68,-46],[-79,-19],[-75,-25],[-27,-45],[-16,-75],[-40,-56],[-62,-42],[-64,-51],[-50,-55],[-41,-89],[-59,-102],[138,-112],[-73,-85],[118,-120],[67,-38],[71,-60]],[[11411,4321],[-738,-350],[-341,-163],[-723,-343],[-430,-205],[-319,-151],[-307,-146]],[[11392,5881],[35,21],[20,28],[19,58],[55,49],[139,99],[34,27],[24,30],[44,97],[48,80],[33,37],[28,20],[42,17],[40,6],[55,0],[57,5],[33,11],[27,23],[13,23],[18,72],[17,32],[23,21],[40,20],[41,1],[28,-7],[38,-37],[1,-76],[-7,-33],[3,-42],[23,-50],[25,-18],[36,1]],[[12424,6396],[17,-55],[1,-39],[-12,-118],[3,-34],[16,-51]],[[12804,4326],[-648,214],[-27,-10],[-266,-121],[-46,-8],[-406,-80]],[[15525,10672],[-86,-180],[-30,-71],[-37,-108],[-51,-227]],[[15321,10086],[-74,15],[-101,39],[-38,38],[-177,193],[-23,-131],[-23,-96],[-55,-101],[-42,21],[-84,55],[-66,21],[-56,6],[-123,28],[-49,3],[-32,-6],[-71,-26]],[[14243,9724],[2,-70],[-17,-185],[-2,-43],[-7,-13]],[[15321,10086],[-60,-277]],[[14664,9656],[-63,62],[-58,22],[3,117],[-7,19],[-16,-3],[-83,3],[-47,-1],[-145,2]],[[10384,6366],[136,217],[22,40],[122,246],[64,115],[117,180],[53,64],[234,234],[62,74],[37,56]],[[12284,6983],[52,-59],[19,-29],[38,-153],[5,-28],[3,-55],[-2,-124],[10,-87],[15,-52]],[[11650,11128],[126,-70]],[[11285,9711],[-7,109],[3,67],[-1,61],[-7,32],[-18,43],[-26,44],[-46,97],[-16,56],[-8,70],[-1,181],[121,-54],[42,-9],[117,-4],[23,-7],[71,109],[21,18],[8,22],[18,72],[6,38],[3,99],[0,192],[5,35],[57,146]],[[11045,9032],[-19,-31],[-101,-84],[-56,-70],[-53,-34],[-18,-6]],[[10798,8807],[-447,19],[-49,4],[-685,104],[-74,6],[-380,12]],[[9163,8952],[45,130],[65,194],[28,77],[12,68]],[[9162,8948],[165,-6],[-7,-15],[2,-33],[20,-45],[63,-80],[118,-158],[65,-84],[79,-78],[147,-133],[28,-39]],[[9842,8277],[-76,-21],[-49,-17],[-17,-12],[-51,-47],[-49,-17],[-65,-7],[-45,0],[-78,7],[-51,-9],[-178,-76],[-138,-56],[-68,-26],[-111,-25]],[[8866,7971],[26,29],[36,51],[9,39],[0,54],[8,82],[7,32],[27,82],[28,107],[15,39],[19,70],[7,64],[11,40],[49,142],[54,146]],[[9603,11881],[106,-29],[193,-40],[116,-3],[199,-1],[61,-6],[66,-10],[288,-3],[28,-3],[31,-14],[52,-34],[67,-12],[184,-34],[19,-10],[130,-140],[93,-150],[39,-44],[29,-21],[115,-65],[231,-134]],[[9413,10071],[-36,-6],[-48,2],[-21,10],[-40,4],[-57,-12],[-48,9],[-26,-3],[-41,26],[-18,38],[7,18],[-26,11],[-36,3],[-7,31],[-16,9],[-63,-2],[-25,24],[-39,10],[-35,-9],[-12,16],[-42,13],[-17,18],[-37,26]],[[9313,9421],[-110,29],[-43,5],[-64,-2],[-47,-9],[-71,-25],[-33,-18],[-431,-310],[-91,-75]],[[8423,9016],[-61,-1],[-47,6],[-123,22],[-4,3],[-113,22],[-135,-1],[-185,3],[-40,-3],[-102,-26],[-62,-25],[-91,-49],[-35,-13],[-95,-19],[-72,-8],[-67,-1],[-42,-6],[-71,-31],[-73,-38],[-191,-106],[-39,-15],[-238,-50],[-65,0],[-57,5],[-70,10]],[[13708,7638],[14,-5]],[[13722,7633],[55,-35],[226,-125]],[[13528,6890],[-20,64],[-11,83],[2,37],[25,296]],[[9163,8952],[-1,-4]],[[8866,7971],[-15,6],[-126,13],[-78,17],[-45,6],[-80,-3],[-39,-9],[9,139],[17,507],[6,111],[-35,-2],[-87,0],[-32,146],[-57,-10],[69,77],[50,47]],[[10798,8807],[-62,-33],[-52,-42],[-92,-37],[-35,-18],[-28,-25],[-31,-42],[-37,-44],[-26,-18],[-84,-49],[-152,-75],[-102,-54],[-75,-36],[-83,-32],[-97,-25]],[[11547,8093],[-88,7],[-84,18],[-318,77],[2,88],[11,22],[90,76],[42,44],[180,322],[7,15],[-126,24],[-48,4],[-417,17]],[[9936,7797],[0,79],[-5,56],[-44,172],[-36,149],[-9,24]],[[13880,7853],[245,-252]],[[13722,7633],[35,104],[11,19],[60,59],[52,38]],[[14231,7932],[-69,2],[-201,-31],[-23,-8],[-58,-42]]],"transform":{"scale":[0.00003151970457236228,0.000026867043847241713],"translate":[-78.257021,35.727758]},"objects":{"Geometry\\37-127":{"type":"GeometryCollection","geometries":[{"arcs":[[0,1,2,3,4,5,6]],"type":"Polygon","properties":{"GEOID":"371270109003"}},{"arcs":[[7,8,9,10,11,12,13,14]],"type":"Polygon","properties":{"GEOID":"371270107003"}},{"arcs":[[15,16,17,18,19,-3]],"type":"Polygon","properties":{"GEOID":"371270109004"}},{"arcs":[[20,21,22,23]],"type":"Polygon","properties":{"GEOID":"371270105041"}},{"arcs":[[24,25,26,27,28,29,30,31]],"type":"Polygon","properties":{"GEOID":"371270105043"}},{"arcs":[[32,33,34]],"type":"Polygon","properties":{"GEOID":"371270107001"}},{"arcs":[[35,-34,36,-9,37]],"type":"Polygon","properties":{"GEOID":"371270107002"}},{"arcs":[[38,39,40,41]],"type":"Polygon","properties":{"GEOID":"371270114001"}},{"arcs":[[42,43,44,45,46]],"type":"Polygon","properties":{"GEOID":"371270113003"}},{"arcs":[[47,-17,48,49]],"type":"Polygon","properties":{"GEOID":"371270109001"}},{"arcs":[[50,51,52,53,54]],"type":"Polygon","properties":{"GEOID":"371270110002"}},{"arcs":[[55,-24,56,-29]],"type":"Polygon","properties":{"GEOID":"371270105044"}},{"arcs":[[57,58,59,60,-44,61,-52]],"type":"Polygon","properties":{"GEOID":"371270113001"}},{"arcs":[[62,63,64,65]],"type":"Polygon","properties":{"GEOID":"371270104001"}},{"arcs":[[66,67,68,69,-12]],"type":"Polygon","properties":{"GEOID":"371270106011"}},{"arcs":[[-65,70,71,72,73]],"type":"Polygon","properties":{"GEOID":"371270104002"}},{"arcs":[[74,75,-66,-74,76,77]],"type":"Polygon","properties":{"GEOID":"371270104003"}},{"arcs":[[-62,-43,78,79]],"type":"Polygon","properties":{"GEOID":"371270113002"}},{"arcs":[[80,81,82,83,84,85,86]],"type":"Polygon","properties":{"GEOID":"371270111011"}},{"arcs":[[87,88,89,90]],"type":"Polygon","properties":{"GEOID":"371270102003"}},{"arcs":[[-7,91,-55,92,93]],"type":"Polygon","properties":{"GEOID":"371270110001"}},{"arcs":[[94,95,96,97,98]],"type":"Polygon","properties":{"GEOID":"371270102005"}},{"arcs":[[99,100,-72,101,102]],"type":"Polygon","properties":{"GEOID":"371270102001"}},{"arcs":[[103,-103,104,-88,105]],"type":"Polygon","properties":{"GEOID":"371270102002"}},{"arcs":[[106,-90,107,-96]],"type":"Polygon","properties":{"GEOID":"371270102004"}},{"arcs":[[108,109,-15,110,111,112,113,-83]],"type":"Polygon","properties":{"GEOID":"371270105031"}},{"arcs":[[-114,114,115,-27,-84]],"type":"Polygon","properties":{"GEOID":"371270105032"}},{"arcs":[[-116,116,117,-21,-56,-28]],"type":"Polygon","properties":{"GEOID":"371270105042"}},{"arcs":[[118,-49,-16,-2]],"type":"Polygon","properties":{"GEOID":"371270109002"}},{"arcs":[[-92,-6,119,120,-58,-51]],"type":"Polygon","properties":{"GEOID":"371270110003"}},{"arcs":[[121,122,123]],"type":"Polygon","properties":{"GEOID":"371270115011"}},{"arcs":[[124,-35,-36,125,126,-18,-48]],"type":"Polygon","properties":{"GEOID":"371270108011"}},{"arcs":[[-57,-23,127,128,129,130,-30]],"type":"Polygon","properties":{"GEOID":"371270103022"}},{"arcs":[[-126,-38,-8,-110,131,132]],"type":"Polygon","properties":{"GEOID":"371270108024"}},{"arcs":[[133,-98,134,135]],"type":"Polygon","properties":{"GEOID":"371270112011"}},{"arcs":[[-123,136,-42,137]],"type":"Polygon","properties":{"GEOID":"371270115012"}},{"arcs":[[138,-93,-54,139,140]],"type":"Polygon","properties":{"GEOID":"371270115021"}},{"arcs":[[-140,-53,-80,141,142]],"type":"Polygon","properties":{"GEOID":"371270115022"}},{"arcs":[[-141,-143,143,-137,-122,144]],"type":"Polygon","properties":{"GEOID":"371270115023"}},{"arcs":[[-142,145,-39,-144]],"type":"Polygon","properties":{"GEOID":"371270114002"}},{"arcs":[[-79,-47,146,-40,-146]],"type":"Polygon","properties":{"GEOID":"371270114003"}},{"arcs":[[-113,147,148,149]],"type":"Polygon","properties":{"GEOID":"371270105053"}},{"arcs":[[-150,150,151,-115]],"type":"Polygon","properties":{"GEOID":"371270105061"}},{"arcs":[[-14,152,153,154,155,156,-111]],"type":"Polygon","properties":{"GEOID":"371270105051"}},{"arcs":[[-149,-156,157,-76,158,-151]],"type":"Polygon","properties":{"GEOID":"371270105052"}},{"arcs":[[159,160,161,-63,-158,-155]],"type":"Polygon","properties":{"GEOID":"371270106042"}},{"arcs":[[-152,-159,-75,162,-117]],"type":"Polygon","properties":{"GEOID":"371270105062"}},{"arcs":[[-45,-61,163,164,165]],"type":"Polygon","properties":{"GEOID":"371270112022"}},{"arcs":[[166,167,-136,168,-165]],"type":"Polygon","properties":{"GEOID":"371270112012"}},{"arcs":[[169,170,-67,-11]],"type":"Polygon","properties":{"GEOID":"371270106031"}},{"arcs":[[-13,-70,171,-153]],"type":"Polygon","properties":{"GEOID":"371270106012"}},{"arcs":[[-68,-171,172,-161,173]],"type":"Polygon","properties":{"GEOID":"371270106041"}},{"arcs":[[174,-32,175,-167,-164]],"type":"Polygon","properties":{"GEOID":"371270112021"}},{"arcs":[[176,-132,-109,-82,177]],"type":"Polygon","properties":{"GEOID":"371270108021"}},{"arcs":[[-86,178,179,180]],"type":"Polygon","properties":{"GEOID":"371270111034"}},{"arcs":[[181,182,183]],"type":"Polygon","properties":{"GEOID":"371270111031"}},{"arcs":[[-20,184,-178,-81,185,-4]],"type":"Polygon","properties":{"GEOID":"371270108022"}},{"arcs":[[-5,-186,-87,186,187,-120]],"type":"Polygon","properties":{"GEOID":"371270111042"}},{"arcs":[[-130,188,189,-106,-91,-107,-95,190]],"type":"Polygon","properties":{"GEOID":"371270103014"}},{"arcs":[[-187,-181,191,-184,192]],"type":"Polygon","properties":{"GEOID":"371270111033"}},{"arcs":[[-180,193,-182,-192]],"type":"Polygon","properties":{"GEOID":"371270111032"}},{"arcs":[[-85,-26,194,-179]],"type":"Polygon","properties":{"GEOID":"371270111012"}},{"arcs":[[-131,-191,-99,-134,-168,-176,-31]],"type":"Polygon","properties":{"GEOID":"371270103021"}},{"arcs":[[-194,-195,-25,-175,-60,195]],"type":"Polygon","properties":{"GEOID":"371270111013"}},{"arcs":[[196,-100,-104,-190,197]],"type":"Polygon","properties":{"GEOID":"371270103013"}},{"arcs":[[-188,-193,-183,-196,-59,-121]],"type":"Polygon","properties":{"GEOID":"371270111041"}},{"arcs":[[-69,-174,-160,-154,-172]],"type":"Polygon","properties":{"GEOID":"371270106043"}},{"arcs":[[-127,-133,-177,-185,-19]],"type":"Polygon","properties":{"GEOID":"371270108023"}},{"arcs":[[-163,-78,-128,-22,-118]],"type":"Polygon","properties":{"GEOID":"371270105063"}},{"arcs":[[-77,198,-198,-189,-129]],"type":"Polygon","properties":{"GEOID":"371270103012"}},{"arcs":[[-73,-101,-197,-199]],"type":"Polygon","properties":{"GEOID":"371270103011"}},{"arcs":[[-157,-148,-112]],"type":"Polygon","properties":{"GEOID":"371270105054"}}]}}}