{"type":"Topology","arcs":[[[1102,1175],[16,7],[76,89],[50,33],[50,80],[-1,75],[6,86],[34,6],[59,22],[46,24],[39,-28],[130,121],[24,61],[43,61],[62,45]],[[1736,1857],[52,-35],[30,-14],[72,-23],[84,-11]],[[1974,1774],[-12,-65],[21,-38],[25,-16],[38,-34],[28,-6],[37,-19],[20,14],[38,-15],[55,-85],[-13,-67],[75,-246],[6,-30],[106,-76],[24,-45],[6,-82]],[[2428,964],[2,-22]],[[2430,942],[-73,11],[-93,-9],[-71,13],[-74,-10],[-93,34],[-110,-19],[-21,27],[-3,21],[-16,21],[-59,-13],[-26,12],[-80,131],[-20,16],[-40,12],[-53,-1],[-46,9],[-28,14],[-29,38],[-25,12],[-18,-7],[-97,-107],[-32,-26],[-26,-7],[-12,18],[-16,-24],[-31,13],[-45,5],[-20,20],[-51,14],[-20,15]],[[3259,1812],[82,240],[32,45],[10,43],[38,20],[26,7],[40,38],[-3,34],[-17,22],[0,16],[58,113],[100,-76]],[[3625,2314],[36,-30],[247,158],[101,42],[13,13],[29,55],[16,11],[11,24],[18,90],[24,18],[47,22],[101,65]],[[4268,2782],[111,-66],[42,-54],[38,-74],[32,-42],[100,-56],[47,-41],[28,-55],[19,-53],[25,-38],[82,-89],[18,-43],[21,-74],[26,-56],[49,-56],[24,-35],[18,-45],[19,-22],[124,-88],[75,-56],[77,-69],[31,-18],[57,-12],[51,-21]],[[5382,1619],[-59,-70],[-15,-39],[-5,-64],[-26,-24],[-46,-31],[-149,-46],[-37,-16],[-47,-55],[-61,-5],[-301,55],[-323,116],[-24,11],[-73,5],[-154,-34]],[[4062,1422],[-167,88],[-129,74],[-63,32],[-210,120],[-88,59],[-21,9],[-69,7],[-56,1]],[[1974,1774],[19,1],[54,19],[70,43],[62,1],[86,6],[42,-15],[63,-35],[13,-16],[50,-211],[39,9],[234,119],[19,-53],[-6,-22],[17,-31],[-9,-35],[15,-15],[5,-68],[20,-19],[1,-24],[-9,-64],[39,-44],[28,10],[23,-1],[7,-14],[-4,-117],[-12,-19],[26,-10],[9,-37],[0,-73]],[[2875,1059],[-23,-2],[-73,-36],[-62,-19],[-217,-23],[-61,2],[-11,-17]],[[3519,3746],[24,6],[36,-11],[17,9],[22,-8],[19,-44],[-3,-18],[18,-64],[35,-3],[7,-12],[38,-21],[18,-4],[3,-48],[27,-12],[11,-16],[-6,-33],[18,-38],[24,7],[27,-4],[46,9],[11,9],[31,-6],[18,13],[19,-5],[0,-77],[28,-12],[38,-34],[-2,-20],[-25,-4],[-18,-19],[25,-58],[33,-30],[15,-34],[37,-48],[2,-65],[9,-19],[80,-52],[6,-18],[-9,-58],[5,-52],[30,-48],[35,-22]],[[3625,2314],[31,102],[-1,55],[-12,43],[-5,57],[-7,33],[2,27],[16,26],[1,41],[30,37],[39,21],[23,26],[13,39],[60,124],[10,46],[-100,257],[-217,398],[-22,26],[33,74]],[[2875,1059],[66,-1],[78,11],[240,28],[57,1],[67,-29],[39,0],[148,14],[40,51],[33,23],[116,35],[47,26],[25,39],[23,81],[33,43],[175,41]],[[4062,1422],[93,-51],[61,-43],[244,-158],[54,-39],[55,-31],[271,-183],[85,-54],[182,-122],[63,-40],[74,-51],[141,-92],[55,-39]],[[5440,519],[-25,-12],[-163,-51],[-144,-48],[-67,-20],[-40,-7],[-223,-16],[-56,-10],[-128,-33],[-80,-18],[-231,-46],[-222,-50],[-174,-44],[-107,-31],[-152,-46],[-124,-48],[-104,-25],[-72,-13],[-133,-1],[-94,10],[-71,14],[-70,20],[-65,25],[-70,33],[-58,19],[-76,12],[-61,-1],[-67,-7],[-82,785],[-12,20],[-39,12]],[[5382,1619],[51,-27],[39,-67],[258,-841],[-76,-33],[-214,-132]],[[232,4045],[11,-46],[69,-98],[11,-41],[24,-26],[60,-23],[42,-35],[52,-11],[20,-31],[58,24],[38,48],[43,29],[46,-20],[25,0],[56,26],[71,-36],[36,-1],[16,-22],[75,-21],[21,2],[22,-10],[8,-18],[25,-6]],[[1061,3729],[14,-35],[-6,-54],[15,-31],[67,-7],[24,-20],[48,-1],[16,-16],[-13,-29],[-18,-18],[-14,-36],[-78,4],[-33,-16],[-19,-34],[16,-28],[6,-30],[58,-22],[68,-3],[4,-85],[11,-5]],[[1227,3263],[1,-38],[-10,-32],[-29,-21],[-37,-36],[-58,-33],[-79,13],[34,-58],[17,-22],[16,8],[68,-84],[34,-33],[91,-43],[1,-10],[59,-79],[42,-34],[27,-45]],[[1404,2716],[10,-12],[81,-62],[41,-19],[96,-52]],[[1632,2571],[-46,-30],[-83,-64],[-58,-52],[-31,-56],[-18,-52],[-100,-356],[-19,-37],[-202,-213],[-57,-65],[-265,-283],[-37,-25],[-79,-18],[-28,-11]],[[609,1309],[-45,47],[-64,17],[-57,4],[-41,11],[-86,56],[-48,44],[-29,42],[-13,39],[-35,356],[-36,340],[-28,277],[-26,247],[-29,288],[-31,288],[-41,355],[17,21],[10,37],[-2,42],[11,61],[16,19],[51,25],[67,68],[53,37],[9,15]],[[1227,3263],[47,-35],[25,-4],[23,18],[4,88],[31,11],[28,-12],[14,-28],[19,-9],[20,19],[18,42],[14,3],[32,-22],[15,-61],[-5,-47],[15,-73],[45,-4],[35,28],[25,-22],[-5,-63],[-20,-74],[-22,-66]],[[1585,2952],[-36,0],[-33,-96],[-47,-64],[-65,-76]],[[1632,2571],[38,-17],[23,-20],[41,-59],[40,-29],[37,-43],[30,-28],[43,-62],[10,-79],[-2,-113],[-26,-32],[-28,-15],[-14,-21],[-6,-31],[9,-28],[-7,-38],[-24,-44],[-30,-35],[-30,-20]],[[1102,1175],[-43,87],[-97,64],[-53,-2],[-28,-15],[-68,-12],[-70,17],[-43,-28],[-23,-8],[-68,31]],[[1585,2952],[4,-20],[23,-14],[14,5],[34,58],[31,0],[9,-12],[82,-84]],[[1782,2885],[-100,-250],[-18,-31],[-32,-33]],[[2115,3760],[59,40],[86,145],[5,68],[42,83],[16,11],[137,58],[24,-2],[62,-43],[29,6],[48,57],[18,9],[69,3],[2,-11],[103,39]],[[2815,4223],[23,-92],[16,-76],[48,-37],[66,-37],[49,-12],[8,-12],[60,-11],[23,-16],[48,3],[37,-28],[24,0],[21,-17],[41,-52],[-15,-19],[7,-25],[37,-29],[44,-11],[33,21],[15,28],[15,13],[27,-8]],[[3442,3806],[-173,-177],[-37,-33],[-75,-49],[-212,-46],[-40,-16],[-70,-48],[-123,-55],[-34,-20],[-113,-135]],[[2565,3227],[-44,-37],[-39,-4],[-208,39],[-23,6],[-101,40],[-91,28],[-39,-9],[-16,28],[-18,68],[-34,16],[-40,39],[-24,81],[9,45],[56,73],[53,26],[24,19],[52,54],[33,21]],[[1782,2885],[41,-38],[123,-98],[133,-117],[83,-62],[86,-75],[79,-79],[234,-215]],[[2561,2201],[89,-94],[74,-97],[42,-41],[51,-40],[40,-27],[76,-34],[106,-29],[90,-12],[23,-7],[107,-8]],[[2565,3227],[44,-73],[1,-54],[-35,-18],[-2,-15],[16,-40],[-5,-46],[17,-33],[12,-50],[-1,-26],[13,-28],[4,-33],[13,-47],[-4,-46],[10,-21],[-3,-56],[-17,-18],[-67,-422]],[[1061,3729],[20,114],[14,33],[56,8],[37,-13],[12,-17],[14,-50],[48,-6],[26,22],[37,-17],[49,-13],[21,-11],[19,41],[-3,29],[73,151],[37,80],[38,-29],[64,-60],[82,-59],[116,-41],[78,80],[79,-73],[40,-21],[55,-54],[28,-24],[14,-39]],[[232,4045],[1,28],[14,81],[0,45],[42,113],[11,76],[2,67],[-9,77],[3,18],[29,86],[0,18],[-22,55],[-6,80],[2,37],[-16,85],[12,90],[7,18],[70,101],[4,26],[-20,29],[-1,32],[16,58],[31,98],[-9,48],[-10,97],[21,62],[0,48],[37,71],[234,35],[533,166],[600,186],[81,-243],[609,-1051],[46,-19],[53,-81],[-11,-53],[44,-32],[-9,-17],[6,-37],[38,-46],[30,-15],[17,-41],[18,-19],[32,-67],[18,-18],[40,7],[21,-28],[5,-22],[-21,-40],[-10,-31]],[[3442,3806],[22,-32],[26,-5],[29,-23]]],"transform":{"scale":[0.00007541954624781798,0.000059088051349572666],"translate":[-76.590107,36.019073]},"objects":{"Geometry\\37-143":{"type":"GeometryCollection","geometries":[{"arcs":[[0,1,2,3,4]],"type":"Polygon","properties":{"GEOID":"371439202023"}},{"arcs":[[5,6,7,8,9]],"type":"Polygon","properties":{"GEOID":"371439201023"}},{"arcs":[[10,11,-3]],"type":"Polygon","properties":{"GEOID":"371439202021"}},{"arcs":[[12,-7,13]],"type":"Polygon","properties":{"GEOID":"371439201021"}},{"arcs":[[-12,14,15,16,-4]],"type":"Polygon","properties":{"GEOID":"371439202020"}},{"arcs":[[-9,17,-16]],"type":"Polygon","properties":{"GEOID":"371439201020"}},{"arcs":[[18,19,20,21,22,23]],"type":"Polygon","properties":{"GEOID":"371439202011"}},{"arcs":[[24,25,-21]],"type":"Polygon","properties":{"GEOID":"371439202012"}},{"arcs":[[-23,26,-1,27]],"type":"Polygon","properties":{"GEOID":"371439202022"}},{"arcs":[[-26,28,29,-22]],"type":"Polygon","properties":{"GEOID":"371439202013"}},{"arcs":[[30,31,32,33]],"type":"Polygon","properties":{"GEOID":"371439201013"}},{"arcs":[[-30,34,35,-10,-15,-11,-2,-27]],"type":"Polygon","properties":{"GEOID":"371439202024"}},{"arcs":[[-34,36,-35,-29,-25,-20,37]],"type":"Polygon","properties":{"GEOID":"371439201012"}},{"arcs":[[-31,-38,-19,38]],"type":"Polygon","properties":{"GEOID":"371439201011"}},{"arcs":[[-37,-33,39,-14,-6,-36]],"type":"Polygon","properties":{"GEOID":"371439201022"}}]}}}