{"type":"Topology","arcs":[[[10436,3600],[44,0],[49,-16],[49,-19],[34,-19],[26,2],[15,26],[10,5],[30,-25],[35,-11],[32,-20],[17,-18],[32,-11],[21,-17],[26,-31],[93,-1],[45,14],[43,9],[27,2],[59,139],[23,82],[11,30],[16,20],[19,10],[29,27],[-71,61],[-27,32],[-13,26],[-12,45],[-2,61],[9,87],[0,44],[-7,32],[-16,45],[-140,313],[-17,34],[46,8],[10,-2],[11,-25],[15,-9],[49,10],[26,-5],[34,-16],[34,5],[45,31],[42,11],[47,26],[22,7],[38,80],[-20,27],[-9,22],[-18,67],[-4,48],[-8,33],[5,10],[27,9],[14,13],[19,69],[20,31],[36,33],[2,10],[-18,55],[-2,38],[-20,65],[-27,53],[-24,26],[-49,42],[-39,21],[-4,9],[24,40],[30,17],[98,62],[68,47],[75,56],[18,9],[103,22],[38,12],[60,36],[9,16],[5,56],[38,89],[43,58],[11,26],[17,62],[18,34],[14,47],[43,51],[17,44],[19,145],[3,67],[30,38],[34,93],[22,84],[18,48],[35,41],[44,30],[61,88],[18,11],[163,-13],[51,5],[25,19],[13,20],[9,36],[13,186],[-7,78],[1,13],[32,70],[-5,60],[-12,63]],[[12521,7326],[209,-14],[381,-32],[352,-28],[753,-61],[592,-47],[232,-9],[-67,-1059],[-92,-1439],[-1,-73],[-13,-157],[-37,-575],[-69,2],[-412,36],[-35,6],[-367,31],[-8,-2],[-708,58],[-187,18],[-30,0],[-113,10],[-243,24],[-712,59],[-99,-1363]],[[11847,2711],[-41,35],[-46,17],[-55,6],[-46,11],[-28,17],[-5,33],[3,62],[-85,-8],[-71,-17],[-84,7],[-56,-5],[-36,-13],[-139,7],[-25,0],[-10,-10],[-59,-94],[-21,-12],[-49,1],[-53,-12],[-22,-1],[-14,38],[-28,39],[-7,52],[5,29],[-11,45],[-28,40],[-43,28],[-12,57],[-69,23],[-50,52],[-46,17],[-12,17],[-1,34],[-56,67],[-14,48],[-3,36],[-41,16],[-38,52],[-3,44],[-31,52],[-1,12],[16,44],[4,23]],[[9462,7813],[42,50],[63,86],[19,33]],[[9586,7982],[83,156],[23,31],[37,24],[47,17],[65,12],[93,30],[32,24],[31,13],[208,55],[-18,34],[-7,32],[4,91],[-6,46]],[[10178,8547],[370,-27],[455,-44],[123,-13],[252,-19],[78,-8],[194,-7],[21,2],[141,-9],[209,-21],[355,-20],[41,-1],[-11,-229],[-13,-294],[-17,-518],[145,-13]],[[10436,3600],[-44,24],[-133,15],[-104,4],[-142,11],[-14,252],[-3,20],[-21,81],[-2,29],[5,52],[16,27],[34,35],[13,22],[7,40],[-5,92],[-3,33],[-13,42],[-25,69],[-58,148],[-75,196]],[[9869,4792],[16,-4],[32,14],[30,-9],[34,-28],[19,-30],[42,-2],[15,-8],[32,-39],[71,-92],[50,-48],[91,-79],[17,-8],[96,-6],[28,44],[64,44],[17,-3],[28,-43],[9,-29],[9,-55],[30,-47],[13,-30],[25,-44],[11,-26],[18,-90],[4,-53],[48,21],[53,63],[35,36],[-42,68],[-18,57],[-1,36],[-20,44],[-26,97],[-16,78],[-32,86],[-5,20],[4,32],[17,44]],[[10667,4803],[18,42],[27,38],[53,38],[28,51],[102,120],[13,21],[5,102],[-35,59],[-16,79],[-8,22],[-29,43],[-52,88],[-9,39],[-17,36],[-6,23],[2,31],[21,30],[31,8],[10,26],[-51,66],[-37,66],[-4,34],[4,82]],[[10717,5947],[23,11],[45,-2],[29,4],[-2,23],[-17,60],[-20,152],[-36,7],[-12,20],[-35,33],[-52,25],[12,61],[55,107],[4,53],[-25,88],[-3,44],[-17,25],[-55,57],[-7,12],[7,27],[-65,50],[-48,50],[-62,30],[-21,4],[-110,12],[5,85],[7,12],[51,27],[38,24],[12,0],[38,17],[49,13],[63,-3],[15,16],[-1,60],[-22,50],[8,135],[-59,-49],[-53,-18],[-14,9],[12,184],[-1,9],[-43,58],[-62,40],[-21,156],[-7,17],[-49,6],[-104,5],[-44,14],[-74,2],[-25,-2],[-240,21],[-41,-20],[-94,5],[-31,10],[-23,19],[-133,11]],[[8588,4855],[56,-2],[261,-20],[5,16],[-3,38]],[[8907,4887],[13,-13],[29,-12],[40,-42],[55,-79],[32,-26],[29,-35],[27,-23],[52,-90],[34,-72],[24,-29],[104,-64],[67,-58],[35,-40],[24,54],[20,37],[5,67],[11,63],[-7,38],[18,57],[28,26],[22,34],[44,42],[61,53],[5,48],[-14,62],[10,20],[72,38],[21,-23],[41,-29],[26,-24],[17,-32],[17,-43]],[[11847,2711],[-81,-1114],[-56,-769],[-648,43],[-618,55],[-306,18],[-253,26],[-178,7],[-171,20],[-729,54]],[[8807,1051],[-8,29],[-15,202],[-5,55],[2,28],[14,62],[12,69],[38,103],[0,49],[18,96],[4,60],[-1,28],[-14,65],[-10,27],[-10,88],[-36,75],[-18,25],[-42,32],[-15,5],[-51,0],[-23,4],[-39,30],[-25,36],[28,70],[24,37],[1,22],[-9,65],[11,32],[43,82],[51,83],[21,55],[25,175],[7,25],[50,114],[2,12],[-27,47],[-30,63],[-7,66],[-6,16],[-23,24],[-32,46],[-7,26],[-3,68],[-22,131],[-2,46],[-21,100],[-26,54],[-8,10],[-76,62],[-19,11],[14,30],[58,91],[19,25],[28,14],[24,32],[-21,83],[-4,58],[-11,15],[-24,88],[-37,25],[-5,11],[-3,50],[-15,45],[-1,25],[13,49],[6,41],[-3,79],[-28,65],[2,59],[-4,37],[19,19],[23,42],[10,56],[0,55]],[[6468,9183],[37,569],[9,118],[5,49],[30,497],[17,212],[24,354],[137,-11],[972,-90],[347,-30],[378,-32],[141,-9],[703,-53],[277,-22],[-9,-125],[-13,-216],[-17,-295],[-4,-152],[-23,-306],[-2,0],[-27,-376],[-42,-660],[224,-15],[192,-18],[354,-25]],[[9586,7982],[-99,4],[-67,0],[-29,-3],[-84,23],[-27,32],[-21,3],[-26,17],[-26,8],[-25,-6],[-27,-22],[-43,-26],[-44,63],[-28,26],[-7,38],[-32,1],[-9,-23],[-15,-6],[-66,2],[-29,-4],[-64,14],[-186,16],[-12,-29],[-36,1],[-11,-24],[-6,-29]],[[8567,8058],[-5,-32],[-12,-11],[-74,2],[-67,6],[-27,-11],[-12,-14],[-10,32],[-24,22],[-146,94],[-25,39],[-43,121],[-14,28]],[[8108,8334],[-8,48],[3,48],[18,68],[31,72],[31,60],[10,31],[0,50],[10,73],[-1,18],[-16,87],[-11,32],[-25,57],[-27,16],[-40,41],[-35,41],[-37,31],[-37,17],[-70,45],[-28,28],[-38,74],[-22,28],[-19,6],[-65,11],[-42,-3],[-77,9],[-33,33],[-31,10],[-87,10],[-68,31],[-42,53],[-32,-39],[-17,-44],[-41,-46],[-19,-56],[-13,-27],[-31,-42],[-42,-7],[-37,9],[-50,-2],[-42,3],[-21,33],[-77,0],[-31,-13],[-51,-62],[-60,-71],[-11,-9],[-111,-9],[-59,18],[-21,29],[2,49],[-17,14],[-81,-7],[-22,3]],[[8713,6452],[9,116]],[[8722,6568],[33,-4]],[[8755,6564],[67,-6]],[[8822,6558],[-8,-110],[231,-16],[28,-5],[43,-30]],[[9116,6397],[58,-53],[69,-51],[296,-251],[41,-37],[33,-36],[46,25],[14,-7],[14,-23],[109,-5],[45,-15],[62,-15],[51,-1],[67,4],[28,16],[26,33],[17,9],[28,2],[21,-7],[32,-29],[47,-7],[38,-31],[28,-9],[26,9],[28,57],[23,21],[14,-9],[34,-41],[29,-6],[60,17],[46,-6],[44,14],[80,-8],[47,-10]],[[10667,4803],[-284,220],[-46,30],[-252,137],[-38,28],[-29,34],[-16,30],[-27,65],[-37,73],[-46,65],[-26,31],[-74,74],[-358,349],[-52,47],[-35,28],[-75,53],[-309,197],[-69,42],[-38,19],[-36,11],[-48,10],[-67,8]],[[8705,6354],[8,98]],[[8108,8334],[-54,-42],[-7,-24],[-17,-140],[-10,-9],[-30,0],[-12,-25],[-126,20],[-16,-4],[-45,-27],[-73,-50],[-15,-16],[-35,-68],[-2,-51],[-7,-23],[-47,-97],[-28,-35],[-17,-39],[-24,-8],[-32,-34],[-15,-60],[-33,-66],[-49,-55],[-17,-25],[-13,-48],[-23,-3],[-6,-11],[-6,-107]],[[7349,7287],[-35,25],[-47,26],[-62,27],[-53,14],[-67,9],[-154,8],[-68,-3],[-195,-42],[-46,-14],[-34,-18],[-91,-61],[-82,-70],[-34,-32],[-51,-55]],[[6330,7101],[-50,-47],[-76,-55],[-181,-98],[-55,-27],[-75,-30],[-30,-21],[-17,-18],[-22,-37],[-48,-95],[-18,-22],[-32,-27],[-27,-30],[-41,-4],[-48,-19],[-17,-25],[-39,-68],[-66,-71],[-25,-7],[-43,15],[-23,-1],[-39,-37],[-34,-15],[-37,-40]],[[5287,6322],[-3,37],[-26,21],[0,29],[-14,29],[0,13],[-15,72],[-21,42],[-20,21],[-18,34],[-3,24],[16,49],[19,19],[2,18],[-18,62],[-19,38],[-15,80],[-25,14],[14,30],[7,31],[-4,38],[1,48],[11,24],[4,42],[-6,35],[10,47],[16,13],[6,17],[-11,55],[11,76],[-3,32],[16,43],[6,4],[21,45],[20,14],[7,38],[21,37],[10,53],[-2,40],[23,71],[20,29],[62,44],[236,-20],[10,1],[33,23],[33,0],[20,6],[66,32],[-13,74],[-21,66],[-23,50],[-40,60],[-44,48],[-39,31],[-29,19],[-45,22],[-183,77],[-27,14],[-36,26],[-39,45],[-13,24],[-41,90],[-16,41],[-10,43],[-71,328]],[[5095,8930],[364,-26],[496,-40],[245,-19],[242,-16],[26,354]],[[8432,6486],[65,55],[-11,19],[2,30]],[[8488,6590],[32,-3]],[[8520,6587],[202,-19]],[[8713,6452],[-237,22],[-21,-21],[-23,33]],[[2519,7451],[14,-16],[8,-40],[9,-14],[30,-14],[24,-24],[32,0],[17,-7],[28,-25],[3,-13],[-11,-28],[-4,-30],[-3,-104],[13,-13],[50,-22],[95,-47],[5,-13],[-25,-76],[-5,-124],[-15,-67],[11,-48],[0,-22],[-14,-27],[6,-32],[35,-27],[13,-41],[14,-62],[20,-60],[22,-26],[71,-138],[38,-69],[12,-8],[43,-8],[37,-54],[12,-39],[43,-43],[30,-41],[54,-66],[27,-58],[22,-32],[24,-19],[26,-34],[2,-21],[-12,-37],[16,-28],[18,-20],[12,-28],[33,-87],[3,-28]],[[3402,5571],[-9,-28],[-6,-45],[-47,-81],[-17,-75],[-8,-12],[-56,-24],[-85,-23],[-72,-33],[-34,-23]],[[3068,5227],[-33,-29],[-52,-35],[-59,-50],[-96,-75],[-83,-56],[-32,-50],[-14,-16],[-25,7],[-36,43],[-34,17],[-55,2],[-120,-2],[-114,-22],[-37,-3],[-102,0],[-125,-4],[-82,-9],[-152,-26],[-39,-1],[-56,5],[-38,-2],[-71,-11],[-38,4],[-109,18],[-195,11],[-41,8],[-60,20],[-53,-1],[-123,-22],[-91,-22],[-65,-32],[-24,-8],[-190,-56],[-14,39],[-6,43],[-20,45],[-3,25],[2,41],[-19,12],[-43,15],[-60,48],[-39,26],[-60,10],[-20,19],[-25,50],[-12,40]],[[305,5243],[-4,14],[13,199],[10,114],[2,46],[8,78],[48,671],[40,575],[14,117],[10,171],[21,364],[343,-30],[124,-13],[233,-17],[234,-19],[455,-24],[121,-8],[352,-17],[190,-13]],[[8567,8058],[0,-61],[-25,-63],[4,-80],[12,-70],[0,-55],[-5,-49],[-19,-61],[10,-43],[-2,-81],[-6,-29],[-10,-139],[2,-37],[23,-62],[23,-71],[13,-50],[11,-25],[51,-49],[19,-27],[23,-102],[41,-87],[33,-89]],[[8765,6728],[-80,3],[-55,7],[-32,1],[-62,12],[-8,-49],[-3,-49]],[[8525,6653],[-160,16],[-35,10],[2,29],[-149,47],[-4,-41],[-26,-44]],[[8153,6670],[-106,34],[-59,33],[-37,35],[-53,65],[-40,22],[-148,64],[-60,32],[-35,25],[-34,32],[-43,53],[-95,130],[-56,61],[-38,31]],[[7828,6480],[168,-132],[47,-31],[33,-12],[44,-6],[56,4],[232,30],[-20,20],[-3,15],[9,111],[-5,23],[22,16],[21,-32]],[[8705,6354],[-4,-50],[-11,-24],[6,-22],[-1,-63],[-10,-143],[-3,-11],[-30,-30],[-3,-23],[15,-37],[26,-26],[17,-34],[3,-39],[24,-39],[47,-79],[6,-21],[-11,-156],[-4,-20],[-16,-26],[-25,-25],[-14,-25],[4,-22],[22,-41],[19,-48],[62,-40],[44,-36],[21,-13],[42,-37],[34,-37],[-2,-20],[-17,-22],[-13,-48],[-28,-49],[-4,-42],[2,-90],[4,-29]],[[8588,4855],[0,59],[6,28],[-20,44],[-3,40],[-12,16],[-9,31],[3,12],[25,26],[8,30],[-47,32],[-11,13],[-6,26],[-53,-44],[-26,-32],[-82,-110],[-30,-44],[-11,-29],[-13,-11],[-44,4],[-47,-3],[-39,4],[-75,36],[-24,26],[-22,59],[-14,21],[-72,17],[-27,-17],[-33,-3],[9,-68],[5,-14],[31,-56],[6,-49],[-32,0],[-177,15],[-50,7],[-1,30],[-28,32],[-55,1],[-20,10],[-100,-4],[-50,27],[-48,14],[-22,-16],[-40,-18],[-22,-21],[-31,-19],[-15,-21],[-6,-62],[-4,-61],[-21,0],[-116,-8],[-25,-5],[-41,3],[-21,-11],[-24,1]],[[7012,4793],[-24,114],[-10,39],[-6,46],[0,39],[-10,78]],[[6962,5109],[-17,94],[4,87],[10,41],[35,72],[29,79],[33,40],[71,54],[40,21],[24,20],[64,42],[20,5],[81,4],[17,9],[56,45],[26,14],[35,2],[5,10],[-23,92],[-20,48],[-16,19],[-66,56],[-42,57],[143,-15],[35,7],[34,36],[20,33],[17,38],[34,49],[4,27],[-4,28],[4,56],[13,28],[22,26],[111,77],[23,20],[44,50]],[[3068,5227],[88,-147],[11,-27],[10,-64],[9,-21],[27,-23],[45,-10],[37,8],[27,-4],[70,-36],[19,-29],[1,-25]],[[3412,4849],[-43,-24],[-11,-11],[-25,-46],[-41,-42],[-47,-33],[-28,-10],[-72,-16],[-71,-12],[-72,-34],[-13,-19],[-4,-40],[-10,-20],[-85,-64],[-11,-2],[-36,13],[-24,1],[-57,-15],[-24,-2],[-41,14],[-46,6],[-9,-85],[22,-87],[10,-134],[8,-64],[60,-179],[3,-25],[-4,-52],[5,-30],[38,-12],[-58,-68],[-44,-32],[-64,-12],[-57,-45],[-28,-8],[-120,-52],[-19,-3],[-80,-48],[-28,-21],[-13,-22],[-5,-74],[-1,-41],[-33,-64],[-6,-81],[1,-31],[35,-66],[-40,-21],[-19,-25],[14,-52],[-5,-27],[-47,-84],[-16,-11],[-77,6],[-11,-5],[-114,-96],[-40,-22],[-74,-53],[-9,-9],[-5,-40],[-33,-39],[-19,17],[-101,61],[-86,63],[-88,60],[-242,150],[-98,62],[-57,60],[-27,35],[-32,49],[-98,159],[-26,47],[-49,42],[-30,21],[-160,80],[-138,64],[-67,21],[-25,26],[-39,74],[-87,-69],[-59,-27],[-22,-5],[-33,10],[-14,17]],[[191,3696],[13,185],[0,32],[12,177],[2,122],[57,724],[8,117],[5,15],[17,175]],[[8153,6670],[-59,-77],[-28,-4],[-36,11],[-38,4],[-44,-8],[-45,-24],[-24,-21],[-51,-71]],[[6962,5109],[-25,-27],[-27,-45],[-88,-47],[-48,-45],[-43,-27],[-44,-39],[-65,-39],[-37,-41],[-4,-18],[-25,-53],[-21,-17],[-87,-27],[-109,-3],[-36,-18],[-23,0],[-7,35],[4,46],[22,24],[8,33],[4,57],[8,21],[13,88],[-2,39],[-22,49],[-21,29],[-27,58],[-7,111],[-13,78],[9,25],[36,74],[19,55],[3,37],[16,44],[-14,99],[6,35],[-2,33],[-14,60],[-30,36],[-11,24],[21,332],[3,72],[-19,74],[3,137],[12,65],[24,44],[8,77],[13,52],[5,34],[16,162],[0,87],[-10,60],[1,41],[-5,11]],[[3402,5571],[32,30],[11,4],[71,-5],[19,8],[36,71],[15,21],[50,35],[26,51],[16,15],[79,42],[35,10],[48,-5],[68,5],[27,-7],[62,-24],[17,-4],[48,15],[119,75],[142,71],[44,20],[50,17],[56,37],[14,5],[74,-4],[48,6],[56,-13],[50,-29],[29,-24],[30,26],[52,36],[49,18],[43,0],[39,-9],[45,-22],[100,-21],[16,11],[3,25],[-2,57],[13,80],[7,26],[21,20],[66,26],[61,55]],[[7012,4793],[-2,-45],[-36,-99],[-28,-35],[-44,-24],[-30,-30],[-38,-57],[-33,-23],[-27,-54],[1,-66],[-19,-17],[-37,-48],[-6,-32],[-6,-91],[-34,-90],[-29,-52],[-29,-68],[-29,-45],[-27,-32],[-23,-33],[-71,-178],[-71,-50],[-57,-54],[-38,-26],[-45,-2],[-12,-5],[-54,-52],[-54,-43],[-51,-52],[-78,-56],[-23,-37],[-20,-19],[-47,-24],[-57,-101],[-10,-25],[-33,-157],[-11,-14],[-78,-39],[-191,-67],[-40,-13],[-123,-36],[-21,-14],[-8,-43],[-45,-49],[-22,-14],[-38,-42],[-17,-5],[-48,4],[-31,-8],[-53,5],[-42,-8],[-74,-8],[-20,15],[-18,34],[-7,25],[11,37],[4,31],[-9,15],[-28,31],[-11,20],[-11,39],[-17,13],[-61,34],[-47,5],[-17,-7],[-29,-46],[-7,-63],[-17,-76],[-10,-28],[-20,-32],[-14,-39],[-29,-30],[-25,-73],[-8,-40],[-25,-33],[-13,-30],[-5,-29],[-9,-16],[-27,-25],[-31,-5],[-115,39],[-43,2],[-56,-19],[-64,1],[-72,-19],[-33,3],[-26,-6],[-32,-27],[-14,-50],[-23,-16],[-54,-6],[-31,-26],[-18,-30],[-26,-28],[-44,-73]],[[3822,2092],[-50,52],[-4,13],[3,35],[-8,41],[-10,22],[-48,51],[-23,10],[-26,39],[-1,38],[66,60],[9,34],[21,15],[34,15],[30,24],[25,30],[18,46],[8,39],[29,6],[0,17],[-45,48],[-11,26],[-1,26],[8,20],[19,17],[8,24],[1,39],[-35,9],[-95,-3],[-166,16],[-58,-16],[-16,-12],[-27,-39],[-30,-23],[-12,-1],[-178,57],[5,38],[18,33],[30,24],[27,4],[39,26],[38,34],[14,44],[10,18],[36,38],[-1,19],[-11,31],[-4,51],[3,15],[49,31],[10,10],[4,24],[-6,32],[11,42],[-1,23],[-24,60],[-10,9],[-23,-1],[-25,14],[-6,17],[14,45],[-24,45],[-16,9],[-34,7],[-3,38],[-9,10],[-35,3],[-20,12],[-6,15],[3,71],[-23,24],[-2,26],[8,37],[-5,52],[8,40],[27,34],[11,37],[-4,49],[16,15],[11,21],[58,4],[17,19],[-9,44],[8,15],[54,36],[34,52],[43,49],[20,11],[24,2],[33,12],[21,27],[21,14],[48,5],[8,7],[-13,46],[5,25],[22,60],[25,22],[25,63],[35,45],[53,92],[39,17],[-20,26],[-7,28],[-52,80],[-13,16],[-27,11],[-96,-15],[-58,-28],[-58,-40],[-50,-3],[-67,19],[-41,0],[-27,-5]],[[3822,2092],[-13,-26],[-43,-44],[-32,-26],[-106,-65],[-28,-15],[-16,-2],[-59,7],[-21,8],[-7,-33],[-7,-6],[-8,-48],[2,-35],[15,-19],[27,-19],[14,-51],[29,-28],[-28,-61],[-7,-21],[-47,-20],[-20,-35],[-2,-24],[-18,-80],[1,-22],[12,-6],[47,-3],[9,-35],[-15,-98],[-14,-29],[-11,-59],[-1,-40],[-23,-82],[3,-26],[18,-19],[-20,-158],[6,-36],[-11,-58],[8,-27],[7,-134],[25,-20],[5,-11],[-5,-78],[47,10],[14,-12],[12,-40]],[[3561,466],[-86,4],[-13,-1],[-65,8],[-211,17],[-272,33],[-2,-33],[-31,-494],[-967,58],[-959,82],[-955,101],[17,253],[62,1235],[54,984],[33,623],[25,360]],[[9116,6397],[-13,63],[19,34],[-6,23],[-27,24],[12,24],[-11,57],[-18,38],[-25,10],[-3,41],[-19,9],[4,25],[24,46],[6,45],[-39,26]],[[9020,6862],[45,103],[12,44],[2,75],[17,44],[85,157],[55,82],[17,34],[13,61],[31,119],[13,37],[28,67],[15,27],[40,44],[69,57]],[[2519,7451],[279,-14],[242,-17],[239,-13],[37,940],[19,526],[9,166],[93,-3],[94,-7],[217,-12],[728,-47],[619,-40]],[[8153,6670],[213,-66],[21,-4],[101,-10]],[[8765,6728],[1,-27],[-11,-137]],[[8520,6587],[5,66]],[[8822,6558],[8,-1],[75,71],[56,79],[13,24],[26,63],[20,68]],[[8807,1051],[-435,32],[-191,13],[-131,7],[-26,3],[-308,22],[-247,15],[-56,6],[-106,6],[-40,5],[-62,1],[-111,8],[-747,49],[-373,33],[-16,-369],[-29,-388],[-34,-205],[-582,44],[-894,68],[-858,65]]],"transform":{"scale":[0.00003919082446808558,0.000027329994536514017],"translate":[-82.748591,39.361566]},"objects":{"Geometry\\39-073":{"type":"GeometryCollection","geometries":[{"arcs":[[0,1,2]],"type":"Polygon","properties":{"GEOID":"390739655002"}},{"arcs":[[3,4,5,-1,6,7,8,9]],"type":"Polygon","properties":{"GEOID":"390739655001"}},{"arcs":[[10,11,-7,-3,12,13]],"type":"Polygon","properties":{"GEOID":"390739651001"}},{"arcs":[[14,-5,15,16,17]],"type":"Polygon","properties":{"GEOID":"390739649001"}},{"arcs":[[18,19,20,21,22,-9,23,24]],"type":"Polygon","properties":{"GEOID":"390739654003"}},{"arcs":[[-18,25,26,27,28,29]],"type":"Polygon","properties":{"GEOID":"390739649002"}},{"arcs":[[30,31,32,-19,33]],"type":"Polygon","properties":{"GEOID":"390739652001"}},{"arcs":[[34,35,36,37]],"type":"Polygon","properties":{"GEOID":"390739650001"}},{"arcs":[[-17,38,39,40,41,-26]],"type":"Polygon","properties":{"GEOID":"390739653004"}},{"arcs":[[42,-34,-25,43,-11,44,45,46]],"type":"Polygon","properties":{"GEOID":"390739652004"}},{"arcs":[[-37,47,48,49]],"type":"Polygon","properties":{"GEOID":"390739650002"}},{"arcs":[[-27,-42,50,-47,51]],"type":"Polygon","properties":{"GEOID":"390739652003"}},{"arcs":[[-24,-8,-12,-44]],"type":"Polygon","properties":{"GEOID":"390739654004"}},{"arcs":[[52,-28,-52,-46,53,54,-48,-36]],"type":"Polygon","properties":{"GEOID":"390739651003"}},{"arcs":[[-49,-55,55,56]],"type":"Polygon","properties":{"GEOID":"390739650003"}},{"arcs":[[-10,-23,57,58]],"type":"Polygon","properties":{"GEOID":"390739654001"}},{"arcs":[[59,-29,-53,-35]],"type":"Polygon","properties":{"GEOID":"390739649003"}},{"arcs":[[60,-31,-43,-51]],"type":"Polygon","properties":{"GEOID":"390739652002"}},{"arcs":[[-40,61,-20,-33,62]],"type":"Polygon","properties":{"GEOID":"390739653002"}},{"arcs":[[-41,-63,-32,-61]],"type":"Polygon","properties":{"GEOID":"390739653003"}},{"arcs":[[63,-58,-22]],"type":"Polygon","properties":{"GEOID":"390739654002"}},{"arcs":[[-54,-45,-14,64,-56]],"type":"Polygon","properties":{"GEOID":"390739651002"}},{"arcs":[[-16,-4,-59,-64,-21,-62,-39]],"type":"Polygon","properties":{"GEOID":"390739653001"}}]}}}