{"type":"Topology","arcs":[[[3459,4468],[150,-1],[244,1],[0,154],[0,64],[205,0],[151,1],[45,-5],[179,-1],[7,-1]],[[4440,4680],[-12,-17],[-5,-25],[5,-176],[6,-212],[77,1],[296,5],[211,3]],[[5018,4259],[4,-135],[5,-197],[8,-417],[-5,-22],[-59,-84],[-2,-10]],[[4969,3394],[-4,1],[-129,68],[-28,4],[-65,-2],[-16,-4],[-300,-145],[-28,-15],[-31,-15],[-12,-3],[-132,-4],[-39,10],[-13,0],[-36,-3],[-27,4],[-16,10],[-75,57],[-12,6],[-71,6]],[[3935,3369],[-13,243],[-2,24],[-7,47],[-8,33],[-11,34],[-14,35],[-23,42],[-134,222],[-204,338],[-21,32],[-20,27],[-19,22]],[[3178,4940],[66,0],[44,3],[29,4],[43,8],[34,8],[32,9],[50,19],[30,13],[40,21],[36,23],[39,29],[36,28],[20,15]],[[3677,5120],[26,17],[51,27],[48,21],[75,29],[54,24],[36,19],[47,31],[44,35]],[[4058,5323],[28,27],[235,257],[21,21],[35,34],[36,31],[47,36]],[[4460,5729],[1,-99],[2,-144],[1,-217],[9,-30],[9,-43],[9,-344],[2,-68],[-2,-26],[-5,-13],[-46,-65]],[[3459,4468],[-43,42],[-67,58],[-42,40],[-33,40]],[[3274,4648],[-24,35],[-19,32],[-22,47],[-12,35],[-11,48],[-5,33],[-3,62]],[[4460,5729],[39,27],[53,32],[27,15],[59,29],[276,127],[366,169]],[[5280,6128],[-4,-17],[-2,-26],[-2,-97],[30,3],[15,5],[40,16],[38,9],[27,2],[-18,-31],[-47,-78],[-34,-53],[-22,-23],[-6,-2],[-16,9],[-38,2],[-7,-2],[-50,-57],[-73,6],[-14,-1],[-19,-7],[1,-5],[21,-29],[-7,-30],[0,-133],[2,-121],[145,-1]],[[5240,5467],[-43,-58],[-31,-12],[0,-20],[0,-94],[2,-51],[9,-46],[4,-163],[168,1],[6,-241],[1,-102],[-11,-21],[-7,-34],[2,-38],[18,-7],[2,-75],[3,-4],[23,1],[16,-6],[4,-7],[5,-20],[8,-24],[6,-69]],[[5425,4377],[-389,-3],[-21,0],[3,-115]],[[2642,1608],[178,-2],[271,-4],[328,-3],[219,-3],[12,1],[90,16],[86,13],[26,1]],[[3852,1627],[0,-210],[0,-222],[0,-328],[0,-307]],[[3852,560],[1,-541]],[[3853,19],[-128,2],[-215,1],[-131,1],[-374,5],[-163,3]],[[2842,31],[1,4],[1,156],[2,179],[2,191]],[[2848,561],[1,86],[2,240],[-176,0],[0,38],[2,185],[0,200],[-13,-2],[-34,0],[-31,23],[-59,32],[-32,7],[-13,126],[-4,50],[-8,62]],[[2483,1608],[79,1],[80,-1]],[[1870,957],[8,130],[1,20],[1,248],[0,250]],[[1880,1605],[126,0],[383,3]],[[2389,1608],[94,0]],[[2848,561],[-219,1],[-137,-11],[-375,0],[-43,-1],[-159,1],[-71,0]],[[1844,551],[26,406]],[[88,552],[32,3],[101,-1],[168,1],[228,-1],[238,1],[127,-2],[3,217],[-1,43],[1,65],[1,109],[168,0],[117,0],[129,-1],[9,3],[14,-3],[196,2],[5,-4],[-1,-24],[2,-3],[84,1],[161,-1]],[[1844,551],[-218,-1],[0,-105],[0,-95],[0,-93],[-1,-215],[4,-2]],[[1629,40],[-528,3],[-456,1],[-558,2],[0,171],[0,79],[1,256]],[[2842,31],[-82,2],[-112,1],[-190,0],[-112,0],[-378,4],[-126,0],[-213,2]],[[5280,6128],[54,23],[39,13],[389,119],[47,14],[98,30],[59,23],[40,20],[204,117],[99,56]],[[6309,6543],[62,36]],[[6371,6579],[0,-112],[1,-156],[-1,-26],[0,-109],[-1,-229],[1,-42],[-1,-95],[0,-343]],[[6370,5467],[-10,-1],[-264,0],[-111,0],[-304,-1],[-201,0],[-157,1],[-83,1]],[[6370,5467],[0,-226],[0,-55],[0,-174],[1,-100],[-1,-89],[0,-184],[0,-153],[0,-98]],[[6370,4388],[-315,-3],[-494,-7],[-136,-1]],[[3920,3228],[11,59],[3,31],[1,51]],[[4969,3394],[17,-54],[3,-6],[46,-63],[7,-7],[38,-29]],[[5080,3235],[36,-29],[5,-7],[13,-32],[1,-11],[11,-147],[8,-95],[0,-13],[-10,-70],[-21,-159],[-3,-69],[-10,-303],[0,-9],[12,-148],[12,-171],[2,-44],[9,-42],[20,-258]],[[5165,1628],[-322,-1],[-109,1],[-517,-1],[-365,0]],[[3852,1627],[0,134],[0,158],[0,131],[-1,332],[-1,349]],[[3850,2731],[-1,126],[1,27],[4,50],[6,44],[11,48],[49,202]],[[5873,6893],[32,-3],[-2,-31],[16,-1],[-2,-21],[-10,-35],[23,-5]],[[5930,6797],[-2,-16]],[[5928,6781],[-81,-12]],[[5847,6769],[-54,-7]],[[5793,6762],[0,10],[8,46],[-3,21],[73,25],[2,29]],[[5881,6983],[17,1],[-3,-20],[51,3],[-9,-79],[-7,-91]],[[5873,6893],[8,90]],[[6370,4388],[1,-225],[-1,-75],[1,-86],[0,-114],[-1,-75],[0,-116],[0,-80],[0,-163],[0,-29],[0,-181]],[[6370,3244],[-6,0],[-445,-2],[-208,-2],[-209,-1],[-352,-4],[-70,0]],[[6370,2599],[0,-281],[0,-12],[1,-407],[-1,-272]],[[6370,1627],[-290,5]],[[6080,1632],[-36,1],[-340,-2],[-8,7]],[[5696,1638],[-1,217],[-2,278],[3,15],[13,33],[2,14],[-1,405],[152,0],[116,1],[47,0],[341,0],[4,-2]],[[6370,3244],[0,-27],[0,-145],[0,-215],[0,-258]],[[5696,1638],[-9,-7],[-118,-1],[-294,-1],[-110,-1]],[[90,1631],[123,-21],[15,-1],[501,0],[4,-4],[14,5],[399,-1],[59,1],[160,-1],[117,-4],[169,-1],[229,1]],[[88,552],[2,112],[0,114],[-1,55],[2,190],[-1,540],[0,68]],[[2836,5676],[22,18]],[[2858,5694],[10,-2],[35,-33],[21,-28],[7,-16],[12,-1],[22,6],[13,13],[15,-10],[7,-16]],[[3000,5607],[-24,-13],[-21,-9],[-56,-32]],[[2899,5553],[-29,37],[-23,20],[33,28],[-44,38]],[[4722,6701],[279,88],[73,19]],[[5074,6808],[-2,-81],[7,-3],[15,-20],[86,29],[0,-159]],[[5180,6574],[-52,0],[-4,-144]],[[5124,6430],[-244,-59],[-13,-2],[-114,2],[-47,-13]],[[4706,6358],[-1,10],[9,228],[1,12],[7,93]],[[2741,5892],[24,3],[30,19],[18,6],[15,10],[139,-3]],[[2967,5927],[7,-76],[8,-28],[11,-18],[23,-24]],[[3016,5781],[-19,-7],[0,-7],[-15,0],[-29,-9],[-46,-25],[-49,-39]],[[2858,5694],[-18,15],[-20,2],[-8,8],[-1,20],[-8,10],[-23,18],[-7,-7],[-23,13],[-3,8],[6,53],[1,33],[-12,15],[-1,10]],[[3169,5358],[8,30],[45,154],[10,53],[-3,34],[-6,16],[-11,19]],[[3212,5664],[47,8],[11,3],[126,62],[58,29],[48,31],[37,19],[67,33],[-1,-146],[0,-71],[43,20],[109,51],[49,20],[48,18],[0,-107]],[[3854,5634],[-35,-2],[-21,-8],[-25,1],[-20,-2],[-6,-3],[-5,-34],[2,-7],[14,-10],[19,-7],[6,-22],[-12,-10],[-36,-7],[-18,4],[-60,24],[-13,0],[-19,-9],[-27,-8],[-16,-11],[-4,-10],[-1,-27],[-39,0],[0,-13],[-11,1],[-15,10],[-12,4],[-65,-6],[-20,4],[-7,-3],[-12,-25],[-19,-15],[-15,-7],[-10,-1],[-46,17],[-19,2],[-4,-4],[-10,-22],[-12,-17],[-2,-12],[-6,-8],[-10,-1],[-21,3],[-24,-2],[-1,-10],[18,-28],[7,-5],[4,-21],[-7,-10],[-24,-9],[-21,0],[-12,5]],[[3162,5313],[1,22],[6,23]],[[3000,5607],[37,26],[16,4]],[[3053,5637],[95,16],[4,-14],[-1,-56],[15,0],[-1,-39],[-1,-2],[-32,0],[0,-13],[-50,-1],[0,-17]],[[3082,5511],[-29,-2],[-8,2],[-20,-23],[-26,6]],[[2999,5494],[-1,14],[6,8],[27,21],[3,10],[-3,8],[-27,10],[-9,12],[0,17],[5,13]],[[2495,6138],[250,103]],[[2745,6241],[3,-175],[-1,-25],[9,-14]],[[2756,6027],[-11,-6]],[[2745,6021],[-12,-5],[-13,22],[-52,-22],[-69,-21],[1,-14]],[[2600,5981],[0,-38]],[[2600,5943],[0,-56]],[[2600,5887],[-51,0],[0,22],[-53,0]],[[2496,5909],[0,53],[-2,27],[1,149]],[[2600,5887],[0,-47]],[[2600,5840],[-77,-1],[0,-42],[-26,0],[0,-14],[-16,0]],[[2481,5783],[-7,1],[0,55],[-93,-1]],[[2381,5838],[8,12],[19,2],[12,12],[0,45],[76,0]],[[1143,5581],[238,98],[463,191]],[[1844,5870],[1,-138],[0,-33],[43,16],[-1,-118],[0,-94],[-286,1],[-1,-17],[1,-151],[184,1],[-1,-206],[-3,-10]],[[1781,5121],[-179,-92]],[[1602,5029],[-251,-129],[-139,-73]],[[1212,4827],[0,99]],[[1212,4926],[-1,267],[1,149],[0,97],[-17,2],[-20,-2],[5,25],[-10,10],[-15,0],[-14,18]],[[1141,5492],[2,15],[0,74]],[[2986,5459],[7,8],[6,27]],[[3082,5511],[1,-17],[32,-65],[26,-50],[28,-21]],[[3162,5313],[-49,26],[-23,19],[-11,3],[-23,-3]],[[3056,5358],[-27,-5],[-30,5],[-37,18],[-11,14],[-6,21],[1,9],[9,18],[14,13],[17,8]],[[2745,6021],[22,-18],[-78,-51],[-25,29],[-64,0]],[[2756,6027],[5,-4],[37,-8],[4,-20],[-40,-68],[-21,-26],[0,-9]],[[2741,5892],[-25,-11],[-18,-18],[-6,-14],[0,-21],[14,-45],[-5,-1],[-20,18],[-11,21],[-6,18],[-11,53],[6,51],[-59,0]],[[2000,5934],[495,204]],[[2381,5838],[-25,0],[-1,59],[-58,-17],[-30,-12]],[[2267,5868],[-166,-62],[-39,-21],[-3,3],[-39,-12],[-15,5],[-4,8],[-1,145]],[[3997,6019],[25,11],[37,23],[44,39],[15,8],[29,11]],[[4147,6111],[13,-39],[27,-41],[28,-33],[73,-73],[40,-42],[66,69],[14,-41],[2,-17],[24,-15],[9,-16],[1,-59],[-10,-25],[19,-20],[4,-8],[3,-22]],[[4058,5323],[-22,-3],[3,11],[12,20],[-3,385],[0,55],[22,4],[-11,19],[-1,77],[-78,-35],[4,8],[-6,16],[2,11],[9,18],[0,22],[-4,13],[4,11],[-12,12],[3,14],[22,17],[3,11],[-8,10]],[[2260,2975],[1,252],[1,53],[5,208],[10,248],[3,182],[1,102],[1,37]],[[2282,4057],[126,-49],[206,-79],[17,-10],[13,-15],[59,-71],[19,-16],[198,-91],[30,-8],[172,1]],[[3122,3719],[67,0],[0,-121],[-67,0]],[[3122,3598],[-67,-1],[-263,0],[-17,-3],[-37,-28],[0,-2],[5,-331]],[[2743,3233],[-146,1],[2,-179],[0,-226],[-1,-144]],[[2598,2685],[-170,1],[-71,0],[-97,1]],[[2260,2687],[-1,79],[1,84],[-1,78],[1,47]],[[6370,1627],[0,-515],[1,-498],[1,-108]],[[6372,506],[-28,15],[-20,5],[-14,1],[-83,-4],[-53,-3],[-75,-3],[-119,2],[-145,1],[-125,1],[-1,199]],[[5709,720],[-1,164],[-1,165],[-10,63],[0,82],[178,1],[143,1],[64,0],[-1,75],[0,89],[0,208],[-1,64]],[[2836,5676],[-25,-20],[-38,-25],[-39,-20]],[[2734,5611],[-3,36],[-8,-2],[0,-10],[-75,-1],[-1,126],[-46,-18]],[[2601,5742],[-1,98]],[[90,3246],[177,0],[182,1],[196,1],[99,-1],[133,0],[263,-1],[238,-2]],[[1378,3244],[-1,-69]],[[1377,3175],[-2,-280],[-3,-21],[-51,-107],[-29,-71],[-47,-103],[-4,-13],[-5,-134],[-16,-190],[0,-10],[19,-41],[5,-23],[1,-24]],[[1245,2158],[-247,-1],[-144,-1],[-294,-1],[-150,0],[-169,-1],[-149,-1]],[[92,2153],[1,225],[1,215],[-1,315],[-1,115],[-2,223]],[[3083,5745],[78,-39],[20,-12],[14,-10],[17,-20]],[[3053,5637],[-2,14],[0,66],[32,0],[0,28]],[[821,4061],[76,2],[112,5],[420,23]],[[1429,4091],[64,3],[44,3],[39,6],[55,12]],[[1631,4115],[0,-73],[-3,-145],[-42,15],[-30,6],[-14,1],[-17,-5],[-12,-10],[-9,-17],[-4,-24],[-27,-30],[-10,6],[-7,11],[-16,-10],[-9,-10],[-35,-52],[52,-13],[7,0],[66,11],[19,19],[6,17],[4,29],[13,13],[21,3],[42,-14],[22,-9],[45,-8],[60,-1],[7,-3],[0,-93],[-2,-156],[-1,-89],[-1,-106],[-1,-208]],[[1755,3170],[-166,3],[-51,0],[-161,2]],[[1378,3244],[1,236],[-20,-7],[-248,1],[-39,1],[-26,6],[-142,0],[1,173],[-1,40],[-5,4],[-9,26],[-1,18],[-5,43],[11,30],[2,20],[-8,105],[-8,25],[-8,9],[-37,39],[-12,20],[-3,28]],[[1245,2158],[-1,-103],[14,-1],[99,1],[22,-6],[93,0],[42,1],[25,-3],[29,2],[129,1],[182,0]],[[1879,2050],[267,0],[186,0],[4,-3],[37,-62],[7,-13],[7,-30],[1,-116],[1,-218]],[[90,1631],[0,100],[-1,133],[3,139],[0,150]],[[687,4553],[120,48]],[[807,4601],[-1,-11]],[[806,4590],[5,-80]],[[811,4510],[-28,0],[0,13],[-29,0],[0,14],[-34,0]],[[720,4537],[-34,-1],[1,17]],[[2601,5742],[-8,-1],[-110,-1],[-2,43]],[[2618,5397],[24,11],[89,45],[36,19]],[[2767,5472],[9,-43],[32,4]],[[2808,5433],[-182,-100]],[[2626,5333],[-5,56],[-3,8]],[[3852,560],[36,0],[183,-4],[400,-11],[428,-11],[124,-2],[-2,62],[-7,111],[143,-2],[52,-1]],[[5209,702],[39,0],[48,11],[27,8],[18,1],[117,-1],[251,-1]],[[6372,506],[1,-50],[0,-89],[-1,-83],[0,-270],[-193,-1],[-457,-6],[-85,-2],[-61,0],[-150,-3],[-162,-2],[-128,0],[-185,1],[-52,0],[-195,4],[-227,4],[-63,2],[-277,3],[-186,4],[-98,1]],[[807,4601],[27,66],[11,38]],[[845,4705],[1,1]],[[846,4706],[58,0],[42,4],[0,-102]],[[946,4608],[-44,-1],[0,-15],[-77,0],[-19,-2]],[[5827,6573],[27,26],[19,8],[19,1],[20,10],[41,4],[10,6],[7,21],[-4,23],[0,13],[11,34],[6,10]],[[5983,6729],[22,20],[9,15],[0,17],[-3,12]],[[6011,6793],[2,13],[8,8],[30,3],[18,5],[12,21],[1,21],[-9,24],[-2,12],[-1,45],[1,17],[16,13],[2,12],[-16,9],[-41,3],[-36,13],[-5,20],[-11,69],[-1,73]],[[5979,7174],[390,85]],[[6369,7259],[1,-74],[1,-77],[0,-163],[-1,-82],[0,-181],[1,-2],[0,-101]],[[6309,6543],[-99,27],[-138,7],[-30,0],[-22,-3],[-25,-8],[-8,0],[6,15],[-129,-2],[-10,-2],[-19,-16],[-8,12]],[[5180,6574],[128,0],[46,1],[6,-4],[10,8],[16,3],[45,-6],[30,-1]],[[5461,6575],[-2,-26],[7,-34],[29,-24],[20,0],[16,5],[40,19],[60,25],[23,5],[14,5],[33,26],[20,25],[7,21],[0,21],[5,9],[9,1],[22,-11],[17,-20],[8,-25],[11,-15]],[[5800,6582],[13,-9],[14,0]],[[5280,6128],[11,51],[12,37],[-2,21],[-8,24],[-16,26],[-22,20],[-5,26],[-33,-7],[-24,-11],[-14,0],[-58,-23],[3,138]],[[3016,5781],[16,-11],[51,-25]],[[5074,6808],[570,186]],[[5644,6994],[-3,-74],[7,-20],[-85,-30],[69,-145],[13,-38]],[[5645,6687],[-70,-9],[-31,-6],[-48,-15],[-35,-14],[0,-68]],[[5756,7054],[223,120]],[[6011,6793],[-83,-12]],[[5881,6983],[-16,0],[-4,-43],[-95,-4],[-12,26],[2,92]],[[5644,6994],[112,60]],[[5793,6762],[0,-56]],[[5793,6706],[-81,-11],[-67,-8]],[[5793,6706],[0,-15],[-27,0],[-24,-7],[1,-11],[-23,-10]],[[5720,6663],[-28,-12],[-126,-71],[-8,-2],[-64,-3],[-33,0]],[[5720,6663],[24,0],[91,-14]],[[5835,6649],[-1,-12],[-7,-17],[-27,-38]],[[5847,6769],[-2,-7],[-5,-51],[53,6]],[[5893,6717],[0,-35],[-55,-3],[-3,-30]],[[5983,6729],[-90,-12]],[[3856,6427],[866,274]],[[4706,6358],[-92,-27],[-159,-49],[-48,-19],[-23,-11],[-206,-125],[-31,-16]],[[3997,6019],[0,22],[-13,22],[-10,31],[0,14],[-4,8],[1,14],[-9,3],[-12,20],[2,28],[-2,9],[-13,8],[-1,11],[-26,13],[0,23],[6,19],[-15,24],[-19,6],[-4,22],[-25,26],[3,85]],[[48,5415],[483,55]],[[531,5470],[0,-74],[17,-24],[1,-20],[-12,-10],[6,-28],[10,-9],[22,-9],[15,3],[7,-8],[-1,-11],[10,-6],[20,-3],[11,-18],[21,-52],[7,-13],[42,-62]],[[707,5126],[14,-14],[33,-25],[15,-17],[11,-22],[9,-28],[13,-43],[8,-22],[21,-46]],[[831,4909],[34,-75],[5,-22],[3,-27],[-1,-17],[-5,-13],[-14,-24],[-7,-25]],[[845,4705],[-16,3],[-62,0],[-128,-1],[-11,3],[-21,26],[-7,3],[-134,0]],[[466,4739],[0,172],[-129,0],[0,8],[-239,-1]],[[98,4918],[0,155],[0,99],[0,137],[2,37],[-17,7],[-35,62]],[[687,4553],[-103,-40],[-13,-2],[-28,6],[-28,1],[-12,30],[-21,78],[-14,32],[-2,8],[0,73]],[[811,4510],[3,-150]],[[814,4360],[6,-31],[1,-268]],[[821,4061],[-396,-14]],[[425,4047],[0,110],[1,90],[46,3],[51,7],[27,8],[40,15],[30,18],[11,2],[26,-4],[21,2],[26,7],[11,10],[-1,129],[1,15],[5,22],[0,56]],[[425,4047],[-30,-1],[-50,-6],[-35,-7],[-60,-15],[-78,-25],[-29,-7],[-52,-10]],[[91,3976],[2,197],[0,44],[4,526],[1,175]],[[2513,2342],[2,-25],[0,-42],[13,-29],[20,-40],[17,-36],[28,-51],[26,-35],[15,-39],[12,-29],[2,-15],[-3,-166],[-1,-56],[-2,-171]],[[1879,2050],[0,60],[-4,137],[0,34],[2,9],[50,102],[13,37],[69,6],[14,-1],[44,-15],[127,-33],[8,-3],[45,-32],[22,-8],[244,-1]],[[2277,4501],[243,161],[30,21],[53,43]],[[2603,4726],[197,167],[31,21],[25,11],[41,11],[31,4],[250,0]],[[3274,4648],[-57,-59],[-12,-14],[-8,-16],[-4,-21],[-4,-286],[0,-291],[-3,-24],[-61,-167],[-2,-6],[-1,-45]],[[2282,4057],[3,214],[0,77],[-6,16],[-3,25],[1,112]],[[3122,3598],[1,-216],[-2,-9],[-14,-16],[-16,-14],[-108,-91],[-7,-7],[-4,-12]],[[2972,3233],[-93,0],[-136,0]],[[1844,5870],[156,64]],[[2267,5868],[-1,-31],[-27,0],[-1,-98],[-92,-2],[0,-106],[152,1],[0,-55],[-4,-8],[-53,0],[0,-60],[-3,-16],[0,-139]],[[2238,5354],[-258,-133],[-117,-58],[-82,-42]],[[2734,5611],[-132,-69],[-364,-188]],[[2734,5611],[4,-20],[9,-24],[-54,-1],[-1,-14],[-32,0],[-12,-7],[0,-58],[116,-1],[3,-14]],[[2618,5397],[-69,-30],[-53,-30],[-94,-64]],[[2402,5273],[-23,-14],[-74,-40],[-67,-35],[-1,3],[1,167]],[[2899,5553],[-35,-25],[-23,-14],[-33,-16],[-41,-26]],[[2402,5273],[1,-62]],[[2403,5211],[-158,-92],[-174,-97],[-75,-42],[-159,-87],[-17,-10]],[[1820,4883],[-27,56],[-107,-62],[-29,-12],[-56,-18],[1,182]],[[2403,5211],[2,-147],[18,8],[70,37],[109,62],[29,15],[44,33],[33,15]],[[2708,5234],[27,12]],[[2735,5246],[-9,-30],[-33,-138],[-12,-58]],[[2681,5020],[-25,-118],[-7,-18],[-39,-85],[-12,-17],[5,-12],[0,-44]],[[2277,4501],[-265,-175]],[[2012,4326],[0,28],[13,182],[7,89],[12,197],[0,15],[-35,-17],[-36,-10],[-37,-14],[-25,-3],[-21,3],[-27,-2],[-43,89]],[[1211,4620],[1,121]],[[1212,4741],[0,86]],[[2012,4326],[-192,-128],[-38,-23],[-22,-12],[-34,-16],[-42,-16],[-53,-16]],[[1429,4091],[0,54],[0,175],[2,41],[4,40],[-6,46],[-6,21],[-1,140],[-8,4],[-38,3],[-50,2],[-10,-1],[-36,-8],[-16,-5],[-54,-27],[1,44]],[[2626,5333],[2,-18],[3,-8],[34,-45],[43,-28]],[[2808,5433],[31,4]],[[2839,5437],[0,-87],[-47,0],[14,-70]],[[2806,5280],[-71,-34]],[[2839,5437],[29,4]],[[2868,5441],[13,-31],[33,-34],[-12,-37],[-74,-48]],[[2828,5291],[-22,-11]],[[2986,5459],[-41,10],[-6,-18],[-32,8],[-4,-15],[-35,-3]],[[3056,5358],[3,-24],[-15,-10],[-34,2],[-75,16]],[[2935,5342],[-20,3],[0,-50],[-4,-4],[-24,-8],[-58,-1],[-1,9]],[[2935,5342],[17,-84],[6,-8],[29,-7],[2,-2],[0,-60],[-102,-12],[-53,-10],[30,-35],[35,-48],[5,-9],[16,-47],[-239,0]],[[531,5470],[612,111]],[[1141,5492],[-91,-17],[-15,-8],[-1,-25],[-7,-8],[-9,-1],[-69,0],[-2,-198],[1,-105],[-71,-4],[-32,0],[-124,2],[-14,-2]],[[1212,4926],[-259,-2],[-8,-1],[-31,-14],[-83,0]],[[1212,4741],[-160,-59],[-36,-9],[0,-41],[-6,-10],[3,-17],[-7,-12],[-12,-4],[-27,3],[-21,1]],[[946,4593],[0,15]],[[1211,4620],[-265,-76]],[[946,4544],[0,49]],[[946,4544],[1,-25],[5,-11],[16,-13],[4,-6],[-21,-10],[-10,-15],[1,-28],[-3,-8],[-14,-14],[-34,-25],[-42,-23],[-35,-6]],[[2972,3233],[217,-2],[281,-1],[195,-1],[190,0],[65,-1]],[[3850,2731],[-191,-2],[-293,-2],[-207,-2],[-13,3],[-64,34],[-14,5],[-97,12],[1,-96],[-95,1],[-145,0],[-41,1],[-93,0]],[[3856,6427],[-5,-1],[-841,-212]],[[3010,6214],[-265,27]],[[48,5415],[-48,85],[0,148],[0,5646],[55,10],[75,2],[269,51],[460,82],[526,96],[369,68],[510,93],[566,100],[547,96],[549,102],[504,85],[571,102],[260,51],[383,68],[592,104],[128,22],[1,-1156],[4,-689],[-2,-655],[0,-530],[-1,-757],[3,-1117],[0,-263]],[[2513,2342],[-3,17],[-111,86],[-4,6],[-8,29],[-5,30],[-14,25],[-11,7],[-53,17],[-13,8],[-35,46],[3,9],[1,65]],[[3677,5120],[-10,7],[-23,25],[3,10],[27,8],[15,1],[28,12],[28,0],[15,8],[1,16],[6,9],[23,23],[6,12],[-8,28],[-9,4],[-31,0],[-5,-10],[-21,-14],[-15,-5],[-21,3],[-9,8],[0,18],[-7,22],[5,18],[22,11],[29,2],[27,-6],[17,-12],[20,-25],[11,2],[10,6],[1,19],[18,27],[-1,17],[-8,7],[-24,2],[-23,-16],[-50,22],[-8,6],[-5,19],[14,23],[28,36],[8,7],[11,-1],[12,-7],[16,-3],[42,3],[28,10],[22,2],[23,9],[12,23],[1,8],[-10,15],[-21,15],[-8,18],[2,12],[9,9],[24,11],[10,7],[9,15],[-2,12],[-6,6],[-21,7],[-29,-1],[-31,-6]],[[2967,5927],[-10,104],[14,6],[36,23],[3,154]],[[5165,1628],[10,-123],[11,-153],[4,-21],[14,-45],[12,-28],[-3,-66],[-2,-101],[-2,-170],[-4,-147],[0,-28],[4,-44]],[[90,3246],[-2,230],[0,217],[2,93],[0,74],[1,59],[0,57]],[[1755,3170],[67,0],[226,-3],[-19,-155],[9,-8],[21,-11],[22,-1],[43,-25],[46,-13],[32,-2],[37,19],[21,4]]],"transform":{"scale":[0.00007699184057743557,0.00006669507484307089],"translate":[-81.00982700000002,41.498379]},"objects":{"Geometry\\39-007":{"type":"GeometryCollection","geometries":[{"arcs":[[0,1,2,3,4]],"type":"Polygon","properties":{"GEOID":"390070012013"}},{"arcs":[[5,6,7,8,-1,9,10]],"type":"Polygon","properties":{"GEOID":"390070012011"}},{"arcs":[[-9,11,12,13,14,-2]],"type":"Polygon","properties":{"GEOID":"390070012012"}},{"arcs":[[15,16,17,18,19,20,21]],"type":"Polygon","properties":{"GEOID":"390070014022"}},{"arcs":[[22,23,24,-21,25,26]],"type":"Polygon","properties":{"GEOID":"390070014021"}},{"arcs":[[27,-27,28,29]],"type":"Polygon","properties":{"GEOID":"390070014012"}},{"arcs":[[-26,-20,30,-29]],"type":"Polygon","properties":{"GEOID":"390070014023"}},{"arcs":[[31,32,33,34,-13]],"type":"Polygon","properties":{"GEOID":"390070012021"}},{"arcs":[[-35,35,36,-14]],"type":"Polygon","properties":{"GEOID":"390070012022"}},{"arcs":[[37,-4,38,39,40,41,42]],"type":"Polygon","properties":{"GEOID":"390070013032"}},{"arcs":[[43,44,45,46,47]],"type":"Polygon","properties":{"GEOID":"390070001021"}},{"arcs":[[48,-44,49]],"type":"Polygon","properties":{"GEOID":"390070001022"}},{"arcs":[[-3,-15,-37,50,51,-39]],"type":"Polygon","properties":{"GEOID":"390070012023"}},{"arcs":[[52,53,54,55]],"type":"Polygon","properties":{"GEOID":"390070013041"}},{"arcs":[[-52,56,-56,57,-40]],"type":"Polygon","properties":{"GEOID":"390070013031"}},{"arcs":[[58,-23,-28,59]],"type":"Polygon","properties":{"GEOID":"390070014011"}},{"arcs":[[60,61,62,63]],"type":"Polygon","properties":{"GEOID":"390070007013"}},{"arcs":[[64,65,66,67,68]],"type":"Polygon","properties":{"GEOID":"390070002001"}},{"arcs":[[69,70,71,72]],"type":"Polygon","properties":{"GEOID":"390070004002"}},{"arcs":[[73,74,75,76]],"type":"Polygon","properties":{"GEOID":"390070003002"}},{"arcs":[[77,78,79,80]],"type":"Polygon","properties":{"GEOID":"390070005003"}},{"arcs":[[81,82,83,84,85,86,87,88]],"type":"Polygon","properties":{"GEOID":"390070006022"}},{"arcs":[[-88,89,90,91,92]],"type":"Polygon","properties":{"GEOID":"390070006023"}},{"arcs":[[93,94,95,96,97,98,99]],"type":"Polygon","properties":{"GEOID":"390070006031"}},{"arcs":[[100,-80,101,-77,102,103]],"type":"Polygon","properties":{"GEOID":"390070005002"}},{"arcs":[[104,-85]],"type":"Polygon","properties":{"GEOID":"390070006011"}},{"arcs":[[-105,-84,105,106,-86]],"type":"Polygon","properties":{"GEOID":"390070006012"}},{"arcs":[[107,-89,-93,108,109]],"type":"Polygon","properties":{"GEOID":"390070006021"}},{"arcs":[[110,111,-8,112]],"type":"Polygon","properties":{"GEOID":"390070002002"}},{"arcs":[[113,114,115,116,117,118,119]],"type":"Polygon","properties":{"GEOID":"390070011022"}},{"arcs":[[-54,120,121,122]],"type":"Polygon","properties":{"GEOID":"390070013012"}},{"arcs":[[-107,-73,-61,123,124,125,-90,-87]],"type":"Polygon","properties":{"GEOID":"390070006013"}},{"arcs":[[126,127,128,129,130]],"type":"Polygon","properties":{"GEOID":"390070010011"}},{"arcs":[[131,-74,-102,-79,132]],"type":"Polygon","properties":{"GEOID":"390070005004"}},{"arcs":[[133,134,135,136,-128,137]],"type":"Polygon","properties":{"GEOID":"390070010021"}},{"arcs":[[-130,138,139,-24,-59,140]],"type":"Polygon","properties":{"GEOID":"390070010013"}},{"arcs":[[141,142,143,144,145]],"type":"Polygon","properties":{"GEOID":"390070009003"}},{"arcs":[[-91,-126,146]],"type":"Polygon","properties":{"GEOID":"390070006024"}},{"arcs":[[147,148,149,150]],"type":"Polygon","properties":{"GEOID":"390070007032"}},{"arcs":[[151,152,-122,153,-18]],"type":"Polygon","properties":{"GEOID":"390070013014"}},{"arcs":[[154,155,156,157,-143]],"type":"Polygon","properties":{"GEOID":"390070008023"}},{"arcs":[[158,159,160,161,162,-33,163]],"type":"Polygon","properties":{"GEOID":"390070001013"}},{"arcs":[[-67,164,165,166,-164,-32,167]],"type":"Polygon","properties":{"GEOID":"390070001012"}},{"arcs":[[-72,168,-133,-78,-62]],"type":"Polygon","properties":{"GEOID":"390070005001"}},{"arcs":[[169,170,171,-165,-66]],"type":"Polygon","properties":{"GEOID":"390070001011"}},{"arcs":[[172,-161,173,-45,-49,174]],"type":"Polygon","properties":{"GEOID":"390070001023"}},{"arcs":[[175,-175,-50,-48,176,177,-171]],"type":"Polygon","properties":{"GEOID":"390070001024"}},{"arcs":[[-178,178,179,-172]],"type":"Polygon","properties":{"GEOID":"390070001031"}},{"arcs":[[-180,180,181,-166]],"type":"Polygon","properties":{"GEOID":"390070001032"}},{"arcs":[[-177,-47,182,183,-181,-179]],"type":"Polygon","properties":{"GEOID":"390070001033"}},{"arcs":[[-46,-174,-160,184,-183]],"type":"Polygon","properties":{"GEOID":"390070001034"}},{"arcs":[[-182,-184,-185,-159,-167]],"type":"Polygon","properties":{"GEOID":"390070001035"}},{"arcs":[[185,-69,186,-111,187]],"type":"Polygon","properties":{"GEOID":"390070002004"}},{"arcs":[[188,189,190,191,-156,192,193,194]],"type":"Polygon","properties":{"GEOID":"390070009001"}},{"arcs":[[-193,-155,-142,195]],"type":"Polygon","properties":{"GEOID":"390070009002"}},{"arcs":[[-145,196,197,198,199]],"type":"Polygon","properties":{"GEOID":"390070009004"}},{"arcs":[[-194,-196,-146,-200,200,201]],"type":"Polygon","properties":{"GEOID":"390070009005"}},{"arcs":[[202,-22,-25,-140,203]],"type":"Polygon","properties":{"GEOID":"390070010014"}},{"arcs":[[204,205,-11,206,-115,207]],"type":"Polygon","properties":{"GEOID":"390070011023"}},{"arcs":[[208,209,-117]],"type":"Polygon","properties":{"GEOID":"390070011024"}},{"arcs":[[-187,-68,-168,-12,-112]],"type":"Polygon","properties":{"GEOID":"390070002003"}},{"arcs":[[210,-110,211,212,-95]],"type":"Polygon","properties":{"GEOID":"390070006032"}},{"arcs":[[-109,-92,-147,-125,213,-212]],"type":"Polygon","properties":{"GEOID":"390070006033"}},{"arcs":[[-214,214,-148,215,216]],"type":"Polygon","properties":{"GEOID":"390070007011"}},{"arcs":[[-124,-64,217,-215]],"type":"Polygon","properties":{"GEOID":"390070007012"}},{"arcs":[[-96,-213,-217,218,219,220]],"type":"Polygon","properties":{"GEOID":"390070007021"}},{"arcs":[[-220,221,222,223,224,-205,225,226]],"type":"Polygon","properties":{"GEOID":"390070007022"}},{"arcs":[[227,228,-97,-221,-227,229,-135,230]],"type":"Polygon","properties":{"GEOID":"390070007023"}},{"arcs":[[-216,-151,231,-222,-219]],"type":"Polygon","properties":{"GEOID":"390070007031"}},{"arcs":[[-150,232,233,234,-223,-232]],"type":"Polygon","properties":{"GEOID":"390070007033"}},{"arcs":[[235,236,237,-234]],"type":"Polygon","properties":{"GEOID":"390070007034"}},{"arcs":[[-218,-63,-81,-101,238,-236,-233,-149]],"type":"Polygon","properties":{"GEOID":"390070007041"}},{"arcs":[[-237,-239,-104,239,240]],"type":"Polygon","properties":{"GEOID":"390070007042"}},{"arcs":[[-235,-238,-241,241,-224]],"type":"Polygon","properties":{"GEOID":"390070007043"}},{"arcs":[[242,-100,243,-190]],"type":"Polygon","properties":{"GEOID":"390070008011"}},{"arcs":[[-99,244,-191,-244]],"type":"Polygon","properties":{"GEOID":"390070008012"}},{"arcs":[[-245,-98,-229,245,246,-157,-192]],"type":"Polygon","properties":{"GEOID":"390070008021"}},{"arcs":[[-246,-228,247,248]],"type":"Polygon","properties":{"GEOID":"390070008022"}},{"arcs":[[-158,-247,-249,249,-197,-144]],"type":"Polygon","properties":{"GEOID":"390070008025"}},{"arcs":[[-250,-248,-231,-134,-198]],"type":"Polygon","properties":{"GEOID":"390070008024"}},{"arcs":[[-210,250,-43,251,-118]],"type":"Polygon","properties":{"GEOID":"390070011012"}},{"arcs":[[-162,-173,-176,-170,-65,-186,252,253,-82,-108,-211,-94,-243,-189,254]],"type":"Polygon","properties":{"GEOID":"390079900000"}},{"arcs":[[-116,-207,-10,-5,-38,-251,-209]],"type":"Polygon","properties":{"GEOID":"390070011021"}},{"arcs":[[-119,-252,-42,-16,-203,255]],"type":"Polygon","properties":{"GEOID":"390070011011"}},{"arcs":[[-253,-188,-113,-7,256,-75,-132,-169,-71,257]],"type":"Polygon","properties":{"GEOID":"390070003001"}},{"arcs":[[-83,-254,-258,-70,-106]],"type":"Polygon","properties":{"GEOID":"390070004001"}},{"arcs":[[-242,-240,-103,-76,-257,-6,-206,-225]],"type":"Polygon","properties":{"GEOID":"390070007044"}},{"arcs":[[-41,258,-152,-17]],"type":"Polygon","properties":{"GEOID":"390070013011"}},{"arcs":[[-201,-199,-138,-127,259]],"type":"Polygon","properties":{"GEOID":"390070010022"}},{"arcs":[[-137,260,-120,-256,-204,-139,-129]],"type":"Polygon","properties":{"GEOID":"390070010012"}},{"arcs":[[-230,-226,-208,-114,-261,-136]],"type":"Polygon","properties":{"GEOID":"390070010023"}},{"arcs":[[-58,-55,-123,-153,-259]],"type":"Polygon","properties":{"GEOID":"390070013013"}}]}}}