{"type":"Topology","arcs":[[[1540,7326],[16,-33],[-19,-60],[-12,-65],[-13,-21],[-33,-27],[-75,-44],[-17,-25],[5,-58],[-25,-59],[-37,-72],[-58,-102],[-2,-9],[-7,-118],[93,7],[65,10],[89,25],[63,10],[45,-10],[58,-16],[54,-10],[32,2],[30,10],[32,3],[11,-4],[8,-37],[34,-4],[12,-18],[13,-2],[90,21],[24,-16],[27,-25],[28,-10],[18,-26],[20,-17],[70,-22],[20,7],[57,-4],[39,-37],[42,-29],[41,-39],[7,-38],[12,-30],[39,-71],[24,-24],[15,-29],[39,-48],[21,4],[-17,-42],[-22,-47],[-32,-14],[-11,-14],[-16,-43],[-2,-17],[18,-50],[19,-21],[22,-12],[7,-15],[-2,-47],[23,-37],[29,-38],[10,-46],[-2,-37],[22,-42],[6,-52],[0,-53],[10,-50],[-8,-17],[-22,-22],[-4,-37],[-7,-18],[-3,-43]],[[2553,5352],[-49,6],[-103,28],[-79,17],[-122,-4],[-51,-15],[-36,-21],[-67,-59],[-31,-8],[-24,6],[-40,21],[-25,7],[-50,-2],[-72,-36],[-25,10],[-28,44],[-49,13],[-19,-2],[-61,-32],[-60,-15],[-70,-2],[-27,-6],[-71,-30],[-13,-8],[-18,-27],[-26,-79],[-3,-35],[-19,-33],[-109,-104],[-38,-27],[20,-45],[-10,-42],[5,-78],[24,-48],[0,-29],[-11,-89],[6,-32],[-1,-22],[16,-19],[10,-21],[-3,-34],[3,-31],[29,-24],[-1,-26],[-10,-17],[3,-41],[10,-26],[-1,-24],[-15,-12],[0,-41],[15,-52],[1,-21],[-15,-8],[-2,-16],[13,-18],[11,-42],[39,-50],[6,-66],[-2,-29],[13,-84],[-11,-22]],[[1310,3850],[-839,58],[-359,23],[-112,8],[56,803],[4,71],[9,109],[37,598],[2,18],[39,601],[0,18],[24,349],[41,650],[22,284],[612,-61],[614,-48],[80,-5]],[[3664,2875],[123,18],[66,-3],[6,69],[7,26],[66,-5],[-1,-23],[36,-3],[2,22],[57,-5],[-6,-74],[144,-14],[100,18],[37,0],[75,-23],[48,-23],[29,-1],[72,20],[269,44],[142,26]],[[4936,2944],[-4,-65],[12,-56],[79,-77],[17,-23],[21,-36],[53,-24],[4,-59],[-24,-101],[-14,-34],[0,-37]],[[5080,2432],[-397,24],[-160,11],[-224,13],[-660,72],[25,323]],[[4614,4405],[18,-13],[4,-18],[53,-35],[26,-9],[96,-11],[23,-11],[78,5],[121,-9],[17,-9],[27,-30],[32,-25],[50,-62]],[[5159,4178],[-22,-16],[-38,-15],[-61,-2],[-225,-14],[-30,-8],[-42,-32],[-18,-21],[-41,-58],[-40,-49],[11,-37],[-42,-33],[8,-19],[-8,-151],[27,-48],[49,-79],[35,-24],[61,-20],[35,-25],[28,-43],[25,-93],[12,-31],[26,-31],[33,-16],[-26,-79],[-12,-87],[4,-27],[27,-36],[9,-31],[-8,-109]],[[3664,2875],[6,67],[34,403]],[[3704,3345],[184,-18],[9,119],[-2,26],[-45,114],[-14,22],[-41,49],[-35,28],[-23,29],[-33,56],[-111,117],[13,45],[25,14],[-12,33],[8,40],[0,68],[25,60],[-4,18],[18,33],[3,15],[-7,36],[16,64],[0,48],[19,53],[22,32],[37,21],[33,4],[8,11],[2,72],[5,51],[9,5],[39,1],[52,7],[31,-30],[35,-8],[53,-22],[104,-20],[31,3],[-4,-85],[8,-102],[42,-6],[5,-9],[7,-56],[106,-9],[42,-26],[20,1],[31,18],[55,-5],[133,-9],[8,53],[4,49],[-1,50]],[[5516,2247],[65,-15],[42,1],[160,39],[53,8],[123,2],[63,-6],[218,-55],[33,-6],[21,3],[27,11],[22,19],[18,32],[16,87],[15,-21],[-14,-36],[-2,-19],[9,-31],[28,7],[39,16],[55,5],[26,-9],[43,-30],[55,-16],[40,-25],[45,6],[67,24],[25,55],[-8,49],[9,28],[26,28],[37,27],[53,32],[41,6],[19,10],[20,24],[17,1],[34,-10],[27,20],[19,2],[8,-75],[7,-10],[34,-8],[-10,-44],[19,-34],[21,-15],[11,-72],[-2,-13],[-24,-36],[0,-46],[4,-8],[31,-3],[59,-15],[12,14],[51,42],[28,66]],[[7351,2253],[-12,-125],[-55,-789],[-7,-165],[-7,-45],[-15,-213],[-63,-916],[-849,79],[-673,56],[-176,16],[-140,11],[23,273],[17,202],[5,69],[48,625],[4,94],[4,7],[61,815]],[[2918,5242],[50,37],[18,7],[149,38],[56,0],[38,4],[45,-2],[18,4],[61,32],[50,37],[44,27],[40,14],[49,10],[42,22],[48,17],[44,28],[34,6]],[[3704,5523],[36,-13],[50,-48],[34,-19],[27,-28],[42,-18],[48,-41],[40,-25],[77,-85],[40,-70],[11,-13],[63,-35],[83,-75],[208,-185],[14,-16],[29,-49],[17,-8],[118,-10]],[[4641,4785],[-10,-140],[-12,-149],[-5,-91]],[[3704,3345],[-15,5],[-134,27],[-53,9],[-258,36],[-164,26],[-333,1]],[[2747,3449],[-47,33],[19,26],[-3,24],[17,61],[10,12],[35,73],[-5,98],[-3,17],[-18,46],[-15,141],[20,32],[30,34],[8,73],[13,7],[42,9],[36,12],[35,-18],[34,1],[30,9],[78,34],[70,35],[118,45],[-18,23],[-12,33],[-9,59],[6,80],[-18,33],[-18,44],[-13,67],[3,46],[-26,79],[-6,55],[-15,41],[-16,29],[-38,40],[-29,64],[1,83],[-14,34],[-6,30],[-23,32],[-28,50],[-51,59],[-3,8]],[[4827,5710],[142,-10],[47,-1],[19,62],[34,65],[28,24],[29,73],[3,25],[17,60],[44,63],[88,66],[94,-37],[-2,-40],[-9,-38],[-19,-37],[-17,-21],[-4,-26],[32,-22],[50,-12],[9,-6],[-18,-29],[-42,-38],[3,-12],[23,-15],[30,10],[22,-7],[46,-47],[27,-7],[5,-34],[-3,-21],[-24,-20],[-1,-36],[9,-30],[-7,-35],[14,-14],[3,-19],[74,-47],[49,-38],[29,-3],[-3,-28],[36,4],[5,-20],[14,-4]],[[5703,5408],[-26,-9],[-61,-8],[-30,4],[-33,-66],[-5,-48],[-10,-31],[-42,-90],[-3,-46],[-37,-56],[-39,-40],[-13,-20],[-29,-65],[-37,-49],[-29,-44],[-5,-51],[3,-50],[13,-44],[24,-27],[8,-22],[2,-57],[-13,-51],[-11,-18]],[[5330,4520],[-49,1],[-30,4],[-68,15],[-34,14],[-21,16],[-24,30],[-57,96],[-28,29],[-47,13],[-43,18],[-31,4],[-36,-5],[6,16],[38,25],[31,0],[17,48],[-3,26],[-25,23],[9,27],[7,63],[2,48],[-35,116],[-7,13],[-27,21],[-12,17],[-22,17],[-36,9],[-8,12],[1,29],[-54,-13],[-18,-17],[-29,-3],[-5,-22],[-37,-277],[-6,-38],[-8,-110]],[[3704,5523],[-5,20],[-24,38],[-14,32],[-6,115],[-14,26],[-46,46],[-13,28],[4,79],[51,-4],[14,3],[63,76],[36,23],[59,30],[18,5],[65,1],[64,-30],[52,-8],[27,-24],[56,-18],[18,-24],[32,-17],[116,-9],[42,-2],[48,7],[41,-7],[13,-6],[139,-10],[33,-4],[14,-10],[10,-19],[20,-20],[32,-21],[52,-22],[79,-6],[25,-72],[22,-9]],[[5330,4520],[8,1]],[[5338,4521],[-25,-85],[-21,-46],[-50,-59],[-16,-35],[-23,-67],[-19,-31],[-25,-20]],[[5005,7980],[369,-24],[223,-13],[745,-52],[110,-12],[114,-4],[162,-16],[196,-10],[396,-33],[415,-26],[-35,-468],[-55,-749],[-41,-550]],[[7604,6023],[-22,8],[-34,24],[-31,-19],[-19,3],[-27,-11],[-27,-19],[-36,13],[-27,1],[-30,-38],[-17,1],[-14,13],[-18,-7],[-45,-7],[-13,3],[-32,20],[-25,7],[-18,-7],[-27,4],[-7,30],[33,18],[-4,69],[3,56],[-5,6],[-36,5],[-24,19],[28,27],[13,34],[-4,24],[-28,8],[-18,-3],[-44,-18],[-15,12],[9,55],[-11,29],[-15,5],[-48,-28],[-30,-8],[-93,4],[-63,-14],[-30,2],[-63,11],[-13,6],[-51,-38],[-18,-27],[-43,-85],[-32,-31],[-19,-10],[-52,-12],[-55,-2],[-45,28],[-38,14],[-33,-5],[-22,-14],[-11,-16],[-20,-54],[1,-68],[-11,-54],[-9,-31],[-13,-23],[-20,-16],[-51,-27],[-24,-26],[-19,-41],[-11,-59],[-9,-74],[-51,-127],[-25,-3],[-23,-55],[-35,16],[-8,-5],[-21,-34],[-30,-11],[-55,-15],[-23,-15],[-69,-20],[-29,-13]],[[4827,5710],[17,292],[4,50],[23,182],[9,54],[48,217],[20,65],[16,84],[42,114],[14,42],[26,96],[2,51],[-4,42],[11,49],[-3,26],[-20,45],[-54,77],[-11,38],[-8,67],[2,50],[-3,47],[5,62],[-1,55],[-6,22],[-4,57],[-38,113],[-1,33],[12,23],[23,29],[14,31],[43,157]],[[5338,4521],[202,8],[91,12],[373,81],[53,7],[35,0],[64,-9],[173,-53],[34,4],[49,49],[36,23],[26,9],[39,-19],[16,-14],[46,-49],[44,-53],[13,-7],[95,-43],[25,-4],[44,14],[9,-11],[72,-36],[17,-6],[-1,-24],[-14,-9],[-26,-6],[-27,-24],[0,-24],[9,-24],[27,-14],[14,-32],[-36,-24],[-8,-15],[2,-30],[30,-22],[22,-44],[17,-20],[43,-35],[10,-21],[12,-54],[-2,-21],[-42,-24],[-2,-33],[20,-35],[-5,-11],[-46,-13],[-12,-13],[-43,-27],[-30,-34],[-10,-33],[-45,12],[-35,-3],[-51,-47],[18,-24],[37,-9],[30,-17],[22,-21],[12,-48],[23,-36],[13,-32],[16,-52],[18,-37],[13,-51],[14,-21],[-3,-55],[10,-16],[23,-64],[46,-62],[3,-28],[21,-17],[16,-44],[-4,-57],[408,39]],[[7401,3068],[-6,-126],[-24,-329],[-1,-48],[-8,-104],[-11,-208]],[[5516,2247],[12,163],[-448,22]],[[1540,7326],[539,-30],[21,314],[175,-19],[135,-11],[41,-5],[64,-1],[550,-39],[945,-67],[22,123],[19,231],[9,221],[239,-20],[706,-43]],[[2918,5242],[-47,28],[-111,55],[-99,20],[-108,7]],[[2747,3449],[-264,1],[-370,51],[-292,36],[23,278],[-534,35]],[[7604,6023],[-13,-182],[625,-45],[-61,-866],[-75,-1082],[-305,19],[-248,15],[-70,3],[-41,-568],[-15,-249]]],"transform":{"scale":[0.00006117928432327057,0.000045765634713415615],"translate":[-82.762892,39.027674]},"objects":{"Geometry\\39-163":{"type":"GeometryCollection","geometries":[{"arcs":[[0,1,2]],"type":"Polygon","properties":{"GEOID":"391639530003"}},{"arcs":[[3,4,5]],"type":"Polygon","properties":{"GEOID":"391639531005"}},{"arcs":[[6,7,-4,8,9]],"type":"Polygon","properties":{"GEOID":"391639531004"}},{"arcs":[[10,11]],"type":"Polygon","properties":{"GEOID":"391639532003"}},{"arcs":[[12,13,14,-10,15,16]],"type":"Polygon","properties":{"GEOID":"391639531002"}},{"arcs":[[17,18,19,-14,20]],"type":"Polygon","properties":{"GEOID":"391639531001"}},{"arcs":[[-20,21,22,-7,-15]],"type":"Polygon","properties":{"GEOID":"391639531003"}},{"arcs":[[23,24,-18,25]],"type":"Polygon","properties":{"GEOID":"391639530001"}},{"arcs":[[-23,26,27,-11,28,-5,-8]],"type":"Polygon","properties":{"GEOID":"391639532002"}},{"arcs":[[29,-26,-21,-13,30,-1]],"type":"Polygon","properties":{"GEOID":"391639530002"}},{"arcs":[[-31,-17,31,-2]],"type":"Polygon","properties":{"GEOID":"391639530004"}},{"arcs":[[-25,32,-27,-22,-19]],"type":"Polygon","properties":{"GEOID":"391639532001"}}]}}}