{"type":"Topology","arcs":[[[7931,1744],[52,36],[110,42]],[[8093,1822],[271,103],[161,83],[170,91],[38,32],[124,503],[27,-6],[17,23],[-8,25],[-14,11],[6,42],[-10,37],[24,25],[10,54],[10,37],[27,33],[-4,13],[21,26],[12,-5],[27,11],[22,1],[26,27],[27,6],[53,23],[33,31],[250,-1],[154,2],[421,-1],[1,158],[2,71],[-1,187],[-3,160],[-1,90],[5,58],[2,77],[-2,132],[-3,82],[1,124],[-1,90],[0,168],[-24,8],[-197,-1],[-14,10],[-3,22],[1,150],[0,129],[-5,66],[5,80],[-3,66],[3,70],[-1,109],[261,0]],[[10011,5154],[2,-24],[15,-28],[27,-26],[2,-18],[-30,-25],[-63,-16],[-18,-22],[22,-35],[29,-7],[41,16],[16,-25],[-2,-33],[-25,-20],[-25,-12],[-2,-26],[12,-12],[26,-9],[37,-3],[18,-15],[-10,-22],[-41,-40],[1,-24],[42,-2],[26,18],[25,35],[32,9],[30,26],[24,-13],[-6,-33],[-18,-48],[-47,-60],[-27,-40],[-7,-23],[16,-9],[52,23],[29,7],[47,-7],[19,-10],[3,-35],[-25,-51],[4,-21],[27,-46],[26,-17],[44,11],[16,-11],[3,-17],[33,-14],[48,5],[14,-19],[8,-34],[23,-24],[48,1],[14,-9],[15,-55],[24,-55],[46,-15],[11,-17],[6,-64],[-14,-26],[0,-15],[29,-36],[8,-33],[80,-2],[16,-11],[-2,-28],[-13,-12],[-34,-17],[0,-22],[51,-34],[0,-47],[10,-9],[40,23],[50,-18],[28,15],[-27,61],[9,13],[45,-9],[13,-19],[-9,-29],[18,-32],[14,-11],[20,3],[0,29],[16,23],[19,-2],[33,-41],[20,-11],[29,10],[11,-9],[8,-28],[17,-34],[23,-1],[16,24],[21,-1],[26,-45],[22,-8],[17,13],[15,-19],[-6,-29],[26,-27],[18,-10],[38,-9],[37,2],[46,-8],[23,-24],[39,-14],[16,16],[7,31],[25,1],[23,-23],[7,-25],[-24,-21],[-7,-15],[12,-41],[17,-14],[28,-5],[16,29],[35,21],[12,24],[28,-13],[3,-14],[-15,-40],[10,-33],[41,-19],[19,5],[-1,32],[-11,30],[6,29],[14,7],[35,-25],[41,-8],[30,42],[25,1],[9,-22],[-3,-29],[34,-11],[58,-25],[8,-24],[28,-16],[30,3],[15,-6],[-9,-34],[-15,-19],[-19,-38],[-29,0],[-7,-15],[40,-36],[61,-25],[1,-34],[19,-11],[29,9],[7,-47],[10,-7],[28,10],[23,-14],[1,-27],[-15,-35],[4,-18],[21,2],[27,22],[19,4],[18,-7],[12,-32],[27,-12],[8,17],[-2,42],[21,20],[2,12],[-16,33],[4,15],[53,27],[33,-3],[0,27],[11,12],[27,5],[9,-12],[2,-22],[-17,-20],[-6,-26],[8,-27],[15,-23],[43,7],[18,-17],[-25,-26],[-21,10],[-15,-11],[28,-32],[28,5],[23,20],[26,-20],[4,-28],[19,-16],[63,19],[15,-6],[5,-35],[-9,-23],[15,-6],[15,42],[28,14],[18,-22],[1,-25],[-18,-12],[0,-17],[44,-16],[5,-11],[-30,-21],[-20,-28],[8,-32],[42,1],[7,-5],[-23,-54],[-15,-21],[14,-19],[20,2],[4,20],[14,6],[34,-27],[-3,-37],[22,-4],[42,22],[45,-12],[11,-22],[-27,-61],[3,-22],[15,-4],[30,25],[27,-2],[5,12],[-16,18],[0,20],[11,10],[22,-1],[35,-20],[17,-21],[-14,-32],[17,-17],[38,-5],[4,52],[20,13],[41,-15],[30,1],[30,29],[28,17],[16,3],[30,20],[42,-30],[2,-9],[-21,-48],[6,-44],[-12,-66],[10,-12],[20,-2],[16,10],[19,35],[30,21],[24,0],[-5,-59],[6,-17],[28,-31],[23,-13],[-3,-23],[-28,-21],[-4,-23],[8,-32],[-18,-28],[2,-55],[15,-15],[30,-11],[8,-23],[41,-19],[-17,-22],[-3,-17],[26,0],[20,9],[24,-6],[-6,-46],[-21,-49],[9,-10],[35,12],[27,1],[9,-18],[-27,-32],[-3,-16],[13,-15],[36,3],[15,-18],[-10,-32],[32,-51],[56,-2],[22,14],[15,-8],[13,-20],[39,-27],[22,-2],[15,10],[22,-14],[32,-7],[56,-70],[50,-44],[-10,-35],[47,-3],[7,-23],[-42,-40],[-25,26],[-21,-12],[15,-43],[10,-13],[31,6],[26,-21],[24,-2],[34,-61],[-24,-18],[-7,-20],[-13,-4],[-17,16],[-16,-19],[10,-29],[49,-39],[-10,-19]],[[14142,1393],[-786,2],[-312,-2],[3,-20],[-4,-1019],[4,-140],[-1,-214],[-503,1],[-94,3],[-209,-1],[-113,1],[-72,-2],[-233,-1],[-885,3],[-964,2],[-462,1],[-42,5],[-14,36],[-32,58],[5,20],[62,-7],[41,1],[16,14],[12,27],[7,75],[-12,88],[0,38],[-23,29],[-41,20],[-62,3],[-46,-7],[-42,10],[-19,32],[-107,109],[-54,43],[-65,37],[-28,26],[-20,28],[1,77],[40,46],[18,32],[-2,10],[-42,83],[-41,50],[-32,26],[-18,-8],[-36,-27],[-8,-30],[-7,-77],[-15,-35],[-20,-9],[-104,-3],[-19,30],[-52,22],[-15,19],[4,29],[9,4],[15,45],[97,-5],[37,32],[2,30],[-40,27],[-14,-4],[-35,49],[-28,77],[-28,38],[-75,34],[-90,33],[-27,42],[16,28],[4,28],[-6,68],[6,29],[-9,35],[-28,27],[-32,7],[-21,-16],[-69,-40],[-39,-47],[-18,-44],[3,-99],[-37,-30],[-99,31],[-81,57],[-65,3],[-96,61],[-8,42],[31,104],[24,20],[73,28],[10,47],[-30,38],[-4,13],[-26,20],[-63,9],[-27,-4]],[[11416,9839],[163,-2],[311,-1],[124,-1],[109,1],[17,3],[166,1],[57,-1],[240,0],[332,0],[111,-2],[13,-11],[9,-25],[268,-1],[45,1],[424,-2],[214,2],[299,0],[-1,-889],[4,-41],[0,-98],[-2,-291],[-3,-170],[3,-45],[-1,-147],[2,-269],[-2,-215],[1,-95],[-1,-366],[0,-178],[-1,-435],[-2,-133],[2,-94],[-1,-273]],[[14316,6062],[-114,1],[-8,4],[0,48],[-5,5],[-205,2],[-146,1],[-1,-290],[-15,-1],[-447,-1],[-15,7],[1,111],[-283,0],[-24,8],[1,133],[-309,-2],[-219,1],[-155,-1],[-2,-336],[1,-205],[-2,-392],[-50,1],[-56,5],[-165,-9],[-112,0],[-85,2],[-47,0],[-438,0],[1,278],[-1,249],[0,376],[-1,24],[-15,11],[-110,0],[-543,-3],[-36,-12],[-49,13],[-198,0],[1,337],[-3,429],[0,170],[-159,1],[-175,0],[-24,4],[-64,3],[-58,-4],[-19,6],[-63,-1],[-75,-4],[-191,-2],[-357,-1],[-35,-10]],[[9242,7018],[-21,57],[8,54],[12,25],[3,41],[-16,39],[3,13],[-11,63],[-21,47],[-30,18],[-14,18],[-9,36],[0,75],[-3,30],[-23,38],[-26,29],[-51,9],[-48,46],[-5,34],[13,19],[40,18],[65,5],[14,13],[28,53],[22,26],[23,12],[11,31],[31,22],[32,28],[27,6],[37,24],[9,15],[168,0],[0,937],[-1,352],[-1,87],[1,138],[-2,310],[2,50],[11,11],[-6,32],[-6,75],[0,81],[-11,46],[10,57],[2,183],[0,414],[-4,38],[142,-1],[213,2],[199,0],[119,1],[236,-1],[213,-3],[122,3],[144,-1],[53,-104],[82,-151],[13,-27],[32,-98],[44,-56],[8,-27],[47,-84],[22,-29],[15,-46],[6,-97],[10,-72],[-37,-63],[-4,-41],[19,-36],[213,-3]],[[1,3234],[60,-1],[65,1],[36,12],[69,-51],[122,94],[87,126],[31,23],[33,11],[104,26],[5,15],[23,23],[16,87],[8,75],[-1,24],[-10,26],[62,99],[21,17],[114,124],[48,124],[13,17],[34,11],[36,-8],[36,13],[67,3],[82,11],[82,-18],[72,-2],[59,18],[39,4],[27,-10],[18,-30],[-5,-97],[36,-114],[88,-171],[32,-20],[72,3],[34,-7],[12,-22],[4,-31],[-14,-35],[-55,-51],[0,-29],[26,-10],[71,16],[62,-6],[20,-35],[0,-47],[-21,-33],[-5,-24],[4,-19],[15,-6],[271,-80],[213,-61],[31,-34],[-20,-168],[-62,-288],[-41,-169],[-12,-133],[8,-82],[27,-47],[12,-11],[28,-10],[52,5],[74,26],[44,29],[27,111],[-4,57],[26,28],[59,27],[140,-25],[66,29],[17,49],[-13,27],[-43,33],[-54,10],[-67,0],[-17,32],[4,28],[35,67],[61,190],[20,19],[34,8],[46,-19],[4,-25],[-2,-49],[6,-26],[22,-11],[43,25],[35,59],[30,41],[37,30],[55,39],[93,69],[41,47],[47,-36],[-4,-62],[8,-23],[53,6],[35,48],[46,47],[41,20],[50,37],[22,96],[21,20],[90,-1],[41,6],[164,91],[114,28],[49,24],[57,9],[65,2],[134,-3],[30,-15],[31,-63],[61,-141],[41,-26],[77,-31],[37,-10],[41,-29],[9,-26],[-6,-40],[-15,-35],[-1,-33],[15,-20],[20,-12],[46,5],[35,-3],[18,-9],[24,-24],[22,-37],[-18,-19],[-62,7],[-42,-40],[-23,-77],[0,-50],[-12,-28],[0,-46],[20,-42],[30,-17],[20,13],[21,36],[8,34],[19,17],[34,5],[27,-34],[17,-42],[42,-36],[29,-42],[38,-26],[58,-3],[85,-24],[16,47],[16,17],[13,-10],[15,-41],[16,-28],[42,-36],[32,-16],[26,3],[28,18],[32,54],[10,66],[0,26],[10,18],[20,15],[44,-6],[17,10],[36,70],[6,50],[-15,44],[-45,40],[-38,-16],[-36,-26],[-28,8],[-13,21],[13,27],[46,38],[29,18],[33,2],[70,-31],[31,-8],[33,-1],[22,10]],[[5451,2936],[29,-60],[10,-46],[-1,-32],[-17,-65],[-84,-155],[-46,-52],[-36,-26],[-49,-28],[-49,-32],[-44,-45],[-41,-59],[-88,-136],[-14,-33],[-6,-34],[-6,-88],[-11,-50],[-13,-30],[-58,-82]],[[4927,1883],[-821,-4],[-398,3],[-18,0],[-308,0],[-67,2],[-171,1],[-11,-3],[-279,0],[-697,2],[-60,-3],[-834,1],[-20,-5],[-47,3],[-977,2],[-219,7],[1,1345]],[[2835,12625],[-22,-27],[3,-32],[-12,-42],[17,-32],[2,-45],[-23,-15],[-11,-25],[10,-16],[-1,-31],[26,-12],[25,-26],[40,12],[35,-53],[-37,-59],[-3,-19],[-29,-26],[-36,-10],[-22,-14],[-23,-23],[-24,-6],[0,-26],[10,-30],[32,-30],[6,-14],[-10,-17],[25,-25],[42,-19],[32,-3],[17,-14],[33,12],[18,-13],[2,-24],[29,-16],[17,6],[16,-25],[43,-34],[26,0],[21,-29],[15,5],[-1,-35],[13,-1],[6,-22],[64,-2],[33,-14],[32,-2],[19,19],[31,-1],[14,-22],[-15,-26],[4,-21],[14,-4],[-6,-77],[11,-18],[-1,-22],[-11,-13],[-1,-26],[-16,-12],[0,-19],[16,-12],[19,-55],[26,-22],[20,-55],[-4,-21],[7,-23],[-7,-24],[19,-7],[25,-37],[7,-37],[-16,-9],[26,-28],[-16,-8],[9,-20],[25,0],[18,-23],[2,-19],[13,-20],[28,-5],[0,-25],[17,-8],[0,-21],[50,-5],[18,-21],[-8,-21],[26,-23],[-12,-18],[2,-20],[53,-45],[6,-30],[17,-7],[0,-17],[-27,-37],[22,-9],[-4,-15],[15,-78],[19,-33],[34,-26],[20,-25],[31,-2],[1,-25],[-17,-51],[12,-20],[1,-168],[-1,-567],[1,-233],[1,-654],[1,-364],[0,-62],[11,-24],[413,1],[358,-1],[27,-12],[130,-141],[11,-19],[4,-28],[-2,-401],[1,-336]],[[4762,7494],[-1,-112],[2,-42],[1,-318],[-6,-18],[-28,-29],[-65,-17],[-31,-22],[-16,-33],[2,-13],[31,-13],[14,-21],[57,-47],[-7,-32],[8,-30],[-9,-90],[12,-36],[8,-42],[23,-27],[8,-24],[51,-24],[44,-29],[13,-32],[-42,1],[-21,-7],[-8,-25],[21,-5],[49,-30],[-4,-20],[-14,-12],[-4,-18],[33,-38],[17,-34],[8,-27],[23,-33],[48,-55],[-5,-47],[30,-35],[19,-14],[-20,-83],[2,-20],[13,-31],[4,-34],[31,-52],[51,-35],[22,-26],[8,-35],[-14,-36],[-12,-48],[3,-35],[14,-43],[31,-29],[15,-23],[26,-66],[8,-43],[12,-16],[-3,-36],[6,-71],[8,-23],[18,-15],[29,-2],[9,-12],[31,-19],[57,-22],[16,-12],[16,-61],[-9,-34],[3,-34],[11,-28],[29,-43],[7,-79],[21,-39],[36,-50],[1,-62],[14,-62],[19,-25],[22,-43],[-1,-13],[12,-30],[31,-19],[13,-24],[-1,-24],[41,-34],[22,-44],[24,-19],[66,-74],[29,-20],[30,-30]],[[5824,4286],[-10,-44],[-34,-14],[-11,-21],[-36,5],[-23,-20],[19,-23],[33,-15],[25,-20],[-1,-9],[-33,-19],[-10,-19],[6,-15],[20,-9],[78,-62],[34,-46]],[[5881,3955],[13,-24],[-2,-59],[-5,-37],[-14,-40],[-16,-22],[-48,-45],[-21,-29],[-76,-116],[-7,-37],[53,-40],[16,-40],[-3,-54],[16,-58],[-6,-7],[17,-43],[-71,-47],[-49,-41],[-84,-40],[-35,-53],[-42,-103],[-66,-84]],[[1,3234],[1,289],[4,13],[1,99],[-3,170],[-2,42],[1,1161],[1,700],[1,1329],[6,3],[527,3],[890,7],[3,476],[1,284],[1,1084],[2,236],[2,110],[-4,104],[1,463],[-1,436],[0,782],[1,119],[-2,65],[1,364],[1,1052],[222,-2],[54,1],[252,0],[51,3],[189,-1],[633,-1]],[[4762,7494],[139,2],[317,-1],[168,1],[380,-1],[175,1],[9,-14],[-2,-241],[0,-212],[238,-2],[-1,-61],[2,-231],[4,-41],[-5,-31],[6,-34],[49,-67],[26,-6],[170,1],[108,-2],[239,2],[339,0],[51,0],[254,0],[115,-2],[168,1],[252,-3],[131,1],[-2,-204],[9,-18],[26,-11],[128,0],[314,2],[0,148],[-1,113],[1,130],[17,63],[20,45],[35,67],[9,7],[43,5],[14,-5],[44,-43],[48,-32],[31,-26],[90,-4],[16,-7],[37,-35],[37,-12],[99,1],[22,-2],[14,-15],[29,-13],[5,-23]],[[9179,6685],[-31,-12],[-20,-42],[5,-17],[18,-14],[17,-1],[52,-26],[20,2],[73,29],[40,5],[91,-31],[28,-22],[58,-18],[69,-51],[29,-26],[50,-7],[31,0],[63,-25],[18,-2],[33,-19],[23,-18],[10,-18],[-6,-18],[-15,-12],[-22,-36],[-27,-9],[-36,6],[-40,-13],[-26,-28],[-35,-52],[-4,-39],[37,-100],[53,-25],[4,-36],[-20,-83],[-14,-45],[1,-22],[25,-26],[15,-29],[10,-39],[-1,-30],[8,-81],[20,-77],[19,-39],[51,-24],[2,-10],[-12,-40],[-28,-60],[-3,-28],[6,-19],[36,-56],[16,-58],[40,-49],[93,-5],[8,-11],[0,-25]],[[8093,1822],[4,131],[-3,248],[-7,216],[2,14],[1,151]],[[8090,2582],[1,161],[-1,31],[-10,11],[-62,40],[-8,36],[1,83],[-6,36],[5,59],[-4,22],[14,14],[29,2],[15,13],[4,34],[-5,15],[-41,28],[-2,19],[27,36],[-4,20],[-17,30],[-39,-4],[-17,14],[-10,20],[-15,11],[-13,24],[-38,9],[-11,13],[-23,-11],[-6,34],[-8,9],[2,36],[-32,31],[-7,33],[28,40],[6,18],[20,29],[-18,6],[5,48],[10,35],[19,22],[-1,14],[-18,7],[3,34]],[[7863,3744],[-27,22],[0,18],[-27,4],[0,49],[10,17],[1,20],[-19,1],[-10,-15],[-22,18],[2,26],[-21,34],[0,25],[-19,31],[1,55],[-5,18],[22,35],[-18,8],[-2,14],[14,34],[-14,18],[1,16],[15,15],[-11,23],[21,43],[1,42],[6,24],[-9,19],[-26,25],[-2,12],[24,13],[-2,15],[-30,27],[-2,22],[25,30],[34,0],[16,27],[-29,10],[10,32],[31,15],[2,26],[-28,30],[-25,7],[4,36],[-373,1],[-230,-1],[-249,0],[-38,-14],[-47,-9],[-31,0],[-15,-6],[-66,49],[-29,-11],[-44,10],[-18,18],[-4,35],[32,20],[40,43],[-35,48],[-43,43],[-10,22],[-60,21],[-29,-6],[-10,-19],[-30,-6],[11,-40],[-41,-2],[-19,-20],[4,-15],[-33,-9],[-4,-20],[-38,-2],[-26,-35],[-35,-9],[-23,-23],[-8,-17],[-33,-16],[-39,-11],[-69,24],[-160,-10],[-3,-98],[2,-84],[-3,-108],[0,-120],[-15,-1],[-29,-31],[-46,-1],[-35,11]],[[7863,3744],[-224,2],[-133,3],[-131,2],[-190,1],[-24,3],[-79,52],[-38,-55]],[[7044,3752],[-147,98],[-68,48],[38,56],[-95,63],[-30,22],[-56,31],[-68,11],[-31,-2],[-47,-14],[-28,-16],[-61,-48],[-51,-24],[-61,-14],[-251,-5],[-207,-3]],[[2835,12625],[310,-3],[1098,0],[285,0],[17,-4],[218,0],[23,3],[989,-3],[704,-1],[515,-1],[429,-1],[849,-2],[26,1],[835,-4],[863,-4],[647,-1],[773,-2],[0,-892],[0,-848],[0,-89],[0,-935]],[[9242,7018],[57,-59],[12,-25],[2,-43],[-18,-36],[-32,-77],[-58,-87],[-26,-6]],[[7044,3752],[-16,-30],[-4,-25],[-1,-330],[-1,-196],[1,-73],[8,-59],[33,-154],[56,-274],[13,-41],[32,-69],[12,-15],[62,-22],[50,9],[226,82],[58,13],[72,7],[223,3],[37,23],[25,-21],[160,2]],[[7931,1744],[-40,-6],[-72,-72],[-53,-63],[-40,-35],[-117,-44],[-65,-7],[-38,34],[-59,49],[-59,62],[-39,70],[-59,30],[-24,-19],[-20,-36],[-18,-1],[-19,27],[-34,39],[1,46],[-8,64],[-330,0],[-111,-2],[-11,2],[-610,0],[-252,1],[-144,-2],[-67,1],[-599,0],[-117,1]],[[14316,6062],[-1,-223],[2,-24],[-3,-345],[0,-418],[-4,-38],[3,-60],[-1,-211],[2,-148],[-1,-403],[-6,-1402],[-1,-1398],[-164,1]]],"transform":{"scale":[0.00003676670623559857,0.000031046804466618856],"translate":[-96.933503,34.1141]},"objects":{"Geometry\\40-069":{"type":"GeometryCollection","geometries":[{"arcs":[[0,1,2,3]],"type":"Polygon","properties":{"GEOID":"400696601981"}},{"arcs":[[4,5,6]],"type":"Polygon","properties":{"GEOID":"400696601982"}},{"arcs":[[7,8,9]],"type":"Polygon","properties":{"GEOID":"400696603001"}},{"arcs":[[10,11,12,13,-8,14]],"type":"Polygon","properties":{"GEOID":"400696603002"}},{"arcs":[[15,16,-2,17,18,19,-12]],"type":"Polygon","properties":{"GEOID":"400696602021"}},{"arcs":[[-20,20,21,-13]],"type":"Polygon","properties":{"GEOID":"400696602013"}},{"arcs":[[22,-7,23,-16,-11]],"type":"Polygon","properties":{"GEOID":"400696602022"}},{"arcs":[[-9,-14,-22,24,-18,-1,25]],"type":"Polygon","properties":{"GEOID":"400696602011"}},{"arcs":[[-24,-6,26,-3,-17]],"type":"Polygon","properties":{"GEOID":"400696601983"}},{"arcs":[[-21,-19,-25]],"type":"Polygon","properties":{"GEOID":"400696602012"}}]}}}