{"type":"Topology","arcs":[[[4111,13685],[-1,272]],[[4110,13957],[103,0],[76,-6],[97,-3],[198,0],[78,-4],[240,-2],[167,1],[5,-65],[16,-35],[-3,-38],[-30,4],[-4,-29],[22,2],[20,-25],[-13,-26],[0,-35],[8,-32],[38,-57],[-25,-63],[30,-9],[8,-72],[24,-37]],[[5165,13426],[-702,0]],[[4463,13426],[-260,-1]],[[4203,13425],[-96,1]],[[4107,13426],[-1,101],[5,54],[0,104]],[[3422,13947],[0,-173],[2,-207],[-1,-142]],[[3423,13425],[-143,0],[-266,-2],[-274,1]],[[2740,13424],[-1,484],[-2,38],[685,1]],[[3422,13947],[403,1],[187,9],[98,0]],[[4111,13685],[-111,-1],[-28,4],[-100,0],[0,-79],[-102,-1],[-27,13],[-1,-115],[-126,0],[-2,-81]],[[3614,13425],[-115,0]],[[3499,13425],[-76,0]],[[3914,13425],[193,1]],[[4203,13425],[2,-127],[-1,-145],[-77,1],[-46,10],[-50,3],[-119,-1]],[[3912,13166],[2,259]],[[3614,13425],[300,0]],[[3912,13166],[-95,1],[-37,13],[-77,65],[-204,180]],[[11093,10891],[-19,-15],[-14,-73],[26,0],[-2,-204],[2,-29],[-179,0]],[[10907,10570],[-222,0],[-1,234],[-104,2]],[[10580,10806],[5,18],[1,75],[11,30],[104,86],[392,-124]],[[10907,10570],[-1,-264]],[[10906,10306],[-6,-2],[-97,0],[-52,-6],[-107,-18],[-79,2],[-143,30],[-56,5],[-61,0]],[[10305,10317],[77,57],[29,-5],[-8,22],[43,2],[-5,15],[10,47],[13,30],[-7,11],[23,14],[0,66],[27,94],[14,18],[14,41],[14,14],[7,30],[24,33]],[[20,11589],[31,6],[86,45],[3,19],[66,14],[63,51],[10,17],[-20,30],[-29,27],[2,17],[29,11],[88,0],[24,6],[40,-3],[39,4],[31,-21],[10,-50],[13,-30],[-5,-35],[2,-39],[-14,-64],[6,-32],[41,-35],[0,-27],[-18,-33],[13,-19],[1,-50],[-19,-44],[-18,-13],[11,-42],[20,-30],[-18,-48],[-18,-5],[-6,-20],[-28,-59],[-8,-37],[8,-43],[-2,-21],[30,-24],[-8,-27],[-36,-39],[-3,-61],[63,-33],[37,-24],[23,-33],[84,-47],[37,4],[23,-5],[37,12],[93,-5],[26,12],[25,-15],[185,-129],[96,-70],[145,-98],[169,-117],[30,-24],[70,-45],[50,-25],[47,-17],[117,-58],[57,-52],[35,-20],[36,-5],[42,-57],[40,-8],[23,29],[55,-12],[49,27],[23,2],[62,-26],[34,-52],[22,-16],[25,-6],[80,7],[78,-23],[50,10],[33,-11],[12,9],[0,34],[13,7],[53,-4],[29,16],[26,0],[62,-26],[15,-25],[25,-13],[63,-49],[28,-4],[43,5],[49,-58],[54,-27],[28,-24],[26,-53],[29,-8],[44,-24],[25,-1],[38,-12],[55,-43],[20,-26],[2,-43],[12,-30],[0,-27],[40,-8],[56,7],[35,14],[97,55],[63,32],[134,65],[67,8],[31,-2],[51,-16],[34,-18],[32,-28],[38,-54],[32,-59],[78,-129],[13,-15],[33,-68],[0,-41],[-28,-39],[-62,-47],[-17,-19],[-17,-44],[11,-33],[26,-31],[34,-21],[154,-115],[53,-21],[43,-2],[35,6],[32,17],[32,37],[30,11],[51,-13],[34,29],[8,36],[-14,17],[1,58],[26,27],[-4,28],[9,15],[49,2],[32,25],[-15,24],[-45,0],[-16,14],[0,19],[19,9],[28,-11],[22,10],[37,37],[28,-9],[-3,-18],[16,-6],[36,17],[22,-1],[5,-37],[16,-2],[44,38],[38,-28],[-6,-29],[13,-12],[49,-14],[18,-19],[41,-8],[24,23],[20,-9],[18,7],[11,22],[52,-11],[7,19],[20,10],[33,2],[3,17],[-27,13],[-11,31],[-22,16],[-16,37],[-81,0],[3,28],[36,9],[-12,17],[-58,4],[-24,-2],[1,22],[20,42],[-22,35],[-32,18],[22,13],[32,-2],[46,29],[9,23],[-42,21],[5,26],[44,-6],[18,5],[-2,23],[22,38],[24,12],[31,-4],[11,-11],[-38,-50],[13,-5],[55,31],[9,-34],[25,-5],[27,17],[25,-5],[25,-19],[10,-16],[43,-12],[-13,-28],[30,-22],[42,15],[22,-1],[16,-23],[-5,-37],[28,-47],[13,-10],[35,14],[11,-25],[-25,-21],[-32,4],[6,-27],[18,-26],[38,-10],[36,8],[19,-11],[-14,-21],[-37,-4],[-2,-19],[14,-8],[42,-5],[7,-15],[-15,-17],[8,-40],[-13,-19],[15,-20],[31,2],[6,-21]],[[5626,9154],[-12,-32],[1,-21],[-18,-17],[-42,1],[-17,-9],[17,-53],[33,-17],[28,13],[9,-35],[-6,-13],[-42,-6],[-3,-30],[38,2],[7,-12],[-34,-31],[-41,-21],[-32,5],[-6,-15],[10,-18],[-41,-11],[-39,-2],[-7,-19],[-24,-14],[-24,-1],[-36,-26],[-23,-26],[-33,-14],[-13,-15],[12,-26],[22,-9],[37,5],[24,19],[30,-11],[22,12],[12,22],[66,-31],[30,-1],[19,12],[20,-1],[28,-23],[23,22],[66,17],[34,-4],[28,-28],[-8,-31],[16,-8],[53,19],[33,17],[47,-3],[31,-17],[56,-46],[11,-17],[-6,-15],[-32,-4],[-42,-12],[-23,-28],[8,-38],[40,-37],[16,-42],[50,-11],[50,-25],[24,-4],[46,4],[16,-7],[-2,-19],[30,-13],[12,23],[-18,33],[18,9],[40,-11],[43,-31],[16,-30],[27,21],[22,-22],[-36,-38],[22,-15],[35,5],[29,18],[23,-15],[-24,-20],[62,-16],[25,2],[19,16],[-42,17],[4,17],[36,-3],[39,-31],[35,-1],[45,30],[19,44],[0,26],[-13,18],[-29,21],[-4,16],[18,28],[-31,13],[22,27],[-47,27],[-3,20],[18,9],[39,-6],[19,-13],[18,-25],[33,-10],[-9,-21],[34,-24],[20,-30],[35,0],[48,-39],[3,-26],[-14,-28],[-33,-20],[21,-19],[51,12],[22,-7],[-9,-16],[4,-23],[22,-9],[25,20],[14,-3],[-9,-31],[-37,-52],[-57,-4],[-20,-13],[-13,14],[-3,37],[-55,2],[-25,-19],[-39,5],[-14,-8],[-5,-32],[8,-7],[53,3],[9,-22],[-21,-26],[27,-7],[0,-17],[-34,-5],[-7,-20],[36,-7],[34,10],[29,-9],[10,-20],[-2,-45],[14,-11],[93,-35],[52,0],[32,-5],[19,-13],[3,-35],[12,-8],[41,1],[27,18],[13,-21],[-17,-30],[3,-20],[22,-24],[25,-11],[-7,-13],[-42,-17],[3,-38],[-15,-29]],[[7031,7711],[-21,-51],[-1,-23],[-12,-13],[-30,12],[-18,-4],[17,-26],[23,-3],[55,-35],[36,-7],[2,-21],[-49,-38],[15,-21],[28,-11],[-23,-36],[-34,-20],[-44,-34],[-3,-13],[21,-25],[22,-35],[19,-22],[0,-49],[-20,-24],[-50,-14],[-49,-32],[-53,-4],[-27,-16],[-21,-38],[9,-27],[-8,-27],[-24,-41],[7,-27],[17,-23],[35,-15],[15,35],[-11,24],[13,6],[28,-51],[11,-11],[6,-41],[36,-5],[25,-26],[-12,-27],[-28,-1],[-34,15],[-24,-3],[10,-71],[21,-49],[0,-22],[-21,-54],[-12,-13],[-33,-3],[-15,9],[19,46],[-39,13],[-50,-13],[-17,-17],[-2,-30],[-17,-13],[-46,8],[-9,-5],[0,-39],[-25,-39],[-23,-12],[-40,-7],[-56,-15],[-16,-11],[-67,3],[-11,-6],[-14,-37],[-27,-7],[-38,5],[-13,-8],[1,-44],[-46,-39],[-1,-20],[10,-18],[-24,-26],[30,-21],[63,-24],[99,-28],[50,-23],[67,-19],[26,2],[11,-13],[13,-110],[14,-30],[-25,-34],[-25,-18],[-33,15],[4,22],[-17,11],[-26,-6],[-26,-18],[-10,-35],[-16,-28],[22,-14],[41,18],[27,-5],[-8,-16],[-25,-13],[-88,-25],[-60,-13],[-36,-22]],[[6346,5882],[-22,26],[-22,8],[-55,-6],[-17,11],[-28,3],[-60,-4],[-22,32],[15,117],[-1,29],[-10,7],[-66,18],[-88,5],[-52,8],[-13,31],[-27,23],[-36,7],[-21,-9],[-26,-76],[-35,-16],[4,-27],[-9,-22],[-36,-23],[-8,-20],[-26,-16],[-24,-37],[5,-25],[44,-12],[14,-13],[-5,-20],[-59,-35],[-13,2],[-21,22],[-37,17],[2,27],[-27,10],[-50,-8],[0,24],[-17,16],[-55,4],[-34,23],[2,17],[36,17],[10,21],[-34,17],[-25,27],[-6,21],[31,29],[-5,14],[-35,9],[-34,41],[-59,37],[-51,40],[10,31],[-5,18],[-57,43],[-13,17],[16,38],[-29,30],[-11,-46],[-34,3],[-27,43],[-28,-1],[-19,-16],[-45,-12],[-11,-45],[-18,-5],[-13,-21],[-19,-8],[-35,14],[-17,-15],[20,-38],[-46,-38],[-27,10],[-14,-41],[-54,4],[-34,17],[-37,-8],[-19,4],[-20,28],[25,33],[0,37],[-7,13],[-68,25],[-35,3],[-52,19],[-18,12],[-96,18],[-31,16],[-32,28],[-15,-1],[-8,-44],[-19,-5],[-24,19],[-59,58],[-9,46],[32,18],[14,28],[50,5],[57,26],[-7,20],[7,25],[32,-9],[39,29],[47,-30],[18,7],[0,39],[-27,21],[-27,-8],[1,24],[14,41],[-30,12],[-51,-3],[-39,12],[-56,34],[-43,-5],[-29,-13],[-24,0],[-56,17],[-20,30],[-22,16],[-10,61],[-15,19],[-32,-1],[-15,14],[-32,-14],[-24,22],[14,23],[-24,24],[-33,9],[-22,-18],[-15,-1],[-55,25],[-15,30],[19,17],[-4,22],[-18,-2],[-43,-21],[-40,-6],[-47,26],[-29,4],[-12,31],[-32,19],[-103,48],[-46,-21],[-13,18],[-32,-3],[-81,-14],[-42,-3],[-40,4],[-72,-14],[-26,0],[-54,29],[-31,0],[-29,20],[-55,23],[-13,14],[24,18],[-16,25],[2,30],[-8,23],[3,48],[-7,26],[-35,27],[-81,16],[-44,38],[-24,4],[-12,22],[5,19],[-39,13],[-61,-3],[-23,4],[-14,13],[-32,-13],[-21,28],[-39,12],[-25,-7],[-11,-23],[-44,-46],[-48,15],[-91,-13],[-39,-20],[-53,-1],[-22,-17],[-42,-12],[-11,-16],[-52,1],[-34,-7],[-60,17],[-45,0],[-34,14],[-32,23],[-66,58],[-90,84],[-36,12],[-24,19],[-10,34],[-13,20],[-69,15],[-64,30],[-34,23],[-90,22],[-75,4],[-43,-15],[-51,-27],[-27,3],[-46,26],[-85,20],[-67,8],[-37,20],[-41,8],[-39,-3],[-50,-23],[-45,8],[-29,27],[-16,29],[-6,42],[-16,22],[6,29],[33,33],[-1,33],[-14,17],[-40,21],[-24,7],[-63,4],[-139,-21],[-425,-59]],[[62,8064],[2,620],[-2,443],[-4,103],[-2,119],[1,188],[-1,283],[-2,175],[2,77],[-3,230],[-9,308],[-21,736],[-3,243]],[[4,15501],[13,2],[323,0],[358,1],[329,-2],[178,1],[126,-1],[289,1],[364,-1],[334,1],[361,0],[177,-1],[327,0],[58,0],[877,1]],[[4118,15503],[3,-138],[1,-247],[7,-90],[-2,-86],[1,-125],[-20,-97],[-1,-23],[1,-196],[-3,-252],[0,-238],[5,-54]],[[2740,13424],[-62,-1],[-84,55],[-56,26],[-371,204],[-81,39],[-82,32],[-101,26],[-302,40],[-55,8],[-172,16],[-382,40],[-231,23],[-54,9],[-61,16],[-78,28],[-563,196]],[[5,14181],[-1,261],[3,25],[5,254],[-5,221],[-6,153],[2,69],[-3,81],[0,250],[4,6]],[[8964,11358],[103,43],[61,29],[83,42],[46,17],[40,4],[60,-19],[49,-41],[54,-17],[51,-23],[31,-5],[132,-53],[54,-4],[71,-14],[37,-19],[28,3],[28,18],[28,-9],[10,-41],[8,-8],[59,-11],[17,22],[2,40],[17,31],[248,2],[-1,269],[1,250],[231,-1],[215,4],[220,0],[0,142],[1,95],[-1,280],[360,-1],[79,-2],[374,0],[238,2],[225,-1],[146,1],[435,0],[197,0]],[[13001,12383],[1,-181],[-2,-194],[2,-88],[-1,-88],[3,-309],[-2,-505],[2,-75],[-2,-67],[-1,-558],[-1,-248],[0,-104]],[[13000,9966],[-34,34],[-27,44],[-47,226],[-36,101],[-39,71],[-70,94],[-36,35],[-40,27],[-53,24],[-70,17],[-54,1],[-334,-56],[-62,-3],[-70,7],[-813,264],[-122,39]],[[10305,10317],[-7,-11],[-56,-38],[-8,-33],[0,-40],[-35,-1],[-20,-32],[1,-44],[-8,-21],[-24,-26],[-25,-14],[-1,-16],[-23,-17]],[[10099,10024],[-83,31],[-85,45],[-214,142],[-208,137],[-152,102],[-181,124],[-206,151],[-51,42],[-1,238],[-3,121],[1,37],[24,29],[109,37],[12,8],[-38,21],[-59,69]],[[11,12899],[6,4],[95,2],[576,0],[1,-275],[-2,-243],[263,-3],[100,3],[83,-1],[278,1],[12,-10],[-1,-155],[2,-137],[1,-278],[165,-13],[30,2],[37,28],[46,23],[70,18],[75,1],[259,0],[338,-3],[332,-1],[679,3],[232,1],[267,0]],[[3955,11866],[215,-2],[159,2],[436,3],[198,-2],[315,2],[122,-1],[111,1]],[[5511,11869],[1,-258],[-2,-113],[2,-151],[177,0],[504,1],[-1,-109],[2,-97],[-2,-98],[3,-104],[-3,-249],[3,-224],[-4,-142],[1,-214],[13,-37],[-13,-51],[3,-96],[-1,-91],[-49,-45],[-125,1],[-171,0],[-1,-266],[4,-138],[0,-72],[-7,-137],[-21,-19],[-41,-11],[-118,-4],[-39,9]],[[20,11589],[-4,510],[-2,272],[-3,33],[1,165],[-1,45],[1,134],[3,43],[-4,108]],[[5613,19156],[24,0],[51,19],[44,51],[9,25],[6,42],[20,32],[49,68],[28,29],[54,34],[29,7],[53,-18],[16,-39],[36,-38],[70,-33],[14,-12],[71,-36],[49,-5],[29,11],[58,29],[17,3],[29,-11],[27,-34],[6,-38],[14,-12],[46,1],[45,11],[88,47],[12,19],[3,56],[-12,26],[-1,23],[73,1],[47,-12],[67,-32],[37,-32],[27,-13],[20,2],[62,40],[32,27],[40,49],[16,50],[32,56],[39,40],[64,108],[25,53],[25,33],[42,45],[33,22],[21,2],[60,-7],[48,3],[100,-33],[71,-38],[78,-56],[26,-28],[47,-86],[5,-76],[26,-26],[57,-2],[38,3],[100,-14],[69,-17],[45,-21],[67,-40],[59,-1],[167,30],[28,16],[84,41],[52,22],[32,4],[31,-9],[12,-20],[-28,-58],[-24,-16],[-9,-22],[5,-52],[-25,-61],[11,-32],[13,-10],[39,-12],[39,-25],[92,-33],[78,-20],[36,0],[96,16],[81,-10],[100,8],[44,-6],[53,-20],[43,-32],[61,-6],[39,10],[22,11]],[[9367,19127],[2,-4],[-16,-112],[-42,-65],[-46,-37],[-17,-20],[28,-7],[81,-9],[21,-19],[13,-68],[25,-34],[17,-39],[8,-56],[-15,-49],[-70,-4],[-19,-25],[-32,-14],[-50,-10],[-41,-3],[4,-25],[-29,-7],[-29,-16],[-9,-23],[32,-5],[25,18],[30,4],[13,-26],[14,-4],[49,8],[35,-14],[-3,-12],[-37,-9],[-14,-17],[30,-4],[4,-26],[-28,-18],[-101,-39],[-52,-3],[-12,-49],[-10,-14],[-31,8],[-25,28],[-59,1],[-27,7],[-36,-15],[11,-29],[-6,-28],[5,-46],[-30,-20],[-20,19],[-21,-12],[-9,-34],[-44,-7],[-39,26],[-28,10],[-45,-14],[-24,9],[-25,-15],[18,-21],[-25,-44],[-13,-5],[-41,5],[-74,-13],[-34,-13],[-52,-36],[-10,-12],[1,-29],[-21,-27],[15,-14],[40,18],[18,-7],[-7,-24],[4,-38],[26,-19],[4,-20],[15,-21],[9,-52],[30,-16],[12,-20],[31,-10],[-52,-41],[29,-35],[-11,-12],[-40,-16],[31,-31],[-9,-30]],[[8567,17576],[-13,-16],[48,-24],[44,-1],[10,-20],[-16,-36],[11,-24],[-19,-23],[-58,12],[-25,-14],[-3,-15],[37,-22],[0,-36],[-62,-2],[31,-45],[-4,-31],[27,-26],[-14,-24],[-42,0],[-4,-15],[30,-46],[-10,-21],[9,-12],[3,-43],[-28,-28],[-40,-31],[-43,-16],[-1,-17],[-54,-14],[-7,-21],[-44,0],[-5,-68],[-17,-37],[-36,0],[-7,-26],[13,-12],[38,-6],[5,-38],[-14,-32],[44,-6],[-18,-28],[0,-21],[-31,-21],[-23,27],[-21,8],[-16,-19],[39,-109],[0,-33],[-10,-27],[-37,-142],[-6,-42],[-11,-27],[-6,-162],[1,-125]],[[8212,16019],[-221,1],[-468,0],[3,-259],[-1,-266],[-77,-1],[-34,5],[-68,3],[-390,0],[-134,1],[-497,0],[-167,-1]],[[6158,15502],[-269,0],[-190,0],[-227,0]],[[5472,15502],[-2,260],[1,236],[1,157],[0,108],[1,514],[1,53],[-2,509],[1,66],[-2,188],[1,216],[2,137],[-3,202],[0,344],[-1,126],[-299,1],[-175,0],[24,29],[-30,-2],[-30,21],[-1,19],[23,8],[89,-5],[56,23],[30,2],[36,-22],[27,39],[54,-14],[10,24],[-13,65],[-19,38],[14,21],[33,4],[54,-14],[13,2],[11,43],[-4,35],[-13,43],[1,33],[35,16],[40,-21],[42,0],[42,12],[45,23],[20,25],[18,66],[10,24]],[[66,3035],[197,-1],[327,1],[164,-2],[0,-516],[120,-2],[177,1],[337,-1],[29,-18],[19,24],[-2,239],[1,379],[-2,182],[2,234],[94,-3],[10,60],[-69,60],[-24,2],[-6,24],[-30,9],[-86,76],[-14,40],[-10,8],[137,106],[0,135],[-388,1],[-980,-1]],[[69,4072],[0,437],[0,69],[1,543],[-2,509],[1,93],[-2,436],[3,194],[-7,52],[6,30],[0,236],[-3,509],[-5,529],[1,355]],[[6346,5882],[-54,-32],[-23,-29],[-17,-39],[-39,-29],[8,-18],[65,-17],[16,-9],[-3,-26],[-40,-16],[-24,-15],[-4,-18],[20,-17],[69,-16],[70,-4],[49,-14],[86,-9],[74,-28],[41,12],[37,24],[23,-22],[-41,-65],[-2,-17],[40,-32],[25,-33],[38,-24],[41,-5],[15,-16],[7,-32],[17,-17],[99,-49],[60,-45],[5,-36],[-12,-41],[10,-28],[-39,-6],[-35,-15],[-61,10],[0,-85],[4,-27],[4,-217],[55,-48],[-1,-19],[-56,-30],[-2,-103],[3,-96],[-2,-116],[-11,-26],[1,-28],[19,-29],[2,-22],[-10,-52],[-4,-92],[4,-33],[0,-176],[-4,-190],[-19,-53],[-23,11],[-36,6],[-33,-7],[-25,-17],[-48,-54],[-29,-20],[-47,-15],[-30,-3],[-388,3],[0,-362],[18,-18],[48,-9],[14,-31],[-14,-19],[-16,-50],[10,-37],[-8,-14],[-53,-62],[3,-81],[-2,-81],[1,-77],[-1,-160],[0,-217],[2,-223],[-2,-113],[11,-6],[496,1],[-11,-24],[30,-43],[40,-33],[43,2],[20,10],[21,-7],[18,10],[41,-34],[-16,-31],[10,-31],[-38,-41],[5,-4],[-67,-55],[-29,-11],[-24,-19],[-9,-22]],[[6732,1679],[-161,-47],[-225,-68],[-128,-29],[-96,-14],[-113,-11],[-38,0],[-82,7],[-11,-7],[-306,-14],[-139,7],[-155,25],[-58,14],[-85,25],[-58,29],[-39,28],[-50,54],[-47,57],[-139,183],[-93,168],[-62,125],[-35,86],[-50,75],[-109,100],[-77,56],[-50,34],[-89,43],[-101,25],[-97,14],[-159,36],[-156,28],[-26,14],[-140,11],[-97,1],[-91,5],[-73,-1],[-85,-18],[-121,-51],[-85,-40],[-70,-42],[-48,-33],[-80,-67],[-35,-36],[-38,-47],[-47,-71],[-15,-32],[-92,-109],[-40,-63],[-23,-86],[24,-63],[21,-15],[135,-45],[151,-41],[70,-37],[43,-49],[47,-22],[144,-95],[86,-85],[129,-178],[36,-25],[27,-43],[59,-111],[26,-97],[-1,-44],[-9,-35],[3,-54],[-4,-29],[5,-30],[-32,-79],[-54,-97],[-51,-82],[-16,-35],[-175,-157],[32,-20],[-3,-56],[-39,-22],[-58,-21],[-50,-15],[-136,-71],[-89,-54],[-124,-46],[-58,-18],[-62,-25],[-89,-43],[-205,-58],[-116,-28],[-85,-18],[-66,0],[-131,14],[-55,15],[-120,46],[-85,57],[-135,133],[-70,82],[-15,14],[-66,90],[-31,71],[-16,47],[-45,86],[-48,114],[-11,18],[-12,40],[-35,68],[-4,46],[-38,147],[0,28],[-20,83],[-31,64],[-27,38],[-202,238],[-98,22],[-65,1],[-36,14],[-106,-16],[-70,0],[-72,4],[-18,6],[-155,-15],[-39,14],[-61,-15],[-40,0],[-20,-7],[21,58],[-13,400],[0,734],[2,110],[-1,186]],[[7031,7711],[119,5],[69,29],[83,50],[23,19],[95,95],[22,44],[28,28],[60,31],[12,12],[12,36],[2,117],[27,38],[33,16],[222,-2],[55,1],[356,-3],[182,1],[377,-1],[181,0],[183,2],[121,3],[66,-2],[170,-1],[623,3],[202,-1],[345,1],[397,-2]],[[11096,8230],[-1,-518],[-1,-522],[-2,-1035],[-2,-1297],[-2,-1299],[0,-518],[-2,-519],[1,-125],[-3,-472],[-58,-50],[-20,-25],[-27,-22],[-35,-17],[-62,-58],[-54,-68],[-23,-43],[-15,-75],[3,-28],[-7,-25],[-44,-76],[-26,-125],[-75,-57],[-88,-133],[-65,-60],[-58,-93],[-24,-54],[-38,-61],[-24,-43],[-34,-50],[-70,-93],[-77,-75],[-93,-64],[-85,-33],[-28,-17],[-61,-11],[-97,-4],[-120,-7],[-58,0],[-66,14],[-66,36],[-70,43],[-85,65],[-89,60],[-50,38],[-48,43],[-91,65],[-23,12],[-86,78],[-139,173],[-85,136],[-46,97],[-113,160],[-15,39],[-12,61],[12,132],[38,104],[8,36],[0,50],[-12,50],[-23,47],[-35,57],[-77,39],[-50,7],[-151,65],[-93,-7],[-85,-18],[-124,7],[-202,-7],[-54,-22],[-100,-61],[-55,-35],[-43,-21],[-22,-19],[-84,-32],[-108,-47],[-137,-85],[-120,-58],[-117,-39],[-92,-25],[-79,-17]],[[8567,17576],[237,-2],[345,1],[422,-2],[152,2],[600,-1],[582,2],[64,0],[-4,-42],[-15,-33],[1,-191],[-2,-162],[2,-116],[1,-379],[-4,-27],[3,-102],[0,-348],[-3,-214],[-3,-114],[-2,-179],[3,-32],[-5,-138],[1047,3],[68,-1],[155,2],[284,0],[248,2],[254,0]],[[12997,15505],[2,-98],[-1,-169],[2,-220],[0,-313],[1,-55],[0,-166],[-2,-24],[1,-259],[-1,-290],[-1,-90],[3,-99],[-2,-69],[1,-102],[-3,-184],[3,-466],[-1,-188],[2,-330]],[[8964,11358],[-25,30]],[[8939,11388],[32,22],[31,47],[10,40],[14,23],[44,60],[30,21],[52,5],[103,-1],[2,134],[-3,94],[2,26],[147,0],[132,1],[18,6],[11,35],[-8,58],[3,14],[33,80],[6,109],[-2,131],[-6,55],[-10,52],[1,154],[-6,94],[5,129],[-1,87],[3,104],[-1,220],[-6,19],[-61,68],[-2,51],[-118,59],[-159,84],[-32,13],[-54,14],[-44,4],[-48,-2],[-103,-22],[-63,0],[-34,5],[-45,18],[-26,18],[-270,226],[-62,34],[-49,20],[-269,98],[-89,31],[-90,13],[-154,2],[7,42],[74,41],[93,66],[57,78],[9,18],[33,31],[44,64],[41,94],[50,58],[-1,148],[74,-1],[87,5],[99,20],[52,0],[40,7],[53,16],[32,17],[45,32],[94,78],[27,38],[45,31],[84,-4],[21,3],[70,27],[99,2],[26,4],[46,26],[-48,37],[-53,35],[-3,35],[-12,22],[-35,34],[-18,32],[-5,31],[1,69],[-15,22],[-62,55],[-17,30],[-22,58],[-20,38],[-1,176],[2,175],[2,73],[2,140],[-3,75],[-337,0],[-113,-1],[-235,1]],[[3423,13425],[-1,-98],[1,-299],[2,-57],[24,-3],[38,10],[43,1],[29,-12],[65,-2],[23,-19],[44,-19],[10,-11],[31,15],[38,-3],[-2,-22],[23,0],[40,-18],[30,9],[70,7],[65,-3],[19,17],[75,34]],[[4090,12952],[-11,-38],[-71,-148],[-20,-53],[-21,-98],[-4,-48],[-4,-286],[0,-153],[-4,-262]],[[11,12899],[-2,427],[-2,102],[2,415],[1,66],[-4,4],[-1,268]],[[10906,10306],[3,2],[451,-2],[229,1],[31,-16],[10,-16],[2,-604],[-1,-135],[8,-5],[81,3],[83,-2],[2,-99],[-2,-162],[-1,-4]],[[11802,9267],[-207,1],[-129,2],[-256,-1],[-113,1]],[[11097,9270],[-148,-1],[1,303],[0,174],[-351,124],[-152,52],[-167,50],[-181,52]],[[66,3035],[-2,227],[3,126],[-3,14],[3,195],[-1,101],[2,169],[1,205]],[[4090,12952],[57,12],[20,11],[63,13],[47,22],[95,32],[53,15],[77,27],[62,4],[63,-17],[-27,74],[-13,20],[-9,34],[-18,18],[-46,110],[-2,32],[-49,67]],[[5165,13426],[135,-1],[589,0],[272,-1]],[[6161,13424],[0,-248],[-2,-144],[0,-122],[5,-165],[-4,-111],[0,-247],[-45,-1]],[[6115,12386],[-64,39],[-79,56],[-90,55],[-1,-30],[-20,-76],[-27,-39],[-52,33],[-64,29],[-40,-4],[-20,5],[-42,-9],[-59,-17],[-25,-3],[-30,-17],[8,-42],[-2,-81],[3,-185],[0,-231]],[[9367,19127],[20,34],[9,57],[-7,38],[8,32],[23,46],[51,48],[29,47],[-6,39],[-74,50],[-30,15],[-111,30],[-26,29],[-2,31],[22,60],[1,18],[24,82],[-9,45],[-75,30],[-55,9],[-76,-10],[-61,3],[-68,22],[-43,18],[-68,37],[-51,34],[0,28],[9,12],[64,52],[13,37],[-27,23],[-28,14],[-74,19],[-16,24],[-7,52],[-36,27],[-44,4],[-40,-10],[-32,-30],[-4,-40],[10,-37],[-8,-17],[-22,-18],[-23,-2],[-34,34],[-79,54],[-33,33],[-8,18],[6,62],[23,61],[22,74],[17,36],[39,57],[23,27],[20,12],[37,44],[14,44],[-9,13],[-112,10],[-120,23],[-66,7],[-42,8],[-57,25],[-91,51],[-44,50],[-4,37],[27,42],[33,16],[108,1],[34,10],[56,27],[27,32],[16,31],[4,26],[23,60],[36,46],[26,12],[36,-6],[86,-56],[29,-1],[63,18],[19,18],[13,57],[-13,55],[-32,40],[-9,32],[40,30],[45,-11],[88,-8],[50,-8],[78,-22],[49,-9],[45,2],[22,16],[8,34],[-10,15],[-34,22],[-50,45],[-8,19],[6,19],[47,13],[32,-1],[36,-18],[51,-65],[10,-5],[50,-71],[3,-18],[28,-52],[10,-59],[33,-39],[75,-54],[84,-12],[61,-11],[38,-19],[51,-40],[57,-31],[98,-70],[37,-33],[63,-35],[46,-35],[43,-25],[51,-59],[20,-37],[-3,-38],[-24,-42],[-6,-21],[18,-24],[57,-39],[57,-14],[39,-5],[103,-24],[80,-13],[78,-1],[72,16],[72,-2],[59,-13],[46,-23],[54,-10],[136,-2],[57,8],[128,41],[65,15],[58,17],[46,22],[54,35],[75,77],[46,67],[54,118],[7,39],[-9,55],[-15,34],[-33,39],[-39,22],[-103,25],[-16,19],[-5,21],[9,46],[21,33],[48,36],[38,22],[51,15],[33,21],[88,75],[49,56],[28,25],[91,98],[11,22],[0,38],[-10,12],[23,49],[-7,22],[35,27],[60,14],[28,-2],[62,-35],[21,-26],[21,-60],[43,-37],[79,-25],[65,-27],[24,1],[44,21],[21,27],[8,30],[33,22],[64,13],[59,8],[31,0],[67,-9],[48,-17],[28,-23],[22,-48],[15,-12],[41,-9],[41,9],[37,26],[50,8],[66,-18],[35,-16],[40,11],[82,85],[13,24],[11,63],[25,71],[38,78],[1,-208],[-4,-7],[2,-189],[-2,-69],[1,-108],[-1,-57],[3,-246],[0,-272],[3,-18],[-3,-821],[1,-190],[-1,-23],[2,-176],[-4,-276],[0,-117],[2,-147],[-1,-942],[-3,-16],[0,-135],[-2,-28],[4,-90],[-1,-403],[2,-53],[-2,-122],[1,-149],[-1,-454],[-3,-51],[0,-176],[-1,-76],[4,-165],[1,-225],[-3,-174],[0,-172]],[[4118,15503],[124,0],[471,-1],[271,1],[488,-1]],[[6158,15502],[-1,-292],[1,-86],[-2,-106],[3,-137],[-1,-211],[2,-57],[-1,-330],[2,-39],[-2,-158],[1,-215],[-2,-52],[41,-33],[53,-97],[-6,-37],[-13,-29],[-72,-3],[0,-196]],[[4,15501],[-2,8],[1,155],[-2,322],[2,208],[-2,33],[1,296],[11,529],[0,508],[2,519],[4,8],[-2,255],[1,71],[-1,116],[2,185],[-2,186],[0,114],[-1,433],[-1,25],[3,158],[-8,5],[0,155],[7,53],[35,-3],[38,-66],[17,-49],[-17,-18],[-10,-30],[6,-19],[17,-14],[22,8],[130,40],[22,33],[9,46],[13,38],[22,7],[35,-25],[18,-34],[18,-18],[37,9],[39,20],[79,3],[25,-5],[29,-16],[38,-29],[62,-16],[108,-6],[58,-8],[83,-5],[55,-24],[48,1],[46,25],[52,-10],[72,-6],[49,0],[58,8],[63,23],[36,31],[4,19],[-23,52],[-25,28],[-12,35],[8,27],[1,56],[34,15],[46,-6],[54,13],[35,16],[24,-7],[8,-37],[19,-25],[58,10],[13,46],[27,19],[3,34],[-29,22],[-56,4],[-37,13],[-27,36],[-36,17],[-5,26],[20,9],[31,0],[70,12],[33,18],[33,38],[51,40],[23,10],[61,5],[50,20],[126,30],[62,-4],[83,-19],[45,-30],[12,-28],[57,-63],[44,-26],[19,-37],[1,-45],[-14,-30],[-50,-47],[-23,-14],[-35,-33],[-21,-35],[14,-40],[21,-13],[32,-1],[110,43],[42,26],[60,21],[61,37],[37,10],[61,-2],[59,-31],[34,-1],[15,10],[15,39],[13,17],[45,5],[24,-3],[51,-18],[16,-17],[15,-32],[15,-50],[7,-43],[2,-60],[18,-33],[59,-11],[82,2],[78,-24],[86,4],[50,-11],[44,-31],[16,-27],[-1,-22],[-30,-40],[5,-21],[26,-27],[20,-7],[34,-1],[89,25],[39,16],[47,28],[60,13],[44,-10],[46,-20],[20,-29],[15,-53],[12,-16],[49,-5],[28,21],[4,37],[28,15],[33,-11],[34,-44],[3,-27],[-32,-30],[3,-17],[22,-9],[88,9],[70,-26],[32,-4],[52,-17],[112,-15],[40,-17],[15,-29],[42,-35],[67,-49],[38,-12],[30,-3],[49,11],[127,11],[32,-8],[21,-18],[10,-30],[-20,-64],[19,-14],[58,-1],[82,18],[18,10],[55,11],[42,3],[44,-7],[86,37],[74,39],[87,58],[56,49],[22,41],[29,6],[26,-20],[3,-64],[28,-56],[42,-74],[27,-20],[39,-14]],[[8939,11388],[-48,19],[-60,8],[-56,-4],[-182,-31],[-59,-8],[-105,4],[-49,10],[-132,41],[-83,15],[-54,-1],[-357,-54],[-41,-2],[-137,22],[-44,5],[-249,205],[-152,128],[-108,88],[-23,16],[-128,77],[-274,168],[-483,292]],[[11097,9270],[-1,-1040]],[[13000,9966],[-1,-699],[-157,-1],[-128,2],[-912,-1]]],"transform":{"scale":[0.00002583598615917002,0.000027948902104300003],"translate":[-96.777147,34.856782]},"objects":{"Geometry\\40-133":{"type":"GeometryCollection","geometries":[{"arcs":[[0,1,2,3,4,5]],"type":"Polygon","properties":{"GEOID":"401335833003"}},{"arcs":[[6,7,8]],"type":"Polygon","properties":{"GEOID":"401335834003"}},{"arcs":[[9,-1,10,11,12,-7]],"type":"Polygon","properties":{"GEOID":"401335834005"}},{"arcs":[[13,-5,14,15]],"type":"Polygon","properties":{"GEOID":"401335835002"}},{"arcs":[[16,-16,17,-12]],"type":"Polygon","properties":{"GEOID":"401335835003"}},{"arcs":[[18,19,20]],"type":"Polygon","properties":{"GEOID":"401335836004"}},{"arcs":[[-20,21,22,23]],"type":"Polygon","properties":{"GEOID":"401335836005"}},{"arcs":[[24,25,26,27,28]],"type":"Polygon","properties":{"GEOID":"401335837002"}},{"arcs":[[29,30,-10,-9,31,32]],"type":"Polygon","properties":{"GEOID":"401335834001"}},{"arcs":[[33,34,35,-21,-24,36,37]],"type":"Polygon","properties":{"GEOID":"401335836001"}},{"arcs":[[38,39,40,-25,41]],"type":"Polygon","properties":{"GEOID":"401335837001"}},{"arcs":[[42,43,44,45,46,47]],"type":"Polygon","properties":{"GEOID":"401335832001"}},{"arcs":[[48,49,-28,50,51]],"type":"Polygon","properties":{"GEOID":"401335838001"}},{"arcs":[[-27,52,53,-51]],"type":"Polygon","properties":{"GEOID":"401335839002"}},{"arcs":[[-45,54,55,-34,56,57]],"type":"Polygon","properties":{"GEOID":"401335831002"}},{"arcs":[[-32,-8,58,59,-39,60]],"type":"Polygon","properties":{"GEOID":"401335834002"}},{"arcs":[[-6,-14,-17,-11]],"type":"Polygon","properties":{"GEOID":"401335834004"}},{"arcs":[[-23,61,62,63,-37]],"type":"Polygon","properties":{"GEOID":"401335836003"}},{"arcs":[[-49,64]],"type":"Polygon","properties":{"GEOID":"401335838002"}},{"arcs":[[65,-3,66,67,68,-40,-60]],"type":"Polygon","properties":{"GEOID":"401335833002"}},{"arcs":[[-55,-44,69]],"type":"Polygon","properties":{"GEOID":"401335831001"}},{"arcs":[[70,-47,71,-67,-2,-31]],"type":"Polygon","properties":{"GEOID":"401335833001"}},{"arcs":[[-48,-71,-30,72]],"type":"Polygon","properties":{"GEOID":"401335832002"}},{"arcs":[[-68,-72,-46,-58,73]],"type":"Polygon","properties":{"GEOID":"401335832003"}},{"arcs":[[-41,-69,-74,-57,-38,-64,74,-53,-26]],"type":"Polygon","properties":{"GEOID":"401335839001"}},{"arcs":[[-13,-18,-15,-4,-66,-59]],"type":"Polygon","properties":{"GEOID":"401335835001"}},{"arcs":[[-19,-36,75,-62,-22]],"type":"Polygon","properties":{"GEOID":"401335836002"}}]}}}