{"type":"Topology","arcs":[[[4487,3706],[48,-2],[26,-28]],[[4561,3676],[15,-28],[11,-56],[19,-21],[13,-35]],[[4619,3536],[-133,4]],[[4486,3540],[3,137],[-2,29]],[[6531,5101],[-28,-43],[-21,-7],[-27,13],[-33,61],[-44,-18],[-16,-32],[8,-19],[48,-10],[-12,-45],[-76,-46],[-11,-22],[30,-41]],[[6349,4892],[3,-24],[-15,-26],[-51,-3],[-31,43],[-33,-20],[-30,47],[-58,-4],[-52,21],[-15,17],[-69,-4],[-13,6]],[[5985,4945],[-100,17],[-82,47],[-26,31],[-35,21],[-72,-7],[-30,10],[-82,58],[-100,103],[-29,48],[-8,67],[-27,47],[-25,25]],[[5369,5412],[93,35],[67,-37],[29,-26],[33,34],[42,23],[38,-11],[32,8],[35,22],[29,-7],[52,9],[60,-21],[21,-13],[124,138],[123,115],[24,57],[32,20],[49,55],[20,-2],[16,-39],[-28,-50],[18,-27],[49,14],[70,47],[34,-30],[40,-93],[-3,-35],[75,-46],[-29,-24],[-38,-16],[-88,-88],[-5,-34],[21,-26],[17,-48],[40,-11],[-43,-55],[-11,-45],[19,-22],[50,-23],[55,-59]],[[4485,1300],[32,3],[371,-4]],[[4888,1299],[30,-14],[46,-1],[32,-10],[40,-30],[101,-148],[3,-65],[19,-81],[48,-66],[47,-39],[47,-58],[36,-35],[11,-24],[45,-61],[32,-59],[77,-67],[52,-75],[57,-28],[39,-67],[10,-86],[17,-30],[52,-6],[49,-27],[31,22],[19,-17],[92,27],[26,14],[86,15],[39,-23],[14,-29],[39,6],[10,19],[71,-51],[33,-73],[1,-42],[-12,-77]],[[6227,13],[-245,2],[-49,-4],[-349,-2],[-210,1],[-29,-2],[-303,3],[-341,-1]],[[4701,10],[-51,99],[3,20],[45,39],[17,48],[5,48],[17,90],[-20,68],[-29,60],[-2,47],[-35,150],[-21,30],[-7,30],[-55,62],[-9,81],[22,121],[22,89],[-3,57],[-26,25],[-49,94],[-40,32]],[[1654,5174],[73,-16],[28,-48],[29,-6],[48,-45],[63,-89],[49,-47],[23,-84],[40,-61],[19,-46],[42,-46],[25,-38],[80,-45],[-25,-68],[24,-16],[-43,-125],[9,-9]],[[2138,4385],[-36,-141],[-34,-158],[-27,-55],[-49,-53],[-72,-175],[-2,-336],[-8,0],[-3,-416]],[[1907,3051],[-163,-113],[-134,-227],[-10,-11],[-570,16],[-180,6],[-585,3],[-259,0]],[[6,2725],[1,197],[-2,192],[2,57],[1,257],[-3,352],[0,151],[-3,377],[5,100],[-3,160],[0,284],[16,36],[52,-68],[59,-17],[22,-39],[55,-35],[28,-29],[24,5],[-14,33],[23,31],[44,20],[48,3],[34,45],[22,13],[31,-28],[-19,-31],[-29,-24],[-8,-44],[20,-24],[33,13],[54,-18],[37,-23],[66,-13],[46,50],[68,2],[11,43],[-57,74],[8,26],[83,-17],[46,28],[21,36],[-32,35],[-4,31],[67,41],[34,74],[15,7],[25,-52],[-3,-48],[18,-33],[27,7],[12,80],[39,29],[4,30],[-18,34],[29,6],[32,-12],[29,33],[51,8],[37,-10],[32,-24],[59,-79],[34,5],[40,66],[34,-4],[62,35],[84,-4],[69,38],[50,-19]],[[2892,1700],[70,4],[14,19],[78,54],[263,211],[210,123],[142,-38],[367,13]],[[4036,2086],[2,-16],[-18,-57],[57,-207],[133,-6],[113,-21],[54,-3]],[[4377,1776],[2,-93],[33,-97],[35,-79],[-16,-51],[17,-54],[28,-33],[9,-69]],[[4701,10],[-181,1],[-183,-1],[-313,1],[-276,-2],[-72,-2],[-603,3]],[[3073,10],[-53,347],[128,117],[22,115],[29,110],[4,332],[-129,-4],[-61,115]],[[3013,1142],[-49,130],[5,55],[-30,143],[0,181],[-6,25],[-41,24]],[[6210,4350],[17,13],[19,52],[13,9],[60,-77],[28,5],[20,45],[-15,69],[11,18],[76,53],[50,-34],[39,12],[5,29],[-44,36],[-7,46],[28,71],[-16,34],[-19,-6],[-26,-45],[-29,-1],[-19,33],[1,22],[38,92],[-2,23],[-30,32],[-59,11]],[[6531,5101],[69,40],[38,32],[-20,62],[-4,52],[22,17],[52,-23],[26,-31],[40,-16],[74,-65],[37,33],[43,70],[25,17]],[[6933,5289],[-24,-63],[-61,-83],[-1,-68],[-24,-112],[-7,-52],[-15,-41],[11,-48],[21,-41],[-27,-48],[14,-89],[74,-188],[12,-49],[96,-56],[144,-4]],[[7146,4347],[5,-30],[-19,-31],[7,-39]],[[7139,4247],[-21,-33],[-28,-7],[-53,-45],[-58,-78],[-89,-97],[-4,10],[-140,-155]],[[6746,3842],[-48,-53]],[[6698,3789],[-21,35],[-40,26],[-25,0],[-19,42],[-66,47],[-46,6],[-42,-17],[-38,13],[-2,67],[-37,40],[-17,31],[-5,36],[-39,53],[69,64],[-53,78],[-75,-68],[-45,59],[13,49]],[[4888,1299],[311,-3],[172,-1],[289,-6],[421,-6]],[[6081,1283],[-9,-54],[4,-26],[58,-61],[-3,-35],[52,-24],[45,-72],[25,-62],[61,-35],[38,-15],[67,-94],[57,-58],[8,-15],[7,-82],[9,-27],[-39,-41],[2,-85],[-15,-37],[9,-30],[47,-36],[35,-44],[31,-51],[23,-52],[2,-62],[-48,-65],[-17,-65],[-25,-42]],[[6505,13],[-278,0]],[[4457,3498],[31,-64],[76,-8]],[[4564,3426],[11,-10],[111,56],[26,-73],[52,5],[72,-37],[39,-26]],[[4875,3341],[-16,-42],[-1,-35],[32,-159],[22,-39],[119,-44],[30,-20],[58,-71],[31,-19],[31,-3],[26,-29]],[[5207,2880],[-1,-40],[-28,-54],[-22,-3],[-43,-61],[-59,78],[-151,-159],[-67,-32],[-34,10],[-60,1],[-72,-69],[-58,9],[-31,-13],[-23,-25],[10,-43],[-12,-76],[-21,-74],[16,-100],[1,-147],[-58,-66],[16,-28],[14,-89],[-34,-66],[-23,-26],[-47,0],[-43,-31]],[[4036,2086],[-23,154],[15,281],[33,225],[18,48],[1,75],[-50,161],[-91,54],[17,46],[0,76],[11,58],[-28,43]],[[3939,3307],[25,-2],[55,46],[13,48],[-8,31],[-37,39],[3,27],[20,14],[79,6],[26,-7],[54,-37],[63,12],[51,34],[36,6],[43,26],[40,-3],[27,-37],[28,-12]],[[5207,2880],[-1,39],[13,21],[7,46],[60,-1],[48,-48],[56,-79],[20,-17],[36,5],[159,162]],[[5605,3008],[40,20],[13,-44],[22,-15],[90,6],[37,24],[57,26],[55,-5],[34,18],[35,-33]],[[5988,3005],[24,-7],[27,-35],[14,-34],[18,-11],[0,-52],[-8,-54],[10,-65],[31,-54],[55,-35],[45,-11],[23,-29],[9,-41],[-8,-101],[10,-26],[24,-11],[26,13],[92,-34],[47,16],[16,33],[40,6],[26,-42],[79,25],[57,36],[71,-3],[64,31],[235,19],[223,-2],[35,4]],[[7273,2541],[-28,-71],[-2,-56],[-16,-55],[-1,-29],[61,-45],[-5,-74],[41,-40],[35,-19],[22,-25],[22,-92],[26,-84],[23,-48],[63,-294],[-22,-265]],[[7492,1344],[-1,-25]],[[7491,1319],[-252,95],[-288,103],[-33,-35],[-48,-22],[-63,88],[-17,-7],[-53,12],[-111,17],[-112,58],[-93,4],[-119,-18],[-126,-79],[-47,-2],[-74,-194],[26,-56]],[[4652,4324],[60,-13],[52,49]],[[4764,4360],[11,-31],[54,-92],[19,-74],[-6,-99],[8,-72],[20,-61],[44,-74],[86,-91],[105,-177],[-56,7],[-222,-59]],[[4827,3537],[-50,-6],[-32,14],[-58,-3]],[[4687,3542],[-19,47],[0,94]],[[4668,3683],[-22,76],[-4,68],[28,152],[-5,53],[17,95],[-4,61],[-31,13],[5,63],[-8,26],[8,34]],[[4564,3426],[26,11],[36,40]],[[4626,3477],[19,11],[44,-7],[21,10],[-23,51]],[[4827,3537],[30,-12],[36,-48],[15,-54],[-11,-45],[-22,-37]],[[3539,4052],[60,5],[0,44]],[[3599,4101],[32,7],[67,52],[31,-15],[4,-65],[42,-41],[30,-11],[59,-2],[36,-41],[35,-12],[36,-33],[118,281],[117,198],[446,-95]],[[4668,3683],[-107,-7]],[[4487,3706],[-78,-6],[-8,-73],[26,-52]],[[4427,3575],[14,-53],[16,-24]],[[3939,3307],[-70,76],[-9,18],[-36,25],[11,39],[-132,100],[-22,44],[-36,256],[-71,104],[1,45],[-36,38]],[[4626,3477],[-7,59]],[[4486,3540],[-34,4],[-25,31]],[[7478,1217],[13,102]],[[7492,1344],[44,28],[33,32],[48,76],[26,16],[58,-30],[46,-46],[55,2],[35,-25],[42,2],[14,20],[75,81],[34,45],[7,39],[-11,86],[98,2],[55,22],[27,24],[1,31],[-30,45],[-21,70],[25,3]],[[8153,1867],[7,-23],[46,-87],[43,-62],[47,-107],[22,-123],[-13,-48],[-28,-36],[-33,-26],[-52,-20],[-60,-10],[-97,-4],[-43,-29],[-26,-72],[4,-127],[15,-70],[-23,-135]],[[7962,888],[-178,-39],[-19,5],[-29,91],[-6,36],[-16,26],[-28,-3],[-22,-44],[32,-68],[-25,-31],[-24,12],[2,66],[-28,16],[-56,-58],[-47,-9],[-55,9]],[[7463,897],[44,3],[13,14],[-34,71],[-25,72],[17,83],[-6,16],[6,61]],[[7463,897],[-1,-62],[28,-26],[49,-71],[47,-59],[25,-61],[-28,-18],[-35,-4],[-24,-70],[-44,-35],[-7,-61],[-67,16],[-54,-50],[-31,-2],[-33,32],[3,44],[-7,33],[-31,1],[-79,-31],[-17,107],[-40,26],[-8,28],[6,88],[-35,14],[3,42],[46,44],[65,102],[-6,82],[15,16],[65,3],[-2,79],[21,60],[2,27],[45,49],[23,-3],[29,62],[84,-71],[8,-11]],[[6933,5289],[45,26],[51,-11],[44,8],[-1,-35],[-79,-53],[-45,-61],[-18,-65],[-3,-56],[5,-179],[14,-70],[24,-43],[31,-35],[88,-81],[36,-22],[33,-8],[42,7],[85,45]],[[7285,4656],[24,-59],[-48,-77],[-106,-87],[-15,-65],[6,-21]],[[2138,4385],[198,-86],[297,-124],[44,119],[49,-23],[30,66],[40,30],[287,-118],[456,-197]],[[2892,1700],[-77,98],[-87,119],[38,283],[6,256],[-420,538],[-97,95],[-54,-43],[-14,8],[-231,-44],[-49,24],[0,17]],[[3013,1142],[-274,4],[-144,0],[-168,2],[-459,2],[-290,7],[-38,27],[0,78],[-33,3],[2,49],[-32,21],[-6,45],[-1058,39],[-158,1],[-113,9],[-240,0]],[[2,1429],[-1,292],[3,301],[0,286],[3,189],[-1,228]],[[3073,10],[-214,2],[-855,3],[-37,-1],[-478,-4],[-655,2],[-507,-1],[-325,4],[0,315],[-2,142],[2,121],[1,300],[-2,47],[2,260],[-1,229]],[[7273,2541],[7,36],[-12,42],[11,41],[1,55],[20,57],[38,73]],[[7338,2845],[20,20],[62,37],[32,-51],[67,-20],[35,-37],[44,-9],[101,22]],[[7699,2807],[10,30],[66,-2],[5,-22],[26,-16],[15,21],[38,-45],[72,18],[16,49],[16,7],[33,-25],[9,18],[33,5],[18,17]],[[8056,2862],[41,-82],[2,-75],[-78,-82],[-78,-57],[-26,-30],[-7,-54],[28,-46],[43,-24],[38,-4],[59,-21],[24,-22],[27,-86],[10,-52],[2,-208],[5,-107],[7,-45]],[[3912,5781],[50,-10],[39,3],[38,-58],[109,-37],[30,2],[60,44],[46,-33],[73,-5],[32,32],[44,2],[23,-22],[13,-38],[48,28],[17,-13],[55,12],[16,67],[73,31],[31,-22],[21,-30],[31,14],[69,-39],[58,-19],[40,-75],[34,-16],[-3,-46],[43,-7],[15,-36],[61,1],[43,-21],[23,3],[72,-20],[33,-45],[21,-3],[40,-36],[40,11]],[[5350,5400],[-51,-140],[-237,-617],[-184,-175]],[[4878,4468],[-114,-108]],[[3599,4101],[0,148],[9,186],[17,296],[44,194],[32,132],[141,431],[70,293]],[[5350,5400],[19,12]],[[5985,4945],[-2,-22],[-24,-9],[39,-37],[-80,-3],[-54,-17],[5,-42],[-12,-32],[9,-18],[-34,-66],[20,-72],[21,-29],[-5,-105],[-13,-72],[18,-25],[2,-34],[46,-143],[14,-18],[11,-49],[31,-12],[28,-56],[82,-12]],[[6087,4072],[12,-30],[-37,-33],[-27,6],[-33,59],[-32,29],[-19,4],[-17,-32],[39,-40],[13,-35],[-27,-37],[-22,-6],[-43,8],[-26,-102],[3,-29],[38,-21],[-9,-19],[-48,5],[-107,39],[-57,50],[-46,47],[-66,-1],[-8,-81],[-7,-14],[-75,-41],[-5,-21],[23,-22],[21,-42],[-12,-23]],[[5513,3690],[-24,-8],[-27,31],[-23,56],[7,63],[-24,16],[50,56],[-53,90],[3,31],[-259,293],[-285,150]],[[1654,5174],[21,4],[10,27],[-1,86],[33,37],[38,60],[43,18],[56,51],[34,18],[18,29],[66,21],[32,29],[44,12],[69,-13],[43,16],[89,-1],[35,58],[47,18],[47,-13],[34,26],[127,39],[44,36],[19,-15],[67,8],[33,11],[48,-47],[31,9],[36,-9],[19,30],[28,21],[4,24],[-14,41],[12,63],[-23,18],[6,92],[54,9],[20,29],[46,20],[38,-6],[57,-34],[32,41],[64,-28],[24,-64],[0,-47],[11,-21],[50,16],[29,-14],[78,11],[18,-112],[-41,-23],[-15,-21],[14,-40],[23,-24],[19,15],[37,-5],[36,-23],[40,4],[15,26],[51,19],[30,-21],[50,42],[16,52],[102,-15],[30,43],[26,6],[46,-17],[39,-2],[24,-13]],[[6210,4350],[-36,-17],[2,-47],[-13,-31],[-75,-78],[-85,-24],[-1,-45],[27,-9],[51,2],[7,-29]],[[6698,3789],[-20,-23],[-2,-50],[-23,-51],[-12,-55],[-45,-101],[-11,-60],[-13,-25],[-13,-64],[-26,-53],[-28,13],[-14,28],[-69,28],[-21,36],[-50,17],[-52,-8],[-35,-27],[-68,-30],[-10,-24],[-78,-96],[0,-30],[-19,-47],[-55,-82],[-4,-16],[-41,-42],[-1,-22]],[[5605,3008],[14,67],[-2,48],[-14,24],[9,41],[32,50],[55,56],[-2,20],[-30,57],[4,39],[-41,-19],[-46,84],[-40,192],[-31,23]],[[7962,888],[15,-57],[48,-98],[50,-44],[53,-29],[75,-14],[36,-12],[35,-26],[63,-68],[47,-81],[7,-28],[-4,-57],[-37,-118],[-29,-49],[-50,-110],[-58,-95],[-332,-2],[-595,6],[-213,4],[-568,3]],[[5139,3759],[16,-32],[55,-74],[42,17],[-23,121],[-27,-1],[-63,-31]],[[6746,3842],[140,-105],[31,-16],[42,0],[40,-28],[34,-36],[54,-42],[75,-11],[52,-29],[35,-4],[37,29],[43,-23]],[[7329,3577],[-30,3],[-6,-42],[-32,6],[-15,-19],[-5,-59],[-52,-63],[-6,-39],[-24,-17],[15,-21],[-24,-60],[-18,-18],[-11,-34],[48,-3],[74,-25],[32,-22],[84,-91]],[[7359,3073],[-14,-94],[15,-90],[-22,-44]],[[7359,3073],[56,414]],[[7415,3487],[17,-14]],[[7432,3473],[31,-103],[37,-35],[82,122],[42,71],[9,1]],[[7633,3529],[34,6],[36,-25],[32,-6]],[[7735,3504],[3,-53],[-16,-112],[8,-25],[-35,-2],[-29,-57],[-14,-51],[-35,-20],[-57,-44],[29,-62],[-1,-48],[20,-25],[55,-24],[17,-59],[19,-115]],[[7735,3504],[25,0],[68,32],[28,-1],[57,32],[70,83],[61,20]],[[8044,3670],[10,-34],[37,-81],[25,-81],[41,-96],[45,-73],[24,-92],[-21,-74],[-38,-31],[-70,-34],[-40,-28],[-28,-41],[-12,-38],[5,-38],[34,-67]],[[7329,3577],[25,13]],[[7354,3590],[-1,-6],[62,-97]],[[7139,4247],[74,-4],[73,8],[76,15],[44,-6],[114,-30],[44,-15],[75,45],[122,-26],[90,-4],[27,-17],[41,46],[32,-33],[30,22]],[[7981,4248],[36,-54],[69,-85],[31,-66],[0,-76],[-55,-107],[-31,-95],[13,-95]],[[7633,3529],[34,32],[9,63],[-31,31],[-33,-34],[-35,-2],[-11,37],[-53,-3],[-61,-19],[-40,49],[-15,-8],[7,-41],[-42,-6]],[[7362,3628],[-28,-1],[20,-37]],[[7285,4656],[59,33],[80,30],[53,7],[70,-6],[58,-16],[50,-22],[49,-35],[81,-84],[68,-88],[42,-83],[86,-144]],[[7362,3628],[49,3],[26,-38],[26,18],[19,-31],[-18,-28],[13,-42],[-45,-37]]],"transform":{"scale":[0.00007344952925753787,0.0000496801391419572],"translate":[-80.519494,39.720671]},"objects":{"Geometry\\42-059":{"type":"GeometryCollection","geometries":[{"arcs":[[0,1,2,3]],"type":"Polygon","properties":{"GEOID":"420599706002"}},{"arcs":[[4,5,6,7]],"type":"Polygon","properties":{"GEOID":"420599703001"}},{"arcs":[[8,9,10,11]],"type":"Polygon","properties":{"GEOID":"420599707002"}},{"arcs":[[12,13,14,15]],"type":"Polygon","properties":{"GEOID":"420599704002"}},{"arcs":[[16,17,18,-12,19,20,21]],"type":"Polygon","properties":{"GEOID":"420599707003"}},{"arcs":[[22,-5,23,24,25,26,27,28]],"type":"Polygon","properties":{"GEOID":"420599702002"}},{"arcs":[[29,30,31,-10]],"type":"Polygon","properties":{"GEOID":"420599707001"}},{"arcs":[[32,33,34,35,-18,36,37]],"type":"Polygon","properties":{"GEOID":"420599705022"}},{"arcs":[[-36,38,39,40,41,42,43,-30,-9,-19]],"type":"Polygon","properties":{"GEOID":"420599705024"}},{"arcs":[[44,45,46,47,48]],"type":"Polygon","properties":{"GEOID":"420599705011"}},{"arcs":[[49,50,-47,51,-34]],"type":"Polygon","properties":{"GEOID":"420599705021"}},{"arcs":[[52,53,-49,54,-1,55,56,-38,57]],"type":"Polygon","properties":{"GEOID":"420599705023"}},{"arcs":[[-55,-48,-51,58,-2]],"type":"Polygon","properties":{"GEOID":"420599706001"}},{"arcs":[[-4,59,-56]],"type":"Polygon","properties":{"GEOID":"420599706003"}},{"arcs":[[-60,-3,-59,-50,-33,-57]],"type":"Polygon","properties":{"GEOID":"420599706004"}},{"arcs":[[60,-43,61,62,63,64]],"type":"Polygon","properties":{"GEOID":"420599708002"}},{"arcs":[[-65,65]],"type":"Polygon","properties":{"GEOID":"420599708004"}},{"arcs":[[66,67,-25]],"type":"Polygon","properties":{"GEOID":"420599702001"}},{"arcs":[[-14,68,-58,-37,-17,69]],"type":"Polygon","properties":{"GEOID":"420599704001"}},{"arcs":[[-15,-70,-22,70,71]],"type":"Polygon","properties":{"GEOID":"420599704003"}},{"arcs":[[-71,-21,72]],"type":"Polygon","properties":{"GEOID":"420599704004"}},{"arcs":[[73,74,75,76,-62,-42]],"type":"Polygon","properties":{"GEOID":"420599708001"}},{"arcs":[[77,78,79,-45,-54,80]],"type":"Polygon","properties":{"GEOID":"420599703004"}},{"arcs":[[81,-7,82,83,84,-79]],"type":"Polygon","properties":{"GEOID":"420599703003"}},{"arcs":[[85,-81,-53,-69,-13]],"type":"Polygon","properties":{"GEOID":"420599703005"}},{"arcs":[[-6,-23,86,-83]],"type":"Polygon","properties":{"GEOID":"420599703002"}},{"arcs":[[-87,-29,87,-40,88,-84]],"type":"Polygon","properties":{"GEOID":"420599702003"}},{"arcs":[[-61,-66,-64,89,-31,-44]],"type":"Polygon","properties":{"GEOID":"420599708003"}},{"arcs":[[-85,-89,-39,-35,-52,-46,-80],[90]],"type":"Polygon","properties":{"GEOID":"420599705013"}},{"arcs":[[-28,91,92,93,-74,-41,-88]],"type":"Polygon","properties":{"GEOID":"420599701024"}},{"arcs":[[-94,94,95,96,97,98,-75]],"type":"Polygon","properties":{"GEOID":"420599701021"}},{"arcs":[[99,100,-76,-99]],"type":"Polygon","properties":{"GEOID":"420599701026"}},{"arcs":[[101,102,-95,-93]],"type":"Polygon","properties":{"GEOID":"420599701022"}},{"arcs":[[-27,103,104,-100,-98,105,106,-102,-92]],"type":"Polygon","properties":{"GEOID":"420599701012"}},{"arcs":[[-68,107,-104,-26]],"type":"Polygon","properties":{"GEOID":"420599701011"}},{"arcs":[[-91]],"type":"Polygon","properties":{"GEOID":"420599705012"}},{"arcs":[[108,-96,-103,-107]],"type":"Polygon","properties":{"GEOID":"420599701025"}},{"arcs":[[-97,-109,-106]],"type":"Polygon","properties":{"GEOID":"420599701023"}}]}}}