{"type":"Topology","arcs":[[[5118,6168],[13,-27],[11,4],[8,-18],[-1,-14],[-16,-18],[5,-27],[14,-17],[-14,-22],[13,-34],[21,-11],[-4,-27],[18,-27],[-4,-22],[-17,-19],[-11,-29],[13,-23],[1,-15],[-6,-27],[18,-1],[21,-16],[4,-36],[-2,-19],[-19,-28],[9,-20],[11,-41],[7,-11],[-20,-22],[-8,-21],[15,-12],[8,-16],[10,-3],[35,-51],[8,-23],[-2,-35],[13,-19],[15,-9],[0,-32],[9,-19],[-10,-38],[0,-34],[-11,-32],[1,-79],[18,-6],[6,-19],[1,-34],[25,-54],[-4,-22],[8,-21],[15,-25],[-2,-20],[13,-23],[-5,-29],[-10,-19],[3,-22],[22,-33],[3,-38],[11,-15],[26,-11],[-2,-34],[28,-20],[16,-16],[3,-26],[-20,-17],[17,-24],[3,-20],[17,-31],[-23,-8],[0,-18],[9,-44],[23,-30],[9,-30],[-10,-12],[1,-21],[-7,-26],[10,-39]],[[5478,4371],[-29,-2],[-56,-1],[-106,-4],[-29,2],[-87,-2]],[[5171,4364],[-61,0],[-14,-55]],[[5096,4309],[-72,0],[15,-37],[-16,-3],[-8,24],[-56,59],[-22,2],[-18,-3],[-9,-11],[-2,-53],[-4,0],[2,-51]],[[4906,4236],[-42,2],[-5,220],[-139,-5]],[[4720,4453],[0,261],[1,875],[-6,338],[-1,83]],[[4714,6010],[-3,161]],[[4711,6171],[1,1],[218,-4],[77,0],[-5,89],[109,5],[2,-94],[5,0]],[[7623,2237],[83,37],[51,32],[58,14],[9,9]],[[7824,2329],[71,-62]],[[7895,2267],[-16,-15],[-7,-21],[-4,-35],[-14,-60]],[[7854,2136],[-12,-24],[-11,-9],[2,-15],[17,0],[7,-10],[-11,-12],[-7,-23],[-23,7],[-16,-10],[-9,-26],[-28,-6],[-35,-18],[-9,-30],[3,-93],[8,1],[25,-21],[13,-3],[13,-32],[-59,-3],[0,-83]],[[7722,1726],[-51,20]],[[7671,1746],[0,85],[-26,0],[-2,41],[-45,-3],[0,6],[46,3],[-3,85],[-26,103],[-4,137],[3,27],[9,7]],[[2443,2224],[330,12],[625,24],[359,14]],[[3757,2274],[615,22],[393,14]],[[4765,2310],[2,-158],[2,-73],[6,-205],[2,-148],[2,-81],[1,-102],[-31,-1]],[[4749,1542],[-33,1],[-166,-8],[-68,-1],[-381,-2],[-335,-4],[-53,-1],[-233,-10],[-74,-1],[-51,1],[-119,-7],[-304,-5],[-109,-1],[-197,-3],[-39,0],[-148,-2]],[[2439,1499],[4,725]],[[7769,2381],[55,-52]],[[7623,2237],[2,90],[-4,1]],[[7621,2328],[2,55],[62,78],[84,-80]],[[471,4409],[107,2],[16,1],[19,11],[20,1],[22,-11],[45,-1]],[[700,4412],[1,-52],[-17,-13],[1,-26]],[[685,4321],[-3,-23],[18,-4],[-6,-28],[-5,0],[0,-39],[-29,2],[1,-28]],[[661,4201],[-66,-1],[-2,59],[-6,29],[-3,29],[-117,-1]],[[467,4316],[4,93]],[[661,4201],[1,-81]],[[662,4120],[-26,2],[-35,16],[-88,83]],[[513,4221],[-27,22],[-14,4]],[[472,4247],[0,54],[-5,15]],[[405,4087],[44,1],[-3,155],[-3,11]],[[443,4254],[29,-7]],[[513,4221],[4,-29],[-8,-13],[0,-179]],[[509,4000],[-37,-1],[0,46],[-66,-2]],[[406,4043],[-1,44]],[[662,4120],[2,-117],[-75,-2]],[[589,4001],[-80,-1]],[[4654,9132],[36,-16],[161,-83],[10,-3],[169,4],[25,-4],[69,-38],[149,-76],[32,-20],[21,-22],[55,-70],[92,-113],[28,-23],[30,-16],[7,38],[35,161],[4,34],[-1,40],[-10,67],[10,-6],[24,-2],[16,-17],[21,-10],[26,-41],[20,2],[10,-19],[-16,-16],[11,-15],[7,-38],[15,5],[9,-9],[-3,-17],[-13,-15],[-8,-34],[1,-14],[11,-16],[18,-43],[-8,-7],[8,-21],[21,-23],[13,1],[8,-18],[16,-11],[19,-29],[23,-1],[-2,-17],[23,-6],[6,27],[8,-9],[-1,-14],[23,-8],[4,12],[17,2],[13,-12],[13,5],[-3,35],[19,4],[4,42],[28,-2],[14,41],[30,28],[27,31],[7,-6],[1,-30],[6,-33],[14,-46],[8,21],[25,-13],[14,-44],[16,-16],[5,-12],[-2,-30],[5,-9],[28,-11]],[[6175,8508],[3,-198],[3,-98],[3,-8],[6,-276]],[[6190,7928],[-147,-5],[-48,-2],[-577,-22],[-539,-21],[-190,-6],[-6,-2]],[[4683,7870],[-4,199],[-9,482],[-16,581]],[[5118,6168],[4,0],[381,2],[636,4]],[[6139,6174],[-7,-909],[-5,-584],[-1,-82],[-1,-215]],[[6125,4384],[-40,1],[-36,-2],[-524,-12],[-47,0]],[[2060,8777],[31,3]],[[2091,8780],[102,3],[24,-4],[34,19],[52,31]],[[2303,8829],[43,26],[-9,21],[68,32],[8,-21],[78,36]],[[2491,8923],[-12,-25],[-56,-173]],[[2423,8725],[0,11],[-16,31],[-21,-13],[-17,-15],[-35,-12],[-7,-91],[-13,-41]],[[2314,8595],[-5,-16],[-43,-26],[-14,-1],[-3,39],[-8,1],[0,22],[-16,12],[7,24],[-7,15],[8,24],[-47,2],[0,11],[34,-1],[0,10],[26,0],[-24,31],[-13,6]],[[2209,8748],[-61,0],[-56,2],[-31,-3],[-1,30]],[[594,3516],[23,3],[0,45],[72,0],[191,-4],[-1,76],[-24,0],[-3,14],[8,13],[-35,29],[54,0],[2,-45],[41,-33],[2,80],[12,0],[1,52],[-20,0],[1,20],[-40,-2],[0,-38],[-58,44],[-18,16],[-40,26],[-16,15]],[[746,3827],[62,43],[30,34],[29,44],[18,21],[42,33],[99,88],[61,51]],[[1087,4141],[-2,-12],[-23,-20],[-6,-32],[-17,-28],[-4,-14],[-33,-46],[2,-37],[-4,-50],[-4,-16],[4,-25],[18,-14]],[[1018,3847],[20,-38],[24,-25],[11,-31],[-1,-20],[13,-15],[3,-22],[-6,-12],[4,-17],[-5,-14],[11,-32],[14,-17],[5,-19],[-1,-32],[5,-43],[-7,-19],[11,-28],[-7,-17],[-3,-62],[10,-14],[-3,-33],[-14,-18],[-5,-15],[-32,16],[-39,-9],[-9,-24],[-40,-25],[-18,-25],[-8,-2],[-39,-57],[-28,-17],[-15,-1]],[[869,3160],[-170,-11],[-201,-19],[-76,-9],[-33,-1]],[[389,3120],[31,10],[25,2],[51,18],[44,8],[0,279],[35,-3],[25,-10],[-6,92]],[[10,3705],[29,-7],[18,-16],[21,-30],[16,-9],[39,12],[35,-27],[13,-17],[7,-19],[-2,-34],[-11,-33],[2,-10],[30,-39],[36,-19],[9,-17],[-1,-28]],[[251,3412],[-6,-47],[6,-20],[-15,-66],[20,-1],[-29,-44],[1,-21],[14,-13],[43,2],[10,-8],[38,2],[11,-5],[11,-22],[15,-42],[9,-8]],[[379,3119],[-79,-5],[-151,1],[-142,-5]],[[7,3110],[-1,157],[0,85],[-1,312],[5,41]],[[4618,10938],[145,-1],[153,-6],[148,-9],[88,-2],[207,-8],[324,-7],[122,-4],[120,-2],[48,-3],[19,1],[105,-3],[83,-2]],[[6180,10892],[-4,-475],[-4,-428],[-4,-485]],[[6168,9504],[-58,-1],[-479,-3],[-234,0],[-178,-3],[-568,-2]],[[4651,9495],[-20,901],[-8,392],[-5,150]],[[2530,11002],[23,-1],[184,-13],[166,-7],[161,-10],[231,-4],[169,-6],[49,-2]],[[3513,10959],[0,-8],[13,-404],[6,-185],[26,-752],[10,-349]],[[3568,9261],[-645,27],[2,152],[-397,25]],[[2528,9465],[-3,97],[-8,143],[-2,183]],[[2515,9888],[4,305],[-1,10],[4,171],[2,249],[1,11],[5,368]],[[2716,8846],[19,1],[-2,46],[11,1],[5,52],[-3,8],[-2,58]],[[2744,9012],[176,55],[10,-23],[20,-72],[11,-35],[24,-56],[50,2],[29,-3],[15,-12],[71,-65],[-31,-94],[-38,-94],[-35,-96]],[[3046,8519],[-39,21],[-9,2],[-145,3]],[[2853,8545],[17,56],[-3,66],[-112,1],[0,36],[-111,-2],[0,67],[24,0],[0,-13],[86,2],[-1,36],[-36,0],[-1,52]],[[1657,11029],[-3,-272],[-143,-3],[-33,31],[-2,18],[-110,-42],[-4,191],[-66,86]],[[1296,11038],[55,-3],[2,136],[62,-3],[76,1],[94,-3],[11,-60],[-33,-31],[12,-4],[27,14],[0,-54],[55,-2]],[[2267,8973],[1,-23],[-9,-16],[3,-15],[26,-54],[15,-36]],[[2091,8780],[0,80],[7,13],[101,44],[-9,4],[-8,38],[17,7],[-10,54],[12,-10],[35,-5],[6,-38],[25,6]],[[266,4262],[58,-7],[38,13]],[[362,4268],[-3,-13],[-11,-8],[-9,-21],[2,-139]],[[341,4087],[-117,27]],[[224,4114],[-4,22],[3,26],[25,2],[4,53],[15,37],[-1,8]],[[341,4087],[64,0]],[[406,4043],[1,-45]],[[407,3998],[-145,-3],[-31,-3]],[[231,3992],[13,57],[-12,30],[-8,35]],[[8,3955],[14,13],[12,21],[12,0]],[[46,3989],[149,4],[4,-83],[9,0],[5,47],[10,34],[8,1]],[[407,3998],[3,-133],[0,-32]],[[410,3833],[-190,-3],[30,-122]],[[250,3708],[12,-46],[7,-48],[7,0],[16,-85],[14,-21],[45,-17],[19,-10]],[[370,3481],[-1,-24],[-73,-46],[-45,1]],[[10,3705],[-2,250]],[[2544,8977],[63,28],[20,16],[13,22],[6,18]],[[2646,9061],[25,1],[22,-9],[7,15],[12,-7],[-6,-13],[11,-7],[9,-34],[18,5]],[[2716,8846],[-68,-3],[-2,66],[-32,-4],[-49,-3]],[[2565,8902],[-15,67],[-6,8]],[[2853,8545],[-18,1],[0,54],[-42,0],[1,-11],[-38,1],[-2,72],[-38,-11],[-40,2],[-25,15],[-13,-15],[-25,28],[-20,-3]],[[2593,8678],[-11,122],[-3,29],[-14,73]],[[1092,5951],[25,39],[22,5],[24,-14],[44,-45],[21,-24],[16,-12],[45,-42],[41,-44],[35,-41],[33,-45],[65,-5],[54,-11],[59,5],[-1,25],[-17,27],[7,17],[16,-1],[-6,62],[136,-5],[20,9],[33,57],[12,11],[44,20],[92,36],[56,17],[43,9],[26,-3],[57,-25],[58,-20],[45,-14],[14,-7],[63,-15],[77,13],[45,-12]],[[2396,5918],[2,-72],[8,-519]],[[2406,5327],[-243,-7],[-421,-8],[-629,-12]],[[1113,5300],[4,127],[-5,64],[-15,88],[-20,68],[-7,78],[-8,46],[-9,74],[21,68],[18,38]],[[250,3708],[55,3],[106,2]],[[411,3713],[1,-97],[-22,0],[0,-29]],[[390,3587],[1,-40],[-21,0],[0,-66]],[[411,3713],[-1,113]],[[410,3826],[64,-1],[-1,9]],[[473,3834],[43,0],[2,-68],[2,-166]],[[520,3600],[-12,-11]],[[508,3589],[-50,-2],[-68,0]],[[589,3924],[141,-111]],[[730,3813],[-145,-145],[-65,-68]],[[473,3834],[-1,131],[118,-96],[-1,55]],[[730,3813],[16,14]],[[594,3516],[-1,74],[25,1],[0,29],[-74,-2],[0,-28],[-36,-1]],[[389,3120],[-10,-1]],[[662,4120],[72,15],[37,6],[138,4],[26,7],[29,15]],[[964,4167],[28,13],[26,5],[87,5]],[[1105,4190],[-10,-21],[-8,-28]],[[589,3924],[0,77]],[[1105,4190],[6,1]],[[1111,4191],[70,3],[40,12],[47,29],[53,58],[34,36],[47,14]],[[1402,4343],[9,-30],[3,-120],[-12,-27],[1,-39],[-76,-2],[-4,-55],[-12,-68],[-15,-74],[2,-100],[1,-106]],[[1299,3722],[-49,1],[-68,-4],[-53,-21],[-10,6],[-37,86],[-9,33],[-1,21],[-54,3]],[[1402,4343],[61,15],[106,23]],[[1569,4381],[7,-60],[1,-73],[5,-11],[139,-165],[17,-23],[38,-59],[13,-25],[27,-68],[19,-69],[21,-68],[29,-77]],[[1885,3683],[-28,0],[-81,6],[-3,-31],[-6,-5],[-27,0],[-319,-11],[-119,5],[-3,75]],[[1569,4381],[77,13],[116,6],[135,14],[99,9],[65,17],[45,2],[85,-2],[104,-1],[89,-8],[33,0]],[[2417,4431],[1,-56]],[[2418,4375],[3,-904],[-115,-3],[5,-215]],[[2311,3253],[-39,-1]],[[2272,3252],[-31,52],[-93,159],[-17,20],[-51,34],[-112,69],[-17,12],[-43,42],[-23,43]],[[902,5261],[198,4]],[[1100,5265],[-9,-11],[2,-28],[-17,-37],[-19,-24],[3,-30],[12,-6],[28,2],[-2,-24],[34,-24],[-18,-16],[-11,-25],[1,-13],[23,-25],[-3,-14],[14,-21]],[[1138,4969],[-1,-12],[14,-32],[-2,-36],[-6,-33],[5,-10]],[[1148,4846],[-2,-26],[-135,-173],[-51,-69],[-22,-46],[-19,-18]],[[919,4514],[-2,125],[-51,0],[-3,123]],[[863,4762],[-4,191]],[[859,4953],[81,1],[0,49],[-14,3],[-1,49],[-11,15],[-36,0],[-1,18],[-21,1]],[[856,5089],[-13,5],[-9,22],[35,22],[-20,22],[6,28],[42,49],[5,24]],[[389,4870],[24,0],[22,16],[2,52],[134,5]],[[571,4943],[3,-184],[188,2]],[[762,4761],[101,1]],[[919,4514],[-39,-32]],[[880,4482],[-12,0]],[[868,4482],[-71,-2]],[[797,4480],[-1,83],[-72,-3],[1,8],[-146,-2],[-3,115],[-43,-2],[1,-48],[-43,0]],[[491,4631],[-3,109],[-76,11],[0,67],[-12,32],[-11,-1]],[[389,4849],[0,21]],[[1148,4846],[6,-10],[4,-25],[11,-23],[10,-65],[22,-24],[-1,-27],[-7,-21],[0,-44],[12,-47]],[[1205,4560],[-12,-8],[-26,-5],[-64,-2],[-32,-19],[-18,-20],[-31,-19],[-29,-3],[-82,-3],[-31,1]],[[1205,4560],[15,-49],[4,-185],[-73,-1],[-10,-22],[-16,-78],[-14,-34]],[[964,4167],[-4,158],[-89,-1]],[[871,4324],[-3,158]],[[685,4321],[186,3]],[[4,5241],[237,5],[164,-2],[10,6],[299,6]],[[714,5256],[-23,-13],[-35,-49],[-28,-18],[-51,-19],[-27,-5],[-33,-16],[-32,-3],[-23,-20],[-8,-35],[-12,-23],[-20,-20],[-1,-29],[-28,-31],[-11,-17]],[[382,4958],[-33,-78],[24,-10],[16,0]],[[389,4849],[-34,-1],[-16,3],[7,25]],[[346,4876],[-52,37],[-11,-17],[-4,-20],[2,-21],[-37,-69],[-18,-25],[-30,-58],[-7,-45],[9,-31]],[[198,4627],[-13,4],[-26,20],[-35,-58],[-8,-18],[-112,8]],[[4,4583],[1,155],[7,22],[-4,406],[1,34],[-5,41]],[[382,4958],[52,57],[42,41],[26,14],[20,7],[147,41],[1,-29],[-21,-5],[-4,-8],[8,-35]],[[653,5041],[-88,-24],[7,-29],[-1,-45]],[[714,5256],[25,25],[17,33],[28,22],[37,0],[23,-9],[40,-22],[11,-17],[7,-27]],[[856,5089],[-31,1],[-19,-7],[-153,-42]],[[653,5041],[19,-84]],[[672,4957],[2,-138],[88,1],[0,-59]],[[859,4953],[-1,62],[-25,17],[-29,-10],[4,-28],[-121,-34],[-15,-3]],[[2491,8923],[16,24],[16,17],[21,13]],[[2593,8678],[-25,-8],[28,-17],[16,-5],[22,-21],[0,-11],[-12,-19],[-29,23],[-4,-5],[-53,46],[-8,-10],[-8,-51],[-31,3],[6,19],[-12,3],[-1,27],[-23,11],[-36,62]],[[5171,4364],[1,-83],[100,0],[2,-17],[17,13],[21,-23],[2,-44],[129,5],[1,-75],[1,-131],[-211,0]],[[5234,4009],[-155,0]],[[5079,4009],[-2,95],[-1,132],[20,73]],[[1344,2820],[-2,3],[110,46],[150,65],[25,-36],[20,-18],[75,-57],[71,-36],[21,-17],[29,-32],[26,-33],[40,-63],[49,-71],[90,-156],[130,4],[179,4],[85,0]],[[2442,2423],[1,-199]],[[2439,1499],[-196,-4],[-595,-11],[-137,-1]],[[1511,1483],[3,31],[34,20],[1,21],[-23,13],[-10,13],[8,36],[-7,20],[-14,13],[-37,-1],[-20,7],[-16,29],[9,43],[-14,25],[-17,19],[-11,30],[-4,37],[11,37],[15,76],[1,22],[-12,10],[-42,23],[-15,11],[-42,40],[-15,26],[-7,48],[4,107],[-6,27],[1,18],[-17,47],[-1,35],[3,6],[30,3],[31,24],[22,59],[10,18],[6,46],[-2,36],[-12,26],[-21,19],[-22,5],[-32,0],[-23,6],[-35,14]],[[1223,2628],[158,90],[1,54],[38,2],[-6,36],[-31,1],[-3,-10],[-24,-9],[-12,28]],[[3476,5759],[61,2],[-12,179],[292,-6],[0,26],[58,8],[131,13],[151,6]],[[4157,5987],[58,2],[151,8],[62,1],[105,6],[125,6],[56,0]],[[4720,4453],[-204,-10],[-325,-15],[-352,-17],[-24,-1]],[[3815,4410],[38,64],[0,6],[35,121],[10,35],[-10,106],[20,124],[1,26],[-12,63],[-8,30],[-9,58],[0,37],[-4,60],[-25,73],[-8,34],[-3,78],[-34,64],[-39,47],[-19,31],[-14,28],[-52,144],[-15,22],[-34,17],[-108,22],[-14,9],[-35,50]],[[5079,4009],[-49,0],[-12,-40],[-39,-80]],[[4979,3889],[-39,-1],[-1,137],[26,0],[-2,24],[-63,-2],[-1,68],[24,-1],[0,47],[37,2],[0,73],[-54,0]],[[1019,2863],[221,124],[68,-150],[12,-26],[24,9]],[[1223,2628],[-165,-93],[-62,133]],[[996,2668],[-67,144],[90,51]],[[869,3160],[-5,-18],[4,-24],[10,-13],[21,-17],[6,-21],[-2,-20],[-14,-26],[-2,-21],[12,-18],[41,-32],[18,-39],[28,-30],[33,-18]],[[996,2668],[-13,-2],[-236,-17],[-57,-5],[-4,-192],[-4,-41],[-3,-167],[22,-88],[-49,-123],[-11,7],[-116,53],[-48,29],[-25,34],[-11,20],[-61,55],[-14,6],[-82,19],[-73,19],[-72,16],[-13,24],[-38,39],[-17,27],[-9,26],[-41,-1],[-19,4]],[[2,2410],[2,265],[3,68],[-1,133],[1,234]],[[1511,1483],[-75,0],[-197,-4],[-609,-11],[-49,0],[-152,-7],[-113,0],[-310,1],[-1,452],[1,83],[-1,6],[1,122],[-4,285]],[[6139,6174],[260,1],[266,0],[231,1],[322,1],[145,-1],[213,1]],[[7576,6177],[-6,-191]],[[7570,5986],[-6,-225],[-7,-233],[0,-45],[-7,-227],[-4,-59],[-4,-136],[-2,-61],[-4,-171],[-13,-415]],[[7523,4414],[-56,1],[-53,-3],[-83,-2]],[[7331,4410],[-242,-5],[-39,-2],[-389,-9],[-348,-7],[-166,-4],[-22,1]],[[410,3826],[0,7]],[[7895,2267],[9,-9]],[[7904,2258],[80,-51],[71,-50]],[[8055,2157],[47,-32],[-7,-116],[-22,-2],[3,-53],[-111,-8],[-6,31],[-3,40],[5,1],[-1,69],[-35,0],[0,12],[-12,26],[-37,-18],[-7,21],[-15,8]],[[3513,10959],[70,-2],[101,-1],[144,-4],[105,-2],[177,-5],[318,-6],[190,-1]],[[4651,9495],[4,-238],[2,-76],[-3,-49]],[[4683,7870],[-187,-7],[-103,-5],[-7,-5],[-28,1],[-154,-4],[-383,-13],[-216,-10]],[[3605,7827],[-7,201],[1,41],[-7,258],[-24,934]],[[869,3160],[182,2],[3,3],[103,6],[53,1],[258,19],[52,3],[239,18],[63,9],[141,11],[35,3],[235,16],[39,1]],[[2311,3253],[1,-42]],[[2312,3211],[5,-152],[120,0],[2,-316],[3,-320]],[[1657,11029],[135,-5],[38,0],[81,-3],[194,-4],[95,-5],[36,-1],[294,-9]],[[2515,9888],[-632,-20],[-549,-17],[-826,-27],[-504,-16]],[[4,9808],[0,181],[0,363],[-4,333],[2,402],[140,-5],[269,-8],[168,-8],[138,-5],[176,-7],[156,-5],[132,-6],[115,-5]],[[6926,2037],[378,-147],[39,-15],[97,-39],[231,-90]],[[7722,1726],[36,-13],[67,-19],[49,-17],[99,-32],[329,-100],[339,-104]],[[8641,1441],[-61,-97],[-369,-549],[-128,-200],[-137,-192],[-99,-156],[-171,-247],[-180,228],[-116,145],[-21,24],[-29,41],[-150,191],[-45,50],[-342,444]],[[6793,1123],[1,15],[31,210],[27,186],[74,503]],[[7900,2445],[21,9],[32,6],[19,13],[18,42],[5,25],[-8,34],[-7,8],[-7,24]],[[7973,2606],[47,-11],[15,-44],[22,10],[-5,15],[22,9],[13,-40],[43,5],[-24,41],[10,6],[10,-27],[20,2],[6,-14],[39,-1],[39,3],[0,-58]],[[8230,2502],[-31,-22],[-2,-68],[12,17],[9,0],[2,-32],[8,-1],[-3,-58],[-22,1]],[[8203,2339],[-21,1],[-105,12],[-28,0]],[[8049,2352],[-1,35],[3,35],[-46,6],[-105,17]],[[7785,2458],[52,76],[-8,87],[-8,37],[8,5],[59,-25],[39,-21],[15,-4]],[[7942,2613],[31,-7]],[[7900,2445],[-14,5],[-15,-24],[-60,9],[-26,23]],[[7570,5986],[279,10],[30,3],[40,0],[170,5],[284,7],[223,7],[1,33],[-2,34],[-3,250],[-2,87],[211,7],[49,5],[111,-1],[479,17]],[[9440,6450],[0,-856],[0,-510],[0,-619]],[[9440,4465],[-600,-16],[-731,-18],[-579,-15],[-7,-2]],[[3046,8519],[-47,-128],[-15,-33],[-36,-107],[-24,-65],[-13,-11],[-80,-2],[78,-163],[20,-65],[47,-154],[10,-45]],[[2986,7746],[-112,-5],[-509,-25]],[[2365,7716],[-101,-1],[-67,0]],[[2197,7715],[5,14],[1,38],[-3,20],[0,30],[6,40],[-2,26],[-9,22],[-2,23],[-9,27],[7,32],[15,49],[9,15],[26,-5],[11,13],[9,35],[-2,50],[5,34],[18,36],[37,55],[1,13],[-17,7],[-14,13],[-11,34],[-4,24],[5,9],[19,11],[15,24],[24,70],[1,25],[-6,43],[-15,36],[-3,17]],[[5,7700],[62,-1],[281,0],[703,-1]],[[1051,7698],[0,-8],[9,-389],[6,-205],[-1,-17],[10,-264],[3,-114],[9,-279],[0,-26],[2,-130]],[[1089,6266],[-45,-1],[-43,8],[-72,-2],[-26,13],[-20,17],[-32,39],[-35,-47],[-14,-37],[-4,-31],[7,-254],[5,-133],[-4,-30],[-78,-108],[-15,-25],[-45,-82],[-20,-51],[-12,24],[-55,81],[-65,90],[-57,77],[-60,76],[-37,55],[-67,155],[-7,12],[-284,277]],[[4,6389],[0,87],[0,548],[-1,72],[1,303],[0,130],[0,167],[1,4]],[[3605,7827],[2,-57],[-171,-7],[-213,-5],[-148,-6],[-89,-6]],[[2646,9061],[-17,0],[-20,-21],[-51,-25],[-38,59],[15,49],[31,6],[4,-10],[70,1],[0,61],[-2,22],[-80,-1],[0,-20],[-13,-2],[-8,17],[-11,-15],[5,-23],[-16,-5],[-6,-18],[-17,-5],[7,33],[6,15],[-80,-23],[5,-9],[-2,-24],[-23,-9],[-19,2],[0,-18],[-27,-12],[-96,-32]],[[2263,9054],[7,34],[-16,27],[-6,25],[5,23],[-8,14],[10,19],[0,13],[-17,3],[-7,9],[2,21],[-45,41],[-4,12],[348,3],[-4,167]],[[3822,2928],[31,11],[14,22],[1,15],[-8,44],[0,40],[5,21],[38,77],[13,18],[71,87],[41,49],[59,63],[10,8],[54,14],[8,-12],[105,-13],[18,-8],[45,-35],[11,-6],[34,-6],[95,-2],[53,-4],[42,2],[71,17],[28,14],[52,1],[29,54],[14,21],[32,34],[25,42],[25,54],[52,175],[8,23],[81,141]],[[5234,4009],[-9,-25],[18,-12],[-6,-17],[-26,-3],[-7,-16],[4,-36],[27,-39],[-21,-28],[25,-43],[18,-16],[22,7],[24,-8],[-8,-31]],[[5295,3742],[-9,-58],[-9,-29],[-24,-28],[1,-17],[-23,-4],[-8,-25],[20,-10],[-7,-16],[-16,6],[-11,-16],[-3,-28],[10,-34],[22,-22],[27,-6],[31,-14],[9,-15],[39,-41]],[[5344,3385],[30,-32],[13,-21],[5,-18],[0,-72],[-21,-36],[-18,-18],[2,-59],[5,-124]],[[5360,3005],[-201,-53],[-24,-1],[-384,-16],[12,-515],[2,-110]],[[3757,2274],[-9,19],[-7,52],[12,18],[35,13],[17,26],[-11,32],[-7,34],[3,9],[-32,38],[-5,16],[-15,15],[7,18],[-4,12],[-19,5],[2,20],[-10,30],[-6,34],[20,20],[3,14],[20,8],[9,-6],[17,44],[17,25],[0,38],[-6,6],[9,24],[16,18],[5,22],[-2,30],[6,20]],[[2267,8973],[22,35],[-14,5],[-14,22],[2,19]],[[100,4184],[12,51],[13,76]],[[125,4311],[3,66],[6,18],[-6,17],[-14,54],[-4,44],[11,20],[26,10],[20,22],[20,29],[11,36]],[[346,4876],[-26,-61],[-19,-33],[6,-31],[-18,-16],[2,-124]],[[291,4611],[2,-79],[0,-35],[-8,-41]],[[285,4456],[-4,-52],[-20,-82],[-2,-37],[7,-23]],[[46,3989],[54,195]],[[491,4631],[-40,2]],[[451,4633],[0,26],[-58,-1],[-2,-31],[-49,-1],[-5,-15],[-46,0]],[[451,4633],[-14,-3],[-3,-117],[1,-43]],[[435,4470],[0,-10],[-72,-1]],[[363,4459],[-78,-3]],[[435,4470],[35,1],[1,-62]],[[443,4254],[-47,19],[-13,1],[-21,-6]],[[362,4268],[4,18],[-2,36],[-1,137]],[[700,4412],[0,14],[14,1],[-1,51],[84,2]],[[2418,4375],[701,15],[139,2],[111,4],[280,5]],[[3649,4401],[12,-32],[1,-24],[18,-37],[34,-30],[-8,-25],[-3,-30],[-7,-8],[-8,-25],[-18,-37],[-4,-34],[15,-13],[0,-10],[-11,-32],[1,-37],[-9,-24],[-13,-19],[2,-18],[-11,-9],[14,-19],[-11,-45],[-12,-9],[-12,-26],[7,-32],[21,-27],[-5,-18],[3,-27],[-13,-27]],[[3632,3727],[-124,-26],[-27,-9],[-110,-52],[-121,-54],[-116,-53],[-107,-49],[-53,-21],[-42,-45],[-12,-8],[-32,2],[-30,4],[-77,-1],[-72,-14],[-22,-7],[-65,-32],[-127,-60],[-48,-26],[-135,-65]],[[3632,3727],[4,-18],[-6,-14],[4,-14],[-8,-19],[9,-40],[8,-5],[0,-29],[-8,-10],[2,-16],[13,-15],[6,-24],[2,-21],[9,-51],[6,-8],[-10,-30],[11,-6],[7,-51],[15,-18],[-5,-14],[0,-27],[12,-18],[19,-14],[-2,-40],[3,-19],[18,-33],[7,-5],[6,-28],[-1,-22],[26,-28],[9,-16],[12,-55],[8,-16],[-1,-34],[4,-20],[11,-21]],[[6168,9504],[0,-148],[-1,-12],[0,-261],[8,-575]],[[2060,8777],[-52,-5],[-23,12],[-299,172],[-38,13],[-203,64],[-456,149],[-289,92],[-73,22],[-139,46],[-14,9],[-111,83],[-12,5],[-165,50],[-38,6],[-137,16],[-6,2]],[[5,9513],[1,156],[-2,41],[0,98]],[[2396,5918],[28,-16],[202,-87],[0,32],[29,-12],[48,4],[8,-4],[19,-27],[28,6],[12,-7],[7,-48],[21,-19],[13,-18],[6,-20],[9,-4],[12,17],[35,-2],[7,9],[-4,29],[22,15],[24,0],[19,-22],[22,-5],[22,25],[5,-5],[8,-35],[29,-13],[37,24],[18,-23],[16,6],[5,25],[8,11],[21,8],[14,0],[-4,-35],[16,-38],[48,-6],[19,21],[19,6],[19,-3],[14,-10],[20,6],[10,-10],[2,61],[167,5]],[[3815,4410],[-166,-9]],[[2417,4431],[-1,177],[-3,208]],[[2413,4816],[-7,511]],[[5360,3005],[57,2]],[[5417,3007],[10,-18],[17,-51],[3,-16],[-12,-26],[0,-14],[38,-125],[13,-47],[3,-28],[2,-66],[15,-29],[23,-5],[47,-55],[15,-30],[25,-69],[6,-26],[15,-39],[20,-88],[26,-80],[14,-35],[34,-73],[35,-56],[22,-42],[53,-55],[50,-69],[2,-49],[9,-43],[7,-77],[26,-37],[42,-107],[13,-20],[16,-15],[49,-173],[5,-80],[8,-59],[4,-8]],[[6072,1197],[-535,23],[-788,34],[0,288]],[[2197,7715],[-223,-6]],[[1974,7709],[-151,0],[-337,-7],[-34,0],[-259,-4]],[[1193,7698],[11,38],[1,71],[-3,88],[7,20],[58,87],[44,74],[68,165],[40,64],[28,34],[12,27],[53,66],[89,29],[27,12],[58,31],[35,17],[177,93],[24,11],[72,13],[15,8],[55,44],[126,42],[21,6],[-2,10]],[[1193,7698],[-142,0]],[[5,7700],[-3,87],[1,207],[-1,180],[4,672],[0,321],[0,198],[-1,148]],[[7331,4410],[-61,-368],[-71,-429],[-33,1],[2,-96],[-5,-31],[-13,-53],[0,-20],[16,-67],[8,-6]],[[7174,3341],[-2,-6]],[[7172,3335],[-13,-53],[-113,-440]],[[7046,2842],[-273,4],[3,-42],[-212,15],[-166,-7],[-228,-37],[-196,-14],[-8,259],[-7,0],[-225,-7],[-317,-6]],[[5344,3385],[-2,17],[142,36],[-4,13],[62,-12],[-2,78],[-97,107],[-76,75],[-38,25],[-34,18]],[[1138,4969],[21,-7],[238,-37],[114,-20],[19,-5],[57,-26],[42,-10],[83,-13],[66,-11],[42,-5],[76,17],[36,-4],[132,-18],[87,-12],[40,-4],[79,2],[51,-6],[92,6]],[[6180,10892],[36,-1],[141,-4],[138,-5],[92,-12],[121,-2],[92,-4],[197,-4],[161,-3],[-4,156],[198,8],[135,6],[186,7],[234,10],[62,1],[101,5],[77,2],[209,9],[151,7],[184,9],[153,5],[250,14],[84,4],[126,7],[135,5],[1,-213],[0,-567],[0,-742]],[[9440,9590],[-70,-2],[-41,0],[-123,-5],[-291,-14],[-463,-20],[-233,-10],[-451,-10],[-20,0],[-191,-3],[-209,-1],[-231,-5],[-663,-12],[-286,-4]],[[1100,5265],[13,35]],[[1089,6266],[3,-315]],[[4,5241],[1,242],[-1,180],[1,201],[0,177],[1,118],[-2,230]],[[7482,2574],[-16,15],[4,11],[28,-15],[14,21],[7,-5],[-11,-24],[29,-15],[36,74],[-62,36],[17,37],[21,1],[56,-81],[-48,-81],[29,-13],[5,8],[45,-18],[17,30],[49,-61],[22,-25],[24,-18],[14,-5],[23,12]],[[8049,2352],[-60,1],[-24,12],[-14,1]],[[7951,2366],[-87,10],[-54,1],[-25,24],[-16,-20]],[[7621,2328],[-161,6],[-59,1],[-13,2],[1,20],[-56,2],[4,63],[19,34],[33,27],[-7,13],[-23,-15],[-23,38],[5,35],[62,-4],[1,-12],[33,2],[0,6],[43,-1],[11,24],[-9,5]],[[7046,2842],[-25,-160],[-56,-384]],[[6965,2298],[-39,-261]],[[6793,1123],[-34,43],[-687,31]],[[5,4309],[120,2]],[[100,4184],[-12,-4],[-83,-1]],[[5,4179],[-1,50],[1,80]],[[8,3955],[1,30],[-3,28],[-1,166]],[[5,4309],[-1,274]],[[2365,7716],[4,-188],[2,-204],[4,-181]],[[2375,7143],[-53,42],[-47,79],[-8,2],[2,-51],[-16,-3],[-29,-21],[-6,-16],[-17,-14],[-56,100],[-50,-34],[-37,67],[-60,-40],[-32,-8]],[[1966,7246],[1,31],[1,116],[-6,140],[-2,97],[0,32],[5,23],[9,24]],[[1966,7246],[-4,-126],[-8,-46],[-21,-51],[-10,-36],[-2,-48],[7,-55],[147,5],[111,4],[92,3],[4,-98],[99,4]],[[2381,6802],[2,-148],[12,-666],[1,-70]],[[2375,7143],[6,-341]],[[2986,7746],[28,-154],[11,-22],[47,-54],[92,-102],[142,-171],[23,-19],[99,-40],[25,-13],[21,-17],[30,-29],[36,-41],[97,-142],[103,-95],[25,-41],[56,-109],[113,-218],[12,-26],[52,-118],[136,-313],[23,-35]],[[4683,7870],[1,-402],[2,-223],[0,-235],[1,-226]],[[4687,6784],[-63,4],[15,-22],[-35,-22],[61,-189],[44,4]],[[4709,6559],[3,-173],[-2,-113],[1,-102]],[[7172,3335],[22,-45],[19,-25],[21,-19],[-24,-24],[-27,-41],[-2,-10],[3,-94],[1,-135],[4,-162],[-1,-6],[96,-82],[125,-77],[73,-41]],[[7623,2237],[-8,-1],[-172,6],[-14,2],[-101,32],[-92,8],[-41,1],[-25,-4],[-4,9],[-26,10],[-44,1],[-89,-3],[-42,0]],[[9440,4465],[0,-710],[2,-118],[5,-118],[2,-90]],[[9449,3429],[-310,0],[-302,0],[-294,-14],[-534,-23]],[[8009,3392],[-835,-51]],[[8009,3392],[-26,-45],[-52,-199],[-24,-100],[-1,-21],[6,-100],[4,-141],[-3,-64],[3,-22],[26,-87]],[[9449,3429],[1,-63],[-2,-201],[-3,-185],[-5,-281],[-51,-77],[-49,-77]],[[9340,2545],[-50,-3],[-189,-2],[-62,-7],[-81,-6],[-153,-27],[-140,-6],[-58,1],[-144,5],[-27,9],[-88,12],[-77,2],[-41,-21]],[[8055,2157],[-4,153],[79,4],[63,-50],[3,47],[19,1],[1,24],[-13,3]],[[9340,2545],[-345,-545],[-354,-559]],[[9440,9590],[-1,-494],[1,-703],[-2,-103],[2,-87],[0,-193]],[[9440,8010],[-238,-11],[-96,-1],[-78,1],[-62,-3],[-133,-1],[-140,0],[-500,-7],[-298,-3],[14,27],[-2,16],[-21,5],[-16,62],[-16,13],[7,26],[-15,26],[-16,-11],[-14,1],[-17,29],[-9,21],[9,12],[-3,13],[19,26],[-9,16],[-37,11],[-21,29],[0,21],[-21,52],[4,14],[-13,9],[-3,13],[-260,-146],[7,-283]],[[7462,7987],[-255,-12],[-102,-5],[-915,-42]],[[7582,7276],[3,-61],[121,48],[1,-139],[6,-479],[-126,-4]],[[7587,6641],[-457,-8],[-3,204],[-39,5],[31,106],[86,3],[0,38],[-46,-4],[0,11],[-59,2],[1,76],[30,1],[-31,191],[-26,-1],[-3,61],[21,3],[-9,39],[85,1],[92,3],[30,10],[8,-9],[14,0],[0,-93],[270,-4]],[[9440,8010],[0,-827],[0,-733]],[[7576,6177],[9,355],[2,109]],[[7582,7276],[-32,638],[-86,-3],[-2,76]],[[7686,7464],[159,-253],[40,13],[7,-7],[98,13],[83,45],[-30,80],[49,27],[-2,118],[-32,16],[-2,26],[35,23],[-13,17],[-13,0],[-90,18],[-65,10],[-224,-146]],[[4709,6559],[23,2],[140,6],[-2,211],[-61,-32],[-88,-9],[-10,11],[10,34],[-34,2]],[[7904,2258],[15,11],[32,42],[-10,21],[10,34]]],"transform":{"scale":[0.000055041375661375166,0.00003781801092113531],"translate":[-80.519345,41.069804]},"objects":{"Geometry\\42-085":{"type":"GeometryCollection","geometries":[{"arcs":[[0,1,2,3,4,5,6,7]],"type":"Polygon","properties":{"GEOID":"420850326013"}},{"arcs":[[8,9,10,11,12,13]],"type":"Polygon","properties":{"GEOID":"420850330002"}},{"arcs":[[14,15,16,17,18]],"type":"Polygon","properties":{"GEOID":"420850331001"}},{"arcs":[[19,-9,20,21]],"type":"Polygon","properties":{"GEOID":"420850330001"}},{"arcs":[[22,23,24,25,26]],"type":"Polygon","properties":{"GEOID":"420850304002"}},{"arcs":[[-26,27,28,29,30]],"type":"Polygon","properties":{"GEOID":"420850304003"}},{"arcs":[[31,32,-30,33,34,35]],"type":"Polygon","properties":{"GEOID":"420850305001"}},{"arcs":[[-29,36,37,-34]],"type":"Polygon","properties":{"GEOID":"420850305002"}},{"arcs":[[38,39,40,41]],"type":"Polygon","properties":{"GEOID":"420850318005"}},{"arcs":[[42,43,44,-1]],"type":"Polygon","properties":{"GEOID":"420850326014"}},{"arcs":[[45,46,47,48,49,50,51]],"type":"Polygon","properties":{"GEOID":"420850321003"}},{"arcs":[[[52,53,54,55,56,57]],[[58,59,60,61]]],"type":"MultiPolygon","properties":{"GEOID":"420850311002"}},{"arcs":[[62,63,64,65]],"type":"Polygon","properties":{"GEOID":"420850318002"}},{"arcs":[[66,67,68,69,70]],"type":"Polygon","properties":{"GEOID":"420850319001"}},{"arcs":[[71,72,73,74]],"type":"Polygon","properties":{"GEOID":"420850319003"}},{"arcs":[[75,76]],"type":"Polygon","properties":{"GEOID":"420850320001"}},{"arcs":[[77,-47,78]],"type":"Polygon","properties":{"GEOID":"420850321001"}},{"arcs":[[79,80,81,82]],"type":"Polygon","properties":{"GEOID":"420850332003"}},{"arcs":[[-82,83,-36,84,85,86]],"type":"Polygon","properties":{"GEOID":"420850332002"}},{"arcs":[[87,88,-86,89,90,91,92,-59,93]],"type":"Polygon","properties":{"GEOID":"420850334001"}},{"arcs":[[94,95,-72,96,97]],"type":"Polygon","properties":{"GEOID":"420850322002"}},{"arcs":[[-97,-75,98,99]],"type":"Polygon","properties":{"GEOID":"420850322001"}},{"arcs":[[100,101,102,103]],"type":"Polygon","properties":{"GEOID":"420850323003"}},{"arcs":[[104,105,106,-92]],"type":"Polygon","properties":{"GEOID":"420850334003"}},{"arcs":[[107,108,109,110,111,-106]],"type":"Polygon","properties":{"GEOID":"420850309001"}},{"arcs":[[112,113,-110,114]],"type":"Polygon","properties":{"GEOID":"420850309002"}},{"arcs":[[-114,115,-53,116,-111]],"type":"Polygon","properties":{"GEOID":"420850309003"}},{"arcs":[[-93,-107,-112,-117,-58,117,-60]],"type":"Polygon","properties":{"GEOID":"420850334002"}},{"arcs":[[-37,118,119,120,-54,-116,-113,121]],"type":"Polygon","properties":{"GEOID":"420850311001"}},{"arcs":[[-121,122,123,124,125,-55]],"type":"Polygon","properties":{"GEOID":"420850312001"}},{"arcs":[[126,127,128,-125]],"type":"Polygon","properties":{"GEOID":"420850312002"}},{"arcs":[[129,130,131,132,133,-128]],"type":"Polygon","properties":{"GEOID":"420850312003"}},{"arcs":[[134,135,136,137,138,139,140,141]],"type":"Polygon","properties":{"GEOID":"420850314001"}},{"arcs":[[142,143,144,-139,145,146,147,148,149,150]],"type":"Polygon","properties":{"GEOID":"420850314002"}},{"arcs":[[-138,151,152,-146]],"type":"Polygon","properties":{"GEOID":"420850314003"}},{"arcs":[[-147,-153,153,-123,-120,154,155]],"type":"Polygon","properties":{"GEOID":"420850314005"}},{"arcs":[[156,-155,-119,-28,-25]],"type":"Polygon","properties":{"GEOID":"420850314006"}},{"arcs":[[157,158,159,-151,160,161,162,163]],"type":"Polygon","properties":{"GEOID":"420850333002"}},{"arcs":[[164,165,-143,-160]],"type":"Polygon","properties":{"GEOID":"420850333003"}},{"arcs":[[166,-142,167,-165,-159]],"type":"Polygon","properties":{"GEOID":"420850333001"}},{"arcs":[[168,169,-144,-166]],"type":"Polygon","properties":{"GEOID":"420850317001"}},{"arcs":[[-168,-141,170,-169]],"type":"Polygon","properties":{"GEOID":"420850317002"}},{"arcs":[[-171,-140,-145,-170]],"type":"Polygon","properties":{"GEOID":"420850317003"}},{"arcs":[[171,-98,-100,172,-49]],"type":"Polygon","properties":{"GEOID":"420850322003"}},{"arcs":[[-3,173,174,175]],"type":"Polygon","properties":{"GEOID":"420850326023"}},{"arcs":[[176,177,-19,178,179,180]],"type":"Polygon","properties":{"GEOID":"420850327015"}},{"arcs":[[181,182,-6,183,184]],"type":"Polygon","properties":{"GEOID":"420850326012"}},{"arcs":[[-4,-176,185,186]],"type":"Polygon","properties":{"GEOID":"420850326021"}},{"arcs":[[187,-181,188,189]],"type":"Polygon","properties":{"GEOID":"420850327011"}},{"arcs":[[-61,-118,-57,190,-190,191,192]],"type":"Polygon","properties":{"GEOID":"420850327012"}},{"arcs":[[-192,-189,-180,193]],"type":"Polygon","properties":{"GEOID":"420850327013"}},{"arcs":[[194,195,196,197,198,-44]],"type":"Polygon","properties":{"GEOID":"420850325021"}},{"arcs":[[-35,-38,-122,-115,-109,199,-90,-85]],"type":"Polygon","properties":{"GEOID":"420850305003"}},{"arcs":[[-11,200,201,202]],"type":"Polygon","properties":{"GEOID":"420850330003"}},{"arcs":[[203,-66,204,-42,205,206,-68]],"type":"Polygon","properties":{"GEOID":"420850318001"}},{"arcs":[[207,-133,208,209,-177,-188,-191]],"type":"Polygon","properties":{"GEOID":"420850327014"}},{"arcs":[[-76,210,-71,211,212]],"type":"Polygon","properties":{"GEOID":"420850320002"}},{"arcs":[[213,-13,214,215,216]],"type":"Polygon","properties":{"GEOID":"420850331004"}},{"arcs":[[217,218,219,220,221]],"type":"Polygon","properties":{"GEOID":"420850329003"}},{"arcs":[[222,223,-218,224]],"type":"Polygon","properties":{"GEOID":"420850329002"}},{"arcs":[[225,226,227,-197]],"type":"Polygon","properties":{"GEOID":"420850325022"}},{"arcs":[[-50,-173,-99,-74,228,229,230,231]],"type":"Polygon","properties":{"GEOID":"420850319004"}},{"arcs":[[232,233,234,235]],"type":"Polygon","properties":{"GEOID":"420850323001"}},{"arcs":[[-69,-207,236,-229,-73,-96,237,238]],"type":"Polygon","properties":{"GEOID":"420850319002"}},{"arcs":[[239,-186,-175,240,241,242,243,-16,244]],"type":"Polygon","properties":{"GEOID":"420850326016"}},{"arcs":[[245,-238,-95,-172,-48,-78]],"type":"Polygon","properties":{"GEOID":"420850321002"}},{"arcs":[[246,247,-162,248,249,250,-83,-87,-89,251]],"type":"Polygon","properties":{"GEOID":"420850332001"}},{"arcs":[[-161,-150,252,253,-249]],"type":"Polygon","properties":{"GEOID":"420850303001"}},{"arcs":[[-254,254,255,256,-250]],"type":"Polygon","properties":{"GEOID":"420850303002"}},{"arcs":[[-256,257,-27,-31,-33,258,259]],"type":"Polygon","properties":{"GEOID":"420850303004"}},{"arcs":[[260,-148,-156,-157,-24]],"type":"Polygon","properties":{"GEOID":"420850314004"}},{"arcs":[[261,262,263,-209,-132]],"type":"Polygon","properties":{"GEOID":"420850327022"}},{"arcs":[[-264,264,-245,-15,-178,-210]],"type":"Polygon","properties":{"GEOID":"420850327021"}},{"arcs":[[-65,265,-39,-205]],"type":"Polygon","properties":{"GEOID":"420850318004"}},{"arcs":[[-212,-70,-239,-246,-79,-46,266,267]],"type":"Polygon","properties":{"GEOID":"420850320003"}},{"arcs":[[-259,-32,-84,-81]],"type":"Polygon","properties":{"GEOID":"420850332004"}},{"arcs":[[268,-185,269,-262,-131,270,271,-102]],"type":"Polygon","properties":{"GEOID":"420850326011"}},{"arcs":[[-17,-244,272,273,274]],"type":"Polygon","properties":{"GEOID":"420850331002"}},{"arcs":[[-51,-232,275,276,277]],"type":"Polygon","properties":{"GEOID":"420850320005"}},{"arcs":[[-267,-52,-278,278,-233,279]],"type":"Polygon","properties":{"GEOID":"420850320004"}},{"arcs":[[-2,-45,-199,280,281,282,283,-273,-243,284,-241,-174]],"type":"Polygon","properties":{"GEOID":"420850326022"}},{"arcs":[[-152,-137,285,-271,-130,-127,-124,-154]],"type":"Polygon","properties":{"GEOID":"420850313002"}},{"arcs":[[-257,-260,-80,-251]],"type":"Polygon","properties":{"GEOID":"420850303003"}},{"arcs":[[-64,286,287]],"type":"Polygon","properties":{"GEOID":"420850318003"}},{"arcs":[[288,-103,-272,-286,-136]],"type":"Polygon","properties":{"GEOID":"420850313001"}},{"arcs":[[-235,289,-104,-289,-135,-167,-158,290]],"type":"Polygon","properties":{"GEOID":"420850323002"}},{"arcs":[[-200,-108,-105,-91]],"type":"Polygon","properties":{"GEOID":"420850334004"}},{"arcs":[[-56,-126,-129,-134,-208]],"type":"Polygon","properties":{"GEOID":"420850312004"}},{"arcs":[[-270,-184,-5,-187,-240,-265,-263]],"type":"Polygon","properties":{"GEOID":"420850326015"}},{"arcs":[[291,-225,-222,292,293,-22,294]],"type":"Polygon","properties":{"GEOID":"420850329001"}},{"arcs":[[295,296,-217,297,-274,-284]],"type":"Polygon","properties":{"GEOID":"420850331003"}},{"arcs":[[298,-247,299,300]],"type":"Polygon","properties":{"GEOID":"420850301002"}},{"arcs":[[-300,-252,-88,301]],"type":"Polygon","properties":{"GEOID":"420850301003"}},{"arcs":[[-163,-248,-299,302]],"type":"Polygon","properties":{"GEOID":"420850301001"}},{"arcs":[[-253,-149,-261,-23,-258,-255]],"type":"Polygon","properties":{"GEOID":"420850304001"}},{"arcs":[[-276,-231,303,304,305]],"type":"Polygon","properties":{"GEOID":"420850324021"}},{"arcs":[[-279,-277,-306,306,307,-101,-290,-234]],"type":"Polygon","properties":{"GEOID":"420850324011"}},{"arcs":[[-305,308,-307]],"type":"Polygon","properties":{"GEOID":"420850324022"}},{"arcs":[[-230,309,-182,-269,-308,-309,-304]],"type":"Polygon","properties":{"GEOID":"420850324032"}},{"arcs":[[-237,-206,310,311,312,-7,-183,-310]],"type":"Polygon","properties":{"GEOID":"420850324033"}},{"arcs":[[-283,313,-295,-21,314,-296]],"type":"Polygon","properties":{"GEOID":"420850328023"}},{"arcs":[[-198,-228,315,316,317,-281]],"type":"Polygon","properties":{"GEOID":"420850328012"}},{"arcs":[[-282,-318,318,-223,-292,-314]],"type":"Polygon","properties":{"GEOID":"420850328022"}},{"arcs":[[-317,319,320,-219,-224,-319]],"type":"Polygon","properties":{"GEOID":"420850328013"}},{"arcs":[[-203,321,-220,-321,322,-215,-12]],"type":"Polygon","properties":{"GEOID":"420850328011"}},{"arcs":[[-288,323,324,325,-40,-266]],"type":"Polygon","properties":{"GEOID":"420850325051"}},{"arcs":[[326,327]],"type":"Polygon","properties":{"GEOID":"420850325041"}},{"arcs":[[328,-226,-196,329,-327,330,-325],[331]],"type":"Polygon","properties":{"GEOID":"420850325043"}},{"arcs":[[-41,-326,-331,-328,-330,-195,-43,-8,-313,332,-311]],"type":"Polygon","properties":{"GEOID":"420850325031"}},{"arcs":[[-315,-14,-214,-297]],"type":"Polygon","properties":{"GEOID":"420850328021"}},{"arcs":[[-293,-221,-322,-202,333]],"type":"Polygon","properties":{"GEOID":"420850330005"}},{"arcs":[[-334,-201,-10,-20,-294]],"type":"Polygon","properties":{"GEOID":"420850330004"}},{"arcs":[[-332]],"type":"Polygon","properties":{"GEOID":"420850325042"}},{"arcs":[[-333,-312]],"type":"Polygon","properties":{"GEOID":"420850324031"}},{"arcs":[[-285,-242]],"type":"Polygon","properties":{"GEOID":"420850326024"}}]}}}