{"type":"Topology","arcs":[[[6977,1998],[281,142],[-6,16],[49,36],[34,-60],[93,59]],[[7428,2191],[23,-8],[-9,-40],[8,-22],[57,29],[55,39],[31,32],[46,-2],[40,-7],[31,0]],[[7710,2212],[-10,-45],[13,-23],[12,-43],[0,-40],[-5,-20]],[[7720,2041],[-22,6],[-11,-5]],[[7687,2042],[-5,34],[-33,2],[-43,-8],[-35,-71],[-92,-53],[-48,-24],[-79,-29],[-47,-21],[-60,-30],[-77,8],[-20,-2],[-23,-27],[-13,-32],[-31,-3],[-18,8],[-26,-1],[-12,11],[-32,48],[-4,12],[-56,32],[-42,33]],[[6891,1929],[39,46],[47,23]],[[2199,3184],[5,3],[125,49]],[[2329,3236],[19,-74],[16,-17],[20,-4],[57,20],[33,-1]],[[2474,3160],[-56,-59],[-12,-37],[-145,-75],[-154,-76]],[[2107,2913],[-77,109]],[[2030,3022],[54,34],[41,-8],[24,20],[15,-30],[45,37],[10,-3],[22,30],[-42,82]],[[2329,3236],[107,43]],[[2436,3279],[18,-70],[77,31],[22,34],[-8,29]],[[2545,3303],[130,51],[41,18],[13,0]],[[2729,3372],[-37,-22],[-63,-51],[30,-43],[-67,-27],[-107,-57],[-11,-12]],[[5768,3523],[41,18]],[[5809,3541],[18,-62],[23,1],[9,-25],[26,2]],[[5885,3457],[5,-24],[39,-31],[24,-8],[14,-11],[15,-32],[5,-31]],[[5987,3320],[0,-20],[-16,-36]],[[5971,3264],[-21,17],[-14,19],[-55,-4],[5,-86],[-25,-2],[-169,-21]],[[5692,3187],[-10,132],[99,12],[-14,181],[1,11]],[[5692,3187],[-132,-17],[-3,14],[-83,-45],[-30,-29]],[[5444,3110],[-12,47],[8,3],[-7,49],[6,18],[-60,84],[9,44],[127,58],[250,118],[3,-8]],[[5971,3264],[-49,-78],[-9,-25],[-1,-21],[19,-26],[98,-109]],[[6029,3005],[-16,-25],[-33,8],[-26,1],[-19,-15],[-27,-47],[-6,-35],[-45,-40],[-21,-5],[-123,60],[-69,-17],[-33,-20],[-72,-55]],[[5539,2815],[-61,95],[-80,115],[11,19],[11,38],[24,28]],[[6947,3883],[-71,-152],[-25,-50],[-29,-54],[-38,-59],[-53,-72],[-44,-50]],[[6687,3446],[-39,3],[-269,-35],[-28,-6],[-40,-21],[-28,-25],[-120,-140],[-24,-24],[-85,-76],[-15,37],[1,25],[-19,42],[-2,78]],[[6019,3304],[11,22],[-23,38],[-11,94],[37,3],[61,0],[6,33],[43,37],[88,30],[65,32],[133,72],[45,31],[73,27],[65,31],[102,29],[139,75],[59,85],[35,-60]],[[8002,2491],[42,39],[33,5],[43,31],[-18,7],[44,26],[35,15],[26,-57]],[[8207,2557],[-9,-28],[17,-18],[8,-34],[10,-3],[12,26],[24,11],[35,1],[28,5],[32,31],[25,12],[49,35],[13,2],[28,-18],[14,-19],[1,-55],[23,4],[15,-102],[-133,-57],[-6,19],[-61,-43],[-91,-55],[-185,-117],[-14,-4],[-43,86]],[[7999,2236],[46,24],[-65,157],[-43,-28],[12,37],[21,43],[32,22]],[[7730,2543],[74,14],[16,-43],[19,-34],[91,51],[11,-26],[27,0],[10,-26],[24,12]],[[7999,2236],[-9,-6],[-44,-55],[-3,-8]],[[7943,2167],[-11,1],[-30,73],[-46,-30],[-14,34],[-58,-38],[-13,33]],[[7771,2240],[103,67],[-13,32],[61,40],[-30,72],[-42,-15],[-13,-10],[-22,4],[-14,-17],[-29,0],[5,29],[-5,21],[-28,35],[-11,24],[-3,21]],[[7771,2240],[-31,-25],[-30,-3]],[[7428,2191],[119,74],[-26,54],[51,27],[68,23],[-36,121],[63,29],[8,-28],[34,13],[28,1],[-10,29],[3,9]],[[7943,2167],[-15,-29],[-6,-33],[-18,3],[-27,26],[-55,-48],[-5,13],[-66,-42],[-31,-16]],[[6947,3883],[92,198],[8,31],[4,41],[-6,49],[-11,37],[-121,392],[-15,78],[-1,48],[2,33],[9,57],[13,42],[30,66],[33,46],[58,63]],[[7042,5064],[108,73],[238,168]],[[7388,5305],[53,-426],[33,-263],[48,-328],[31,-223]],[[7553,4065],[50,-341]],[[7603,3724],[44,-292],[55,-356]],[[7702,3076],[-57,-18],[-65,-23],[-249,-93],[-117,-42],[-52,-20],[-106,-46],[-299,-97],[-95,-38],[-94,-38]],[[6568,2661],[-41,22]],[[6527,2683],[-36,78],[-19,52],[-5,42],[0,48],[2,128],[0,101],[4,32],[19,55],[21,32],[174,195]],[[5765,8441],[19,-2],[21,9],[17,29],[7,45],[12,19],[19,16],[22,-3],[18,-23],[17,4],[39,-3],[11,9],[14,29],[34,29],[28,7],[56,31],[11,15],[33,23],[24,26],[16,4],[25,22],[16,22],[25,-3],[35,22],[23,19],[25,33],[78,28],[65,33],[17,3],[38,21],[25,19],[55,31],[16,4],[23,-7],[43,-3],[47,-14],[24,-4],[22,19],[20,53],[23,7],[17,-13],[35,-37],[23,-48],[18,-16],[25,-8],[17,2],[64,-12],[25,1],[36,17],[23,47],[8,10],[36,-1],[40,26],[19,5],[19,-15],[12,4],[17,31],[23,6],[23,-21],[36,2]],[[7344,8990],[124,-787],[6,-47],[7,-90]],[[7481,8066],[-11,106],[-14,97],[-262,-420],[-31,-63],[-17,-54],[-76,-311],[-25,1],[-32,-46],[-17,-36],[-10,-57],[-15,-64],[-13,-25],[-24,-62],[-6,-31],[-15,-51],[-42,-74],[-21,-29],[-17,-12],[-65,-21],[-116,-28],[-155,-63],[-14,-18],[-17,-42],[-6,-45],[-6,-72],[-4,-98],[-3,-12],[-34,-118],[-13,-34],[-24,-30]],[[6376,6354],[-10,16],[-14,6],[-18,18],[-40,-5],[-48,13],[-17,21],[-19,14],[-48,21],[-18,-20],[-37,-25],[-27,-5],[-50,-31],[-26,-35],[-12,-10],[-33,-11],[-88,-76],[-17,-10],[-32,-31],[-54,-48],[-27,-18],[-20,-34],[-2,-23],[7,-66],[-4,-14]],[[5722,6001],[-33,-27],[-28,-12],[-31,-5],[-36,-21],[-11,1],[-21,19],[-13,39],[-24,4],[-18,-22],[-12,-33],[-12,-75],[-12,-17],[-22,-9],[-30,-20],[-26,8],[-21,24],[-27,-4],[-34,-16],[-29,7]],[[5282,5842],[-2,19],[-19,74],[-13,116],[-5,69],[-18,26],[-75,129],[-17,43],[-4,49],[9,42],[68,111],[13,76],[1,87],[-22,73],[-77,169],[-13,40],[-9,11],[-14,44],[-3,37],[5,36],[15,41],[28,31],[53,13],[55,2],[251,60],[73,14],[103,27],[28,14],[35,34],[28,12],[25,-1],[35,-12],[44,-32],[68,-73],[27,-17],[26,8],[12,18],[1,26],[-36,122],[-10,43],[-12,83],[-16,91],[-20,66],[-23,50],[-38,50],[-38,40],[-35,56],[-26,23],[-38,9],[-44,-4],[-21,-12],[-50,-52],[-40,-23],[-115,-5],[-44,-5],[-59,-15],[-39,0],[-37,10],[-81,38],[-25,16],[-14,1],[-29,-33],[-42,-75],[-37,-35],[-40,-18],[-28,-1],[-23,4],[-10,37],[1,53],[19,60],[13,20],[13,37],[18,29],[37,35],[27,17],[20,-1],[33,-12],[22,3],[22,14],[82,70],[32,23],[77,30],[93,60],[78,28],[45,31],[26,27],[40,73],[18,17],[77,34],[29,26],[15,19],[4,29]],[[9148,9963],[-30,-13],[-25,-18],[-30,-2],[-23,15],[-31,-15],[-20,-1],[-15,11],[-36,-22],[-22,14],[-17,-10],[-13,10],[-17,-5],[-3,-14],[-24,14],[-22,-15],[-56,0],[-13,-9],[-36,-42],[-6,-22],[-31,-28],[-13,-2],[-24,-30],[-37,-18],[-47,-50],[-20,-38],[-40,-52],[-1,-25],[-25,-6],[-8,-23],[-19,6],[-23,-12],[-17,10],[-22,-26],[-11,-41],[-38,-79],[-20,6],[-18,-9],[-31,-28],[-32,-19]],[[8232,9375],[-18,-9],[-23,-2],[-14,14],[-24,-2],[-12,-15],[-10,-25],[-17,-21],[-26,-8],[-25,0],[-22,-16],[-35,-57],[-9,-44],[-46,-54],[-26,-11],[-8,-20],[5,-22],[-22,-39],[13,-14],[0,-62],[-3,-17],[-18,-13],[-18,-22],[-24,-6],[-31,12],[-23,-4],[-56,-35],[-21,0],[-29,11],[-40,7],[-14,9],[-38,-17],[-56,26],[-25,21],[-18,34],[-24,19],[-26,0],[-48,-21],[-11,5],[-17,35],[-29,-22]],[[7344,8990],[-17,102],[-9,39],[-20,68],[-24,58],[-152,326],[-21,44],[-47,79],[-360,560],[-166,257],[-332,514],[-29,42],[-27,33],[-50,52],[-55,45],[-72,42],[-61,25],[-343,103],[-53,21],[-42,24],[-37,28],[-44,43],[-43,54],[-25,41],[-23,47],[-18,46],[-92,278],[-15,42],[-27,67],[-19,40],[-91,182]],[[5030,12292],[41,1],[30,-24],[42,-8],[33,-15],[60,-16],[56,0],[30,5],[29,10],[19,18],[40,99],[26,53],[26,28],[61,10],[28,16],[25,28],[28,45],[4,28],[18,50],[13,1],[16,53],[1,15],[21,47],[20,25],[22,-1],[44,-31],[35,-39],[28,-12],[24,-3],[21,22],[-2,70],[-8,34],[-22,63],[-4,23],[16,16],[26,6],[40,-37],[22,1],[23,17],[12,18],[8,53],[22,71],[15,33],[75,78],[53,32],[48,20],[31,3],[34,-6],[49,-36],[19,-7],[74,74],[38,27],[24,5],[57,-14],[33,2],[33,10],[50,25],[52,9],[22,-12],[14,-24],[4,-21],[-6,-34],[13,-33],[47,-33],[28,-2],[63,-99],[29,-71],[11,-39],[-14,-31],[-23,-115],[20,-71],[10,-14],[14,-2],[31,20],[7,23],[60,115],[28,36],[9,18],[34,-18],[18,-45],[22,-76],[0,-34],[-19,-98],[1,-22],[15,-19],[39,-6],[72,26],[57,-5],[28,-14],[38,-28],[6,-10],[8,-75],[14,-35],[35,-35],[32,-16],[29,-4],[9,6],[14,30],[11,38],[8,49],[23,27],[14,0],[24,-18],[63,-63],[-1,-22],[-13,-30],[2,-23],[21,-18],[74,-47],[10,-15],[-6,-21],[2,-38],[22,-52],[11,-44],[-4,-52],[-1,-65],[13,-46],[19,-18],[37,2],[37,8],[32,0],[35,-6],[17,-7],[16,-26],[2,-31],[-21,-24],[-5,-35],[5,-13],[-2,-38],[-12,-45],[-7,-47],[0,-25],[20,-38],[14,-7],[39,6],[33,1],[34,-32],[5,-22],[59,-73],[32,6],[17,-16],[9,-28],[27,-43],[33,-20],[13,-31],[19,-14],[13,4],[20,-32],[13,-32],[17,-25],[24,-12],[27,-25],[-7,-41],[1,-26],[24,-60],[14,-13],[4,-17],[14,-6],[32,33],[14,-15],[22,-4],[13,-20],[5,-26],[-4,-23],[9,-36],[17,-13],[12,-35],[-6,-30],[39,-55],[15,-36],[21,-22],[2,-17],[-9,-26],[8,-16],[36,-27],[17,-40],[-3,-15],[-27,-8],[-9,-13],[0,-37],[15,-26],[-16,-22],[1,-15],[22,-21],[-11,-18],[6,-10],[67,-8],[51,-19],[19,22],[18,-10],[320,-508]],[[5765,8441],[-12,29],[-19,19],[-57,24],[-27,18],[-21,26],[-35,28],[-78,70],[-14,33],[-31,125],[-24,63],[-18,118],[-27,61],[-23,36]],[[5379,9091],[-29,44],[-18,78],[-23,76],[-21,42],[-37,50],[0,94],[-16,61],[17,37],[-1,47],[-14,135],[-4,24],[-15,35],[-31,20],[-22,33],[-10,4],[-45,0],[-49,8],[-56,-4],[-67,-14],[-29,0],[-45,11],[-9,14],[-8,54],[-5,58],[-17,57],[-27,31],[-9,37],[1,66],[-14,27],[-21,25],[-13,5],[-39,40],[-41,83],[-17,45],[-30,53],[-12,39],[4,33],[1,86],[-6,56],[-6,22],[0,56],[-15,98],[26,28],[4,47],[-4,25],[4,18],[0,126],[-5,67],[-14,74],[-10,21],[-10,70],[0,51],[20,48],[33,53],[24,41],[40,82],[11,26],[-1,38],[-10,35],[-15,71],[-12,98],[5,49],[12,18],[19,11],[24,3],[32,-19],[25,-53],[12,-9],[27,6],[23,13],[23,26],[45,42],[31,49],[8,24],[0,73],[-19,67],[-7,33],[4,21],[19,36],[24,15],[30,10],[31,1]],[[3761,3660],[663,430],[108,66],[376,208],[47,38],[26,28],[41,20],[57,49],[128,74],[-40,26],[-41,8]],[[5126,4607],[38,-2],[36,-11],[22,-17],[25,-35],[15,-30],[10,-50],[31,-55]],[[5303,4407],[28,-58],[-8,-40],[-24,-38],[-21,-42],[-9,-30],[1,-35]],[[5270,4164],[-18,-8],[58,-107],[19,-20],[-65,-66],[-134,-135],[-181,-184],[-89,-64],[-126,-93],[-251,-181]],[[4483,3306],[-447,-324],[-19,-14]],[[4017,2968],[-216,583],[-40,109]],[[4779,4943],[10,-3],[19,-33],[21,-10],[16,12],[8,16],[16,80],[21,59],[4,45],[2,74],[8,31],[5,54],[17,38],[13,10],[61,-5],[25,-5],[79,10],[35,16],[33,29],[19,22],[3,30],[15,53],[1,22],[-12,35],[-52,62],[-82,89],[-15,34],[0,19],[10,17],[17,6],[21,-8],[45,-29],[34,-11],[49,-10],[42,13],[14,24],[4,28],[0,48],[-3,37]],[[5722,6001],[50,5],[23,-16],[21,-56],[28,-13],[33,-21],[21,-76],[74,-362],[77,-342]],[[6049,5120],[-24,-2],[-21,4],[-28,-1],[-103,-21],[-66,-16],[-35,0],[-21,-8],[-99,-27],[-57,-6],[-40,-16],[-21,-25],[-16,-42],[-11,-53],[-19,-48],[-109,-187],[-87,-148],[18,-36],[14,-60],[-21,-21]],[[5126,4607],[-29,1],[-72,-3],[-49,3],[-52,8],[-61,17],[-34,23],[-20,28]],[[4809,4684],[-31,24],[-66,71],[-6,31],[4,34],[27,47],[11,29],[13,17],[18,6]],[[6049,5120],[183,-663]],[[6232,4457],[-480,-367],[-13,-6]],[[5739,4084],[-23,67],[-23,52],[-26,47],[-29,30],[-26,20],[-34,7],[-35,-15],[-138,-113],[-53,-35],[-47,-8],[-20,3],[-15,25]],[[2436,3279],[-4,15],[7,18],[95,38],[11,-47]],[[1861,3265],[541,291],[31,16]],[[2433,3572],[58,-83],[59,-77],[219,63],[10,-29],[-50,-74]],[[2199,3184],[-40,-32],[-48,-10],[-35,-1],[-95,-48]],[[1981,3093],[-120,172]],[[6232,4457],[261,211],[278,202],[0,1],[271,193]],[[6019,3304],[-14,-3],[-18,19]],[[5885,3457],[-6,55],[-2,82],[-18,159],[-11,77],[-40,116],[-32,63],[-23,33],[-14,42]],[[6527,2683],[-34,15],[-54,14],[-68,28],[-84,58],[-61,61],[-53,41],[-41,15],[-43,39],[-39,29],[-21,22]],[[2030,3022],[-49,71]],[[3531,7129],[-28,-25],[-1,-10],[38,-74],[-42,-17],[-33,-20],[-37,-6],[-2,-25],[-16,0],[-3,-38],[-5,-109],[4,-25],[31,-41],[18,-58],[18,-36],[47,-54],[34,-58]],[[3554,6533],[-31,3],[-32,-4],[-16,-14],[-93,-42]],[[3382,6476],[-126,166],[-147,195],[-82,91],[-71,131]],[[2956,7059],[134,110],[106,-92],[149,78],[24,7],[23,0],[17,-8],[35,-33],[23,-6],[64,14]],[[7702,3076],[217,73],[230,83]],[[8149,3232],[5,-30],[8,-6],[7,-36],[-9,-50],[-11,-13],[-22,0],[-28,10],[-13,-9],[-28,-45],[-4,-17],[14,-50],[-18,-12],[-23,6],[-19,-9],[-11,-19],[2,-24],[15,-34],[26,-42],[20,-20],[9,-34],[36,-42],[19,-49],[4,-42],[12,5],[25,-20]],[[8165,2650],[23,-33],[18,-38],[1,-22]],[[6977,1998],[7,126],[-38,54],[78,76],[-39,71],[-7,8],[-65,125],[-82,-8],[-21,18],[-37,-6],[-61,4],[8,-77],[-102,-67]],[[6618,2322],[10,84],[0,98],[-2,37]],[[6626,2541],[-18,79],[-31,36],[-9,5]],[[8165,2650],[17,6],[93,25],[42,32],[63,14],[34,13],[22,15],[116,40],[73,32],[38,9],[30,18],[56,39],[26,10],[37,7],[56,27],[57,23],[18,13],[62,25],[31,21],[50,57],[6,14],[-6,42],[-5,61],[58,3],[37,18],[24,29],[66,37],[64,8],[44,16],[38,3],[33,-18],[36,9],[31,3],[16,-3],[9,-19],[34,-10],[26,-23],[27,-11],[60,57],[50,35],[53,41],[27,12],[45,30],[31,9],[23,-3],[49,-14],[60,-9],[25,-7],[49,-21],[27,-1],[167,33],[44,21]],[[10334,3418],[102,-268],[170,-506],[-88,-55],[-136,-19],[-217,-51],[-74,-16],[-170,-47],[-224,-10],[-190,-69],[-266,3],[-199,-76],[-125,-112],[-153,-3],[-197,-65],[-54,9],[-164,-88],[-200,-116],[-60,-106],[-85,-69],[-129,-22],[-2,4]],[[7873,1736],[-21,63],[-28,50],[-45,41],[-55,57],[-34,39],[-4,21],[1,35]],[[9540,5166],[182,-413],[64,-125],[25,-51],[60,-136],[192,-415],[28,-67]],[[10091,3959],[-302,-95],[-292,-109],[-223,-85]],[[9274,3670],[6,64],[-13,106],[-9,28],[-7,49],[3,50],[-5,54],[10,133],[-1,26],[-19,65],[-11,49],[-21,62],[-6,32],[-17,56],[-12,2],[-22,20],[-41,9],[-29,-6],[-52,-23],[-36,-4],[-60,-39],[-46,1],[-76,-39],[-22,-7],[-49,5],[-20,-1],[-35,-36],[-78,-36],[-49,-12],[-72,1],[-36,-18],[-78,-36],[-27,-1],[-69,5],[-39,-35],[-81,-109],[-24,-16],[-82,-38],[-23,-17],[-240,-197],[-14,-9],[-69,-25],[-36,-17],[-64,-42]],[[7553,4065],[83,16],[118,77],[109,90],[110,105],[80,86],[32,43],[23,63],[73,61],[49,6],[75,3],[95,-26],[38,0],[38,25],[13,42],[36,23],[151,-4],[56,12],[9,7],[27,1],[15,-11],[32,4],[58,32],[28,6],[42,20],[44,59],[1,25],[-19,28],[0,27],[12,16],[36,22],[27,34],[24,0],[16,-15],[42,-10],[41,2],[34,19],[13,14],[39,9],[28,13],[26,30],[5,28],[12,43],[14,14],[47,-22],[41,-1],[12,21],[-2,34],[15,14],[66,-2],[23,18]],[[8149,3232],[259,93],[154,60],[178,71],[534,214]],[[10091,3959],[8,-21],[114,-237],[121,-283]],[[6659,2130],[19,-55],[163,-123],[50,-23]],[[7873,1736],[-5,-2],[-430,-130],[-856,-261],[-82,-27],[-228,-93],[-132,-65],[-97,-135],[-60,-96],[-1,-34],[-531,-277],[-51,-50],[-22,-26],[-38,-95],[-91,-134],[-15,-21],[-81,-19],[-5,-4],[-26,-105],[-262,-162],[-42,41],[-212,216],[-64,67],[-164,164],[-27,35],[-16,10],[-68,71]],[[4267,604],[82,51],[83,75],[32,22],[45,15],[28,15],[34,23],[94,35],[25,20],[74,92],[72,66],[34,12],[45,-5],[19,5],[79,44],[53,48],[25,16],[32,13],[54,14],[32,22],[58,65],[129,98],[12,11],[45,70],[28,28],[32,14],[24,16],[57,55],[151,91],[24,10],[58,9],[22,9],[122,64],[47,17],[136,36],[48,9],[43,18],[178,110],[30,23],[83,74],[17,19],[39,64],[15,12],[52,21]],[[7388,5305],[408,299],[429,315],[206,151],[210,163],[299,210]],[[8940,6443],[408,-871],[61,-129],[131,-277]],[[7236,6774],[113,390],[18,74],[15,82],[77,441],[12,74],[9,98],[2,58],[-1,75]],[[8232,9375],[-122,-194],[26,-16],[17,8],[36,60],[16,9],[-3,-74],[-44,-16],[-8,-18],[46,-188],[4,-11],[25,-4],[-4,-95],[63,-5],[-3,-63],[5,-7],[38,-22],[33,-30],[40,-63],[-14,-22],[45,-63]],[[8428,8561],[-35,-13],[-18,23],[-52,85],[-12,13],[-26,-277],[-63,-1],[-8,-5],[-2,-39],[-49,-2],[5,-201],[54,-9],[34,0],[59,8],[60,-1],[91,-4],[58,4],[90,12],[77,0],[35,-3],[48,-12],[74,-11]],[[8848,8128],[103,-18],[26,1],[77,46],[38,12],[2,-10],[75,-273],[-61,-72],[-2,-11],[20,-43],[0,-36],[7,-12],[13,-58],[0,-14]],[[9146,7640],[-405,-312],[-24,-21],[-145,-110],[38,-71],[243,-498],[87,-185]],[[7042,5064],[171,184],[23,32],[19,49],[5,30],[14,117],[1,49],[-8,42],[-24,51],[-54,78],[-23,40],[-21,54],[-15,62],[-10,79],[-6,29],[-30,91],[-5,29],[1,50],[7,32],[55,205],[12,51],[35,180],[22,91],[25,85]],[[4779,4943],[-8,10],[-254,210],[-24,19],[-319,265],[-73,76],[-75,101]],[[4026,5624],[-67,86],[-68,92],[-335,444],[-174,230]],[[3554,6533],[12,-13],[14,1],[41,24],[61,63],[13,5],[101,5],[71,29],[25,14],[90,41],[8,2],[46,35],[48,18],[26,4],[51,-7],[22,7],[14,15],[12,26],[-1,26],[12,16],[-30,14],[-34,-15],[-22,4],[-19,51],[-24,47],[-33,37],[-10,16],[-28,29],[-9,46],[-13,30],[-2,25],[-13,70],[-90,39],[-20,6],[-31,-4],[-240,-80],[-71,-30]],[[2956,7059],[-247,460]],[[2709,7519],[67,37],[255,143],[-4,29],[-6,165],[495,279],[99,67],[207,12],[158,17],[344,202],[144,90],[203,119],[49,32],[175,99],[472,274],[12,7]],[[8428,8561],[27,33],[30,3],[37,26],[21,-16],[26,-37],[35,-18],[57,-10],[30,-2],[27,-14],[39,14],[40,-6],[14,23],[25,1],[11,28],[-1,129],[8,25],[17,9],[28,-14],[18,-3],[27,18],[2,66],[64,-6],[14,-4]],[[9024,8806],[-38,-104],[-29,-108],[-27,-115],[-82,-351]],[[9148,9963],[57,-89]],[[9205,9874],[-15,-49],[16,-54],[20,-81],[-7,-49],[-14,-76],[4,-67],[-26,-70],[-6,-24],[5,-85],[-4,-34],[-13,-36],[-4,-24],[3,-28],[-68,-197],[-28,-77],[6,-49],[-7,-32],[-39,-38]],[[9028,8804],[-4,2]],[[9205,9874],[205,-325],[217,-336],[197,-306],[10,-17]],[[9834,8890],[-20,-10],[-20,-23],[-58,-42],[-20,-21],[-37,-27],[-14,-6],[-77,-15],[-74,-1],[-77,-42],[-146,-82]],[[9291,8621],[-22,28],[-89,41],[-74,36],[-25,20],[-53,58]],[[7236,6774],[-46,-24],[-74,-19],[-53,-2],[-41,-15],[-23,-16],[-35,-42],[-12,-6],[-58,2],[-21,-77],[-19,-50],[-90,-197],[-11,22],[9,22],[-5,15],[-31,1],[-30,15],[-28,39],[-30,18],[-36,5],[-20,16],[-39,-5],[-26,-19],[-10,-14],[-12,0],[-10,-21],[-9,-48],[-7,-22],[-24,-31],[-56,-7],[-16,22],[3,18]],[[6618,2322],[-1,-12],[-21,-36],[-1,-28],[10,-29],[54,-87]],[[4267,604],[-165,173],[-334,354],[-28,31]],[[3740,1162],[623,391],[242,165],[265,183],[182,128],[242,195],[290,68],[186,45],[251,57],[165,40],[122,28],[215,52],[103,27]],[[2550,3105],[57,15],[30,-163]],[[2637,2957],[11,-65],[-67,-19],[-4,21],[-33,-9],[-8,42],[18,5],[-3,17],[-22,8],[-8,47],[-61,-18],[-6,2],[-10,55],[101,29],[5,33]],[[2474,3160],[36,-8],[20,-28],[20,-19]],[[2637,2957],[33,12],[25,-15],[21,-50],[32,-16],[23,1],[41,15],[36,26],[74,27],[42,27],[16,7],[15,-7],[8,-18],[19,-123],[10,-33],[13,-16],[21,-8],[57,-1],[104,23],[19,-1],[25,-17],[19,-46],[41,-31],[29,-10],[20,-24],[13,-41],[18,-27],[27,-28],[6,-17]],[[3444,2566],[-157,-111],[-465,-344]],[[2822,2111],[-23,22],[-230,251],[-77,74],[-231,237],[-154,218]],[[5809,3541],[-5,42],[2,46],[-12,101],[-1,46],[-6,23],[-17,43],[-67,-19],[-19,0],[-43,-15],[-27,-30],[-24,-40],[-25,-21],[-46,-32],[-49,-27],[-47,-38],[-11,-33],[5,-20],[16,-20],[4,-30],[10,-29],[-41,-26],[-84,-63],[-30,-17],[-120,-29],[-69,-29],[-41,-35],[-31,-11],[31,-71],[14,-23],[0,-34],[-23,-26],[8,-35],[27,-45],[16,-63],[-80,-14],[-62,-31],[-34,-36],[-23,-37],[-37,-39]],[[4868,2824],[-26,47],[-31,36],[-72,72],[-31,19],[-32,-10],[-22,14],[-40,38],[-27,6],[-40,-4],[-59,95],[-7,33],[20,27],[1,24],[-7,55],[-12,30]],[[9291,8621],[64,-119],[31,-64],[46,-89],[20,-46],[69,-140],[27,-45],[4,-14],[0,-40],[-19,-53],[-11,-19],[-2,-33],[12,-30]],[[9532,7929],[-81,-61],[-192,-142],[-113,-86]],[[236,6068],[0,-52],[28,-121],[14,-90],[15,-57],[40,-9],[100,22],[109,38],[25,2],[95,-20],[34,-5],[53,8],[57,28],[29,0],[15,-11],[25,3],[32,-3],[34,24],[28,3],[24,-55],[21,1],[82,42],[-12,28],[-51,23],[-30,31],[-17,48],[21,6],[8,26],[-1,33],[-44,-9],[-39,26],[-34,-40],[-19,-10],[-24,7],[23,16],[15,27],[-23,63],[-4,39],[44,63],[12,14],[56,41],[54,18],[63,6],[81,12],[24,15],[-47,15],[-27,31],[-56,8],[-17,18],[-15,-3],[-40,3],[-43,-27],[-15,5],[-18,-31],[-15,-8],[-64,2],[-28,-6],[-21,-18],[-41,0],[-45,-9],[-8,4],[-30,35]],[[669,6318],[301,176],[263,157],[132,77],[762,444],[94,57],[191,115],[197,121],[46,23],[54,31]],[[4026,5624],[-582,-393],[-429,-291],[-65,-43]],[[2950,4897],[-336,-229],[-380,-257],[-83,-57],[-50,-33],[-383,-260],[-275,-184]],[[1443,3877],[-104,147],[-385,541],[-58,91],[-39,46],[-191,271],[-286,407],[-95,136],[-154,212],[-78,115],[-53,85],[200,110],[36,30]],[[1555,6531],[12,-149],[174,22],[65,10],[57,28],[6,143],[-311,-48],[-3,-6]],[[236,6068],[61,35],[372,215]],[[9834,8890],[77,-131],[41,-60],[101,-142],[23,-40],[86,-118],[2,-6],[-121,-93],[-105,-74],[-151,-113],[-96,-65],[-159,-119]],[[4809,4684],[-49,-19],[-73,-6],[-30,-28],[-8,-39],[-28,-18],[-26,-11],[-51,6],[-37,-22],[-21,0],[-26,9],[-57,-30],[-17,2],[-21,25],[-33,-2],[-14,5],[-23,-8],[-25,7],[-35,-38],[-27,3],[1,-21],[12,-57],[-88,-32],[-85,-21],[-109,-32],[-78,-18],[-38,-14],[-5,22],[-51,-21],[-24,37],[-6,23],[-20,1],[-29,-8],[-22,-25],[-5,-21],[-25,-32]],[[3636,4301],[-29,-11],[-62,-52],[-21,-3],[-21,-13],[-58,-1],[-31,4],[-80,-7],[-38,11],[-25,15],[-22,-1],[-62,-39],[-56,-58],[-57,-25],[-21,55],[-25,24],[10,38],[-4,21],[-18,15],[-9,43],[-10,16],[-9,37],[11,32],[9,80],[25,31],[4,44],[-26,49],[0,50],[-7,26],[1,75],[-16,70],[-31,52],[-8,18]],[[3636,4301],[15,-61],[-26,-13],[18,-63],[18,-88],[0,-24],[-8,-31],[-31,-62],[-16,-42],[-26,-45],[-34,-26],[-34,-7],[-40,-21],[-56,-20],[-42,-18],[-30,-6],[-40,-2],[-157,-89],[-36,-29],[-33,-42]],[[3078,3612],[-70,220],[-220,-95],[-32,-15],[-180,-79],[-143,-71]],[[1861,3265],[-52,73],[-54,87],[-145,213],[-167,239]],[[3761,3660],[-159,-99],[-423,-256],[-101,307]],[[5158,2528],[56,40],[325,247]],[[3740,1162],[-55,62],[-128,132],[-117,116],[-20,16]],[[3420,1488],[189,116],[58,34],[61,29],[362,160],[41,23],[44,28],[129,90],[190,127],[284,194],[154,105],[34,21],[192,113]],[[3444,2566],[365,258],[121,80],[87,64]],[[4868,2824],[-5,-6],[36,-28],[24,-27],[15,-6],[46,4],[11,-12],[31,-71],[10,-26],[22,-2],[39,40],[14,-12],[15,-34],[-3,-37],[24,-47],[11,-32]],[[3420,1488],[-81,84],[-416,439],[-101,100]]],"transform":{"scale":[0.000049353479162738106,0.000029994581169564392],"translate":[-75.997636,40.735442]},"objects":{"Geometry\\42-025":{"type":"GeometryCollection","geometries":[{"arcs":[[0,1,2,3,4,5]],"type":"Polygon","properties":{"GEOID":"420250209005"}},{"arcs":[[6,7,8,9,10]],"type":"Polygon","properties":{"GEOID":"420250204003"}},{"arcs":[[11,12,13,14,-8]],"type":"Polygon","properties":{"GEOID":"420250204004"}},{"arcs":[[15,16,17,18,19,20]],"type":"Polygon","properties":{"GEOID":"420250206001"}},{"arcs":[[-21,21,22]],"type":"Polygon","properties":{"GEOID":"420250206002"}},{"arcs":[[-22,-20,23,24,25]],"type":"Polygon","properties":{"GEOID":"420250206003"}},{"arcs":[[26,27,28]],"type":"Polygon","properties":{"GEOID":"420250207003"}},{"arcs":[[29,30,31]],"type":"Polygon","properties":{"GEOID":"420250209001"}},{"arcs":[[32,-32,33,34,35]],"type":"Polygon","properties":{"GEOID":"420250209002"}},{"arcs":[[-36,36,-2,37]],"type":"Polygon","properties":{"GEOID":"420250209003"}},{"arcs":[[-37,-35,38,-3]],"type":"Polygon","properties":{"GEOID":"420250209004"}},{"arcs":[[-27,39,40,41,42,43,44,45,46]],"type":"Polygon","properties":{"GEOID":"420250207001"}},{"arcs":[[47,48,49,50,51,52]],"type":"Polygon","properties":{"GEOID":"420250201031"}},{"arcs":[[53,54,55,56]],"type":"Polygon","properties":{"GEOID":"420250201062"}},{"arcs":[[-56,-48,57,58]],"type":"Polygon","properties":{"GEOID":"420250201061"}},{"arcs":[[59,60,61,62,63,64]],"type":"Polygon","properties":{"GEOID":"420250201023"}},{"arcs":[[65,-52,66,67,-61,68,69]],"type":"Polygon","properties":{"GEOID":"420250201021"}},{"arcs":[[-68,70,71,72,-62]],"type":"Polygon","properties":{"GEOID":"420250201022"}},{"arcs":[[-13,73]],"type":"Polygon","properties":{"GEOID":"420250204005"}},{"arcs":[[74,75,-14,-74,-12,-7,76,77]],"type":"Polygon","properties":{"GEOID":"420250204001"}},{"arcs":[[-72,78,-40,-29,79,-18,80]],"type":"Polygon","properties":{"GEOID":"420250207002"}},{"arcs":[[-19,-80,-28,-47,81,-24]],"type":"Polygon","properties":{"GEOID":"420250207004"}},{"arcs":[[-11,82,-77]],"type":"Polygon","properties":{"GEOID":"420250204002"}},{"arcs":[[83,84,85,86]],"type":"Polygon","properties":{"GEOID":"420250202013"}},{"arcs":[[-45,87,88,89,-30,-33,-38,-1,90,91,92]],"type":"Polygon","properties":{"GEOID":"420250208013"}},{"arcs":[[-4,-39,-34,-31,-90,93,94,95]],"type":"Polygon","properties":{"GEOID":"420250208012"}},{"arcs":[[96,97,98,-43,99]],"type":"Polygon","properties":{"GEOID":"420250208023"}},{"arcs":[[100,-98,101,-94,-89]],"type":"Polygon","properties":{"GEOID":"420250208011"}},{"arcs":[[-99,-101,-88,-44]],"type":"Polygon","properties":{"GEOID":"420250208022"}},{"arcs":[[102,-5,-96,103,104]],"type":"Polygon","properties":{"GEOID":"420250205022"}},{"arcs":[[105,106,-100,-42]],"type":"Polygon","properties":{"GEOID":"420250208021"}},{"arcs":[[107,-49,-55,108,109,110,111,-106,-41,112]],"type":"Polygon","properties":{"GEOID":"420250201083"}},{"arcs":[[-58,-53,-66,113,114,-85,115,-87,116,117]],"type":"Polygon","properties":{"GEOID":"420250202011"}},{"arcs":[[118,119,-110]],"type":"Polygon","properties":{"GEOID":"420250201081"}},{"arcs":[[-54,120,121,122,-119,-109]],"type":"Polygon","properties":{"GEOID":"420250201082"}},{"arcs":[[-122,123,124,125]],"type":"Polygon","properties":{"GEOID":"420250201072"}},{"arcs":[[-50,-108,126]],"type":"Polygon","properties":{"GEOID":"420250201033"}},{"arcs":[[-127,-113,-79,-71,-67,-51]],"type":"Polygon","properties":{"GEOID":"420250201032"}},{"arcs":[[-92,127,-105,128,129]],"type":"Polygon","properties":{"GEOID":"420250205021"}},{"arcs":[[130,131]],"type":"Polygon","properties":{"GEOID":"420250203022"}},{"arcs":[[132,-132,133,134,135,-9]],"type":"Polygon","properties":{"GEOID":"420250203023"}},{"arcs":[[-63,-73,-81,-17,136,137]],"type":"Polygon","properties":{"GEOID":"420250205011"}},{"arcs":[[-123,-126,138,139,-111,-120]],"type":"Polygon","properties":{"GEOID":"420250201073"}},{"arcs":[[140,141,-117,-86,-115,142,143,144],[145]],"type":"Polygon","properties":{"GEOID":"420250202021"}},{"arcs":[[146,-141]],"type":"Polygon","properties":{"GEOID":"420250202023"}},{"arcs":[[-125,147,-139]],"type":"Polygon","properties":{"GEOID":"420250201071"}},{"arcs":[[-143,-114,-70,148,149]],"type":"Polygon","properties":{"GEOID":"420250203011"}},{"arcs":[[-146]],"type":"Polygon","properties":{"GEOID":"420250202022"}},{"arcs":[[-144,-150,150,151,-75,152]],"type":"Polygon","properties":{"GEOID":"420250203012"}},{"arcs":[[-149,-69,-60,153,-151]],"type":"Polygon","properties":{"GEOID":"420250203013"}},{"arcs":[[-116,-84]],"type":"Polygon","properties":{"GEOID":"420250202012"}},{"arcs":[[154,-25,-82,-46,-93,-130,155,156]],"type":"Polygon","properties":{"GEOID":"420250205012"}},{"arcs":[[-91,-6,-103,-128]],"type":"Polygon","properties":{"GEOID":"420250208014"}},{"arcs":[[-135,157,-64,-138,158,-157,159]],"type":"Polygon","properties":{"GEOID":"420250205013"}},{"arcs":[[-137,-16,-23,-26,-155,-159]],"type":"Polygon","properties":{"GEOID":"420250205014"}},{"arcs":[[-154,-65,-158,-134,-131,-133,-15,-76,-152]],"type":"Polygon","properties":{"GEOID":"420250203021"}}]}}}