{"type":"Topology","arcs":[[[3231,10338],[86,27],[117,40],[119,-148],[-30,-48]],[[3523,10209],[-97,-166],[-92,-105],[-23,-28]],[[3311,9910],[-85,80],[-50,-84]],[[3176,9906],[-146,138],[-13,-6]],[[3017,10038],[-18,17],[50,85],[34,52],[74,121],[74,25]],[[8294,6399],[-1,-46]],[[8293,6353],[-2,-123],[65,-3],[0,-21],[11,-70]],[[8367,6136],[-33,-1],[7,-24]],[[8341,6111],[-16,6],[-13,-8],[-9,26],[-24,-2]],[[8279,6133],[-40,-2],[0,18],[-30,-2],[-3,81]],[[8206,6228],[-2,54],[51,3],[-4,107],[-9,20],[27,-1],[7,-10],[18,-2]],[[7746,6198],[99,6],[-1,36],[28,2],[0,18],[87,7],[0,18],[29,3],[-2,39],[26,16],[15,1]],[[8027,6344],[2,-54]],[[8029,6290],[2,-57]],[[8031,6233],[-43,-3],[0,-16],[-26,-4],[-88,-4],[1,-38]],[[7875,6168],[-106,-8],[-35,0],[-17,35],[29,3]],[[1546,19001],[70,24],[32,1],[278,123],[472,57],[1,11],[28,4],[45,-3],[55,4],[22,11],[24,19],[120,49],[614,261]],[[3307,19562],[5,-33],[29,-60],[24,-88],[9,-48],[-1,-28],[-21,-101],[-13,-40],[-33,-53],[-44,-58],[-19,-34],[-47,-73],[-15,-42],[-24,-115],[-8,-58],[8,-64],[12,-241],[15,-124],[6,-98],[0,-55],[5,-50],[-13,-35],[3,-60],[-6,-285],[-5,-24]],[[3174,17695],[-41,7],[-145,-23],[-34,3],[-20,10],[-54,39],[-22,-27],[-61,-29],[-22,1],[-51,-16],[-34,14],[-51,-1],[-20,34],[-28,6],[-17,24],[-7,24],[-34,22],[-34,16],[-16,26],[-23,2],[-21,-7],[-26,2],[-11,9],[-18,-14],[-44,-10],[-27,22],[-36,3],[-9,14],[-11,-9],[-20,10],[-6,14],[-86,30],[-19,-9],[-9,22],[-29,-11],[-1,-16],[-21,1],[-5,17],[-21,3],[-15,-24],[-16,-7],[-7,16],[-28,-42],[-36,16],[-19,-21],[-3,-12],[-37,-21],[-7,5],[-46,1],[-2,24],[11,101],[16,54],[14,30],[13,8],[-24,96],[-14,41],[-24,31],[-15,27],[-5,36],[-11,21],[-16,16],[-35,73],[-16,-10],[3,49],[6,3],[21,45],[-1,30],[-60,230],[-47,77],[-31,63],[-19,69],[2,19],[-36,55],[-10,4]],[[8230,9311],[4,60],[9,33],[23,31],[39,22],[13,14],[12,31],[-4,39]],[[8326,9541],[470,-2],[9,3],[438,9],[18,-17],[29,-39],[8,-25],[-3,-36],[7,-25],[-15,-24],[-8,-23],[-30,-17],[-11,-23],[-51,-75],[2,-40],[-11,-16],[0,-63],[26,-44],[8,-34],[2,-39],[-3,-25],[7,-17],[2,-61],[19,-38],[30,-3],[26,-11],[35,-26],[35,-63],[5,-16],[11,-65],[1,-51],[33,-50],[8,-18],[-5,-23],[-20,-30],[10,-14],[0,-23],[-11,-38],[-19,-20],[-16,4],[-49,-25],[-41,-10],[-31,-27],[-16,-22]],[[9225,8339],[-16,3],[-27,-27],[-20,-9],[-38,-30],[-56,-7],[-53,-18],[-45,-33],[-37,61],[-12,15],[-66,67],[-24,17],[-57,15],[-27,11],[-31,21],[-30,9],[-46,-5],[-39,9],[-51,7],[-23,19],[-8,17],[-30,109],[-23,43]],[[8466,8633],[-65,112],[-143,237],[-4,13],[-17,88],[-14,97],[-3,34],[10,97]],[[3399,9349],[2,-66],[-5,-38],[-8,-41],[-30,-85],[-29,-88]],[[3329,9031],[-22,5],[-69,33],[-8,1]],[[3230,9070],[7,69],[9,66],[9,53],[15,49],[23,38],[36,33],[23,13],[47,-42]],[[3294,8924],[35,107]],[[3329,9031],[38,-18],[124,-63],[17,-16],[-25,-36],[12,-9]],[[3495,8889],[-33,-48],[-130,64]],[[3332,8905],[-38,19]],[[11075,6709],[20,7]],[[11095,6716],[11,-24],[12,2],[17,-98],[-115,-33]],[[11020,6563],[-21,117],[76,29]],[[11260,6777],[61,23],[41,-89],[42,-45],[23,-46],[4,-20]],[[11431,6600],[-133,-36]],[[11298,6564],[-34,188]],[[11264,6752],[-4,25]],[[2881,8488],[174,-24]],[[3055,8464],[-7,-37],[-36,-140],[2,-28],[-23,-103],[9,0],[36,44],[34,20],[25,22],[28,16],[19,17],[17,32],[30,31],[4,24],[-21,23],[-5,21],[5,36],[17,23],[53,33],[19,4],[84,8]],[[3345,8510],[67,18],[121,29],[46,1],[37,5],[12,9],[11,20],[-31,147]],[[3608,8739],[66,10],[8,-12]],[[3682,8737],[11,-11],[28,12],[38,-1],[36,-8],[45,-3],[66,-11],[42,-11],[-9,60],[15,27],[67,44],[50,35],[39,42],[55,35],[21,9],[125,38],[58,14],[45,-3],[64,27],[57,12],[27,2],[23,-5],[27,11],[77,4],[39,-5],[28,9],[123,7],[26,7],[49,-1],[59,12],[54,-2],[62,8],[33,10],[55,-10],[42,-3]],[[5259,9088],[5,-330]],[[5264,8758],[-52,7],[-74,4],[-42,5],[-72,19],[-52,1],[-27,6],[-37,18],[-78,44],[-25,8],[-31,-5],[-109,-36],[-3,-4],[-436,-258],[-71,-23],[-132,-47]],[[4023,8497],[-299,-108],[2,-27],[-623,-304],[-116,-124],[48,-114],[152,72],[18,12],[152,-234]],[[3357,7670],[-180,-186],[170,-116],[-193,-185],[-11,18],[-673,-158],[-22,27],[-15,27],[-33,7],[-9,18],[-33,23],[-227,3]],[[2131,7148],[67,154],[45,92],[24,53],[38,69],[28,41],[23,42],[43,52],[28,43],[21,23],[47,62],[24,37],[26,46],[23,50],[12,20],[41,54],[58,96],[26,55],[34,61],[31,45],[26,24],[36,51],[16,10],[12,50],[-3,16],[9,29],[-6,15],[21,50]],[[1831,14715],[174,-8],[6,-12],[43,-3],[1,63],[129,4],[2,16],[20,-5],[11,23],[2,38],[36,-1],[23,-84],[-25,-12],[30,-118],[-53,-15]],[[2230,14601],[-68,-21],[-5,-56],[-6,-34],[-14,-37],[-21,-40],[-6,-21],[0,-36],[-41,-8],[-100,9],[-8,-112]],[[1961,14245],[-7,-31],[-22,-89],[-5,-8]],[[1927,14117],[-80,-119],[-12,-38],[-4,-67]],[[1831,13893],[-5,-68]],[[1826,13825],[-118,1]],[[1708,13826],[12,105],[7,22],[4,44],[10,54],[14,139],[13,35],[-5,26],[11,35],[12,56],[23,59],[16,59],[11,69],[2,51],[-1,52],[-6,83]],[[1453,16627],[97,8],[129,9],[-21,37],[-12,-10],[-42,73],[100,5],[3,4],[67,43],[7,-31],[31,-51],[76,48]],[[1888,16762],[-12,-36],[-11,-52],[-13,-14],[-87,-57],[14,-37],[43,-97],[-45,-41],[37,-60],[-69,-67]],[[1745,16301],[-21,5],[-23,16],[-65,27],[-14,-2],[-25,35],[-53,96],[-42,67],[-13,16],[-36,66]],[[1888,16762],[11,6],[5,-262],[10,-57],[11,-46],[47,53],[12,-2],[0,-21],[-51,-54],[69,-235],[-114,-70]],[[1888,16074],[-31,63],[4,7],[-84,123],[-9,18],[-23,16]],[[1831,13893],[231,19],[-9,20],[-27,71],[24,-11],[73,-24]],[[2123,13968],[-8,-43],[6,-121],[3,-11],[84,-93],[44,-50],[10,-22],[1,-22]],[[2263,13606],[-3,-8],[-128,81],[-24,20],[-34,-35],[-8,-37],[-3,-41],[-13,-91],[21,2],[20,-92],[-35,-13],[8,-20],[17,6],[39,-77],[-17,-65],[-55,-62],[15,-18],[20,-52],[-5,-19],[24,-31],[28,20],[66,-49],[-15,-7],[48,-65],[-13,-13],[45,-65],[11,12],[16,-26],[-3,-27]],[[2285,12834],[-3,-44],[-173,-165],[49,-86],[3,-72],[-102,21],[2,19],[-17,3],[2,74],[-55,3],[2,-31],[-91,55],[-1,100],[119,16],[-5,14],[84,83],[-10,14],[-17,-10],[-25,3],[-9,52],[-21,0],[-9,46],[-33,-2],[-3,39],[-7,22],[15,4],[-20,30],[6,7],[-39,64],[-4,41],[-15,-4],[-2,32],[-14,-1],[-1,67],[30,2],[-3,25],[26,20],[-53,5],[4,78],[7,66],[12,71],[34,181],[86,4],[-3,87],[-55,54],[-12,-60],[-35,1],[15,67],[-118,-4]],[[3357,7670],[109,-168],[210,-183],[40,-2],[202,-14],[68,-446],[59,-502],[63,-258],[49,-190]],[[4157,5907],[-134,-51],[-101,-29],[-71,-19],[-124,-30],[-493,-294],[-370,-267],[-35,-36],[-93,-100],[-64,-75],[-207,-234]],[[2465,4772],[-17,3],[-132,6],[-388,13]],[[1928,4794],[-3,78],[6,45],[-5,31],[-12,48],[4,22],[11,26],[11,129],[-2,64],[-11,100],[-6,95],[8,1],[2,55],[-6,67],[-10,50],[-12,33],[-2,46],[-10,68],[-5,118],[-8,63],[11,40],[5,64],[0,45],[-4,14],[10,62],[18,93],[6,25],[16,90],[4,52],[34,150],[30,102],[18,77],[46,104],[18,55],[5,32],[-2,18],[-16,33],[-2,34],[22,59],[34,66]],[[2230,14601],[37,-170],[9,-130],[-2,-37]],[[2274,14264],[-166,-9]],[[2108,14255],[-147,-10]],[[2123,13968],[-8,146]],[[2115,14114],[0,4]],[[2115,14118],[45,6],[24,-1],[63,12],[32,16]],[[2279,14151],[33,6],[-2,36],[52,1],[7,37],[30,2],[45,-149],[2,-11],[-162,-13],[5,-52],[1,-57],[7,-143],[-46,-3],[2,-40],[41,10],[32,13]],[[2326,13788],[4,-55],[51,4],[8,-39],[-28,-6],[-28,-92],[-70,6]],[[3055,8464],[29,124]],[[3084,8588],[10,0],[30,91],[77,-39]],[[3201,8640],[57,-30],[46,142],[51,-26],[16,49]],[[3371,8775],[47,-23]],[[3418,8752],[-25,-78],[-48,-147],[0,-17]],[[3418,8752],[75,-37],[7,21],[34,-1],[74,4]],[[2274,14264],[5,-113]],[[2115,14118],[-7,137]],[[2115,14114],[-63,-4],[-31,5],[-52,11],[-15,-37],[-27,28]],[[1913,15457],[148,5],[160,7],[242,5],[216,1],[255,3]],[[2934,15478],[221,2],[201,2],[182,1],[148,2],[170,0],[187,108],[142,81]],[[4185,15674],[-37,-96],[-58,-143],[-66,-154],[-17,-48],[-9,-57],[-4,-107],[-11,-67],[-25,-124],[-101,-311],[53,-126],[-181,-246],[-36,-83]],[[3693,14112],[-80,-19],[-319,-79],[-604,-146],[-210,-48]],[[2480,13820],[-154,-32]],[[1831,14715],[-1,87],[5,54],[19,72],[23,24],[5,40],[27,69],[16,58],[12,57],[4,48],[1,59],[-7,49],[-13,56],[-9,69]],[[2985,16929],[9,-130],[5,-125],[6,-97],[7,-160],[-37,-213],[-4,-52],[-37,-674]],[[1913,15457],[1,42],[-4,34],[1,109],[-3,22],[1,40],[11,61],[5,47],[-2,35],[-17,63],[2,82],[-2,26],[-18,56]],[[1888,16762],[10,34],[30,125],[11,28],[13,15],[28,12],[155,11],[36,-4],[92,-32],[31,-14],[46,-31],[22,-11],[26,-3],[188,18],[296,22],[30,-1],[30,-10],[41,-36],[12,44]],[[4023,8497],[39,-68],[23,-27],[45,-34],[60,-29],[20,-14],[21,-35],[17,-75],[26,-95],[67,-216],[32,-115],[18,-45],[37,-55],[23,-48],[12,-39],[8,-53],[0,-43],[-8,-51],[-9,-32],[-36,-103],[-55,-228],[-21,-126],[-9,-40],[-6,-46],[4,-65],[5,-36],[14,-43],[86,-188],[17,-45],[9,-45],[8,-22],[25,-31],[21,-13],[33,-6],[89,19],[21,-3],[154,-62],[26,-6],[239,-32],[77,-7],[111,7],[19,-1]],[[5285,6301],[1,-79]],[[5286,6222],[-172,-46],[-373,-95],[0,-1]],[[4741,6080],[-17,-3],[-245,-56],[-106,-26],[-216,-88]],[[8295,6426],[-1,-27]],[[8206,6228],[-44,-1],[-6,-6],[2,-37],[-30,-2]],[[8128,6182],[-4,109]],[[8124,6291],[30,7],[-3,61],[79,68],[65,-1]],[[8029,6290],[53,3],[13,-4],[29,2]],[[8128,6182],[-8,-21],[-3,-38]],[[8117,6123],[-79,-6],[-3,40]],[[8035,6157],[-4,76]],[[5558,11354],[47,-152],[36,-43],[72,-17]],[[5713,11142],[278,-69],[11,37],[63,21],[-1,19],[36,13],[1,35],[24,1],[85,12],[60,12],[175,144],[342,53],[65,31],[45,2],[92,61],[-46,81],[70,300]],[[7013,11895],[64,-97],[107,-141],[35,-41],[44,-37],[25,-11],[96,-34],[62,-15],[65,-11],[84,-8],[106,2],[67,-15],[99,-7],[102,7],[88,3],[51,-6],[29,-7],[54,-21],[-6,-64],[-6,-33],[-16,-25],[1,-21],[-8,-17],[-4,-29],[10,-50],[-4,-38],[-31,-52],[-11,-50],[0,-15],[-14,-21],[-9,-57],[-22,-29],[-26,-46],[-33,-50],[-12,-33],[-14,-54],[-13,-24],[7,-32],[-17,-29],[-4,-22],[4,-58],[8,-12],[0,-21],[20,-35],[1,-37],[15,-27],[3,-27],[-11,-27],[0,-29],[12,-24],[3,-42],[14,-45],[42,-97],[25,-53],[15,-6],[12,-27],[-4,-24],[10,-70],[-3,-30],[13,-27],[18,-62],[0,-23],[21,-52],[6,-53],[11,-18],[42,-39],[-1,-24],[15,-33],[24,-35],[3,-16],[41,-44]],[[8318,9548],[0,-6],[-346,-103],[-57,-17],[-23,-1],[-282,29]],[[7610,9450],[-844,114],[-362,23],[-233,-2],[-156,-7],[-47,-8],[-711,-145]],[[5257,9425],[28,342],[2,111],[23,52],[13,148],[24,106],[28,154],[36,25],[4,29],[-8,14],[-52,15],[-16,28],[3,54],[9,28],[-18,24],[-7,23],[-12,68],[-11,12],[-15,0],[-17,42],[-6,43],[-15,30],[-14,1],[-27,34],[3,11],[-10,24],[-27,10],[-40,-10],[-8,-26],[-53,-38],[-25,6],[-27,-2],[-45,-14],[-30,12],[-17,23],[-14,28],[-34,33],[-11,0],[-61,54]],[[4810,10919],[70,95],[41,45],[77,54],[62,28],[93,36],[76,20],[96,28],[62,21],[67,31],[28,16],[76,61]],[[7615,8370],[-18,6],[-10,17],[-23,20],[-13,27],[-5,34],[5,88],[23,23],[4,59],[9,110],[-3,37],[18,18],[10,21],[2,25],[-2,74],[-11,31],[-4,29],[-23,71],[17,189],[19,201]],[[8318,9548],[8,-7]],[[8230,9311],[-158,-78],[-46,-22],[-11,-15],[-30,-99],[-41,6],[-4,-86],[-7,-201],[-6,-105],[89,39],[46,-148],[12,5],[13,-24],[32,-10],[88,-35],[14,0],[102,44],[86,32],[57,19]],[[9225,8339],[-13,-27],[11,-45],[3,-32],[-8,-26],[2,-22],[-7,-29],[17,-64],[12,-30],[11,-7],[16,-26],[7,-26],[-5,-33],[6,-47],[7,-17],[17,-9],[-2,-45],[29,-52],[3,-27],[-3,-74],[10,-33]],[[9338,7668],[-167,-35],[-27,-14],[-28,-7],[-67,-25],[-53,-26],[-137,-58],[-88,-32],[-102,-39],[-39,-27],[-64,-24],[-58,-31],[-30,-6],[-51,-23],[-113,-43],[-113,-45],[-46,-15],[-59,-24],[-36,-18],[-52,-21],[-108,-47],[-55,-22],[-205,-53]],[[7640,7033],[-6,63],[-8,33],[-19,33],[-2,34],[10,40],[-5,80],[8,42],[17,50],[6,33],[-40,83],[-11,119],[11,26],[18,72],[4,40],[-9,55],[7,36],[-65,39],[-13,12],[-10,45],[9,31],[23,21],[29,7],[20,23],[10,21],[4,32],[18,95],[0,43],[-5,95],[-10,27],[-16,7]],[[3142,9396],[36,78],[66,117],[45,66],[103,122],[73,80],[71,106],[27,31],[75,68]],[[3638,10064],[28,22],[82,38],[22,14],[23,21],[73,84],[122,106],[76,46],[40,17],[62,32],[9,9],[65,33],[40,17],[102,35],[50,20],[84,25],[37,22],[41,29],[87,89],[50,65],[79,131]],[[5257,9425],[0,-63],[2,-274]],[[3682,8737],[148,60],[-12,59],[-2,115],[-58,5],[-31,-1],[-56,-17],[-25,-23]],[[3646,8935],[14,59],[-77,31],[17,28],[-13,11],[-60,38],[-10,31],[-10,6],[17,91],[2,41],[22,70],[-22,11],[-46,-27],[-15,0],[-9,-28],[-57,52]],[[3230,9070],[-9,-66],[-19,-59],[-26,-57],[-12,-37]],[[3164,8851],[-33,-108],[-8,-34],[-17,-50],[-22,-71]],[[2881,8488],[20,95],[22,60],[15,33],[14,43],[-3,6],[22,65],[9,54],[42,137],[29,80],[36,105],[14,34],[41,196]],[[5264,8758],[3,-386],[1,-110],[6,-532],[0,-224],[3,-93],[0,-111],[1,-167],[1,-278],[2,-167],[1,-201],[3,-188]],[[1560,3054],[306,-87],[217,144],[39,-34],[169,-147],[59,-11],[39,-2],[32,-6],[59,-28],[36,-11],[16,-16],[1,-17],[-14,-32],[-7,-31],[19,-29],[4,-14]],[[2535,2733],[15,-43],[0,-59],[-10,-36],[-41,-71],[-23,-98],[-22,-141],[-1,-43],[58,-235],[26,-56],[-3,-47],[-16,-35],[-31,-42],[-23,-18],[-33,-16],[-38,-26],[-10,-3],[0,-51],[4,-165],[-44,-20],[6,-45],[-7,-58],[-13,-37],[-2,-24],[6,-70],[-15,-91],[-14,-32],[-100,-124],[-63,-88],[-35,-43],[-26,-17],[-117,-71],[-6,-13],[-6,-49]],[[1951,766],[-31,8],[-35,5],[-51,14],[-43,28],[-18,3],[-31,-17],[-18,-19],[-48,-71],[-12,-33],[-4,-49],[5,-35],[-2,-90],[-8,-26],[-24,-16],[-25,-26],[-10,-3],[-62,4],[-72,11],[-44,10],[-15,7],[-30,25],[-18,2],[-53,-11],[-43,-32],[-29,-17],[-24,-45],[-1,-22],[36,-48],[6,-18],[-1,-39],[-11,-31],[-16,-8],[-39,-2],[-83,13],[-47,1],[-47,20],[-46,29],[-27,-8],[-76,-15],[-39,-3],[-65,-1],[-69,-31],[-35,-6],[-34,4],[-17,-4],[-7,-14],[-1,-29],[5,-17],[16,-17],[19,-35],[28,-65],[0,-31],[-18,-16],[-13,3],[-24,16],[-15,21],[-15,38],[-76,107],[-41,30],[-45,26],[-20,17],[-49,30],[-65,29],[-19,3],[-255,524],[24,26],[31,52],[18,36],[55,96],[49,92],[17,39],[53,54],[18,14],[32,11],[15,15],[64,70],[39,46],[35,49],[14,27],[40,92],[33,57],[70,171],[37,114],[11,49],[31,81],[28,57],[62,102],[38,55],[107,135],[25,30],[48,45],[25,26],[41,36],[45,50],[72,38],[22,19],[19,26],[30,29],[48,22],[27,23],[35,45],[8,4],[81,85],[30,53],[10,34],[28,62],[17,12],[28,31]],[[3264,11729],[6,2],[155,33],[198,64],[174,10],[346,106]],[[4143,11944],[-6,-35],[-12,-42],[-13,-27],[-21,-19],[-33,-20],[1,-10],[23,-34],[-22,-50],[-28,-44],[4,-24],[17,-44],[-1,-33],[-20,-87],[-34,-164],[-12,-41],[-23,-120],[-16,-76],[-18,-32],[-14,-33],[-20,-24],[-18,-45],[-2,-22],[-13,-54],[-1,-61],[4,-115],[4,-39],[8,-32],[39,-67],[-160,-144],[-65,-64],[-56,-58],[-91,-105]],[[3544,10179],[-21,30]],[[3231,10338],[11,45],[4,61],[-8,40],[-42,64],[-2,33],[23,90],[7,34],[26,214],[6,70],[11,67],[-6,91],[-15,103],[-17,103],[2,42],[14,39],[9,36],[-5,33],[3,31],[30,73],[2,24],[-18,35],[-2,63]],[[2985,16929],[42,163],[47,178],[87,326],[4,56],[9,43]],[[3307,19562],[616,-65],[576,-61],[23,0],[0,-153],[12,-41],[11,-18],[0,-27],[6,-67],[-7,-23],[1,-47],[3,-21],[-9,-17],[8,-41],[1,-97],[11,-40],[0,-38],[-17,-13],[-9,-39],[-1,-39],[-18,-77],[-9,-18],[3,-30],[-7,-53],[-9,-16],[-7,-71],[6,-14],[-2,-29],[-28,-51],[-10,-44],[10,-13],[-5,-33],[11,-25],[12,-6],[3,-40],[14,-84],[2,-43],[-8,-22],[-34,-45],[10,-38],[38,-43],[-9,-89],[-14,-113],[-7,-104],[-3,-128],[-5,-168],[2,-36],[19,-143],[3,-36],[-11,-243],[-4,-156],[-8,-60],[-50,-130],[-9,-57],[-24,-117],[-34,-123],[-30,-112],[-49,-173],[-38,-137],[-48,-121]],[[3595,16968],[18,-34],[-17,-56],[19,-3],[95,-49],[69,35],[130,70],[-97,384],[-71,-80],[-35,18],[-52,-36],[38,-104],[-62,-102],[-35,-43]],[[2197,12347],[38,-2],[31,3],[134,5],[59,123],[37,80],[6,34],[-2,65],[28,80],[8,33],[10,71],[9,13],[69,28],[37,23],[10,14],[68,119],[24,62],[41,184],[30,66],[-111,145],[-243,327]],[[3693,14112],[-30,-66],[11,-45],[-31,-29],[-5,-53],[-15,-46],[-2,-41],[27,-86],[9,-45],[7,-59],[-11,-84],[-45,-222],[-128,-664],[-36,-176],[-6,-48],[-7,-24],[-17,-24],[-18,-36],[-5,-43],[-2,-47],[2,-63],[15,-32],[13,-13],[0,-16],[-18,-21],[-48,-37],[-39,-17],[-21,-40],[2,-47],[7,-21],[17,-25],[25,-16],[-21,-25],[-67,-51],[-20,-32],[11,-7],[16,-27],[1,-55]],[[3264,11729],[-2,1],[-295,-100],[-80,-26],[-203,-70],[-215,-71],[-395,-134]],[[2074,11329],[-13,65],[-63,329],[-2,57],[13,55],[188,512]],[[5264,8758],[23,-3],[86,-19],[76,-21],[30,-11],[19,-15],[67,-79],[30,-24],[73,-41],[86,-39],[24,-4],[164,2],[115,3],[138,1],[26,-3],[131,-25],[355,-47],[135,-17],[133,-19],[48,-11],[78,-3],[79,10],[49,-1],[92,3],[71,-6],[88,-24],[37,-23],[37,-42],[61,70]],[[7640,7033],[-104,-34],[-21,-8],[-40,-23],[-145,-48],[-33,-16],[-120,-31],[-49,-27],[-101,-33],[-22,-10],[-65,-24],[-42,-23],[-34,-11],[-124,-42],[-59,-25]],[[6681,6678],[-1,1],[-429,-161],[-185,-56],[-70,-14],[-64,-22],[-72,-19],[2,-6],[-130,-39],[-29,-7],[-19,4],[-33,-1],[-165,-57],[-114,-57],[-86,-22]],[[4143,11944],[24,8],[79,32],[60,15],[67,-2],[41,-5],[63,6],[63,19],[54,20],[81,25],[99,22],[36,6],[101,38],[30,7],[151,43],[60,15],[94,42],[78,20],[149,27],[105,75],[48,17],[23,5],[57,-6],[23,3],[112,38],[94,28],[76,19],[186,-217]],[[6197,12244],[-55,-61],[-19,-25],[-44,-65],[-28,-48],[-68,-129],[-173,-277],[-64,-96],[-63,-74],[-101,-96],[-24,-19]],[[3638,10064],[-18,22],[-8,-2]],[[3612,10084],[-68,95]],[[8293,6353],[73,-2],[51,2]],[[8417,6353],[-9,-60]],[[8408,6293],[-4,-25],[-17,-130],[-20,-2]],[[2916,9873],[79,-53],[76,-35],[23,31],[17,-16],[65,106]],[[3311,9910],[-116,-190],[30,-30],[-51,-81]],[[3174,9609],[-37,48],[-38,42],[-67,41],[-80,38],[-79,23],[43,72]],[[4741,6080],[7,-160],[5,-205],[-11,-383],[389,58],[202,4],[157,-28],[118,-9],[222,2],[342,6],[285,-19],[205,-6],[190,7],[27,0],[175,6]],[[7054,5353],[114,4],[47,5],[3,-68],[32,2],[4,-87],[291,30],[139,14],[145,13]],[[7829,5266],[-70,-194],[-14,-51],[-60,-118],[-88,-479]],[[7597,4424],[-192,16],[-713,31],[-104,3],[-148,12],[-61,7],[-514,69],[-124,-12],[-94,26],[-556,30],[-154,12],[-252,6],[-61,1],[-320,39],[-748,21]],[[3556,4685],[-350,8],[-386,1],[-355,78]],[[2197,12347],[38,104],[25,80],[14,67],[8,60],[14,161],[-11,15]],[[1778,11228],[203,69],[93,32]],[[3017,10038],[-101,-165]],[[3174,9609],[24,-39],[21,31],[17,41],[16,12],[29,40],[22,36],[17,12],[13,17],[50,45],[53,65],[21,34],[20,21],[69,97],[37,39],[29,24]],[[3142,9396],[-8,42],[-22,81],[-43,54],[-27,38],[-62,47],[-38,14],[-41,24],[-29,10],[-14,0],[-24,10],[-100,35],[-25,6],[-67,27],[-40,35],[-38,50],[-90,132],[-32,50],[-39,51],[-15,23],[-56,79],[-36,32],[-27,36],[-33,56],[-103,130],[-12,22],[-27,27],[-28,40],[-26,29],[-7,20],[-26,33],[-22,35],[-13,32],[-27,94],[-16,36],[-26,44],[-20,51],[-19,35],[-23,62],[-4,21],[-24,66],[-23,68],[-12,55]],[[9338,7668],[6,-28],[-4,-43],[6,-28],[9,-8],[33,-6],[26,-20],[67,10],[42,17]],[[9523,7562],[60,-672]],[[9583,6890],[-21,-1],[-60,-19],[-92,-36],[-93,-44],[-49,-17],[-153,-41],[-23,-13],[-21,-26],[-24,-48],[-17,-20],[-37,-36],[-21,-28],[-33,-23],[-24,-24],[20,-93],[1,-34],[-7,-63]],[[8929,6324],[-64,32],[-73,50],[-23,11],[-36,7],[-41,-2],[-77,-21],[-39,-7]],[[8576,6394],[-42,-3],[-29,5],[-80,23]],[[8425,6419],[-3,60]],[[8422,6479],[2,93],[-51,1],[-20,23]],[[8353,6596],[-72,2],[-1,-44],[-61,0],[-12,-56]],[[8207,6498],[-62,-26],[-16,-18],[-90,-40]],[[8039,6414],[-6,35],[-13,35]],[[8020,6484],[-21,52],[-16,66],[-15,38],[-29,37],[-51,35],[-18,9],[-33,5],[-76,-12],[-93,-11],[-94,-4],[-45,-10],[-93,-37],[-49,-13],[-94,-37],[-83,-49],[-20,-15],[-47,-44],[-32,-16],[-114,-30],[-41,-18],[-93,-54],[-34,-12],[-56,-15]],[[6773,6349],[-92,329]],[[11095,6716],[165,61]],[[11264,6752],[-22,-6],[-41,1],[10,-53],[-30,-8],[39,-221]],[[11220,6465],[-29,-8],[-13,73],[-144,-40]],[[11034,6490],[-14,73]],[[6838,12119],[64,-73],[42,-52],[55,-73],[14,-26]],[[5713,11142],[-3,69],[-15,33],[1,19],[14,17],[95,67],[19,15],[26,30],[70,97],[17,31],[65,133],[40,70],[13,18],[130,126],[70,58],[35,20],[199,62],[67,18],[125,-3],[111,-4],[12,15],[34,86]],[[10232,6793],[-177,-59]],[[10055,6734],[-31,126],[-11,16],[178,85],[41,-168]],[[8039,6414],[-15,-6],[1,-22]],[[8025,6386],[-41,-3],[-1,13],[-83,-6],[-2,-12],[-32,-4],[-86,-5],[5,-113]],[[7785,6256],[1,-17],[-41,-3]],[[7745,6236],[-43,-3],[-18,15],[-27,-18],[-89,-53],[-65,-22]],[[7503,6155],[-29,40],[19,148],[33,9],[59,23],[19,3],[314,71],[7,6],[37,7],[32,-18],[20,10],[6,30]],[[8035,6157],[-72,-4],[2,-55],[-86,-6],[-4,76]],[[1453,16627],[-27,39],[-42,41],[-31,53],[-42,99],[-36,91],[-19,35],[-12,10],[-2,23],[-23,77],[-14,69],[-4,80],[-12,79],[-15,70],[-25,96],[-16,39],[-8,41],[-12,87],[4,88],[-2,56],[-32,194],[-4,41],[-9,66],[2,41],[6,61],[27,102],[6,11],[25,88],[31,81],[14,58],[21,67],[45,110],[2,30],[25,63],[14,18],[41,42],[29,61],[188,67]],[[8025,6386],[1,-19]],[[8026,6367],[-159,-10],[1,-37],[-28,-2],[1,-39],[-27,-2],[1,-19],[-30,-2]],[[1778,11228],[-9,43],[-33,74],[-31,85],[-20,80],[-11,17],[-16,49],[-47,65],[-20,39],[-21,55],[-9,37],[-14,36],[-24,75],[-27,144],[-1,26],[8,71],[1,46],[-5,23],[-77,245],[-25,49],[-2,65],[4,54],[6,29],[22,56],[12,21],[32,107],[12,38],[26,94],[27,77],[32,73],[5,4],[22,52],[24,50],[32,72],[20,56],[12,48],[21,120],[-3,42],[6,73],[2,128],[-1,80]],[[3646,8935],[-49,-63],[-14,-14],[-22,22],[-33,-29],[-33,38]],[[7503,6155],[109,-147],[35,-42],[15,-30],[24,-34],[27,-73],[11,-7],[10,19],[21,22],[41,24],[14,15],[8,-21],[20,1],[20,24],[37,17],[32,6],[15,12],[7,18],[37,46],[65,13],[26,11]],[[8077,6029],[2,-23],[16,-22],[45,51],[11,19],[126,8],[2,71]],[[8341,6111],[21,-19],[-1,-12],[49,-77],[59,-47],[49,-23],[15,-14],[24,8],[17,35],[-3,16],[17,56],[17,28],[41,44],[21,10],[24,-14],[23,5],[19,-10],[27,32],[27,23],[39,19],[37,-4],[38,7],[43,11],[-18,38],[-4,25],[7,76]],[[9583,6890],[26,-297]],[[9609,6593],[11,-171]],[[9620,6422],[6,-81]],[[9626,6341],[69,-1009],[3,-18]],[[9698,5314],[-82,-4],[-640,-29],[-64,-3],[-43,64],[-224,-22],[-118,-7],[-104,-10],[-7,-2],[-285,-33],[-1,13],[-301,-15]],[[7054,5353],[-87,303],[-51,193],[-143,500]],[[9523,7562],[20,10],[36,8],[31,26],[38,12],[45,-9],[27,5],[58,25],[66,8],[55,1],[16,5],[23,-5],[35,29],[21,22],[24,-9],[21,-18],[19,0],[29,8],[48,6],[51,17],[23,22],[52,24],[34,9],[15,-2],[22,13],[9,-23],[15,15],[22,11],[11,-17],[20,2],[31,13],[10,10],[38,0],[25,-9],[48,20],[56,0],[17,20],[53,18],[23,-18],[33,20],[37,1],[13,-7],[26,1],[26,-6],[40,4],[98,36],[34,-8],[3,18],[34,-9],[75,-1],[70,-5],[31,8],[32,-106],[87,-273],[40,-109],[122,-373],[84,-241],[28,-129]],[[11623,6632],[-35,-10],[-157,-22]],[[11075,6709],[-17,34],[-16,-18],[-112,-36],[3,-16],[-109,-29],[-24,-11],[-7,19],[-21,-2],[-21,39],[-26,-3],[-113,-31],[-19,-8],[-54,-34],[-58,-9],[-52,-3],[-58,-10],[-71,-19]],[[10300,6572],[-39,230],[-29,-9]],[[10055,6734],[-446,-141]],[[2535,2733],[23,-1],[545,39],[314,21]],[[3417,2792],[296,22],[11,-1],[441,30],[427,45],[435,46],[189,15],[356,-769]],[[5572,2180],[-11,-9],[-180,-99],[-47,-20],[-14,-19],[-15,0],[-24,24],[-23,-3],[-14,-13],[-31,8],[-18,-6],[-6,-14],[-9,-64],[-10,-98],[1,-33],[-5,-24],[-11,-23],[-33,-13],[-90,63],[-103,80],[-8,2],[-56,-20],[-43,-22],[-19,-20],[-16,-36],[-17,-73],[-20,-38],[-64,-15],[-50,6],[-68,19],[-48,32],[-27,6],[-82,0],[-32,-9],[-57,-8],[-32,12],[-45,-10],[-29,-25],[-32,-9],[-18,-11],[-41,-42],[-5,-37],[-58,-70],[-33,-24],[-35,3],[-75,-10],[-19,-12],[-52,-15],[-57,-8],[-53,1],[-44,-17],[-30,-3],[-31,-12],[-19,-13],[-27,1],[-18,13],[-24,-24],[-44,-31],[-53,-43],[-17,-17],[-20,-30],[-57,-22],[-38,-10],[-72,-10],[-18,11],[3,31],[-29,36],[-15,29],[-32,38],[-15,9],[-41,11],[-14,15],[-3,29],[-17,23],[-18,-2],[-31,-13],[-17,-16],[-71,-101],[-18,-52],[-1,-49],[-6,-52],[3,-21],[2,-64],[-3,-55],[-20,-35],[-43,-18],[-118,3],[-47,-2],[-29,6],[-37,29],[-18,5],[-48,-19],[-23,-20],[-10,-27],[-60,-94],[-13,-46],[-14,-30],[-61,-45],[-84,-29],[-19,-1],[-32,8],[-58,0],[-57,9],[-86,-1],[-51,-5],[-24,5]],[[3556,4685],[-57,-772],[-82,-1119],[0,-2]],[[1560,3054],[29,67],[50,86],[42,92],[13,34],[13,55],[17,36],[28,33],[1,36],[11,24],[10,3],[17,41],[46,135],[43,146],[55,231],[16,115],[8,88],[0,69],[4,19],[-5,27],[-1,57],[1,50],[-10,76],[-20,220]],[[6197,12244],[20,20],[51,36],[26,15],[52,24],[54,12],[36,2],[61,-5],[63,-11],[31,-9],[33,-15],[37,-23],[80,-64],[28,-28],[69,-79]],[[11298,6564],[7,-36],[-31,-9],[6,-37],[-30,-8]],[[11250,6474],[-30,-9]],[[11243,6419],[7,24],[0,31]],[[11431,6600],[15,-73],[9,-52],[-214,-60],[2,4]],[[11243,6419],[-187,-50],[-22,121]],[[8417,6353],[8,66]],[[8576,6394],[-14,-4],[-17,-17],[-4,-40],[157,-14],[-2,-49],[-135,11],[-153,12]],[[8026,6367],[1,-23]],[[7746,6198],[-1,38]],[[8117,6123],[20,-8],[-23,-51],[-19,-24],[-18,-11]],[[8422,6479],[-90,4]],[[8332,6483],[2,92],[19,-1],[0,22]],[[8332,6483],[-36,1],[-1,-23]],[[8295,6461],[-54,3],[1,46],[-25,1],[-10,-13]],[[8295,6426],[0,35]],[[9698,5314],[493,38],[7,-125],[164,41],[280,58],[328,88],[132,67],[156,36]],[[11258,5517],[-15,-8],[-436,-262],[-12,-4],[-384,-231],[-46,-29],[-263,-157],[-715,-427],[-109,-65]],[[9278,4334],[-349,-28],[-129,-3],[-113,-4],[-343,34],[-358,33],[-389,58]],[[3201,8640],[54,165]],[[3255,8805],[39,119]],[[3332,8905],[-15,-47],[28,-15],[-1,-34],[-5,-19],[32,-15]],[[3255,8805],[-91,46]],[[9278,4334],[-325,-201],[-501,-305],[-280,-164],[-63,-41],[-94,-55],[-14,-6],[-132,-78],[-247,-121],[-135,-67],[-93,-45],[-103,-52],[-62,-36],[-307,-190],[-112,-71],[-302,-188],[-513,-302],[-423,-232]],[[9916,6498],[80,12],[-4,35],[79,13],[-5,49],[-5,98],[-6,29]],[[10300,6572],[14,-81],[-233,-40],[-157,-26]],[[9924,6425],[-8,73]],[[9916,6498],[-78,-14],[-83,-24],[-52,-12],[-83,-26]],[[9924,6425],[1,-15],[-78,-13],[-125,-33],[-96,-23]],[[11623,6632],[1,-4],[257,-749],[-340,-192],[-283,-170]]],"transform":{"scale":[0.00004787593636899159,0.000029253961762601277],"translate":[-76.949148,40.603466]},"objects":{"Geometry\\42-097":{"type":"GeometryCollection","geometries":[{"arcs":[[0,1,2,3,4]],"type":"Polygon","properties":{"GEOID":"420970806003"}},{"arcs":[[5,6,7,8,9,10]],"type":"Polygon","properties":{"GEOID":"420970817002"}},{"arcs":[[11,12,13,14,15]],"type":"Polygon","properties":{"GEOID":"420970814002"}},{"arcs":[[16,17,18]],"type":"Polygon","properties":{"GEOID":"420970802005"}},{"arcs":[[19,20,21,22]],"type":"Polygon","properties":{"GEOID":"420970808003"}},{"arcs":[[23,24,25]],"type":"Polygon","properties":{"GEOID":"420970820001"}},{"arcs":[[26,27,28,29]],"type":"Polygon","properties":{"GEOID":"420970820002"}},{"arcs":[[30,31,32]],"type":"Polygon","properties":{"GEOID":"420970811002"}},{"arcs":[[33,34,35,36]],"type":"Polygon","properties":{"GEOID":"420970810003"}},{"arcs":[[37,38,39,40,41,42,43,44,45,46]],"type":"Polygon","properties":{"GEOID":"420970819001"}},{"arcs":[[47,48,49,50,51,52,53]],"type":"Polygon","properties":{"GEOID":"420970803012"}},{"arcs":[[54,55,56]],"type":"Polygon","properties":{"GEOID":"420970802002"}},{"arcs":[[-56,57,58]],"type":"Polygon","properties":{"GEOID":"420970802003"}},{"arcs":[[59,60,61,62,-52]],"type":"Polygon","properties":{"GEOID":"420970803023"}},{"arcs":[[-46,63,64,65,66]],"type":"Polygon","properties":{"GEOID":"420970819002"}},{"arcs":[[67,68,69,-49]],"type":"Polygon","properties":{"GEOID":"420970803011"}},{"arcs":[[70,71,72,73,74,-61]],"type":"Polygon","properties":{"GEOID":"420970803021"}},{"arcs":[[75,76,77,78,79,-39]],"type":"Polygon","properties":{"GEOID":"420970822002"}},{"arcs":[[80,-40,-80]],"type":"Polygon","properties":{"GEOID":"420970822001"}},{"arcs":[[81,-73,82,-69]],"type":"Polygon","properties":{"GEOID":"420970803022"}},{"arcs":[[-70,-83,-72,83,-50]],"type":"Polygon","properties":{"GEOID":"420970803025"}},{"arcs":[[-84,-71,-60,-51]],"type":"Polygon","properties":{"GEOID":"420970803024"}},{"arcs":[[84,85,86,87,88,-74,-82,-68,-48,89]],"type":"Polygon","properties":{"GEOID":"420970801002"}},{"arcs":[[90,-85,91,-58,92]],"type":"Polygon","properties":{"GEOID":"420970802001"}},{"arcs":[[93,94,95,96,-64,-45]],"type":"Polygon","properties":{"GEOID":"420970819003"}},{"arcs":[[97,-11,98,99,100]],"type":"Polygon","properties":{"GEOID":"420970816003"}},{"arcs":[[101,-100,102,103,104,-14]],"type":"Polygon","properties":{"GEOID":"420970816002"}},{"arcs":[[105,106,107,108,109,110,111]],"type":"Polygon","properties":{"GEOID":"420970807001"}},{"arcs":[[112,-109,113,-20,114,-22,115,116,117]],"type":"Polygon","properties":{"GEOID":"420970808001"}},{"arcs":[[118,119,-111,120,-42,121,122,-26,123,124,-76,-38,125]],"type":"Polygon","properties":{"GEOID":"420970819005"}},{"arcs":[[-44,126,-94]],"type":"Polygon","properties":{"GEOID":"420970819004"}},{"arcs":[[127,128,129]],"type":"Polygon","properties":{"GEOID":"420970823004"}},{"arcs":[[130,131,132,-1,133]],"type":"Polygon","properties":{"GEOID":"420970805003"}},{"arcs":[[134,-18,135,-86,-91],[136]],"type":"Polygon","properties":{"GEOID":"420970801001"}},{"arcs":[[137,-88,138,139,140]],"type":"Polygon","properties":{"GEOID":"420970804001"}},{"arcs":[[141,-118,142,143,-95,-127]],"type":"Polygon","properties":{"GEOID":"420970808005"}},{"arcs":[[-132,144,145,-112,-120,146,147]],"type":"Polygon","properties":{"GEOID":"420970805002"}},{"arcs":[[148,149,150,-7]],"type":"Polygon","properties":{"GEOID":"420970817003"}},{"arcs":[[151,-3,152,153]],"type":"Polygon","properties":{"GEOID":"420970806001"}},{"arcs":[[-65,-97,154,155,156,157,158]],"type":"Polygon","properties":{"GEOID":"420970818002"}},{"arcs":[[-75,-89,-138,159,-62]],"type":"Polygon","properties":{"GEOID":"420970804003"}},{"arcs":[[160,-140,-134,-5,161,-154,162,-147,-119,163]],"type":"Polygon","properties":{"GEOID":"420970805001"}},{"arcs":[[-143,-117,164,165,166,167,168,169,170,171,172,173,174,175]],"type":"Polygon","properties":{"GEOID":"420970812001"}},{"arcs":[[-137]],"type":"Polygon","properties":{"GEOID":"420970801003"}},{"arcs":[[-32,176,-37,177,178,179]],"type":"Polygon","properties":{"GEOID":"420970811003"}},{"arcs":[[180,-107,181]],"type":"Polygon","properties":{"GEOID":"420970807003"}},{"arcs":[[182,183]],"type":"Polygon","properties":{"GEOID":"420970809003"}},{"arcs":[[-174,184,185,186,187,188]],"type":"Polygon","properties":{"GEOID":"420970813001"}},{"arcs":[[-105,189,-15]],"type":"Polygon","properties":{"GEOID":"420970814003"}},{"arcs":[[-19,-135,-93,-55,190]],"type":"Polygon","properties":{"GEOID":"420970802004"}},{"arcs":[[-153,-2,-133,-148,-163]],"type":"Polygon","properties":{"GEOID":"420970806002"}},{"arcs":[[191,192,-186]],"type":"Polygon","properties":{"GEOID":"420970813002"}},{"arcs":[[-110,-113,-142,-43,-121]],"type":"Polygon","properties":{"GEOID":"420970808004"}},{"arcs":[[-53,-63,-160,-141,-161,193]],"type":"Polygon","properties":{"GEOID":"420970804002"}},{"arcs":[[-24,-123,194,-28]],"type":"Polygon","properties":{"GEOID":"420970820003"}},{"arcs":[[-189,195,196,-9,197,-167,198,199,200,201,202,-156,203,-175]],"type":"Polygon","properties":{"GEOID":"420970812002"}},{"arcs":[[204,205,-34,-177,-31,206,207,-184,208,-199,-166]],"type":"Polygon","properties":{"GEOID":"420970809001"}},{"arcs":[[209,210,211,-129]],"type":"Polygon","properties":{"GEOID":"420970823003"}},{"arcs":[[-66,-159,212,-210,-128,213]],"type":"Polygon","properties":{"GEOID":"420970823002"}},{"arcs":[[-146,214,-182,-106]],"type":"Polygon","properties":{"GEOID":"420970807002"}},{"arcs":[[-23,-115]],"type":"Polygon","properties":{"GEOID":"420970808002"}},{"arcs":[[-36,215,216,-178]],"type":"Polygon","properties":{"GEOID":"420970810001"}},{"arcs":[[217,-216,-35,218]],"type":"Polygon","properties":{"GEOID":"420970810002"}},{"arcs":[[-179,-217,-218,219]],"type":"Polygon","properties":{"GEOID":"420970811001"}},{"arcs":[[220,-169,221,-150]],"type":"Polygon","properties":{"GEOID":"420970812004"}},{"arcs":[[-151,-222,-168,-198,-8]],"type":"Polygon","properties":{"GEOID":"420970812003"}},{"arcs":[[-187,-193,222,-12,223]],"type":"Polygon","properties":{"GEOID":"420970813003"}},{"arcs":[[-224,-16,-190,-104,224,-196,-188]],"type":"Polygon","properties":{"GEOID":"420970814001"}},{"arcs":[[-171,225,226]],"type":"Polygon","properties":{"GEOID":"420970815001"}},{"arcs":[[-172,-227,227,228]],"type":"Polygon","properties":{"GEOID":"420970815002"}},{"arcs":[[-225,-103,-99,-10,-197]],"type":"Polygon","properties":{"GEOID":"420970816001"}},{"arcs":[[-98,229,-228,-226,-170,-221,-149,-6]],"type":"Polygon","properties":{"GEOID":"420970817001"}},{"arcs":[[-157,-203,230,231,232]],"type":"Polygon","properties":{"GEOID":"420970818001"}},{"arcs":[[-144,-176,-204,-155,-96]],"type":"Polygon","properties":{"GEOID":"420970818003"}},{"arcs":[[233,234,-30,235,-78]],"type":"Polygon","properties":{"GEOID":"420970821002"}},{"arcs":[[-25,-27,-235,236,-124]],"type":"Polygon","properties":{"GEOID":"420970821001"}},{"arcs":[[-237,-234,-77,-125]],"type":"Polygon","properties":{"GEOID":"420970821003"}},{"arcs":[[-29,-195,-122,-41,-81,-79,-236]],"type":"Polygon","properties":{"GEOID":"420970822003"}},{"arcs":[[-158,-233,237,-211,-213]],"type":"Polygon","properties":{"GEOID":"420970823001"}},{"arcs":[[238,-183,-208,239,240]],"type":"Polygon","properties":{"GEOID":"420970824003"}},{"arcs":[[-209,-239,241,-200]],"type":"Polygon","properties":{"GEOID":"420970824002"}},{"arcs":[[-242,-241,242,-201]],"type":"Polygon","properties":{"GEOID":"420970824001"}},{"arcs":[[-162,-4,-152]],"type":"Polygon","properties":{"GEOID":"420970806004"}},{"arcs":[[-243,-240,-207,-33,-180,-220,-219,-206,243,-231,-202]],"type":"Polygon","properties":{"GEOID":"420970809002"}},{"arcs":[[-173,-229,-230,-101,-102,-13,-223,-192,-185]],"type":"Polygon","properties":{"GEOID":"420970815003"}}]}}}