{"type":"Topology","arcs":[[[6078,11228],[2,-58],[-15,-419],[-14,-353],[-9,-270],[66,-120],[-14,-42],[3,-21],[36,-71],[16,-52],[2,-64],[20,-57],[4,-32],[-12,-28],[-38,-21],[-57,7],[-70,43],[8,-269]],[[6006,9401],[-282,-42],[-342,-53],[-378,-56],[-364,-56]],[[4640,9194],[-8,99],[-30,178],[0,50],[4,35],[24,70],[14,50],[5,45],[-8,28],[-40,69],[-75,66],[-65,31],[-59,16],[-47,6],[-82,-25],[-52,-51],[-26,-75],[-5,-60],[3,-57],[-5,-47],[-13,-45],[-27,-32],[-48,-40],[-67,-16],[-61,13],[-61,20],[-97,54],[-49,22],[-59,17],[-32,13],[-69,38],[-95,64],[-15,12],[-63,22],[-177,89],[-191,103],[-42,37],[-40,51],[-31,74],[-23,132],[-13,29],[-3,43],[21,104],[34,121],[6,114],[-9,64],[-13,39],[-73,113],[-9,23]],[[2869,10900],[34,29],[22,9],[65,5],[23,12],[27,32],[32,13],[38,-8],[19,-45],[26,-37],[28,-19],[72,-15],[73,-24],[31,-22],[45,-39],[34,-18],[30,-1],[109,49],[22,17],[11,28],[-2,30],[-13,24],[-18,10],[-29,32],[-2,22],[22,56],[11,9],[44,3],[47,-15],[15,-18],[60,-23],[27,-33],[-1,-48],[8,-24],[9,-56],[15,-21],[36,-10],[68,11],[128,24],[13,11],[8,25],[-3,36],[-22,67],[-13,18],[-6,41],[10,23],[56,72],[15,25],[23,61],[23,39],[21,4],[59,-22],[57,-13],[29,1],[45,15],[50,4],[66,-19],[27,-3],[29,-13],[43,-43],[56,-32],[29,-8],[32,-1],[72,26],[23,3],[27,-25],[1,-31],[-7,-15],[-30,-22],[-67,-28],[-24,-19],[-11,-39],[11,-24],[51,-13],[70,6],[46,-5],[35,-11],[18,1],[40,18],[24,21],[40,53],[22,21],[41,19],[63,4],[85,-23],[48,-16],[48,-10],[31,1],[34,13],[15,13],[42,59],[41,111],[6,53],[23,49],[6,28],[-9,57],[2,30],[19,31],[15,9],[73,27],[61,68],[25,0],[31,-24],[10,-30],[-9,-18],[-60,-46],[-25,-34],[-15,-30],[9,-9],[0,-27],[22,-23],[36,-9],[44,4],[31,11],[29,2],[34,-13],[14,-30],[-2,-27],[-17,-61],[-18,-50],[3,-26],[21,-31],[18,-9],[44,-10],[20,6],[16,18],[29,5],[22,24],[24,82],[32,30],[43,-14]],[[6609,7642],[10,95],[4,214],[8,278],[1,150],[4,67],[12,394],[5,269],[5,159],[6,123],[-50,255]],[[6614,9646],[70,-2]],[[6684,9644],[944,-18],[141,-3],[192,-2],[41,33],[21,23],[53,2]],[[8076,9679],[8,-23],[22,-19],[41,-49],[18,-30],[18,-13],[67,-33],[32,-9],[81,-9],[75,-4],[18,-9],[44,-63],[46,-32],[42,0],[50,18],[34,24],[25,28],[62,80],[45,33],[40,65],[15,16],[45,28],[29,9],[32,2],[49,-18],[33,-8],[23,-12],[22,-22],[3,-24],[-18,-54],[1,-53],[-18,-23],[-35,-17],[-19,-18],[-2,-15],[34,-25],[37,7],[75,52],[39,14],[35,4],[40,-20],[36,-51],[28,-9],[57,4],[44,-2],[28,-7],[10,-11],[11,-96],[13,-21],[93,-73],[3,-15],[-11,-30],[-15,-12],[-95,-36],[-42,-9],[-16,-19],[2,-32],[26,-27],[34,-19],[38,5],[43,32],[39,58],[17,8],[37,2],[17,-28]],[[9661,9069],[1,-418],[1,-43],[-2,-228],[1,-91],[1,-542],[3,-226]],[[9666,7521],[-347,8]],[[9319,7529],[-166,4],[-547,11],[-45,-1],[-424,5],[-346,2]],[[7791,7550],[-412,4],[-283,3],[-191,3],[-305,3]],[[6600,7563],[9,79]],[[68,10341],[1023,151],[618,91],[232,24],[90,5],[121,10]],[[2152,10622],[33,-754],[23,-135],[36,-197],[11,-313],[14,-395]],[[2269,8828],[-323,3],[-354,3]],[[1592,8834],[-83,1],[-982,11],[-487,5]],[[40,8851],[13,713],[15,777]],[[1802,2579],[33,71],[-23,17],[13,28],[15,-5],[3,-36],[16,-12],[15,15],[40,-31],[51,53],[42,-31],[-29,-34],[-7,-24],[25,-30]],[[1996,2560],[-38,-60],[-21,-23],[-44,-32],[-21,25],[20,38],[-30,24],[-46,8]],[[1816,2540],[-43,13],[29,26]],[[1699,2597],[42,-6]],[[1741,2591],[18,-2]],[[1759,2589],[43,-10]],[[1816,2540],[-52,-124],[-39,18],[-16,-19]],[[1709,2415],[-15,26],[-10,34],[-3,64],[5,32],[13,26]],[[1996,2560],[12,-10]],[[2008,2550],[-49,-75],[-51,-52],[-65,-39],[-46,-2],[-70,21],[-18,12]],[[15,3923],[17,22],[23,9],[78,4],[35,6],[31,-3],[26,48],[-11,23],[2,18],[-7,37],[2,32],[39,-3],[25,19],[34,-10],[-11,-39],[36,-6],[71,-26],[-7,-100],[4,-50],[-32,-53],[-39,-26],[2,-48],[7,-28],[-70,2],[-42,-54],[18,-31],[87,-26]],[[333,3640],[28,-8]],[[361,3632],[-18,-12],[-114,-64],[-60,-26],[-20,60],[-39,21],[-30,8],[-17,-10],[-8,-25],[-39,16],[-6,-18]],[[10,3582],[4,224],[1,117]],[[7200,5560],[345,-68],[568,-114],[52,-13]],[[8165,5365],[50,-12],[181,-47],[53,-74],[21,5],[56,22],[403,-166]],[[8929,5093],[-135,-168],[-72,-94],[-23,-25],[-284,-351],[-33,-48],[-14,-15],[-89,-109],[-62,-79],[-25,-35],[-38,-44],[-206,-259],[-141,-175],[-222,-282],[-49,-58],[-347,-436]],[[7189,2915],[4,10],[-27,20],[-125,152],[-34,5],[-146,11],[-64,45],[-315,227],[-49,33],[-98,72],[-197,65],[-28,30]],[[6110,3585],[13,22],[44,55],[24,55],[13,15],[67,51],[95,76],[13,66],[14,20],[36,12],[61,36],[10,11],[21,47],[-65,-6],[-86,-23],[-22,3],[-43,64],[-85,66],[-97,21],[-65,-8],[-44,-17],[-47,1],[-55,7],[-26,-2],[-11,10],[72,60],[21,45],[1,41],[31,3],[34,17],[53,5],[32,10],[32,20],[53,8],[19,20],[15,36],[-4,24],[42,44],[31,15],[49,11],[14,18],[16,55],[14,17],[58,21],[11,19],[54,-1],[-4,23],[-161,83],[-25,12],[-31,6],[-43,-3],[-5,8],[43,53],[25,53],[51,34],[69,19],[38,1],[65,33],[23,15],[74,6],[79,41],[42,1],[88,-12],[38,1],[109,-39],[44,-2],[77,-28],[70,-6],[27,-13],[42,-8],[-7,39],[16,42],[4,28],[29,112],[-10,87],[-30,47],[-23,23],[-6,17],[6,42],[-16,28],[-24,70],[7,29],[-4,63]],[[2017,3582],[-35,-16],[-43,-34],[-110,-129],[-40,-56],[17,-12],[-7,-68],[-11,-24],[49,-20],[6,-36],[81,-68],[41,-19],[7,-17],[54,-45],[17,-20],[9,-38],[23,-31],[21,-15],[46,8],[18,-33],[38,-8],[-32,-37],[-16,-11],[-59,-11],[-21,-15],[-41,-4],[-25,-32],[-95,-13],[-32,-31],[-50,-23],[-22,-48],[-21,-3],[6,-37],[-31,-47]],[[1741,2591],[12,88],[-1,37],[-7,53],[-36,194],[-8,64],[3,37],[18,73],[-142,48],[-24,11],[-45,34],[-46,-9],[-18,-16],[-135,95],[-44,54],[16,35],[-7,49],[9,19],[56,36],[10,1],[89,-20],[21,-36],[33,-19],[33,9],[80,10],[54,12],[7,-6],[106,68],[43,23],[69,23],[75,17],[55,7]],[[4640,9194],[-7,-65],[-21,-50],[-53,-112],[-24,-28],[-25,-17],[-34,-15],[-91,-23],[-58,-20],[-52,-29],[-35,-25]],[[4240,8810],[-218,2],[-108,-1],[-369,5],[-219,2],[-753,8],[-304,2]],[[2152,10622],[-5,125]],[[2147,10747],[52,68],[35,37],[24,38],[82,69],[42,23],[22,20],[31,14],[50,9],[84,3],[80,-8],[43,-14],[53,-25],[52,-31],[22,-20],[24,-46],[26,16]],[[4240,8810],[-25,-24],[-33,-50],[-2,-59],[15,-56],[35,-90],[47,-109],[16,-43],[11,-75]],[[4304,8304],[-11,-66],[-20,-63],[-25,-44],[-51,-57],[-50,-40],[-90,-52],[-146,-62],[-486,-233]],[[3425,7687],[-43,-24]],[[3382,7663],[-38,34],[-32,-21],[-23,-1],[-24,18],[-26,30],[-59,7],[-55,15],[-58,-10],[-10,-8],[-37,4],[-49,15],[-32,5],[-36,41],[-30,12],[-39,8],[-26,-14],[-30,-33],[-23,-38],[41,-47],[9,-31],[-2,-28],[6,-23],[39,-55],[50,-95],[71,-73]],[[2969,7375],[-71,-9],[-197,108],[-67,23],[-11,26],[-47,13],[-24,18],[-48,25],[-34,9],[-16,14],[-32,45],[-32,14],[-77,70],[-50,25],[-59,16],[-50,25],[-66,3],[-85,17],[-54,43],[-57,17],[-29,18],[-88,24],[-60,20],[-55,-1]],[[1660,7938],[-1,7],[27,391],[-1,43],[17,196],[-49,124],[-61,135]],[[2249,4367],[45,-65],[46,-76],[111,-171],[97,-216],[59,-108],[15,-94],[-24,-102]],[[2598,3535],[-5,-40]],[[2593,3495],[-35,-1],[-7,29],[-29,8],[-13,19],[-43,32],[-169,-33],[-25,6],[-72,46],[-45,22],[-27,-12],[-30,-4],[-81,-25]],[[1699,2597],[6,93],[-12,60],[-31,53],[-42,38],[-74,29],[-51,3],[-59,18],[-66,38],[-23,7],[-40,26],[-81,71],[-69,68],[-6,13],[-17,103],[3,58],[-10,62],[-12,30],[-38,32],[-82,46],[-75,28],[-105,45],[-52,43],[-45,45],[-95,65],[-32,18],[-30,3],[-59,20]],[[502,3712],[38,91],[14,54],[37,72],[62,70],[39,29],[46,21],[55,16],[62,12],[56,-11],[70,-40],[38,-30],[41,-19],[56,-12],[83,9],[43,8],[140,35],[77,24],[60,14],[43,16],[115,76],[50,38],[49,27],[27,8],[57,27],[79,13],[109,-2],[95,14],[45,17],[44,47],[17,31]],[[2541,1272],[31,9]],[[2572,1281],[61,27],[-29,48],[6,20],[50,17],[91,13],[-16,42]],[[2735,1448],[-16,8],[-2,36]],[[2717,1492],[34,-3],[32,-11],[13,-19],[29,-13],[71,8],[56,29],[44,46],[33,6],[67,74],[55,16],[36,-1],[30,-8],[104,-10],[37,-1],[5,-9],[-14,-103]],[[3349,1493],[-15,-44],[0,-41],[5,-28],[18,-40],[31,-21],[-3,-14],[-27,-33],[-11,-41],[-14,-11],[7,-29],[-12,-55],[-84,22],[-25,-21],[-68,-18],[-39,-45],[-36,-27],[-61,16],[-32,-6],[-54,-20],[-82,-18],[-36,-2],[-81,-16],[-35,23],[-42,57],[-12,42],[-13,20],[-21,-31]],[[2607,1112],[-41,69],[-23,70],[-2,21]],[[4304,8304],[81,-31],[24,1],[6,45],[23,4],[27,-8],[53,46],[20,-2],[34,-29],[-1,-14],[-29,-13],[-12,-17],[7,-33],[27,-2],[59,13],[51,-38],[52,-50],[29,1],[3,-16],[-34,-38],[8,-33],[14,-1],[51,28],[55,-13],[52,-33],[4,-42],[53,-6]],[[4961,8023],[-20,-98],[-42,-38],[-36,-18],[-73,-22],[-17,-13],[-15,-24],[-25,-55],[-82,-97],[-12,-26],[-2,-44],[-31,-50],[-35,-77],[-39,-33],[-46,-14],[-41,-30],[-76,-48],[-33,-30],[-39,-70],[-30,-40],[-70,-54],[-167,-254],[-12,-14]],[[4018,6874],[-117,16],[-320,49]],[[3581,6939],[23,16],[-41,53],[-14,24],[-24,21],[27,24],[-31,11]],[[3521,7088],[-32,16],[-39,68],[95,62],[-11,16],[27,16],[16,-11],[52,40],[-49,57],[-160,-114],[-11,16]],[[3409,7254],[-48,83],[35,16],[3,36],[11,41],[22,3],[2,25],[64,-2],[150,18],[-223,213]],[[30,7749],[202,11],[204,13],[79,-7],[41,-12],[42,-19],[152,-92],[51,-29],[112,-55],[67,-31]],[[980,7528],[-67,-53],[179,-92],[-4,-21],[286,1],[0,47]],[[1374,7410],[389,-107]],[[1763,7303],[33,-202],[61,-382]],[[1857,6719],[-101,-2],[-190,1],[-183,0],[-104,1],[-733,10],[-527,7]],[[19,6736],[4,168],[5,530],[2,315]],[[2539,1557],[27,-5],[39,13],[88,-31],[30,-22]],[[2723,1512],[-6,-20]],[[2735,1448],[-191,-27],[-6,-27],[7,-49],[27,-64]],[[2541,1272],[-11,38],[-26,30],[-18,36],[-8,32],[12,43],[35,65],[14,41]],[[3040,5622],[41,39],[137,186],[84,-50]],[[3302,5797],[-16,-22],[21,-5],[31,-21]],[[3338,5749],[-3,-20],[-23,-7],[-29,-40],[-34,-14],[-47,32],[-79,-40],[-25,-19]],[[3098,5641],[-9,7],[-38,-37],[-11,11]],[[3409,7254],[-43,-30]],[[3366,7224],[-31,-23],[-52,-20]],[[3283,7181],[-8,49],[-1,64],[2,79],[7,69],[10,49],[23,83],[11,23],[27,40],[28,26]],[[3366,7224],[38,-77],[24,-38],[32,-41]],[[3460,7068],[-1,-1]],[[3459,7067],[-23,-16],[-17,20],[-35,-24],[20,-47],[79,-94]],[[3483,6906],[-15,-11]],[[3468,6895],[-21,-14]],[[3447,6881],[-51,60],[-78,108],[-28,88],[-7,44]],[[3521,7088],[-23,6],[-38,-26]],[[3581,6939],[-9,-6]],[[3572,6933],[-18,21]],[[3554,6954],[-95,113]],[[3483,6906],[71,48]],[[3572,6933],[44,-53],[-5,-41],[-8,-17],[10,-48],[-34,-24],[-14,30],[-80,100],[-17,15]],[[1857,6719],[71,-3],[701,-1]],[[2629,6715],[-55,-34],[-32,-32],[-111,-185],[-16,-24],[-158,-212],[-37,-39],[-51,-36],[-80,-41],[-107,-47],[-148,-77],[-69,-47],[-111,-97],[-41,-30],[-86,-52],[-76,-40],[-46,-21]],[[1405,5701],[-96,60],[-286,172],[-414,4],[-600,6]],[[9,5943],[1,482],[9,311]],[[2863,1843],[15,-14]],[[2878,1829],[-75,-41],[-110,-109],[-23,-38],[89,-48],[-1,12],[85,43],[15,-10]],[[2858,1638],[-16,-14],[-1,-39],[59,-53],[-1,-30],[-77,-33],[-32,4],[-3,24],[-64,15]],[[2539,1557],[26,72],[31,37],[101,61],[52,41],[21,25],[28,17],[65,33]],[[3198,7094],[25,1],[189,-282],[8,-52],[-15,-23],[23,-29]],[[3428,6709],[-131,1]],[[3297,6710],[9,24],[-50,42],[-26,11],[-10,32],[-30,-2],[-33,58],[22,3],[3,61],[8,51],[-21,-1],[0,41],[-35,77],[12,10],[28,-8],[24,-15]],[[3338,5749],[40,-27],[167,-114],[-27,-54]],[[3518,5554],[-21,-2],[-74,-28],[-42,-26],[-32,-10],[2,40],[-1,69],[-79,57],[-92,-66],[-19,5],[-62,48]],[[3302,5797],[4,1],[86,118],[-21,13],[44,60],[-64,39],[-43,18],[23,42]],[[3331,6088],[41,-26],[33,41],[44,-26]],[[3449,6077],[12,-7],[-25,-58],[-14,-71],[-12,-30],[-25,-44],[-33,-76],[-14,-42]],[[2989,5660],[80,135],[131,132],[64,107],[34,48],[21,20]],[[3319,6102],[12,-14]],[[3040,5622],[-51,38]],[[6078,11228],[44,-18],[19,4],[75,31],[60,10],[63,-4],[32,-18],[15,-26],[4,-34],[-17,-26],[-46,-7],[-44,6],[-63,-23],[-11,-13],[-12,-41],[24,-42],[13,-9],[36,-9],[46,4],[67,12],[39,-14],[18,-15],[-2,-17],[-22,-18],[-49,-28],[-55,-46],[-20,-63],[-6,-73],[2,-72],[11,-36],[27,-22],[24,-9],[62,-1],[36,13],[35,23],[12,18],[4,51],[8,16],[36,36],[5,29],[-12,53],[-34,101],[-1,110],[13,72],[17,37],[33,50],[19,39],[11,36],[7,50],[15,42],[23,33],[48,32],[28,6],[36,-24],[32,-49],[27,-22],[20,-3],[64,0],[29,-12],[23,-22],[32,-14],[44,2],[17,8],[38,39],[31,40],[17,14],[28,10],[40,2],[25,-27],[3,-29],[34,-25]],[[7255,11346],[6,-36],[-71,-1],[-92,-33],[2,-80],[-17,-49],[-67,-74],[-14,-20],[-4,-28],[7,-42],[20,-35],[9,-33],[-2,-19],[4,-59],[-39,-60],[-63,-41],[-53,-57],[-17,-13],[-67,-26],[-16,-20],[-20,-40],[-52,-62],[-40,-27],[-16,-20],[-10,-40],[15,-72],[-1,-39],[-21,-45],[6,-64],[0,-73],[11,-31],[23,-26],[12,-28],[-2,-23],[-39,-56],[-2,-36],[33,-89],[-1,-46],[20,-36],[10,-47],[-23,-76]],[[6614,9646],[-181,-90],[-62,-35],[-64,-30],[-38,-13],[-49,-100],[-214,23]],[[3195,2179],[-174,-160],[1,-20],[-48,-47],[-49,-18],[-21,-26]],[[2904,1908],[-38,20],[-67,7],[-31,25],[-48,32],[-18,-22],[-21,14],[8,14],[-37,15],[-43,12],[-10,9],[-36,1],[-21,-6],[-25,7],[3,30],[-37,7],[-13,-23],[-20,4],[-119,-104],[4,-35],[-41,-30],[-37,-19]],[[2257,1866],[-45,68],[-11,32],[12,38],[0,43],[-18,36]],[[2195,2083],[32,10],[19,-10],[21,1],[15,25],[-7,42],[22,9],[37,-23],[33,11],[-7,32],[13,8],[34,5],[-5,34],[9,11],[29,-12],[36,-5],[1,58],[37,-5],[29,13],[16,-36],[60,6],[31,-7],[22,11],[3,33],[23,4],[31,-14],[17,7],[36,-4],[31,-24],[40,-18],[46,4],[50,-6],[34,19],[9,-3],[-81,-104],[28,-5],[69,-20],[17,-10],[24,-1],[27,20],[27,2],[29,18],[20,21],[43,-1]],[[2141,5286],[17,17],[52,25],[63,23],[65,16],[92,8],[35,5]],[[2465,5380],[23,-24],[26,-13],[48,-7],[57,4],[153,36],[27,-9],[4,-25],[-24,-48],[-53,-44],[-34,-71],[-5,-19],[12,-16],[31,-3],[65,26],[96,12],[60,15],[43,25],[42,84],[39,27],[15,-1],[29,-31],[2,-72],[9,-37],[12,-109],[-26,-55],[-17,-64],[3,-21],[44,-49],[-6,-32],[-19,-19],[2,-32],[64,-79],[15,-29],[-2,-13],[-23,-21],[-13,-60],[5,-51],[24,-39],[28,-21],[41,17],[73,122],[24,24],[33,1],[31,-18],[26,-24],[16,-2],[13,17],[-26,36],[5,25],[15,30],[77,51],[34,11],[41,6],[21,-23],[16,-55],[1,-26],[18,-78],[16,-93],[8,-14],[50,-29],[21,-6],[24,3],[35,34],[29,58],[10,7]],[[3873,4569],[31,10],[38,-2],[22,-19],[-12,-39],[-18,-3],[-49,-23],[-52,-42]],[[3833,4451],[-12,-24],[-22,-18],[-37,-18],[-139,-3],[-30,-17],[-4,-42],[19,-19],[55,-8],[87,5],[-23,-206],[-9,-110],[-19,-173],[40,-96],[-16,-68],[-47,-219]],[[3676,3435],[-564,44],[-155,15],[-178,21],[-181,20]],[[2249,4367],[24,46],[20,62],[19,79],[-34,133],[-11,61],[-9,84],[-13,28],[-52,66],[-19,30],[-36,80],[-4,20],[-10,110],[1,56],[16,64]],[[6109,5771],[146,330],[170,395]],[[6425,6496],[11,77],[33,170],[33,218],[40,242],[39,253],[19,107]],[[7791,7550],[44,-35],[81,-51],[37,-18],[99,-63],[34,-10],[42,-4],[21,4],[-8,-32],[-36,-56],[10,-107],[-24,-37],[-6,-27],[-16,-23],[-2,-24],[-17,-20],[-35,-23],[-56,-20],[-39,-28],[-32,-14],[-32,-35]],[[7856,6927],[-3,14],[-88,-25],[-150,-76],[-203,-141],[-62,-2],[-3,-175],[74,-2],[-1,-288],[27,2]],[[7447,6234],[-5,-18],[-27,-54],[-10,-30],[-23,-32],[-6,-46],[28,-61],[-10,-59],[-24,-24],[-46,-76],[0,-42],[-7,-39],[-8,-15],[-47,-33],[-26,-28],[-12,-27],[-4,-37],[-20,-53]],[[7200,5560],[-358,66],[-589,115],[-144,30]],[[2969,7375],[66,-97],[-64,-3],[-18,-18],[-14,-60],[55,-18],[89,-37],[88,-28],[13,3],[14,-23]],[[3297,6710],[-53,1],[-28,27],[-15,-11]],[[3201,6727],[-13,-15],[-559,3]],[[1763,7303],[-103,635]],[[2904,1908],[-20,-17]],[[2884,1891],[-25,19],[-60,9],[-75,-2],[-36,14],[-53,37],[-62,20],[-51,-9],[-37,-21],[-88,-98],[-29,-21],[-34,-10],[-38,11],[-39,26]],[[980,7528],[71,57],[55,86],[116,-64],[137,-17],[-2,-100],[17,-6],[0,-74]],[[361,3632],[33,14],[23,0]],[[417,3646],[-27,-36],[-77,-68],[-47,-23],[-61,-14],[-22,1],[-48,-8],[-128,-32],[12,75],[-9,41]],[[7255,11346],[29,2],[50,25],[40,4],[165,28],[73,26],[24,16],[30,51],[75,62]],[[7741,11560],[49,-34],[90,-55],[107,-69],[44,-27],[-3,-64],[-13,-687],[-20,-78],[-1,-28],[-150,-255],[61,-57],[8,-25],[24,-16],[46,-15],[46,-10],[31,-15],[20,-19],[45,-91],[18,-25],[19,-12],[35,-2],[17,8],[25,27],[33,54],[27,18],[99,-4],[11,-30],[-9,-21],[-29,-34],[-10,-29],[1,-25],[13,-19],[27,-24],[13,-29],[-2,-34],[-31,-62],[-41,-29],[-53,-11],[-32,0],[-84,17],[-35,2],[-28,-10],[-31,-36],[-2,-26]],[[4524,6450],[52,147],[56,178]],[[4632,6775],[657,-101],[260,-42],[593,-93],[283,-43]],[[6109,5771],[-166,-383],[-45,-89],[-49,-106],[-46,-95],[-43,-82],[-27,-62],[-185,-386]],[[5548,4568],[-29,-12],[-27,25],[-37,48],[-24,49],[-28,1],[-12,13],[-41,-3],[-12,6],[-15,32],[-26,35],[-22,53],[-40,25],[-23,38],[-43,50],[-9,26],[-7,124],[-12,51],[-42,55],[-6,13],[-11,58],[6,40],[16,78],[-2,41],[35,48],[7,32],[19,16],[11,24],[-4,54],[-14,37],[7,27],[30,27],[-44,5],[-33,31],[11,32],[25,17],[50,14],[39,1],[22,42],[-11,8],[-32,61],[-4,16],[-27,39],[-25,19],[-63,38],[-44,36],[-25,33],[-42,82],[-16,21],[-91,99],[-48,43],[-33,24],[-43,24],[-60,28],[-175,58]],[[3873,4569],[34,104],[51,198],[40,148],[76,186],[14,38],[62,145],[133,382],[26,68]],[[4309,5838],[12,40],[102,291],[24,64]],[[4447,6233],[30,88],[47,129]],[[5548,4568],[-117,-243],[-14,-32],[41,-40],[24,-34]],[[5482,4219],[-177,23],[-158,21],[-160,24],[-163,23],[-120,13],[-264,38],[-83,10],[-406,54],[-79,14],[-39,12]],[[1405,5701],[359,-212]],[[1764,5489],[168,-101],[119,-63]],[[2051,5325],[-8,-12],[-28,-74],[-19,-26],[-78,-75],[-42,-31],[-24,-38],[0,-14],[-31,1],[-49,13],[-40,18],[-70,20],[-46,-7],[-18,2],[-67,36],[-15,16],[-10,30],[-26,22],[-49,18],[-58,1],[6,11],[-26,31],[-49,10],[-69,45],[-32,10],[-117,-9],[-13,-11],[65,-74],[42,-71],[49,6],[22,-5],[45,-59],[17,-46],[-13,-2],[-101,-34],[-16,0],[-65,-18],[-21,-14],[-17,10],[-59,19],[-53,-2],[-58,-37],[-45,-61],[-67,-63],[-97,-138],[-51,-52],[-21,-26],[-30,-58],[-33,-42],[-27,-79],[-51,-128],[-5,-30],[4,-110],[-11,-61],[-51,-120],[-10,-31],[-7,-81],[-9,-29],[-38,-52],[-8,-34],[9,-93],[-8,-34],[-21,-23]],[[15,3923],[4,348],[0,179],[-4,91],[-15,640],[5,312],[3,192],[1,258]],[[4961,8023],[114,-7],[203,-68],[144,17],[31,-86],[19,-2],[25,-20],[8,-24],[1,-42],[23,-23],[45,-19],[21,-16],[46,-10],[44,7],[12,10],[34,-20],[3,-22],[60,-6],[47,-12],[22,-14],[37,-13],[41,0],[20,7],[38,23],[31,-6],[20,-18],[32,2],[31,-5],[14,-15],[64,-4],[56,-11],[21,0],[27,11],[32,-2],[26,-22],[47,-8],[38,-19],[15,-17],[17,2],[11,-21],[15,8],[50,58],[26,15],[18,-4],[19,15]],[[4632,6775],[-235,39],[-157,23],[-222,37]],[[7741,11560],[48,33],[70,57],[17,29],[23,13],[30,-12],[30,-30],[21,-6],[40,6],[38,-7],[38,-24],[107,-24],[49,-4],[51,12],[19,13],[77,89],[36,29],[-1,15],[41,41],[51,14],[57,29],[21,19],[55,75],[21,50],[64,93],[28,15],[86,31],[76,23],[27,12],[38,30],[42,21],[44,2],[35,10],[31,29],[23,41],[59,90],[64,51],[50,29],[15,15],[94,30],[59,9],[70,23],[21,16],[57,30],[0,-38],[101,4],[-6,-201],[-18,-773],[-4,-130],[-10,-386],[-6,-324],[-5,-163],[2,-142],[-25,-188],[1,-20],[-40,-282],[5,-23],[0,-300],[-1,-47],[1,-208],[3,-48],[-1,-191],[1,-48]],[[3447,6881],[77,-100],[29,-44],[15,-29]],[[3568,6708],[-140,1]],[[9666,7521],[0,-22],[3,-1191],[-6,-301],[-109,-138],[-138,-172],[-150,-187],[-8,-5],[-47,-58],[-15,-27],[-61,-68],[-65,-81],[-106,-135],[-35,-43]],[[8165,5365],[235,241],[54,59],[50,40],[41,30],[45,18],[52,8],[95,-2],[92,6],[73,15],[101,3],[39,18],[75,42],[14,-3],[26,28],[-42,4],[-116,-61],[-43,-7],[-73,11],[-31,18],[-4,34],[28,132],[40,180],[-6,62],[3,23],[-16,51],[-21,32],[-16,49],[-5,32],[-25,-16],[-27,2],[-70,-13],[-6,9],[-2,102],[-39,12],[-49,-1],[10,37],[23,47],[144,187],[43,67],[21,22],[81,59],[102,93],[34,22],[85,41],[20,26],[1,15],[-22,106],[1,28],[11,23],[71,106],[36,40],[21,45],[0,42]],[[2878,1829],[95,-69],[-29,-38],[-43,-33],[-34,-19],[16,-19],[-25,-13]],[[2863,1843],[18,18],[3,30]],[[3195,2179],[128,118],[100,105],[57,40],[49,57],[257,212],[121,101],[100,82]],[[4007,2894],[174,-149],[274,-236],[370,-87],[221,-50]],[[5046,2372],[54,-67],[118,-59],[32,-48]],[[5250,2198],[-29,-41],[-76,-114],[-29,-30],[-47,-30],[-52,-20],[-69,-10],[-33,-10],[-50,-22],[-52,-31],[-66,-22],[-28,-3],[-53,3],[-33,9],[-120,72],[-34,24],[-44,23],[-28,9],[-58,1],[-36,-6],[-97,-26],[-64,-9],[-46,-16],[-92,-27],[-78,-9],[-27,-10],[-57,-35],[-89,-49],[-23,-15],[-61,-51],[-41,-20],[-49,-38],[-36,-37],[-62,-73],[-31,-33],[-30,-22],[-44,-24],[-37,-13]],[[3449,6077],[14,19],[38,-6],[40,-26],[69,-9],[38,130],[25,-15],[17,19],[34,6],[19,19],[10,25],[60,-4],[26,18],[43,-10],[51,-33],[38,-18],[38,0],[14,-8],[114,69],[66,0],[63,-7],[32,3],[46,-6],[79,-3],[24,-7]],[[4309,5838],[-14,-26],[-29,-16],[-6,-57],[-12,-11],[-61,12],[-33,-24],[-25,0],[-22,-11],[-74,24],[-22,-1],[-14,-13],[-35,-70],[-35,-35],[-54,22],[-61,-26],[-48,-13],[-26,-24],[-69,-35],[-15,-22],[-54,-14],[-16,4],[-32,30],[-8,20],[-26,2]],[[30,7749],[2,474],[0,156],[8,472]],[[62,13261],[18,-12],[24,1],[25,16],[44,0],[40,7],[39,44],[25,9],[46,1],[62,21]],[[385,13348],[28,-20],[35,-10],[103,-63],[42,-34],[37,-45],[62,-50],[64,-98],[8,-27],[0,-36],[-20,-45],[-28,-35],[-22,-20],[-57,-35],[-37,-27],[-37,-34],[-23,-34],[-13,-40],[7,-92],[22,-60],[26,-22],[41,-20],[44,-15],[13,1],[75,-23],[45,-1],[49,-17],[161,-89],[86,-43],[45,-38],[44,-15],[35,-2],[143,-44],[43,-20],[84,-28],[74,-4],[36,2],[65,16],[36,21],[47,36],[54,20],[43,-1],[35,-21],[20,-31],[7,-37],[0,-29],[-8,-47],[-29,-120],[-21,-64],[-16,-42],[-40,-73],[-29,-27],[-19,-34],[-26,-30],[-19,-41],[-12,-86],[5,-29],[20,-32],[18,-16],[25,-6],[107,6],[103,-10],[13,2],[101,-24],[49,-20],[47,-38],[68,-72],[10,-16],[11,-54],[-3,-28],[-10,-23],[-22,-27],[-23,-15],[-41,-13],[-43,6],[-26,8],[-108,47],[-43,13],[-79,9],[-50,1],[-89,-19],[-53,-19],[-96,-58],[-79,-44],[-62,-68],[-27,-37],[-20,-58],[3,-81],[13,-32],[18,-25],[40,-29],[50,-25],[91,-20],[52,-15],[88,-33],[48,-22],[67,-26],[98,-16],[59,5],[68,27],[22,22],[39,76]],[[68,10341],[0,378],[-1,110],[-1,537],[3,119],[-4,25],[-2,721],[-1,255],[1,394],[-1,381]],[[2231,2587],[44,2],[15,16],[46,6],[28,13],[52,38],[3,36],[43,11],[84,76],[5,31],[16,23],[14,34],[5,335],[5,157],[2,130]],[[3676,3435],[62,-88],[92,-151],[101,-175],[76,-127]],[[2195,2083],[-28,39],[-52,44],[-19,28],[16,103],[-2,33],[5,78],[38,62],[32,37],[46,80]],[[6110,3585],[-56,50],[-139,132],[-80,78],[-162,-11],[-42,-1],[-202,-14]],[[5429,3819],[-20,75],[43,204],[26,111],[4,10]],[[5046,2372],[172,243],[188,310],[104,174],[87,141],[-24,61],[-18,58],[-57,212],[-69,248]],[[7189,2915],[-226,-286],[-154,-191],[-87,-110],[-249,-311],[-97,-125],[-213,-257],[-54,-62],[-131,-161],[-33,-38],[-277,-336]],[[5668,1038],[-85,96],[-111,128],[-51,68],[-70,104],[-11,148],[-23,258],[-16,191],[51,18],[-102,149]],[[7447,6234],[206,-6],[98,22],[71,85],[-3,153],[46,8],[73,53],[-82,378]],[[1764,5489],[433,121],[34,6],[182,-69],[1,22],[-11,26],[-10,44],[-4,43],[-8,15],[46,46],[42,30],[29,34],[47,27],[5,10],[-3,125],[62,-7],[43,-25],[24,1],[34,22],[6,66],[8,28],[36,81],[26,14],[18,37],[-6,32],[6,18],[37,35],[1,30],[28,17],[58,58],[16,40],[33,41],[15,9],[40,3],[21,17],[1,57],[15,27],[103,95],[10,13],[19,49]],[[3568,6708],[23,-46],[-2,-22],[-18,-58],[-29,-66],[-158,-342],[-65,-72]],[[2989,5660],[-149,-183],[-299,-69],[-76,-28]],[[2141,5286],[-90,39]],[[502,3712],[-65,-39],[-20,-27]],[[62,13261],[-1,214],[1,117],[-1,247],[15,440],[15,282],[2,329],[-13,533],[27,-33],[62,-58],[26,-20],[43,-46],[32,-51],[8,-54],[-14,-67],[-21,-38],[-23,-33],[-63,-73],[-15,-28],[-9,-83],[11,-30],[40,-41],[31,-43],[24,-23],[35,-51],[18,-83],[3,-73],[-14,-62],[-9,-61],[-1,-49],[7,-62],[5,-121],[-4,-44],[-25,-99],[-13,-79],[14,-23],[-6,-29],[2,-40],[-6,-12],[15,-86],[7,-118],[14,-55],[20,-62],[29,-74],[27,-41],[28,-30]],[[5668,1038],[-157,-188],[-113,-139],[-261,-314],[-223,-271],[-27,41],[-36,32],[-36,22],[-36,4],[-75,0],[-76,-5],[-75,-22],[-35,-14],[-105,-65],[-16,-8],[-31,11],[-12,37],[21,59],[-2,43],[-14,16],[-35,14],[-51,-3],[-29,-17],[-29,-48],[-3,-86],[-16,-53],[-17,-23],[-44,-32],[-80,-24],[-39,-5],[-51,11],[-17,29],[13,60],[-7,24],[-26,50],[-17,16],[-50,31],[-20,20],[-43,24],[-40,35],[-19,25],[-44,75],[-29,26],[-48,-1],[-52,-12],[-42,-14],[-42,-6],[-50,8],[-56,17],[-25,21],[-36,52],[-25,26],[-76,63],[-39,29],[-60,35],[-152,85],[-112,72],[-102,62],[-50,39],[-28,37],[-37,116],[-27,57]],[[2231,2587],[2,37],[-19,49],[-24,9],[-41,-6],[-56,-33],[-35,-24],[-40,-45],[-10,-24]]],"transform":{"scale":[0.000049476341663253975,0.00004179413862413268],"translate":[-79.693284,40.52488]},"objects":{"Geometry\\42-005":{"type":"GeometryCollection","geometries":[{"arcs":[[0,1,2,3]],"type":"Polygon","properties":{"GEOID":"420059502002"}},{"arcs":[[4,5,6,7,8,9,10,11,12]],"type":"Polygon","properties":{"GEOID":"420059501001"}},{"arcs":[[13,14,15,16,17]],"type":"Polygon","properties":{"GEOID":"420059503001"}},{"arcs":[[18,19,20]],"type":"Polygon","properties":{"GEOID":"420059518001"}},{"arcs":[[21,22,23,-21,24,25]],"type":"Polygon","properties":{"GEOID":"420059518002"}},{"arcs":[[-25,-20,26,27]],"type":"Polygon","properties":{"GEOID":"420059518003"}},{"arcs":[[28,29,30,31]],"type":"Polygon","properties":{"GEOID":"420059519001"}},{"arcs":[[32,33,34,35,36]],"type":"Polygon","properties":{"GEOID":"420059517002"}},{"arcs":[[37,-23,38]],"type":"Polygon","properties":{"GEOID":"420059513003"}},{"arcs":[[-3,39,40,-15,41,42]],"type":"Polygon","properties":{"GEOID":"420059502001"}},{"arcs":[[-41,43,44,45,46,47,48,-16]],"type":"Polygon","properties":{"GEOID":"420059505001"}},{"arcs":[[49,50,51,-39,-22,52,53]],"type":"Polygon","properties":{"GEOID":"420059513002"}},{"arcs":[[54,55,56,57,58,59]],"type":"Polygon","properties":{"GEOID":"420059516003"}},{"arcs":[[-45,60,61,62,63,64,65]],"type":"Polygon","properties":{"GEOID":"420059506003"}},{"arcs":[[66,67,68,69,70,71]],"type":"Polygon","properties":{"GEOID":"420059504002"}},{"arcs":[[72,73,-57,74,-55,75]],"type":"Polygon","properties":{"GEOID":"420059515003"}},{"arcs":[[-56,-75]],"type":"Polygon","properties":{"GEOID":"420059515004"}},{"arcs":[[76,77,78,79]],"type":"Polygon","properties":{"GEOID":"420059510002"}},{"arcs":[[-46,-66,80,81,82]],"type":"Polygon","properties":{"GEOID":"420059511002"}},{"arcs":[[-82,83,84,85,86,87,88]],"type":"Polygon","properties":{"GEOID":"420059511003"}},{"arcs":[[-81,-65,89,-84]],"type":"Polygon","properties":{"GEOID":"420059511001"}},{"arcs":[[-90,-64,90,91,92,-85]],"type":"Polygon","properties":{"GEOID":"420059511005"}},{"arcs":[[93,-92,94,-87]],"type":"Polygon","properties":{"GEOID":"420059511004"}},{"arcs":[[-71,95,96,97,98]],"type":"Polygon","properties":{"GEOID":"420059512002"}},{"arcs":[[99,100,101,-73,102]],"type":"Polygon","properties":{"GEOID":"420059515001"}},{"arcs":[[103,104,105]],"type":"Polygon","properties":{"GEOID":"420059505004"}},{"arcs":[[106,107,-79]],"type":"Polygon","properties":{"GEOID":"420059509003"}},{"arcs":[[108,109,110,-78]],"type":"Polygon","properties":{"GEOID":"420059510003"}},{"arcs":[[111,112,-109,-77,113]],"type":"Polygon","properties":{"GEOID":"420059510001"}},{"arcs":[[114,115,-6,116,-1]],"type":"Polygon","properties":{"GEOID":"420059501004"}},{"arcs":[[117,118,119,120]],"type":"Polygon","properties":{"GEOID":"420059514002"}},{"arcs":[[121,122,123,124,125,-50,126]],"type":"Polygon","properties":{"GEOID":"420059508004"}},{"arcs":[[127,128,-12,129,130,131,132]],"type":"Polygon","properties":{"GEOID":"420059507002"}},{"arcs":[[133,-106,134,135,-96,-70,136,-48]],"type":"Polygon","properties":{"GEOID":"420059505002"}},{"arcs":[[137,138,-119]],"type":"Polygon","properties":{"GEOID":"420059514003"}},{"arcs":[[139,-68]],"type":"Polygon","properties":{"GEOID":"420059504003"}},{"arcs":[[-31,140,141]],"type":"Polygon","properties":{"GEOID":"420059519002"}},{"arcs":[[142,143,-7,-116]],"type":"Polygon","properties":{"GEOID":"420059501003"}},{"arcs":[[144,145,-128,146,147]],"type":"Polygon","properties":{"GEOID":"420059508001"}},{"arcs":[[148,149,150,-148,151,152,-124]],"type":"Polygon","properties":{"GEOID":"420059508002"}},{"arcs":[[-98,153,154,155,-29,156]],"type":"Polygon","properties":{"GEOID":"420059512001"}},{"arcs":[[157,-13,-129,-146,158,-62]],"type":"Polygon","properties":{"GEOID":"420059506002"}},{"arcs":[[-8,-144,159]],"type":"Polygon","properties":{"GEOID":"420059501002"}},{"arcs":[[-83,-89,160,161,-104,-134,-47]],"type":"Polygon","properties":{"GEOID":"420059505003"}},{"arcs":[[-10,162,-34,163]],"type":"Polygon","properties":{"GEOID":"420059507003"}},{"arcs":[[164,-101]],"type":"Polygon","properties":{"GEOID":"420059515002"}},{"arcs":[[-102,-165,-100,165,-138,-118,166,167,168,169,-58,-74]],"type":"Polygon","properties":{"GEOID":"420059516001"}},{"arcs":[[-93,-94,-86]],"type":"Polygon","properties":{"GEOID":"420059511006"}},{"arcs":[[170,-150,171,-107,-111]],"type":"Polygon","properties":{"GEOID":"420059509002"}},{"arcs":[[-17,-49,-137,-69,-140,-67,172]],"type":"Polygon","properties":{"GEOID":"420059504001"}},{"arcs":[[173,174,-42,-14,175]],"type":"Polygon","properties":{"GEOID":"420059503003"}},{"arcs":[[176,-51,-126,177,-167,-121,178]],"type":"Polygon","properties":{"GEOID":"420059514001"}},{"arcs":[[-152,-147,-133,-37,179,180]],"type":"Polygon","properties":{"GEOID":"420059517003"}},{"arcs":[[181,-180,-36,182,183,-169]],"type":"Polygon","properties":{"GEOID":"420059517001"}},{"arcs":[[-40,-2,-117,-5,-158,-61,-44]],"type":"Polygon","properties":{"GEOID":"420059506001"}},{"arcs":[[184,-130,-11,-164,-33,-132]],"type":"Polygon","properties":{"GEOID":"420059507001"}},{"arcs":[[185,-135,-105,-162,186,-112,187,-122,188,-155]],"type":"Polygon","properties":{"GEOID":"420059512003"}},{"arcs":[[-156,-189,-127,-54,189,-141,-30]],"type":"Polygon","properties":{"GEOID":"420059512005"}},{"arcs":[[-174,190]],"type":"Polygon","properties":{"GEOID":"420059503002"}},{"arcs":[[-161,-88,-95,-91,-63,-159,-145,-151,-171,-110,-113,-187]],"type":"Polygon","properties":{"GEOID":"420059509004"}},{"arcs":[[-185,-131]],"type":"Polygon","properties":{"GEOID":"420059507004"}},{"arcs":[[-153,-181,-182,-168,-178,-125]],"type":"Polygon","properties":{"GEOID":"420059508003"}},{"arcs":[[-59,-170,-184,191]],"type":"Polygon","properties":{"GEOID":"420059516002"}},{"arcs":[[-136,-186,-154,-97]],"type":"Polygon","properties":{"GEOID":"420059512004"}},{"arcs":[[-188,-114,-80,-108,-172,-149,-123]],"type":"Polygon","properties":{"GEOID":"420059509001"}},{"arcs":[[-52,-177,192,-27,-19,-24,-38]],"type":"Polygon","properties":{"GEOID":"420059513001"}}]}}}