{"type":"Topology","arcs":[[[3212,6853],[41,-164],[71,-76],[141,-139],[79,117],[68,83],[75,126],[21,-37],[49,-21],[241,-7],[11,6],[116,35],[46,-8],[42,-65],[140,-22],[-3,35],[5,48],[185,-169],[49,204],[8,16],[89,113],[-10,14]],[[4676,6942],[30,-22],[66,-27],[66,-12],[36,-12],[29,-44],[0,-46],[-21,-26],[-45,-93],[25,-31],[45,-2],[82,-17],[92,36],[51,56],[41,77],[1,42],[-18,56],[6,32],[22,9],[32,-7],[25,-31],[10,-40],[-15,-82],[15,-32],[33,-16],[105,-14],[32,-25],[10,-44],[-31,-58],[-52,-64],[-4,-30],[71,-93],[40,4]],[[5455,6386],[24,-29],[-12,-42],[-64,-35],[-24,18],[-26,0],[-1,-26],[-45,18],[-18,-22],[22,-41],[-33,-6],[-18,38],[-28,-12],[-21,16],[-40,-33],[-27,7],[-12,-36],[-18,11],[-17,-17],[-34,25],[-26,-34],[-37,3],[-3,-23],[232,-367]],[[5229,5799],[-83,-36],[-12,-35],[-70,-71],[-120,-71],[-142,-142]],[[4802,5444],[-81,62],[-153,-121],[-78,-63]],[[4490,5322],[-41,71],[-214,169],[-131,78],[-20,5],[16,-99],[18,-79],[4,-35],[-9,-21],[-28,-18],[-49,-6],[-44,5],[-24,-6],[5,-31],[20,-29]],[[3993,5326],[-217,60],[-359,101],[-481,133]],[[2936,5620],[-33,50],[-22,55],[-52,32],[-18,26],[1,36],[15,111],[-20,22],[13,14],[-25,19],[11,56],[25,15],[10,20],[-10,44],[17,17],[15,56],[9,9],[63,27],[38,62],[30,-11],[45,3],[2,37],[41,70],[-2,20],[-29,28],[-14,41],[11,21],[38,-11],[57,10],[34,30],[-17,29],[-96,9],[-28,23],[-7,20],[-41,44],[-1,25],[30,41],[76,49],[51,6],[27,10],[-20,33],[17,24],[35,11]],[[4831,8631],[40,190],[108,325],[4,51],[-14,222]],[[4969,9419],[66,-25],[12,38],[4,82],[-18,86],[-52,166],[-25,99],[7,51],[51,103],[16,109],[-24,139],[6,45],[57,118],[3,43],[-146,423],[-6,48],[-17,53],[-18,18],[-25,62]],[[4860,11077],[33,1],[58,34],[26,4],[10,-21],[37,-42],[65,-60],[30,-89],[27,-43],[56,-71],[26,-28],[54,-42],[20,-32],[10,-33],[-5,-47],[-20,-52],[5,-41],[49,-31],[57,-27],[1,-26],[-43,-21],[-28,-30],[-3,-53],[45,-85],[16,-73],[10,-19],[47,-25],[34,6],[26,29],[95,56],[28,-30],[3,-33],[-27,-32],[-49,-21],[3,-51],[-5,-34],[24,-12],[23,7],[20,29],[44,9],[27,-11],[4,-45],[-6,-21],[-37,-26],[14,-18],[73,7],[46,-14],[114,11],[67,35],[34,3],[24,-18],[0,-33],[-20,-17],[-72,-11],[-30,-23],[3,-36],[41,-26],[102,-14],[57,-3],[41,20],[15,17],[-3,25],[20,10],[15,-32],[24,-4],[19,40],[42,21],[62,9],[13,33],[-38,24],[19,16],[31,-16],[26,-34],[13,-38],[21,26],[32,21],[29,4],[50,-5],[56,-30],[40,3],[14,33],[-32,47],[-46,26],[-4,18],[24,12],[39,-15],[30,-39],[27,-14],[29,1],[78,-43],[86,-12],[22,-21],[-1,-24],[-49,-31],[1,-29]],[[6848,9807],[-52,-31],[-43,21],[-21,-22],[33,-66],[1,-19],[-22,-17],[-39,14],[-19,37],[-22,0],[-2,-27],[-19,-9],[-74,41],[-63,12],[-9,-22],[16,-35],[-19,-24],[8,-15],[-22,-24],[60,-60],[-3,-16],[-97,-24],[-26,-11],[50,-54],[-176,-61],[-105,1],[-28,-10],[-211,-100],[-79,-54],[-80,-61],[-75,-20],[-36,-27],[-112,-59],[-139,-44],[-91,-67],[-227,-175],[-16,-10],[-258,-138]],[[1435,5210],[42,-3],[33,-12],[120,-20],[105,3],[41,10],[101,-3],[58,-6],[49,10],[40,19],[30,-1],[59,21],[29,-6],[93,12],[39,13],[42,-14],[89,-98],[10,-59],[24,-50],[43,-44],[29,-38],[71,-27],[35,-36],[41,-27],[55,-17],[82,-5],[38,-14],[53,-11],[40,2],[30,17],[52,5],[37,-39],[112,-28],[37,-26],[14,6],[55,0],[81,7],[31,18],[15,-5],[48,7],[27,-12],[65,4],[35,35],[50,3],[20,-10],[15,-27],[-10,-52],[32,-67],[26,-17],[74,-23],[57,-73],[31,-1],[14,17],[68,11],[14,14],[-17,36],[9,11],[87,9],[30,16]],[[4065,4645],[22,-42],[3,-66],[-7,-182],[-70,24],[-105,2],[-161,-18],[-18,-137],[-77,-124],[-21,-6],[-50,6],[-38,-6],[-29,-29],[-10,-66]],[[3504,4001],[-93,50],[-121,-21],[-186,40],[-51,24],[-143,-12],[-40,-1],[-7,-23],[-56,16],[-30,24],[-24,-45],[-41,-16],[-125,23],[-28,-11],[-75,-42],[-11,28],[-2,41],[-29,79],[-2,41],[30,61],[2,147],[9,9],[2,54],[-35,38],[-7,29],[-25,-12],[-81,-62],[-35,-16],[-96,-11],[-137,-4],[-123,-16],[-16,-5],[-170,-113],[-75,97],[-58,63],[-77,46],[-24,33],[-1,29],[22,100],[-8,35],[-30,60],[-5,29],[3,50],[-10,50],[-60,175],[-9,104],[9,44]],[[4140,7762],[23,-30],[26,-12],[199,-22],[75,24],[163,-21],[-7,42],[7,25],[173,301],[6,27],[-2,52],[160,-183],[13,-5],[416,-89],[175,-78],[-62,-54],[41,-77],[48,-46],[8,-21],[36,-131],[23,-68],[81,-186],[102,-43],[33,-21],[66,-61],[38,68],[62,82],[233,-24],[20,3],[202,58],[25,13],[28,43],[82,69],[60,127],[58,-24],[36,6],[39,16],[6,14],[81,16],[3,-31],[36,-88],[22,-26],[38,-11],[52,21],[62,8],[53,-20],[24,-21],[0,-14],[-34,-34],[-25,35],[-23,-2],[19,-43],[-4,-21],[-29,-24],[-7,-43],[16,-32],[41,-2],[-9,-21],[-30,-31],[0,-34],[17,-26],[36,25],[23,-7],[-4,-62],[67,-47],[16,0],[37,41],[29,-13],[2,-26],[-30,-48],[2,-58],[-5,-44],[35,0],[47,-10],[8,-9]],[[7398,6834],[-22,-73],[-28,-44],[-23,-24],[-12,-48],[-22,-40],[-68,-88],[-12,-37]],[[7211,6480],[-24,-84]],[[7187,6396],[-18,-60],[1,-66],[-66,-113],[-36,-48]],[[7068,6109],[-70,-97],[-62,-61],[-127,-134],[-15,-13]],[[6794,5804],[-101,-85],[-24,-14],[-177,-66],[-66,-40],[-14,-38],[-11,-74],[-29,-61],[-58,-96],[-63,-79],[-50,-73],[-198,-252],[-37,-31],[-69,-31],[-28,-22],[6,-12],[-17,-105],[-11,-30]],[[5847,4695],[-9,-24],[-46,-71],[-66,-38],[-119,-12]],[[5607,4550],[69,134],[7,28]],[[5683,4712],[33,117],[16,211],[15,58],[26,33],[42,16],[82,21],[24,14],[14,25],[-26,105],[-24,52]],[[5885,5364],[-6,60],[18,33],[78,50],[117,44],[16,18],[-7,31],[-44,50],[-26,41],[-9,27],[-36,55],[-37,30],[-36,48],[-25,55],[2,36],[15,17],[10,38],[-8,35],[-35,12],[-43,-24],[-84,-22]],[[5745,5998],[-28,13],[-7,21],[9,27],[51,69],[18,123],[-11,32],[-39,28],[-79,-18],[-39,10],[8,82],[-43,82],[-24,23],[-45,5],[-20,-17],[-41,-92]],[[4676,6942],[-24,29],[-1,23],[45,77],[23,67],[-15,46],[-60,65],[-81,71],[-68,67],[-30,40],[-26,49],[-52,51],[-23,-16],[-18,-94],[-47,-97],[-13,-36],[-22,-15],[-129,-30],[-38,7],[-64,30],[-31,38],[2,27],[22,51],[-17,36],[4,19],[53,32],[-7,30],[-63,50]],[[3996,7559],[48,34],[73,87],[23,82]],[[1027,5438],[25,-80],[64,41],[37,33],[10,23],[28,5],[64,-47],[36,-39]],[[1291,5374],[44,-40],[-2,-54],[20,11],[39,-42],[10,-21],[33,-18]],[[3504,4001],[-3,-25],[15,-41],[65,-73],[45,-135],[58,-56],[12,-49],[33,-206],[-44,-83],[-54,-32],[-72,-135],[-70,-50],[23,-26],[22,-83],[56,-79],[63,-44],[44,-45],[16,-33],[-9,-67],[-18,-17],[-3,-33],[30,-16],[7,-54],[37,-36],[-1,-54],[13,-15],[-4,-22],[14,-79],[14,-21],[61,-37],[21,-44],[42,-14],[65,1],[32,-9],[40,-24],[-259,-342],[-22,-35]],[[3773,1888],[-21,20],[-31,51],[-27,81],[-48,70],[-21,14],[-53,19],[-44,26],[-43,45],[-9,51],[-10,12],[-62,21],[-69,61],[-33,5],[-103,-31],[-80,42],[-30,26],[-5,28],[46,48],[5,43],[-28,37],[-26,22],[-33,8],[-29,-25],[-25,19],[10,14],[37,16],[13,21],[-15,40],[-45,-19],[-52,-38],[-60,-10],[-20,-16],[-31,-2],[-7,37],[74,68],[5,24],[-27,21],[-25,-5],[-53,-34],[-32,-28],[-28,-8],[-30,13],[-7,23],[32,38],[41,61],[-4,31],[-12,12],[-46,-2],[-36,-84],[-21,-33],[-31,-24],[-34,-13],[-34,0],[-79,36],[-141,80],[-87,33],[-93,4],[-95,25],[-71,33],[-22,51],[-26,11],[-74,10],[-29,19],[-11,62],[-34,85],[-27,-1],[-53,-55],[-58,-13],[-16,28],[44,61],[1,36],[-20,31],[-42,30],[-214,35],[-242,70],[-22,3],[-66,-9],[-63,7],[-82,90],[-96,58],[-156,63],[-113,28],[-114,22],[-164,16],[-63,17],[-62,49],[-113,54],[57,75],[-20,39],[-71,64],[-19,49],[48,261],[23,35],[69,52],[164,183],[42,74],[44,42],[246,168],[26,35],[86,220],[15,28],[196,245],[68,115]],[[3583,9247],[38,-3],[28,10],[30,22],[103,94],[207,145],[97,30],[67,34],[43,15],[30,2],[50,-10],[127,-53],[84,-18],[204,-9],[45,-5],[52,-15],[181,-67]],[[4831,8631],[-174,-111],[-235,-172],[-48,-41],[-95,-131],[-56,-67],[-58,-81],[-90,-145],[65,-121]],[[3996,7559],[-40,24]],[[3956,7583],[-20,87],[-14,8],[-23,-18],[-23,12],[-5,31],[13,12],[52,9],[-8,38],[-20,11],[-49,-28],[-17,5],[15,43],[-44,-18],[-9,65],[-33,86],[-89,43],[37,26],[52,61],[-8,13],[-56,18],[-25,-21],[-13,4],[-2,52],[-20,20],[-30,-2],[-28,-19],[-7,29],[-32,3],[0,-27],[-22,-3],[-38,45],[-58,22],[-30,18],[6,36],[28,6],[11,22],[8,74],[41,-29],[23,59],[-44,21],[-12,26],[-30,36],[0,45],[18,39],[-13,50],[18,41],[-50,14],[-19,13]],[[3387,8661],[41,116],[16,34],[49,71],[78,197],[6,30],[6,138]],[[3583,9247],[4,111],[8,32],[96,268],[24,47],[228,356],[14,15],[193,153],[39,33],[39,44],[167,193],[178,236],[13,32],[64,193],[34,64],[15,14],[67,34],[94,5]],[[6848,9807],[65,-50],[27,-11],[61,-10],[24,-14],[29,-52],[25,-23],[59,8],[31,-22],[16,-49],[47,-57],[4,-74],[-19,-42],[-14,-114],[14,-49],[18,-19],[84,-3],[59,10],[16,33],[36,52],[19,-5],[16,-70],[10,-25],[29,-29],[15,-52],[23,-35],[17,0],[16,32],[22,16],[22,-17],[6,-52],[-31,-40],[-21,-40],[-17,-1],[-18,37],[-28,25],[-10,22],[-26,0],[-8,-36],[18,-29],[1,-36],[22,-23],[33,-6],[-3,-19],[-41,-3],[-18,-18],[-1,-26],[24,-16],[31,-2],[9,-22],[-18,-28],[32,-22],[9,-23],[-14,-49],[17,-16],[61,-25],[8,-35],[-5,-42],[12,-52],[-19,-39],[5,-26],[42,-26],[-3,-24],[-22,-18],[9,-25],[42,-23],[98,-44],[27,-2],[21,14],[3,44],[25,95],[25,20],[28,-6],[24,-32],[15,-59],[28,-81],[-28,-54],[-3,-60],[16,-39],[-7,-35],[-41,-54],[-12,-42],[15,-135]],[[7931,7908],[6,-18],[60,-46],[76,-16],[15,-16],[34,-72]],[[8122,7740],[19,-29],[-13,-66],[-8,-70],[-25,-47]],[[8095,7528],[-17,-50],[-17,-17],[-40,-16],[-53,-72],[-17,-17],[-59,-14],[-44,-95],[-72,-84],[-78,-70],[-91,-53],[-8,-14],[-3,-70],[-46,-63]],[[7550,6893],[-38,-30],[-100,-19],[-14,-10]],[[5373,5292],[50,175]],[[5423,5467],[263,118],[78,-43],[-4,-51],[-15,-37],[25,-64],[30,2],[23,-15],[62,-13]],[[5683,4712],[-119,12],[-9,4],[-143,114],[-35,-2]],[[5377,4840],[5,123],[-19,60],[-3,44]],[[5360,5067],[-3,160],[16,65]],[[8385,7327],[94,111],[41,58],[26,14],[91,14],[14,22]],[[8651,7546],[15,-10]],[[8666,7536],[33,-22],[-16,-25],[22,-10]],[[8705,7479],[-51,-49],[-59,-91],[-4,-29],[11,-26],[-46,-15],[-12,-22],[6,-36],[-55,-17],[-40,-62],[-18,-5],[-30,-66],[-23,12],[24,68],[-52,41],[-17,40],[33,87],[13,18]],[[7187,6396],[52,-21],[72,23],[11,-34],[17,-14],[35,-58],[-19,-21],[-2,-44],[11,-22],[25,0]],[[7389,6205],[-19,-52],[-32,-66],[-81,-108]],[[7257,5979],[-50,26],[-47,-26],[-37,11],[-17,27],[17,16],[-31,49],[-24,27]],[[8122,7740],[21,-1],[165,7],[30,-7],[27,-37]],[[8365,7702],[19,-19],[82,-16],[185,-121]],[[8385,7327],[3,128],[-124,-3],[-4,47],[-64,2],[-101,27]],[[7065,5711],[29,49],[163,219]],[[7389,6205],[20,-26]],[[7409,6179],[9,-18],[33,-106],[24,-67],[27,-52],[38,-45],[16,-48],[15,-16]],[[7571,5827],[-68,-41]],[[7503,5786],[-260,-133],[-230,-78]],[[7013,5575],[-4,30],[56,106]],[[6850,2048],[106,180],[1,40],[-35,106],[-14,62],[-44,167],[-20,111],[-5,77],[1,108],[3,38],[24,125],[12,79],[29,161],[30,109],[16,76],[5,47],[29,129],[43,99],[15,50],[35,60],[5,35],[-13,59],[10,59],[24,109],[40,51],[54,153],[33,128],[3,56],[30,211],[29,156],[38,121],[62,130],[19,67]],[[7415,5207],[24,21],[9,29],[34,72],[51,96],[34,73],[44,83],[82,166],[67,122],[34,44],[32,52],[12,31],[24,35],[20,50],[45,91],[54,92],[43,63]],[[8024,6327],[117,177],[30,31],[53,69],[54,62],[59,54]],[[8337,6720],[53,52],[66,56],[82,85],[27,22],[155,146],[48,106],[25,31],[78,53]],[[8871,7271],[31,3],[22,20],[43,62],[29,56],[21,59],[33,73],[53,95],[110,170],[76,95]],[[9289,7904],[1036,-1],[-143,-174],[-280,-352],[-115,-177],[-92,-198],[-56,-91],[-73,-109],[-24,-23],[-133,-173],[-92,-46],[-251,-227],[-224,-225],[-209,-323],[-294,-543],[-223,-492],[-49,-200],[19,-120],[12,-94],[-4,-138],[-24,-76],[9,-87],[-13,-130],[-29,-152],[-83,-174],[-130,-164],[-28,-141],[-127,-421],[167,-124],[116,-135],[41,-75],[136,-156],[68,-124],[38,-128],[17,-161],[-25,-148],[-38,-121],[-128,-190],[-175,-164],[-157,-81],[-122,-29],[-114,-19],[-101,-8],[-79,-117],[-112,-107],[18,0],[-116,-95],[-117,-45],[-67,-82],[-79,-52],[-59,-227],[-97,-168],[-147,-160],[-172,-116],[-86,-21],[-728,827]],[[5551,827],[34,1],[51,31],[93,47],[188,60],[126,157],[11,32],[61,35],[41,51],[67,68],[141,125],[55,44],[61,41],[66,25],[14,29],[41,19],[18,-4],[85,74],[43,64],[19,41],[55,152],[7,60],[-10,14],[32,55]],[[3956,7583],[-22,-3],[-75,-37],[-37,-42],[13,-28],[43,-30],[21,-26],[14,-68],[-9,-37],[-58,-32],[-61,3],[-36,-4],[-23,23],[12,28],[30,8],[28,-15],[27,23],[-12,16],[-37,5],[-127,-15],[-26,3],[-66,23],[-100,-24],[-16,-25],[2,-40],[13,-25],[-24,-32],[-64,-37],[-24,-35],[15,-34],[105,-31],[56,6],[66,79],[28,14],[37,4],[23,-10],[12,-24],[-15,-37],[-53,-45],[-12,-35],[-24,-22],[-50,17],[-22,-16],[6,-65],[-4,-45],[-27,-33],[-36,-11],[-76,17],[-99,1],[-60,-37]],[[2936,5620],[-220,60]],[[2716,5680],[-69,149],[-38,35],[-304,40],[-14,26],[51,39],[15,38],[32,19],[16,33],[25,12],[17,23],[39,27],[51,20],[25,18],[2,29],[-15,28],[5,21],[23,22],[-3,21],[-67,22],[-15,36],[-21,4],[-42,-18],[-3,36],[-39,43],[-48,22],[-35,50],[-19,-15],[-18,25],[-18,-22],[-31,11],[-30,-42],[18,-13],[-30,-33],[-22,14],[-58,-5],[-39,22],[5,36],[-29,26],[4,42],[-35,1],[2,32],[-32,12],[-41,-6],[-42,4],[-30,15]],[[1859,6579],[-4,57],[67,70],[31,23],[461,252],[96,57],[33,25],[26,36],[113,216],[24,36],[354,327],[22,9],[157,124],[114,93],[29,62],[-26,33],[-95,267],[94,303],[32,92]],[[3504,4001],[70,-39],[72,-1],[17,5],[30,31],[264,8],[17,-10],[194,-188],[37,-26],[299,-156],[54,-39],[8,-24],[102,-34],[112,-8],[32,10],[180,125],[121,62],[-41,-113],[-1,-35],[35,-121],[61,-167],[22,-22],[67,-34],[16,-20],[58,-182],[26,-31],[132,-51],[30,-5],[51,5],[66,-26],[27,33],[130,117],[35,-17],[85,-14],[41,9],[48,48],[11,35],[1,33]],[[6013,3159],[120,-101],[114,-54],[97,-37],[73,-35],[52,-28],[112,-152],[77,-188],[31,-199],[33,-98],[26,-30],[66,-134],[36,-55]],[[5551,827],[-22,26],[19,16],[47,69],[47,107],[7,47],[-12,42],[-50,56],[-77,45],[-180,62],[-58,-1],[-32,-14],[-174,-2],[-62,4],[-55,24],[-60,52],[-77,59],[-39,18],[-34,3],[-121,-26],[-86,-12],[-24,3],[-38,28],[-27,39],[-25,23],[-35,19],[-88,27],[-93,65],[-49,45],[-41,54],[-43,36],[-36,14],[-114,30],[-132,89],[-14,14]],[[5607,4550],[-79,-154]],[[5528,4396],[-21,25],[-31,60],[-10,51],[2,30]],[[5468,4562],[1,71],[-48,68],[-23,13],[-43,8],[-14,59]],[[5341,4781],[36,59]],[[1712,6066],[35,385]],[[1747,6451],[33,48],[79,80]],[[2716,5680],[-929,255],[-2,-2]],[[1785,5933],[-59,19],[-22,30],[8,84]],[[5745,5998],[-60,-8],[-106,-143],[-112,-108],[-80,-42],[-61,-51]],[[5326,5646],[-97,153]],[[1712,6066],[-30,50],[-33,9],[-41,-139]],[[1608,5986],[-236,62]],[[1372,6048],[260,288],[24,16],[14,25],[77,74]],[[7065,5711],[-244,79],[-27,14]],[[1291,5374],[260,344]],[[1551,5718],[40,-30],[26,-11],[22,42],[24,74],[33,32],[47,-20],[19,62],[42,-11],[16,50],[-35,27]],[[3993,5326],[60,-62],[23,-13],[17,-67],[12,-31],[-7,-18],[22,-43],[-8,-32],[-10,-86],[22,-8],[0,-38],[33,-25],[55,-25],[33,8],[8,-24],[25,13],[7,-22],[69,-29],[22,-16],[30,0],[16,-28],[3,-33],[39,0],[39,-13],[0,-25]],[[4503,4709],[-37,-43],[-43,-21],[-152,-20],[-58,4],[-32,21],[-28,28],[-36,1],[-52,-34]],[[1608,5986],[-37,-121],[19,-9],[-26,-83],[-34,-38],[21,-17]],[[1027,5438],[44,72],[22,18],[68,33],[67,315],[14,26],[130,146]],[[6933,5547],[80,28]],[[7503,5786],[39,-31],[-11,-45],[-33,-30],[-13,-42],[65,-27],[-9,-22],[-35,-37],[32,-43],[-18,-20],[-4,-37],[-64,-32],[0,-9]],[[7452,5411],[-19,8],[-205,110],[-105,-46],[-97,12],[-27,19],[-66,33]],[[5325,4966],[35,101]],[[5341,4781],[-22,43],[-40,19]],[[5279,4843],[46,123]],[[5011,4958],[11,12],[34,-18],[30,33],[26,40],[116,-72],[33,49],[64,-36]],[[5279,4843],[-134,56]],[[5145,4899],[-134,59]],[[5279,4843],[-27,-76],[-19,-25]],[[5233,4742],[-57,35],[13,18],[-26,15],[12,18],[-61,36],[-5,22],[17,17],[19,-4]],[[4490,5322],[58,-224],[118,-5],[247,-15],[51,-20]],[[4964,5058],[42,-25]],[[5006,5033],[20,-12],[-19,-54],[4,-9]],[[5233,4742],[-20,-37],[60,-41],[1,-38],[14,-54]],[[5288,4572],[-52,15],[-42,-9],[-43,-55],[-40,-5],[-22,10],[-51,45],[-51,1],[-44,-23],[-37,8],[-42,38],[-32,2],[-43,-15],[-20,8],[-53,61],[-82,-2],[-30,29]],[[4604,4680],[-25,44],[-31,-1],[-45,-14]],[[5423,5467],[5,18],[-102,161]],[[5006,5033],[46,54],[38,35],[34,10],[-33,152],[95,46],[187,-38]],[[4964,5058],[6,60],[-87,153],[-113,132],[32,41]],[[7879,6341],[8,14]],[[7887,6355],[56,96],[53,75]],[[7996,6526],[137,192]],[[8133,6718],[194,8],[10,-6]],[[8024,6327],[-18,-12],[-94,11],[-33,15]],[[7550,6893],[40,-53],[10,-7],[234,4],[22,4],[24,-25],[22,-74],[27,-18],[207,0],[-3,-6]],[[7996,6526],[-41,26],[-34,12],[-120,1],[-39,9],[-25,28],[-10,28],[-58,-22],[-68,-53],[-27,-31],[-22,-42],[-76,-110]],[[7476,6372],[-56,43],[-30,6],[-19,24],[-42,-11],[-98,41],[-20,5]],[[7476,6372],[33,2],[80,62],[23,-7],[21,20],[25,-22],[28,-9],[37,11],[39,-22],[12,-22],[27,4],[53,-21]],[[7854,6368],[-36,-20],[-49,-14],[-28,12],[-26,-9],[-20,8],[-30,-5],[-18,-31],[-47,-140]],[[7600,6169],[-191,10]],[[7854,6368],[33,-13]],[[7879,6341],[-130,-229]],[[7749,6112],[-79,34],[-70,23]],[[7571,5827],[24,30],[154,255]],[[7415,5207],[-9,13],[66,148],[-20,43]],[[6933,5547],[-51,-17],[-28,-15],[-248,-208],[-23,-36],[-24,-77],[-51,-190],[-14,-26],[-211,-266],[-35,-26],[-38,-11],[-149,-3],[-214,23]],[[4604,4680],[-32,-17],[10,-28],[-16,-52],[-26,-26],[34,-90],[18,-14],[16,-33],[0,-42],[27,-26],[5,-87],[33,-47],[0,-18],[73,-13],[19,18],[141,104],[21,8],[35,-6],[35,-27],[59,-3],[50,12],[48,-13],[-127,-147],[94,43],[24,15],[22,-23],[30,25],[12,-16],[23,1]],[[5232,4178],[-21,-155],[76,45],[103,0]],[[5390,4068],[3,-120],[24,-142],[34,-134],[66,-135],[108,-116],[106,-81],[121,-59],[45,-15],[116,-107]],[[5288,4572],[21,-85],[-3,-30],[-53,-128],[-21,-151]],[[5468,4562],[-51,31],[-27,2],[-102,-23]],[[5528,4396],[-95,-172],[-43,-100],[0,-56]],[[8651,7546],[80,132],[165,216]],[[8896,7894],[59,-2]],[[8955,7892],[-18,-77],[-47,-108],[-27,-35],[-140,-125],[-48,-1],[-9,-10]],[[7931,7908],[187,-1],[12,-25],[528,8],[89,-5],[126,7]],[[8873,7892],[-5,-14],[-110,-94],[-48,-5],[-7,28],[-84,-3],[4,-44],[-15,-23],[-22,4],[-16,-17],[-24,0],[-32,17],[-95,-11],[-7,-19],[-47,-9]],[[8873,7892],[23,2]],[[8955,7892],[128,6],[0,-41],[16,-9],[30,44],[29,12],[131,0]],[[8871,7271],[-35,78],[-58,19],[32,44],[6,47],[-41,-1],[-39,25],[-31,-4]]],"transform":{"scale":[0.00007310489104116194,0.00006450116948542615],"translate":[-79.680883,33.062883]},"objects":{"Geometry\\45-043":{"type":"GeometryCollection","geometries":[{"arcs":[[0,1,2,3,4,5,6,7]],"type":"Polygon","properties":{"GEOID":"450439203012"}},{"arcs":[[8,9,10,11]],"type":"Polygon","properties":{"GEOID":"450439201003"}},{"arcs":[[12,13,14]],"type":"Polygon","properties":{"GEOID":"450439208001"}},{"arcs":[[15,16,17,18,19,20,21,22,23,24,25,-2,26,27]],"type":"Polygon","properties":{"GEOID":"450439204002"}},{"arcs":[[28,29,-15,30,31]],"type":"Polygon","properties":{"GEOID":"450439208002"}},{"arcs":[[32,-9,33,-28,34,35,36]],"type":"Polygon","properties":{"GEOID":"450439201002"}},{"arcs":[[-10,-33,37]],"type":"Polygon","properties":{"GEOID":"450439201001"}},{"arcs":[[-12,38,39,40,41,42,-16,-34]],"type":"Polygon","properties":{"GEOID":"450439204001"}},{"arcs":[[43,44,-24,45,46,47]],"type":"Polygon","properties":{"GEOID":"450439203022"}},{"arcs":[[48,49,50,51]],"type":"Polygon","properties":{"GEOID":"450439205022"}},{"arcs":[[52,53,54,-19]],"type":"Polygon","properties":{"GEOID":"450439205041"}},{"arcs":[[-41,55,56,-49,57]],"type":"Polygon","properties":{"GEOID":"450439205021"}},{"arcs":[[58,-54,59,60,61,62,63]],"type":"Polygon","properties":{"GEOID":"450439205042"}},{"arcs":[[64,65,66,67,68,69,70]],"type":"Polygon","properties":{"GEOID":"450439901000"}},{"arcs":[[-36,71,-8,72,73,74]],"type":"Polygon","properties":{"GEOID":"450439202021"}},{"arcs":[[75,76,-71,77,-31]],"type":"Polygon","properties":{"GEOID":"450439208003"}},{"arcs":[[-46,-23,78,79,80,81]],"type":"Polygon","properties":{"GEOID":"450439203021"}},{"arcs":[[82,83,-74,84,85]],"type":"Polygon","properties":{"GEOID":"450439202022"}},{"arcs":[[-26,86,87,-3]],"type":"Polygon","properties":{"GEOID":"450439203014"}},{"arcs":[[-83,88,89,90]],"type":"Polygon","properties":{"GEOID":"450439202041"}},{"arcs":[[-55,-59,91,-20]],"type":"Polygon","properties":{"GEOID":"450439205044"}},{"arcs":[[92,93,-85,-73,-7,94,95,-13,-30]],"type":"Polygon","properties":{"GEOID":"450439202031"}},{"arcs":[[-90,96,-93,-29,97]],"type":"Polygon","properties":{"GEOID":"450439202042"}},{"arcs":[[-89,-86,-94,-97]],"type":"Polygon","properties":{"GEOID":"450439202032"}},{"arcs":[[98,-63,99,100]],"type":"Polygon","properties":{"GEOID":"450439205082"}},{"arcs":[[-72,-35,-27,-1]],"type":"Polygon","properties":{"GEOID":"450439203013"}},{"arcs":[[101,-47,-82,102,103]],"type":"Polygon","properties":{"GEOID":"450439206014"}},{"arcs":[[104,-104,105,106]],"type":"Polygon","properties":{"GEOID":"450439206013"}},{"arcs":[[-106,107,108]],"type":"Polygon","properties":{"GEOID":"450439206015"}},{"arcs":[[109,110,111,-107,-109,112,113,114,-95,-6]],"type":"Polygon","properties":{"GEOID":"450439206021"}},{"arcs":[[-87,-25,-45,115]],"type":"Polygon","properties":{"GEOID":"450439203011"}},{"arcs":[[116,-48,-102,-105,-112]],"type":"Polygon","properties":{"GEOID":"450439206012"}},{"arcs":[[-4,-88,-116,-44,-117,-111,117]],"type":"Polygon","properties":{"GEOID":"450439206011"}},{"arcs":[[118,119,120,121,-67,122]],"type":"Polygon","properties":{"GEOID":"450439205091"}},{"arcs":[[-43,123,-121,124,125,-17]],"type":"Polygon","properties":{"GEOID":"450439205062"}},{"arcs":[[-126,126,127,128,-60,-53,-18]],"type":"Polygon","properties":{"GEOID":"450439205073"}},{"arcs":[[129,-119,130,131,-128]],"type":"Polygon","properties":{"GEOID":"450439205071"}},{"arcs":[[-100,-62,132,-131,-123,-66,133]],"type":"Polygon","properties":{"GEOID":"450439205092"}},{"arcs":[[-120,-130,-127,-125]],"type":"Polygon","properties":{"GEOID":"450439205061"}},{"arcs":[[-92,-64,-99,134,-21]],"type":"Polygon","properties":{"GEOID":"450439205043"}},{"arcs":[[-129,-132,-133,-61]],"type":"Polygon","properties":{"GEOID":"450439205072"}},{"arcs":[[-14,-96,-115,135,136,137,-76]],"type":"Polygon","properties":{"GEOID":"450439207011"}},{"arcs":[[-114,138,-136]],"type":"Polygon","properties":{"GEOID":"450439207023"}},{"arcs":[[-108,-103,-81,139,-113]],"type":"Polygon","properties":{"GEOID":"450439207021"}},{"arcs":[[-139,-140,-80,140,-137]],"type":"Polygon","properties":{"GEOID":"450439207022"}},{"arcs":[[-79,-22,-135,-101,-134,-65,-77,-138,-141]],"type":"Polygon","properties":{"GEOID":"450439205081"}},{"arcs":[[141,142,143,-50]],"type":"Polygon","properties":{"GEOID":"450439205102"}},{"arcs":[[144,145,-56,-40]],"type":"Polygon","properties":{"GEOID":"450439205112"}},{"arcs":[[-146,146,-142,-57]],"type":"Polygon","properties":{"GEOID":"450439205111"}},{"arcs":[[147,-69,148,-51,-144]],"type":"Polygon","properties":{"GEOID":"450439205101"}},{"arcs":[[-58,-52,-149,-68,-122,-124,-42]],"type":"Polygon","properties":{"GEOID":"450439205023"}},{"arcs":[[-5,-118,-110]],"type":"Polygon","properties":{"GEOID":"450439206022"}}]}}}