{"type":"Topology","arcs":[[[5653,5930],[32,-36],[52,-72],[39,-23],[150,-44],[30,-4],[86,2],[27,-2],[74,-19],[137,-2],[39,-9],[86,-32],[80,-54],[63,-68],[44,-65],[79,-73],[137,-108],[33,-33],[36,-27],[40,-14],[153,-30],[100,-11],[13,-4]],[[7183,5202],[-40,-53],[-27,-48],[-11,-72],[-2,-68],[-16,-51],[-71,-101],[-15,-34]],[[7001,4775],[-83,-2],[-27,-9],[-46,-26],[-41,-12],[-29,3],[-129,42],[-52,25],[-219,148],[-60,22],[-44,0],[-99,-19],[-63,2]],[[6109,4949],[-59,8],[-29,-4],[-140,-46],[-103,-12],[-54,-18]],[[5724,4877],[-15,40],[-21,29],[-25,20],[8,43],[-14,43],[51,56],[35,19],[51,-9],[21,4],[20,18],[-20,28],[-4,25],[15,183],[-4,44],[-43,119],[-47,98],[-22,28],[-61,71],[-8,45],[26,116],[-14,33]],[[4229,3651],[31,-22],[44,-16],[132,-21],[51,-11],[80,-32],[80,109],[24,26],[41,22],[84,32],[108,7],[38,-15],[36,-29],[214,-186],[66,-52],[62,-6],[61,7],[134,8],[29,0],[76,-15],[82,-22],[34,48],[58,59]],[[5794,3542],[20,-12],[58,-23],[55,-42],[48,-30],[48,-25],[23,-5],[88,-9],[37,-20],[30,-41],[30,-23],[44,-19],[28,-22],[47,-62],[94,-83],[87,-51],[44,-15],[130,-7],[36,-12],[99,89],[76,65],[80,85],[39,35],[33,15],[159,49]],[[7227,3379],[26,45],[27,22],[62,32],[52,44],[46,-52],[45,-10],[16,-12],[190,-61],[34,-7],[39,-31],[35,-20],[44,-11],[52,-22],[122,-71],[38,-32],[23,-28],[26,-16],[35,-5],[11,-24]],[[8150,3120],[-66,-27],[-57,-8],[-42,-30],[-18,-40],[-14,-81],[-11,-23],[-6,-39],[10,-12],[-9,-24],[5,-41],[-47,-19],[-21,-27],[-36,-7],[-21,-17],[-4,-18],[28,-51],[-21,-11],[-15,-22],[5,-13],[-43,-8],[-25,6],[-26,-7],[-15,-15],[-254,-589],[-41,-96]],[[7406,1901],[-70,4],[-60,15],[-112,46],[-49,14],[-43,7],[-276,32],[-66,10],[-69,19],[-107,44],[-52,30],[-389,271],[-22,-82],[-15,-31],[-37,-55],[-5,-32],[1,-101],[-10,-30],[-42,-54],[-86,-83],[-35,-20],[-84,-20],[-46,-8],[-37,-20],[-40,-13],[-77,-15],[-31,-22],[-47,42],[-43,19],[-208,64],[-40,20],[-121,109],[-25,38],[-8,58],[12,94],[-4,34],[-24,57],[-97,151],[-29,53],[-95,194],[-40,64],[-330,406],[-18,27],[-17,46],[-27,122],[-22,59],[-99,142],[-36,45]],[[3470,5279],[41,-49],[57,48]],[[3568,5278],[16,-86]],[[3584,5192],[-38,-41],[-38,-33],[-42,-18]],[[3466,5100],[-52,53],[40,29],[-36,53],[52,44]],[[3300,6241],[80,97]],[[3380,6338],[41,-7]],[[3421,6331],[18,-43],[19,-20],[35,6],[18,-37],[16,-6],[-2,-35],[-29,-25],[-5,-15],[-5,-83],[9,-11],[-61,-25],[-37,-32]],[[3397,6005],[-97,200],[0,36]],[[3318,5462],[55,38],[66,54]],[[3439,5554],[46,-68],[17,0],[9,-31],[-17,-21],[4,-42]],[[3498,5392],[-105,-18],[-92,-6]],[[3301,5368],[-6,0]],[[3295,5368],[7,41],[16,29],[0,24]],[[2690,6021],[29,-20],[91,-45],[39,-41],[42,-72],[95,-118]],[[2986,5725],[54,-77],[16,-29],[27,-77],[22,-95],[13,-19],[90,-39],[21,-13]],[[3229,5376],[-85,2],[-72,10],[-23,-2]],[[3049,5386],[-49,-11],[-73,-11]],[[2927,5364],[-23,67],[-20,35],[-60,77],[-21,43],[-19,57],[-10,15],[19,64],[-2,50],[-15,56],[-20,38],[-1,31],[-60,108],[-5,16]],[[1566,6040],[49,55],[9,38],[35,29],[105,25],[23,0],[46,-25],[66,-24],[74,-8],[58,2],[21,55],[11,44],[29,35],[39,12],[76,2],[101,16],[73,35]],[[2381,6331],[19,-22],[187,-202],[51,-45]],[[2638,6062],[-25,-20],[-53,-32],[-31,-36],[-24,-69],[-52,-160],[1,-46],[9,-27],[94,-111]],[[2557,5561],[-43,-22],[-26,40],[-40,-30],[-105,-64],[-75,-39],[-36,-33],[-37,21],[-54,4],[-63,38],[-51,10],[-46,25],[-109,26],[-22,-9],[-20,-28],[-42,-32],[-6,-22],[-21,0]],[[1761,5446],[-84,301],[-36,181],[-5,10],[-70,102]],[[2638,6062],[52,-41]],[[2927,5364],[-153,-11]],[[2774,5353],[-35,21],[-57,44],[-125,143]],[[2774,5353],[-101,-3],[-32,-4],[-33,-33],[-47,-39],[-151,-136]],[[2410,5138],[-94,69],[-67,64],[-7,12],[-56,-15],[-96,-14]],[[2090,5254],[-111,5],[-184,-1]],[[1795,5258],[1,41],[-35,147]],[[3586,5668],[26,17],[75,37]],[[3687,5722],[203,102],[27,17],[151,110]],[[4068,5951],[61,45]],[[4129,5996],[84,-82],[45,-16],[86,6],[84,-15]],[[4428,5889],[47,-40],[113,-145],[17,-38],[2,-24]],[[4607,5642],[-40,-55],[-32,-24],[-85,-47],[-53,-15],[-23,18],[-25,6],[-64,4],[-43,10],[-12,-5],[-28,-41],[-23,-20],[-28,4],[-113,40],[-41,-6],[1,-21],[-11,-27],[-57,-11],[-59,15],[0,18],[-48,18],[-13,12]],[[3810,5515],[-14,26],[-56,60]],[[3740,5601],[-30,19],[-79,21],[-45,27]],[[1620,4053],[20,-22],[92,-74],[45,-40],[64,-61],[132,-103],[21,-21],[43,-62],[20,-41],[27,-73],[19,-29],[71,-82],[68,-95],[15,-34],[20,-200],[92,-56],[57,-24],[120,-34],[10,-18],[72,45],[108,13],[53,-14],[74,-75],[29,2],[34,-11],[39,-2],[42,16],[65,9],[14,-5],[-4,-27],[13,-43]],[[3095,2892],[28,-46],[2,-32],[-21,-39],[-68,-68],[-7,-24],[7,-41],[-1,-213],[-21,-71],[-23,-25],[-267,-141],[-43,-29],[-48,-48],[-40,-73],[-23,-51],[-97,-158],[-71,-204],[-42,-37],[-42,-6],[-25,-40],[-129,-95],[-67,-21],[-72,22],[-51,-4],[-132,-119]],[[1842,1329],[-114,105],[-191,-174],[-180,-154],[-307,-287],[-228,-218],[-27,-22],[-261,-172],[-38,191],[-51,251],[-33,191],[-60,314],[-80,421],[-17,81],[-38,214],[-78,389],[466,366],[461,418],[182,170],[74,111],[200,345],[88,150],[10,34]],[[3229,5376],[66,-8]],[[3301,5368],[5,-63],[14,-58]],[[3320,5247],[-48,-17],[-51,-37]],[[3221,5193],[13,47],[-28,2],[-37,42],[-107,38],[-13,64]],[[3801,5389],[16,85],[-7,41]],[[4607,5642],[-2,-105],[12,-95],[-2,-48],[-22,-86],[34,9],[125,-3],[62,-7],[72,-201],[24,-41],[23,-28],[17,-29],[11,-44],[-8,-18],[15,-66]],[[4968,4880],[-119,-55]],[[4849,4825],[-60,30],[-71,30],[-93,45],[-59,49],[-51,57],[-29,17],[-36,3],[-57,15],[-97,35],[-179,4],[-76,-11],[-26,-7],[-54,-30],[-24,-5],[-57,6],[-104,6],[-45,-8],[-91,-38]],[[3640,5023],[-33,45],[-23,124]],[[3568,5278],[22,12],[26,-14],[33,16],[35,4],[69,-18],[26,-16],[23,-2],[-3,46],[2,83]],[[3498,5392],[23,3]],[[3521,5395],[5,1]],[[3526,5396],[-21,-18],[-19,-70],[-16,-29]],[[3466,5100],[-67,-30]],[[3399,5070],[-67,125],[-12,52]],[[4849,4825],[-190,-91],[-56,-9]],[[4603,4725],[-85,-5],[-141,-35],[-53,-8],[-192,-14],[-21,0]],[[4111,4663],[-41,8],[-105,32],[-59,28],[3,21],[-44,42],[-163,166]],[[3702,4960],[-62,63]],[[1712,4377],[75,-6],[68,-16],[16,-31],[25,-26],[60,-32],[107,-77],[132,132],[44,-28],[171,-82],[76,-54],[48,-51],[16,-35]],[[2550,4071],[25,-30],[68,-48],[41,-74],[24,-32],[26,-15],[31,-6],[109,-10],[98,0],[62,-12],[53,-6],[32,2],[162,32],[40,-9],[24,-18],[38,62],[46,108],[14,25],[126,193],[94,105],[66,92]],[[3729,4430],[15,-37],[148,-301]],[[3892,4092],[35,-72],[37,-65]],[[3964,3955],[5,-25],[-13,-257],[10,-61],[-10,-34],[-56,-88],[-10,-57],[0,-41],[29,-128],[1,-50],[-66,-292],[-16,-37]],[[3838,2885],[-13,-12],[-172,-102],[-46,-42],[-79,42],[-88,30],[-72,-15],[-60,15],[-18,28],[-24,7],[-40,-10],[-42,-21],[-42,15],[-29,55],[-18,17]],[[1620,4053],[92,324]],[[3964,3955],[59,-78],[206,-226]],[[7406,1901],[-23,-40],[-84,-113],[-34,-42],[-234,-252],[-331,-372],[-16,-42],[-49,-30],[-44,-8],[-21,-29],[-5,-47],[-24,-34],[2,-34],[-28,-25],[-41,-53],[-25,-44],[12,-27],[-16,-20],[-10,-33],[-31,-23],[0,-21],[-45,-51],[-1,-12],[31,-18],[-9,-23],[9,-15],[-20,-17],[-14,7],[-49,-35],[1,-12],[-30,-30],[-15,-6],[-16,-55],[-20,-36],[2,-17],[-42,-43],[-2,-16],[20,-22],[4,-18],[22,-14],[-110,-27],[-259,-61],[-380,-91],[-8,80],[5,61],[25,235],[14,293],[-445,-66],[-91,-28],[-55,-8],[-221,47],[-152,37],[-175,42]],[[4378,693],[16,12],[10,39],[14,16],[70,47],[13,27],[38,52],[3,19],[38,69],[8,24],[3,42],[-23,22],[28,67],[17,15],[10,29],[-27,16],[-47,-7],[-20,5],[-31,79],[-47,32],[-24,-18],[-23,11],[8,75],[-45,21],[-6,115],[11,58],[-25,46],[-1,55],[-8,68],[-29,60],[-12,36],[-33,29],[-6,33],[-30,43],[4,42],[-15,105],[-11,44],[4,67],[-2,25],[-13,18],[-31,8],[-23,23],[2,81],[-14,28],[-16,12],[-80,22],[-24,-25],[-25,-12],[-17,4],[-44,35],[-15,25],[50,44],[11,21],[0,38],[-23,49],[-7,54],[13,44],[27,38],[12,76],[0,50],[-20,-1],[-50,22],[-83,18]],[[3221,5193],[-29,-111],[-3,-34],[55,18],[25,-42],[26,-29],[76,48],[28,27]],[[3399,5070],[19,-32],[23,-25],[73,-63]],[[3514,4950],[-75,-69]],[[3439,4881],[-44,-42],[-20,-4],[-50,8],[-30,-7],[-176,-161],[-14,-14],[-82,-115]],[[3023,4546],[-91,52],[-38,50],[-11,59],[10,155],[-2,37],[-21,95],[-2,38],[14,123],[-7,54],[-15,26],[-86,118]],[[3638,4810],[64,150]],[[4111,4663],[-6,-62],[26,-50],[2,-17],[18,-16],[6,-86],[-20,-63],[28,-87],[-8,-24],[15,-65],[-2,-48],[-82,-23],[-115,-43],[-24,0],[-39,13],[-18,0]],[[3729,4430],[-29,125]],[[3700,4555],[-31,149]],[[3669,4704],[-22,66],[-9,40]],[[3514,4950],[90,-74],[26,-37],[8,-29]],[[3669,4704],[-88,-30],[-56,-45]],[[3525,4629],[-47,52],[46,43],[-85,157]],[[3700,4555],[-31,-24],[-72,-35],[-33,50],[26,16],[-65,67]],[[2550,4071],[10,32],[10,58]],[[2570,4161],[131,46],[118,16],[25,18],[13,32],[42,45],[11,19],[37,89],[76,120]],[[1712,4377],[32,114],[43,171],[8,596]],[[2090,5254],[-58,-125],[-53,-151],[4,-33],[71,-81],[17,-12],[52,-14],[17,-23],[18,-44],[23,-30]],[[2181,4741],[29,-32],[64,-43],[130,-44],[44,-37],[145,211],[36,-16],[18,-15],[46,-91],[3,-38],[-20,-38],[-13,-57],[-43,-82],[-5,-23],[1,-58],[-35,-92],[-14,-21],[11,-54],[-8,-50]],[[2181,4741],[18,36],[22,9],[48,2],[16,9],[36,58],[53,13],[33,26],[22,52],[-1,40],[5,24],[56,4],[12,13],[-29,27],[-62,84]],[[2979,6187],[138,5],[57,15],[88,10],[38,24]],[[3397,6005],[-8,-24],[-14,-148]],[[3375,5833],[-72,34],[-54,10],[-46,-10],[-43,-27]],[[3160,5840],[-25,54],[-127,221],[-29,72]],[[4681,6758],[97,-70],[47,-47],[57,-78],[59,-74],[70,52],[36,-25],[38,94],[19,67],[2,35],[22,25],[26,50],[11,33],[19,3],[22,36],[7,23],[29,16],[37,-3],[-3,27],[128,92]],[[5404,7014],[5,-18],[36,-32],[34,-16],[54,-4],[19,-10],[16,-31],[61,-23],[44,13],[111,-38],[28,-43],[76,-39]],[[5888,6773],[-74,-64],[-71,-80],[-41,-43],[-62,-30],[-132,-46],[-36,-19],[-82,-74],[-194,-188]],[[5196,6229],[-280,-265],[-45,-42],[-37,-13],[-185,-19],[-22,20],[-31,13],[-60,-15],[-35,-25],[-21,-2],[-52,8]],[[4129,5996],[169,124],[27,26],[87,104],[21,40],[8,78],[31,130],[17,34],[66,80],[78,76],[48,70]],[[3756,6561],[63,10],[47,0],[103,-26],[62,-4],[30,4],[56,19],[18,-45],[-5,-35],[-17,-19],[-160,-141],[-20,-22],[-12,-30],[0,-25],[11,-136],[4,-21],[20,-30],[112,-109]],[[3687,5722],[-17,32],[41,22],[21,46],[1,74],[-46,83],[-14,44],[-4,74],[-50,116],[-30,35],[-18,51],[-14,61]],[[3557,6360],[-6,30],[4,59],[-3,55],[58,28],[31,10],[115,19]],[[4603,4725],[132,-133],[34,-39],[160,-96],[61,-44],[57,-57],[30,-42],[25,-14],[87,-2],[27,-9]],[[5216,4289],[7,-222],[7,-25],[20,-20],[90,-40],[71,-42],[141,-108],[48,-45],[23,-30],[61,-87],[68,-73],[42,-55]],[[2766,7533],[59,12],[52,-1],[41,-14],[102,-43]],[[3020,7487],[296,-125],[44,-30],[97,-91],[53,-32],[30,-7],[59,5],[141,43],[50,7],[70,-12],[40,-21],[33,-28],[26,-32]],[[3959,7164],[-191,-81],[-29,-27],[-45,-78],[-10,-39],[2,-19],[26,-100],[25,-133],[19,-126]],[[3557,6360],[-104,-31],[-32,2]],[[3380,6338],[-144,26],[-27,12],[-79,70],[-23,38],[-20,70],[-24,0],[-44,-14],[-79,-5]],[[2940,6535],[20,127],[-8,49],[-14,27],[-63,104],[72,35],[23,48],[2,74],[-20,112],[0,23],[25,123],[-11,41],[-131,135],[-44,51],[-25,49]],[[4681,6758],[173,255],[47,43],[40,19],[244,76],[45,28],[28,49]],[[5258,7228],[34,-29],[35,-23],[30,-9],[20,-21],[16,-29],[3,-48],[8,-55]],[[2174,8716],[40,205],[-4,40],[-20,73]],[[2190,9034],[-60,220],[-41,166],[1,56],[20,221],[1,27]],[[2111,9724],[41,-13],[13,-19],[-15,-66],[11,-43],[14,-21],[102,-87],[33,-40],[77,-65],[39,-11],[36,10],[32,16],[51,11],[61,-40],[15,-3],[4,-28],[-32,-41],[4,-33],[23,-21],[22,-1],[39,21],[34,1],[93,-87],[41,-33],[43,-87],[27,-35],[62,-30],[23,-34],[44,-111],[26,-17],[24,-117],[19,-59],[15,-60],[-5,-54],[14,-28],[0,-54],[6,-73],[11,-15]],[[3158,8357],[2,-60],[18,-49],[-55,-24],[-12,-14],[-31,5],[-63,-27],[-15,-27],[14,-36],[-39,-16],[-49,-5],[-25,-11],[-44,-6],[-76,-33],[-55,-36],[-120,-64],[55,-80],[27,-19],[93,-50],[34,-35],[25,-76],[26,-55],[48,-46],[28,-38],[32,-33],[44,-35]],[[2766,7533],[-438,-90],[-105,-35],[-51,9],[-28,10],[-138,74],[-17,6]],[[1989,7507],[126,129],[15,25],[8,59],[4,155],[-10,102],[-37,211],[-3,98],[5,35],[77,395]],[[7183,5202],[44,61],[39,39],[37,45],[65,27],[10,15],[32,-3],[97,44]],[[7507,5430],[20,-43],[13,-15],[42,-21],[74,17],[36,17],[44,1],[40,-5],[36,-21],[83,-65],[19,-28],[-12,-32],[-30,-22],[-15,-46],[18,-28],[31,-30],[25,-117],[31,-30],[34,2],[44,12],[68,28],[24,4],[50,-22],[19,-37],[4,-50],[-5,-29],[-35,-46],[-24,-69],[-4,-89],[2,-38],[40,-33],[58,-33],[75,-55],[15,-29],[-5,-26],[-20,-55],[0,-29],[18,-57],[13,-22],[34,-24],[62,-15],[83,-30],[87,-19],[44,-25],[19,-25],[34,-61],[21,-18],[110,-28],[30,-5],[18,-22],[15,-41],[-35,10],[-15,-8],[10,-59],[-19,-17],[-28,-9],[10,-20],[-4,-25],[-22,-2],[-12,15],[-39,-13],[-10,-24],[-25,-1],[-14,-23],[12,-17],[-42,-22],[-7,-16],[0,-41],[-40,-17],[-40,4],[-9,-18],[-37,-21],[-23,-41],[0,-15],[-25,-51],[-5,-52],[-7,-14],[-34,-22],[-19,7],[-34,-17],[-34,-39],[20,-43],[5,-50],[-5,-44],[5,-22],[-40,-13],[-23,-24],[-19,-42],[-5,-26],[-28,1],[-36,-13],[-23,3],[-44,-15]],[[7227,3379],[-8,32],[-18,33],[-135,161],[-28,44],[-94,206],[-18,25],[-34,21],[-61,27],[5,100],[-9,34],[-39,60],[-5,30],[30,84],[52,114],[48,80],[12,31],[29,148],[23,96],[24,70]],[[2979,6187],[-52,169],[-4,68],[17,111]],[[3740,5601],[-219,-206]],[[3439,5554],[147,114]],[[3801,5389],[-62,10],[-72,3],[-96,-2],[-45,-4]],[[1374,9854],[277,244],[26,24],[19,-35],[14,-104],[29,-8],[25,4],[133,3],[37,-8],[39,2],[47,-15],[12,-9],[-20,-33],[-1,-24],[-22,-42],[-7,-41],[-21,-45],[3,-26],[29,-22],[27,-8],[60,12],[31,1]],[[2190,9034],[-42,-4],[-30,5],[-62,27],[-38,34],[-36,11],[-39,18],[-24,28],[11,46],[25,38],[4,33],[-11,20],[-34,23],[-72,12],[-28,20],[-2,20],[9,37],[-18,19],[-44,-5],[-20,23],[-8,29],[-16,21],[-36,73],[14,23],[-20,24],[-35,6],[-3,21],[-37,56],[-19,49],[-49,6],[-17,34],[1,25],[-29,17],[-83,32],[-28,-1]],[[3586,5668],[-87,94],[-57,40],[-67,31]],[[4378,693],[-67,-44],[-5,-14],[-68,11],[-743,93],[-34,-45],[-174,-160],[-65,-53],[-45,-41],[-82,-17],[-53,3],[-183,44],[-75,28],[-135,36],[-73,26],[-20,3],[-27,22],[-43,20],[-61,35],[-66,59],[-49,19],[-132,107],[-14,15],[-70,99],[-12,14],[-81,70],[-14,19],[-21,89],[-79,143],[-45,55]],[[386,8980],[66,-11],[35,-10],[44,-36],[69,-86],[19,-19],[74,-41],[22,-24],[86,-112],[32,-60],[7,-49],[5,-233],[7,-31],[60,-116],[23,-32],[109,-105],[21,-17],[198,-134],[28,34],[53,49],[17,22],[46,85],[21,28],[19,10],[79,23],[29,21],[29,62],[138,98],[15,26],[-3,22],[-15,20],[-47,32],[73,172],[32,60],[29,41],[45,-11],[58,-26],[15,8],[23,42],[44,23],[23,3],[87,-6],[73,14]],[[1989,7507],[-35,-36],[-23,-31],[-52,-107],[-12,-42],[5,-38]],[[1872,7253],[-25,33],[-31,5],[11,-143],[9,-34],[75,-176],[71,-91],[12,-36],[21,-167],[14,-43],[-73,6],[-66,-11],[-81,-35],[-102,-36],[-258,-44],[-81,-5],[-53,-16]],[[1315,6460],[-248,316],[-199,178],[-107,98],[-151,76],[-92,27],[-10,37],[-33,292],[-32,307],[17,37],[-11,149],[-14,61],[8,71],[-1,34],[-17,15],[-24,5],[-53,29],[-91,17],[-58,41],[-20,60],[-16,110],[-21,40],[-42,62],[-41,50],[-59,63],[112,96],[113,107],[161,142]],[[2940,6535],[-67,-5],[-55,-25],[-92,-30],[-57,-11],[-36,-15],[-66,-41],[-186,-77]],[[2381,6331],[-33,50],[-247,433],[-39,65],[-134,235],[-56,139]],[[386,8980],[417,367],[104,92],[467,415]],[[5196,6229],[86,-84],[31,-22],[193,-75],[38,-20],[48,-37],[61,-61]],[[5724,4877],[-194,-67],[-39,-6],[-33,5],[-28,13],[-70,56],[-45,18],[-33,3],[-293,-15],[-21,-4]],[[5216,4289],[93,-6],[63,-9],[35,-16],[61,-42],[77,-11],[44,5],[64,16],[28,10],[42,28],[38,10],[150,-11],[8,76],[-35,337],[156,-8],[-6,94],[7,18],[32,27],[26,4],[19,53],[-26,25],[3,33],[14,27]],[[3959,7164],[15,11],[118,108],[166,142],[18,28],[-2,82],[7,78],[-10,147],[13,49],[-1,54]],[[4283,7863],[23,-14],[70,-29],[72,-19],[51,-31],[33,-32],[42,-19],[46,-2],[25,9],[29,-2],[34,-12],[73,-39],[60,-79],[67,-33],[21,-18],[61,-108],[46,-37],[56,-18],[30,-18],[9,-29],[45,-49],[64,-40],[18,-16]],[[2986,5725],[174,115]],[[3160,5840],[41,-93],[34,-104],[83,-157],[0,-24]],[[5888,6773],[45,-60],[30,-72],[27,-17],[14,-23],[12,-40],[39,-43],[52,-26],[44,-34],[49,-43],[41,-22],[106,11],[45,1],[57,23],[30,-2],[81,-28],[104,-68],[49,-14],[77,2],[13,-19],[-4,-32],[-19,-38],[-6,-39],[20,-43],[18,-20],[87,-68],[24,-44],[7,-51],[41,-30],[104,-38],[53,-12],[52,-74],[64,-49],[28,-27],[9,-18],[11,-55],[26,-38],[64,-37],[70,-69],[49,-73],[6,-14]],[[3158,8357],[50,-10],[65,19],[56,5],[83,22],[40,-25],[50,-13],[52,-35],[37,-9],[45,-50],[122,-14],[62,-29],[17,-20],[25,-56],[45,-31],[36,-14],[25,-24],[7,-18],[-6,-33],[-2,-65],[4,-28],[21,-24],[39,-115],[24,-25],[33,10],[43,34],[52,30],[21,1],[61,29],[18,-6]],[[2979,6187],[-115,0],[-32,-4],[-106,-44],[-65,-34],[-23,-43]],[[1566,6040],[-251,420]]],"transform":{"scale":[0.00005240584926884055,0.00004509642363169324],"translate":[-82.334234,33.95321]},"objects":{"Geometry\\45-047":{"type":"GeometryCollection","geometries":[{"arcs":[[0,1,2,3,4]],"type":"Polygon","properties":{"GEOID":"450479707022"}},{"arcs":[[5,6,7,8,9]],"type":"Polygon","properties":{"GEOID":"450479710001"}},{"arcs":[[10,11,12,13]],"type":"Polygon","properties":{"GEOID":"450479705004"}},{"arcs":[[14,15,16,17]],"type":"Polygon","properties":{"GEOID":"450479702021"}},{"arcs":[[18,19,20,21,22]],"type":"Polygon","properties":{"GEOID":"450479703014"}},{"arcs":[[23,24,25,26,27]],"type":"Polygon","properties":{"GEOID":"450479703032"}},{"arcs":[[28,29,30,31,32]],"type":"Polygon","properties":{"GEOID":"450479703042"}},{"arcs":[[33,-28,34,35,-31]],"type":"Polygon","properties":{"GEOID":"450479703031"}},{"arcs":[[-36,36,37,38,39,-32]],"type":"Polygon","properties":{"GEOID":"450479703041"}},{"arcs":[[40,41,42,43,44,45,46,47]],"type":"Polygon","properties":{"GEOID":"450479706021"}},{"arcs":[[48,49,50]],"type":"Polygon","properties":{"GEOID":"450479709002"}},{"arcs":[[-26,51,-22,52,53,54]],"type":"Polygon","properties":{"GEOID":"450479704011"}},{"arcs":[[55,-46,56,57,58,59,-12,60]],"type":"Polygon","properties":{"GEOID":"450479706011"}},{"arcs":[[-21,61,62,63,-14,64,65,-53]],"type":"Polygon","properties":{"GEOID":"450479705003"}},{"arcs":[[-59,66,67,68,69]],"type":"Polygon","properties":{"GEOID":"450479706012"}},{"arcs":[[70,71,72,73,74,75,-49,76]],"type":"Polygon","properties":{"GEOID":"450479708022"}},{"arcs":[[77,-10,78,79,-75]],"type":"Polygon","properties":{"GEOID":"450479710002"}},{"arcs":[[-35,-27,-55,80,81,82,83,84]],"type":"Polygon","properties":{"GEOID":"450479704013"}},{"arcs":[[85,-69,86,-73,87,88,89]],"type":"Polygon","properties":{"GEOID":"450479708012"}},{"arcs":[[-83,90,-90,91,92]],"type":"Polygon","properties":{"GEOID":"450479708013"}},{"arcs":[[-92,-89,93]],"type":"Polygon","properties":{"GEOID":"450479708014"}},{"arcs":[[94,95,-84,-93,-94,-88,-72]],"type":"Polygon","properties":{"GEOID":"450479708021"}},{"arcs":[[96,-39,97,98,-95,-71]],"type":"Polygon","properties":{"GEOID":"450479704023"}},{"arcs":[[-37,-85,-96,-99,99]],"type":"Polygon","properties":{"GEOID":"450479704021"}},{"arcs":[[100,-18,101,102,103]],"type":"Polygon","properties":{"GEOID":"450479702024"}},{"arcs":[[104,105,106,107,-44,108]],"type":"Polygon","properties":{"GEOID":"450479706023"}},{"arcs":[[109,-42,110,111]],"type":"Polygon","properties":{"GEOID":"450479702012"}},{"arcs":[[-68,112,113,-6,-78,-74,-87]],"type":"Polygon","properties":{"GEOID":"450479706013"}},{"arcs":[[114,115,116,-112,117,-16,118,119]],"type":"Polygon","properties":{"GEOID":"450479702014"}},{"arcs":[[-38,-100,-98]],"type":"Polygon","properties":{"GEOID":"450479704022"}},{"arcs":[[120,121,-105]],"type":"Polygon","properties":{"GEOID":"450479706022"}},{"arcs":[[122,123,124,125,-115,126,127]],"type":"Polygon","properties":{"GEOID":"450479701013"}},{"arcs":[[-54,-66,-81]],"type":"Polygon","properties":{"GEOID":"450479704012"}},{"arcs":[[-13,-60,-70,-86,-91,-82,-65]],"type":"Polygon","properties":{"GEOID":"450479708011"}},{"arcs":[[-2,128,129,-8,130]],"type":"Polygon","properties":{"GEOID":"450479707012"}},{"arcs":[[-119,-15,-101,131]],"type":"Polygon","properties":{"GEOID":"450479702013"}},{"arcs":[[-48,132,-62,-20,133]],"type":"Polygon","properties":{"GEOID":"450479705001"}},{"arcs":[[-133,-47,-56,134,-63]],"type":"Polygon","properties":{"GEOID":"450479705002"}},{"arcs":[[135,-124,136]],"type":"Polygon","properties":{"GEOID":"450479701021"}},{"arcs":[[-17,-118,-111,-41,137,-102]],"type":"Polygon","properties":{"GEOID":"450479702022"}},{"arcs":[[-50,-76,-80,138]],"type":"Polygon","properties":{"GEOID":"450479709001"}},{"arcs":[[-64,-135,-61,-11]],"type":"Polygon","properties":{"GEOID":"450479705005"}},{"arcs":[[139,-128,140,141,142]],"type":"Polygon","properties":{"GEOID":"450479701023"}},{"arcs":[[-127,-120,143,144,-141]],"type":"Polygon","properties":{"GEOID":"450479701011"}},{"arcs":[[-137,-123,-140,145]],"type":"Polygon","properties":{"GEOID":"450479701022"}},{"arcs":[[-108,146,-5,147,-57,-45]],"type":"Polygon","properties":{"GEOID":"450479707021"}},{"arcs":[[148,-3,-131,-7,-114]],"type":"Polygon","properties":{"GEOID":"450479707023"}},{"arcs":[[149,150,-121,-109,-43,-110,-117]],"type":"Polygon","properties":{"GEOID":"450479702011"}},{"arcs":[[151,152,-23,-52,-25]],"type":"Polygon","properties":{"GEOID":"450479703013"}},{"arcs":[[-107,153,-129,-1,-147]],"type":"Polygon","properties":{"GEOID":"450479707011"}},{"arcs":[[154,-150,-116,-126]],"type":"Polygon","properties":{"GEOID":"450479701012"}},{"arcs":[[-144,-132,155,-30]],"type":"Polygon","properties":{"GEOID":"450479703011"}},{"arcs":[[-142,-145,-29,156]],"type":"Polygon","properties":{"GEOID":"450479701024"}},{"arcs":[[-103,-138,-134,-19,-153]],"type":"Polygon","properties":{"GEOID":"450479702023"}},{"arcs":[[-104,-152,-24,-34,-156]],"type":"Polygon","properties":{"GEOID":"450479703012"}},{"arcs":[[-67,-58,-148,-4,-149,-113]],"type":"Polygon","properties":{"GEOID":"450479707024"}}]}}}