{"type":"Topology","arcs":[[[11716,10515],[28,54],[60,84],[-8,29],[-39,56],[13,116],[24,61],[95,114],[36,68],[6,23],[-1,78],[12,57]],[[11942,11255],[21,-22],[32,0],[35,17],[36,30],[59,-36],[26,59],[38,28],[37,-6],[84,8],[29,51],[64,82],[46,29],[17,31],[11,-122],[52,-34],[26,-31],[12,-34],[120,-68],[10,-47],[67,-57]],[[12764,11133],[-28,-59],[-73,-188],[-32,-62],[-77,-104],[-32,-57],[-46,-105],[-55,-75],[-176,-172],[-48,-42]],[[12197,10269],[-108,110],[-51,26],[-69,-2],[-152,-28],[-59,3],[-43,10],[-11,49],[27,46],[-15,32]],[[4304,11536],[167,-43],[46,-22],[153,-106],[70,-70],[142,-156],[95,46],[39,4],[20,35],[41,16],[26,27],[33,19],[7,25],[44,1],[55,18],[59,0],[75,71],[76,4],[63,-35],[73,5],[124,53],[12,22],[11,62],[25,33],[14,53],[61,-47],[123,-5],[6,-10],[-3,-84],[63,-67],[47,-9],[63,-27],[64,1],[42,24],[67,10],[71,-15],[27,-12],[48,-38]],[[6453,11319],[-51,-64],[-93,-99],[-52,-38],[-45,-40],[-25,-44],[-102,-127],[-50,-29],[-34,-41],[-92,-93],[-30,4],[-178,-14],[40,-52],[5,-21],[-69,-32],[-25,-38],[-12,-50],[3,-37],[-5,-52],[32,-37],[-3,-12],[130,-61],[5,-39],[-33,-220],[-71,-47],[5,-59],[55,11],[58,-31],[-8,-109],[19,-2],[159,70],[49,15],[125,24],[122,38],[104,36],[56,11],[85,7],[171,87]],[[6698,10134],[63,17],[81,-20],[44,-22],[37,-26],[34,-43],[41,-92],[34,-55],[104,-86],[231,-176]],[[7367,9631],[-18,-6],[-10,-60],[-17,-13],[-48,4],[-38,-21],[28,-88],[45,-64],[-10,-37],[-41,-18],[-6,-31],[-70,-49],[-34,-42],[-19,3],[-29,-37],[-65,12],[-49,-28],[-90,-35],[-22,-22],[-19,7],[-29,-21],[-22,6],[-25,-16],[-20,-40],[-17,-13]],[[6742,9022],[-83,-15],[7,-56],[-26,-26],[-23,5],[-76,58],[-29,1],[-8,-21],[45,-76],[-17,-30],[-28,5],[-49,30],[-27,-26],[-9,-58],[-91,-41],[-35,-21],[-27,23],[-3,37],[-28,34],[-48,-3],[-23,-91],[-59,-13],[-42,7],[-27,-5],[-66,-33],[22,-51],[-68,-11],[-16,-29],[14,-24],[-48,-34],[-31,-47],[-52,-45],[-77,-59],[-19,-21],[-36,-3],[-29,19],[-68,-32],[-1,-28],[-53,-20],[-4,-19],[34,-25],[44,6],[29,-8],[54,-70],[27,-48],[-32,-29],[-66,-25],[-40,1],[-37,12],[-23,-17],[-3,-23],[43,-48],[-1,-37],[-82,-47],[-41,12],[3,-51],[-20,-26],[-60,5],[-30,-15],[-14,-39],[-24,-20],[-57,-20],[-88,16],[-41,-3],[-10,-34],[47,-40],[-15,-22]],[[5101,7708],[-32,52],[-31,16],[-26,40],[-52,52],[-46,37],[10,48],[30,62],[57,38],[42,77],[15,81],[19,64],[3,58],[18,55],[55,88],[-39,46],[-17,33],[-3,50],[-32,62],[12,12],[24,57],[22,72],[3,35],[16,27],[19,80],[1,35],[64,76],[75,134],[49,54],[6,15],[13,142],[-12,41],[-30,35],[3,48],[-12,84],[16,62],[-6,68],[-44,39],[-78,114],[-33,24],[-50,10],[-105,37],[-45,24]],[[4980,9992],[7,70],[-3,95],[-11,91],[17,58],[-39,31],[12,25],[28,123],[12,109],[-106,68],[-109,29],[-47,36],[-39,64],[-10,73],[20,176],[-5,52],[-14,34],[-268,120],[2,48],[12,40],[-57,44],[-16,24],[-31,80],[-31,54]],[[6453,11319],[49,50],[41,64],[65,72],[30,42],[62,66],[44,-5],[59,52],[73,-46],[90,-22],[31,-32],[12,-46],[25,-31],[9,-86],[-2,-50],[19,-58],[48,-32],[31,1],[47,-67],[58,-50],[7,-14],[-39,-65],[3,-10],[116,-55],[28,3]],[[7359,11000],[-65,-124],[-63,-86],[-74,-60],[-6,-45],[-34,-58],[1,-56],[17,-44],[-235,25],[-19,-25],[-3,-44],[-60,-52],[-17,-28],[-81,-58],[33,-63],[-18,-64],[-27,-7],[-10,-77]],[[10940,14421],[52,17],[21,32],[48,40],[35,54],[26,26],[12,28],[-33,43],[5,34],[-39,53],[1,47],[26,13],[0,54],[-15,42],[41,18],[31,37],[21,-3],[27,74],[39,59],[14,8],[42,-13],[50,-40],[60,-88],[6,-37],[43,-60],[34,-7],[25,7],[18,35],[-20,30],[9,52],[10,9],[90,25],[46,33],[44,21],[38,32],[-1,41],[17,22],[-17,19],[16,25],[2,34],[22,22],[45,-10],[102,-5],[44,-6],[30,-14],[21,-23],[4,-57],[33,30],[81,18],[70,-4]],[[12216,15188],[7,-33],[46,-117],[44,-91],[26,-37],[15,-63],[-40,-37],[-8,-20],[85,-296],[46,-50],[41,4],[-9,-45],[-3,-93],[6,-13],[59,-43],[22,-26],[31,-62],[99,27],[31,-29],[-2,-66],[-34,-53],[-7,-69],[81,-102],[32,-14],[107,1],[27,-22],[49,-59],[7,-36],[25,-18],[42,-8],[-17,-39],[4,-51],[10,-16],[62,-17],[57,-69],[28,-8],[58,14],[108,-14],[24,-30],[8,-34],[30,-27],[31,-15],[65,-15]],[[13509,13397],[-67,-98],[-67,-88],[-59,-52],[-89,-98],[-52,-74],[-67,-79],[-50,-36],[-40,-47],[-360,-439],[-31,-76],[-30,-42],[-44,-78],[-79,-84],[-79,-76],[-37,-70],[-41,-61],[-22,-43],[-11,-46],[-21,-33],[-7,-50],[-100,-172],[-49,-52],[-60,-86],[-74,-89],[-18,-31]],[[11955,11297],[-23,22],[-64,-16],[-60,23],[-77,3],[-44,17],[-66,-58],[-63,-28],[-18,-17],[-41,35],[-29,36],[-15,-6],[-39,-89],[-68,-144],[-72,-109],[13,-59],[25,-26],[76,-52],[-1,-16],[-156,-156],[-35,-52],[-37,-18],[-32,28],[-16,42],[-36,-1],[-60,-58],[-48,4],[-60,-4],[-53,-59],[-49,34],[-102,-75],[-65,-60],[1,-64],[-24,-39],[-79,-68],[-12,30],[-27,28],[-31,13],[-87,19],[-31,22],[-30,45]],[[10320,10424],[-8,60],[9,35],[40,81],[8,41],[-7,83],[8,59],[32,62],[220,276],[35,64],[56,66],[5,47],[-34,336],[-1,45],[5,96],[-4,50],[-31,98],[-40,59],[-45,35],[-30,36],[-11,34],[0,39],[31,60],[113,102],[37,50],[48,111],[39,82],[171,305],[28,60],[37,123],[18,45],[44,69],[147,170],[29,55],[5,36],[1,103],[8,63],[55,200],[9,89],[-6,49],[-21,76],[-37,66],[-64,69],[-103,78],[-42,45],[-29,74],[-21,32],[-54,35],[-30,48]],[[13748,10161],[242,157],[40,29],[46,45],[26,33],[115,183],[345,538],[39,54],[61,73],[69,72],[72,63],[206,165],[96,64],[121,58]],[[15226,11695],[68,22],[76,18],[239,46],[92,4],[359,-54],[82,9],[137,62],[77,27],[109,14],[249,-11]],[[16714,11832],[-14,-213],[-32,-574],[-198,11],[-19,-42],[-5,-97],[23,-43],[40,21],[56,-5],[47,-26],[-12,-51],[-45,6],[-60,-202]],[[16495,10617],[-40,-9],[-32,6],[-125,38],[-58,30],[-54,69],[-1,54],[-17,20],[-7,70],[1,131],[-16,47],[-76,-16],[-182,-65],[-70,-3],[-16,-8],[-77,-12],[-66,-23],[-61,5],[-58,-24],[-43,-31],[-32,-38],[-62,-58],[-46,-57],[-64,-125],[-23,-142],[-13,-29],[-52,-48],[-22,-8],[-48,7],[-31,-7],[-46,-34],[-14,-53],[23,-61],[24,-38],[-17,-59],[-34,-65],[-19,-63],[-41,-38],[-42,3],[-51,-26],[-85,-21],[-21,3],[-72,-24],[-121,-84],[-55,-2],[-78,-16],[-35,-25],[-18,-26],[-6,-50]],[[14396,9712],[-40,-36],[-22,-4],[-13,-41],[-23,-12],[-12,-27],[-69,44],[-105,34],[-28,-3],[-19,91],[-27,8],[-31,-7],[-23,27],[-40,23],[-16,41],[-63,30],[-23,49],[11,22],[-14,24],[-42,41],[-40,20],[-32,31],[5,24],[28,47],[-10,23]],[[7367,9631],[72,-53],[59,-25],[109,-39],[215,-71],[67,-39],[112,-44]],[[8001,9360],[46,-57],[120,-65],[34,-24],[51,-60],[71,-171],[45,-40],[57,-16],[69,-3],[48,-11],[40,-19],[264,-144],[45,-12],[133,-18],[43,-15],[26,-21],[17,-40],[13,-68],[31,-41],[27,-17]],[[9181,8518],[-73,-45],[-67,-62],[-145,-90],[-48,-25],[-72,-29],[-64,-44],[-33,-10],[4,-95],[12,-76],[18,-50],[82,-166]],[[8795,7826],[-49,-25],[-66,-54],[-94,-87],[-56,-72],[-56,-38],[-61,-73],[-19,-66],[-54,-65],[-31,-23],[-45,-16],[-79,-39],[-53,-39],[-70,-82],[-75,-81],[-102,-92],[-50,-60],[-75,-81],[-17,-11],[21,-40],[89,-60],[45,-71],[117,-128],[57,-35],[-55,-87],[3,-34],[-11,-21],[12,-37],[10,-68],[-26,-30],[-26,-6],[-45,-26],[-6,-42],[-28,-28],[-36,-7],[-32,-42],[-132,-123],[-25,-39]],[[7675,5898],[-4,-16],[-45,-20],[-85,-77],[-55,-87],[-61,-24],[-43,1],[-42,-26],[-59,-22],[-116,-56],[-49,-14],[-64,-2],[-4,12],[-49,18],[-33,28],[-40,48],[-40,25],[-71,-24],[-26,-31],[-42,-25],[-31,-8],[-133,31],[-51,23],[-30,25]],[[6502,5677],[122,195],[74,110],[8,42],[29,52],[18,46],[40,55],[28,16],[64,17],[81,4],[67,44],[54,42],[56,51],[-71,66],[-26,14],[-66,60],[-5,17],[8,82],[98,150],[52,3],[36,38],[-15,37],[5,23],[78,113],[6,16],[-87,133],[-15,14],[48,54],[-17,49],[60,64],[13,26],[79,53],[30,66],[23,35],[41,36],[-68,67],[-73,55],[-66,64],[-24,-3],[-154,80],[58,101],[7,129],[-21,26],[-44,23],[-22,42],[-2,37],[-45,132],[-21,117],[-25,63],[0,71],[-29,24],[-50,71],[-8,119],[46,74],[4,33],[-30,71],[-63,51],[-37,51],[-9,24]],[[9553,6796],[37,296],[17,98],[30,109],[56,142],[55,102]],[[9748,7543],[77,29],[48,1],[37,-51],[66,10],[44,21],[58,38],[35,7],[21,16],[12,32],[28,17],[62,15],[51,-4],[44,29],[39,6],[-4,26],[-26,57],[-30,18],[-2,42],[25,25],[83,58],[100,81],[31,20],[28,39],[96,78],[47,43],[27,13],[162,128],[-3,34]],[[10904,8371],[26,-15],[12,-34],[-16,-32],[8,-25],[78,-57],[72,-2],[25,29],[51,26],[15,-11],[43,28]],[[11218,8278],[60,-150],[60,-71],[24,-21],[-50,-65],[3,-21],[116,-49],[7,-32],[-39,-65],[21,-15],[38,16],[124,83],[40,19],[8,15],[46,4],[64,26],[37,7],[74,-11],[217,-108],[49,-43],[142,-249],[19,-27],[60,-52]],[[12338,7469],[-59,-28],[-69,6],[-33,-9],[-16,-17],[-13,-80],[-15,-45],[10,-30],[25,-31],[10,-33],[-54,-41],[-109,-16],[-189,-4],[-35,-12],[-70,-58],[-22,-41],[12,-111],[-54,-125],[-33,-45],[-13,-35],[-49,-34],[-55,-9],[-70,8],[-182,6],[-56,-11],[-30,-28],[-118,-333],[-24,-20],[-28,-6],[-82,-3],[-70,18],[-104,77],[-56,29],[-39,-1],[-52,-33],[-46,-69],[-9,-67],[18,-23],[76,5],[53,-12],[21,-18],[9,-28],[-29,-21],[-106,10],[-54,-3],[-70,-35],[-90,-54],[-89,-65],[-51,-10],[-42,6],[-63,56],[-157,83],[-42,-37],[-45,-72],[-12,-81],[-16,-172],[-8,-57],[-24,-45],[-9,-56],[-51,-78],[-34,-25],[-44,-17],[-75,-11]],[[9607,5478],[-12,76],[35,186],[3,42],[-7,44],[-125,383],[-11,87],[63,500]],[[9855,8390],[40,-60],[69,-43],[50,-60],[73,-36],[42,-50],[-36,-63],[-318,-492],[-27,-43]],[[9553,6796],[-62,12],[9,121],[-5,10],[-180,24],[-25,43],[3,103],[-13,41],[11,146],[-36,6],[-57,149]],[[9198,7451],[84,82],[3,18],[37,44],[2,32],[60,96],[14,67],[-17,41],[-9,48],[19,21],[62,45],[105,65],[48,48],[-56,73],[-6,82],[-25,63],[-40,52],[145,87],[35,27],[99,93],[97,-145]],[[12338,7469],[66,-56],[84,-42],[29,-39],[9,-82],[20,-30],[29,-69],[81,-134],[52,-135],[21,-34],[66,-21],[23,-16],[17,-33],[49,-37],[-8,-126],[-20,-42],[-13,-143],[-21,-48],[57,-37],[22,-30],[1,-47],[-7,-78],[-12,-28],[-28,-154],[5,-39],[57,-166],[39,-56],[72,-50],[7,-56],[-14,-40],[-40,-79]],[[12981,5522],[-78,-4],[-9,-158],[-5,-16],[-152,12],[-46,-67],[-5,-70],[-37,-17],[-118,8],[-50,-37],[-211,-124],[-57,-72],[-30,-14],[-52,-11],[-77,4],[-97,-46],[6,-28],[-48,-72],[-88,7],[2,-51],[-31,-194],[-23,-55],[8,-89],[34,-85],[-3,-55],[-26,-46],[-17,-53],[-59,-57],[-69,-51],[-23,-23],[-40,-18],[-52,-51],[-29,-41],[-16,-9],[-84,-12],[-51,10],[-68,41],[-38,33],[-34,11],[-52,4],[-94,22],[-53,-2],[-55,-29],[-42,-43],[-19,-35],[8,-42],[-46,-16],[-23,-45],[-34,-35],[-29,-76],[-46,7],[-83,-22]],[[10640,3710],[-65,66],[-336,470],[-54,63],[-128,128],[-32,40],[-30,74],[-100,421],[-29,84],[-40,77],[-35,50],[-137,181],[-33,62],[-14,52]],[[12994,8081],[10,-12],[56,-15],[86,-11],[44,2],[70,24],[36,32],[10,49],[22,43],[12,51],[16,14],[12,74],[-34,50],[-11,2],[-31,46],[4,76],[-9,43],[14,107],[27,24]],[[13328,8680],[77,22],[41,-4],[24,-42],[42,-21],[48,-5],[70,20],[48,-6],[44,17],[55,29],[75,51],[40,9]],[[13892,8750],[18,-16],[-50,-37],[4,-26],[47,-31],[17,-43],[36,-38],[22,-7],[41,-45],[93,-90],[20,-25],[72,-61],[79,-59],[36,-11],[67,-41],[75,-25],[58,-36],[72,-83],[43,-36],[75,-8],[21,-18],[-36,-65],[-7,-71],[0,-125],[-16,-235],[-8,-53],[-33,-23],[-107,4],[-229,-79],[-28,-22],[-9,-74],[-13,-41],[-239,-130],[20,-31],[33,-14],[14,-30],[76,-77],[38,-23],[21,-39],[23,-9],[42,-36],[-1,-53],[10,-78],[17,-59],[2,-126],[17,-16]],[[14325,6509],[-37,-42],[-23,-36],[-72,-85],[-48,-11],[-71,-55],[-3,-62],[-15,-72],[6,-29],[46,-64],[19,-44],[14,-110],[36,-75],[3,-33],[-83,-55],[-35,-15],[-68,-16],[-75,-1],[-65,-7],[-85,-1],[-22,-47],[-97,-41],[-17,-17],[-48,-24],[-155,10],[-30,-9],[-209,10],[-78,-29],[-28,-30],[-89,-5],[-15,8]],[[12338,7469],[12,3],[36,76],[63,107],[54,61],[62,33],[29,-5],[31,-23],[54,-55],[21,-31],[10,-78],[31,-56],[32,-32],[32,-6],[43,14],[22,31],[-12,38],[-45,68],[-24,66],[11,62],[23,44],[-13,88],[16,101],[41,111],[72,15],[55,-20]],[[9855,8390],[18,-2],[48,20],[132,82],[182,147],[37,24]],[[10272,8661],[33,34],[68,56],[102,73],[38,47],[23,-32],[67,-70],[14,-6],[75,16],[1,-56],[35,-66],[69,-74],[59,-36],[18,-57],[-13,-51],[6,-24],[37,-44]],[[14325,6509],[35,12],[92,84],[102,75],[43,1],[25,10],[46,123],[69,65],[22,49],[57,64],[106,73],[86,41],[58,3],[113,29],[59,29],[42,13],[33,41],[42,24],[39,-10],[39,8],[26,63],[54,29],[45,34],[60,36],[91,23],[21,14],[27,-16],[29,0],[33,22],[90,42],[187,6],[13,45],[32,-26],[68,-22],[14,18],[79,27],[99,72],[41,66],[46,2],[60,75],[50,6],[62,17],[7,164],[143,-8],[15,25],[101,-14],[33,-12],[28,2],[110,-51],[93,0]],[[17190,7882],[84,-97],[22,-13],[918,-1105],[563,-681],[-447,-814],[4,-8],[-370,-658],[-25,22],[-55,18],[-57,70],[-26,55],[-45,34],[-47,4],[-28,29],[-48,32],[-52,-11],[-34,21],[-58,-1],[-16,22],[15,43],[7,134],[26,66],[-29,82],[-23,27],[-41,28],[-83,14],[-18,40],[-29,22],[-34,40],[-39,14],[-55,45],[-32,19],[-99,72],[-9,62],[-36,-7],[-110,3],[-22,-22],[-97,-60],[-91,-40],[-83,-71],[-36,-52],[-83,-50],[-39,-28],[-52,-12],[-55,-30],[-51,4],[-62,25],[-24,3],[-33,-43],[-137,-71],[-64,-46],[-117,3],[-26,-38],[-45,-25],[-14,-48],[-55,-48],[-32,-8],[-84,-1],[-27,-14],[-65,-74],[-28,-15],[-55,-4],[-25,-37],[-11,-31],[-12,-73],[-26,-48],[-36,-44],[-64,-59],[-54,-24],[-126,-42],[-61,-25],[-22,-28],[-1,-25],[-103,-2],[-22,-68],[-52,-13],[-39,-19],[-37,-31],[-84,-46],[-50,6],[-69,-31],[-78,-14],[-19,-40],[-7,-78],[12,-79],[-31,-40],[-27,-14],[-52,-7],[-33,-14],[-109,-91],[-75,-43],[-42,14],[-43,-5],[-65,-27],[-47,-4],[-32,-46],[-39,-38],[-27,-7],[-77,8],[-30,-4],[-35,-20],[0,-59],[-17,-33],[-23,-11],[-33,17],[-21,-4],[-23,-28],[-3,-30],[-58,-40],[-53,-9],[-39,14],[-32,-7],[-55,-40],[21,-58],[0,-46],[-71,9],[-62,-69],[-86,0],[-47,-11],[-42,37],[-81,-9],[-122,-83],[-37,-6],[-81,-33],[-28,-6],[-27,-28],[-26,-6],[-55,4],[-37,14],[-14,-30],[9,-43],[-10,-19],[-39,-1],[-24,-60],[2,-47],[-22,-43],[-9,-79],[-8,-17],[-39,-16],[-11,-34],[-34,-9],[-20,-33],[-43,-15],[-38,-28],[4,-61]],[[12223,2495],[-97,-9],[-56,2],[-148,30],[-219,22],[-63,14],[-61,22],[-46,6],[-65,-23],[-24,-22],[-39,-69],[-19,-13],[-37,-2],[-171,78],[-54,56],[-69,39],[-62,20],[-59,56],[0,24],[-44,6],[-68,38],[-38,73],[25,18],[28,-5],[9,19],[-38,22],[-50,91],[-24,79],[-30,162],[-1,96],[35,247],[-6,52],[-23,31],[-69,55]],[[9181,8518],[46,-13],[37,4],[47,19],[12,42],[63,5],[69,45],[88,109],[71,57],[103,94],[53,32],[45,12],[44,-3],[57,-24],[75,-46],[72,-10],[48,15],[88,48]],[[10199,8904],[14,-40],[48,-91],[14,-77],[-3,-35]],[[9198,7451],[-39,94],[-46,98],[-87,46],[-28,41],[-11,64],[-66,101],[-20,13],[-30,-46],[-76,-36]],[[14089,8972],[20,3],[56,-13],[43,-39],[31,-18],[48,-3],[36,31],[15,47],[-78,103],[-13,28],[-79,56],[-19,24],[7,46],[23,34],[40,27],[72,-11],[32,-27],[68,-8],[53,26],[66,-9],[53,3],[48,40],[18,46],[11,63],[23,92],[-19,65],[2,34],[-20,39],[-34,11],[-49,0],[-45,-19],[-54,8],[-48,61]],[[16495,10617],[51,24],[43,8],[58,-34],[-10,-156],[-21,-371],[-85,-1],[1,-189],[-109,0],[1,-149],[74,0],[103,-10],[-9,-171],[-7,-231],[-10,-264]],[[16575,9073],[-54,-38],[-181,-175],[-65,-52],[-476,-344],[-58,-34],[-91,-33],[-133,-25],[-47,-3],[-76,12],[-64,27],[-149,87],[-77,32],[-239,61],[-172,32],[-57,23],[-138,91],[-30,15],[-137,42],[-154,73],[-44,39],[-44,69]],[[13892,8750],[55,36],[21,33],[11,91],[79,57],[31,5]],[[16575,9073],[-23,-487],[71,-77],[49,8],[-10,73],[110,23],[115,-135],[19,-29],[-39,-77],[-33,-51],[-110,113],[-18,-14],[243,-262],[241,-276]],[[10199,8904],[283,159],[50,50],[68,147]],[[10600,9260],[27,-8],[133,-61],[-32,-64],[49,-22],[49,-13],[9,-26],[52,-81]],[[10887,8985],[54,-122],[1,-82],[32,-30],[33,-71],[70,-98]],[[11077,8582],[51,-47],[40,-52],[29,-23],[50,-19],[9,-47],[-25,-40],[-13,-76]],[[10642,9339],[39,56],[271,110],[268,105],[184,80],[10,-27]],[[11414,9663],[-122,-116],[-24,-16],[77,-103],[32,-18],[36,0]],[[11413,9410],[-245,-193],[-35,-30],[-7,-18]],[[11126,9169],[-75,40],[-94,7],[-14,11],[-53,-2],[-151,66],[-97,48]],[[11413,9410],[75,30],[146,-176],[27,-45],[45,-55]],[[11706,9164],[54,-74],[75,-59],[8,-34]],[[11843,8997],[-49,-3],[-3,-22]],[[11791,8972],[-61,-63],[-16,-25],[29,-17],[1,-35],[-26,-22],[-35,-6],[-52,22],[-17,23],[-33,15],[-47,60]],[[11534,8924],[67,83],[-68,36],[-111,45],[-126,15],[-170,66]],[[11933,9613],[32,-31],[78,-26],[45,23],[105,75],[15,-49],[82,5],[-4,62],[41,-7],[84,10],[72,1],[45,25],[123,15],[28,17],[20,-4],[72,-49],[64,6]],[[12835,9686],[2,-34],[51,-35],[-11,-26],[7,-43],[34,-9],[35,-41]],[[12953,9498],[11,-32],[26,-23],[-10,-28],[6,-25]],[[12986,9390],[-13,-3],[10,-19],[31,-34],[2,-30],[-130,-221],[-119,-156],[-24,17],[-17,33],[-52,43],[-79,-19],[-71,-38],[-46,-18],[-58,5],[-23,-4],[-76,-39],[-45,27],[-85,110],[-36,25],[-101,-87],[-72,12],[-139,3]],[[11706,9164],[92,71],[41,19],[110,72],[33,19],[-28,36],[-43,12],[-32,-31],[-36,24],[-75,22],[-33,59],[-51,62],[27,11],[222,73]],[[12171,10223],[72,55],[58,10],[91,-3],[28,-42],[63,-34],[26,-32],[14,-49],[52,-43],[32,-18],[20,-52],[-9,-55],[31,-27],[71,-24],[89,-98],[-6,-20],[27,-17],[5,-88]],[[11933,9613],[-19,24],[-7,50],[-23,20],[-43,19],[-19,26],[-58,2],[-88,15],[-65,19]],[[11611,9788],[100,82],[191,130],[221,175],[30,15],[18,33]],[[8229,12387],[62,-3],[81,3],[21,9],[57,49],[-1,50],[7,72],[11,14],[0,43],[42,42],[56,12],[15,26],[-15,31],[13,16],[33,-31],[43,-23],[24,-30],[28,-2],[15,23],[-23,46],[15,17],[32,-17],[41,29],[35,-13],[43,-112],[-6,-33],[43,-49],[12,-28],[72,39],[2,40],[58,-1],[0,-49],[27,-63],[44,28],[3,35],[61,-1],[18,21],[-19,34],[50,11],[54,-38],[56,39],[3,44],[21,20],[34,-45],[32,6],[29,-28],[26,38],[29,-5],[15,22],[-16,23],[15,18],[38,-2],[9,25],[-35,26],[8,45],[40,18],[26,-37],[20,-9],[24,32],[34,-6],[11,24],[-6,45],[-27,31],[7,54],[57,30],[13,-13],[66,1],[-15,31],[38,70],[-42,16],[-55,-15],[7,71],[45,13],[15,28],[-35,39],[-29,8],[-18,42],[35,14],[45,0],[6,28],[-62,19],[1,32],[48,-5],[27,18],[-8,20],[-63,5],[-49,57],[-1,17],[36,27],[49,7],[27,-23],[14,25],[-9,27],[9,25],[43,-11],[27,-56],[1,-24],[35,-16],[23,30],[54,5],[62,53],[5,18],[-21,21],[2,27],[71,20],[14,13],[-6,38],[33,34],[-10,17],[-54,-9],[-60,50],[-39,18],[-3,24],[45,4],[3,43],[25,5],[35,-38],[23,16],[-8,61],[60,76],[-3,32],[-43,27],[-41,2],[-6,23],[14,26],[34,17],[64,-14],[40,-27],[48,-4],[28,-24],[48,4],[23,27],[51,-9],[24,33],[56,-25],[7,35],[-54,23],[-25,24],[5,20],[63,60],[0,64],[-9,28],[-25,29],[-39,125],[1,16],[31,28],[1,31],[60,-16],[22,-32],[96,-80],[45,-20],[84,-10],[65,-1],[87,14]],[[10320,10424],[-69,-51],[-91,-73],[-52,-14],[-53,62],[-8,27],[-19,9],[-73,-46],[-70,-53],[-8,1],[-48,71],[-38,5],[-67,-56],[-21,-30],[-38,-9],[-5,-45],[-16,-20],[-54,-8],[-56,28],[-42,-8],[-41,5],[-43,17],[-51,42],[-78,5],[-41,38],[-33,64]],[[9205,10385],[-35,64],[-29,3],[-97,-16],[-8,10],[-22,82],[-34,22],[-107,-24],[-39,-5],[-112,-44],[-54,31],[-61,24],[-26,36],[-31,3],[-40,-27]],[[8510,10544],[-44,35],[-34,38],[-39,14],[-15,20],[-13,56],[-16,9],[-42,-3],[-47,-16],[-43,37]],[[8217,10734],[20,35],[40,31],[65,25],[-6,51],[7,36],[-15,21],[15,50],[19,19],[29,2],[60,63],[-6,50],[6,66],[-11,43],[-46,44],[4,19],[-24,76],[-15,26],[-11,60],[12,20],[-12,23],[14,19],[8,47],[-28,38],[32,62],[-14,99],[-23,23],[-3,33],[17,51],[21,8],[4,94],[-16,61],[-20,21],[0,28],[-30,71],[12,23],[55,13],[1,27],[-30,24],[-40,8],[-35,-3],[-25,42],[0,23],[-30,37],[11,44]],[[13509,13397],[30,-10],[82,-62],[96,-39],[49,8],[61,-23],[36,-4],[67,4],[32,-16],[29,-39],[11,-47]],[[14002,13169],[2,-41],[14,-29]],[[14018,13099],[-15,-13],[-62,-139],[-12,-45],[-12,-92],[-12,-23],[-156,-207],[-35,-42],[29,-79],[84,-92],[19,-61],[46,-76],[-29,-30],[-26,-58],[-78,-92],[-29,-87],[-55,-104],[-54,-72],[-19,-54],[-112,-212],[-29,-122],[-34,-66],[-6,-104],[-24,-114],[-26,-44],[12,-88],[-68,-45],[-84,-32],[-21,4],[-24,46]],[[13186,10956],[-28,39],[-50,159],[-67,94],[-46,29],[-69,14],[-17,-17],[-87,-65],[-27,-27],[-31,-49]],[[11942,11255],[13,42]],[[14002,13169],[60,86],[71,59],[41,48],[79,62],[35,38],[57,39],[28,29],[30,46],[28,60],[132,145],[41,73],[81,97],[92,71],[18,20],[57,131],[34,37],[50,39],[42,47],[40,73],[32,37],[44,72],[88,97],[0,25],[35,52],[59,70],[114,147],[49,58],[70,59],[22,24],[45,92],[51,151],[20,43],[7,60],[-15,72],[14,33],[0,53],[30,36],[181,121],[129,48],[16,21],[26,76],[-4,43],[58,60],[20,40],[28,34],[120,74],[65,72],[21,58],[-10,53],[75,58],[46,52],[32,122],[8,11],[55,18],[66,45],[58,-21],[43,-5],[61,3],[36,32],[75,36],[76,-11],[36,23]],[[17000,16613],[-21,-381],[-105,-1782],[-1,-89],[-5,-21],[-74,-1311],[-41,-574],[-39,-623]],[[15226,11695],[-46,24],[-34,37],[-65,36],[-36,36],[-11,26],[7,73],[-19,47],[-16,10],[-124,47],[-79,17],[-53,51],[-24,39],[1,49],[50,113],[51,134],[1,27],[-16,63],[-31,35],[-72,33],[-104,66],[-25,33],[-11,43],[-85,152],[-49,42],[-85,42],[-101,73],[-33,12],[-66,-1],[-105,30],[-28,15]],[[14214,18431],[48,-4],[76,-27],[9,-15],[60,-46],[54,54],[13,27],[28,22],[31,12],[67,38],[44,69],[47,38],[98,50],[31,30],[1149,165],[1087,156],[-79,-39],[2,-162],[125,-1],[1,-75],[18,0],[-86,-1395],[-4,-80]],[[17033,17248],[-47,-53],[-83,-116],[-28,-44],[-84,-81],[-215,-186],[-50,-34],[-60,-16],[-76,-5],[-127,-54],[-24,-5],[-79,0],[-41,-6],[-27,-21],[-79,-85],[-166,-130],[-50,-14],[-47,-27],[-30,-36],[-36,-62],[-33,-31],[-27,-10],[-73,-3],[-19,-8],[-110,-86],[-199,-142],[-185,-114],[-127,-106],[-31,-34],[-36,36],[-5,63],[-29,30],[-52,37],[-73,67],[-7,23],[-30,11],[-26,61],[-10,78],[131,112],[58,70],[60,99],[44,95],[39,67],[9,31],[-5,42],[-32,50],[-111,-38],[-103,-30],[-108,-25],[-128,-22],[-148,-16],[-729,-43]],[[13589,16537],[4,31],[-19,53],[26,35],[-9,50],[17,31],[21,100],[-48,32],[86,88],[17,12],[75,28],[5,33],[19,32],[20,72],[18,24],[-19,23],[23,68],[6,104],[-10,13],[-43,4],[-55,87],[-3,24],[38,23],[4,21],[-20,36],[4,81],[33,71],[33,102],[21,30],[17,44],[42,29],[62,100],[202,226],[11,32],[21,15],[22,58],[4,82]],[[12953,9498],[68,87],[1,96],[28,3],[36,20],[145,122],[145,94],[41,1],[-9,36],[84,38],[256,166]],[[13328,8680],[-5,19],[33,54],[60,-1],[26,18],[29,54],[55,38],[-21,49],[-18,19],[37,58],[-33,29],[-11,35],[-20,23],[-1,46],[27,58],[-10,71],[-25,1],[-25,-27],[-61,11],[-30,35],[-42,30],[-27,-1],[-110,21],[-21,-4],[-34,33],[-63,-21],[-20,4],[-7,15],[-29,27],[4,16]],[[7359,11000],[60,90],[60,-78],[69,-154],[15,-16],[61,-25],[27,-1],[81,-20],[53,-1],[125,-52],[28,-27],[70,-19],[86,-14],[91,68],[32,-17]],[[8510,10544],[28,-20],[31,-6],[43,-41],[70,-56],[3,-13],[-25,-39],[-88,-78],[-1,-83],[6,-62],[-28,-56],[34,-39],[-10,-52],[-283,78],[-47,-25],[-26,-40],[-43,-86],[-133,-253]],[[8041,9673],[-53,43],[-7,-26],[-2,-136],[-8,-46],[-24,-59],[55,-61],[-1,-28]],[[9205,10385],[-16,-10],[-7,-40],[13,-44],[-16,-55],[-25,-38],[-74,-57],[-5,-33],[-38,-72],[6,-31],[116,-3],[46,-13],[30,-20],[433,-330],[46,-21],[104,-18],[30,-16],[51,-45]],[[9899,9539],[-117,-105],[-55,-30],[-38,-7],[-78,16],[-212,97],[-85,32],[-84,21],[-66,11],[-143,8],[-1,-9],[-805,32],[-61,10],[-48,17],[-65,41]],[[1073,10417],[127,43],[33,-29],[1,-31],[30,-83],[26,-47],[32,-43],[26,-22],[41,-14],[10,-32],[39,-61],[82,-76],[18,-30],[4,-71],[-6,-11],[-110,-89],[-4,-21],[15,-100],[23,-50],[34,-52],[119,-158],[57,-52],[-16,-50],[2,-20],[54,4],[66,24],[78,-3],[57,54],[67,80],[124,80],[80,31],[80,36],[32,8],[111,102],[37,18],[103,13],[112,-1],[81,-7],[116,54],[80,32],[49,5],[43,-40],[84,-14],[116,-91],[51,-26],[117,-28],[120,22],[69,-3],[35,16],[53,107],[28,32],[57,28],[31,7],[142,12],[68,11],[149,-9],[81,-1],[253,24],[38,34],[71,16],[36,-15],[34,-3],[63,20],[88,19],[23,34],[20,8],[82,12],[45,-28]],[[5101,7708],[5,-9],[-71,-46],[-76,-36],[-67,-27],[-53,-34],[-76,-1],[-20,-10],[15,-64],[-14,-21],[-31,-13],[-33,-1],[-51,14],[-43,2],[-50,14],[-56,2],[-74,25],[-101,18],[-47,0],[-82,14],[-5,-55],[-68,-75],[-46,-32],[-56,-55],[-51,-40],[-48,-53],[-15,-66],[-23,-36],[-49,-43],[-38,-58],[-8,-56],[-21,-64],[-20,10],[-18,-18]],[[3710,6894],[-99,48],[-71,3],[-26,-12],[-70,-14],[-63,-41],[-19,-25],[-31,-67],[-12,-104]],[[3319,6682],[13,-76],[-8,-52],[-15,-26],[-34,-18],[-37,-1],[-76,31],[-44,58],[-41,115],[-38,80],[-59,87],[-54,67],[-45,38],[-101,56],[-107,74],[-66,53],[-67,47],[-98,53],[-55,44],[-27,37],[-8,158],[-19,49],[-84,50],[-44,5],[-43,-21],[-61,-45],[-81,-91],[-44,-72],[-23,-67],[-24,-44],[-27,-22],[-55,-19],[-91,7],[-33,13],[-9,22],[23,60],[-20,130],[7,39],[17,28],[53,65],[-8,50],[-49,35],[-46,14],[-32,0],[-128,-20],[-55,-1],[-63,8],[-73,19],[-50,34],[-37,38],[-11,23],[-53,69],[-41,27],[-54,23],[-53,15],[-41,61],[-4,104],[-15,72],[-16,27],[-69,73],[-86,95],[-72,61],[-13,20],[-88,91],[-57,42],[-132,77],[-139,61],[-91,27],[-32,15],[-116,138],[-51,72],[-19,58],[6,38],[85,206],[29,42],[25,69],[6,69],[-22,138],[13,95],[41,77],[41,53],[6,27],[-22,69],[54,34],[88,69],[50,0],[35,23],[35,-11],[25,22],[51,4],[25,16],[34,0],[41,-35],[26,8],[50,-4],[47,38],[7,35],[63,7],[15,50],[32,27],[60,-39],[44,23],[28,27],[29,12],[25,49],[-19,39],[13,26],[7,92]],[[4701,13381],[-89,-69],[-51,-25],[-33,-1],[-115,-54],[-41,-35],[-191,-115],[-34,-64],[-132,-142],[-22,-34],[2,-30],[41,-62],[22,-8],[67,-55],[-8,-43],[26,-25],[1,-57],[-19,-52],[39,-57],[2,-39],[21,-99],[-5,-30],[8,-66],[-4,-48],[8,-78],[-21,-64],[-4,-45],[18,-67],[51,-73],[2,-42],[19,-42],[22,-15],[3,-65],[-34,-40],[29,-20]],[[4279,11620],[26,-66],[-1,-18]],[[1073,10417],[9,27],[31,50],[3,34],[51,15],[19,16],[78,26],[16,20],[0,49],[14,35],[-22,55],[6,15],[55,46],[42,-9],[53,-35],[0,-55],[76,-24],[6,30],[-9,35],[34,54],[51,91],[28,43],[41,84],[18,27],[44,84],[47,58],[13,45],[63,96],[75,100],[35,23],[28,35],[66,30],[104,93],[66,76],[75,54],[43,52],[7,32],[-2,41],[49,36],[23,6],[40,-26],[16,7],[31,-17],[21,7],[37,34],[32,54],[12,114],[44,12],[10,27],[35,42],[85,76],[15,8],[151,16],[74,21],[110,-44],[54,76],[33,31],[30,47],[20,12],[61,57],[27,14],[50,-26],[103,21],[9,18],[-13,53],[26,29],[-9,65],[79,49],[28,12],[38,34],[75,39],[117,126],[38,26],[6,20],[38,49],[-12,69],[-29,88],[66,54],[70,11],[79,0],[48,32],[15,63],[50,61],[100,102],[101,77],[21,31],[15,-33],[31,-31],[31,-57],[23,-19],[16,11],[88,21],[45,0],[14,-50],[-3,-39]],[[9899,9539],[73,37],[54,9],[308,4]],[[10334,9589],[14,-21],[43,-10],[60,-44],[110,-68],[46,-42],[22,-56],[13,-9]],[[10642,9339],[-10,-8],[-32,-71]],[[10600,9260],[-131,31],[-60,43],[-47,18],[-335,85],[-45,24],[-83,78]],[[11414,9663],[36,30],[115,63],[46,32]],[[11077,8582],[82,39],[62,58],[40,13],[86,70],[67,66],[74,63],[46,33]],[[11791,8972],[43,-49],[8,-22],[0,-63],[37,-58],[120,-123],[69,-110],[-33,-52],[14,-30],[56,-37],[108,-23],[132,-88],[64,-33],[106,-36],[46,-29],[47,1],[119,40],[60,16],[108,58],[45,-17],[35,20],[57,-23],[25,-49],[36,-19],[2,-42],[-17,-33],[-50,-40],[3,-48],[-37,-2]],[[11126,9169],[-11,-13],[-228,-171]],[[3710,6894],[49,-44],[47,-31],[35,-56],[1,-53],[23,-70],[-6,-54],[18,-44],[44,-44],[46,-6],[21,16],[49,79],[67,60],[83,-4],[53,-55],[49,-40],[55,-10],[81,-52],[44,-22],[35,-5],[56,29],[95,108],[43,32],[49,13],[147,-20],[127,-53],[24,4],[96,-21],[39,-118],[23,-24],[32,-7],[96,-57],[39,-27],[85,-17],[42,-45],[72,-86],[37,-18],[60,-19],[102,-14],[29,2],[43,19],[33,60],[36,44],[25,47],[55,45],[50,23],[32,2],[11,-41],[-50,-80],[-22,-83],[-12,-91],[12,-23],[19,-109],[10,-18],[-6,-32],[-24,-25],[-9,-63],[-23,-55],[-32,-41],[-31,-60],[-7,-48],[30,-90],[56,-75],[39,-21],[43,-7],[115,34],[19,15],[6,42],[18,29],[-27,70],[-30,26],[-15,28],[16,92],[17,21],[25,56],[31,26],[33,-13],[49,-7],[95,-67],[35,-2],[40,-72]],[[7675,5898],[28,-4],[37,-35],[85,-44],[36,-52],[64,-52],[46,-11],[39,-35],[40,-11],[76,-4],[58,22],[26,23],[7,40],[-3,85],[8,18],[45,28],[99,-4],[38,-23],[50,-7],[31,-23],[36,-52],[5,-39],[-50,-65],[-16,3],[-75,41],[-66,-5],[-41,-29],[-9,-20],[-11,-67],[5,-42],[19,-50],[34,-33],[19,-32],[1,-118],[-3,-29],[40,-81],[69,-85],[19,-50],[74,-95],[39,-29],[60,-8],[52,55],[19,131],[40,11]],[[8745,5121],[27,-50],[38,-93],[13,-50],[24,14],[5,71],[45,-8],[15,-18],[1,-85],[24,-57],[-4,-30],[12,-22],[9,-58],[13,-27],[-36,-40],[3,-54],[-44,-33],[9,-29],[-28,-34],[-30,-12],[-69,-67],[-63,-46],[-20,-29],[-27,-11],[-53,-50],[-99,-141],[-15,-26],[-17,-112],[23,-97],[4,-48],[26,-129],[3,-78],[14,-76],[-7,-24],[-24,-19],[-32,4],[-68,-67],[-33,-11],[-33,-44],[-60,-12],[-30,-80],[2,-57],[15,-40],[-11,-48],[-56,5],[-56,17],[-41,-44],[-51,-21],[-12,-14],[31,-131],[-15,-17],[-52,-10],[-39,-36],[-16,-24],[-42,-29],[-13,-19],[-36,19],[-45,-42],[-56,-20],[-27,47],[-30,-39],[-73,56],[-35,0],[-35,15],[-50,38],[-46,9],[-36,38],[-52,92],[-89,-51],[-89,-59],[-33,-4],[-125,-51],[-13,-39],[-40,-76],[-8,-25]],[[6987,2783],[-104,117],[-89,93],[-310,295],[-303,297],[-732,707],[-44,46],[-101,89],[-88,83],[-107,115],[-60,57],[-45,50],[-100,99],[-54,69],[-149,159],[-97,90],[-75,79],[-16,-18],[-87,56],[28,37],[-72,78],[-18,25],[-91,95],[-35,30],[-116,115],[-145,149],[-111,126],[-66,46],[-38,96],[-41,160],[-19,96],[7,44],[-1,57],[-19,44],[-47,-19],[-6,-19],[-32,0],[-104,92],[-107,57],[22,73],[-35,3],[-61,31]],[[4701,13381],[49,-45],[24,-36],[51,34],[50,20],[98,65],[72,72],[130,100],[173,141],[22,23],[22,42],[88,38],[67,54],[31,19],[123,107],[32,46],[15,8],[82,68],[57,73],[35,19],[3,27],[139,153],[72,61],[41,46],[0,30],[-30,18],[25,34],[19,59],[74,18],[16,15],[56,17],[7,37],[-23,50],[9,47],[52,93],[25,18],[-12,34],[16,31],[25,23],[31,46],[41,-16],[32,-23],[50,0],[41,12],[60,34],[51,38],[28,35],[22,11],[69,73],[51,61],[91,99],[48,58],[75,61],[139,149],[73,54],[88,57],[19,4],[100,-52],[13,-18],[-19,-68],[1,-27],[34,-15],[44,23],[-3,65],[47,32]],[[7662,15733],[23,-81],[-4,-34],[6,-61],[-9,-78],[16,-32],[-16,-47],[-58,-62],[-9,-44],[-18,-39],[-64,-71],[-75,-25],[-48,-54],[-48,-67],[-48,-85],[-77,-168],[-12,-37],[-25,-28],[-67,-112],[-25,-51],[-82,-113],[7,-35],[72,-64],[71,-40],[61,8],[27,-4],[65,-47],[32,-30],[62,-75],[59,-40],[19,-72],[84,-123],[55,-68],[35,-33],[78,-53],[24,-36],[42,-151],[49,-64],[16,-43]],[[7880,13474],[-35,-20],[-383,-207],[-98,-57],[-175,-116],[-304,-195],[-561,-365],[-113,-66],[-81,-37],[-890,-380],[-961,-411]],[[10884,17026],[61,52],[69,0],[48,-16],[50,0],[54,-69],[34,-11],[79,-80],[54,-19],[16,26],[110,58],[60,42],[79,69],[94,61],[89,84],[28,11],[41,35],[44,26],[28,35],[103,95],[16,30],[57,39],[67,67],[51,94],[63,82],[112,95],[46,-85],[84,-43],[20,-38],[75,-23],[73,-15],[44,-23],[28,12],[29,-27],[47,4],[44,34],[41,8],[69,27],[67,-23],[79,7],[44,31],[19,4],[107,80],[31,38],[54,50],[38,27],[66,80],[44,34],[32,39],[60,42],[41,46],[31,22],[47,54],[57,42],[54,57],[31,23],[63,69],[76,42],[25,27],[22,0],[108,-23],[27,0]],[[13589,16537],[3,-39],[48,-170],[-4,-52],[-69,-59],[-96,-50],[-39,-7],[-107,21],[-96,-10],[-45,39],[-50,-15],[-25,4],[-105,-23],[-23,-31],[-59,-27],[-71,-51],[-122,-38],[-25,-138],[-25,-47],[4,-35],[-37,-41],[-45,-99],[-42,-18],[-59,-43],[-5,-15],[23,-68],[5,-92],[-91,-31],[-58,0],[-60,-34],[-34,-43],[-38,-9],[-21,-20],[-5,-108]],[[10940,14421],[-122,251],[-34,82],[-16,68],[-68,573],[-26,49],[-100,82],[-30,42],[-138,339],[-16,74],[0,43],[11,231],[20,59],[32,43],[188,301],[98,134],[48,81],[30,34],[52,46],[19,29],[-4,44]],[[17033,17248],[-17,-313],[113,-181],[26,21],[0,-48],[-106,0],[0,53],[-41,1],[-8,-168]],[[10334,9589],[102,7],[72,16],[65,22],[517,201],[3,23],[22,28],[32,17],[41,3],[64,39],[43,37],[39,45],[34,73],[28,41],[52,43],[101,136],[76,65],[91,130]],[[12197,10269],[-25,-27],[-1,-19]],[[13748,10161],[-21,49],[41,30],[25,28],[-24,17],[-9,34],[-22,29],[-52,20],[-43,35],[1,33],[-23,25],[14,64],[-44,39],[-19,60],[-28,18],[9,67],[-12,33],[-46,-10],[-45,9],[-31,24],[9,34],[-29,31],[-47,-19],[-48,12],[-31,-20],[-65,4],[-4,58],[-52,26],[-12,43],[46,22]],[[7662,15733],[57,25],[44,-26],[29,-42],[6,-42],[32,-16],[50,42],[16,4],[66,-30],[22,-27],[57,-50],[50,-19],[19,4],[76,57],[57,12],[104,91],[25,73],[31,31],[13,38],[60,76],[44,23],[47,73],[26,30],[50,31],[54,65],[38,65],[69,61],[101,77],[47,46],[88,76],[29,19],[19,-15],[15,-46],[114,84],[54,4],[63,-15],[41,-23],[34,0],[73,53],[57,92],[37,19],[32,35],[44,30],[85,-8],[48,39],[33,47],[16,63],[33,58],[50,30],[25,-42],[19,-15],[10,-80],[31,-31],[29,-7],[66,49],[44,46],[25,12],[92,95],[69,65],[47,35],[25,30],[76,58],[29,-12],[25,-42],[12,-46],[41,-38],[92,61],[72,-53],[41,-65],[48,3],[19,39],[30,17]],[[8229,12387],[-63,15],[-44,-27],[-35,10],[-35,-16],[-23,4],[-85,47],[-57,17],[-52,23],[-46,33],[77,101],[70,122],[-23,39],[11,29],[12,71],[58,174],[28,78],[10,115],[-8,25],[-38,31],[-63,73],[-43,123]],[[8745,5121],[22,4],[111,-5],[54,6],[35,22],[4,24],[-12,36],[-39,73],[4,37],[23,61],[36,43],[62,55],[64,5],[43,-34],[26,-35],[31,-20],[85,-24],[71,14],[21,20],[24,95],[21,30],[34,2],[49,-33],[76,-22],[17,3]],[[12223,2495],[4,-59],[-9,-50],[22,-71],[-9,-73],[-11,-13],[-17,-88],[12,-26],[24,-13],[38,-40],[23,-35],[53,-28],[58,21],[27,0],[54,-23],[47,-80],[-31,-24],[-28,-65],[-15,-73],[-16,-31],[-26,-20],[-68,-22],[-54,-26],[-56,-65],[-29,-57],[0,-100],[-27,-96],[-27,-34],[-12,-132],[-10,-22],[-32,-16],[-35,11],[-18,-23],[-29,-5],[-27,-56],[-49,-50],[-9,-30],[-26,-29],[-64,-13],[-47,-40],[-44,-26],[-74,-128],[-60,-52],[1,-45],[-56,-27],[-18,-27],[19,-95],[30,-34],[38,-115],[27,-54],[-76,-93],[-62,-1],[-57,-10],[-59,-1],[-60,-51],[-80,0],[-20,-56],[-102,-42],[-40,-34],[-51,-8],[-27,39],[-24,77],[-36,49],[-58,61],[22,57],[-2,17],[-48,48],[-26,62],[-36,14],[-50,-13],[-45,9],[-13,15],[-3,41],[-18,50],[-36,17],[-34,35],[-69,3],[-30,16],[-16,37],[0,40],[-40,47],[-27,46],[-99,6],[-7,42],[7,45],[-14,34],[-31,37],[-32,-10],[-67,39],[-35,61],[-35,27],[-20,3],[-31,-19],[-102,-30],[-84,-5],[-44,-17],[-21,4],[-46,29],[-67,28],[-60,18],[-33,35],[-46,-5],[-17,7],[-30,46],[-36,14],[-53,9],[-38,18],[-11,-28],[-51,-21],[-23,-27],[-41,-25],[-32,4],[-127,-27],[-48,-28],[-48,-10],[-36,7],[-44,-18],[-39,-62],[-73,-62],[-33,-9],[-62,-5],[-58,12],[-45,17],[-46,61],[-671,767],[-23,24],[-457,520],[-184,92],[46,66],[-310,352]]],"transform":{"scale":[0.000031713532513180835,0.000026155368421052647],"translate":[-83.172685,35.92183]},"objects":{"Geometry\\47-059":{"type":"GeometryCollection","geometries":[{"arcs":[[0,1,2,3]],"type":"Polygon","properties":{"GEOID":"470590901001"}},{"arcs":[[4,5,6,7,8,9,10]],"type":"Polygon","properties":{"GEOID":"470590913003"}},{"arcs":[[11,12,-6]],"type":"Polygon","properties":{"GEOID":"470590907001"}},{"arcs":[[13,14,15,16,17]],"type":"Polygon","properties":{"GEOID":"470590908003"}},{"arcs":[[18,19,20,21,22]],"type":"Polygon","properties":{"GEOID":"470590909003"}},{"arcs":[[-8,23,24,25,26,27,28]],"type":"Polygon","properties":{"GEOID":"470590906002"}},{"arcs":[[29,30,31,32,33,34]],"type":"Polygon","properties":{"GEOID":"470590905021"}},{"arcs":[[35,-30,36,37]],"type":"Polygon","properties":{"GEOID":"470590905011"}},{"arcs":[[-34,38,39,40]],"type":"Polygon","properties":{"GEOID":"470590910011"}},{"arcs":[[41,42,43,44,-39,45]],"type":"Polygon","properties":{"GEOID":"470590910013"}},{"arcs":[[46,47,-31,-36]],"type":"Polygon","properties":{"GEOID":"470590905012"}},{"arcs":[[-40,-45,48,49,50]],"type":"Polygon","properties":{"GEOID":"470590910012"}},{"arcs":[[51,52,-47,-38,53,-26]],"type":"Polygon","properties":{"GEOID":"470590905014"}},{"arcs":[[54,-22,55,56]],"type":"Polygon","properties":{"GEOID":"470590910022"}},{"arcs":[[57,-57,58,-49,-44]],"type":"Polygon","properties":{"GEOID":"470590910021"}},{"arcs":[[59,60,61,62,-32,-48,-53]],"type":"Polygon","properties":{"GEOID":"470590905013"}},{"arcs":[[63,64,65,66]],"type":"Polygon","properties":{"GEOID":"470590904005"}},{"arcs":[[67,68,69,70,71,-66]],"type":"Polygon","properties":{"GEOID":"470590904003"}},{"arcs":[[72,73,74,75,-69,76]],"type":"Polygon","properties":{"GEOID":"470590903003"}},{"arcs":[[77,-73,78,79]],"type":"Polygon","properties":{"GEOID":"470590903001"}},{"arcs":[[80,-18,81,82,83,84]],"type":"Polygon","properties":{"GEOID":"470590908002"}},{"arcs":[[-16,85,86,87,88,-2,89]],"type":"Polygon","properties":{"GEOID":"470590908001"}},{"arcs":[[90,91,-20,92,-87]],"type":"Polygon","properties":{"GEOID":"470590909001"}},{"arcs":[[93,94,95]],"type":"Polygon","properties":{"GEOID":"470590915002"}},{"arcs":[[96,-23,-55,-58,-43,97,-75]],"type":"Polygon","properties":{"GEOID":"470590902002"}},{"arcs":[[98,-84,99,100,-24,-7,-13]],"type":"Polygon","properties":{"GEOID":"470590907002"}},{"arcs":[[-83,101,102,-100]],"type":"Polygon","properties":{"GEOID":"470590901006"}},{"arcs":[[103,-10,104,105,106]],"type":"Polygon","properties":{"GEOID":"470590912002"}},{"arcs":[[107,108,-11,-104,109]],"type":"Polygon","properties":{"GEOID":"470590912001"}},{"arcs":[[110,111,112,113]],"type":"Polygon","properties":{"GEOID":"470590901003"}},{"arcs":[[114,-79,-77,-68,-65]],"type":"Polygon","properties":{"GEOID":"470590903002"}},{"arcs":[[115,-71,116,-46,-33,-63]],"type":"Polygon","properties":{"GEOID":"470590904002"}},{"arcs":[[-113,-67,117,-61]],"type":"Polygon","properties":{"GEOID":"470590904004"}},{"arcs":[[118,-28,119,120,121,-106]],"type":"Polygon","properties":{"GEOID":"470590911001"}},{"arcs":[[122,123,124,-108]],"type":"Polygon","properties":{"GEOID":"470590913001"}},{"arcs":[[125,-96,126,-14,127]],"type":"Polygon","properties":{"GEOID":"470590914002"}},{"arcs":[[-95,128,-91,-86,-15,-127]],"type":"Polygon","properties":{"GEOID":"470590915001"}},{"arcs":[[129,-4,130,-80,-115,-64,-112]],"type":"Polygon","properties":{"GEOID":"470590901002"}},{"arcs":[[-103,-114,-60,-52,-25,-101]],"type":"Polygon","properties":{"GEOID":"470590901004"}},{"arcs":[[-88,-93,-19,131]],"type":"Polygon","properties":{"GEOID":"470590909002"}},{"arcs":[[132,-128,-81,133,-124]],"type":"Polygon","properties":{"GEOID":"470590914001"}},{"arcs":[[-121,134,-41,-51,135]],"type":"Polygon","properties":{"GEOID":"470590911002"}},{"arcs":[[-125,-134,-85,-99,-12,-5,-109]],"type":"Polygon","properties":{"GEOID":"470590913002"}},{"arcs":[[-76,-98,-42,-117,-70]],"type":"Polygon","properties":{"GEOID":"470590903004"}},{"arcs":[[-105,-9,-29,-119]],"type":"Polygon","properties":{"GEOID":"470590906001"}},{"arcs":[[-3,-89,-132,-97,-74,-78,-131]],"type":"Polygon","properties":{"GEOID":"470590902001"}},{"arcs":[[-82,-17,-90,-1,-130,-111,-102]],"type":"Polygon","properties":{"GEOID":"470590901005"}},{"arcs":[[-118,-72,-116,-62]],"type":"Polygon","properties":{"GEOID":"470590904001"}},{"arcs":[[-54,-37,-35,-135,-120,-27]],"type":"Polygon","properties":{"GEOID":"470590906003"}}]}}}