{"type":"Topology","arcs":[[[4060,5582],[63,31]],[[4123,5613],[6,-5],[81,-25],[95,-22],[49,-36],[18,-7],[55,-6],[53,-20],[17,-11],[-118,-201],[-4,-28],[10,-72]],[[4385,5180],[-14,-58],[-40,-108],[-30,-49],[-18,-57]],[[4283,4908],[-42,15],[-64,14],[-158,11],[-43,6],[-61,14],[-47,17],[-124,53],[38,37],[95,58],[15,14],[69,132],[59,152],[30,57],[19,44],[13,16],[-22,34]],[[3427,6380],[252,230],[69,56],[51,31],[56,29],[511,257]],[[4366,6983],[57,-71]],[[4423,6912],[-34,-95],[-8,-37],[0,-141]],[[4381,6639],[-33,-65],[-53,-115],[-68,-150],[-45,-70],[-53,-46],[-18,-27],[-13,-52]],[[4098,6114],[-113,25],[-52,5],[-53,11],[-230,126],[-37,12],[-43,6],[-30,12],[-113,69]],[[4423,6912],[41,-37],[28,-16],[93,-43],[27,-20],[63,-57],[50,-57],[44,-61],[102,-82],[58,-32],[132,-49]],[[5061,6458],[-53,-34],[-36,-39],[-73,-133]],[[4899,6252],[-185,71],[-52,21],[-56,-110]],[[4606,6234],[-129,59],[100,192],[5,18],[-7,21],[-55,46],[-46,26],[-78,32],[-15,11]],[[4825,5743],[75,55]],[[4900,5798],[20,5],[24,22],[56,36],[48,37],[41,25],[53,40],[118,83],[56,19],[35,5],[80,-6]],[[5431,6064],[37,-11],[56,-5],[56,7]],[[5580,6055],[4,-21]],[[5584,6034],[-46,-8],[-33,-36],[-67,-56],[-21,-37],[-5,-40],[-16,-34],[-64,-38],[-37,-31],[-59,-33],[-27,-4],[-56,23],[-54,-116]],[[5099,5624],[-216,92]],[[4883,5716],[-58,27]],[[4573,6110],[5,48],[28,76]],[[4899,6252],[135,-55]],[[5034,6197],[-63,-130],[6,-2],[-40,-102],[12,-5],[-95,-142]],[[4854,5816],[-110,54],[38,56],[12,40],[-143,71],[16,36],[-94,37]],[[5099,5624],[166,-53],[38,-16],[102,-29],[177,-39]],[[5582,5487],[-362,-529],[-21,-28]],[[5199,4930],[-30,24],[-79,44],[-42,29],[-52,85],[-12,16],[-36,22],[-119,49]],[[4829,5199],[67,122],[7,42],[-7,36],[-13,30],[-2,27],[-13,54],[16,35],[45,58],[-1,23],[-19,30],[-26,60]],[[4762,5698],[63,45]],[[4829,5199],[-17,-27],[-28,-26],[-11,-42]],[[4773,5104],[-285,115]],[[4488,5219],[4,25],[40,82],[47,78],[128,237],[39,46],[16,11]],[[4659,7149],[44,41],[55,68],[169,250],[68,102]],[[4995,7610],[80,-47],[41,-15]],[[5116,7548],[-11,-34],[-63,-125],[-52,-98],[40,-8],[89,9],[148,-18],[45,-8],[64,-29],[36,6],[57,-78],[2,-34],[15,-29]],[[5486,7102],[-116,-60]],[[5370,7042],[-298,-158]],[[5072,6884],[-15,16],[-99,50],[-113,51],[31,60],[-117,49],[-100,39]],[[5072,6884],[-2,-30],[-43,-83],[-3,-29],[29,-17],[31,-39],[30,-16],[22,3],[28,-17],[9,-26],[38,-33]],[[5211,6597],[-97,-93],[-53,-46]],[[4366,6983],[166,83],[74,42],[53,41]],[[5584,6034],[9,-43],[15,-44],[57,-122],[21,-53],[7,-67],[-10,-58],[-14,-32],[-34,-52],[-53,-76]],[[5034,6197],[230,-93],[24,-9],[53,-2],[90,-29]],[[4900,5798],[-46,18]],[[5257,6],[27,70],[50,85],[24,65],[19,82],[22,47],[16,65],[12,22],[78,56],[6,19],[-14,68],[5,29],[47,115],[44,90],[74,141],[26,62],[23,42],[42,42],[21,41],[52,146],[44,98],[73,102],[101,187],[18,39],[104,205],[26,64],[96,178],[60,115],[27,59],[56,103],[78,153],[16,59],[35,89],[26,51],[31,102]],[[6622,2897],[88,-130],[18,-35],[32,-113],[41,-83],[20,-54],[10,-55],[36,-225],[8,-75],[4,-162],[6,-57],[11,-43],[61,-154],[20,-46],[105,-199],[121,-248],[16,-28],[92,-146],[13,-43],[8,-104],[39,-75],[58,-74],[140,-173],[13,-13],[35,-14],[83,-17],[34,-25],[56,-93],[72,-108],[33,5],[18,37]],[[7913,347],[-88,-336],[-1040,-11],[-252,6],[-82,1],[-18,7],[-335,-8],[-21,8],[-623,-8],[-197,0]],[[4190,4644],[199,-78],[30,-10],[69,-29],[49,-45],[52,-42],[22,-35],[49,-46]],[[4660,4359],[-25,-32],[-41,-100],[-28,22],[-31,8],[-25,-39],[-43,-30],[-28,5],[-10,-29],[-26,-13],[-19,-21],[-29,9],[-15,39],[-64,27],[-55,-107]],[[4221,4098],[-168,68]],[[4053,4166],[-86,35],[94,191],[53,135],[43,74],[33,43]],[[4190,4644],[28,46],[32,95],[11,48],[22,75]],[[4283,4908],[86,-29],[47,-7],[76,-4],[304,-14]],[[4796,4854],[5,-19],[60,-62],[0,-33],[-11,-34],[-35,-35],[-20,-32],[-26,-56],[-17,-82],[-21,-36],[-9,-38],[-20,-30],[-42,-38]],[[5116,7548],[89,4],[25,-1],[44,-17],[59,53],[16,47],[51,-18],[17,16],[41,12],[63,29],[27,34],[16,91]],[[5564,7798],[43,-29],[120,-43],[89,-61],[39,-82],[51,-99]],[[5906,7484],[-216,-219],[-41,-45]],[[5649,7220],[-57,-57],[-52,-42],[-54,-19]],[[6647,3919],[56,107],[18,12],[60,-32],[17,-2],[22,19],[28,47],[19,0],[82,-29],[78,-21],[46,-1],[69,10],[65,2],[34,24],[24,31],[47,78],[29,30],[78,144],[58,80],[19,65],[10,23]],[[7506,4506],[63,-5],[52,-18],[22,-17],[29,-67],[12,-91],[-1,-38],[-34,-74],[4,-30],[50,-44],[90,-36],[12,-8],[64,-83],[32,-22],[46,-15],[32,-17],[20,-20],[44,-26],[36,-31],[28,-57],[0,-39],[11,-53],[20,-19],[90,-53],[11,-11],[46,-74],[8,-55],[-2,-37],[-9,-68],[-2,-71],[21,-97],[12,-26],[35,-34],[46,-30],[47,-121],[-10,-28],[7,-15],[120,-56],[25,-27],[49,-89],[19,-15],[73,-27],[75,-5],[53,-20]],[[8852,2737],[-177,-329],[-21,-67],[-21,-39],[-43,-147]],[[8590,2155],[-51,47],[-55,37],[-50,21],[-86,31],[-103,63],[-26,30],[-34,57],[-18,41],[-29,94],[-25,44],[-27,32],[-34,27],[-32,18],[-75,29],[-94,23],[-24,11],[-49,42],[-60,71],[-25,22],[-95,61],[-28,21],[-40,40],[-71,110],[-59,64],[-61,72],[-25,43],[-30,76],[-52,40],[-36,34],[-37,43],[-63,63],[-67,54],[-41,24],[-156,68],[-16,32],[-6,87],[-8,24],[-16,12],[-139,56]],[[4385,5180],[27,63],[76,-24]],[[4773,5104],[-4,-33],[13,-80],[10,-21],[54,-57],[48,-38],[26,-26]],[[4920,4849],[-124,5]],[[7114,11111],[79,-20],[180,-42],[26,-3],[141,6],[32,-4],[43,-23],[40,-70],[50,-81],[61,-55],[180,-99],[90,-55],[127,-99],[90,-83],[34,-40],[60,-99],[30,-44],[42,-40],[31,-23],[91,-52],[92,-45],[56,-3],[50,3],[37,11],[94,40],[62,17],[60,20],[106,21],[25,10],[68,6],[41,11],[75,-4],[49,-20],[44,-41],[22,-30],[28,-51],[19,-54],[6,-37],[-3,-129],[-19,-64],[-31,-34],[-59,-47],[-100,-30],[-109,-16],[-38,-1],[-59,6],[-37,11],[-32,20],[-71,24],[-35,6],[-62,0],[-50,-6],[-59,-17],[-78,-10],[-36,-15],[-33,-28],[-15,-21],[-2,-47],[13,-28],[20,-19],[53,-32],[45,-14],[33,-16],[28,-27],[44,-83],[21,-65]],[[8804,9357],[-17,-12],[-30,-51],[0,-13],[30,-9],[18,-30],[-18,-17],[-37,-5],[-31,-17],[-1,-37],[6,-27],[-27,-38],[-6,-34],[22,-10],[-13,-16],[22,-65],[-21,-13],[5,-18],[-13,-15],[-35,-19],[-25,-46],[3,-56],[-12,-56],[-21,-24],[-26,1],[-44,-8],[-51,-18],[-24,-17],[-10,-22],[37,-29],[-19,-44],[-49,-33],[-31,-64],[-55,23],[-103,-7],[-100,6],[-44,23],[-31,6],[-34,22],[-32,28],[-51,33],[-35,9],[-9,18],[-25,3],[-14,-8],[-18,-32],[-57,-9]],[[7778,8610],[93,184],[99,192],[141,276],[-202,82],[148,126],[37,41],[13,23],[-33,7],[-43,-6],[-90,-30],[-54,-7],[-27,3],[-41,14],[-104,48],[-49,31]],[[7666,9594],[-45,36],[-38,24],[-255,144],[-44,28],[-64,57],[-183,155],[-37,21],[-392,128],[301,733],[25,45],[24,30],[43,36],[113,80]],[[4920,4849],[78,-82],[47,-61],[12,-22],[1,-64],[21,-86],[20,-44],[24,-73],[-16,-66],[-5,-44],[19,-102],[1,-76],[-26,-60],[-33,-66],[-33,-28],[-80,-28],[-65,-19],[-42,-25]],[[4843,3903],[-158,93],[-44,24],[-23,5],[-59,-39],[-34,-8],[-43,15],[-261,105]],[[5582,5487],[157,-38],[172,-43],[319,-71]],[[6230,5335],[-85,-167],[-168,58],[-18,-73],[17,-29],[-27,-40],[-9,-47],[-25,-68],[-34,-108],[-10,-24],[3,-27],[33,-15],[24,-47],[-6,-50],[51,-73],[-25,-58],[17,-33],[-5,-40],[-35,-31],[-13,0],[-21,-29],[2,-28],[-22,-33]],[[5874,4373],[-32,11]],[[5842,4384],[-78,22],[-29,16],[-52,42],[-15,18],[-72,124],[-50,74],[-50,58],[-39,29],[-57,30],[-96,41],[-43,31],[-62,61]],[[4920,4849],[81,-4],[36,2],[60,14],[51,25],[51,44]],[[5842,4384],[-8,-24],[11,-127],[-37,-76],[-187,-351],[-19,-6],[-27,11],[-17,-2],[-33,-28],[-22,-42],[-7,-52],[-18,-19],[-103,41],[-72,31],[-20,-9],[-30,-52],[-107,59],[-102,50]],[[5044,3788],[-54,27],[-147,88]],[[6295,4080],[49,-19],[28,-34],[122,-49],[153,-59]],[[8590,2155],[-260,-876],[-138,-290],[-242,-535],[-18,-31],[-19,-76]],[[6622,2897],[-28,55],[-31,100],[-24,46],[-54,69],[-114,199],[-16,32],[-4,31],[23,105],[-2,57],[-11,42],[-23,61],[-17,61],[-21,162],[-1,137],[-4,26]],[[4573,6110],[-7,-17],[-87,-173]],[[4479,5920],[-69,20],[-39,20],[-63,8],[-47,17],[-45,34],[-52,63],[-32,22],[-34,10]],[[4123,5613],[268,137]],[[4391,5750],[87,45],[49,17],[29,-5],[23,-16],[183,-93]],[[4391,5750],[13,13],[21,62],[54,95]],[[2906,5904],[99,91]],[[3005,5995],[422,385]],[[4060,5582],[-68,-18],[-97,4],[-58,-5],[-191,-30],[-44,-12],[-114,-59],[-89,-51]],[[3399,5411],[-23,22],[-26,10],[-44,2],[-2,24],[34,17],[36,-3],[26,6],[8,23],[-9,22],[-40,-1],[-21,21],[-24,35],[-30,23],[5,21],[26,16],[41,-1],[3,22],[-18,30],[16,15],[48,-28],[14,6],[-4,23],[8,24],[-49,24],[-6,13],[22,28],[-11,38],[-29,21],[-18,0],[-17,14],[-83,-1],[-17,-5],[-28,-20],[-59,6],[-17,-8],[-58,-1],[-54,4],[-22,8],[-71,43]],[[5580,6055],[103,17],[40,3]],[[5723,6075],[75,16],[106,54],[22,6],[26,60],[34,63],[42,85],[-45,71],[-42,26],[-55,43],[-56,48],[4,46]],[[5834,6593],[12,4],[39,73],[46,95],[53,50],[55,25],[13,19]],[[6052,6859],[161,-70],[66,-27],[155,-49],[46,-16],[62,-37]],[[6542,6660],[-16,-41],[-42,-89],[-79,-122],[-9,-19],[-29,-108],[-78,-230],[47,-28],[9,-16],[13,-70],[-6,-62],[2,-38]],[[6354,5837],[2,-24],[30,-57],[26,-42],[5,-50],[-12,-35],[-26,-44],[-12,-38],[-48,-95],[-50,-41],[-39,-76]],[[5906,7484],[66,67],[113,110],[36,38],[49,57]],[[6170,7756],[111,-45],[49,0],[49,-19],[21,-2],[61,12],[122,16],[17,-1],[99,-41],[23,-48],[15,-12],[60,-5],[50,-13],[53,-4],[77,-32],[-66,-110],[-43,-83],[-49,-79],[102,-47],[19,-23]],[[6940,7220],[-53,-81],[-47,-57],[-86,-115],[-158,-216],[-54,-91]],[[6052,6859],[-69,34],[-66,53],[-268,274]],[[7641,9566],[25,28]],[[7778,8610],[-172,-340],[-79,-153],[-71,-140],[-110,-214],[-19,-34],[-58,-75],[-32,-47],[-40,-67],[-27,-32]],[[7170,7508],[-83,-113],[-90,-83],[-57,-92]],[[6170,7756],[131,157],[149,177],[185,194],[47,46],[114,97],[59,75],[21,57],[51,97],[51,135],[11,15],[72,69],[64,92],[62,51],[50,30],[54,42],[99,163],[80,116],[86,134],[21,24],[64,39]],[[6230,5335],[234,-52],[61,-9],[43,2],[120,31],[62,7],[59,-4],[218,-55]],[[7027,5255],[-21,-23],[-72,-66],[-13,-15],[-71,-135],[-46,-90],[112,-72],[67,-70],[40,-31],[22,-25],[59,-38],[34,-42],[27,-44],[19,-16],[49,-9],[29,3],[33,-5],[81,-53],[72,-17],[58,-1]],[[6295,4080],[-11,23],[-34,34],[-88,76],[-49,29],[-239,131]],[[3754,7227],[258,-103],[159,-66],[63,-10],[30,-15],[24,-3],[31,13]],[[4319,7043],[47,-60]],[[3427,6380],[-38,22],[-49,16],[43,84],[78,157],[8,61],[19,80],[23,66],[26,62],[121,-49],[48,-14],[-4,51],[-22,78],[-9,42],[1,31],[82,160]],[[37,4711],[134,-3],[87,7],[56,12],[309,85],[64,21],[86,41],[61,41],[247,194],[37,28],[72,43],[75,32],[58,18],[486,122],[449,114],[74,24],[69,33],[30,17],[180,121],[100,71],[68,57],[127,115]],[[3399,5411],[-47,-28],[-30,-22],[-47,-46],[-92,-83],[-72,-59],[-114,-103],[-166,-141]],[[2831,4929],[-626,-527],[-29,-21],[-52,-21],[-42,-7],[-128,3],[-25,-2],[-47,-15],[-125,-54],[-42,-3],[-48,11],[-42,0],[-156,-41],[-28,-4],[-95,-6],[-42,-9],[-359,-154],[-44,-15],[-83,-8],[-38,-12],[-45,-28],[-18,-22],[-64,-100],[-20,-47],[-36,-104],[-28,-187]],[[569,3556],[-44,228],[-11,47],[-97,183],[-23,48],[-68,129],[-72,152],[-156,308],[-61,60]],[[4496,7637],[33,-1],[10,18],[80,102],[39,116],[12,15],[51,36],[22,30],[44,99],[19,52],[65,82]],[[4871,8186],[-18,42],[16,49],[11,95],[19,41],[28,22],[6,14],[62,53],[52,-1],[37,48],[36,79],[32,57],[51,95],[23,33],[96,94],[42,115],[11,62],[7,11],[96,102]],[[5478,9197],[34,-25],[45,-12],[89,3],[78,-22],[152,-60],[63,-51],[-391,-588]],[[5548,8442],[-553,-832]],[[4319,7043],[-14,20],[-20,54],[-5,49],[8,75],[8,40],[24,63],[96,168],[80,125]],[[2633,9967],[187,-215],[101,-127],[64,-62],[45,-23],[179,-22],[21,-5],[27,-20],[54,-53],[68,-61],[53,-64],[34,-64],[35,-33],[24,-16],[135,-76],[18,-13],[84,-79]],[[3762,9034],[-29,-78],[-30,-48],[-50,-92],[-125,-247]],[[3528,8569],[-82,-164],[-25,-43],[-55,-50],[-58,-73],[-37,-42],[-49,-76],[11,-32],[18,-77],[15,-12]],[[3266,8000],[-36,-32],[-23,-32],[-33,-14],[-47,-71],[-30,-68],[-33,-92],[-24,-106],[-32,-48],[-29,-78],[-51,-66],[-36,-69],[-33,-53],[-17,-36],[-38,-55],[-19,-50],[-35,-54],[-21,-56],[10,-21],[-11,-39],[-11,-65],[34,-95],[42,-51],[89,-57],[-16,-26],[-48,-24],[-67,-66],[-29,-39],[-68,-132],[3,-13],[45,-39],[4,-14],[0,-53],[-32,-12],[-20,-23],[-12,-32],[-5,-38],[9,-50],[-2,-61]],[[2644,6070],[-61,4],[-27,15],[-26,33],[-50,21],[-16,-1],[-39,-26],[-38,-5],[-31,16],[16,50],[-30,33],[25,58],[-23,25],[-63,25],[-26,26],[-24,44],[-6,25],[-36,12],[-86,15],[-34,-4],[-28,-35],[-22,-14],[-7,-23],[-15,-5],[-28,10],[-16,-9],[-24,-44],[-21,-29],[-19,-12],[-11,-24],[-43,-57],[-35,-20],[-10,-27],[-26,-19],[-45,15],[-20,-13],[-40,30],[-2,13],[17,63],[-17,20],[-24,-2],[-32,9],[-34,-12],[-19,-38],[-18,-11],[-39,9],[-36,26],[-12,18],[-28,9],[-18,25],[-24,-1],[-12,14],[-38,20],[-17,24],[-69,37],[-6,30],[-30,21],[-60,-15],[-36,-70],[-22,-29],[-61,-61],[-29,-21],[-54,-23],[-19,2],[-64,42],[-31,32],[-60,48],[-66,36],[-24,2],[-59,-34],[-18,-29]],[[598,6314],[-82,14],[24,28],[5,41],[-5,50],[5,51],[15,56],[2,79],[14,15],[20,61],[14,16],[6,40],[16,47],[76,115],[27,128],[34,55],[66,123],[35,56],[53,-3],[78,-41],[28,27],[40,61],[50,51],[16,24],[22,3],[-10,27],[10,41],[34,60],[25,55],[34,37],[13,30],[18,27],[41,37],[16,21],[9,37],[41,20],[31,31],[12,20],[6,51],[19,44],[13,0],[18,34],[10,67],[-3,24],[37,105],[25,61],[12,67],[10,27],[37,71],[16,21],[19,44],[18,27],[44,91],[25,44],[19,44],[21,34],[35,34],[40,30],[47,54],[25,34],[31,68],[38,13],[3,14],[22,17],[19,57],[-43,31],[-48,76],[-47,35],[-16,41],[16,61],[22,37],[19,10],[37,-7],[47,-27],[37,14],[3,54],[13,37],[-10,37],[10,24],[22,27],[50,7],[43,44],[6,20],[78,44],[13,34],[-13,34],[66,125],[12,71],[279,107]],[[3266,8000],[29,-2],[35,-17],[63,-20],[59,-36],[74,-97],[34,-32],[19,-26],[95,-77],[61,-20],[197,-106],[-45,-74],[-28,-59],[-105,-207]],[[3005,5995],[-156,70],[-50,1],[-43,-5],[-55,9],[-57,0]],[[2887,3823],[29,-27],[7,-52],[-19,-91],[42,-93],[21,-22],[50,-28],[62,-19],[46,-2],[23,-16],[18,7],[47,35],[10,47],[24,46],[25,34],[29,18],[208,-84],[17,-25],[50,-28],[81,-14],[-8,-33],[5,-59],[15,-25],[39,-32]],[[3708,3360],[-85,-214],[-21,-44],[-104,-143],[-27,-56],[-70,-185],[-64,-164],[-40,-127],[-42,-95],[-26,-83],[-12,-69],[-10,-142],[-31,-160],[-26,-108],[-8,-23],[-34,-133],[-20,-98],[-18,-55],[-58,-235],[-18,-53],[-56,-114],[-18,-59],[-17,-167],[-30,-90],[-28,-68],[-36,-106],[-45,-105],[-69,-171],[-34,-100],[-77,-183]],[[2584,10],[-80,-1],[-197,4],[-90,-4],[-185,-3],[-480,-3],[212,419],[282,512],[-7,23],[-112,74],[-18,-35],[-115,41],[5,57],[-40,33],[-245,165],[-281,177]],[[1233,1469],[7,30],[20,50],[3,21],[37,37],[22,32],[38,112],[62,154],[19,53],[3,25],[25,68],[5,26],[50,111],[28,32],[42,72],[6,28],[-2,45],[7,26],[21,41],[15,3],[173,-65],[12,9],[27,56],[17,12],[17,-13],[60,-1],[25,8],[92,11],[19,28],[17,11],[45,15],[29,-9],[12,62],[36,69],[91,256],[23,85],[91,184],[24,44],[43,41],[32,39],[63,118],[103,213],[68,122],[32,28],[45,1],[21,13],[29,51]],[[2993,11],[60,144],[21,40],[64,99],[17,31],[18,45],[37,127],[83,165],[149,332],[55,108],[157,253],[22,47],[9,41],[13,86],[15,50],[90,228],[64,170],[123,331],[28,85],[166,566],[36,85],[176,311],[33,48],[58,72],[336,406],[20,22]],[[5044,3788],[-43,-45],[-4,-35],[24,-60],[40,-139],[1,-24],[-11,-18],[-46,-53],[-24,-57],[-7,-47],[26,-24],[18,-32],[72,-40],[3,-30],[35,-27],[46,-10],[18,-13],[34,9],[17,-31],[34,-16],[28,-21],[-19,-26],[28,-16],[-4,-20],[23,-52],[32,-40],[-8,-16],[30,-40],[7,-59],[-12,-10],[17,-81],[32,-37],[19,-36],[13,-3],[-9,-39],[-15,-26],[12,-16],[-32,-22],[-39,0],[-24,12],[-23,-9],[9,-25],[28,-40],[10,-60],[32,-18],[7,-20],[20,-12],[-22,-14],[-30,1],[-11,-52],[-33,-19],[-19,2],[-39,-12],[-30,5],[-44,25],[-38,-4],[-8,-40],[17,-31],[33,-19],[20,9],[29,-23],[22,-4],[35,-52],[91,-9],[26,-7],[18,-26],[33,-11],[16,22],[20,-31],[17,36],[48,-69],[21,-19],[5,-17],[33,15],[12,-7],[17,-45],[47,-66],[32,1],[11,-13],[12,-50],[-11,-28],[7,-46],[-30,-23],[-25,-31],[-18,-39],[-8,-50],[-18,-16],[9,-13],[35,6],[10,-14],[-16,-16],[-10,-44],[-21,15],[-16,-12],[6,-32],[25,-38],[-19,-11],[-7,-29],[-36,-18],[-22,-30],[-52,-3],[-38,29],[-107,19],[-48,3],[-6,-36],[-14,-31],[32,-18],[-12,-31],[9,-26],[-31,-20],[-50,3],[-24,-5],[-30,4],[-26,15],[-20,-21],[-4,-53],[-15,-33],[14,-49],[-16,-22],[-13,-31],[6,-24],[-19,-24],[-3,-51],[-35,-40],[-51,3],[-48,12],[-67,-21],[-29,3],[5,-29],[37,-77],[-29,2],[-25,-32],[-31,11],[-22,-19],[-4,-26],[15,-16],[3,-18],[-29,7],[-30,29],[-25,-2],[-57,27],[-31,8],[-57,39],[-25,27],[-43,12],[2,-32],[-42,-12],[-7,-12],[24,-17],[29,-31],[0,-12],[-40,-25],[-5,-13],[24,-43],[8,-26],[19,-12],[2,-43],[12,-8],[57,-13],[12,-22],[-15,-26],[32,-4],[7,-22],[-11,-16],[10,-27],[-22,-18],[5,-11],[-19,-30],[-37,-24],[-67,17],[-28,-3],[-21,-19],[-39,-1],[2,-21],[-21,-12],[6,-17],[-24,-8],[23,-59],[-1,-16],[-17,-11],[5,-46],[14,-43],[-13,-32],[9,-19],[26,-1],[-4,-24],[-22,-11],[-23,-25],[-47,-6]],[[4373,10],[-156,0],[0,13],[-417,-13],[-172,0],[-348,2],[-287,-1]],[[3708,3360],[163,408],[29,80],[39,96],[114,222]],[[2993,11],[-267,1],[-142,-2]],[[2831,4929],[14,-39],[2,-26],[-44,-92],[-11,-55],[1,-32],[8,-43],[20,-12],[46,-9],[27,-15],[37,7],[41,-11],[70,-63],[40,-19],[51,-6],[17,-12],[62,-113],[16,-38],[29,-37],[-31,-10],[-83,-9],[-9,-10],[6,-39],[-38,-26],[-64,-55],[-35,-84],[-40,-86],[-26,-40],[-18,-47],[-13,-47],[-19,-38]],[[1233,1469],[-209,131],[-27,33],[-48,73],[-114,179],[-48,82],[49,99],[17,40],[154,306],[-244,103],[222,448],[-108,41],[-117,48],[-136,53],[-28,15],[-43,59],[-9,44],[-20,32],[77,137],[-17,78],[-15,86]],[[3528,8569],[54,-36],[3,-10],[53,-37],[34,-8],[39,-48],[38,-33],[44,-66],[13,-10],[54,-85],[85,-124],[38,-31],[32,-31],[64,-47],[64,-58],[55,-30],[62,-43],[5,-24],[42,-24],[89,-34],[28,-7],[20,-18],[50,8],[8,-96],[-6,-40]],[[37,4711],[-21,20],[-6,22],[11,31],[4,34],[-20,35],[-5,31],[3,142],[35,123],[-2,41],[11,30],[1,38],[23,61],[-5,36],[18,99],[15,13],[45,-5],[145,-33],[25,22],[4,40],[-3,42],[15,30],[18,5],[50,-19],[50,24],[-27,60],[-5,32],[17,24],[27,8],[39,21],[36,44],[8,44],[5,62],[31,15],[25,65],[6,61],[19,64],[-16,53],[2,13],[27,17],[10,20],[-6,45],[26,30],[10,32],[-16,27],[-68,4]],[[5478,12140],[54,-106],[28,-97],[19,-93],[17,-101],[23,-96],[15,-130],[-7,-111],[-28,-93],[-58,-97],[-65,-62],[-75,-46],[12,-55],[82,-43],[124,-54],[74,-28],[24,-38],[1,-18],[36,-59],[13,-31],[-16,-23],[22,-31],[5,-53],[-28,-86],[9,-53],[-25,-75],[-2,-36],[-11,-7],[-27,21],[-38,10],[-26,-20],[-26,-34],[-62,-28],[-18,-20],[-9,-35],[14,-13],[54,-12],[34,8],[33,-8],[13,-40],[-10,-12],[-35,-18],[23,-37],[-12,-21],[26,-33],[5,-58],[-16,-33],[-37,-40],[-29,22],[-30,5],[-59,-6],[-8,-18],[42,-23],[-6,-39],[20,-36],[23,-7],[48,-5],[22,3],[47,-11],[16,-10],[47,-1],[36,18],[17,-3],[-8,-65],[-10,-20],[-34,-42],[-18,-38],[-9,-6],[-42,15],[-53,2],[-37,-20],[-13,-21],[-5,-53],[-13,-72],[-22,-62],[-16,-23],[22,-37],[52,-43],[-33,-53],[-51,-96],[-25,-53]],[[4871,8186],[-39,21],[-7,22],[-26,0],[-15,16],[10,38],[16,5],[47,2],[5,15],[-30,39],[-20,43],[-32,28],[-38,17],[7,35],[-15,15],[-57,1],[-58,27],[-109,220],[-25,25],[-22,12],[-4,24],[-35,23],[-32,8],[-16,24],[-45,27],[-29,2],[-37,32],[-29,38],[-23,10],[-22,27],[-9,28],[2,53],[-50,49],[3,11],[-60,90],[-5,14],[12,28],[-1,35],[-25,35],[4,23],[-8,27],[-16,19],[-5,31],[-66,18],[-19,-36],[-60,-123],[-91,-179],[-35,-71]],[[2633,9967],[-82,94],[-28,43],[-16,48],[27,13],[9,16],[107,211],[51,97],[193,-75],[78,-23],[3,-44],[34,-41],[32,-54],[6,-41],[50,-20],[50,61],[168,169],[277,276],[292,287],[199,203],[160,160],[161,167],[46,40],[190,384],[94,188],[3,10],[50,88],[-221,78],[87,223],[81,-24],[129,-40],[117,-62],[104,-68],[109,-68],[48,-26],[91,-42],[146,-55]],[[5257,6],[-98,2],[-425,3],[-361,-1]],[[7027,5255],[501,-104],[65,-15],[67,-19]],[[7660,5117],[359,-108],[212,-63],[48,-11],[44,-4],[252,-3],[46,-5],[634,-107],[73,-14],[131,-36]],[[9459,4766],[-87,-167],[-137,-256],[-242,-460],[-282,-553],[240,-103],[17,-2],[61,-23],[60,-30],[-71,-134],[-107,-206],[-59,-95]],[[5548,8442],[32,-36],[43,-15],[21,8],[42,-4],[21,-10],[23,-26],[13,-27],[32,-24]],[[5775,8308],[-5,-16],[-24,-10],[-20,4],[-18,-39],[-46,-11],[-22,-25],[11,-34],[17,-27],[-6,-27],[-20,-6],[-48,1],[-17,-22],[5,-29],[-19,-54],[44,-13],[-8,-19],[-25,-9],[-2,-20],[-14,-33],[1,-41],[-24,-23],[-2,-16],[19,-15],[12,-26]],[[8804,9357],[16,-47],[31,-61],[35,-100],[45,-54],[94,-37],[94,-24],[59,-7],[65,9],[60,29],[75,41],[79,55],[70,29],[82,47],[78,38],[94,17],[81,-11],[43,-17],[22,-16],[153,-75],[56,-37],[38,-37],[12,-21],[72,-94],[9,-17],[-6,-41],[-9,-10],[-7,-37],[-37,-24],[-58,-13],[-57,9],[-55,24],[-199,0],[-30,-13],[-18,-34],[19,-54],[33,-51],[-3,-52],[41,-19],[59,2],[43,6],[31,-2],[38,-18],[26,-42],[2,-33],[-14,-49],[-36,-41],[-36,-22],[-50,-22],[-58,-11],[-100,-8],[-26,-8],[-30,-19],[-33,-61],[-5,-26],[2,-38],[14,-35],[32,-31],[41,-24],[69,-10],[54,7],[72,2],[93,-8],[120,-5],[94,-10],[-159,-316],[17,-111],[3,-97],[-36,-60],[53,-44],[42,-40],[15,-24],[11,-59],[-2,-83],[28,-111],[-41,-101],[-18,-173],[-110,-257],[40,-126],[10,-13],[15,-71],[32,-87],[13,-68],[3,-58],[-7,-44],[-125,-245]],[[10067,5958],[-29,7],[-164,15],[-35,8],[-64,24],[-51,35],[-88,43],[-22,15],[-99,87],[-96,59],[-16,16],[-10,30],[-20,19],[-27,10],[-36,-4],[-41,-18],[-32,-5],[-26,-30],[-19,-9],[-54,7],[-40,-4],[-83,12],[-61,-1],[-75,25],[-45,-3],[-65,-15],[-152,23],[-87,23],[-39,-1],[-43,5],[-68,33],[-65,13],[-26,-4],[-71,-43],[-42,-20],[-60,-18],[-32,-5],[-137,-9],[-38,-30],[-28,-43],[-32,-32],[-54,-13],[-52,11]],[[7743,6171],[-105,42],[-42,5]],[[7596,6218],[1,37],[-5,50],[-20,32],[0,84],[-5,36],[7,33],[36,29],[31,73],[55,78],[58,57],[26,73],[16,67],[1,21],[24,67],[31,67],[48,95],[17,53],[52,74],[16,45],[39,24],[74,94],[27,48],[18,24],[-26,6],[-57,22],[-128,72],[-15,-1],[-64,-24],[-28,-29],[-34,-3],[-17,16],[-21,-1],[-35,-29],[-43,-6],[-58,-2],[-79,-26],[-47,-2],[-31,14],[-30,30],[-27,19],[-24,8],[-69,-24],[-48,-29],[-32,-6],[-60,24]],[[5478,12140],[68,-24],[64,-35],[58,-25],[97,-54],[124,-80],[47,-52],[41,-56],[32,-54],[20,-57],[31,-55],[37,-43],[55,-44],[59,-41],[54,-49],[31,-34],[43,-23],[61,-16],[74,-3],[55,6],[90,33],[52,30],[72,47],[47,19],[37,-1],[59,-22],[55,-55],[12,-30],[2,-43],[-5,-43],[5,-69],[12,-52],[15,-36],[27,-23],[38,-21],[67,-24]],[[7641,9566],[1,18],[-18,20],[-8,26],[-40,3],[-27,14],[-35,1],[-27,-20],[-36,6],[-20,21],[-32,-24],[-10,-21],[-61,-20],[-31,7],[-26,-45],[-23,-4],[-38,26],[-62,17],[-71,13],[-60,22],[-23,39],[-24,0],[-46,-12],[-54,-22],[-45,-14],[-14,-13],[5,-21],[-117,-155],[-17,-28],[-17,-6],[-33,9],[-23,-12],[3,-26],[-6,-33],[8,-40],[-16,-31],[-36,-1],[-41,5],[10,-25],[4,-55],[-8,-14],[-44,-12],[-35,-34],[-21,-1],[-8,-13],[9,-18],[-8,-23],[-16,-1],[-38,25],[-19,-2],[-14,-17],[16,-10],[14,-29],[-6,-27],[-14,-15],[-26,11],[-9,-14],[-35,-7],[-4,-16],[14,-28],[0,-20],[-38,15],[-28,2],[-27,-24],[1,-35],[20,-58],[-42,-13],[-10,-40],[-30,-38],[-9,19],[-34,20],[-21,-5],[6,-51],[22,-40],[1,-22],[-39,-32],[-14,-23],[-21,5],[-57,-15],[-38,12],[5,-27],[31,-50],[-1,-18],[-34,-3],[-32,23],[-22,7],[-19,-29],[52,-57],[-5,-30],[-53,-10],[-36,-18],[-17,-25],[6,-12],[-25,-40]],[[5211,6597],[48,45]],[[5259,6642],[94,-39],[18,-27],[66,-30],[118,-46],[17,-36],[22,-23],[2,-23],[-34,-16],[6,-14],[42,-18],[4,-7],[-69,-126],[-18,-61],[148,-82],[38,-4],[10,-15]],[[10067,5958],[-357,-700],[-251,-492]],[[7660,5117],[12,19],[37,15],[37,28],[16,31],[0,21],[-38,61],[-30,35],[-7,21],[2,43],[-25,161],[-2,51],[4,58],[19,48],[9,35],[4,57],[30,105],[-19,50],[-9,51],[-17,35],[1,16],[26,53],[33,60]],[[5834,6593],[-16,14],[-48,17],[-55,62],[-32,74],[6,46],[-9,23],[-181,42],[-41,4]],[[5458,6875],[-47,52],[-16,38],[-1,41],[-24,36]],[[5458,6875],[-104,-138],[-14,-17],[-81,-78]],[[7596,6218],[-26,-3],[-177,-52],[-61,-34],[-54,-44],[-27,-17],[-58,-20],[-73,-11],[-52,-21],[-61,-39]],[[7007,5977],[-24,22],[-39,17],[-25,29],[-36,72],[-31,53],[-65,80],[-5,16],[26,40],[28,51],[2,13],[-10,35],[-20,33],[-32,33],[0,36],[-11,28],[-22,23],[-3,18],[-48,22],[-150,62]],[[6354,5837],[90,57],[36,2],[65,-31],[85,-16],[65,-23],[33,-5],[68,8],[44,17],[68,42],[22,17],[51,51],[26,21]]],"transform":{"scale":[0.00003206301662938758,0.000029565029940119952],"translate":[-85.026737,34.987569]},"objects":{"Geometry\\47-011":{"type":"GeometryCollection","geometries":[{"arcs":[[0,1,2,3]],"type":"Polygon","properties":{"GEOID":"470110107004"}},{"arcs":[[4,5,6,7,8]],"type":"Polygon","properties":{"GEOID":"470110114021"}},{"arcs":[[9,10,11,12,-7]],"type":"Polygon","properties":{"GEOID":"470110106001"}},{"arcs":[[13,14,15,16,17,18,19]],"type":"Polygon","properties":{"GEOID":"470110104002"}},{"arcs":[[20,-12,21,22,23]],"type":"Polygon","properties":{"GEOID":"470110105001"}},{"arcs":[[-19,24,25,26,27]],"type":"Polygon","properties":{"GEOID":"470110108001"}},{"arcs":[[28,-20,-28,29,30,31]],"type":"Polygon","properties":{"GEOID":"470110107002"}},{"arcs":[[32,33,34,35,36,37]],"type":"Polygon","properties":{"GEOID":"470110101002"}},{"arcs":[[-38,38,39,-10,-6,40]],"type":"Polygon","properties":{"GEOID":"470110101003"}},{"arcs":[[41,-25,-18]],"type":"Polygon","properties":{"GEOID":"470110103001"}},{"arcs":[[42,-15,43,-23]],"type":"Polygon","properties":{"GEOID":"470110104001"}},{"arcs":[[44,45,46]],"type":"Polygon","properties":{"GEOID":"470110116022"}},{"arcs":[[47,48,49,50]],"type":"Polygon","properties":{"GEOID":"470110110003"}},{"arcs":[[51,52,53,-48]],"type":"Polygon","properties":{"GEOID":"470110110001"}},{"arcs":[[54,55,56,57,-35]],"type":"Polygon","properties":{"GEOID":"470110101001"}},{"arcs":[[58,59,60,61]],"type":"Polygon","properties":{"GEOID":"470110116012"}},{"arcs":[[62,-31,63,64,-53,-3]],"type":"Polygon","properties":{"GEOID":"470110107003"}},{"arcs":[[65,66,67,68]],"type":"Polygon","properties":{"GEOID":"470110112011"}},{"arcs":[[-54,-65,69,70,-49]],"type":"Polygon","properties":{"GEOID":"470110110002"}},{"arcs":[[71,72,73,74,-26]],"type":"Polygon","properties":{"GEOID":"470110109001"}},{"arcs":[[75,-75,76,77,-70]],"type":"Polygon","properties":{"GEOID":"470110109002"}},{"arcs":[[78,-62,79,-46,80]],"type":"Polygon","properties":{"GEOID":"470110116021"}},{"arcs":[[-13,-21,81,82,-8]],"type":"Polygon","properties":{"GEOID":"470110106002"}},{"arcs":[[83,84,-32,-63,-2]],"type":"Polygon","properties":{"GEOID":"470110107001"}},{"arcs":[[-82,-24,-44,-14,-29,-85,85]],"type":"Polygon","properties":{"GEOID":"470110105002"}},{"arcs":[[86,87,-9,-83,-86,-84,-1,88,89]],"type":"Polygon","properties":{"GEOID":"470110114022"}},{"arcs":[[90,91,92,93,94,95,-72,-42,-17]],"type":"Polygon","properties":{"GEOID":"470110103002"}},{"arcs":[[96,97,98,-94,99,-57]],"type":"Polygon","properties":{"GEOID":"470110112013"}},{"arcs":[[100,-68,101,102,-98,103]],"type":"Polygon","properties":{"GEOID":"470110112012"}},{"arcs":[[104,105,-59,-79,106,-73]],"type":"Polygon","properties":{"GEOID":"470110116011"}},{"arcs":[[107,108,-5,109]],"type":"Polygon","properties":{"GEOID":"470110114041"}},{"arcs":[[110,-90,111,112,113]],"type":"Polygon","properties":{"GEOID":"470110113022"}},{"arcs":[[114,115,116,117,-33,-41,-109,118]],"type":"Polygon","properties":{"GEOID":"470110112042"}},{"arcs":[[119,120,121,122,123,124]],"type":"Polygon","properties":{"GEOID":"470110113012"}},{"arcs":[[125,-110,-88,126,-123]],"type":"Polygon","properties":{"GEOID":"470110114042"}},{"arcs":[[127,128,129,130]],"type":"Polygon","properties":{"GEOID":"470110115013"}},{"arcs":[[131,-78,132,133]],"type":"Polygon","properties":{"GEOID":"470110115022"}},{"arcs":[[-129,134,-50,-71,-132,135]],"type":"Polygon","properties":{"GEOID":"470110115021"}},{"arcs":[[-113,136,-131,137]],"type":"Polygon","properties":{"GEOID":"470110115012"}},{"arcs":[[-112,-89,-4,-52,-51,-135,-128,-137]],"type":"Polygon","properties":{"GEOID":"470110115011"}},{"arcs":[[138,-119,-108,-126,-122]],"type":"Polygon","properties":{"GEOID":"470110114032"}},{"arcs":[[-124,-127,-87,-111,139]],"type":"Polygon","properties":{"GEOID":"470110113021"}},{"arcs":[[140,-116,141,-120,142]],"type":"Polygon","properties":{"GEOID":"470110113011"}},{"arcs":[[-77,-74,-107,-81,-45,143,-133]],"type":"Polygon","properties":{"GEOID":"470110116023"}},{"arcs":[[144,145,146,-60,-106]],"type":"Polygon","properties":{"GEOID":"470110116013"}},{"arcs":[[147,148,-55,-34,-118]],"type":"Polygon","properties":{"GEOID":"470110112041"}},{"arcs":[[-67,149,150,151,152,-102]],"type":"Polygon","properties":{"GEOID":"470110111021"}},{"arcs":[[-142,-115,-139,-121]],"type":"Polygon","properties":{"GEOID":"470110114031"}},{"arcs":[[153,-69,-101,154,-148,-117,-141]],"type":"Polygon","properties":{"GEOID":"470110112031"}},{"arcs":[[-11,-40,155,156,-91,-16,-43,-22]],"type":"Polygon","properties":{"GEOID":"470110102022"}},{"arcs":[[-151,157,-146,158]],"type":"Polygon","properties":{"GEOID":"470110111013"}},{"arcs":[[-36,-58,-100,-93,159,160]],"type":"Polygon","properties":{"GEOID":"470110102011"}},{"arcs":[[-37,-161,161,-156,-39]],"type":"Polygon","properties":{"GEOID":"470110102012"}},{"arcs":[[-103,-153,162,163,-99]],"type":"Polygon","properties":{"GEOID":"470110111022"}},{"arcs":[[-160,-92,-157,-162]],"type":"Polygon","properties":{"GEOID":"470110102021"}},{"arcs":[[-155,-104,-97,-56,-149]],"type":"Polygon","properties":{"GEOID":"470110112032"}},{"arcs":[[164,-163,-152,-159,-145,-105,-96]],"type":"Polygon","properties":{"GEOID":"470110111011"}},{"arcs":[[-164,-165,-95]],"type":"Polygon","properties":{"GEOID":"470110111012"}},{"arcs":[[-30,-27,-76,-64]],"type":"Polygon","properties":{"GEOID":"470110108002"}}]}}}