{"type":"Topology","arcs":[[[8053,6546],[18,4],[74,-7],[66,1],[68,13],[37,64],[17,44],[-25,43],[-17,53],[3,53],[-9,51],[4,26],[38,63]],[[8327,6954],[56,6],[39,-12],[48,-26],[51,-12],[67,-22],[30,-4],[48,-19],[57,23],[111,15],[67,19],[48,30],[39,45],[12,31],[15,68],[24,49],[54,83],[21,64],[12,72],[12,34],[27,49],[24,64],[70,110],[105,94],[39,19],[27,-4],[39,-26],[82,-110],[51,-64],[96,-61],[54,-22],[130,-42],[96,-83],[30,-41],[42,-34],[15,-31],[75,-83],[22,-37],[51,-53],[90,-114],[-69,-200],[-39,30],[-42,-15],[-31,-26],[112,-34],[-36,-91],[-45,4],[-55,76],[-18,-4],[-45,-42],[-72,-75],[-78,-53],[-30,-53],[6,-26],[39,-31],[48,-45],[24,-15],[45,-64],[39,-19],[-75,-214],[-331,-931],[184,50],[34,-116],[-9,-82],[-21,-18],[-50,-19],[-60,-46],[-3,-18],[30,-60],[-78,-46],[33,-98],[-27,-124],[-18,-4],[-9,-38],[-18,-19],[-30,0],[-18,-34],[-51,-22],[-21,-19],[-25,-4],[-36,-42],[-51,4],[-57,-23],[-54,-37],[-30,-46],[-24,0],[-37,-484]],[[9204,3756],[-46,-31],[-107,-41],[-19,-1],[-27,27],[-12,23],[-30,34],[-64,11],[-40,31],[-15,30],[-28,5],[-52,-24],[-83,-57],[-27,-6]],[[8654,3757],[-50,29],[9,51],[-13,53],[-24,41],[-71,19],[-67,33],[-35,8],[-24,-6],[-46,6],[-19,72],[-17,33],[-23,18],[174,151],[23,24],[18,39],[1,27],[-15,60],[-3,44],[-73,-10],[-81,-6],[-30,9],[-129,16],[-36,-21],[-25,-38],[-44,-20],[-19,17],[-89,15],[-23,9],[-18,43],[-11,57],[19,53],[58,59],[-41,-3],[-52,14],[-34,-7],[-21,7],[-43,65],[-10,25],[-5,51],[6,76],[-44,-32],[-49,-8],[-14,-19],[-88,-44],[-4,20],[10,45],[-10,34],[-33,78],[-19,84],[-27,42],[-4,23],[12,54],[-2,24],[-23,78],[-2,45],[34,81],[15,81],[26,46],[22,21],[94,66],[34,33],[36,54],[19,76],[1,43],[-7,56],[6,41],[13,20],[55,45],[10,27],[9,79],[0,73],[16,27],[43,45],[29,43],[9,27],[1,78],[12,35],[16,16],[50,26],[28,35],[8,78]],[[6118,5607],[68,79],[47,144],[11,20],[156,-28],[36,14],[68,79],[24,37],[92,64],[44,86],[28,30],[52,28],[41,28],[61,14],[46,17],[65,7],[53,-1],[83,-21],[47,11]],[[7140,6215],[70,-7],[79,6],[43,10],[62,5],[38,17],[71,42],[35,38],[29,40],[2,34],[21,47],[10,42],[35,59],[57,47],[106,58],[25,5],[23,-19],[78,-36],[76,-32],[23,-23],[30,-2]],[[8654,3757],[-22,-5],[-107,-108],[-95,-64],[-15,-30],[-74,-45],[-42,-21],[-55,-48],[-53,-14],[-69,-42],[-105,-74],[-35,-21],[-19,-23],[-29,-54],[-16,-11]],[[7918,3197],[-15,7]],[[7903,3204],[-15,21],[-12,39],[-46,26],[-39,45],[-76,57],[-36,18],[-50,45],[-88,7],[-45,-13],[-4,29],[-44,38],[-51,14],[-22,21],[-65,32],[-16,18],[-20,75],[-17,27],[-11,59],[8,86],[-67,-29],[-29,-6],[-170,1],[-65,25]],[[6923,3839],[41,64],[38,38],[28,20],[-39,24],[-76,26],[-48,52],[-29,63],[-30,16],[-59,7],[-62,23],[-6,19],[-36,-10],[-27,7],[-61,-13],[-13,38],[-38,7],[-57,35],[-56,84],[-25,93],[-16,87],[7,116],[-43,96],[-8,32],[-20,35],[-34,28],[-21,50],[35,27],[12,38],[-25,55],[-42,53],[-19,72],[2,55],[-9,77],[6,23],[-10,58],[12,31],[-3,47],[19,53],[-45,76],[-48,66]],[[9204,3756],[-1,-67],[-17,-317],[31,30],[54,26],[39,34],[78,42],[69,26],[17,-162],[41,-475],[3,-1],[-202,-1129],[-15,-49],[-69,-49],[-73,-27],[-54,-15],[-45,-41],[-42,-16],[-99,-49],[-27,-26],[-79,-23],[-21,-30],[-42,-30],[-18,-91],[6,-11],[127,-61],[-3,-49],[-16,-22],[-135,-106],[-24,-26],[-75,-27],[-66,-11],[-76,-4],[-39,-19],[-6,-34],[30,-15],[27,-34],[0,-42],[-15,-56],[36,-30],[52,-16],[12,-15],[39,-22],[33,-42],[9,-45],[15,-34],[21,-4],[87,-57],[42,-11],[37,0],[21,-11],[3,-38],[-73,-60],[-21,-12],[-42,-7],[-54,-34],[-39,-42],[-33,-15],[-27,4],[-27,-12],[-27,-26],[-49,-19],[-48,-26],[-87,-87],[-132,3]],[[8215,142],[-104,291],[-13,56],[-5,68],[1,206],[-7,219],[-17,37],[-31,102],[-31,50],[-55,131],[-17,53],[7,16],[49,27],[24,25],[21,53],[-52,91],[0,52],[-21,58],[-6,52],[17,31],[-1,18]],[[7974,1778],[-22,89],[-14,92],[26,39],[33,20],[4,23],[36,28],[6,27],[48,7],[29,-9],[38,28],[-5,42],[-31,60],[-19,65],[-65,89],[-14,28],[-34,27],[-32,4],[35,46],[39,80],[3,49],[11,35],[19,22],[-27,13],[-29,35],[-5,104],[-16,33],[-28,24],[-18,76],[-22,41],[9,30],[24,39],[10,61],[-45,72]],[[5409,1504],[18,-5],[42,-34],[50,3],[56,13],[51,2],[37,9],[97,48],[38,31],[42,20],[96,20],[5,41],[37,48],[21,4],[36,-29],[43,-16],[24,13],[12,24],[60,61],[76,-17],[86,54],[38,8],[27,-11],[31,9],[41,25],[89,62],[34,15],[2,17],[26,41],[56,60],[28,41]],[[6708,2061],[34,80],[42,42],[85,74],[58,44],[81,33],[117,67],[113,36],[65,28],[51,52],[96,69],[49,67],[48,41],[116,111],[15,20],[38,86],[54,93],[24,80],[16,34],[93,86]],[[7974,1778],[-45,-19],[-77,-11],[-19,-11],[-200,-154],[-82,-75],[-96,-56],[-90,-87],[-31,-19],[-87,-36],[-111,-90],[-85,-40],[-246,-150],[-86,-71],[-90,-67],[-118,-122],[-63,-55],[-100,-72],[-81,-90],[-49,-49],[-101,-76]],[[6117,428],[-69,83],[-13,72],[-55,76],[-40,81],[-23,34],[-12,37],[8,47],[36,65],[7,44],[-15,14],[-52,27],[-27,31],[-24,8],[-31,26],[-19,34],[-35,16],[-105,23],[-65,-16],[-38,13],[-74,106],[-50,16],[-10,27],[6,26],[-1,60],[-9,60],[2,66]],[[8215,142],[-455,14],[-1333,43],[-99,4]],[[6328,203],[-43,54],[-79,63],[-27,38],[-25,14],[-37,56]],[[6275,9717],[-38,-111],[-51,-32],[-62,-3],[-80,33],[-29,30],[-18,41],[-77,36],[-34,5],[-31,-8],[-19,-27],[-7,-38],[-1,-102],[-19,-55],[-38,-45],[-95,-77],[-27,-13],[-67,-19],[-49,2],[-34,16],[-36,44],[-28,48],[-9,55],[7,140],[-14,52],[-42,27],[-34,11],[-27,-1],[-32,-28],[-17,-51],[-7,-42],[8,-126],[-24,-37],[-99,-110],[-75,-94],[-37,-60],[5,-7],[-4,-78],[-12,-35],[-40,-10],[-48,-28],[8,-54],[11,-28],[39,-48],[24,-11],[67,-71],[23,-12],[35,-41],[102,-85],[37,-42],[39,-32],[-1,-30],[23,-108],[27,-45],[10,-29],[-30,-81],[14,-29],[33,-100],[8,-74],[42,-70],[25,-13],[35,6],[-13,-29],[10,-36],[-14,-23],[28,-15],[39,22],[37,28],[41,-4],[46,-37],[32,-39],[7,-45],[60,-63],[18,-32],[64,-78],[5,-40],[25,-58],[23,-37],[3,-36],[-35,-65],[-11,-63],[7,-21],[47,-57],[37,-29],[70,-78],[17,-36],[53,-37],[23,-47],[4,-47],[22,-60],[45,-63],[24,18],[25,-77],[32,-15],[27,1],[33,-18],[44,11],[68,35],[92,-25],[14,-15],[7,-54],[-4,-36],[46,-50],[21,-10],[10,-42],[27,-43],[38,-14],[79,12],[57,-30],[90,-18],[126,-2],[37,13],[28,-56],[37,-34],[8,-68],[12,-44],[-33,-122]],[[6118,5607],[-37,-17],[-79,-79],[-72,-45],[-51,-13],[-94,-2],[-13,-47],[-23,-28],[-65,-49],[-38,-23],[-51,-19],[-17,-33],[-38,-40],[-30,5],[-21,-13],[-7,-21],[-34,-37],[-50,-16],[-38,-4],[-40,-41],[-56,-10],[-26,-21],[-41,-20],[-11,-23],[-46,-30],[-36,-9],[-37,-48],[-48,-44],[-91,4],[-47,-59],[-46,-38],[-50,-27],[-32,-6],[-105,-36],[-23,-46],[-48,-42],[-12,-2],[-81,-62],[-32,-16]],[[4452,4550],[-70,-11],[-39,0],[-38,-38],[-22,-36],[-54,-44],[-83,-29],[-96,7]],[[4050,4399],[-52,32],[-60,55],[-76,22],[-81,-26],[-45,-42],[-27,-46],[-29,-32],[-30,-21],[-54,14],[-24,14],[-51,54],[-25,41],[-1,16],[-52,123],[-26,86],[-78,91],[-78,55],[-105,78],[-94,113],[-129,-54],[-28,-2],[-75,-35],[-42,-26],[-72,-129],[-87,-113],[-54,-19],[-94,-65],[-65,-26],[-71,-12],[-17,-33],[-144,-170],[-318,-240],[-375,-240],[-196,-146],[-306,-293],[-182,-203],[-84,-89],[-61,-78],[-75,-83]],[[587,2970],[-119,198],[36,34],[-145,158],[-28,94],[38,-20],[34,54],[-20,23],[-27,58],[-20,86],[-15,34],[-52,22],[-6,16],[-84,135],[-30,38],[-34,31],[-30,37],[12,23],[-97,141],[30,5],[44,-5],[64,-37],[26,39],[66,10],[42,38],[15,70],[-1,128],[10,32],[8,100],[10,38],[51,49],[78,30],[70,8],[30,-4],[87,-23],[39,-19],[54,-37],[58,151],[84,-19],[-27,41],[-36,117],[69,50],[51,60],[-18,23],[39,34],[-27,41],[159,136],[-66,98],[-51,182],[48,3],[6,16],[63,7],[-9,83],[37,4],[-43,94],[52,46],[36,615],[51,177],[-45,348],[48,148],[54,-19],[60,-15],[57,-34],[31,-8],[33,34],[9,53],[-18,45],[-40,34],[-144,215],[3,8],[78,15],[57,19],[115,26],[72,27],[33,26],[-6,27],[-30,26],[-57,-7],[-87,-34],[-31,7],[-36,34],[9,57],[-21,34],[3,26],[45,19],[40,-53],[45,-11],[45,8],[48,15],[63,30],[63,45],[40,45],[21,38],[45,117],[0,38],[-9,30],[-33,68],[-24,61],[-25,30],[-12,30],[-51,38],[-42,15],[-30,19],[-24,34],[-3,53],[60,49],[81,109],[0,31],[-69,181],[-6,68],[15,64],[33,83],[42,91],[21,79],[46,49],[27,-7],[45,-61],[24,-19],[84,-22],[48,-38],[67,-83],[63,-34],[60,-4],[51,8],[39,-8],[48,-19],[28,-19],[171,-200],[48,-22],[66,11],[25,11],[60,76],[57,64],[39,57],[30,34],[81,60],[76,68],[78,64],[30,38],[27,53],[21,94],[15,34],[42,19],[-111,188],[-133,114],[151,-4],[75,189],[-151,56],[81,8],[112,-3],[73,-23],[33,-4],[126,27],[15,-8],[42,72],[85,91],[12,26],[-6,45],[-46,80],[-18,19],[-36,18],[63,87],[31,-98],[42,4],[52,-165],[49,-117],[263,218],[-6,19],[6,41],[-15,68],[24,-4],[54,19],[93,8],[289,136],[27,-27],[67,-34],[21,-38],[66,-18],[51,11],[48,-147],[379,49],[-31,-70],[4,-10],[69,-59],[25,-43],[26,-6],[23,-21],[26,-40],[18,-76],[22,-39],[22,15],[302,261],[27,30],[36,24],[9,19],[220,98],[220,166],[18,-64],[15,-15],[9,-34],[24,-31],[30,27],[54,0],[15,-23],[0,-49],[30,-26],[12,-23],[-3,-41],[-9,-19],[-45,-15],[-21,-23],[-66,-38],[-6,-15],[-33,-26],[-54,-76],[-43,-19],[58,-177],[18,-42],[30,-7],[45,41],[18,30],[32,-3]],[[4452,4550],[14,-54],[-20,-31],[41,-79],[37,-80],[16,-65],[28,-32],[32,-52],[38,-20],[62,-57],[32,-6],[37,34],[15,2],[85,48],[128,58],[28,9],[22,-37],[26,-12],[79,-2],[58,-12],[15,-45],[25,-13],[34,-4],[-72,-53],[-82,-75],[29,-52],[31,-91],[6,-58],[28,-70],[-27,-67],[-25,-28],[-80,-63],[-36,-54],[-29,-23],[-21,-28],[-55,-40],[31,-33],[1,-30],[-71,-53],[-54,-33],[-68,-29],[-85,-67],[-72,-45],[-79,-40],[-73,-49],[-103,-104],[23,-21],[20,-31],[36,-36],[40,-23],[59,-5],[24,-20],[34,-44],[95,-70],[75,-36],[25,-52],[46,-34],[35,-1],[29,-18],[49,-60]],[[4968,2464],[-792,-631],[-28,-23],[-47,-53],[-134,-190],[-262,-353],[-28,-31],[-57,-39]],[[3620,1144],[-11,16],[-43,13],[-19,21],[-57,11],[-40,37],[-22,46],[-18,62],[-4,30],[-64,50],[-33,19],[-54,44],[-69,25],[-60,-30],[-74,-77],[-55,-28],[-57,4],[-27,14],[-24,34],[1,41],[-37,-20],[-72,18],[1,17],[-31,62],[17,46],[7,72],[-2,34],[-30,16],[23,26],[50,87],[14,38],[-5,15],[-31,5],[-12,25]],[[2782,1917],[-23,44],[-39,51],[-15,69],[-18,54],[-37,79],[-7,36],[3,73],[-39,76],[0,50],[13,28],[48,74],[46,14],[58,33],[95,28],[44,-2],[32,7],[53,46],[65,37],[44,66],[32,24],[72,28],[73,53],[63,76],[79,88],[55,31],[152,77],[230,148],[75,55],[44,28],[-21,28],[5,18],[37,40],[-22,17],[-54,-3],[-34,16],[-14,28],[13,40],[-18,17],[-33,12],[-21,35],[-70,-6],[-12,50],[26,109],[0,38],[21,49],[2,28],[-5,88],[3,43],[31,44],[48,37],[44,41],[54,38],[35,18],[16,26],[39,160]],[[6275,9717],[0,26],[12,53],[0,42],[12,34],[30,38],[43,30],[90,0],[45,-15],[24,-23],[12,-26],[12,-57],[-12,-38],[-36,-45],[-75,-72],[-21,-53],[3,-23],[30,-45],[15,-11],[100,-38],[45,-27],[48,-68],[42,-41],[39,-12],[67,4],[42,12],[11,-14],[29,-73],[19,-34],[164,-27],[-64,-41],[-27,-27],[48,-45],[64,26],[57,8],[186,-136],[52,-15],[-40,-102],[16,-4],[141,-147],[39,-76],[-21,-4],[39,-94],[12,-87],[12,-45],[106,-4],[24,-106],[29,0],[47,-23],[12,-13],[6,-44],[34,-81],[6,-144],[-5,-21],[31,-44],[65,-20],[81,-43],[26,-56],[-64,-92],[18,-129],[14,-37],[-90,-76],[73,-174],[-42,-25],[39,-26],[36,-12],[74,-7],[51,-12],[32,-19],[48,-53],[-4,-31],[101,-179]],[[6923,3839],[-33,-63],[-47,-59],[-46,-36],[-342,-197],[-78,-51]],[[6377,3433],[-89,-62],[-41,-23],[-136,-67],[-44,-29],[-68,-75],[-57,-48],[-70,-50],[-137,-84],[-282,-169],[-131,-85],[-84,-63],[-148,-117]],[[5090,2561],[-122,-97]],[[6708,2061],[-17,20],[-40,18],[-34,57],[-5,21],[-37,58],[-9,34],[18,43],[-3,25],[-38,50],[-49,35],[-8,40],[-27,42],[-52,58],[0,28],[-22,18],[-48,65],[-8,52],[-20,20],[-95,64],[-43,42],[-31,139],[-24,59],[34,8],[29,72],[54,28],[-5,22],[31,70],[41,32],[14,-10],[36,13],[30,41],[17,-4],[17,25],[-20,31],[13,9],[-30,47]],[[1904,1149],[52,8],[-48,28],[27,28],[20,38],[87,79],[-6,39],[7,12],[82,68],[59,67],[71,72],[49,31],[143,102],[21,34],[32,24],[92,7],[42,14],[32,21],[116,96]],[[3620,1144],[49,-52],[45,-81],[16,-50],[58,-45],[89,-57],[45,-43],[38,-60],[-31,-61],[36,-41],[21,-8],[30,-43],[12,-33],[32,-41],[22,-7],[44,11],[39,36],[50,18],[18,20],[47,12],[4,-58],[45,-67],[10,-27],[-18,-60],[-30,-54],[-20,-49],[2,-32]],[[4273,272],[-485,15],[-176,8],[-428,10],[44,-48],[-22,-36],[41,-16],[41,-68],[-61,-77],[-80,-60],[-52,49],[-85,18],[22,59],[40,-15],[53,57],[-41,72],[35,66],[-323,9],[-20,3],[-156,2],[-142,144],[-214,219],[-216,279],[-144,187]],[[1904,1149],[-256,236],[-166,155],[-260,318],[-97,253],[-153,393],[-305,334],[-80,132]],[[5090,2561],[48,-56],[40,-94],[27,-117],[36,-78],[33,-37],[32,-65],[13,-40],[51,-72],[67,-82],[48,-84],[-19,-28],[-41,-42],[-13,-56],[28,-81],[-6,-28],[-27,-32],[-6,-21],[8,-44]],[[6328,203],[-383,13],[-61,5],[-77,0],[-798,27],[-736,24]]],"transform":{"scale":[0.0000332277006697087,0.000026477900818488475],"translate":[-84.009753,36.160906]},"objects":{"Geometry\\47-173":{"type":"GeometryCollection","geometries":[{"arcs":[[0,1,2,3]],"type":"Polygon","properties":{"GEOID":"471730401021"}},{"arcs":[[4,5,-4,6,7,8,9]],"type":"Polygon","properties":{"GEOID":"471730401022"}},{"arcs":[[-7,-3,10,11,12]],"type":"Polygon","properties":{"GEOID":"471730401011"}},{"arcs":[[13,14,-8,-13,15,16]],"type":"Polygon","properties":{"GEOID":"471730401013"}},{"arcs":[[-16,-12,17,18]],"type":"Polygon","properties":{"GEOID":"471730401012"}},{"arcs":[[19,-5,20,21,22,23]],"type":"Polygon","properties":{"GEOID":"471730403002"}},{"arcs":[[-22,24,25,26,27]],"type":"Polygon","properties":{"GEOID":"471730402022"}},{"arcs":[[28,-1,-6,-20]],"type":"Polygon","properties":{"GEOID":"471730403001"}},{"arcs":[[-21,-10,29,30,31,-25]],"type":"Polygon","properties":{"GEOID":"471730402011"}},{"arcs":[[-30,-9,-15,32]],"type":"Polygon","properties":{"GEOID":"471730402012"}},{"arcs":[[33,-27,34,35]],"type":"Polygon","properties":{"GEOID":"471730402023"}},{"arcs":[[-23,-28,-34,36]],"type":"Polygon","properties":{"GEOID":"471730402021"}},{"arcs":[[-26,-32,37,-17,-19,38,-35]],"type":"Polygon","properties":{"GEOID":"471730402024"}},{"arcs":[[-31,-33,-14,-38]],"type":"Polygon","properties":{"GEOID":"471730402013"}}]}}}