{"type":"Topology","arcs":[[[9016,2957],[99,-47],[73,-10],[39,-11],[100,-72],[112,-28],[102,2],[38,-9],[73,-45],[23,-29],[11,-24],[22,-23],[55,-33],[57,-14],[22,1],[48,23],[41,6],[35,-10],[98,-47],[52,-11],[64,-3],[41,-15],[72,-52],[192,19],[21,5],[164,61],[29,21],[27,37],[20,73],[36,55],[42,128],[8,49],[-20,117],[1,19],[15,104],[7,23],[34,20],[37,2],[127,-17],[95,5],[39,-1]],[[11167,3226],[110,-4],[44,8],[132,42],[50,4],[245,-18],[-31,-101],[-17,-100],[-10,-21],[-61,-93],[-7,-22],[-59,-246],[-40,-193],[4,-55],[-2,-32],[-32,-171],[-10,-32],[-23,-38],[-12,-42],[0,-25],[12,-77],[1,-36]],[[11461,1974],[-8,-61],[-22,-36],[-35,-72],[-29,-42],[-65,-35],[4,-18],[-23,-16],[16,-32],[-9,-28]],[[11290,1634],[-92,2],[-50,4],[-16,10],[-14,42],[-25,114],[-20,50],[-18,14],[-50,1],[-34,22],[-5,22],[10,52],[-5,19],[-50,62],[-31,9],[-203,5],[-216,7],[-81,5],[-120,4],[-235,17],[-25,-6],[-80,-41],[13,-70],[-15,-122],[10,-83],[-5,-80],[14,-106],[-17,-141],[2,-33],[47,-189],[28,-52],[53,-80],[11,-25],[27,-77],[-138,-15],[-31,-6],[-124,-51],[-44,-15],[-91,-14],[-188,-25],[-50,-3],[-272,-5],[-60,5],[-54,14],[-90,35],[49,76],[67,266],[60,247],[3,23],[10,184],[1,60],[-8,19],[-79,118],[-58,75]],[[9001,1978],[-113,132],[-33,50],[-18,79],[13,45],[72,184],[51,179],[5,74],[32,211],[6,25]],[[9487,10872],[-2,35],[11,35],[107,145],[45,34],[156,79],[33,13],[49,5]],[[9886,11218],[0,-14],[121,-216],[12,-3],[376,-30],[499,-174],[581,-206],[215,-75],[455,-155],[12,-36],[41,4],[6,-6],[-3,-102],[-6,-12],[-46,-57],[-4,-35],[5,-35],[279,-8],[255,-157],[-9,-14],[35,-38],[-103,-82],[45,-24],[275,0],[-4,-94],[47,0],[14,-12],[-6,-47],[-39,-60],[-41,-57],[117,-106],[55,7],[216,41],[-3,-209],[179,7],[3,-75],[107,6],[3,14],[-42,41],[-13,34],[103,14],[91,-34],[58,-7],[-35,-178],[13,-86],[-94,-27],[-28,43],[-8,32],[-87,4],[0,24],[-68,-4],[-7,-130],[-3,-34],[42,0],[16,-31],[153,7],[48,-42],[-12,-10],[15,-52],[-107,0],[-10,-52],[-16,1]],[[13584,8671],[-7,41],[-18,19],[-11,68],[-22,1],[-38,40],[-36,9],[-6,4],[-15,70],[-15,23],[-84,8],[-15,-5],[-95,0],[-126,-15],[-37,-28],[-17,-47],[-22,-41],[-56,-74],[-8,-39],[7,-43],[-6,-62],[-34,-89],[-17,-30],[-16,-81],[-31,-3],[-27,-37],[2,-68],[10,-21],[25,-19],[-14,-32],[-7,-50],[-19,-50],[-4,-25],[-17,-35],[-24,-25],[-24,-51],[-36,-17],[-36,-10],[-25,-17],[-36,-50],[20,-23],[-44,-24],[-67,-44],[-36,-29],[-79,-69],[-64,-39],[-49,-20],[-73,-20],[-37,-13],[-203,-66],[-29,-8],[-198,-45],[-541,-151],[-71,-30],[-271,-135],[-91,-59],[-152,-118],[-57,-49],[-90,-85],[-8,2],[-46,-45],[-38,-15],[-21,-34],[-9,-48],[-53,-61],[-146,-174],[-105,-82],[-19,-25],[-31,-86],[-70,-124],[-51,-60]],[[9898,6111],[-25,-28],[-26,-14],[-103,-32],[-147,-49],[-46,13],[-39,-3],[-63,-42],[-51,17],[-71,0]],[[9327,5973],[60,116],[8,22],[24,137],[16,33],[38,46],[36,70],[3,21],[-10,45],[-29,78],[2,26],[-49,27],[-124,2],[-75,3],[-48,13],[-12,38],[-36,22],[-88,71],[-36,11],[-37,19],[-38,47],[19,21],[-23,43],[-54,20],[-15,27],[-33,17],[-35,-1],[-54,-15],[-32,-1]],[[8705,6931],[13,98],[41,158],[4,25],[12,242],[-5,28],[-27,73],[-4,29],[4,129],[10,293],[8,29],[56,150],[5,47],[5,264],[-12,42],[-77,115],[-9,34],[13,147],[-10,93],[35,110],[0,28],[-18,37],[-3,30],[38,91],[16,30],[204,246],[22,22],[62,43],[13,17],[32,81],[14,22],[102,115],[94,60],[24,26],[24,52],[12,53],[-3,30],[-64,125],[-13,49],[1,77],[18,76],[28,65],[5,70],[14,22],[22,16],[46,21],[2,18],[-15,29],[2,25],[25,84],[-3,64],[22,56],[-3,55]],[[85,3143],[189,-2],[22,4],[43,28],[46,40],[48,49],[108,124],[38,49],[35,37],[33,26],[79,76],[46,24],[69,28],[56,6],[37,-3],[47,-13],[96,-32],[48,-13],[60,-10],[96,-29],[34,0],[83,21],[61,27],[56,20],[61,25],[66,37],[31,13],[89,19],[83,7],[50,-8],[40,-31],[38,-56],[19,-104],[33,-41],[19,-7],[42,2],[55,23],[24,21],[22,59],[18,71],[-4,32],[-17,32],[-15,13],[-95,44],[-66,48],[-42,37],[-55,38],[-30,39],[-5,44],[7,53],[31,46]],[[1914,4056],[19,7],[138,123],[29,11],[29,-7],[27,-19],[35,-38],[41,-53],[29,-49],[16,-39],[33,-91],[10,-44],[11,-71],[10,-35],[26,-32],[37,-25],[62,-30],[68,-46],[76,-36],[71,-24],[162,-41],[27,1],[37,18],[50,48],[31,43],[23,38],[5,20],[38,78],[53,85],[31,40],[76,78],[73,84],[50,35],[33,31],[29,36],[18,30],[10,49],[-4,54],[-15,51],[-5,58],[1,37],[16,80],[0,58],[6,48],[20,80],[3,45],[-11,75],[4,57],[15,56],[16,19],[62,34],[89,20],[71,19],[33,15],[42,31],[24,31],[37,77],[34,12],[24,-4],[64,-34],[34,-37],[17,-39],[-8,-43],[1,-32],[-44,-91],[-60,-90],[-13,-9],[-30,-93],[-6,-36],[4,-117],[6,-28]],[[3854,4535],[-66,-16],[-62,-22],[-49,-31],[-26,-30],[-15,-29],[-42,-101],[-18,-32],[-133,-203],[-40,-58],[-201,-246],[-24,-37],[-14,-38],[-5,-30],[0,-52],[17,-42],[75,-96],[23,-36],[31,-142],[22,-65],[69,-112],[147,-235],[24,-40],[10,-37],[10,-103],[-6,-39],[-15,-31],[-124,-190],[-42,-67],[-16,-42],[-8,-41],[-38,-258],[-1,-25],[17,-49],[72,-133],[7,-21],[34,-132],[17,-28],[31,-36],[16,-36],[16,-69],[66,-90],[41,-66],[48,-60],[40,-30],[87,-45],[23,-21],[12,-35],[-6,-25],[-23,-68],[-7,-29],[-24,-195],[-22,-192],[-72,-600]],[[3710,49],[-233,1],[-187,6],[-89,-1],[-63,-4],[-280,1],[-25,2],[-268,0],[-728,-3],[-79,-1],[-760,-2],[-215,0],[-783,0],[3,81],[2,221],[10,208],[7,219],[-1,9],[21,703],[33,1235],[10,419]],[[8744,4021],[24,11],[35,32],[18,24],[6,25],[33,39],[1,21],[25,27],[31,6],[-4,20],[-17,27],[21,42],[2,16],[28,46],[48,42],[-28,23],[-43,69],[-43,150],[-5,28],[9,75],[24,68],[-1,17],[-29,54],[27,5],[27,36],[20,-6],[34,-25],[54,-15],[54,20],[-12,124],[-37,30],[-46,97],[-12,16],[-34,22],[-21,22],[-25,41],[-17,61],[7,66],[59,37],[113,94],[28,27],[30,56],[132,-16],[90,5],[69,-7],[137,-18],[14,-10],[26,-50],[11,-29],[25,-17],[33,-2],[45,10],[44,-4],[34,10],[31,-7],[56,18],[30,-44],[76,-7],[26,6],[59,7],[61,31],[24,20],[16,4],[97,-13],[206,-19],[35,7],[19,18],[17,65],[31,29],[13,20],[15,100],[20,38]],[[10620,5736],[185,-89],[56,-28],[87,-49],[131,-86],[51,-30],[61,-42],[53,-45],[183,-178],[29,-27],[28,34],[85,93],[29,50],[48,141],[17,29],[3,24],[-17,41],[-58,56],[-33,37],[-45,29],[-36,16],[-93,95],[6,32],[22,17],[79,26],[79,34],[24,3],[48,-4],[74,-16],[28,-33],[53,-39],[17,-19],[19,-36],[5,-36],[33,-33],[41,-28],[21,-24],[36,-26],[19,-21],[4,-18],[-50,-156],[-28,-30],[-79,-41],[-20,-23],[-50,-39],[-79,-45],[-3,-31],[8,-61],[12,-55],[14,-42],[20,-42],[20,-27],[23,-4],[23,10],[99,53],[89,34],[54,1],[49,13],[70,33],[69,18],[20,-3],[61,7],[106,-3],[77,6],[53,-1],[33,-18],[2,-21],[-10,-28]],[[12575,5091],[-54,-6],[-232,-113],[-122,-98],[-4,-40],[-25,-28],[-28,-67],[3,-7],[-12,-112],[81,-56],[-24,1],[-49,17],[-20,-3],[-15,-29],[-27,-21],[9,-30],[-5,-11],[-88,-24],[-19,-38],[-60,-9],[-15,-17],[-30,-93],[-34,-49],[-54,-37],[-62,-20],[-88,-5],[-77,16],[-19,-4],[-31,-21],[-66,-10],[-5,-56],[-14,-21],[-65,-66],[-5,-12],[-11,-104],[-9,-52],[-31,-42],[-9,-54],[17,-21],[3,-28],[-7,-104],[-7,-28],[-32,-52],[-37,-44],[-13,-85],[-16,-182]],[[9016,2957],[-37,34],[-34,59],[-21,12],[-48,15],[-57,12],[-50,19],[-37,21],[-89,19],[-25,-5],[-35,-18]],[[8583,3125],[5,64],[7,49],[21,71],[52,129],[8,61],[-7,43],[-22,60],[-6,33],[4,33],[30,65],[38,98],[24,91],[7,99]],[[3421,9551],[20,-32],[4,-46],[17,-28],[65,-40],[26,-30],[11,-28],[-15,-21],[-16,-41],[21,-21],[-9,-37],[2,-42],[-17,-41],[19,-25],[8,-27],[-5,-41],[-18,-22],[10,-17],[30,-12],[6,-54],[-14,-33],[-9,-60],[-26,-24],[0,-49],[16,-25],[67,-27],[20,-21],[19,-31],[31,-36],[44,-100],[44,-52],[21,-47],[35,-14],[44,-30],[17,-25],[-1,-21],[-43,-43],[0,-33],[-7,-39],[5,-35],[72,-68],[0,-25],[-20,-25],[-3,-24],[14,-21],[2,-23],[-6,-52],[13,-26],[19,27],[67,37],[82,29],[12,-39]],[[4095,7991],[-6,-68],[-5,-15],[-20,-15],[-35,-3],[-40,-26],[-60,-87],[-42,-27],[-23,-20],[-56,-66],[-74,-58],[-22,-35],[-31,-66]],[[3681,7505],[-9,-68],[-9,-30],[-21,-32],[-160,92],[-57,27],[-85,18],[-47,1],[-63,-7],[-239,-50],[-50,-14],[-56,-29],[-34,-26],[-195,-165],[-32,-24],[14,-34],[0,-49],[69,-110],[15,-66],[35,-93],[14,-16],[43,-31],[49,-28],[37,-13],[24,-15],[35,-44],[-52,-29],[-19,-6],[-63,-7],[-59,-23],[-51,-11],[-39,-13],[-50,-30],[-90,-22],[-31,-19],[-51,-4],[-12,-11],[-34,-62],[-27,-33],[-7,-50],[3,-42],[25,-67],[-13,-92],[2,-31],[17,-41],[29,-48],[21,-73],[54,-71],[27,-23],[51,-32],[13,-22],[-26,-25],[1,-14],[21,-33],[32,-37],[12,-23],[11,-41],[18,-29],[32,-19],[27,-24],[14,-38],[35,-13],[17,-30],[0,-124],[-8,-50],[-32,-129],[-43,3],[-33,-4],[-51,36],[-61,33],[-23,8],[-60,0],[-43,-7],[-60,-18],[-37,12],[-76,99],[-72,74],[-23,18],[-17,28],[-1,33],[-23,72],[-35,67],[-5,45],[-19,13],[-26,43],[-1,48],[-12,23],[-41,38],[-49,-4],[-40,-22],[0,-11],[-28,-41],[-34,-91],[-2,-26],[37,-37],[-31,-60],[-40,-96],[0,-28],[-29,-53],[-2,-29],[-21,-83],[5,-76],[-17,-32],[-16,-53],[11,-29],[1,-64],[14,-41],[-24,-84],[7,-37],[-5,-44],[13,-38],[3,-62],[12,-67],[35,-53],[37,-70],[-38,-23],[-16,-72],[2,-42],[-14,-43],[4,-22],[23,-57],[3,-19],[-8,-29],[20,-31],[38,-32],[34,-8],[16,-40],[44,-39],[-26,-28]],[[85,3143],[15,592],[8,270],[20,650],[35,1184],[17,570],[24,809],[33,1028],[21,638],[1,466],[1255,-174],[1281,-179],[100,-17],[246,274],[85,-4],[8,102],[187,199]],[[8013,6994],[80,-42],[54,-75],[53,-64],[90,-11],[16,12],[13,93],[8,6],[371,-44],[7,62]],[[9327,5973],[-301,0],[-20,-9],[-9,-17],[-54,-134],[-38,-102],[-147,-169],[-27,-20],[-127,14]],[[8604,5536],[24,156],[-4,7],[-144,69],[-32,32],[-66,120],[-9,29],[-9,57],[-21,101],[-15,56],[-32,103],[-20,54],[-105,268]],[[8171,6588],[-158,406]],[[12575,5091],[-7,-36],[-3,-77],[-15,-59],[-31,-32],[-66,-30],[-51,-48],[-18,-25],[-8,-39],[13,-39],[27,-22],[29,-5],[47,13],[85,40],[47,35],[39,13],[91,-18],[63,-27],[53,15],[28,49],[13,85],[21,33],[17,3],[3,29],[10,35],[22,25],[45,-16],[68,-62],[42,-34],[29,-14],[46,-7],[26,14],[29,25],[27,8],[68,1],[51,7],[74,4],[52,-1],[22,-10],[68,-74],[87,-67],[80,-76],[50,-23],[16,0],[107,89],[38,50],[7,53],[-8,70],[10,44],[28,60],[54,52],[22,15],[50,8],[20,-8],[28,-25],[-1,-23],[-15,-33],[-8,-53],[27,-32],[33,-20],[50,-21],[107,-22],[34,-1],[64,11],[25,15],[40,59],[22,13],[21,40],[42,44]],[[14661,5069],[75,-63],[14,-18],[3,-24],[-11,-168],[-3,-19],[-23,-52],[-16,-110],[-11,-36],[-28,-48],[-23,-26],[-28,-16],[-4,-12],[1,-55],[18,-84],[22,-41],[60,-47],[39,-15],[59,-49],[19,-29],[-3,-65],[-24,-70],[-21,-34],[-17,-49],[-30,-12],[-118,-58],[-54,-54],[-60,-82],[-35,-39],[-65,-61],[-31,-34],[-35,-28],[-79,-26],[-23,-19],[8,-49],[-21,-78],[-35,-38],[-21,-40],[-26,-104],[-24,-56],[-39,-60],[-28,-57],[-58,-99],[-95,-108],[-7,-11],[-70,-62],[-109,-117],[-17,-10],[-86,-21],[-35,-14],[-7,-29],[-16,-29],[-41,-55],[-82,-74],[-58,-50],[-70,-48],[-65,-35],[-61,-24],[-283,-86],[-36,-14],[-58,-30],[-34,-25],[-50,-47],[-39,-57],[-26,-65],[-54,-195]],[[12586,1739],[-36,-123],[-22,-108],[-20,-24],[-23,-10],[-137,-19],[-118,-35],[-233,-84],[-112,-38],[-8,5],[-120,-24],[-21,5],[-57,-5],[-68,2],[-14,8],[6,60],[-9,19],[1,28],[-7,43],[11,78],[7,109],[7,176],[0,120],[3,45],[-155,7]],[[7925,5687],[345,-35],[15,-18],[20,-55],[12,-9],[287,-34]],[[8604,5536],[-13,-90]],[[8591,5446],[-78,9]],[[8513,5455],[-87,10],[-173,16],[-20,-28],[9,-21],[-13,-17],[-173,19],[-17,-159]],[[8039,5275],[-70,29],[-34,21],[-36,29],[-36,45]],[[7863,5399],[-24,46],[-14,73],[2,45],[13,135],[85,-11]],[[8039,5275],[100,-35],[328,-118],[20,157],[12,65],[14,111]],[[8591,5446],[-16,-101],[-1,-22],[9,-38],[18,-32],[83,-114],[17,-40],[6,-27],[46,-363],[0,-153],[-9,-535]],[[8583,3125],[-67,-17],[-139,10],[-27,-1],[-60,15],[-43,23],[-33,29],[-38,26],[-63,27],[-62,21],[-76,12],[11,34],[18,75],[4,43]],[[8008,3422],[14,23],[101,55],[28,35],[25,99],[-5,33],[-46,93],[-21,34],[-34,40],[-60,59],[-13,23],[2,30],[48,62],[7,15],[-15,24],[-52,65],[-48,43],[-57,34],[-20,28],[-21,43],[-17,57],[-33,45],[-19,96],[48,122],[1,22],[-12,48],[9,31],[145,41],[10,78],[-51,62],[-15,10],[-20,52],[-67,55],[-79,53],[-28,14],[-39,4],[-67,-21],[-10,-29],[-18,0],[2,-33],[-75,72],[-23,0],[-32,18],[-55,58],[-91,150],[-16,34],[-6,30],[3,91],[12,46],[17,27],[25,14],[40,-13],[27,-17],[56,-42],[108,-52],[43,-40],[45,4],[23,-8],[45,-37],[32,19],[6,16],[62,-22],[31,43],[5,41]],[[4095,7991],[20,214],[13,52],[33,78],[28,117],[21,33],[41,19],[76,-1],[34,7],[15,11],[103,107],[20,46],[2,50],[10,27],[94,193],[59,89],[136,128],[37,27],[40,17],[71,7],[160,-8],[181,-4],[23,-2],[21,-13],[-2,-45],[61,-3],[27,3],[154,0],[174,-3],[85,-4],[29,11],[19,129],[18,104],[36,10],[131,-7],[70,34],[21,6],[64,5],[-16,28],[35,4],[41,-1],[17,9],[1,19],[119,35],[10,64],[34,79],[213,-21],[10,4],[-4,84],[9,11],[64,2],[58,18],[102,-22],[37,-16],[8,-11],[-10,-241],[123,-9],[219,-16],[9,10],[92,16],[94,-3],[-2,29],[3,85],[5,37],[28,79],[4,63],[7,50],[23,124],[31,170],[18,122],[30,19],[14,26],[21,65],[13,58],[6,52],[-12,79],[2,43],[12,32],[0,22],[-44,111],[-36,96],[61,11],[100,47],[21,-8],[48,-107],[10,-14],[0,-53],[5,-17],[52,-92],[53,-46],[30,-37],[82,-75],[-2,-27],[-53,-5],[-12,-17],[-12,-42],[2,-17],[80,-158],[8,-46],[-2,-51],[16,-67],[22,-39],[43,-34],[42,-15],[50,97],[24,56],[12,72],[13,26],[31,91],[33,67],[30,46],[49,41],[17,36],[79,102],[29,15],[71,17],[53,17],[33,-7],[52,-30],[58,6],[30,-4],[20,-13],[34,-58],[70,16],[24,16],[18,31],[5,23],[-10,45],[2,37],[26,65],[37,14],[56,12],[28,16],[41,43],[36,6],[72,-37],[41,-7],[13,6],[10,39],[17,20],[55,-3],[26,32]],[[8013,6994],[-31,79],[-20,34],[-46,47],[-321,231],[-39,34],[-40,56],[-115,-42],[-49,-13],[-12,-17],[-49,-24],[-181,-22],[-26,8],[-12,23],[-17,10],[-33,2],[-34,-21],[4,-16],[-28,-23],[-12,-24],[-19,-19],[-5,-22],[-94,-84],[-9,-12],[37,-42],[31,-15],[-1,-25],[-26,-16],[3,-15],[39,-61],[10,-25],[29,-29],[-8,-24],[-44,-22],[-19,-18],[-11,-26],[-39,-33],[-28,-12],[-20,2],[-30,19],[-33,-2],[-10,-9],[-7,-32],[1,-43],[22,-30],[-53,-2],[-85,-43],[-240,27],[-155,23],[-35,3]],[[6153,6729],[-198,20],[-138,12],[-124,14],[-126,21],[-106,25],[-77,25],[-50,27],[-55,46],[-86,33],[-18,4],[-32,20],[-29,94],[-14,27],[-29,100],[-30,62],[-31,21],[-37,13],[-61,33],[-32,24],[-55,48],[-26,15],[-35,12],[-46,6],[-122,30],[-41,0],[-70,-19],[-96,-32],[-52,11],[-48,-2],[-54,-13],[-41,-2],[-151,19],[-115,11],[-169,28],[-55,36],[-23,7]],[[13584,8671],[-96,-6],[4,-24],[-1,-94],[-107,13],[-29,17],[3,-131],[154,7],[-6,-21],[14,-56],[18,-29],[35,-36],[67,-115],[30,-64],[-35,-61],[94,11],[17,12],[29,6],[40,24],[32,13],[6,16],[-13,16],[12,31],[-27,65],[-23,29],[-11,40],[-14,22],[25,19],[-9,34],[14,27],[23,13],[19,21],[48,-15],[26,-1],[30,7],[32,23],[17,-17],[46,-7],[26,-21],[38,-3],[36,3],[52,-10],[32,-31],[42,0],[49,-17],[58,0],[0,-238],[217,-392],[42,-112],[172,-312],[-23,-253],[149,-199],[39,-109],[-19,-185],[41,-30],[88,-97],[-10,-27],[13,-44],[-13,-62],[43,-55],[0,-24],[29,-44],[-52,-24],[-23,-41],[-16,0],[58,-368],[-34,-503]],[[15082,5262],[-44,2],[-107,-38],[-64,-34],[-65,-26],[-21,-18],[-33,-6],[-25,-14],[-62,-59]],[[10620,5736],[-152,76],[-108,52],[32,103],[-6,29],[-60,1],[-53,14],[-158,66],[-16,4],[-201,30]],[[3421,9551],[60,61],[33,39],[126,135],[234,175],[605,470],[587,308],[2,53],[0,118],[6,10],[76,26],[-4,12],[142,-10],[-6,-93],[171,93],[418,157],[-6,-123],[16,14],[26,3],[52,-24],[38,-3],[36,-45],[279,288],[6,51],[123,45],[407,72],[224,43],[495,91],[4,39],[7,194],[-73,120],[11,78],[-7,23],[-51,79],[9,29],[20,18],[44,18],[18,34],[3,65],[-10,43],[28,23],[0,53],[27,90],[72,393],[28,-27],[23,-10],[88,20],[52,41],[58,24],[39,24],[16,28],[26,17],[71,34],[78,34],[22,17],[37,4],[19,-45],[17,-11],[39,26],[24,-1],[17,-14],[41,-15],[29,10],[22,-8],[19,-65],[36,2],[83,19],[45,-1],[30,-12],[40,-26],[61,-15],[21,5],[54,-30],[22,-4],[45,8],[21,-10],[28,-42],[25,-4],[31,12],[37,-22],[11,-22],[17,-13],[70,-18],[24,-20],[49,-61],[36,4],[31,57],[20,13],[70,-6],[6,37],[11,16],[25,1],[93,-11],[37,-24],[29,-37],[46,-45],[11,-16],[16,-60],[3,-27],[17,-36],[13,-12],[55,-14],[22,-21],[47,-67],[26,-23],[26,-14],[29,-2],[12,9],[13,99],[7,10],[38,23],[26,-24],[44,-18],[67,29],[13,-2],[-11,-44],[6,-66],[-6,-28],[-17,-34],[-12,-11],[-92,-53],[-64,-76],[-49,-87],[-21,-23],[-32,-14],[-37,-49],[-8,-30],[-3,-40],[-6,-12],[-58,-74],[-51,-38],[41,-28],[-11,-18],[18,-15],[2,-40],[40,-5],[-1,-81],[55,-4],[-4,-72],[39,-13],[3,-60],[13,-21],[59,2],[62,-130],[-2,-20],[-30,-68],[-10,-14]],[[7925,5687],[-69,72],[-97,176],[33,46],[46,43],[28,9],[26,18],[16,27],[34,9],[60,48],[8,23],[16,19],[14,47],[13,22],[38,38],[13,51],[16,15],[30,52],[-7,36],[28,150]],[[6153,6729],[-12,-93],[-15,-80],[3,-36],[20,-23],[41,-35],[12,-25],[-9,-169],[14,-34],[36,-53],[69,-66],[2,-10],[-3,-320],[-65,4],[-30,-2],[2,-53],[-4,-43],[-8,-16],[16,-31],[39,3],[-74,-68],[-87,-61],[-28,-38],[-10,-20],[-38,-60],[-38,-32],[-31,-11],[-41,-1],[-109,-12],[-35,-26],[-30,-50],[-6,-65],[5,-98],[-3,-24],[11,-19],[-1,-34],[7,-25],[5,-75],[-24,-32],[-100,-77]],[[5634,4819],[-123,-32],[-42,2],[-90,11],[-56,11],[-53,15],[-51,20],[-46,53],[-51,50],[-37,54],[-4,31],[18,104],[25,34],[4,33],[24,53],[14,51],[0,47],[-6,28],[-28,54],[-43,27],[-29,6],[-28,-1],[-33,-20],[-27,-27],[-41,-30],[-24,-24],[-20,-32],[-64,-50],[-61,-91],[-38,-42],[-89,-54],[-53,-46],[-35,-60],[-15,-8],[-40,-50],[-16,-36],[-26,-42],[-30,-69],[-16,-83],[-25,-48],[-76,-71],[-20,-25],[-43,-91],[-32,-52],[-24,-28],[-41,-33],[-33,-16],[-61,-6],[-41,7],[-31,25],[-41,50],[-70,90],[-12,27]],[[8008,3422],[-21,-11],[-203,-32],[-33,-16],[-46,-35]],[[7705,3328],[-27,-15],[-33,-8],[-60,19],[-51,1],[-70,7],[-47,1],[-76,-12],[-61,-15],[-47,-25],[-40,-14],[-42,0],[-85,34],[-22,5],[-125,9],[-15,4],[-34,29],[-58,25],[-75,13],[-20,-16],[-38,-60],[-60,-40],[-35,-15],[-95,3]],[[6489,3258],[5,82],[-53,3],[-29,-27],[-20,-5],[-24,8],[-40,25],[-19,3],[-60,24],[-45,-14],[-20,-1],[-52,22],[-63,-4],[-78,-24],[-34,2],[-56,26],[-34,23],[-29,64],[-39,46],[-16,35],[-23,28],[-59,16],[-5,11],[-44,37],[-19,51],[-5,30],[-17,33],[-20,87],[-1,35],[12,91],[132,18],[45,23],[72,107],[25,24],[32,17],[51,12],[19,16],[29,42],[46,38],[49,18],[49,7],[-38,22],[-53,17],[-35,6],[-20,17],[-10,35],[-28,47],[-39,18],[-1,29],[-11,20],[-40,12],[-19,19],[-38,25],[-10,31],[-44,61],[2,26],[-30,22],[13,18],[7,35],[-48,31],[-17,18],[-38,5],[-20,18]],[[15082,5262],[25,-22],[41,-48],[20,-31],[-1,-15],[-35,-32],[-19,-58],[-16,-75],[-2,-32],[7,-30],[3,-47],[10,-36],[15,-107],[25,-56],[56,-80],[11,-10],[76,-41],[40,-13],[58,1],[23,9],[53,75],[2,27],[33,63],[73,101],[-1,15],[-25,17],[-16,38],[3,27],[-12,75],[17,31],[15,11],[2,33],[-23,61],[1,24],[60,122],[36,41],[46,30],[34,13],[27,-3],[34,-34],[15,-39],[3,-83],[-21,-114],[1,-43],[9,-52],[37,-77],[4,-17],[19,-17],[72,-106],[46,-15],[48,4],[122,-3],[29,-7],[34,-43],[13,-36],[18,-29],[37,-31],[41,-25],[26,-23],[114,-36],[24,3],[44,15],[97,58],[79,37],[50,19],[39,26],[3,-66],[-5,-221],[6,-733],[6,-847],[1,-303],[-12,-142],[-12,-161],[-6,-112],[-36,-399],[-5,-76]],[[16718,1612],[-196,-91],[-162,-65],[-108,-50],[-115,-59],[-67,-31],[-50,-18],[-142,-47],[-47,-22],[-46,-32],[-355,-294],[11,129],[-13,28],[-50,86],[-21,18],[-189,91],[-51,31],[-20,18],[-95,100],[-10,18],[-4,34],[-52,-50],[-94,-111],[-68,-143],[-31,-45],[-52,-49],[-18,-31],[-21,-22],[-67,-49],[-66,-65],[-70,-61],[-24,-17],[-40,-19],[-110,-34],[-21,-8],[-54,-36],[-49,-41],[-69,-71],[-123,115],[-48,44],[-22,1],[-179,-42],[-108,-24],[-71,-19],[-84,-9],[12,152],[2,71],[-12,45],[4,45],[10,47],[16,218],[3,94],[19,243],[-13,10],[-134,19],[-120,12],[-27,22],[5,26],[-45,-1],[-19,-11],[-23,27],[-17,58],[-13,8],[-58,-6],[-141,-9],[-63,-9],[-70,39],[-125,31],[-10,-2],[-42,-60]],[[7705,3328],[-15,-17],[-80,-111],[-34,-36],[-65,-56],[-85,-86],[-31,-21],[44,-35],[48,-15],[262,-25],[-8,-73],[132,-13],[-18,-52],[-32,-79],[-22,-118],[-6,-51]],[[7795,2540],[-5,-42],[-19,-108],[-1,-28],[14,-79],[9,-187],[-1,-49],[-6,-25],[-36,-102],[-8,-38],[-22,-168],[-5,-15],[-33,-52],[-47,-60],[-23,-38],[-2,-46],[6,-77],[11,-32],[16,-17],[75,-57],[14,-13],[35,-54],[31,-64],[25,-43],[59,-123],[59,-83],[66,-64],[56,-48],[35,-25],[58,-31],[35,-54],[82,-106],[75,-72],[37,-48]],[[8385,492],[6,-75],[16,-67],[31,-76],[132,-238],[11,-18]],[[8581,18],[-563,5],[-12,-3],[-143,1],[-214,5],[-277,0],[-578,5],[-89,4],[-153,2],[-240,4],[-316,3],[-380,-2],[-171,1],[-37,18],[-18,1],[-32,-19],[-100,2],[-121,7]],[[5137,52],[12,87],[30,148],[1,79],[48,87],[59,66],[49,44],[123,135],[18,27],[33,66],[13,34],[21,83],[43,212],[-45,-1],[4,37],[45,128],[11,73],[-15,146],[-50,11],[-23,20],[-55,1],[-16,-8],[-36,6],[-42,-3],[-44,16],[-25,3],[-37,16],[-49,-14],[-21,0],[-58,17],[-40,17],[-30,3],[-83,30],[-39,27],[-20,33],[-40,37],[-14,44],[-13,93],[-25,73],[10,41],[57,4],[46,13],[37,-4],[50,-20],[21,2],[137,25],[-5,44],[-2,71],[31,33],[14,36],[-1,36],[13,15],[47,28],[20,19],[8,50],[-6,13],[-44,51],[-22,41],[-2,42],[0,72],[26,43],[30,20],[56,11],[36,23],[29,12],[14,26],[7,52],[13,19],[60,60],[8,16],[12,60],[60,1],[44,-4],[81,22],[16,12],[13,40],[17,20],[91,60],[26,23],[27,35],[11,26],[24,13],[133,-14],[53,14],[46,6],[81,-17],[38,-29],[18,-2],[162,11],[18,3],[-2,52],[5,107]],[[8385,492],[1,26],[28,379],[64,840]],[[8478,1737],[116,-7],[20,8],[109,77],[66,40],[41,39],[171,84]],[[11290,1634],[-12,-22],[17,-7],[18,-52],[-6,-31],[-80,-62],[-58,-34],[-11,-46],[5,-13],[-30,-50],[-2,-44],[14,-28],[-43,-66],[-29,-24],[-35,-20],[-12,-14],[-3,-24],[-27,-10],[-44,1],[-18,-65],[2,-12],[-22,-26],[1,-18],[-23,-46],[-48,-48],[-26,-2],[-32,-27],[5,-28],[30,-26],[0,-88],[-17,-26],[-34,-19],[-33,-60],[5,-21],[-5,-58],[26,-15],[-14,-35],[-28,-23],[-44,-21],[-37,2],[-6,-18],[8,-26],[-4,-53],[20,-24],[4,-20],[-21,-44],[4,-33],[-48,1],[-41,14],[-54,7],[-28,-4],[-42,-34],[-36,-24],[-42,-37],[-26,-10],[-44,-1],[-17,-13],[-32,-6],[-39,-56],[-41,-37]],[[10155,8],[-190,-1],[-328,4],[-535,6],[-18,-8],[-204,2],[-77,-1],[-118,3],[-104,5]],[[5137,52],[-59,-4],[-173,3],[-506,3],[-87,2],[-332,-1],[-256,0],[-14,-6]],[[8583,3125],[-39,-517],[-11,-138]],[[8533,2470],[-276,49],[-80,11],[-145,-4],[-237,14]],[[8478,1737],[55,733]],[[16718,1612],[-8,-164],[42,-1119],[7,-306],[-1185,12],[-614,6],[-21,2],[-443,-3],[-51,1],[-226,-1],[-283,-8],[-151,-2],[-90,-4],[-109,-3],[-228,-3],[-147,-4],[-67,-4],[-120,1],[-85,7],[-99,-3],[-358,-2],[-546,-8],[-8,-7],[-173,2],[-132,0],[-143,5],[0,-3],[-170,0],[-132,4],[0,-4],[-198,2],[-231,-1],[-151,1],[-218,-1],[-225,3]]],"transform":{"scale":[0.00003088158913574311,0.000029219551528183488],"translate":[-86.836306,34.990486]},"objects":{"Geometry\\47-103":{"type":"GeometryCollection","geometries":[{"arcs":[[0,1,2,3,4]],"type":"Polygon","properties":{"GEOID":"471039756011"}},{"arcs":[[5,6,7,8,9,10]],"type":"Polygon","properties":{"GEOID":"471039750001"}},{"arcs":[[11,12,13,14]],"type":"Polygon","properties":{"GEOID":"471039757001"}},{"arcs":[[15,16,17,-1,18,19]],"type":"Polygon","properties":{"GEOID":"471039754003"}},{"arcs":[[20,21,22,-12,23]],"type":"Polygon","properties":{"GEOID":"471039752002"}},{"arcs":[[24,-10,25,26,27]],"type":"Polygon","properties":{"GEOID":"471039754001"}},{"arcs":[[28,29,30,-2,-18]],"type":"Polygon","properties":{"GEOID":"471039755001"}},{"arcs":[[31,32,33,34,35,36]],"type":"Polygon","properties":{"GEOID":"471039753002"}},{"arcs":[[-36,37,-34,38,-20,39,40]],"type":"Polygon","properties":{"GEOID":"471039753005"}},{"arcs":[[41,-11,-25,42,43,-22]],"type":"Polygon","properties":{"GEOID":"471039751002"}},{"arcs":[[-8,44,45,-29,-17,46]],"type":"Polygon","properties":{"GEOID":"471039750002"}},{"arcs":[[47,-6,-42,-21]],"type":"Polygon","properties":{"GEOID":"471039751001"}},{"arcs":[[-27,-32,48]],"type":"Polygon","properties":{"GEOID":"471039753003"}},{"arcs":[[-35,-38]],"type":"Polygon","properties":{"GEOID":"471039753001"}},{"arcs":[[-44,49,50,-13,-23]],"type":"Polygon","properties":{"GEOID":"471039752001"}},{"arcs":[[-50,-43,-28,-49,-37,-41,51,52,53]],"type":"Polygon","properties":{"GEOID":"471039753004"}},{"arcs":[[-33,-26,-9,-47,-16,-39]],"type":"Polygon","properties":{"GEOID":"471039754002"}},{"arcs":[[-46,54,55,-30]],"type":"Polygon","properties":{"GEOID":"471039755002"}},{"arcs":[[-53,56,57,58,59,60]],"type":"Polygon","properties":{"GEOID":"471039756021"}},{"arcs":[[61,62,-4,63,64,-59]],"type":"Polygon","properties":{"GEOID":"471039756012"}},{"arcs":[[-51,-54,-61,65,-14]],"type":"Polygon","properties":{"GEOID":"471039757002"}},{"arcs":[[-52,-40,66,67,-57]],"type":"Polygon","properties":{"GEOID":"471039756022"}},{"arcs":[[-67,-19,-5,-63,68]],"type":"Polygon","properties":{"GEOID":"471039756013"}},{"arcs":[[-64,-3,-31,-56,69]],"type":"Polygon","properties":{"GEOID":"471039755003"}},{"arcs":[[-68,-69,-62,-58]],"type":"Polygon","properties":{"GEOID":"471039756023"}}]}}}