{"type":"Topology","arcs":[[[4532,12253],[32,-34],[1,-25],[19,-34],[11,-59],[16,-16],[29,-13],[-6,-105],[-5,-36],[8,-51],[-2,-94],[18,-25],[72,1],[60,-39],[58,-49],[92,-39],[38,-4],[20,-8],[32,-30],[20,-30],[14,-36],[25,-41],[100,-69],[92,-7],[28,11],[75,18],[37,15],[45,26],[163,54],[25,23]],[[5649,11557],[48,-26],[75,-22],[161,-32],[47,-15],[62,-38],[35,-37],[63,-85],[22,-55],[2,-44],[-9,-89],[15,-52],[20,-26],[56,-60],[27,-40],[20,-55],[26,-122],[0,-40],[-20,-61],[-22,-29],[-57,-61],[-16,-27],[-16,-51],[0,-34],[6,-92],[6,-39],[26,-58],[62,-81],[20,-42],[40,-148]],[[6348,9996],[28,-120],[24,-33],[8,-23],[90,-302]],[[6498,9518],[-99,-23],[-30,-12],[-98,-55],[-80,-32],[-76,-54],[-88,-33]],[[6027,9309],[-107,-65],[-36,-26],[-59,48],[-49,16],[-34,-5],[-365,-95],[-61,-13],[-104,-5],[-212,9],[-51,5],[-86,25],[-80,35],[-29,18],[-28,35],[-8,28]],[[4718,9319],[-8,101],[-10,38],[-18,28],[-39,30],[-23,9],[-293,55],[-52,8],[-81,-9],[-250,-48],[-45,2],[-27,11],[-92,52],[-68,11],[-26,21],[-108,139],[25,26],[31,15],[52,57],[34,12],[13,12],[13,62],[-20,37],[0,25],[22,7],[4,39],[12,24],[15,4],[37,-10],[25,19],[-2,20],[17,11],[-6,27],[11,26],[17,8],[4,56],[19,13],[45,-14],[17,4],[3,33],[34,14],[38,26],[0,19],[-16,43],[28,16],[50,14],[48,-5],[41,28],[41,9],[10,24],[29,8],[14,16],[41,-13],[33,33],[49,26],[0,34],[19,10],[56,46],[20,12],[23,-6],[29,21],[-83,55],[-14,14],[0,43],[-8,19],[-66,50],[-51,124],[-9,4],[-84,-3],[-154,19],[-45,-8],[-15,-14],[-63,-41],[-71,-7],[-64,20],[-45,4],[-107,2],[-173,15],[-59,-14],[-68,-9],[-17,21],[5,40],[-1,48],[16,26],[41,19],[57,8],[16,8],[61,72],[9,60],[-1,24],[20,30],[41,30],[66,81],[24,63],[75,139],[18,39],[53,40],[70,4],[124,-1],[7,5],[-3,37],[27,61],[58,64],[59,28],[100,62],[14,14],[43,22],[26,28],[23,44],[16,54],[16,19],[25,71],[70,65]],[[4158,8103],[29,-49],[20,-13],[25,7],[54,-23],[11,-12],[63,-33],[29,22],[21,39],[27,14],[23,-8],[34,48],[27,14],[2,15],[44,16],[13,15],[5,34],[17,19],[-1,71],[6,32],[-14,22],[-10,35],[-2,51],[-27,6],[28,45],[-15,25],[3,24],[39,17],[-14,28],[4,30],[-9,22],[8,15],[-22,47],[15,30],[3,36],[-4,26],[4,44],[-16,32],[4,24],[54,65],[8,28],[25,34],[40,30],[31,39],[21,43],[-7,17],[18,32],[-54,25],[-27,39],[-42,33],[63,64],[6,0]],[[6027,9309],[8,-18],[-5,-23],[-50,-44],[-39,-42],[-17,-38],[-15,-97],[9,-45],[40,-16],[40,-30],[12,-16],[10,-46],[45,-34],[8,-57],[29,-90],[11,-15],[38,-27],[21,-28],[11,-38],[22,-43],[51,-54],[11,-19],[16,-56],[29,-76],[34,-55],[7,-39],[116,-113],[89,85],[14,9],[38,-12],[189,182],[61,-23],[32,-8],[69,-4],[244,-21],[33,7],[81,47],[202,125],[89,48],[49,-1],[30,4],[61,22],[116,32]],[[7866,8642],[-17,-24],[-28,-1],[-33,-24],[-43,-51],[-24,-4],[-97,-55],[-29,-11],[-33,5],[-27,-8],[-44,-26],[-46,-21],[-39,-32],[-24,-43],[6,-55],[-20,-37],[-46,-30],[-38,-16],[-31,-6],[-44,-24],[-49,-9],[-31,-21],[-37,-5],[-29,9],[-26,-9],[-28,-46],[39,-42],[12,-31],[-5,-147],[11,-41],[78,16],[297,68],[113,23],[213,50],[18,6],[52,44],[24,39],[19,20],[113,20],[64,38],[32,1],[50,-15],[129,-12],[86,-12],[90,-35],[69,-12],[95,-12],[39,-2],[14,-10],[6,-39],[-6,-35],[6,-27],[17,-25],[61,-57],[50,-22],[84,-1],[28,-6],[26,22],[16,-1],[12,-57],[15,-23],[78,-38],[60,-14],[63,7],[10,-14],[17,-63],[19,-20],[20,-60],[43,-18],[43,-25],[79,-21],[75,-2],[40,-6],[28,-19],[39,-2],[67,24],[33,19],[40,2],[102,23],[62,0],[49,10],[29,0],[108,-44],[39,-22],[55,-37],[24,-41],[42,-39],[21,-27],[12,-43],[30,-30],[9,-19],[28,-33],[18,-11],[46,-12],[41,1],[36,-12],[12,-14]],[[10493,7181],[-37,-22],[-49,-1],[-41,-17],[-57,-41],[-68,-57],[-26,-9],[-109,-53],[-14,-53],[-30,-27],[-28,-17],[-51,-17],[-39,-21],[-40,-45],[-57,5],[-67,-26],[-38,-3],[-65,-16],[-34,-32],[-34,22],[-35,-1],[-88,49],[-26,8],[-106,1],[-60,-5],[-17,-15],[-62,10],[-19,-18],[-16,0],[-85,-61],[-42,-46],[-69,-53],[-28,-33],[-23,-14],[-12,-73],[-32,-38],[-3,-57],[-7,-22],[10,-30],[-7,-19],[-33,-25],[-67,-69],[-47,-25],[-12,-21],[-22,-10],[10,-37],[-6,-21],[20,-41],[-11,-79],[-10,-26],[-4,-91],[3,-33],[-21,5],[-33,-166],[-25,-70],[3,-54],[-48,-96],[-18,-45],[-28,-41],[-72,-68],[-33,-22],[-36,-11],[-50,-4],[-83,6],[-43,-4],[-197,-34],[-59,-25],[-87,-50],[-40,-11],[-73,-5],[-50,2],[-191,26],[-63,-3],[-88,-33],[-78,-12],[-40,-15]],[[7250,5126],[-17,48],[-1,22],[21,34],[53,26],[23,16],[40,63],[11,41],[-3,13],[-65,159],[-4,28],[11,53],[4,44],[-3,44],[-27,269],[-20,197],[-4,71],[6,109],[20,293],[-1,40],[-17,166],[-34,326],[-21,56],[-194,294],[-64,-33],[-24,5],[-92,46],[-81,-9],[-68,-3],[-20,-17],[-6,-36],[-2,-66],[-46,-11],[-61,3],[-188,-12],[-62,16],[-79,39],[-74,-5],[-19,-19],[-21,-40],[-78,-41],[-37,-35],[-42,-30],[-17,-46],[-24,-11],[-82,8]],[[5841,7241],[20,77],[-1,52],[-15,86],[-21,19],[-76,-5],[-51,8],[-44,-33],[-51,-10],[-60,-4],[-35,-23],[-29,4],[-1,27],[-19,14],[-39,-5],[-14,7],[-14,39],[-37,30],[-14,22]],[[5340,7546],[-11,10],[-36,-6],[-75,-35],[-22,-35],[-14,-84],[-11,-30],[-30,-15],[-13,12],[-31,96],[-16,8],[-58,12],[-23,14],[-63,56],[-14,-3],[-8,-64],[-11,-33],[-35,-46],[-31,-2],[-39,24],[-43,15],[-51,3],[-27,-9],[-105,-1],[-23,6],[-41,36],[-7,34],[-48,35],[-1,12],[29,54],[13,43],[-8,61],[-35,11]],[[4452,7725],[-116,6],[-66,-10],[-42,6],[-47,65],[-21,36],[-103,57],[-77,6],[-18,19],[-6,38],[4,17],[29,59],[34,37],[50,16],[66,16],[19,10]],[[6348,9996],[26,12],[38,29],[44,55],[49,32],[61,7],[34,-9],[151,-54],[56,-13],[33,2],[37,13],[63,34],[26,10],[49,6],[111,-14],[45,-8],[107,-38]],[[7278,10060],[-16,-62],[-13,-25],[-20,-58],[-63,-154],[-27,-24],[-139,-30],[-51,-8],[-112,-11],[-20,-6],[-45,-29],[-35,-32],[-23,-35],[-23,-15],[-54,-7],[-30,-18],[-109,-28]],[[43,7973],[40,-63],[30,-24],[38,-15],[41,3],[40,30],[12,26],[8,81],[-1,38],[-10,69],[-12,48],[-20,48],[-36,52],[-12,34],[-7,65],[5,33],[20,33],[34,27],[38,0],[23,-22],[28,-56],[40,-54],[59,-33],[39,-8],[24,41],[11,58],[12,29],[15,13],[25,44],[-3,24],[27,15],[73,6],[30,-12],[5,-23],[-10,-75],[4,-38],[11,-22],[22,-4],[63,23],[71,2],[24,-17],[20,-30],[48,-30],[51,-86],[16,-14],[81,-34],[19,-1],[29,11],[17,19],[80,57],[22,3],[14,-15],[10,-27],[5,-42],[21,-75],[20,-37],[34,-34],[41,-24],[24,3],[35,21],[47,48],[31,48],[42,47],[45,27],[11,-2],[39,-42],[19,-55],[44,-16],[93,-47],[12,-15],[87,-19],[56,23],[25,20],[6,14],[43,35],[24,14],[50,13],[37,19],[27,-10],[65,2],[61,30],[18,24],[34,29],[29,7],[18,-10],[3,-34],[-43,-33],[-4,-35],[19,-20],[34,-12],[47,-77],[33,-30],[71,0],[23,-26],[-5,-23],[-27,-29],[12,-26],[32,-3],[46,-12],[24,11],[2,42],[24,14],[20,-26]],[[2705,7879],[31,-29],[23,-3],[27,14],[50,36],[32,13],[51,2],[52,-21],[41,-11],[19,3],[24,18],[24,58],[22,10],[14,-11],[24,-54],[26,-9],[38,10],[46,22],[61,11],[15,-16],[-4,-27],[-27,-23],[-78,-40],[-32,-20],[-40,-57],[-5,-23],[3,-50],[28,-30],[57,-6],[34,6],[77,28],[26,26],[-5,41],[-26,60],[6,20],[35,26],[22,-4],[28,-38],[62,-90],[10,-83],[12,-15],[72,-38],[32,-21],[36,3],[11,78],[-14,29],[-78,45],[-19,29],[6,27],[13,14],[40,22],[23,7],[57,-18],[46,-21],[30,-3],[34,25],[14,26],[-13,119],[-30,113],[1,19],[28,21],[18,31],[26,29],[55,7],[93,-10],[31,10],[32,25],[37,18],[65,-3],[28,-9],[20,-26],[-4,-33],[-40,-35]],[[4452,7725],[-22,-85],[-78,3],[-46,-95],[-13,-15],[-53,-35],[-34,-30],[-11,-26],[-9,-61],[-1,-119],[1,-78],[9,-54],[-1,-66],[-142,-56],[-92,-64],[-116,-91],[-13,-16],[-21,-49],[-55,-60],[-50,-21],[-6,-17],[41,-140],[17,-147],[-5,-76],[9,-106],[14,-48],[20,-30],[30,-29],[-115,-36],[-173,-17],[-16,2],[-77,46],[-82,29],[-53,6],[-41,-5],[-26,-14],[-38,-48],[-28,-61],[-57,-74],[-4,-19],[-2,-59],[-6,-21],[-44,-57],[-13,-33],[-35,-35],[-80,-29],[-23,-20],[0,-44],[-29,-43],[-30,-71],[2,-34],[31,-24],[12,-22],[2,-48],[-9,-28],[-61,-119],[-7,-44],[-39,-44],[-37,-23],[-27,-37],[-9,-38],[-2,-87],[-9,-39],[6,-52],[16,-70],[38,-118],[1,-31],[-29,-116],[-21,-116],[-11,-43],[8,-33],[30,-25],[22,-39],[0,-52],[16,-37],[10,-36],[-35,-130],[-54,-5]],[[2697,4021],[-275,22],[-13,-12],[-118,57],[7,117],[-8,64],[-34,30],[11,15],[3,37],[52,39],[23,10],[34,1],[17,14],[0,40],[-25,48],[-5,53],[-11,18],[-20,63],[-37,54],[-164,-51],[-13,-57],[-92,6],[-5,-26],[-228,15],[-24,74],[-113,8],[9,244],[-155,8],[19,161],[77,-3],[1,32],[21,172],[-161,10],[0,-32],[-204,26],[-9,15],[10,70],[-95,12],[7,84],[119,-10],[156,-8],[118,-9],[49,6],[11,71],[8,89],[-136,106],[37,49],[-88,62],[-187,123],[4,44],[15,23],[48,29],[62,54],[28,34],[-90,31],[-35,24],[-16,30],[-8,54],[0,43],[18,22],[52,-11],[40,-23],[27,-9],[30,17],[7,27],[-6,30],[-13,8],[-40,0],[-144,-20],[-24,-10],[-6,-21],[6,-33],[-28,-31],[-37,-5],[-30,26],[-8,37],[12,34],[22,37],[2,17],[-19,7],[-38,-12],[-52,-38],[-31,-55],[-17,-16],[-25,-5],[-43,13],[-118,12],[-20,18],[-35,7],[-35,-17],[-56,0],[-7,25],[-134,10],[-28,-34],[0,-92],[-102,-22],[-112,-21],[-27,82],[-2,72],[-79,2],[-3,-43],[-80,0],[-22,788],[-26,896]],[[5841,7241],[-71,-120],[-15,-48],[2,-19],[26,-131],[-12,-52],[-50,-78],[-25,-31],[-39,-37],[-38,-62],[-44,-151],[-4,-36],[1,-59],[-15,-40],[-145,-315],[-14,-25],[-218,-220],[-22,-20],[-169,-132],[-19,-18],[-85,-95],[-87,-106],[-11,-20],[-7,-43],[-8,-178],[-8,-55],[-23,-100],[-16,-32],[-93,-112],[-25,-38],[-67,-153],[-7,-36],[-5,-75],[-48,-179],[-21,-30],[-65,-48],[-32,-35],[-57,-89],[-29,-28],[-72,-57],[-291,-238],[-23,-24],[-334,-366],[-16,-19]],[[3540,3491],[-82,16]],[[3458,3507],[242,344],[61,102],[32,74],[14,42],[21,85],[107,628],[18,70],[25,71],[27,58],[25,46],[38,58],[61,75],[39,41],[119,110],[143,135],[46,49],[46,75],[145,357],[29,73],[79,213],[10,24],[53,150],[25,81],[135,476],[17,59],[28,74],[51,94],[46,72],[200,303]],[[3458,3507],[-65,11],[6,20],[-33,15],[-9,28],[-185,8],[-14,31],[-258,29],[2,3],[-3,211],[-138,6],[20,145],[-84,7]],[[7250,5126],[121,-323],[2,-20],[-16,-36],[-21,-15],[-186,-96],[-40,-44],[-41,-129],[-7,-30],[0,-34],[20,-58],[24,-31],[104,-92],[120,-88],[26,-28],[37,-64],[66,-81],[20,-35],[22,-101],[36,-115],[74,-220],[32,-106],[12,-61],[-7,-43],[-85,-328],[-9,-26],[-229,-450],[-56,-114],[-2,-59],[156,-437]],[[7423,1862],[-72,38],[-227,80],[-95,29],[-689,233],[-6,4],[97,88],[22,26],[-11,48],[-14,109],[-48,92],[-29,173],[-15,65],[5,73],[-816,61],[-628,47],[17,224],[-161,0],[-174,-127],[-20,26],[-27,13],[-38,38],[-30,0],[-47,113],[-270,-72],[-167,63],[-166,65],[-5,77],[-29,3],[-16,-31],[1,-45],[-225,116]],[[10493,7181],[54,-20],[229,38],[111,24],[73,41],[94,43],[36,12],[44,25],[18,4],[49,-8],[54,-2],[62,9],[29,35],[42,22],[19,4],[5,-37],[17,-19],[164,-92],[69,-88],[9,-18],[11,-58],[26,-59],[10,-36],[11,-151],[17,-135],[31,-104],[13,-32],[49,-78],[27,-28],[57,-48],[44,-25],[88,-63],[16,-16],[25,-50],[35,1],[8,35],[20,9],[31,-11],[17,-24],[21,-11],[41,-8],[-13,-27],[8,-27],[40,-38],[10,-31],[50,-44],[15,-48],[-3,-23],[-15,-31],[-25,-73],[14,-47],[19,-20],[26,-7],[38,9],[53,19],[28,15],[90,35],[52,-33],[12,-14],[12,-97],[0,-59],[20,-19],[80,-62],[33,-42],[59,-13],[34,-25]],[[12906,5560],[-38,-22],[-31,-28],[-135,-191],[-36,-47],[-44,-47],[-26,-34],[-60,-98],[-24,-75],[0,-28],[18,-30],[129,-102],[15,-6],[34,1],[61,13],[42,-4],[96,-33],[34,-22],[83,-64],[69,-42],[34,-30],[28,-34],[-3,-22],[-39,-47],[-22,-34],[-22,-58],[-1,-46],[-17,-14],[-45,23],[-20,2],[-105,-82],[-26,-24],[-145,-160],[-48,-44],[-80,-52],[-64,-32],[-65,-62],[-22,-51],[-39,-39],[2,-34],[67,-92],[2,-12],[-25,-105],[-29,-47],[-2,-20],[13,-160],[-13,-61],[-34,-56],[-49,-65],[-17,-29],[-5,-26],[11,-54],[0,-24],[-12,-31],[-70,-132],[-47,-56],[-115,-79],[-32,-34],[-45,-73],[-55,-47],[-29,-10],[-41,-3],[-34,-19],[-18,-41],[3,-30],[38,-84],[7,-39],[-13,-93],[2,-80],[9,-50],[46,-202],[8,-23],[62,-95],[85,-87],[64,-23],[95,-42],[32,-18],[39,-46],[10,-25],[-2,-31],[-18,-24],[-80,-62],[-14,-23],[6,-32],[42,-78],[14,-38],[3,-30],[-1,-91],[-5,-28],[-46,-160],[-18,-28],[-38,-25],[-92,-35],[-36,-18],[-44,-31],[-140,-129],[-51,-41],[-71,-52],[-51,-29],[-29,-8],[-143,-33],[-90,-17],[-52,-13],[-43,-20],[-132,-84],[-26,-14],[-59,-22],[-114,-27],[-32,0],[-55,15],[-30,19],[-170,148],[-47,27],[-22,6],[-311,39],[-56,5],[-60,1],[-129,-16]],[[10060,669],[-380,162],[-151,67],[-171,73],[-143,63],[-26,35],[-486,218],[-39,39],[-7,36],[-18,26],[-8,26],[-28,35],[-5,32],[96,-5],[20,-18],[42,-18],[-21,66],[50,89],[20,45],[-47,-6],[-35,28],[-86,19],[-23,-22],[45,-49],[-66,-33],[-115,43],[-50,22],[-35,-4],[-23,-12],[-29,-27],[-1,-49],[-12,-54],[-34,-23],[-759,340],[-112,49]],[[7866,8642],[83,29],[36,20],[14,61],[25,49],[-8,50],[26,18],[38,12],[29,26],[16,48],[20,14],[90,19],[34,12],[60,-4],[39,-43],[48,-10],[20,5],[21,39],[30,6],[118,5],[12,4],[35,33],[42,15],[44,54],[16,131],[107,-43],[57,-12],[71,-1],[37,10],[79,55],[91,96],[80,59],[28,11],[103,13],[26,12],[74,68],[13,17],[88,16],[14,18],[0,26],[-20,25],[14,32],[30,27],[-9,36],[43,53],[21,13],[25,43],[27,21],[51,29],[49,18],[37,-2],[22,8],[68,45],[-51,21],[-12,11],[27,71],[14,55],[11,82],[-3,22],[-38,116],[-3,25],[10,74],[88,16],[0,26],[10,130],[-10,24],[-47,24],[1,13],[73,83],[-34,40],[-64,57],[42,-11],[13,-17],[102,-19],[61,-15],[32,-1],[31,22],[33,42],[19,50],[19,19],[37,23],[28,-16],[29,-2],[46,21],[47,-3],[30,13],[18,-3],[34,12],[21,-1],[58,-31],[38,-2],[72,3],[45,7]],[[10807,10909],[30,-4],[19,9],[55,-7],[35,4],[63,-31],[43,5],[97,2],[26,9],[22,20],[22,-8],[20,-22],[30,0],[8,23],[16,7],[65,-16],[37,-3],[42,-16],[65,-12],[68,-53],[20,-2],[44,12],[21,-17],[22,-33],[50,-3],[16,12],[-10,35],[81,4],[21,38],[62,25],[40,29],[-10,37],[22,34],[41,28],[65,13],[38,15],[14,13],[2,22],[-29,36],[0,30],[12,28],[25,29],[88,21],[85,1],[45,8],[20,24],[-3,30],[-20,17],[-87,19],[-54,18],[-24,19],[-26,38],[-20,42],[-61,81],[-14,42],[18,61],[31,52],[27,71],[12,66],[19,44],[31,34],[74,58],[30,34],[40,7],[33,-6],[44,-22],[47,-35],[60,-51],[29,-11],[18,3],[50,23],[55,50],[26,47],[23,26],[58,31],[50,16],[34,5],[20,15],[45,20],[24,15],[45,47]],[[12989,12161],[24,-544],[68,-118],[317,-548],[9,-15],[-24,-78],[11,-40],[20,-32],[39,-30],[23,-25],[5,-43],[-28,-36],[-9,-53],[7,-44],[13,-31],[-12,-56],[87,-48],[52,17],[93,-24],[144,26],[168,36],[-2,-294],[59,1],[-10,-86],[-50,-15],[-8,-888],[-12,-478],[-24,-1291],[-20,-1042],[67,-234],[207,-703]],[[14203,5445],[-60,-2],[-109,38],[-28,6],[-117,7],[-69,18],[-69,36],[-44,43],[-49,63],[-22,13],[-56,-2],[-69,-15],[-81,23],[-66,-27],[-48,1],[14,23],[-26,17],[-14,-14],[-72,-53],[-12,15],[-28,-8],[-19,-20],[-56,-4],[-35,-13],[-41,-28],[-36,-14],[-85,12]],[[1614,13770],[28,-3],[25,-32],[14,-44],[5,-101],[12,-60],[24,-33],[55,-59],[59,-36],[33,-7],[30,26],[18,4],[98,-14],[28,-20],[49,-72],[34,-39],[26,-65],[46,-43],[32,-3],[63,10],[39,28],[48,25],[36,13],[73,-1],[82,7],[90,-4],[35,-10],[9,-37],[41,-28],[18,-35],[23,-30],[79,-23],[64,-40]],[[2930,13044],[-5,-60],[-19,-35],[-20,-18],[18,-25],[-1,-30],[-20,-18],[11,-44],[-26,1],[-132,20],[-26,1],[-31,-10],[-63,-32],[-52,-40],[-54,-65],[-30,-8],[-92,22],[-39,-7],[-13,-13],[-30,-54],[-35,-39],[-10,-29],[-33,-20],[-40,-2],[-31,-11],[-24,-24],[-19,-35],[-21,-98],[-9,-25],[-17,-21],[-52,-46],[-13,-34],[28,-97],[2,-36],[22,-84],[2,-51],[-19,-63],[7,-43],[26,-31],[28,-50],[-4,-45],[18,-58],[67,-96],[19,-60],[3,-42],[-8,-27],[-29,-52],[-2,-37],[9,-70],[-8,-31],[-28,-78],[-14,-48],[-13,-29],[-33,-33],[-4,-80],[5,-250],[1,-238],[3,-251],[2,-255],[2,-176],[18,-98],[4,-37],[-21,-53],[-22,-73],[-16,-37],[7,-36],[79,-184],[8,-8],[51,-6],[26,-41],[13,-34],[7,-43],[-9,-86],[5,-31],[25,-63],[71,-201],[31,-60],[11,-32],[19,-138],[11,-29],[17,-22],[30,-23],[88,-61],[76,-38],[22,-17],[42,-46],[64,-80],[14,-42],[20,-89],[5,-86],[6,-41],[-4,-54],[-19,-29],[-58,-37]],[[43,7973],[-33,1123],[-10,98],[17,251],[10,174],[26,310],[46,649],[30,122],[87,465],[21,122],[143,442],[106,324],[37,107],[65,197],[180,270],[68,79],[54,73],[53,84],[60,66],[40,51],[471,476],[100,314]],[[14203,5445],[157,-534],[256,-706],[9,-27],[280,-763],[499,-1361],[-663,-988],[-241,-360],[-76,-115],[-396,-591],[-135,9],[-65,10],[-197,21],[-277,27],[-382,38],[-325,31],[-310,31],[-346,35],[-314,31],[-646,64],[-142,13],[-150,64],[-453,197],[-226,98]],[[1614,13770],[35,99],[252,231],[83,29],[107,54],[90,42],[205,23],[19,0],[308,33],[-42,53],[14,30],[31,-4],[17,-31],[27,12],[32,32],[51,-121],[247,28],[769,77],[36,3],[4,-67],[-201,-66],[-45,-44],[-48,-22],[-23,-30],[-66,-48],[-11,-26],[-36,-53],[9,-21],[-23,-34],[18,-40],[51,-48],[69,-28],[329,29],[5,-121],[133,54],[185,-62],[20,92],[-42,64],[79,72],[3,10],[-23,22],[-46,13],[-2,38],[-95,139],[-144,223],[340,75],[80,60],[44,19],[92,60],[32,24],[114,60],[69,-39],[78,58],[203,235],[878,334],[128,-2],[130,1],[557,-9],[406,-133],[217,-75],[7,-4],[-23,194],[258,80],[10,71],[27,30],[160,-7],[92,-8],[18,20],[218,178],[222,73],[123,87],[401,-282],[-21,-22],[-40,-70],[-19,-10],[-33,2],[-89,47],[-28,30],[-29,-44],[123,-75],[47,1],[175,-104],[228,-158],[43,-4],[109,-27],[224,-70],[166,-60],[194,-66],[254,-96],[182,-87],[206,-129],[155,-102],[131,-97],[88,-67],[80,-66]],[[11022,14232],[-29,-32],[-13,-50],[-23,-44],[-12,-43],[-26,-43],[-36,-36],[-72,-129],[-25,-25],[-73,-46],[-42,0],[-31,-11],[-42,-35],[-55,-66],[-49,-32],[-71,-8],[-54,4],[-23,19],[-102,66],[-75,-1],[-59,-6],[-19,-10],[-33,-41],[-3,-32],[10,-26],[39,-66],[-5,-20],[-17,-11],[-58,-18],[-102,-15],[-89,7],[-34,15],[-38,9],[-35,-4],[-15,-14],[-8,-25],[30,-10],[75,-1],[43,-21],[-6,-20],[-44,-34],[-18,-20],[-37,-64],[-44,-61],[-23,-8],[-46,16],[-31,52],[-23,24],[-55,25],[-27,-7],[3,-27],[48,-24],[14,-35],[-8,-28],[-34,-37],[-84,-14],[-18,-10],[-19,-32],[-65,-74],[5,-64],[-6,-54],[-12,-26],[9,-29],[43,-47],[3,-31],[-19,-20],[-32,-1],[-47,7],[-36,-5],[-33,6],[-43,32],[-32,31],[-37,1],[-19,-16],[-11,-31],[10,-31],[-1,-23],[-29,-39],[-10,-117],[-21,-4],[-68,22],[-36,26],[-26,-1],[-37,-37],[-16,-41],[-23,-14],[-72,-17],[-56,8],[-49,-2],[-25,-9],[-50,-43],[23,-43],[27,-28],[26,-13],[44,-6],[-2,-30],[-62,-56],[-24,-45],[-51,-27],[-40,10],[-57,-2],[-42,2],[-17,-6],[-24,-53],[-17,-16],[-31,-5]],[[8311,12166],[-48,44],[-7,19],[-3,73],[25,45],[5,27],[-3,56],[3,19],[20,27],[66,63],[21,29],[4,22],[8,141],[-47,11],[-40,20],[-37,30],[-41,58],[-19,11],[-44,10],[-59,-5],[-58,-10],[-21,8],[20,57],[-39,39],[-2,25],[16,36],[-17,40],[-43,26],[-39,2],[-102,15],[-47,-18],[-91,25],[-19,15],[-46,63],[-71,32],[-68,-1],[-74,25],[-12,-29],[-53,4],[-179,26],[-52,-15],[-119,-41],[28,-68],[7,-52],[-12,-39],[-27,3],[-41,-13],[-34,-23],[-8,-27],[3,-26],[23,-28],[-11,-19],[-30,1],[-12,-16],[-8,-35],[-31,-31],[-15,-5],[-85,15],[-23,-5],[-14,-19],[-1,-68],[-8,-58],[-26,-85],[-49,-44],[-28,-31],[-70,-69],[-67,-72],[-63,-56],[-59,-45],[-48,-24],[-101,-10],[-39,-11],[-58,-35],[-92,-79],[-98,-39],[-54,-24],[-121,-104],[-37,-60],[-15,-45],[-3,-131],[-17,-87],[1,-53],[-7,-16]],[[4532,12253],[3,15],[-11,45],[14,43],[39,53],[-12,30],[-5,48],[-16,21],[-3,48],[-23,13],[-26,27],[-44,70],[-13,12],[-16,38],[-18,12],[-40,14],[-40,30],[-18,33],[-11,80],[-9,14],[-57,56],[-57,-12],[-44,0],[-46,9],[-25,11],[-40,-11],[-19,4],[-66,30],[-18,27],[-15,7],[-36,-11],[-24,21],[-18,39],[-18,-2],[-27,-33],[-54,0],[-16,7],[-47,41],[-27,38],[-24,1],[-62,-34],[-95,-33],[-49,5],[-22,-6],[-52,4],[-76,15],[-39,-4],[-97,-65],[-9,-22],[4,-81],[-52,-59],[-70,-5],[-33,43],[-12,56],[10,52],[-21,57]],[[8311,12166],[19,-22],[12,-46],[108,-213],[14,-40],[1,-55],[7,-11],[57,-25]],[[8529,11754],[-57,-18],[-90,-38],[-45,-25],[-62,-39],[-78,-68],[-46,-51],[-55,-79],[-36,-74],[-13,-33],[-78,-230],[-65,-185],[-18,-36],[-46,-75],[-25,-48],[-125,-285],[-46,-108],[-23,-43],[-52,-60],[-51,-34],[-134,-69],[-53,-31],[-42,-42],[-11,-23]],[[8529,11754],[35,-128],[-24,-40],[36,-7],[17,10],[28,32],[29,-6],[11,-46],[13,-18],[28,0],[50,13],[195,-2],[47,-20],[185,10],[40,3],[113,57],[251,101],[21,-45],[19,-21],[58,-41],[41,-17],[29,-20],[61,-55],[125,-101],[84,-57],[20,-5],[157,-19],[72,-3],[45,-14],[10,-27],[-15,-33],[-4,-26],[1,-54],[6,-9],[56,-12],[62,-24],[69,-33],[28,-10],[84,-42],[149,-68],[78,-22],[-32,-46]],[[11022,14232],[59,-49],[506,-387],[108,-101],[288,-265],[-12,-24],[19,-42],[84,-9],[149,-147],[14,5],[375,-358],[-12,-16],[-4,-36],[-32,-43],[-6,-22],[28,-134],[38,14],[39,6],[34,22],[7,30],[22,-9],[59,2],[53,-18],[26,-25],[23,-39],[-6,-82],[-2,-88],[97,14],[13,-270]]],"transform":{"scale":[0.000026946896909893024,0.00002505358500126653],"translate":[-85.497587,36.144719]},"objects":{"Geometry\\47-133":{"type":"GeometryCollection","geometries":[{"arcs":[[0,1,2,3,4,5]],"type":"Polygon","properties":{"GEOID":"471339503012"}},{"arcs":[[6,-5,7,8,9,10,11,12,13]],"type":"Polygon","properties":{"GEOID":"471339503022"}},{"arcs":[[14,15,-3]],"type":"Polygon","properties":{"GEOID":"471339503013"}},{"arcs":[[16,17,-14,18,19]],"type":"Polygon","properties":{"GEOID":"471339505012"}},{"arcs":[[-12,20,21,22]],"type":"Polygon","properties":{"GEOID":"471339505011"}},{"arcs":[[-13,-23,23,-19]],"type":"Polygon","properties":{"GEOID":"471339505013"}},{"arcs":[[-11,24,25,-21]],"type":"Polygon","properties":{"GEOID":"471339505021"}},{"arcs":[[-10,26,27,28,-25]],"type":"Polygon","properties":{"GEOID":"471339506002"}},{"arcs":[[29,30,31,32,-27,-9]],"type":"Polygon","properties":{"GEOID":"471339501002"}},{"arcs":[[33,34,-17,35]],"type":"Polygon","properties":{"GEOID":"471339504002"}},{"arcs":[[-33,36,-28]],"type":"Polygon","properties":{"GEOID":"471339506001"}},{"arcs":[[37,38,39,-1,40,-34]],"type":"Polygon","properties":{"GEOID":"471339502001"}},{"arcs":[[-41,-6,-7,-18,-35]],"type":"Polygon","properties":{"GEOID":"471339504001"}},{"arcs":[[41,42,-15,-2,-40]],"type":"Polygon","properties":{"GEOID":"471339503011"}},{"arcs":[[-4,-16,-43,43,-30,-8]],"type":"Polygon","properties":{"GEOID":"471339503021"}},{"arcs":[[-39,44,-31,-44,-42]],"type":"Polygon","properties":{"GEOID":"471339501001"}}]}}}