{"type":"Topology","arcs":[[[7982,11302],[-249,-571]],[[7733,10731],[-125,14],[-41,-2],[-10,-84],[-26,-60],[-33,-26],[-17,-97],[-42,-57],[-16,-129],[-7,-19],[-25,-17],[-44,64],[-109,147],[-34,39],[-168,152]],[[7036,10656],[13,129],[7,16],[34,12],[51,335],[6,66],[-1,120],[-15,40],[223,-26],[32,1],[123,32],[28,25],[31,40],[39,14],[51,-10],[74,-5],[53,-24],[193,-67],[-10,-42],[14,-10]],[[7612,8039],[139,-20],[82,-32],[57,-15],[63,-24],[26,-2],[73,12]],[[8052,7958],[-5,-25],[-49,-64],[-4,-32],[-64,8],[3,-56],[-63,4],[-1,-33],[-49,-5],[32,-59],[-35,-20],[-17,-25],[1,-54],[24,-13],[49,-2],[21,-7],[16,-33]],[[7911,7542],[-36,-10],[-34,-22],[-15,-22],[-35,-82],[-19,-24],[-29,-18]],[[7743,7364],[-50,-26],[-108,18],[-90,41]],[[7495,7397],[29,71],[16,149],[15,79],[50,243],[7,48],[0,52]],[[7497,5488],[110,-28],[170,-19],[96,-13],[17,124]],[[7890,5552],[35,92],[21,17]],[[7946,5661],[53,-99]],[[7999,5562],[108,-199]],[[8107,5363],[64,-120],[69,-139],[102,-191],[39,-85],[152,-381],[34,-84],[40,-58],[137,-176],[94,-170]],[[8838,3959],[119,-223],[-245,32],[-68,11]],[[8644,3779],[-67,108],[-50,73],[-234,305],[-243,318],[-63,97],[-45,85],[-98,193],[-148,286],[-59,86],[-140,158]],[[5465,5585],[-10,-179]],[[5455,5406],[-11,-316],[5,-94],[-1,-71],[15,-74],[-10,-71],[40,-48],[15,-50],[18,-89],[-4,-37],[8,-12],[61,-7],[12,-14],[4,-44],[-9,-112],[13,-38],[11,-149]],[[5622,4180],[-177,25],[-109,12],[-68,14],[-37,21],[-110,83],[-80,57],[-32,10],[-36,52],[-104,8],[-17,-18],[-37,0],[-18,-29],[-31,-5],[-51,6],[-90,-15],[-13,-25],[-34,10],[-35,62],[-15,43],[-4,55],[-8,13],[-58,30]],[[4458,4589],[70,88],[92,126],[82,81],[34,54],[36,104],[21,40],[50,66],[56,64],[58,53],[66,50],[138,85],[304,185]],[[7873,6840],[22,175]],[[7895,7015],[100,-19]],[[7995,6996],[92,-16],[89,-4],[15,-29],[0,-33],[18,-1],[-3,-36],[99,-11]],[[8305,6866],[64,-8],[-1,-59]],[[8368,6799],[-4,-114],[-55,-15],[-197,32],[-132,20],[-9,-74]],[[7971,6648],[-117,31]],[[7854,6679],[19,161]],[[7812,6417],[30,-11],[6,-47],[123,25]],[[7971,6384],[4,-24],[-7,-68],[-11,-22],[-14,-131]],[[7943,6139],[-61,11],[-51,20]],[[7831,6170],[-74,82],[-57,55]],[[7700,6307],[26,22],[45,23],[41,65]],[[6728,8367],[35,54]],[[6763,8421],[31,43],[59,65],[21,39],[14,103],[14,30],[21,20],[39,12]],[[6962,8733],[326,-38],[168,-21],[119,-13]],[[7575,8661],[5,-288]],[[7580,8373],[-48,0],[-130,17],[-29,-53],[-7,-25],[-195,28],[-12,-64]],[[7159,8276],[-254,30],[-28,8],[-23,35],[-126,18]],[[64,3812],[313,-43],[162,3],[184,-25],[87,-10],[364,-79],[30,-14],[400,-68],[67,-21],[171,-88],[63,-25],[69,-9],[146,12],[113,-17],[206,-28],[71,-7],[27,2],[225,29],[208,19],[207,32],[31,7],[48,27],[20,19],[32,49],[85,149]],[[3393,3726],[82,-90],[114,-94],[53,-35],[55,-46],[65,-65],[21,-33],[16,-116],[56,-19],[105,-22],[77,-9],[96,-24]],[[4133,3173],[1,-24],[19,-50],[11,-45],[20,-40],[25,-153],[16,-106],[-1,-53],[-29,-274],[25,-153],[14,-161]],[[4234,2114],[-79,3],[-5,42],[-210,23],[-45,2],[4,31],[-151,30],[13,99],[-597,48],[-313,3],[-460,66],[-457,33],[-1,-47],[-65,-3],[7,54],[-74,-1],[-272,-24],[17,-8],[-30,-153],[-60,-316],[-71,10],[10,83],[-225,32],[4,44],[-249,32],[6,65],[-139,13],[2,32],[-72,10],[-99,7],[13,189],[-84,14],[-130,9],[12,86],[23,37],[12,40],[-132,14],[6,104],[-54,-12],[-22,3],[13,152],[-78,4],[-69,7],[-7,-36],[-69,9],[-33,0],[-24,142],[33,225],[13,145],[12,293],[6,63]],[[9293,5367],[-46,-369],[-19,-2],[-38,-274],[14,-17],[66,-8],[4,-7],[-16,-125],[3,-4],[131,-16],[4,-9],[-13,-119],[34,-75],[25,-25],[44,-26],[29,-45],[4,-18],[-6,-109],[64,-12],[1,-61],[29,-16],[19,-26]],[[9626,4004],[-42,-5],[-14,-30],[-57,-15],[-33,-14],[-42,9],[-15,-10],[-92,-17],[-303,30],[-38,29],[-78,1],[-74,-23]],[[8107,5363],[41,-28],[24,-2],[89,19],[44,15],[102,7],[13,15],[113,1],[145,-5],[46,-5],[56,-13],[98,-16],[66,5],[21,31],[42,3],[24,16],[262,-39]],[[2038,8036],[31,7],[52,0],[25,14],[16,33],[28,12],[76,-24],[173,-28],[47,-5],[35,-42],[68,15],[47,21],[41,0],[16,-18],[25,-5],[27,-33],[27,-12],[29,-26],[51,-9],[57,-74],[56,-17],[20,-25],[51,-20],[25,47],[32,29]],[[3093,7876],[95,-7],[54,-11],[231,-26],[29,-30],[8,-29],[14,-10],[63,-8],[31,-13],[52,-47],[36,-24],[98,-34],[16,-1],[88,21],[130,16],[130,-1],[51,-9],[66,4],[87,-4],[129,12],[68,-2],[125,-27],[63,-17],[71,-24]],[[4828,7605],[-46,-99]],[[4782,7506],[-84,-39],[-74,-41],[-155,-99],[-49,-18],[-35,-7],[-247,-28],[-54,-4],[-279,-3],[-153,-3],[-130,-14],[-376,-82],[-75,-13],[-586,-72],[-102,-19],[-60,-20],[-58,-25]],[[2265,7019],[-35,20],[22,93],[-141,28],[-15,35],[-46,19],[-67,71],[-2,46],[-13,66],[18,27],[-1,42],[-29,33],[-68,333],[43,34],[97,-28],[42,29],[-32,169]],[[3857,12729],[-14,-47],[-10,-62],[0,-45],[-9,-30],[-3,-56]],[[3821,12489],[-20,7],[-71,9],[-21,11],[-51,53],[-31,39]],[[3627,12608],[-21,27],[-9,57],[-25,28],[-36,14],[-67,11],[-30,-4],[-18,9]],[[3421,12750],[76,92],[50,-23],[44,-29],[29,-8],[69,3],[42,-2],[87,-21],[39,-33]],[[3371,11283],[8,9],[6,57],[15,32],[64,-21],[9,55],[31,-9],[22,29],[2,18]],[[3528,11453],[79,-9],[299,-44],[28,-34]],[[3934,11366],[-1,-9],[57,-84]],[[3990,11273],[13,-27],[-48,1],[-65,10],[4,30],[-186,24],[-4,-36],[-59,10],[-18,-81],[-98,16],[-12,-100],[31,-45],[-25,-17]],[[3523,11058],[-81,137],[-71,88]],[[4199,9870],[88,150],[7,32]],[[4294,10052],[8,66]],[[4302,10118],[100,-117],[46,-49]],[[4448,9952],[-150,-143],[-45,-55],[-22,-44],[-53,-125],[-31,-47],[-44,-51]],[[4103,9487],[-11,30],[2,44],[44,128],[14,99],[47,82]],[[3774,10738],[25,21],[19,2],[45,-37],[62,-9],[34,1],[21,13],[80,18],[82,-12],[7,56],[119,-15],[35,30],[22,-6]],[[4325,10800],[151,-216]],[[4476,10584],[-124,13],[-36,-384],[-14,-95]],[[4302,10118],[-181,212],[-17,18]],[[4104,10348],[-122,143],[-149,180],[-59,67]],[[7666,6677],[148,-23],[32,-12]],[[7846,6642],[-24,-187]],[[7822,6455],[-47,7],[-132,28]],[[7643,6490],[23,187]],[[6192,6355],[31,384]],[[6223,6739],[99,-4],[26,-12],[44,-49],[10,-34],[-14,-40],[-17,-96],[-39,-66],[-7,-27],[-8,-122],[5,-21],[28,-32],[25,-50],[25,-29],[1,-31]],[[6401,6126],[-229,29]],[[6172,6155],[20,200]],[[6401,6126],[0,-140],[6,-21],[38,-39],[14,-61]],[[6459,5865],[-352,-83]],[[6107,5782],[-10,45],[-2,63],[10,34],[34,73],[7,74],[22,43],[4,41]],[[7144,8119],[21,4],[79,-10]],[[7244,8113],[-18,-115]],[[7226,7998],[-29,-203],[9,-49],[-114,16],[6,44],[-83,11],[-27,-188]],[[6988,7629],[-37,-16],[-41,-85],[-23,-35],[-57,-62]],[[6830,7431],[-183,174]],[[6647,7605],[15,60],[11,19],[7,64],[25,56],[20,79],[-13,40],[-26,39],[-47,30],[-18,20]],[[6621,8012],[7,151],[63,-4],[96,-14],[67,-5],[63,-37],[22,-5],[53,25],[118,-10],[34,6]],[[3519,10682],[55,50],[23,37],[16,44],[58,51]],[[3671,10864],[103,-126]],[[4104,10348],[-60,-75],[-67,-38],[-68,-71]],[[3909,10164],[-22,-7],[-61,4]],[[3826,10161],[-9,74],[-14,25],[8,19],[-18,17],[14,59],[18,122],[-1,14],[-31,86],[-57,71],[-50,11],[-51,-25],[-63,-3],[-29,-6],[-11,44],[-13,13]],[[3671,10864],[36,31],[20,5],[62,1],[97,48],[88,10],[13,83],[-6,13],[-41,22],[-32,44]],[[3908,11121],[123,92]],[[4031,11213],[217,-309],[77,-104]],[[4704,10885],[29,-25],[19,2],[53,28],[51,-7],[3,-13],[-43,-40],[-15,-58],[-26,-40],[28,-41],[-25,-83],[-46,-55]],[[4732,10553],[-256,31]],[[4325,10800],[39,-39],[12,15],[10,91],[8,19],[69,37],[56,21],[22,2],[86,-10],[34,-19],[21,-25],[22,-7]],[[2007,9544],[34,-24],[69,-27],[35,-19],[151,-39],[24,-10],[187,-106],[25,-18],[113,-99],[77,-51],[44,18],[64,5],[78,-20],[32,16],[68,99],[51,33],[94,-2],[81,-14],[28,5]],[[3262,9291],[35,5],[120,-8],[46,-20],[128,-31],[0,-51],[39,-36]],[[3630,9150],[-26,-44],[-16,-126],[-244,38],[-33,-1],[-48,-13],[-58,-66],[-67,-60],[-49,-15],[-21,-15],[-45,-50],[-17,-41],[17,-40],[66,-101],[49,-67],[33,-74],[44,-51],[86,-15],[-3,-34]],[[3298,8375],[-9,-90]],[[3289,8285],[-14,-58],[-56,-82],[-13,-31],[-15,-103],[-7,-16],[-53,-55],[-38,-64]],[[2038,8036],[-60,309],[-176,184],[-33,35],[-39,87],[2,23],[40,66],[-18,58],[3,22],[44,133],[206,591]],[[6613,8383],[36,14],[18,-22],[20,-4],[18,-25],[23,21]],[[7159,8276],[-20,-134],[5,-23]],[[6621,8012],[-24,13],[-2,92],[-32,13],[-31,-12],[-35,-45],[-44,-36],[-47,-22],[-27,-6],[-20,9],[8,31],[-2,42],[8,22],[58,70],[28,69],[73,40],[33,3],[25,35],[2,22],[21,31]],[[4264,8958],[30,133]],[[4294,9091],[258,-287]],[[4552,8804],[656,-732],[36,-40]],[[5244,8032],[-12,-36],[0,-29],[13,-45],[-5,-137]],[[5240,7785],[-340,-218],[-44,-26],[-74,-35]],[[4828,7605],[16,33],[31,90],[-14,177],[-23,92],[-6,78],[-259,26],[-38,9],[-39,19],[-83,75],[-25,19],[-105,56],[-14,29],[24,215]],[[4293,8523],[32,292],[-5,34],[-48,61],[-8,48]],[[6441,9498],[58,-8],[105,1],[79,-23],[53,1],[55,11],[54,-2],[21,9]],[[6866,9487],[37,-102],[57,-73],[13,-9],[53,-5],[11,-12],[-75,-553]],[[6763,8421],[-18,10],[-100,9],[-20,12],[-24,32],[35,285],[21,113],[9,67],[-12,6],[-89,11],[-11,12],[-12,126],[-13,13],[-41,14],[-28,163],[-13,96],[-6,108]],[[3056,11887],[367,-113]],[[3423,11774],[175,-55],[54,-25],[41,-25],[62,-51],[38,-41],[48,-66]],[[3841,11511],[99,-141],[-6,-4]],[[3528,11453],[-121,24],[-118,14],[-91,14],[-32,43]],[[3166,11548],[52,61],[-64,55],[-16,30],[2,19],[-68,-2],[-20,-18],[-39,43],[16,96],[27,55]],[[3482,12111],[76,-12],[20,-16],[61,5]],[[3639,12088],[100,-14],[44,0]],[[3783,12074],[-9,-83],[18,-26],[20,11],[39,4],[108,-16]],[[3959,11964],[-25,-190],[-51,5],[-11,-10],[-25,-154],[-6,-104]],[[3423,11774],[32,212],[20,72],[7,53]],[[2704,12076],[92,22],[23,10],[55,-8],[37,7],[31,25],[54,66],[47,14],[28,27],[0,27],[47,32],[23,37],[44,5]],[[3185,12340],[2,-29]],[[3187,12311],[-5,-34],[-35,-3],[-36,-51],[-7,-42],[17,-61],[-13,-41],[-2,-31],[61,-9]],[[3167,12039],[-111,-152]],[[3056,11887],[-182,56],[-76,39],[-46,40],[-48,54]],[[6225,6762],[104,33]],[[6329,6795],[57,-62],[126,-144],[-27,-21],[-15,-25],[-18,-51],[5,-44],[37,-37],[35,-13],[92,10],[26,-35],[-3,-34],[-31,-60],[-14,-68],[9,-32],[83,-73],[40,-43],[33,-23]],[[6764,6040],[-34,-35],[-46,-30]],[[6684,5975],[-199,-102],[-26,-8]],[[6223,6739],[2,23]],[[3371,11283],[-69,83],[-49,-40],[-15,-74],[-72,11],[12,80],[-56,8],[-38,29],[-46,13],[24,128],[26,60],[34,27],[44,-60]],[[4476,10584],[155,-216],[67,-91],[142,-209]],[[4840,10068],[-53,-12]],[[4787,10056],[-177,14],[-40,-8],[-24,-17],[-98,-93]],[[3262,9291],[26,34],[18,92],[89,132],[50,18],[33,32],[20,160],[0,62],[11,43],[48,51]],[[3557,9915],[399,-446],[70,-79]],[[4026,9390],[-24,-34],[-15,-42],[-20,-159],[-8,-23],[-31,-30],[-36,-6],[-60,8],[-41,13],[-57,32],[-35,13],[-30,2],[-39,-14]],[[7943,6139],[117,-16],[44,-20]],[[8104,6103],[130,-170]],[[8234,5933],[135,-179]],[[8369,5754],[89,-120],[-143,-13],[-26,-33],[-10,-35],[-19,-7],[-261,16]],[[7946,5661],[-33,68],[-142,329],[18,12],[20,66],[22,34]],[[3523,11058],[-72,-102],[-49,-91],[-85,35],[-4,60],[-19,-2],[-3,-60],[-117,4],[-67,-7],[-3,-21],[28,-3],[-2,-24],[28,-4],[-8,-57]],[[3150,10786],[-89,12],[-14,-127],[-16,-12],[-71,93]],[[2960,10752],[-77,96],[-67,67],[-338,266]],[[2478,11181],[-158,125],[-83,77],[-141,157]],[[2096,11540],[8,73],[43,10],[88,11],[25,-15],[32,17],[51,11],[39,22],[35,38],[32,51],[71,132],[44,53],[33,28],[5,16],[-12,28],[10,18],[31,-3],[73,46]],[[9626,4004],[49,-27],[99,-22],[159,-48],[59,-8],[206,28],[25,15],[6,24],[3,116],[15,62],[5,60],[169,-17],[77,-21],[209,-67],[136,32]],[[10843,4131],[58,-21],[18,-15],[28,-45],[42,-46],[93,-73],[78,-19],[67,-61],[28,-19],[190,-21],[30,-19],[-46,-101],[-79,-122],[-30,-30],[-126,-90],[-125,-47],[-34,-26],[-64,-104],[-27,-30],[-62,-30],[-27,-23],[-226,-389],[-20,-18],[-28,-4],[-141,17],[-70,-1],[-73,-27],[-109,-69],[-40,-30],[-63,-67],[-34,-28],[-30,-13],[-68,-2],[-164,9],[-66,18],[-36,0],[-187,-87],[-50,3]],[[9450,2501],[-361,573]],[[9089,3074],[-445,705]],[[6764,6040],[38,69],[74,165],[16,-27],[254,235],[144,130],[-3,22],[15,89]],[[7302,6723],[55,-67],[22,-20]],[[7379,6636],[-27,-212],[50,-36],[-14,-68],[0,-78],[12,-54],[9,-82],[74,-64],[39,28],[6,41],[24,8],[42,-3],[21,-30],[1,-20],[19,-29],[25,-13],[-2,-55],[-8,-44],[25,-43],[18,-3],[31,-52],[25,-31],[2,-53],[27,-35],[13,-43],[37,-28],[13,-19],[42,-24],[7,-42]],[[7497,5488],[-9,10],[-44,8],[-93,8],[-62,38],[-46,6],[-6,-47]],[[7237,5511],[-12,0],[-81,-34],[-38,-9],[-55,16],[-33,57],[-8,36],[9,14],[-4,31],[-24,39],[-137,138],[-21,5],[-14,-60],[-9,-15]],[[6810,5729],[-41,1],[-28,29],[-11,80],[59,67],[18,53],[-2,36],[-20,33],[-21,12]],[[9293,5367],[3,66],[23,17],[14,127],[-7,97]],[[9326,5674],[64,-16],[11,-26],[165,-16],[37,87],[25,132],[-3,28],[8,73],[20,41],[52,36],[25,47],[25,22],[46,0],[18,36],[6,59],[416,-71],[78,-5],[323,17],[36,-2],[48,-15],[140,-76]],[[10866,6025],[-43,-62],[5,-35],[-8,-41],[0,-42],[-31,-42],[-10,-174],[-17,-110],[4,-27],[28,-50],[9,-80],[17,-64],[-12,-52],[-73,-43],[-30,-23],[-21,-36],[31,-38],[9,-85],[20,-22],[79,-49],[11,-14],[-3,-98],[33,-52],[8,-41],[33,-86],[-8,-69],[-30,-66],[3,-41],[-36,-265],[9,-87]],[[6906,3317],[53,244],[21,90]],[[6980,3651],[52,222],[25,138]],[[7057,4011],[154,-24],[239,-33],[19,23],[234,-24],[13,-37],[147,-16],[6,-9],[-7,-89],[21,-67],[7,-47],[79,-8],[35,-55],[11,-36],[41,-56],[13,-36],[-2,-28],[-45,-93],[-7,-28],[-34,-35],[-34,-16],[10,-54],[-40,-28],[3,-40],[-33,-62],[-8,-63],[-29,-33],[-7,-28],[-40,-29],[-13,-29]],[[7790,2931],[-35,4],[-30,28],[-101,23],[-79,14],[-72,29],[-54,43],[6,61],[-73,28],[-79,73],[-34,8],[-108,14],[-230,35]],[[6901,3291],[5,26]],[[2478,11181],[-22,-219],[-40,-323],[-6,-80]],[[2410,10559],[-13,-105],[-24,-161],[-33,25],[-253,35],[-43,-15],[-29,23],[-68,10]],[[1947,10371],[108,-10],[17,136],[1,94],[77,-2],[20,129],[38,-2],[10,115],[9,54],[-69,9],[2,70],[10,83],[-143,21],[69,472]],[[3990,11273],[41,-60]],[[3908,11121],[-129,-96],[-155,-106]],[[3624,10919],[-37,-29],[-263,-186]],[[3324,10704],[-11,27],[-22,4],[-29,-41],[-48,6],[-21,-7],[-24,31],[-36,20],[17,42]],[[3826,10161],[-32,-10],[-115,-172]],[[3679,9979],[-27,-19],[-61,-14],[-34,-31]],[[3557,9915],[-208,231],[-38,46],[-65,94],[-41,75]],[[3205,10361],[8,14],[26,87],[38,34],[84,31],[49,37],[30,62],[57,36],[22,20]],[[4975,9356],[216,200],[23,6]],[[5214,9562],[62,-88]],[[5276,9474],[206,-292],[74,-100],[-19,-15],[-4,-26],[26,-51],[-18,-186],[-28,-50]],[[5513,8754],[-117,129],[-314,353],[-107,120]],[[8243,6273],[24,14],[43,274]],[[8310,6561],[30,-8]],[[8340,6553],[4,-53],[17,-47],[0,-99],[26,-70],[1,-28],[-9,-79]],[[8379,6177],[-88,13],[-34,-9],[-27,4],[13,88]],[[4936,10888],[21,19],[51,-5],[1,14],[63,-8],[6,33],[25,-11],[43,-2],[10,20],[107,-39],[28,57],[24,-19],[69,-27],[6,-24],[24,-18]],[[5414,10878],[-51,-124],[3,-63],[25,-45],[-25,-11],[-198,25],[-48,-20],[-155,21]],[[4965,10661],[-6,123],[-23,104]],[[2960,10752],[-12,-11],[3,-32],[-27,-32],[-28,-8],[-14,-41],[-25,1],[-5,-22],[12,-33]],[[2864,10574],[-100,14],[-15,-12],[-12,-47],[-21,-28],[-35,-2],[-32,35],[-19,9],[-220,16]],[[7148,4711],[154,-20],[102,-17],[-14,-114],[14,-21],[96,-32],[43,-1],[23,-13],[34,-55],[20,-62],[48,-8],[20,5],[18,-36],[49,-19],[55,40],[33,15],[17,-4],[9,-25],[-12,-62],[0,-38],[12,-35],[25,-13],[67,15],[51,-2],[26,-24],[18,-59],[29,-48],[29,-82],[18,-35],[18,-8],[20,25],[26,-9],[23,-48],[27,-44],[18,-16],[29,13],[17,-9],[58,7],[39,34],[40,-14],[-9,-66],[44,-24],[162,-23]],[[9089,3074],[-67,-57],[-130,-16],[-57,8],[-75,2],[-35,-3],[-1,-55],[-6,-11],[-324,42],[-44,8],[-149,18],[-9,-179],[-14,-138],[16,-44],[-4,-65],[-29,3],[-63,26],[-55,70],[-119,144],[-10,67],[-45,1],[-4,46],[-75,-10]],[[7057,4011],[47,190],[4,30],[7,202],[33,278]],[[5573,7031],[24,89]],[[5597,7120],[26,-9],[52,-40],[1,-53],[45,-7],[9,67],[29,-3],[-9,-68],[260,1],[-20,132],[12,24]],[[6002,7164],[327,-369]],[[6225,6762],[-53,-28],[-53,-11]],[[6119,6723],[-239,-15],[-97,5],[-38,-2]],[[5745,6711],[-85,-18],[-98,5],[-50,-7]],[[5512,6691],[-16,70],[8,73],[40,91],[29,106]],[[8118,8572],[92,-8],[151,-25],[86,-22],[81,-14],[24,1],[95,16],[73,-6],[167,-23]],[[8887,8491],[-154,-174],[-33,-47],[-35,-65],[-39,-96]],[[8626,8109],[-117,15],[-5,5],[11,76],[-85,17],[-225,34]],[[8205,8256],[0,25],[-19,55],[-37,51],[0,36],[-26,76],[5,31],[-10,42]],[[5186,7128],[56,37],[-19,54],[25,50],[-16,72],[18,21],[31,15],[22,53],[11,3],[65,-29],[28,14],[56,-24],[40,6],[19,18],[15,52],[19,19]],[[5556,7489],[32,-21],[94,-33],[-85,-315]],[[5573,7031],[-85,20],[-113,39],[-118,10],[-79,-5],[8,33]],[[4026,9390],[77,97]],[[4448,9952],[67,-80],[94,-106]],[[4609,9766],[-19,-34],[-16,-14],[-69,7],[-22,14],[-39,2],[-16,-9],[-12,-50],[-61,-57],[-13,-29],[-4,-63],[10,-40],[-12,-73],[3,-32],[27,-38],[17,-9],[-2,-31],[-21,-8],[-19,-27],[-33,-117],[-14,-67]],[[4294,9091],[-106,116],[-92,106],[-70,77]],[[8084,7144],[103,166],[102,193]],[[8289,7503],[41,-25],[17,-27],[3,-33],[-34,-142],[-3,-54],[18,-125],[0,-33],[-15,-47],[-7,-62],[-4,-89]],[[7995,6996],[14,28],[75,120]],[[8251,7518],[132,160],[74,56]],[[8457,7734],[13,-9],[158,-20],[44,-70],[8,-28],[40,-59],[4,-16],[-6,-67],[-27,-78],[-71,-189],[-30,-44],[-2,-29]],[[8588,7125],[-10,-62],[5,-106],[-9,-28],[-29,-30],[-16,-52],[-26,-59]],[[8503,6788],[-35,38],[-19,-12],[-81,-15]],[[8289,7503],[-38,15]],[[3783,12074],[15,97],[-7,41],[10,93]],[[3801,12305],[6,58],[-15,64],[7,27],[22,35]],[[3857,12729],[38,-27],[14,-32],[66,20],[1,24],[15,20],[100,279]],[[4091,13013],[18,-7],[69,11],[31,51],[-14,294],[41,62],[53,41]],[[4289,13465],[34,-14],[21,-18],[36,-58],[43,-47],[54,-34],[39,6],[57,32],[94,18],[92,10],[35,-11],[50,-45],[19,-25],[26,-65],[2,-21],[-14,-41],[-17,-26],[-49,-27],[-46,-1],[-36,10],[-120,3],[-41,-7],[-24,-14],[-14,-32],[9,-64],[24,-31],[51,-26],[79,-8],[38,-23],[29,-52],[-5,-93],[11,-76],[33,-105],[38,-47],[40,-30]],[[4877,12503],[35,-23],[1,-27],[-39,-10],[-2,-38],[29,-29],[12,-51],[-11,-35],[-38,-13],[-48,46],[-63,-20],[-31,-35],[-7,-21],[2,-46],[-35,-29],[-171,-51],[-70,-14],[-68,-32],[-20,4],[-18,-20],[-42,-5],[-38,-34],[-52,-14],[-50,-74],[-194,32]],[[5356,10502],[146,-17],[29,9]],[[5531,10494],[82,-18],[45,-45],[120,-18],[61,-32],[-3,-33],[-40,-61],[-3,-31],[44,-41],[6,-21],[-11,-75],[24,-53],[6,-39],[-10,-54],[-42,-69],[-18,-37],[-47,-50],[-37,-8],[-53,-2],[-101,-40],[-60,-5],[-19,-8],[2,-32],[17,-44],[14,-17],[57,0],[95,10],[56,-52],[0,-22],[-54,-24],[-38,-36]],[[5624,9537],[-32,5],[-43,-7],[-10,22],[-60,18],[-110,-24],[-53,-49],[-40,-28]],[[5214,9562],[53,6],[25,211],[107,-13],[52,-29],[26,72],[3,50],[21,200],[3,11],[101,172],[-26,-9],[-128,7],[6,61],[85,-10],[10,86],[-19,27],[-100,46],[-44,15],[-33,37]],[[5123,12512],[43,-32],[73,-21],[29,-18],[16,-26],[-3,-24],[-21,-67],[-44,-79],[12,-55],[31,-45],[48,-26],[42,0],[93,17],[71,34],[105,22],[85,30],[36,49],[69,34],[32,3],[41,-14],[32,-27],[14,-44],[-43,-27],[-17,-21],[-114,-75],[-99,-45],[-47,-29],[-14,-20],[-6,-65],[17,-63],[-3,-25],[-41,-44],[-66,-36],[-33,-37],[-29,-68],[3,-49],[28,-187],[15,-46],[36,-68],[3,-52]],[[5517,11266],[-69,-31],[-136,-29],[-83,-26],[-49,-6],[-170,20]],[[5010,11194],[5,100],[31,-15],[86,344],[-40,3],[0,20],[-41,-1],[1,69],[5,43],[-16,41],[23,28],[16,97],[17,47],[2,41],[31,14],[5,58],[-121,14],[-3,-29],[-33,2]],[[4978,12070],[22,165],[18,38],[27,27],[57,31],[23,21],[21,42],[-1,51],[-22,67]],[[5465,5585],[69,44]],[[5534,5629],[73,31],[162,40]],[[5769,5700],[90,20],[248,62]],[[6107,5782],[13,-45],[48,-63],[2,-19],[-10,-130],[29,-59],[2,-59],[-15,-23],[-55,-16],[2,-30],[14,-17],[53,-13],[32,-25],[15,-37],[-7,-106],[-18,-100]],[[6212,5040],[-96,17],[-20,7],[-31,31],[-42,60],[-107,52],[-134,72],[-74,36],[-48,10],[-34,14],[-62,49],[-39,16],[-70,2]],[[7416,6940],[6,46],[57,-7],[25,-19]],[[7504,6960],[-13,-106],[100,-12],[-22,-151]],[[7569,6691],[-181,24]],[[7388,6715],[28,225]],[[7204,6860],[16,14],[95,167]],[[7315,7041],[83,2],[-12,-100],[30,-3]],[[7388,6715],[-9,-79]],[[7302,6723],[-60,77],[-38,60]],[[7504,6960],[98,-10]],[[7602,6950],[-9,-86],[83,54]],[[7676,6918],[3,-58],[194,-20]],[[7854,6679],[-8,-37]],[[7666,6677],[-97,14]],[[5032,6668],[49,4],[72,21],[43,4],[228,-18],[88,12]],[[5745,6711],[-3,-63],[-25,-91],[-17,-26],[-7,-44],[13,-18],[-16,-34],[-33,-26],[-26,-5],[-16,-21],[30,-84]],[[5645,6299],[9,-33],[3,-101],[-7,-56],[-10,-25],[-4,-76],[-15,-21],[-27,-16],[-39,-41],[-8,-23],[8,-37],[41,-19],[0,-35],[-50,-48],[-18,-59],[-2,-44],[-16,-20]],[[5510,5645],[-165,10]],[[5345,5655],[-39,108],[30,240],[23,208],[-168,20],[-35,-3],[-23,12],[-5,22],[58,45],[3,20],[-21,19],[-65,1],[-12,9],[-5,64],[38,37],[13,72],[-5,21],[-41,21],[2,36],[-12,27],[-49,34]],[[7237,5511],[-14,-116]],[[7223,5395],[-79,6],[-18,-17],[-6,-25],[-18,-11],[-101,11],[-4,-35],[-25,-8],[-8,-64],[-70,10],[-45,-27]],[[6849,5235],[-48,53],[22,19],[22,4],[8,66],[-35,15],[-11,28],[-3,46],[6,263]],[[6212,5040],[121,-15],[179,-19],[10,1]],[[6522,5007],[4,-29],[29,-39],[9,-40]],[[6564,4899],[-9,-33],[-9,-91],[4,-78],[-10,-55],[-87,-260],[-38,-135],[-26,-48],[-61,-55],[-24,-45],[-13,-86],[-21,-47],[-26,-24],[-55,-39],[-28,-41],[-187,-213],[-29,-22],[-34,-12],[-139,-22]],[[5772,3593],[5,69],[14,84],[4,86],[-19,69],[-30,28],[-9,47],[-15,40],[-25,47],[-13,80],[-16,13],[-39,3],[-7,21]],[[8340,6553],[124,-26]],[[8464,6527],[113,-25],[120,-39],[-8,-81],[52,-75]],[[8741,6307],[42,-66],[39,-27],[63,-56],[8,-25],[-9,-34],[-18,-176],[-9,-76],[-14,-144],[-223,24]],[[8620,5727],[-19,353],[-150,-24],[-79,-4]],[[8372,6052],[4,18],[3,107]],[[7602,6950],[28,242]],[[7630,7192],[75,-7]],[[7705,7185],[102,-10],[28,-10],[50,-29],[22,-31]],[[7907,7105],[-12,-90]],[[7895,7015],[-70,-8],[-30,-13],[-119,-76]],[[7922,7284],[10,71],[89,-12]],[[8021,7343],[29,-4],[60,29],[22,16],[21,47],[11,95]],[[8164,7526],[87,-8]],[[8251,7518],[-265,-323]],[[7986,7195],[-42,34],[-28,5],[6,50]],[[7907,7105],[79,90]],[[7986,7195],[40,-33],[58,-18]],[[7758,7253],[45,-5],[10,79],[57,-6],[-11,-80],[31,-4],[7,48],[25,-1]],[[7705,7185],[10,73],[43,-5]],[[7911,7542],[69,21]],[[7980,7563],[-10,-45],[24,-3],[9,-36],[27,-27],[-2,-91],[-7,-18]],[[7758,7253],[6,66],[-21,45]],[[8052,7958],[14,-2],[150,-56],[50,0],[36,19],[31,5],[85,-12],[44,-12],[64,-28]],[[8526,7872],[-45,-106],[-24,-32]],[[8164,7526],[-26,5],[-71,33],[-23,6],[-64,-7]],[[8503,6788],[3,-67],[-31,-14],[9,-72],[-1,-41],[-19,-67]],[[8310,6561],[-64,16]],[[8246,6577],[-275,71]],[[7315,7041],[15,25],[67,86],[22,61]],[[7419,7213],[211,-21]],[[5645,6299],[18,-6],[184,-25],[-6,-68],[11,-17],[29,7]],[[5881,6190],[-6,-23],[-68,-105],[-8,-21],[-1,-181],[-28,-96],[-1,-64]],[[5534,5629],[-24,16]],[[7812,6417],[10,38]],[[8246,6577],[-65,-3],[-83,-36],[-102,-52],[-44,-16],[19,-86]],[[4787,10056],[7,-29],[52,-22],[22,-36],[-40,-307],[-29,-44],[-17,-46]],[[4782,9572],[-173,194]],[[3679,9979],[68,-10],[50,10],[74,-38],[14,19],[72,-7],[31,11],[53,-4],[9,-35],[23,-20],[42,-4],[40,-25],[44,-6]],[[4859,10081],[28,49],[41,293],[35,105]],[[4963,10528],[3,-1]],[[4966,10527],[158,-17],[148,-13],[32,8],[52,-3]],[[5214,9562],[-237,338],[-48,70],[-29,60],[-41,51]],[[4840,10068],[19,13]],[[4975,9356],[-79,88]],[[4896,9444],[-114,128]],[[8626,8109],[-100,-237]],[[7612,8039],[-25,257]],[[7587,8296],[210,-30],[55,15],[38,20],[52,-2],[132,-23],[131,-20]],[[1832,5121],[0,-86],[36,-94],[20,-33],[30,-32],[25,-52],[33,-6],[47,-22],[35,-9],[140,-60],[71,-40],[85,-45],[46,-63],[151,-100],[73,-12],[39,-20],[129,-89],[45,-22],[89,-33],[68,-41],[60,-86],[23,-11],[22,-38],[-7,-72],[10,-5],[90,-15],[30,-29],[23,-35],[37,-86],[48,-78],[63,-81]],[[64,3812],[17,137],[-1,19],[81,11],[25,19],[7,-27],[-4,-41],[253,-30],[23,17],[22,168],[11,-1],[31,282],[74,-2],[-2,97],[58,-10],[17,8],[10,75],[8,9],[178,-22],[9,-46],[19,-20],[2,-28],[31,-12],[15,178],[24,230],[-7,17],[-35,23],[-46,-11],[-21,22],[4,24],[54,50],[8,37],[-17,40],[-29,43],[12,45],[310,-32],[2,21],[48,-3],[19,151],[220,-20],[56,-8],[82,-4],[2,28],[168,-16],[27,-21],[3,-88]],[[7428,7262],[10,26]],[[7438,7288],[57,109]],[[7419,7213],[9,49]],[[4732,10553],[231,-25]],[[3671,10864],[-47,55]],[[4133,3173],[249,-61],[31,0],[254,26],[109,43],[51,2],[39,8],[83,-3],[25,4],[53,30],[82,30],[91,27],[19,26],[18,97],[233,46],[90,0],[11,16],[6,57],[13,13],[84,-7],[42,1],[52,-11]],[[5768,3517],[2,-113],[11,-26],[123,18],[63,-13],[77,-11]],[[6044,3372],[13,-106],[4,-68],[-14,-83],[15,-38],[-29,-39],[13,-48],[-3,-22],[-54,-41],[-33,-31],[-72,-5],[-45,-35],[-15,-25],[-1,-74],[-6,-26],[41,-45],[2,-24],[-33,-52],[-78,-34],[-76,-71],[-27,-8],[-40,14],[-43,-12],[-11,-33],[-60,-20],[-29,-63],[-20,-65],[-25,-52],[-90,-81],[-28,-37],[3,-19],[-24,-26],[17,-12],[-13,-27],[-50,-31],[-45,3],[-25,14],[-1,-51],[42,-90],[6,-27],[1,-183],[-4,-54],[16,-58],[17,-23],[8,-39],[99,-11],[37,4],[95,34],[110,20],[139,1],[100,-7],[147,10],[145,-23],[220,-27],[42,-13],[119,-51],[151,-104],[17,-8],[17,55]],[[6686,1405],[-77,-386]],[[6609,1019],[-114,-69],[-32,-27],[-30,-54],[-29,-30],[-38,-20],[-56,-21],[-43,-9],[-70,17],[-24,13],[-57,-2],[-10,-78],[-237,30],[-24,-219],[-147,20],[20,218],[-284,34],[27,249],[-134,20],[-242,32],[-14,37],[-134,10],[8,83],[-147,19],[8,91],[-58,13],[7,64],[-90,14],[12,94],[-47,11],[-64,6],[17,126],[-105,15],[2,26],[-152,22],[8,93],[58,-8],[18,163],[10,68],[-113,4],[-5,-78],[-68,5],[2,61],[-4,52]],[[3909,10164],[90,-84],[81,-10],[61,1],[37,-8],[116,-11]],[[3549,12342],[47,0],[62,-31],[26,-8]],[[3684,12303],[-12,-18],[-25,-173],[-8,-24]],[[3482,12111],[2,16],[35,28],[30,187]],[[3549,12342],[18,49],[10,96],[17,33],[6,53],[27,35]],[[3801,12305],[-56,-17],[-41,4],[-20,11]],[[5244,8032],[9,30],[4,50],[11,29],[26,29],[12,27],[15,61],[32,41],[55,185],[48,170],[26,59],[31,41]],[[5624,9537],[-4,-31],[9,-25],[24,-25],[61,-33],[39,-43],[30,-12],[39,-4],[12,-11],[25,-63],[-25,-42],[-14,-60],[5,-75],[28,-45],[31,-23]],[[5884,9045],[-16,-18],[-46,-11],[8,-55],[-4,-13],[-49,-19],[-5,-46],[-20,-93],[26,-50],[-10,-32],[-44,11],[-15,-11],[3,-33],[18,-16],[36,-12],[-1,-25],[-51,-96],[0,-24],[-30,-7],[-46,25],[-38,1],[-13,-45],[-4,-135],[5,-34],[67,-81],[1,-49],[-63,-96],[35,-89],[44,-34],[0,-20]],[[5672,7938],[-11,-53],[-53,-20],[-7,-32],[17,-39],[-6,-30],[-27,-23],[15,-26],[33,-1],[36,-14],[38,-99],[11,-46],[-26,-31]],[[5692,7524],[-14,-35],[-64,-13],[-58,13]],[[5186,7128],[12,76],[-1,30],[-13,60],[7,80],[-11,80],[12,54],[19,46],[8,116],[16,52],[5,63]],[[7226,7998],[57,-12],[66,-37],[29,-7],[-11,-116],[-25,2],[-9,-67],[-28,-63],[-5,-61],[15,-41],[-2,-24]],[[7313,7572],[-41,5],[-42,13],[-242,39]],[[8372,6052],[-19,-29],[-119,-90]],[[8104,6103],[17,30],[17,156],[105,-16]],[[3421,12750],[-26,17],[-94,-5],[-2,34],[-73,29]],[[3226,12825],[10,31],[71,69],[16,103],[-59,126],[-10,49],[43,10],[6,37],[-22,30],[36,37],[103,-50],[165,-12],[95,35],[10,327],[-57,80],[-12,169],[50,56],[43,-35],[105,-267],[41,-30],[227,27],[48,-104],[-129,-415],[50,-72],[35,-13]],[[7575,8661],[346,-42],[118,-42],[79,-5]],[[7587,8296],[-7,77]],[[3324,10704],[-58,-42],[-49,-27],[-99,-32],[-40,-22],[-78,-52],[-62,-47],[-25,-31]],[[2913,10451],[-18,26],[-8,51],[-23,46]],[[3185,12340],[29,2],[85,23],[20,66],[15,20],[7,48],[-112,192],[-25,73],[22,61]],[[3549,12342],[-35,5],[-92,-25],[-53,7],[-45,-11],[-41,5],[-96,-12]],[[5032,6668],[-13,21],[7,27],[26,23],[22,39],[-1,20],[-19,25],[39,60],[-21,50],[13,43],[33,52],[42,38],[12,48],[14,14]],[[5881,6190],[185,-22],[19,166],[6,17],[47,9],[54,-5]],[[6684,5975],[7,-25],[-27,-210],[-9,-50],[-25,-46],[-20,-60],[-17,-23],[-38,-35],[-40,-22],[-27,-69],[-20,-35],[23,-41],[54,-37],[12,-20],[3,-81],[-20,-60],[-18,-154]],[[7223,5395],[-9,-101],[-13,-82],[-31,-245]],[[7170,4967],[-201,23],[-63,-9],[-31,1]],[[6875,4982],[8,65],[-9,73],[5,78],[-30,37]],[[6875,4982],[-166,20],[-44,-18]],[[6665,4984],[-80,-59],[-21,-26]],[[7612,8039],[-74,13],[-224,32],[-38,9],[-32,20]],[[5692,7524],[125,-140],[-10,0],[195,-220]],[[4896,9444],[-52,-52],[-32,-9],[-23,-205],[-26,-88],[-21,-9],[-27,13],[-16,-8],[-25,-83],[-30,-53],[-68,-45],[-5,-53],[-19,-48]],[[5881,6190],[4,46],[17,28],[61,0],[39,19],[15,96],[51,31],[11,53],[-26,55],[1,40],[9,25],[41,37],[9,24],[6,79]],[[2975,10176],[96,10],[40,14],[21,16],[38,44],[20,70],[15,31]],[[2007,9544],[34,102],[-239,303]],[[1802,9949],[19,9],[52,4],[70,-3],[209,26],[83,-12],[111,-21],[24,11],[49,6],[32,16],[49,53],[47,8],[140,44],[80,41],[69,9],[63,-3],[76,39]],[[5414,10878],[12,5],[37,-17]],[[5463,10866],[-24,-34],[33,-45],[24,-20],[40,-7],[94,5],[77,-47],[-8,-29],[-69,-33],[-16,-25],[-49,-47],[-31,-40],[-11,-37],[8,-13]],[[4966,10527],[10,42],[0,48],[-11,44]],[[4954,11181],[28,14],[28,-1]],[[5517,11266],[-2,-24],[-18,-42],[3,-34],[19,-45],[39,-16],[42,-1],[19,20],[29,90],[5,48],[14,24],[137,32],[32,-1],[37,-22],[-6,-31],[-29,-37],[-32,-24],[-24,-56],[3,-33],[38,-46],[37,-29],[19,-46],[-12,-32],[-21,-18],[-39,-18],[-27,-26]],[[5780,10899],[-145,-16],[-127,-4],[-45,-13]],[[4936,10888],[0,28],[29,219],[-11,46]],[[4954,11181],[-31,20],[-63,8],[40,308],[24,197],[47,292],[7,64]],[[3167,12039],[141,-23],[18,17],[1,32],[42,60],[113,-14]],[[8620,5727],[-251,27]],[[7170,4967],[-11,-121],[-1,-55],[-10,-80]],[[6980,3651],[-121,9],[-208,28],[-1,44],[20,44],[-18,61],[-18,24],[24,16],[11,29],[29,28],[44,31],[9,27],[-11,32],[2,59],[60,29],[22,-9],[2,58],[-26,29],[-2,27],[-76,57],[-12,20],[9,21],[70,24],[3,26],[-62,65],[1,39],[20,16],[40,19],[16,16],[-4,33],[-34,36],[-10,25],[-38,54],[-24,84],[-6,49],[6,34],[25,35],[-1,20],[-56,94]],[[2913,10451],[24,-21],[15,-53],[17,-29],[3,-24],[-8,-40],[11,-108]],[[1802,9949],[-4,20],[12,106],[54,-4],[5,43],[-1,94],[5,42],[-25,-1],[-23,14],[-24,66],[77,42],[69,-13],[0,13]],[[7709,9257],[47,-53],[75,-24],[8,-12],[-19,-81],[-3,-31],[16,-81],[21,-13],[36,-3],[30,32],[37,58],[16,11],[31,-8],[82,-88],[40,11],[14,56],[38,54],[130,9],[20,10],[53,52],[17,9],[41,2],[14,-12],[44,-66],[-3,-17],[-34,-59],[0,-27],[24,-62],[40,-39],[71,-29],[25,4],[25,20],[24,57],[31,12],[58,-2],[16,-42]],[[8774,8905],[5,-17],[56,-118],[22,-25],[59,-23],[38,-5],[32,42],[6,28],[-16,28],[-28,8],[-25,18],[-2,28],[17,63],[-6,75],[17,122],[25,27],[44,-21],[25,-79],[12,-26],[48,-66],[24,-11],[17,9],[50,63],[55,37],[42,-6],[65,6],[36,-7],[71,-60]],[[9463,8995],[-63,-53],[-45,-45],[-37,-51],[-53,-49],[-215,-142],[-78,-68],[-85,-96]],[[7575,8661],[-3,260],[21,107],[40,116],[35,123],[41,-10]],[[6044,3372],[31,69],[11,6],[219,-24],[74,-2],[214,-29],[91,-17],[62,-57],[74,-14],[54,18],[32,-5]],[[6901,3291],[-27,-119],[-18,-94],[-23,-92],[-29,-133],[-83,-384],[-6,-69],[5,-182],[10,-76],[18,-63],[32,-85],[11,-53],[-3,-32],[-102,-504]],[[5768,3517],[4,76]],[[3289,8285],[52,-10],[54,0],[69,34],[35,-18],[10,-29],[80,-11],[30,132],[21,67],[68,-5],[71,6],[10,9],[27,248],[8,6],[166,-23],[56,-50],[55,-33],[111,-9],[8,-9],[-5,-51],[18,-10],[60,-6]],[[4031,11213],[50,34],[56,8],[84,-35],[65,-10],[242,-31],[40,12],[51,64],[54,16],[-2,-58],[-63,-31],[-18,-48],[13,-22],[37,-8],[49,-46],[43,-27],[19,-21],[8,-36],[-5,-18],[-69,-31],[19,-40]],[[7495,7397],[-36,27],[-85,118],[-22,19],[-39,11]],[[6830,7431],[49,-50],[44,-52],[50,-70],[31,20],[-24,40],[-16,44],[2,53],[196,-15],[40,-13],[80,-11]],[[7282,7377],[51,-8],[9,-22],[0,-38],[96,-21]],[[7428,7262],[-75,18],[-80,11],[-31,-1],[-86,11],[-15,-116],[-2,-49],[46,-5],[-3,-28],[-25,-6],[-7,-64],[-44,-1]],[[7106,7032],[-56,1],[-90,19]],[[6960,7052],[-61,16]],[[6899,7068],[29,60],[23,86],[-11,48],[-65,44],[-21,40],[-10,56],[-27,17],[-58,15],[-17,10],[-26,36],[-76,65],[-8,26],[15,34]],[[7204,6860],[-98,172]],[[6988,7629],[-4,-31],[68,-11],[45,-30],[162,-21],[-4,-29],[28,-4],[2,-101],[-3,-25]],[[6960,7052],[56,-82],[177,-250],[11,-21],[-88,-64],[-26,-5],[-197,28],[-116,27],[-72,31],[-5,32]],[[6700,6748],[142,5],[-15,56],[6,89],[-24,30],[-30,8],[-92,1],[-68,-14],[-21,4],[-21,27],[-6,38],[24,29],[21,10],[53,2],[77,23],[57,-12],[27,-20],[31,-6],[36,28],[2,22]],[[7535,6488],[68,6],[40,-4]],[[7700,6307],[-105,102],[-60,79]],[[7535,6488],[-18,40],[-60,61],[-78,47]],[[6450,12797],[107,-81],[196,-154],[122,-75],[428,-250],[24,161],[278,-35],[-16,-152],[-16,-102],[-108,14],[272,-449],[27,23],[22,48],[13,77],[11,29],[40,24],[56,-4],[58,-23],[16,-23],[24,-63],[35,-21],[-12,-110],[16,-13]],[[8043,11618],[-20,-162],[-10,-63],[-31,-91]],[[7036,10656],[-128,114],[-157,122],[-92,46],[-65,22],[-23,1],[-59,-16],[-135,-49],[-36,-10],[-26,4],[-39,27]],[[6276,10917],[114,212],[42,87],[45,120],[20,75],[15,78],[10,84],[2,129],[-37,751],[-8,103],[-29,241]],[[4289,13465],[4,3],[37,347],[42,-3],[17,154],[31,336],[129,-108],[189,-155],[223,-170],[215,-176],[287,-238],[4,13],[65,-10],[-4,-39],[95,-8],[53,-10],[-9,-47],[275,-177],[-2,-4],[237,-163],[117,-90],[-28,-81],[52,-14],[31,-28],[33,-7],[26,40],[42,-33]],[[6276,10917],[-105,-197]],[[6171,10720],[-39,22],[-18,23],[-5,54],[16,58],[31,78],[-4,19],[-49,14],[-32,-16],[-56,-39],[-29,-47],[-3,-36],[13,-54],[-6,-29],[-24,-9],[-69,53],[-61,33],[-45,31],[-11,24]],[[5123,12512],[-52,-7],[-67,-35],[-34,-11],[-18,4],[-44,31],[-31,9]],[[3298,8375],[83,14],[25,-3],[25,-17],[33,5],[31,-20],[46,29],[-13,26],[23,38],[27,21],[9,25],[39,18],[-6,23],[43,26],[25,62],[-6,39],[18,10],[22,-9],[55,4],[12,20],[-3,31],[30,30],[21,80],[28,39],[9,24],[-1,48],[40,45],[27,-1],[18,11],[70,-7],[236,-28]],[[7706,9584],[36,36],[27,10],[22,-9],[17,-93],[0,-39],[-8,-24],[-44,-44],[-26,-37],[-28,-60],[-3,-53],[10,-14]],[[6866,9487],[92,53],[95,73],[81,21],[23,19],[28,-3],[168,-28],[62,-13],[27,-29],[-10,-75],[6,-5],[147,-14],[52,-9],[36,21],[31,2],[2,84]],[[6171,10720],[78,-72],[60,-27],[43,-7],[32,15],[94,58],[12,78],[-10,67],[37,83],[36,12],[47,-45],[42,-33],[18,-28],[20,-101],[65,-49],[66,-80],[10,-25],[-8,-46],[-57,-16],[-27,-13],[-28,-40],[-2,-47],[31,-13],[39,-7],[55,4],[28,14],[58,13],[76,-5],[39,-19],[11,-30],[-6,-71],[10,-14],[39,-15],[86,-1],[20,-17],[8,-128],[12,-26],[61,-31],[29,2],[36,41],[69,100],[31,-3],[10,-60],[38,-127],[1,-15],[-20,-62],[-72,-110],[-22,-50],[3,-34],[24,-6],[89,14],[26,-21],[13,-33],[43,-76],[16,-16],[53,-20],[45,-4],[28,6]],[[6441,9498],[-17,11],[-71,-8],[-79,9],[-53,2],[-73,-12],[-133,9],[-68,24],[-131,19],[-108,12],[-16,-2],[-31,-24],[-37,-1]],[[8043,11618],[270,-192],[160,-108],[154,-140],[325,-306],[51,65],[23,-20],[14,24],[74,-41],[38,23],[189,-18],[-25,-163],[2,-4]],[[9318,10738],[-67,-106],[-12,-57],[-23,-38],[-26,-69],[-118,21],[-84,10],[-79,3],[-22,-165],[-8,-26],[-3,-56],[3,-32],[-27,-126],[-9,-86],[-19,-40],[-28,-23],[-42,-16],[-37,-76],[-39,-53],[-28,-57],[-6,-46],[-25,-100],[-15,-20],[-61,-34],[-10,-78],[30,-22],[28,-6],[351,-48],[-3,-78],[-32,-140],[-4,-88],[-19,-22],[1,-35],[-6,-54],[-14,-10],[-61,-1],[-13,-38],[-17,-21]],[[7706,9584],[7,107],[3,98],[-2,392],[-1,77],[-20,293],[1,56],[10,52],[29,72]],[[5672,7938],[22,-12],[17,-43],[14,-8],[222,-28],[225,-24],[55,-1],[64,62],[122,-140],[143,-158],[21,45],[19,22],[51,-48]],[[6700,6748],[-52,-3],[-80,9],[-177,41],[-62,0]],[[9450,2501],[549,-870],[113,-175],[79,-91],[350,-343],[76,-79],[54,-81],[42,-85],[64,-142],[82,-188],[19,-52]],[[10878,395],[-101,5],[-184,-6],[5,71],[-75,107],[-51,-1],[-25,50],[-67,6],[-43,40],[-13,45],[-62,10],[-43,-11],[-35,36],[-59,23],[-62,39],[-27,81],[-45,-7],[-29,21],[-34,-23],[-51,-2],[4,-49],[23,-43],[-11,-52],[-41,-1],[-29,15],[-2,29],[-20,25],[-33,12],[-33,35],[-42,5],[-49,-26],[-54,-3],[-42,-22],[-26,14],[-67,5],[-16,47],[-15,22],[8,56],[17,28],[33,-11],[31,7],[16,43],[2,35],[32,11],[9,40],[-20,25],[-48,37],[-23,51],[-83,-10],[-41,9],[-22,24],[-3,38],[-35,-1],[-50,-11],[-79,-11],[-40,36],[-47,1],[-12,8],[-96,-14],[-23,23],[-37,-7],[-41,-46],[-57,-38],[-51,-45],[-38,4],[-32,29],[18,50],[6,38],[-54,28],[-52,3],[-36,32],[-56,-18],[12,-81],[-41,-43],[-43,-22],[-33,18],[-47,39],[-50,-5],[-50,-75],[10,-71],[70,-23],[18,-46],[-35,-89],[-175,6],[-5,51],[-75,4],[-13,-26],[-53,-15],[-27,-72],[-55,-36],[-40,-7],[-65,-36],[-38,7],[-43,33],[-25,-55],[-19,-74],[21,-40],[66,-68],[14,-49],[-6,-23],[-23,-25],[0,-33],[26,-26],[36,-84],[-5,-23],[-25,-7],[-64,4],[-65,-10],[-46,-32],[-25,-7],[-5,-53],[-20,-9],[-55,-11],[-43,0],[-45,32],[-108,-18],[-9,-82],[-13,-18],[-48,-25],[-38,-9],[-27,-39],[-37,-29],[-9,-34],[-38,7],[-44,99],[-37,21],[-67,7],[-45,-13],[-55,14],[-76,71],[-10,19],[-15,61],[11,13],[-3,29],[53,98],[0,58],[36,62],[10,89],[-131,18],[18,194],[33,0],[4,73],[-199,4],[19,95]],[[2394,6911],[62,-17],[50,-5],[238,0],[50,-2],[571,-117],[353,-88],[82,-13],[407,-17],[112,5],[30,-4],[99,-32],[51,-5],[101,6],[100,15],[332,31]],[[5345,5655],[-44,2],[-57,-40],[-415,47],[-180,29],[-36,9],[-31,16],[-38,6],[-32,-19],[-58,-21],[-66,-15],[-177,21],[-48,-1],[-15,-15],[-5,-37],[-26,-27],[-82,-28],[-119,10],[-65,-28],[-63,-5],[-55,-14],[-57,-3],[-91,-58],[-40,-41],[-65,-101],[-102,-24],[-79,18],[-90,12],[-23,11],[-54,65],[-72,39],[-65,15],[-39,17],[-30,27],[-51,19],[-62,44],[-78,26],[-65,32],[-39,8],[-93,30],[-86,12],[-45,27],[-62,5],[-39,-16],[-64,12],[-88,-44],[-78,1]],[[2076,5678],[-131,-44],[-17,-39],[6,-44],[-71,-14],[-11,52],[-51,36],[-4,21],[15,38],[17,69],[13,96],[39,17],[18,-26],[52,3],[1,18],[40,2],[3,-81],[95,1],[17,117],[-12,55],[15,91],[7,65],[-41,3],[-150,32],[-149,23],[4,88],[8,82],[74,-8],[122,-21],[23,223],[310,-3],[5,43],[41,40],[-3,90],[14,18],[-10,112],[34,32],[-5,46]],[[8588,7125],[60,11],[133,43],[114,28],[57,20],[112,54],[76,51],[78,36],[61,21],[155,44],[131,46],[10,-90],[-10,-44],[-3,-68],[17,-51],[42,-39],[46,-52],[78,-46],[57,-39],[23,-8],[65,-53]],[[9890,6989],[-7,-40],[-4,-82],[-26,-46],[-56,-69],[-71,-41],[-23,-36],[-24,-61],[-26,-29],[-82,-35],[-41,-58],[-8,-32],[-27,-23],[-51,-77],[-15,-37],[17,-3],[-8,-77]],[[9438,6243],[-234,40],[-51,4],[-176,-1],[-53,2],[-183,19]],[[5884,9045],[25,8],[33,69],[69,11],[40,-34],[7,-29],[2,-57],[-13,-16],[-45,-17],[-35,-35],[-7,-31],[11,-52],[24,-47],[64,-31],[67,-45],[47,-25],[28,-33],[33,-76],[52,-58],[17,-29],[30,-26],[48,-25],[34,-25],[25,-6],[74,18],[30,16],[43,1],[28,-24],[9,-23],[-11,-41]],[[2394,6911],[-5,49],[-111,30],[-13,29]],[[10634,10348],[3,29],[125,-19],[-27,-194],[128,-27],[206,-24],[20,114],[284,-11],[14,50],[31,15],[-4,92],[9,32],[147,3],[-1,-51],[169,-21],[-12,-119],[115,-11]],[[11841,10206],[-7,-35],[-31,-26],[-21,-38],[-38,-15],[-15,-56],[0,-36],[16,-84],[50,-62],[6,-22],[-5,-52],[-42,-64],[-43,-30],[17,-36],[29,-28],[-7,-64],[39,-56],[19,-54],[3,-35],[18,-25],[39,-4],[1,-24],[-13,-100],[-24,-50],[-10,-96],[-175,41],[-149,28],[-68,8],[-122,8],[-132,25],[-40,5],[-128,2],[-60,-4],[-423,-69],[-29,-1],[-253,39]],[[10243,9196],[10,14],[109,65],[14,13],[33,84],[9,193],[11,37],[30,58],[52,144],[1,25],[-11,58],[2,23],[55,175],[34,154],[34,80],[8,29]],[[9318,10738],[29,20],[-15,-78],[556,-106],[-11,-68],[737,-125],[-2,-26],[22,-7]],[[10243,9196],[-303,44],[-34,0],[-40,-14],[-248,-143],[-92,-41],[-63,-47]],[[9438,6243],[-6,-65],[-42,-95],[-43,-47],[-41,-58],[-27,-85],[29,-43],[2,-55],[10,-42],[-9,-44],[15,-35]],[[9463,8995],[15,-33],[-47,-25],[-29,-45],[-6,-25],[32,-26],[63,5],[21,-12],[22,-70],[23,-35],[91,-38],[21,-27],[3,-28],[-38,-71],[12,-26],[42,-47],[9,-20],[-11,-55],[6,-29],[22,-9],[23,9],[23,68],[23,41],[13,4],[34,-41],[31,-14],[67,14],[56,-13],[28,-18],[100,-120],[33,-56],[1,-21],[-40,-16],[-50,-9],[-71,-35],[-80,-17],[-6,-44],[10,-14],[102,-69],[39,-43],[2,-77],[23,-35],[27,2],[54,15],[47,-52],[35,-6]],[[10238,7832],[-42,-52],[-33,-76],[-2,-16],[14,-84],[27,-3],[-32,-197],[25,-52],[4,-22],[-22,-59],[-30,-67],[-15,-60],[-39,-36],[-41,-27],[-40,-9],[-54,-33],[-37,-6],[-26,-21],[-5,-23]],[[1832,5121],[249,-26],[58,409],[-23,20],[-22,48],[-1,51],[-17,55]],[[4458,4589],[-55,-67],[-39,-32],[-304,-222],[-295,-194],[-195,-100],[-49,-35],[-32,-45],[-96,-168]],[[11841,10206],[72,-8],[2,33],[395,-37],[-14,-127],[384,-19],[3,26],[-118,24],[-3,42],[51,4],[42,-6],[77,-30],[13,30],[64,-4],[-6,51],[9,49],[92,-9],[-12,-118],[8,-74],[112,-6],[0,-59],[89,-5],[4,-167],[-18,-176],[-11,-1],[-33,-304],[324,-539],[-41,-56],[-19,-10],[-16,-32],[-16,-75],[-175,17],[-72,-622],[-96,11],[-1,-19],[53,-4],[-19,-207],[-104,9],[4,76],[-141,21],[-4,-126],[-8,-70],[25,-5],[12,-18],[-91,-51],[-41,-33],[7,-35],[-53,-436],[-10,-67],[-3,-47],[-53,13],[2,-59],[45,-31],[-1,-30],[-59,5],[-4,-18],[54,-4],[-58,-522]],[[12484,6351],[-34,48],[-6,46],[-35,25],[-80,20],[-43,40],[-35,-2],[-19,-20],[-13,-47],[-33,-20],[-34,11],[-24,28],[-10,35],[7,61],[28,57],[32,36],[-25,89],[-34,39],[-36,11],[-53,-2],[-33,10],[-18,18],[-50,81],[-24,15],[-6,29],[34,23],[24,77],[-13,62],[-11,88],[-52,67],[-84,42],[-64,-10],[-18,28],[-18,6],[-52,-4],[-23,-9],[-16,-20],[2,-90],[-17,-19],[-28,6],[-38,60],[-7,56],[-9,24],[-33,40],[9,103],[-15,35],[0,56],[-8,19],[-79,0],[-20,-7],[-22,-34],[-43,-34],[-26,3],[-17,14],[1,45],[10,23],[6,77],[26,38],[-8,59],[-18,21],[-33,3],[-38,-51],[-20,-44],[-48,-34],[-5,-38],[-41,-42],[-34,-20],[-30,13],[-12,59],[8,57],[-4,33],[-33,44],[-31,19],[-21,-5],[-45,-27],[-26,33],[-43,12],[-46,-23],[-68,-44],[-28,-51],[-12,-35],[-15,-10],[-27,9],[-51,39],[-6,27],[30,59],[-20,17],[-58,-29],[-93,-1],[-18,23],[-27,66],[13,72],[-3,26],[-20,18],[-47,-8],[-25,-40],[-17,-71],[-19,-21],[-28,-7]],[[12484,6351],[-10,-96]],[[12474,6255],[-46,-21],[-281,-336],[-102,-92],[-112,-114],[-11,-39],[-86,2],[-49,9],[-85,35],[-107,54],[-100,45],[-82,41],[-160,69],[-229,44],[-41,13],[-117,60]],[[12474,6255],[-16,-122],[0,-37],[17,-51],[40,-76],[-13,-118],[-23,-172],[-15,-141],[-15,-20],[-19,-58],[-28,-45],[0,-85],[-18,-55],[39,-42],[-177,28],[-5,-106],[17,-33],[4,-40],[-6,-71],[-54,-11],[8,-43],[0,-52],[-13,-45],[21,-40],[2,-65],[31,-49],[-18,-55],[-18,-107],[45,-67],[38,4],[38,-24],[49,-12],[-16,-148],[-87,9],[-10,-70],[-19,-69],[-37,-65],[37,-84],[-57,-55],[-34,-13],[-12,-63],[-68,-243],[-210,-125],[-8,-37],[-21,-37],[-19,-18],[-40,-54],[9,-34],[0,-38],[42,-35],[50,-23],[16,-16],[-41,-35],[-41,-54],[10,-58],[-16,-35],[15,-67],[-12,-60],[-24,-11],[-13,-29],[-3,-46],[-13,-49],[28,-173],[14,-38],[-1,-40],[-28,-46],[-50,19],[-23,-17],[-24,-1],[-44,-38],[-32,-7],[-45,33],[-22,52],[8,21],[-39,50],[-49,7],[-13,-8],[-18,-67],[-20,-57],[-58,-54],[-25,-50],[-2,-23],[15,-16],[32,-59],[-5,-11],[-56,1],[-63,-17],[-46,-37],[-16,-43],[-12,-12],[-55,-22],[-67,-14],[-58,24],[-30,-32],[-52,-6],[-20,-17],[-32,-80],[-2,-23],[18,-17],[32,-9],[6,-50],[16,-18],[-4,-19],[-29,-32],[-9,-24],[39,-66],[1,-55],[36,-44],[0,-52],[12,-50],[5,-67],[-49,-52],[-39,-11],[-61,4],[-22,-20],[-6,-23],[27,-78],[47,-5],[31,-13],[22,-49],[40,-29],[30,-35],[-2,-45],[-38,-52],[-11,-63],[-21,-52],[5,-33],[-31,-29],[-20,-67],[2,-25],[34,-48],[-15,-46],[35,-59],[27,-27],[3,-54],[19,-21],[-2,-18],[-23,-44],[-20,-19],[1,-35],[-61,-36]]],"transform":{"scale":[0.00004178192563776447,0.000033700391553629336],"translate":[-86.700265,35.618627]},"objects":{"Geometry\\47-149":{"type":"GeometryCollection","geometries":[{"arcs":[[0,1,2]],"type":"Polygon","properties":{"GEOID":"471490405012"}},{"arcs":[[3,4,5,6,7]],"type":"Polygon","properties":{"GEOID":"471490414011"}},{"arcs":[[8,9,10,11,12,13,14]],"type":"Polygon","properties":{"GEOID":"471490412012"}},{"arcs":[[15,16,17,18]],"type":"Polygon","properties":{"GEOID":"471490408092"}},{"arcs":[[19,20,21,22,23,24,25]],"type":"Polygon","properties":{"GEOID":"471490415001"}},{"arcs":[[26,27,28,29,30]],"type":"Polygon","properties":{"GEOID":"471490419003"}},{"arcs":[[31,32,33,34,35,36]],"type":"Polygon","properties":{"GEOID":"471490413013"}},{"arcs":[[37,38,39,40]],"type":"Polygon","properties":{"GEOID":"471490408101"}},{"arcs":[[41,42,-13,43]],"type":"Polygon","properties":{"GEOID":"471490412022"}},{"arcs":[[44,45,46,47,48]],"type":"Polygon","properties":{"GEOID":"471490408073"}},{"arcs":[[49,50,51,52]],"type":"Polygon","properties":{"GEOID":"471490401021"}},{"arcs":[[53,54,55,56,57]],"type":"Polygon","properties":{"GEOID":"471490401053"}},{"arcs":[[58,59,60,61,62]],"type":"Polygon","properties":{"GEOID":"471490403081"}},{"arcs":[[63,64,65,66,67]],"type":"Polygon","properties":{"GEOID":"471490403041"}},{"arcs":[[68,69,70,71]],"type":"Polygon","properties":{"GEOID":"471490419002"}},{"arcs":[[72,73,74,75]],"type":"Polygon","properties":{"GEOID":"471490409042"}},{"arcs":[[-75,76,77,78]],"type":"Polygon","properties":{"GEOID":"471490409043"}},{"arcs":[[79,80,81,82,83,84,85]],"type":"Polygon","properties":{"GEOID":"471490413021"}},{"arcs":[[86,87,-68,88,89,90]],"type":"Polygon","properties":{"GEOID":"471490403071"}},{"arcs":[[91,92,93,-64,-88]],"type":"Polygon","properties":{"GEOID":"471490403051"}},{"arcs":[[94,95,-65,96]],"type":"Polygon","properties":{"GEOID":"471490422002"}},{"arcs":[[97,98,99,100,101,-45,102]],"type":"Polygon","properties":{"GEOID":"471490408062"}},{"arcs":[[103,-37,104,-86,105]],"type":"Polygon","properties":{"GEOID":"471490413011"}},{"arcs":[[106,107,108,109,110,-47,111,112]],"type":"Polygon","properties":{"GEOID":"471490408071"}},{"arcs":[[113,114,-33,115]],"type":"Polygon","properties":{"GEOID":"471490410002"}},{"arcs":[[116,117,118,-55,119,120]],"type":"Polygon","properties":{"GEOID":"471490401052"}},{"arcs":[[121,122,123,124,-118,125]],"type":"Polygon","properties":{"GEOID":"471490401041"}},{"arcs":[[126,127,128,129,130]],"type":"Polygon","properties":{"GEOID":"471490401042"}},{"arcs":[[131,132,133,134,-77,-74,135]],"type":"Polygon","properties":{"GEOID":"471490409041"}},{"arcs":[[-120,-54,136]],"type":"Polygon","properties":{"GEOID":"471490401051"}},{"arcs":[[137,138,139,-61,-66]],"type":"Polygon","properties":{"GEOID":"471490403031"}},{"arcs":[[140,141,142,-99]],"type":"Polygon","properties":{"GEOID":"471490408063"}},{"arcs":[[-29,143,144,145,146,-11,147]],"type":"Polygon","properties":{"GEOID":"471490420001"}},{"arcs":[[-131,-121,-137,-58,148,149,150,151,152]],"type":"Polygon","properties":{"GEOID":"471490402001"}},{"arcs":[[-14,-43,153,154,155,156]],"type":"Polygon","properties":{"GEOID":"471490406003"}},{"arcs":[[157,158,159,-9,160,161,162]],"type":"Polygon","properties":{"GEOID":"471490418003"}},{"arcs":[[163,164,165,-154,-42]],"type":"Polygon","properties":{"GEOID":"471490406004"}},{"arcs":[[166,167,168,169,170]],"type":"Polygon","properties":{"GEOID":"471490407023"}},{"arcs":[[-152,171,172,173]],"type":"Polygon","properties":{"GEOID":"471490408121"}},{"arcs":[[-57,174,-93,175,176,177,-149]],"type":"Polygon","properties":{"GEOID":"471490403122"}},{"arcs":[[-91,178,179,180,181]],"type":"Polygon","properties":{"GEOID":"471490403072"}},{"arcs":[[182,183,184,185]],"type":"Polygon","properties":{"GEOID":"471490403103"}},{"arcs":[[186,187,188,189]],"type":"Polygon","properties":{"GEOID":"471490421011"}},{"arcs":[[190,191,192]],"type":"Polygon","properties":{"GEOID":"471490404042"}},{"arcs":[[-151,193,194,-172]],"type":"Polygon","properties":{"GEOID":"471490408122"}},{"arcs":[[195,-157,196,-169,197]],"type":"Polygon","properties":{"GEOID":"471490407022"}},{"arcs":[[198,199,200,-132,201,202,203,204]],"type":"Polygon","properties":{"GEOID":"471490409062"}},{"arcs":[[205,206,207,208]],"type":"Polygon","properties":{"GEOID":"471490411032"}},{"arcs":[[209,210,-199,211]],"type":"Polygon","properties":{"GEOID":"471490409073"}},{"arcs":[[212,-62,213,214,215]],"type":"Polygon","properties":{"GEOID":"471490403091"}},{"arcs":[[216,217,-22,218]],"type":"Polygon","properties":{"GEOID":"471490414062"}},{"arcs":[[219,220,221,222,-23,-218,223]],"type":"Polygon","properties":{"GEOID":"471490414071"}},{"arcs":[[224,225,-50,226,227,228,229,-124]],"type":"Polygon","properties":{"GEOID":"471490401012"}},{"arcs":[[230,231,232,-184,233]],"type":"Polygon","properties":{"GEOID":"471490423012"}},{"arcs":[[234,235,236,237]],"type":"Polygon","properties":{"GEOID":"471490404052"}},{"arcs":[[238,239,240,241,242,-16]],"type":"Polygon","properties":{"GEOID":"471490409112"}},{"arcs":[[243,244,245,246]],"type":"Polygon","properties":{"GEOID":"471490416021"}},{"arcs":[[247,248,-247,249,-159,250]],"type":"Polygon","properties":{"GEOID":"471490416023"}},{"arcs":[[251,252,253,-26,254,-69,255,-245]],"type":"Polygon","properties":{"GEOID":"471490416013"}},{"arcs":[[256,-204,257,258,259,260]],"type":"Polygon","properties":{"GEOID":"471490409072"}},{"arcs":[[-162,261,262,263]],"type":"Polygon","properties":{"GEOID":"471490409102"}},{"arcs":[[-243,264,265,266,267,-17]],"type":"Polygon","properties":{"GEOID":"471490407032"}},{"arcs":[[268,269,270,271,272,-189]],"type":"Polygon","properties":{"GEOID":"471490421014"}},{"arcs":[[273,274,275,276,277,-253]],"type":"Polygon","properties":{"GEOID":"471490416012"}},{"arcs":[[278,279,280,281,282]],"type":"Polygon","properties":{"GEOID":"471490414051"}},{"arcs":[[283,284,-219,-21,-277]],"type":"Polygon","properties":{"GEOID":"471490414063"}},{"arcs":[[285,-283,-284,-276,286]],"type":"Polygon","properties":{"GEOID":"471490414052"}},{"arcs":[[287,288,-279,-286,289,-6]],"type":"Polygon","properties":{"GEOID":"471490414043"}},{"arcs":[[290,291,-220,-281,292,-288,-5]],"type":"Polygon","properties":{"GEOID":"471490414012"}},{"arcs":[[-223,293,-269,-188,294,295,-24]],"type":"Polygon","properties":{"GEOID":"471490421023"}},{"arcs":[[296,297,-274,-252,-244,-249]],"type":"Polygon","properties":{"GEOID":"471490416022"}},{"arcs":[[-259,298,299,-240,300]],"type":"Polygon","properties":{"GEOID":"471490409091"}},{"arcs":[[-20,-254,-278]],"type":"Polygon","properties":{"GEOID":"471490416011"}},{"arcs":[[301,-70,-255,-25,-296,302,-27]],"type":"Polygon","properties":{"GEOID":"471490421022"}},{"arcs":[[-140,303,304,-214]],"type":"Polygon","properties":{"GEOID":"471490403102"}},{"arcs":[[-180,305,-63,-213,-142]],"type":"Polygon","properties":{"GEOID":"471490403084"}},{"arcs":[[306,307,308,-234,309]],"type":"Polygon","properties":{"GEOID":"471490423013"}},{"arcs":[[-139,310,-310,-183,311,312,-304]],"type":"Polygon","properties":{"GEOID":"471490403101"}},{"arcs":[[-208,313,-291,-4,314,315]],"type":"Polygon","properties":{"GEOID":"471490411031"}},{"arcs":[[316,-38,317]],"type":"Polygon","properties":{"GEOID":"471490408102"}},{"arcs":[[318,319,-7,-290,-287,-275,-298,320]],"type":"Polygon","properties":{"GEOID":"471490414041"}},{"arcs":[[321,-307,-311,-138,-96]],"type":"Polygon","properties":{"GEOID":"471490423011"}},{"arcs":[[-176,-92,322]],"type":"Polygon","properties":{"GEOID":"471490403112"}},{"arcs":[[323,324,325,326,327,-40]],"type":"Polygon","properties":{"GEOID":"471490407041"}},{"arcs":[[-90,328,-59,-306,-179]],"type":"Polygon","properties":{"GEOID":"471490403082"}},{"arcs":[[-224,-217,-285,-282]],"type":"Polygon","properties":{"GEOID":"471490414061"}},{"arcs":[[329,330,-122,331]],"type":"Polygon","properties":{"GEOID":"471490401062"}},{"arcs":[[332,-51,-226,333,-330]],"type":"Polygon","properties":{"GEOID":"471490401071"}},{"arcs":[[-293,-280,-289]],"type":"Polygon","properties":{"GEOID":"471490414042"}},{"arcs":[[-110,334,-185,-233,335,336,337,338,-210,339]],"type":"Polygon","properties":{"GEOID":"471490423021"}},{"arcs":[[340,341,-82]],"type":"Polygon","properties":{"GEOID":"471490413023"}},{"arcs":[[-190,-273,342,-145,343]],"type":"Polygon","properties":{"GEOID":"471490421012"}},{"arcs":[[-227,-53,344,345]],"type":"Polygon","properties":{"GEOID":"471490401022"}},{"arcs":[[346,-209,-316,347,-35]],"type":"Polygon","properties":{"GEOID":"471490411041"}},{"arcs":[[-150,-178,348,349,-194]],"type":"Polygon","properties":{"GEOID":"471490403121"}},{"arcs":[[350,-345,-52,-333,351,-128]],"type":"Polygon","properties":{"GEOID":"471490401072"}},{"arcs":[[-212,-205,-257,352]],"type":"Polygon","properties":{"GEOID":"471490409071"}},{"arcs":[[353,-76,-79,-241,-300]],"type":"Polygon","properties":{"GEOID":"471490409081"}},{"arcs":[[-135,354,-265,-242,-78]],"type":"Polygon","properties":{"GEOID":"471490409111"}},{"arcs":[[-263,355,356,357]],"type":"Polygon","properties":{"GEOID":"471490409103"}},{"arcs":[[-134,-163,-264,-358,358,359,-266,-355]],"type":"Polygon","properties":{"GEOID":"471490409101"}},{"arcs":[[-36,-348,-315,360,-80,-105]],"type":"Polygon","properties":{"GEOID":"471490413012"}},{"arcs":[[361,-200,-211,-339]],"type":"Polygon","properties":{"GEOID":"471490409061"}},{"arcs":[[-305,-313,362,-108,-215]],"type":"Polygon","properties":{"GEOID":"471490403092"}},{"arcs":[[-202,-136,-73,-354,363]],"type":"Polygon","properties":{"GEOID":"471490409082"}},{"arcs":[[364,-181,-141,-98,365,366]],"type":"Polygon","properties":{"GEOID":"471490408112"}},{"arcs":[[-192,367,368,-231,-309,369]],"type":"Polygon","properties":{"GEOID":"471490404041"}},{"arcs":[[-312,-186,-335,-109,-363]],"type":"Polygon","properties":{"GEOID":"471490403093"}},{"arcs":[[370,-236,371,372,-368,-191,373]],"type":"Polygon","properties":{"GEOID":"471490404043"}},{"arcs":[[-203,-364,-299,-258]],"type":"Polygon","properties":{"GEOID":"471490409092"}},{"arcs":[[-237,-371,374]],"type":"Polygon","properties":{"GEOID":"471490404051"}},{"arcs":[[375,-126,-117,-130]],"type":"Polygon","properties":{"GEOID":"471490401043"}},{"arcs":[[-343,-272,376,-146]],"type":"Polygon","properties":{"GEOID":"471490421013"}},{"arcs":[[-359,-357,377,-198,-168,378]],"type":"Polygon","properties":{"GEOID":"471490407033"}},{"arcs":[[-89,-67,-60,-329]],"type":"Polygon","properties":{"GEOID":"471490403083"}},{"arcs":[[-173,-195,-350,379,-367,380]],"type":"Polygon","properties":{"GEOID":"471490408111"}},{"arcs":[[381,382,383,-206,-347,384]],"type":"Polygon","properties":{"GEOID":"471490411042"}},{"arcs":[[385,-171,386,-326]],"type":"Polygon","properties":{"GEOID":"471490407042"}},{"arcs":[[-352,-332,-376,-129]],"type":"Polygon","properties":{"GEOID":"471490401061"}},{"arcs":[[-303,-295,-187,-344,-144,-28]],"type":"Polygon","properties":{"GEOID":"471490421021"}},{"arcs":[[387,-267,-360,-379,-167,-386,-325]],"type":"Polygon","properties":{"GEOID":"471490407031"}},{"arcs":[[-177,-323,-87,-182,-365,-380,-349]],"type":"Polygon","properties":{"GEOID":"471490403111"}},{"arcs":[[388,-112,-46,-102]],"type":"Polygon","properties":{"GEOID":"471490408072"}},{"arcs":[[389,-97,-94]],"type":"Polygon","properties":{"GEOID":"471490422001"}},{"arcs":[[-361,-8,390,-341,-81]],"type":"Polygon","properties":{"GEOID":"471490413022"}},{"arcs":[[-84,391,392,-319,393,394,395,396]],"type":"Polygon","properties":{"GEOID":"471490417001"}},{"arcs":[[-321,-297,-248,397,-394]],"type":"Polygon","properties":{"GEOID":"471490417002"}},{"arcs":[[398,-392,-83]],"type":"Polygon","properties":{"GEOID":"471490417003"}},{"arcs":[[-342,-391,-320,-393,-399]],"type":"Polygon","properties":{"GEOID":"471490417004"}},{"arcs":[[-396,399,400]],"type":"Polygon","properties":{"GEOID":"471490418001"}},{"arcs":[[401,-71,-302,-31,402]],"type":"Polygon","properties":{"GEOID":"471490419001"}},{"arcs":[[-246,-256,-72,-402,403,-250]],"type":"Polygon","properties":{"GEOID":"471490419004"}},{"arcs":[[-334,-225,-123,-331]],"type":"Polygon","properties":{"GEOID":"471490401011"}},{"arcs":[[404,405,-3,406,407]],"type":"Polygon","properties":{"GEOID":"471490405013"}},{"arcs":[[408,-408,409,410,-372,-235,411,-229]],"type":"Polygon","properties":{"GEOID":"471490405014"}},{"arcs":[[-230,-412,-238,-375,-374,-193,-370,-308,-322,-95,-390,-175,-56,-119,-125]],"type":"Polygon","properties":{"GEOID":"471490422003"}},{"arcs":[[412,-113,-389,-101]],"type":"Polygon","properties":{"GEOID":"471490408061"}},{"arcs":[[413,-385,-34,-115,414]],"type":"Polygon","properties":{"GEOID":"471490410001"}},{"arcs":[[-373,-411,415,-415,-114,416,-232,-369]],"type":"Polygon","properties":{"GEOID":"471490410004"}},{"arcs":[[-1,-406,417,418,-382,-414,419]],"type":"Polygon","properties":{"GEOID":"471490405021"}},{"arcs":[[-407,-2,-420,-416,-410]],"type":"Polygon","properties":{"GEOID":"471490405011"}},{"arcs":[[420,-397,-401,421,-201,-362,-338]],"type":"Polygon","properties":{"GEOID":"471490409011"}},{"arcs":[[-356,-262,-161,-15,-196,-378]],"type":"Polygon","properties":{"GEOID":"471490412011"}},{"arcs":[[-404,-403,-30,-148,-10,-160]],"type":"Polygon","properties":{"GEOID":"471490420002"}},{"arcs":[[-327,-387,-170,-197,-156,422,423]],"type":"Polygon","properties":{"GEOID":"471490407021"}},{"arcs":[[424,-261,425,426]],"type":"Polygon","properties":{"GEOID":"471490408082"}},{"arcs":[[-143,-216,-107,-413,-100]],"type":"Polygon","properties":{"GEOID":"471490408064"}},{"arcs":[[-294,-222,427,428,429,-270]],"type":"Polygon","properties":{"GEOID":"471490411022"}},{"arcs":[[430,-106,-85,-421,-337]],"type":"Polygon","properties":{"GEOID":"471490409012"}},{"arcs":[[-48,-111,-340,-353,-425,431]],"type":"Polygon","properties":{"GEOID":"471490408081"}},{"arcs":[[432,433,434]],"type":"Polygon","properties":{"GEOID":"471490405023"}},{"arcs":[[435,-435,436,-383,-419]],"type":"Polygon","properties":{"GEOID":"471490405022"}},{"arcs":[[-377,-271,-430,437,-164,-44,-12,-147]],"type":"Polygon","properties":{"GEOID":"471490412021"}},{"arcs":[[-417,-116,-32,-104,-431,-336]],"type":"Polygon","properties":{"GEOID":"471490410003"}},{"arcs":[[-314,-207,-384,438,439,-428,-221,-292]],"type":"Polygon","properties":{"GEOID":"471490411021"}},{"arcs":[[440,-426,-260,-301,-239,-19,441,-317]],"type":"Polygon","properties":{"GEOID":"471490408091"}},{"arcs":[[-18,-268,-388,-324,-39,-442]],"type":"Polygon","properties":{"GEOID":"471490408093"}},{"arcs":[[-437,-434,442,443,-439]],"type":"Polygon","properties":{"GEOID":"471490405024"}},{"arcs":[[-422,-400,-395,-398,-251,-158,-133]],"type":"Polygon","properties":{"GEOID":"471490418002"}},{"arcs":[[-429,-440,-444,444,445,-165,-438]],"type":"Polygon","properties":{"GEOID":"471490406001"}},{"arcs":[[-155,-166,-446,446,-423]],"type":"Polygon","properties":{"GEOID":"471490406002"}}]}}}