{"type":"Topology","arcs":[[[7923,3669],[14,45],[30,48],[6,19]],[[7973,3781],[179,-119]],[[8152,3662],[-39,-60],[-109,74],[-12,-19],[-45,29],[-24,-17]],[[9877,11917],[-1,89]],[[9876,12006],[27,11],[28,1],[0,-19],[54,6]],[[9985,12005],[1,-99],[-31,-137]],[[9955,11769],[-33,5],[-60,-31]],[[9862,11743],[15,174]],[[2009,10320],[481,-175],[41,-14],[447,-163],[210,-77],[44,-11],[29,6],[9,-9],[40,2],[11,-42],[30,-34],[18,-9],[23,5],[62,-44],[8,-19],[18,-4],[11,39],[28,33],[54,-21],[27,11],[46,-8],[51,52],[25,7],[29,-4],[-6,-20],[37,-7],[6,-21],[35,-11],[22,-18],[15,11],[20,-7],[28,17],[23,-8],[11,32],[19,11],[22,42],[-2,13],[25,13],[-8,32],[-6,74],[-75,60],[-22,22],[16,21],[22,43],[55,39],[19,27],[19,3],[62,54],[3,22],[15,15],[5,32],[19,4],[46,39],[7,16],[32,15],[15,34],[28,5],[21,17],[12,-39],[57,-13],[51,1],[17,12],[14,-10],[57,-5]],[[4487,10408],[-2,-20],[34,-15],[23,-32],[13,-79],[30,-22],[57,-5]],[[4642,10235],[24,-11],[-17,-34],[-44,-27],[-13,-29],[3,-64],[22,-41],[58,-31],[27,-24],[4,-24],[-16,-31],[-26,-2],[-47,28],[-32,4],[-13,-7],[-20,-70],[-32,-57],[-14,-50],[-3,-44],[7,-20],[41,-36],[14,-21],[0,-33],[-21,-52]],[[4544,9559],[1,-31],[12,-14],[53,-35],[22,-28],[17,-57],[19,-25],[28,12],[13,94],[26,12],[14,-19],[20,-83],[-4,-38],[-36,-111],[3,-48],[13,-38],[34,-14],[26,35],[-6,70],[8,27],[14,6],[53,-6],[30,-16],[20,-25],[-13,-44],[-17,-26],[-63,-52],[-5,-17],[20,-18],[22,-5],[68,-6],[21,-9],[7,-21],[-19,-43]],[[4945,8986],[-9,-37],[1,-109],[-18,-69],[12,-37],[30,2],[29,26],[33,-7],[15,-31],[20,-22],[66,-33],[82,-13],[44,-39],[20,-36],[19,-63],[-2,-23],[-101,-69],[-19,-73],[-28,-27],[-32,-17],[-131,-109],[-43,-43],[-20,-32],[-4,-32],[-17,-64],[-23,-18],[-64,-3],[-16,-5],[-11,-31],[26,-41],[7,-53],[-24,-30],[-27,-8],[-58,11],[-86,10],[-111,-17],[-17,-24],[1,-50],[-10,-35],[-21,-12],[-33,2],[-45,15],[-29,-4],[-15,-26],[11,-48],[54,-81],[2,-46],[10,-51],[78,-89],[29,-20],[96,-33],[3,-27],[-35,-34],[-15,-26],[-7,-32],[-18,-38],[-16,-16],[-37,-10],[-41,-20],[-28,-26],[-24,-53],[-19,-22],[-77,18],[-25,-6],[-26,-31]],[[4251,7019],[-44,25]],[[4207,7044],[-1,89],[13,96],[-14,105],[-25,58],[-61,68],[-38,17],[-38,50],[-104,-16],[-69,-3],[-4,8],[-86,-2],[3,-48],[-53,-30],[-5,9],[-48,-25],[-25,30],[-10,26]],[[3642,7476],[-33,59],[-16,16],[-18,36],[-20,24],[-6,36],[-43,11],[-18,29],[-43,20],[-13,28],[-30,36],[-57,4],[-40,16],[-20,15],[-10,34],[-25,25],[-41,13],[-25,41],[18,37],[38,48],[26,14],[19,22],[-7,44],[-54,25],[-42,8],[-26,31],[-44,27],[-12,25],[-24,16],[-60,3],[-45,-23],[-35,9],[-69,164]],[[2867,8369],[-29,72],[-321,756],[-164,383],[-213,481],[-131,259]],[[8619,8885],[28,1],[13,-21],[31,-13],[35,-41],[14,-28],[33,21],[24,-8],[15,-29],[48,-60],[19,-2],[40,-28],[36,8],[28,-39],[21,-7],[0,-19],[25,-10],[25,-45],[28,-22],[17,-2],[27,-39],[-1,-29],[36,-33],[17,-44],[26,-6],[-20,-26],[8,-22],[-26,-5],[-17,-24],[23,-48],[-1,-19],[24,-6],[7,-29],[-32,-41],[-25,-8],[7,-28],[-19,-11],[2,-20],[-23,-2],[9,-23],[-6,-43],[3,-38],[11,-28],[42,-79],[52,-58],[235,-451],[-154,-83],[-362,-190],[-42,-17],[-47,-7]],[[8853,7084],[18,36],[29,20],[30,30],[-7,23],[-48,37],[7,15],[38,1],[-10,34],[26,35],[-15,12],[-31,-3],[-6,29],[-17,13],[-16,-7],[-28,10],[-26,-14],[-28,7],[-18,19],[42,16],[-3,21],[-34,0],[-14,17],[4,34],[18,10],[3,18],[-23,10],[-11,18],[16,37],[-8,16],[-50,-7],[-21,30]],[[8670,7601],[5,16],[28,32],[-6,28],[-38,8],[-52,74],[-44,48],[-63,35],[-7,17],[-40,51],[-76,43],[-32,45],[-3,26],[-21,28],[-53,11],[-34,-19],[-43,15],[-12,28],[2,26],[28,-3],[33,22],[5,45],[-30,21],[-24,8],[-42,-14],[-23,18],[-5,28],[19,40],[7,30],[17,22],[-4,23],[268,310],[189,222]],[[6949,4473],[54,131],[12,22]],[[7015,4626],[53,-37]],[[7068,4589],[104,-45]],[[7172,4544],[65,-14],[156,3],[58,-6],[99,-48],[74,-45],[25,-2],[36,6],[-46,106],[-23,92]],[[7616,4636],[-18,76]],[[7598,4712],[88,-124],[42,-42],[27,4],[44,60],[76,70],[-17,28],[-6,97],[-28,11],[-57,-1],[-5,7],[-3,63]],[[7759,4885],[75,-9],[26,6],[46,23],[16,38],[-10,74],[6,26],[46,44],[47,30],[121,61],[38,26],[27,33],[90,188]],[[8287,5425],[144,-181],[84,-108],[112,-202],[29,-49],[2,-26],[-19,-81],[6,-206]],[[8645,4572],[5,-250],[-6,-39],[-11,-18],[-72,-95],[-23,-45],[-44,-127],[-32,-51],[-78,-75],[-75,-106]],[[8309,3766],[-10,-14]],[[8299,3752],[-155,208],[-115,161],[-9,3],[-59,-29]],[[7961,4095],[-3,6],[-96,-48]],[[7862,4053],[-104,-53],[-27,-27],[2,-45]],[[7733,3928],[-25,14],[-52,51],[-26,16],[-28,-6],[-21,-21],[-17,-56],[-29,-28],[-47,-16],[-32,4],[-28,18],[-13,59],[-9,17],[-23,10],[-116,-17],[-51,13],[-37,31],[-76,102],[-93,87],[-25,42],[-12,39],[0,82],[-15,19],[-21,10]],[[6937,4398],[-8,31],[20,44]],[[9453,11944],[144,172],[98,2]],[[9695,12118],[9,0]],[[9704,12118],[6,-205]],[[9710,11913],[-66,-37]],[[9644,11876],[-1,73],[-190,-5]],[[5275,3664],[161,174],[212,224],[160,122],[47,27]],[[5855,4211],[2,-129],[162,-3],[46,-6],[70,-17],[55,-21],[175,-79]],[[6365,3956],[-61,-133],[88,-39],[-45,-29],[-258,-180],[279,-90],[134,-38],[290,-87],[177,-1],[189,47]],[[7158,3406],[14,-11],[30,-3],[2,-26],[17,-20],[-5,-20],[-29,-26],[-6,-36],[11,-20],[-12,-27],[8,-40],[-5,-19],[-30,-34],[-3,-32],[-11,-18],[6,-37],[-16,-20],[16,-35],[5,-32],[26,-4],[24,-19],[31,-54],[-11,-16],[-32,10],[-12,-16],[-1,-63],[-17,-52],[-17,10],[-1,-60],[-29,-23],[-22,-28],[1,-36],[32,-40],[8,-29],[24,-37],[4,-66],[5,-30],[2,-56],[-11,-13],[-14,-38],[-39,-58],[-20,-21],[-12,-26],[0,-30],[-189,-142],[-57,-37],[-10,-11]],[[6813,1965],[-21,43],[-57,21],[-65,70],[-28,11],[-34,0],[-38,-11],[-48,-31],[-39,-1],[-20,9],[-21,24],[-21,52],[-69,19],[-44,39],[-50,67],[-23,38],[-8,52],[-12,25],[-65,50],[-27,31],[-56,23],[-18,21],[-25,80],[-20,19],[-74,9],[-74,-3],[-23,-20],[-31,-70],[-28,-28],[-80,-20],[-43,10],[-37,93],[-32,19],[-60,4],[-55,8],[-26,20],[-27,37],[-24,51],[8,90],[-21,79],[-19,39],[-36,50],[-38,18],[-32,30],[-18,47],[-51,52],[-19,24],[-17,101],[-50,63],[-36,94],[-9,14]],[[5052,3427],[223,237]],[[9859,11573],[52,100],[21,32],[42,46],[57,34]],[[10031,11785],[117,-346],[6,-10]],[[10154,11429],[8,-13],[48,-138],[76,-75]],[[10286,11203],[-56,-186],[-143,132],[-225,-122],[-99,228],[-49,35]],[[9714,11290],[145,283]],[[6488,6410],[19,15],[-9,36],[-12,18],[13,25],[16,49],[31,35],[25,19],[19,29],[48,47],[10,-11],[103,3],[32,-4],[60,-25],[63,-1],[6,-218],[125,3],[-3,-17],[46,-800],[59,17],[19,22],[59,20],[19,42],[12,90],[11,29],[-5,45],[28,63],[16,10]],[[7298,5951],[53,-216]],[[7351,5735],[-90,-96]],[[7261,5639],[-70,-74],[-44,-18],[-63,-3]],[[7084,5544],[-102,-10],[-118,-9]],[[6864,5525],[-106,-6],[-12,7],[-29,-11]],[[6717,5515],[-22,-14]],[[6695,5501],[1,56]],[[6696,5557],[-14,536],[-23,9],[-17,17],[-41,80],[1,31],[-26,3],[-6,-34],[-26,-8],[-24,3],[-20,16],[3,48],[-13,29],[0,48],[-10,52],[8,23]],[[6931,1738],[42,-7],[40,1],[306,-1],[293,65],[128,33],[68,25],[19,60],[13,89],[29,9],[8,43],[29,25],[84,90],[80,77],[70,57],[-12,14],[118,108],[90,77],[34,34],[147,125],[46,34],[47,44],[231,176],[15,28],[106,78],[85,66],[102,53]],[[9149,3141],[29,6],[1,21],[30,41],[35,35],[67,96],[175,219],[95,97],[100,107],[7,21],[31,15],[241,233],[65,59],[76,79],[59,53],[103,79],[31,15],[42,38],[78,60],[91,75],[59,59],[113,89],[100,65],[87,87],[145,109],[121,96],[167,142],[119,99],[103,77],[81,67],[111,87],[82,44],[89,43],[42,33],[14,43],[-2,33],[-13,56],[46,64]],[[11969,5783],[191,-122],[235,-150],[69,-88],[-28,-184],[-76,-272],[-8,-20],[-176,-300],[-17,-20],[-136,-117],[-169,-104],[-217,-209],[-273,-323],[-377,-463],[-411,-417],[-329,-302],[-229,-192],[-184,-142],[-223,-134],[-372,-248],[-274,-237],[-26,-125],[-7,-21],[-83,-162],[-106,-143],[-13,-14],[-120,-100],[-161,-96],[-202,-97],[-190,-76],[-199,-64],[-93,-17],[-156,-42],[-126,-22],[-180,-11],[-111,6],[-1170,-746],[-28,-9],[-72,384],[0,23],[-63,408],[-44,285]],[[5815,1100],[18,3],[188,116],[127,76],[46,33],[148,97],[65,36],[54,21],[68,61],[192,87],[131,50],[79,58]],[[10103,14707],[42,-50],[39,10],[46,43],[74,-16],[25,-18],[11,-22],[55,44],[30,-29]],[[10425,14669],[-47,-27],[-56,-15],[-23,-15],[-127,-136]],[[10172,14476],[-28,11],[-58,-2]],[[10086,14485],[-3,48],[63,68],[-73,74],[30,32]],[[10172,14476],[184,-102]],[[10356,14374],[-120,-130],[-11,-8]],[[10225,14236],[-57,56],[-28,-14],[-79,78]],[[10061,14356],[111,120]],[[10425,14669],[-49,-306]],[[10376,14363],[-20,11]],[[8430,12589],[4,12],[143,171],[43,55]],[[8620,12827],[219,-87]],[[8839,12740],[300,-117]],[[9139,12623],[-107,-127],[145,-126],[33,33],[160,-140],[-1,-11],[30,-30],[-297,-351]],[[9102,11871],[-416,419],[-99,97],[-155,197],[-2,5]],[[8947,3295],[21,8],[118,130],[76,76],[32,26],[50,56],[19,86],[34,44],[55,35],[23,23],[18,30],[3,26],[22,53]],[[9418,3888],[58,59],[77,58],[90,50],[48,31],[66,84],[80,121],[50,71],[98,149],[91,144],[51,74],[30,63],[73,221],[64,186],[188,447],[63,156],[49,113],[10,43],[42,243]],[[10646,6201],[18,80],[21,51],[18,32],[60,71],[240,260],[170,188],[155,161],[24,19],[354,246],[337,238],[68,18],[177,36],[58,30],[36,23],[72,57],[105,91],[153,126],[101,56],[128,82]],[[12941,8066],[16,-29],[-339,-616],[-174,-307],[-249,-448],[-332,-594],[-75,-138],[74,-84],[107,-67]],[[9149,3141],[-57,67],[-66,68],[-43,22],[-36,-3]],[[10154,11429],[173,62]],[[10327,11491],[20,-57],[61,18],[8,-5],[23,-66],[25,8]],[[10464,11389],[16,-4],[22,-34],[92,-109],[97,-88]],[[10691,11154],[-12,-7],[-166,-191],[-64,58]],[[10449,11014],[-26,24],[18,25],[-155,140]],[[7106,10225],[77,-5],[3,-22],[31,-68],[24,-43],[32,-14],[58,-6],[23,-13],[29,-39],[35,-26],[39,7],[17,21],[30,8],[50,-14],[26,9],[48,-13],[30,12],[77,-36],[28,14],[18,-1],[52,21],[25,-19],[27,-2],[44,-31],[13,-1],[30,-40],[2,-28],[22,-44],[27,-17],[23,2],[64,-11],[25,-10],[16,11],[55,18],[72,-47],[49,-56],[16,-8],[34,-51],[4,-18],[27,1],[63,-32],[37,-2],[19,-19],[-2,-29],[11,-13],[57,-21]],[[8593,9550],[-166,-208],[-160,-233],[-64,-97],[-562,-834],[-50,-72]],[[7591,8106],[-27,18],[-44,16],[-58,3],[-70,-6],[-41,-16],[-60,-11],[-44,5],[-49,14],[-24,2],[-153,-4],[-65,-27]],[[6956,8100],[-12,58],[-147,636],[-29,145]],[[6768,8939],[-47,252],[92,168],[230,416],[40,97],[20,82],[7,77],[-4,194]],[[7149,7713],[58,0],[-1,58]],[[7206,7771],[175,4]],[[7381,7775],[-97,-174]],[[7284,7601],[-75,-2]],[[7209,7599],[-1,22],[-58,-2],[-1,13]],[[7149,7632],[-7,26],[7,55]],[[6381,5232],[25,-1],[43,14],[42,4],[59,-7],[86,-21]],[[6636,5221],[13,-100],[11,-35],[22,-33],[38,-32]],[[6720,5021],[-47,-37],[23,-25],[34,-101]],[[6730,4858],[25,-45],[10,-35],[20,-34]],[[6785,4744],[21,-60],[23,-38],[21,-18],[26,-41],[33,-36],[22,-31],[18,-47]],[[6937,4398],[-23,0],[-31,-38],[-39,-20],[-25,-1],[-29,16],[-28,6],[-19,26],[-74,126],[-29,81],[-61,97],[-32,93],[-13,24],[-30,17],[-95,-16],[-64,2],[-26,13],[-25,28]],[[6294,4852],[62,134],[19,36],[10,44],[-14,109],[10,57]],[[7591,8106],[-110,-164]],[[7481,7942],[-145,-2],[-36,-19],[-23,-25],[-10,-26],[-34,-23],[-29,-3]],[[7204,7844],[-2,93],[-226,-5]],[[6976,7932],[-4,58],[-16,110]],[[4005,5123],[72,-3],[443,41],[221,23],[6,39],[-5,52],[65,3]],[[4807,5278],[3,-25]],[[4810,5253],[15,-156],[13,-64]],[[4838,5033],[4,-217]],[[4842,4816],[-24,-57],[-40,-107],[-37,-43],[-49,-24],[-163,-32]],[[4529,4553],[-2,42],[7,25],[-2,36],[-11,23],[-55,59],[-31,51],[-14,59],[-36,56],[-16,47],[-29,38],[-43,11],[-46,1],[-36,-10],[-25,-14],[-64,-25],[-34,0],[-68,54],[-25,26],[-4,45],[10,46]],[[9139,12623],[218,-88],[184,-72]],[[9541,12463],[-62,-75],[202,-175],[11,0],[2,-48]],[[9694,12165],[1,-47]],[[9453,11944],[-29,-35]],[[9424,11909],[-164,-197]],[[9260,11712],[-158,159]],[[7163,4932],[1,-40],[8,-104],[17,-80]],[[7189,4708],[-21,7]],[[7168,4715],[-98,22]],[[7070,4737],[-4,31],[-2,101],[-43,25],[-22,-13],[-18,-24]],[[6981,4857],[2,86],[-13,38]],[[6970,4981],[34,26],[54,1],[6,-44],[18,-3],[2,-31],[79,2]],[[7351,5735],[32,35],[26,35],[84,131],[22,40],[127,246],[134,254],[37,76]],[[7813,6552],[28,-20],[107,-142],[10,-33],[-1,-187],[2,-15],[78,-222],[34,-115],[65,-115],[4,-17],[4,-96],[21,-25],[33,-80],[19,21],[70,-81]],[[7759,4885],[-74,52],[-36,32],[-33,10],[-10,-21],[-68,-1]],[[7538,4957],[-9,37]],[[7529,4994],[2,2],[-63,261],[-117,478]],[[6976,7932],[11,-204]],[[6987,7728],[13,-212]],[[7000,7516],[7,-123]],[[7007,7393],[-90,-10],[-46,-1]],[[6871,7382],[-159,-2],[-47,-6]],[[6665,7374],[-4,354],[8,142],[3,132],[150,-3],[32,7],[37,25],[35,51],[30,18]],[[7481,7942],[-55,-86]],[[7426,7856],[-45,-81]],[[7206,7771],[-2,73]],[[6987,7728],[77,-2],[85,2],[0,-15]],[[7149,7632],[-58,1],[-12,12],[-26,4],[1,-90]],[[7054,7559],[1,-41],[-55,-2]],[[7209,7599],[2,-70],[-68,-2],[0,34],[-89,-2]],[[7284,7601],[-59,-105]],[[7225,7496],[-34,-57],[-49,-38],[-21,-6],[-114,-2]],[[7225,7496],[120,2]],[[7345,7498],[4,-203]],[[7349,7295],[-133,-3]],[[7216,7292],[-68,-1],[-134,-10]],[[7014,7281],[-1,7]],[[7013,7288],[-6,105]],[[7529,4994],[-52,-38],[-27,14],[-4,32],[17,55],[2,36],[-4,46],[-21,55]],[[7440,5194],[-41,70],[-13,38],[-21,32]],[[7365,5334],[5,26],[-49,19],[-46,36],[-6,27],[-1,55],[78,1],[-29,16],[-1,45],[-44,1],[-2,66],[-9,13]],[[7538,4957],[35,-142]],[[7573,4815],[-30,2],[-70,-51]],[[7473,4766],[-52,77],[5,20],[37,28],[-51,69]],[[7412,4960],[-112,153]],[[7300,5113],[49,56],[91,25]],[[7473,4766],[-36,-27]],[[7437,4739],[-129,-3]],[[7308,4736],[18,54],[0,22],[22,10],[36,111],[28,27]],[[7573,4815],[25,-103]],[[7616,4636],[-146,-1],[-31,-7]],[[7439,4628],[-2,111]],[[7189,4708],[114,-61]],[[7303,4647],[61,-31],[27,-2],[48,14]],[[7172,4544],[-4,171]],[[7573,4815],[72,-8],[29,8],[61,58],[24,12]],[[7216,7292],[2,-115],[18,-41]],[[7236,7136],[-203,-4]],[[7033,7132],[-12,63],[-7,86]],[[7349,7295],[268,5]],[[7617,7300],[3,-131],[36,-31],[-97,-53],[31,-61],[-36,-14],[0,-219],[-11,6],[-197,217]],[[7346,7014],[-110,122]],[[7346,7014],[-4,-3],[-123,-3],[4,-112],[-144,-3]],[[7079,6893],[-46,239]],[[7426,7856],[27,-51],[87,-12],[1,-13],[42,1],[32,-32],[-271,-204],[1,-47]],[[7013,7288],[-14,-9],[-196,-151]],[[6803,7128],[70,62],[-2,192]],[[3295,6219],[17,-6],[35,5],[186,5],[-7,210],[15,11],[161,5],[101,-218]],[[3803,6231],[30,-67],[29,-51],[43,-61],[60,-62],[46,-38],[234,-155]],[[4245,5797],[-4,-31],[-56,7],[-47,0],[-100,33],[-103,19],[-144,16],[-89,-4],[-119,1],[-96,-3],[-140,13],[-105,1],[-36,-4],[-176,-39]],[[3030,5806],[4,23],[26,57],[21,15],[47,13],[27,16],[38,44],[36,33],[11,33],[-1,23],[-14,30],[10,28],[35,20],[19,19],[11,30],[-5,29]],[[3581,7025],[69,-20],[105,-5]],[[3755,7000],[-2,-77],[-108,18],[6,-50],[17,-54],[60,-124],[-4,-11],[-76,-37],[-15,34],[-38,-18],[-37,92],[-60,131]],[[3498,6904],[66,55],[17,66]],[[2776,5070],[60,65],[6,14],[65,70],[-1,16],[-38,38],[-7,15]],[[2861,5288],[111,122],[7,41],[-48,331],[-2,21]],[[2929,5803],[63,-4],[38,7]],[[3030,5806],[13,-19],[19,-3],[33,16],[16,-42],[45,-50]],[[3156,5708],[12,-23],[24,-117],[13,-52],[-14,-80],[8,-31],[45,-79],[27,-75],[19,-33],[56,-56],[77,-19],[20,1],[40,22],[40,8],[57,-26],[33,-9],[38,0],[30,28],[18,51],[51,40],[38,-1],[34,-11],[32,0],[30,11],[36,0],[46,-12],[22,-19],[18,-70],[-1,-33]],[[4005,5123],[-65,4],[-383,-27],[-145,-13],[-534,-42]],[[2878,5045],[-51,-5]],[[2827,5040],[-22,3],[-29,27]],[[8645,4572],[49,-72],[22,-16],[39,-3],[32,14],[51,-1],[33,-24],[34,-33],[72,-21],[41,14],[41,-24],[14,-14],[26,-112],[36,-64],[34,-33],[84,-43],[43,-35],[18,-24],[8,-53],[34,-59],[36,-33],[7,-24],[19,-24]],[[8947,3295],[-41,-13],[-87,1],[-20,-21],[-23,-40],[-21,-23],[-5,-19],[-39,-42],[-25,-11],[-36,0],[-20,12],[-30,33],[5,51],[14,25],[32,35],[19,45],[0,42],[-13,35],[-21,22],[-38,16],[-37,3]],[[8561,3446],[-26,2],[-99,-13],[-34,16]],[[8402,3451],[21,73],[-7,51],[-62,71],[-15,27],[-6,43],[-24,50]],[[8299,3752],[-74,-116],[-46,31],[-27,-5]],[[7973,3781],[0,26]],[[7973,3807],[4,0],[116,183],[-1,3],[-107,71],[-24,31]],[[8402,3451],[-9,-28],[-156,49]],[[8237,3472],[-70,22]],[[8167,3494],[-131,41]],[[8036,3535],[-43,14]],[[7993,3549],[-70,22]],[[7923,3571],[0,98]],[[7862,4053],[108,-234],[3,-12]],[[7923,3571],[-54,17]],[[7869,3588],[39,152],[0,55],[-15,32],[-40,31],[-120,70]],[[7158,3406],[-12,22],[-47,29],[-1,45],[8,35],[-25,28],[-23,45],[8,22],[-17,40],[8,13],[-6,29],[7,38],[-22,4],[-17,27]],[[7019,3783],[109,1],[57,-7],[171,-44],[47,-22],[34,-27],[224,-243],[30,-25],[43,-21],[86,-28],[49,221]],[[7993,3549],[-11,-37],[-25,8],[-30,-102],[112,-36]],[[8039,3382],[-2,-12],[62,-19],[-1,-12],[87,-27],[16,55],[13,-4]],[[8214,3363],[21,-20],[27,-12],[94,-27],[44,-15],[47,-11],[11,6],[15,55],[29,25],[9,22],[21,-6],[8,26],[33,2],[-12,38]],[[6931,1738],[8,16],[-30,31],[-15,29],[-2,36],[-9,21],[-2,42],[-29,30],[-23,3],[-16,19]],[[8214,3363],[-6,20],[17,64],[12,25]],[[5855,4211],[122,58],[45,43],[114,194],[158,346]],[[7019,3783],[-156,-3],[-68,5],[-99,23],[-57,23],[-274,125]],[[9260,11712],[-28,-34],[75,-143],[-501,-276],[-39,-19],[-43,-27]],[[8724,11213],[-22,30],[-19,-15],[-24,33],[-16,-28],[-12,19],[-44,-3],[2,29],[-26,2],[-14,12],[-29,-12],[-26,23],[-18,-12],[-24,4],[-31,-9],[-24,18],[-29,-19],[-41,-10],[-30,12],[-2,33],[-20,-11],[-7,23],[-22,-8],[-28,25],[-21,-7],[-14,14]],[[8183,11356],[11,38],[-21,49],[3,63],[-7,32],[21,14],[-22,48],[15,20],[3,30],[60,34],[7,25],[24,18],[-32,25],[3,27],[30,11],[0,29],[-26,-8],[-42,37],[7,41],[-20,27],[-40,37],[-17,4],[-2,33],[-20,28],[-8,31],[20,22],[13,30],[3,28],[-9,59]],[[8137,12188],[16,12],[41,-10],[64,24],[12,27],[-184,354],[1,54],[23,59],[181,3],[-3,-67],[104,-10],[38,-45]],[[8593,9550],[298,375]],[[8891,9925],[8,-5],[221,-421],[15,-17],[243,284],[10,-20],[36,-27],[46,-13],[18,-27],[27,-25],[35,12],[29,-2],[10,-11],[51,30],[-2,16]],[[9638,9699],[17,23],[24,-17],[71,-21],[-14,-58],[15,-14],[24,12],[13,-6],[8,-46],[16,0],[31,19],[9,-56],[-22,-27],[1,-25],[28,-16],[35,2],[16,-16],[18,-37],[53,-10],[8,-33],[34,-16],[9,-28],[-11,-32],[23,-18],[48,23],[24,3],[25,-19],[11,-27],[35,-9],[23,-30],[2,-57],[-4,-22],[-21,-21],[-15,-66],[-15,-32],[-32,-23],[-25,-39],[15,-25],[66,0],[20,-12],[-2,-22],[-25,-30],[14,-18],[54,5],[13,25],[29,6],[106,-97],[25,-33],[9,-33],[-1,-56],[-14,-30],[-12,-86],[2,-63],[9,-24],[-2,-30],[22,-24],[20,-44],[77,-78],[39,-8],[-155,-167],[-408,-442],[-28,-25],[-126,-67],[-10,-52],[-18,-137],[-80,-385],[0,-29],[265,-258],[-496,-474],[-157,-148]],[[9351,6099],[-13,19],[-30,13],[-51,-9],[-89,-51],[-22,-4],[-32,14],[-19,26],[-4,39],[6,23],[22,19],[4,24],[-23,18],[-1,16],[29,23],[17,26],[-8,31],[2,28],[15,39],[-6,23],[-33,0],[-24,-13],[-40,9],[-43,25],[-30,44],[-3,71],[10,8],[38,-21],[6,55],[22,3],[27,22],[-4,98],[-19,46],[-25,9],[-35,-3],[-7,17],[26,39],[-20,10],[-31,-31],[-31,10],[-10,25],[16,21],[27,2],[15,19],[-8,27],[-27,19],[-5,27],[22,28],[-23,21],[-10,38],[-18,25],[-54,6],[-4,12]],[[8619,8885],[-30,10],[-1,17],[-30,11],[4,49],[-32,37],[-18,11],[-10,54],[12,17],[-21,23],[-1,30],[-12,36],[7,22],[-16,25],[5,19],[19,10],[-6,28],[21,25],[-19,21],[12,18],[6,39],[64,29],[17,48],[21,15],[-14,18],[10,37],[-14,16]],[[508,9136],[-7,-25],[7,-39],[32,-50],[33,-25],[35,1],[25,-28],[26,-8],[117,12],[84,-26],[123,-16],[33,-12],[25,-21],[25,-4],[52,-35],[6,-22],[30,-66],[24,-20],[23,-7],[17,-36],[48,-75],[15,-44],[18,-25],[36,-9],[35,26],[27,1],[16,-11],[28,-40],[0,-27],[46,-79],[22,-21],[40,-8],[27,-12],[12,-19],[-6,-30],[-22,-26],[0,-20],[35,-60],[20,-19],[6,-31],[1,-110],[-24,-29],[2,-39],[20,-48],[-9,-21],[-28,-39],[-47,-21],[-21,-25],[-3,-43],[6,-14],[114,-77],[11,-33],[-43,-42],[6,-43],[22,-17],[23,-3],[17,-21],[1,-41],[16,-30],[23,-61],[16,-55],[-11,-50]],[[1713,7318],[38,-50],[-34,-74],[1,-26],[36,-17],[19,37],[27,18],[19,41],[33,11],[28,-20],[34,-5],[21,-15],[7,-54],[-16,-22],[-37,-10],[-6,-29],[35,-25],[25,-3],[66,9],[19,18],[0,31],[28,20],[15,-17],[56,-22],[16,-12],[5,-22],[20,-8],[39,12],[26,0],[49,-28],[12,-19],[-11,-52],[11,-22],[16,-2],[25,19],[25,38],[48,3],[25,-22],[28,-55],[15,-3],[35,14],[29,-2],[26,-38],[4,-41],[22,-35],[10,-33],[17,-32],[4,-22],[-26,-34],[-2,-25],[16,-62],[1,-68],[13,-44],[20,-13],[35,2],[57,-18],[51,9],[17,26],[2,42],[17,13],[43,-28],[113,-37],[26,-18],[22,-29],[33,-28],[57,-20]],[[3118,6420],[18,-4],[34,10],[18,33],[16,11],[22,-4],[10,-16],[-5,-39],[2,-45],[23,-51],[-8,-56],[36,-25],[11,-15]],[[2929,5803],[-167,7],[-72,13],[-89,44],[-24,3],[-86,-3]],[[2491,5867],[-3,7],[-120,13],[-104,102],[-49,-20],[-54,7],[-14,37],[-42,-8],[-44,13],[-44,5],[-27,31],[-68,39],[-25,27],[18,63],[1,49],[-37,60],[15,28],[-6,20],[-60,67],[-285,678],[-15,24],[-238,226],[-77,78],[-228,78],[-425,120]],[[560,7611],[5,5],[-308,310],[208,211],[-230,228],[-128,130],[-107,104],[3,6],[221,233],[140,143],[144,155]],[[6636,5221],[89,-36]],[[6725,5185],[200,-86]],[[6925,5099],[56,-4]],[[6981,5095],[-3,-39],[-16,-49],[8,-26]],[[6970,4981],[-40,-9],[-23,8],[-68,52],[-17,-15],[-33,-9],[-24,-15]],[[6765,4993],[-45,28]],[[7617,7300],[163,3],[5,-2],[71,-136],[16,-6],[69,37],[324,180],[65,37],[340,188]],[[8853,7084],[-162,-18],[-47,-16],[-363,-197],[-405,-218],[-46,-50],[-17,-33]],[[7298,5951],[-84,345],[-66,265],[-34,152],[-35,180]],[[7365,5334],[-59,35],[-27,25],[-28,14],[-39,0],[-39,-15],[-13,-25],[3,-31],[24,-44],[1,-26],[-43,58]],[[7145,5325],[-44,66],[-11,45],[-6,108]],[[7150,5099],[35,-1],[62,-14],[34,8],[19,21]],[[7308,4736],[-6,-26],[1,-63]],[[7163,4932],[-3,118],[-10,49]],[[2861,5288],[-60,-65],[14,-13],[-65,-70]],[[2750,5140],[-105,104],[-48,-49]],[[2597,5195],[-45,38],[-206,22],[-24,11]],[[2322,5266],[-33,40],[-96,167],[-7,33],[9,63],[-3,34],[113,120],[70,65],[80,69],[36,10]],[[2597,5195],[-96,-101],[-3,-22],[4,-56]],[[2502,5016],[-394,-31],[-85,-16]],[[2023,4969],[16,37],[129,94],[122,130],[32,36]],[[3803,6231],[25,11],[114,5],[55,0],[24,-5],[28,6],[28,-20],[23,-28]],[[4100,6200],[-25,-34],[1,-41],[29,-27],[80,0],[49,-4],[46,-16],[103,-68],[38,-20],[29,2],[45,29],[28,-4],[49,-42],[72,-78],[48,-67],[61,-70],[20,-33],[57,-110],[16,-22],[69,-27],[22,-20],[11,-27],[16,-99],[23,-36],[34,-32]],[[5021,5354],[-23,-38],[-31,-34],[-39,-18],[-31,-4]],[[4897,5260],[-87,-7]],[[4807,5278],[-15,59],[-30,57],[-60,79],[-32,32]],[[4670,5505],[-46,40],[-46,32],[-333,220]],[[4670,5505],[-8,-7],[-236,-8],[-687,-17],[-177,-5],[-4,187],[-168,-4],[-3,73],[57,5],[-2,59],[-91,-2],[-59,-37],[-23,13],[-56,-20],[-31,4],[-19,-10],[-7,-28]],[[2776,5070],[-39,38],[13,32]],[[9949,13236],[2,-110]],[[9951,13126],[8,-340]],[[9959,12786],[9,-275],[9,-222]],[[9977,12289],[-51,21]],[[9926,12310],[-10,46],[-30,114],[-159,626],[-35,133]],[[9692,13229],[257,7]],[[9985,12005],[-1,45]],[[9984,12050],[91,-1],[20,-7],[25,-63],[-9,-25],[-19,-10],[0,-21],[54,2],[17,-9]],[[10163,11916],[-18,-40]],[[10145,11876],[-40,-50],[-46,-30],[-28,-11]],[[9859,11573],[19,58],[48,91],[29,47]],[[9541,12463],[258,-104]],[[9799,12359],[-2,-4],[4,-171]],[[9801,12184],[-17,-17],[-90,-2]],[[9801,12184],[43,2],[0,-16],[136,3]],[[9980,12173],[2,-48]],[[9982,12125],[-110,-2]],[[9872,12123],[-168,-5]],[[4897,5260],[97,-94],[-39,-37],[94,-132],[15,-24],[-196,-4],[-30,64]],[[5021,5354],[12,-7]],[[5033,5347],[96,-48],[63,-63],[39,3],[36,26],[47,26],[39,-6],[20,-16],[23,-40],[4,-25],[-9,-41],[-20,-19],[-40,-59],[2,-40],[43,-31],[62,1],[54,8],[26,-9],[17,-15],[21,-63],[28,-33],[29,-15],[38,-1],[39,27],[7,61],[17,50],[25,15],[26,-8],[75,-3],[21,-23],[11,-37],[-1,-42],[8,-41]],[[5879,4886],[-45,-45],[0,-190],[-708,-13],[2,-236]],[[5128,4402],[-28,25],[-63,24],[-20,17],[-34,84],[-38,43],[-42,73],[-20,82],[-41,66]],[[5879,4886],[11,-38],[22,-27],[41,14],[21,25],[6,98],[12,29],[21,11],[24,-2],[30,-34],[16,-55],[14,-25],[35,-10],[44,14],[25,57],[30,12],[40,-24],[5,-39],[18,-40]],[[5275,3664],[-93,89],[-4,105],[-38,-1],[-12,493],[0,52]],[[5052,3427],[-37,43],[-11,21],[0,25],[23,31],[25,9],[64,7],[25,23],[0,28],[-25,26],[-34,16],[-34,26],[-27,10],[-68,2],[-68,50],[2,37],[44,47],[11,35],[-2,44],[-68,62],[-9,49],[-24,35],[-23,12],[-66,16],[-41,22],[-32,9],[-79,1],[-14,4],[-27,31],[-13,26],[0,28],[20,74],[1,33],[-18,49],[-32,43],[-11,25],[2,24],[25,61],[-2,42]],[[6488,6410],[-389,-5],[-79,-2]],[[6020,6403],[197,244],[36,47],[57,59],[306,234],[67,49],[120,92]],[[9872,12123],[4,-117]],[[9877,11917],[-167,-4]],[[9644,11876],[-148,-82]],[[9496,11794],[-8,-3],[-64,118]],[[7847,13135],[359,-143]],[[8206,12992],[414,-165]],[[8137,12188],[-29,34],[-6,28],[-15,23],[15,22],[-30,60],[-32,25],[-8,22],[-22,19],[-22,-11],[-32,7],[-40,18],[-18,45],[-28,12],[-22,39],[-8,47],[-22,18],[-30,11],[-21,38],[-30,18],[-53,-11],[-14,29],[-20,13],[-14,40],[25,26],[2,28],[52,36],[30,13],[18,27],[-11,30],[-36,27],[6,45],[41,55],[37,45],[50,45],[-3,24]],[[10214,12048],[14,43],[17,91]],[[10245,12182],[107,-58],[229,-119],[107,-57],[55,-23]],[[10743,11925],[59,-94],[135,-243],[3,-2]],[[10940,11586],[-35,-41],[0,-122],[-5,-9],[-52,-43],[19,-20],[-167,-193],[-9,-4]],[[10464,11389],[1,20],[-34,20],[-22,42],[-33,93],[0,44],[-29,85],[-2,27],[-44,132],[-138,64]],[[10163,11916],[51,132]],[[10327,11491],[-44,130],[-47,-6],[-31,85],[-60,176]],[[6696,5557],[-29,-1],[-9,-11],[-30,18],[-77,-3],[-72,26],[-31,52],[-474,-14],[-217,-1],[1,32],[32,39],[44,165],[18,174],[-25,8],[-71,5],[-120,-4]],[[5636,6042],[384,361]],[[6695,5501],[-79,-74],[-49,-57],[-140,-86],[-34,-31],[-12,-21]],[[5033,5347],[114,218],[26,38],[237,226],[226,213]],[[6717,5515],[7,-71]],[[6724,5444],[11,-218],[-10,-41]],[[6724,5444],[28,-6],[20,-12],[28,-32],[10,-113],[18,-55],[41,-71],[30,-28],[29,-10]],[[6928,5117],[-3,-18]],[[6864,5525],[-3,-94],[42,-6],[7,-40],[0,-72],[20,-49],[4,-121],[-6,-26]],[[9979,12217],[54,-22],[27,-39],[30,-34],[9,-25],[58,2],[59,-23],[-2,-28]],[[9984,12050],[-2,75]],[[9980,12173],[-1,44]],[[9351,6099],[18,-25],[-5,-38],[-25,-27],[0,-19],[20,-24],[34,16],[37,29],[34,-15],[8,-31],[-11,-27],[-37,-18],[-23,3],[-37,28],[-28,6],[-22,-9],[-21,-26],[0,-39],[13,-17],[46,-21],[43,-3],[36,-19],[9,-37],[50,-31],[18,-33],[20,-21],[52,2],[35,25],[11,30],[12,66],[-6,70],[16,26],[18,9],[71,-3],[27,14],[71,51],[45,52],[40,-2],[24,-35],[2,-42],[-29,-35],[-37,-23],[-18,-25],[-1,-22],[21,-21],[41,9],[34,30],[7,26],[32,26],[48,-8],[29,-38],[-9,-37],[-44,-35],[0,-37],[14,-24],[36,-37],[104,-1],[23,9],[50,7],[23,9],[41,42],[14,25],[3,35],[-32,31],[-41,3],[-18,21],[4,40],[60,29],[48,39],[42,43],[52,33],[31,11],[40,5],[30,12],[47,70],[55,25]],[[9638,9699],[-23,21],[21,54],[21,-1],[10,18],[-16,36],[7,26],[16,16],[7,29],[-13,13],[-22,-13],[-29,18],[2,28]],[[9619,9944],[54,63],[14,9],[165,192],[-46,42],[22,26],[19,35],[160,188],[78,90],[30,24],[102,118],[12,25],[31,37],[189,221]],[[10940,11586],[125,-213],[100,-178],[59,-114],[297,-506],[28,-51],[209,-365],[188,-331],[324,-562],[105,-187],[119,-208],[139,-249],[75,-147],[233,-409]],[[9340,10567],[374,723]],[[9619,9944],[15,27],[-56,8],[-29,20],[7,33],[-13,23],[38,39],[-40,16],[9,23],[23,-9],[11,36],[-40,30],[-10,16],[-40,8],[-23,-24],[-22,20],[20,20],[-11,39],[2,40],[33,-9],[-4,58],[-21,10],[-9,-28],[-21,2],[-15,29],[22,33],[-9,14],[-37,-2],[-2,18],[17,18],[-24,10],[27,22],[-29,13],[-15,-21],[-31,8],[12,33],[15,13],[-4,25],[-25,12]],[[7491,13278],[356,-143]],[[8183,11356],[-99,5],[-36,60],[-15,8],[-34,-6],[-45,30],[-85,-1],[-246,75],[-96,-2],[-27,18],[-30,7],[-101,-4],[-49,-7],[-42,16],[-29,23],[-62,3],[-69,38],[-38,17]],[[7080,11636],[-8,864],[3,47],[13,73],[19,62],[23,56],[36,63],[325,477]],[[8363,13528],[186,226],[39,37],[20,32]],[[8608,13823],[6,-5],[1,-125],[44,-137],[34,-31],[310,-270],[154,-136]],[[9157,13119],[-318,-379]],[[8206,12992],[13,39],[15,100],[52,138],[4,42],[3,104],[19,51],[51,62]],[[9157,13119],[57,71],[104,-90],[34,-3],[125,2],[9,-2]],[[9486,13097],[4,-212],[69,-59],[65,-137],[57,-52],[1,-6],[-141,-168]],[[8891,9925],[310,393],[36,49],[103,200]],[[4207,7044],[-40,6],[-32,-6],[-87,-43],[-42,-12],[-251,11]],[[3581,7025],[10,54],[17,36],[40,41],[-11,38],[14,93],[-24,-28],[-26,-7],[-50,5]],[[3551,7257],[0,51],[18,27],[1,28],[36,-1],[-25,109],[-2,31],[42,1],[21,-27]],[[3498,6904],[-42,-40]],[[3456,6864],[-1,21],[-14,15],[-34,7],[-29,37],[-40,28],[-14,18],[6,46],[-13,14],[11,35],[-8,31],[-16,11],[-25,-3],[-3,30],[-36,31],[4,23],[-10,33],[109,1],[31,10],[96,-23],[40,5],[41,23]],[[6765,4993],[57,-41]],[[6822,4952],[-16,-22],[-32,-26],[-46,-27],[2,-19]],[[6822,4952],[28,-22],[29,-32],[40,-88]],[[6919,4810],[-67,-37],[-67,-29]],[[7070,4737],[-4,-24],[2,-124]],[[7015,4626],[-16,22],[-58,111],[-10,25]],[[6931,4784],[21,13],[17,25],[12,35]],[[7086,5281],[59,44]],[[7150,5099],[-84,-2]],[[7066,5097],[5,11],[-3,143],[18,30]],[[6928,5117],[35,8],[16,30],[0,132],[5,38],[38,7],[30,-16],[34,-35]],[[7066,5097],[-85,-2]],[[9959,12786],[105,-159]],[[10064,12627],[151,-232],[15,-27],[11,-42],[2,-58],[6,-45],[-7,-40]],[[10242,12183],[-265,106]],[[9951,13126],[224,-34]],[[10175,13092],[-21,-129],[52,-91]],[[10206,12872],[-130,-221],[-12,-24]],[[10242,12183],[3,-1]],[[9979,12217],[-2,72]],[[9726,13995],[131,143]],[[9857,14138],[204,218]],[[10225,14236],[106,-104],[10,9]],[[10341,14141],[-20,-137],[-40,-240],[-41,-254],[-29,-188],[-3,-4],[-33,-226]],[[9949,13236],[-2,62],[-12,282],[-7,57]],[[9928,13637],[-11,31],[-77,130],[-114,197]],[[9862,11743],[-55,-31],[-51,-7],[-63,19],[-33,1],[-37,-16],[-64,-35],[-63,120]],[[9340,10567],[-12,19],[8,38],[-23,11],[-26,-19],[-46,-9],[-14,76],[-14,17],[-22,-18],[-44,17],[-21,-21],[-20,16],[-12,28],[14,18],[-31,30],[4,20],[-12,15],[-22,-19],[-9,22],[-26,9],[-13,34],[-16,5],[-27,-12],[-23,20],[2,15],[25,21],[-5,35],[-20,2],[-13,24],[-14,-10],[-17,18],[-9,34],[-19,-10],[-15,19],[10,35],[-29,10],[4,43],[-43,-3],[-18,-10],[-19,30],[29,12],[24,23],[-20,34],[-36,4],[-26,23]],[[6540,8931],[228,8]],[[6665,7374],[-278,-82],[-335,-38],[-38,-12],[-153,-97],[-72,-26],[-181,-60],[-31,-6],[-81,0]],[[5496,7053],[23,29],[50,24],[39,13],[16,15],[12,45],[-19,44],[-32,25],[-13,28],[7,32],[22,-8],[23,-48],[23,6],[28,25],[75,43],[20,-8],[11,-31],[-2,-36],[9,-24],[0,160],[5,52],[43,177],[14,28],[41,42],[196,132],[108,76],[24,20],[48,61],[28,65],[156,567],[89,324]],[[7106,10225],[-9,453],[-11,186]],[[7086,10864],[-7,106],[5,163],[-1,149],[-3,354]],[[3773,2539],[31,25],[23,32],[72,119],[170,276],[88,145],[73,77],[27,22],[226,128],[14,11],[90,92],[19,6],[43,-8],[184,-183],[18,-13],[34,-5],[25,14],[142,150]],[[5815,1100],[-5,27],[16,37],[35,16],[-8,55],[11,38],[-2,71],[-15,8],[-59,-15],[-116,-37],[-72,-20],[-36,-15],[-121,-76],[-49,15],[-39,21],[6,22],[-42,12],[-7,-27],[-18,4],[-30,-22],[-4,35],[-26,5],[-62,-38],[-42,-33],[-24,4],[-44,24],[-22,-3],[-39,7],[-21,-12],[-50,1],[-17,-8],[-22,19],[-38,-14],[-57,30],[-9,16],[-29,10],[-28,46],[-25,25],[-2,16],[-29,40],[-6,29],[4,37],[13,21],[34,149],[-9,47],[-20,12],[-21,31],[1,43],[-30,18],[-31,1],[-35,28],[-28,59],[1,16],[-51,46],[-9,21],[-22,-1],[-27,34],[-36,16],[-10,14],[-91,61],[-7,29],[-63,29],[-9,22],[-26,10],[-32,27],[-36,5],[-23,24],[-25,12],[-43,73],[-18,16],[-22,42],[-24,29],[-54,16],[-41,39],[-24,13],[-44,2],[-25,34],[-12,51]],[[3456,6864],[-234,-225],[-13,-15],[-91,-204]],[[1713,7318],[23,6],[41,-2],[76,-31],[218,232],[174,182],[95,102],[199,216],[103,110],[157,171],[1,62],[67,3]],[[2023,4969],[-452,-91],[-80,-18]],[[1491,4860],[-11,9],[-27,-6],[-27,6],[-1,43],[35,20],[18,30],[21,20],[-26,19],[0,42],[-23,16],[-26,-4],[-19,26],[23,23],[0,39],[21,15],[37,-4],[27,24],[19,-3],[6,20],[0,58],[5,39],[16,26],[30,10],[50,-18],[24,5],[24,20],[-2,20],[24,67],[-25,20],[18,17],[23,5],[-8,20],[-54,25],[-22,66],[-19,4],[-21,-29],[-16,-8],[-109,22],[-28,23],[-26,8],[-16,15],[-48,22],[-23,24],[-33,12],[-29,23],[-23,35],[-3,43],[-25,34],[-3,29],[-39,0],[-21,-7],[-12,14],[6,29],[-16,12],[-20,33],[-1,57],[-35,53],[-50,15],[-41,-26],[-41,4],[-58,-10],[-32,18],[-37,4],[-57,-8],[-42,-11],[-10,-14],[-48,55],[1,12],[-37,28],[-16,-21],[-18,-1],[-33,41],[-8,47],[-39,19],[-11,20],[19,27],[-29,23],[-14,85],[-35,-2],[-6,16],[26,27],[17,32],[-2,27],[46,51],[-26,26],[14,14],[3,37],[10,14],[5,35],[-4,42],[50,105],[-6,24],[3,43],[-9,60],[-16,24],[-11,38],[2,39],[-10,8],[-35,-7],[-14,6],[-2,26],[-20,25],[-49,15],[-1,37],[-17,21],[-23,47],[0,18],[25,29],[-22,46],[10,20],[-5,36],[39,8],[-5,52],[-15,22],[9,19],[26,3],[-4,31],[38,12],[22,21],[22,-14],[29,-2],[7,16],[-11,17],[-1,28],[13,25],[-35,13],[48,51]],[[2908,3696],[25,22],[260,279],[84,80],[95,88],[157,92],[81,86],[33,23]],[[3643,4366],[92,55],[193,94],[45,6],[87,-14],[195,-4],[19,2],[255,48]],[[3773,2539],[-26,30],[-48,-8],[-18,9],[-60,110],[7,48],[-28,65],[-21,30],[-47,33],[-8,31],[6,28],[-9,17],[-2,43],[12,55],[14,21],[-1,23],[25,68],[19,36],[23,24],[4,18],[-56,67],[-33,73],[-21,25],[-7,26],[-24,18],[-10,28],[-32,18],[-34,4],[-17,18],[-32,10],[-23,-3],[-15,14],[-36,11],[-33,20],[-15,34],[-26,41],[-38,37],[-12,28],[-19,10],[-22,-2],[-29,19],[-32,-26],[-13,-19],[-16,-47],[-17,-3],[-37,40],[-51,26],[-7,9]],[[2827,5040],[-185,-14],[-140,-10]],[[9799,12359],[127,-49]],[[508,9136],[-7,20],[-55,23],[-28,29],[452,482],[337,357],[219,-216],[88,91],[64,71],[116,120],[171,181],[54,59],[90,-33]],[[6919,4810],[12,-26]],[[4945,8986],[32,0],[30,16],[418,10],[29,-6],[18,20],[208,6],[55,4],[24,9],[81,-9],[59,3],[271,5]],[[6170,9044],[61,1],[325,7],[14,-2],[-30,-119]],[[5496,7053],[-199,2],[-28,-3],[-267,-66],[-39,-1],[-146,8],[-134,-31],[-63,-8],[-230,-11],[-31,7],[-108,69]],[[4100,6200],[22,40],[-12,30],[-79,39],[-42,45],[-7,45],[19,106],[-4,41],[1,69],[9,86],[21,88],[29,86],[20,43],[41,29],[59,8],[39,16],[35,48]],[[9804,14571],[19,27]],[[9823,14598],[50,28],[15,-7],[25,11],[12,-20],[3,-28],[29,28],[45,10],[11,21],[-4,17],[10,46],[57,32],[27,-29]],[[10086,14485],[-70,-4],[-45,11]],[[9971,14492],[-167,79]],[[8167,3494],[-32,-107],[-26,-10],[-66,21]],[[8043,3398],[5,17],[-43,13],[31,107]],[[9310,15057],[138,0]],[[9448,15057],[1,-126]],[[9449,14931],[2,-49]],[[9451,14882],[1,-135]],[[9452,14747],[-55,29],[-82,2]],[[9315,14778],[-2,102]],[[9313,14880],[-3,177]],[[7086,14917],[34,150]],[[7120,15067],[72,-32],[41,-9],[-4,-70],[116,16],[14,-3]],[[7359,14969],[11,-60]],[[7370,14909],[-44,-16],[-36,0],[-20,11],[-37,-2],[11,-35],[0,-41]],[[7244,14826],[-158,91]],[[9309,15162],[73,99],[44,19],[13,-29],[73,3],[1,-19],[115,72]],[[9628,15307],[-2,-92],[-34,-62],[-4,-21]],[[9588,15132],[-15,7],[-26,-8],[-101,-2],[2,-72]],[[9310,15057],[-1,105]],[[9449,14931],[87,31],[88,91]],[[9624,15053],[64,-106],[19,-19]],[[9707,14928],[5,-11],[-52,-55],[-15,-11]],[[9645,14851],[-9,5],[-83,-4],[-1,31],[-101,-1]],[[7063,14819],[23,98]],[[7244,14826],[-16,-51],[6,-92]],[[7234,14683],[-120,29],[-1,35],[27,39],[-26,23],[-51,10]],[[7542,14631],[44,1]],[[7586,14632],[115,1]],[[7701,14633],[2,-62]],[[7703,14571],[5,-205]],[[7708,14366],[-204,-6]],[[7504,14360],[-3,94]],[[7501,14454],[6,53],[31,57],[5,19],[-1,48]],[[8014,14911],[58,1],[37,-8],[182,1]],[[8291,14905],[4,-214]],[[8295,14691],[-196,-4],[-27,-6]],[[8072,14681],[-51,-32]],[[8021,14649],[-3,168],[-4,94]],[[8864,14699],[131,4]],[[8995,14703],[4,-241],[3,-1]],[[9002,14461],[-4,0]],[[8998,14461],[-114,-3],[-16,-5]],[[8868,14453],[-3,114]],[[8865,14567],[-1,132]],[[9452,14747],[54,-34]],[[9506,14713],[-53,-2],[2,-127],[-66,-2]],[[9389,14582],[-68,120],[-6,76]],[[9506,14713],[46,48]],[[9552,14761],[46,-22],[-12,-27],[15,-8],[18,39],[54,-26],[-56,-57]],[[9617,14660],[-111,53]],[[7313,15139],[41,-10],[23,4],[59,-18],[88,1],[48,14],[51,-20],[27,24],[18,28],[29,22],[27,-1]],[[7724,15183],[1,-99]],[[7725,15084],[1,-80]],[[7726,15004],[-73,-13],[-23,14],[-18,-2]],[[7612,15003],[-210,-28]],[[7402,14975],[-1,52],[-87,-3],[-1,115]],[[8510,15365],[3,-137],[-7,0],[0,-91],[56,-3],[1,-37],[45,1],[0,44],[49,1]],[[8657,15143],[10,-447]],[[8667,14696],[-65,1]],[[8602,14697],[-35,-1]],[[8567,14696],[-5,320],[-107,-1]],[[8455,15015],[-84,-1],[-1,99],[-33,-1],[-2,74]],[[8335,15186],[23,-4],[35,35],[-3,31],[69,82],[42,6],[9,29]],[[9588,15132],[3,-19],[33,-60]],[[8604,14562],[261,5]],[[8868,14453],[-65,-24],[-3,-55],[-7,-7],[-186,-4]],[[8607,14363],[-3,199]],[[8998,14461],[5,-293]],[[9003,14168],[-131,-3]],[[8872,14165],[-3,101],[-1,187]],[[10061,14356],[-43,35],[-118,-127],[-72,73]],[[9828,14337],[143,155]],[[6955,13797],[35,1],[32,11],[98,3]],[[7120,13812],[21,0]],[[7141,13812],[1,-44],[14,1],[5,-205],[-166,-5],[1,-18]],[[6996,13541],[-57,0],[2,-44]],[[6941,13497],[-55,32]],[[6886,13529],[23,54],[52,64],[12,33],[-3,48],[-13,41],[-2,28]],[[9457,14463],[108,-188]],[[9565,14275],[-30,-15],[-121,-73],[-35,-11],[-113,-4]],[[9266,14172],[-2,152]],[[9264,14324],[-1,89],[-12,26],[85,2],[50,19],[71,3]],[[8910,15194],[52,1],[1,-28]],[[8963,15167],[5,-270]],[[8968,14897],[-103,-3],[-5,200]],[[8860,15094],[-1,77],[51,1],[0,22]],[[7726,15004],[-7,-94]],[[7719,14910],[-1,-13]],[[7718,14897],[-29,5],[-74,-3]],[[7615,14899],[-3,104]],[[8470,14560],[134,2]],[[8607,14363],[-133,-3]],[[8474,14360],[-4,200]],[[8043,3398],[-4,-16]],[[9649,14468],[22,0],[25,-14],[108,117]],[[9828,14337],[-90,-96]],[[9738,14241],[-40,39]],[[9698,14280],[90,96],[-36,68],[-31,3],[-16,-15],[-41,10],[-15,26]],[[7104,14485],[132,2],[2,-66],[175,4],[0,13]],[[7413,14438],[36,12],[52,4]],[[7504,14360],[-264,-7]],[[7240,14353],[-133,-4]],[[7107,14349],[-3,136]],[[7234,14683],[-1,-60]],[[7233,14623],[-132,-4]],[[7101,14619],[-85,-2]],[[7016,14617],[47,202]],[[8339,14558],[131,2]],[[8474,14360],[-132,-3]],[[8342,14357],[0,23]],[[8342,14380],[-3,178]],[[8012,14999],[2,-88]],[[8014,14911],[-255,-7]],[[7759,14904],[5,32],[-1,56],[249,7]],[[4811,11494],[23,-27],[881,22],[19,-3],[331,0],[-4,129],[172,-1],[11,159],[284,4],[-5,343],[6,98],[-252,0],[-9,-33],[-7,-138],[-176,5],[-4,-88],[-140,8],[-111,-5],[-19,4],[-65,41],[-10,31],[-4,65],[-610,-9],[18,-64]],[[5140,12035],[-37,78],[-64,58],[-7,34],[7,14],[50,35],[16,29],[8,57],[19,61],[1,60],[143,1],[32,-14],[52,15],[508,4],[416,5],[234,4],[164,703],[83,359],[11,55]],[[6776,13593],[110,-64]],[[6941,13497],[48,-21],[276,-110],[226,-88]],[[7086,10864],[-34,1],[-339,-8],[-23,6],[-27,28],[-32,11],[-117,-3],[-217,-9],[-346,-9],[-315,-6],[-42,2],[-220,27],[-107,-1],[-50,-6],[-49,-19],[-59,-31],[-35,-11],[-458,-13]],[[4616,10823],[9,30],[29,19],[66,6],[20,11],[12,22],[2,32],[-24,28],[-80,55],[-5,22],[14,26],[32,30],[35,141],[-1,60],[19,31],[23,67],[12,48],[32,43]],[[9129,14514],[213,66],[47,2]],[[9389,14582],[68,-119]],[[9264,14324],[-36,-1],[-71,31],[-25,0]],[[9132,14354],[-3,160]],[[9486,13097],[196,4],[4,3],[-3,122]],[[9683,13226],[9,3]],[[7120,15067],[7,17],[112,56],[36,-9],[38,8]],[[7402,14975],[-43,-6]],[[7724,15183],[18,3],[21,22],[49,1],[41,17],[46,7],[55,-27],[59,-39],[61,22],[61,-19],[27,10],[41,29],[48,-26],[20,-2]],[[8271,15181],[2,-71]],[[8273,15110],[-170,-1]],[[8103,15109],[-144,-6],[-79,1],[-73,-18],[-82,-2]],[[7719,14910],[40,-6]],[[8021,14649],[-35,-8],[-100,-4]],[[7886,14637],[-185,-4]],[[7701,14633],[1,68],[16,196]],[[8295,14691],[1,0]],[[8296,14691],[1,-23],[13,-35],[21,-33],[8,-42]],[[8342,14380],[-80,-1],[-65,-22]],[[8197,14357],[-4,26],[17,40],[-3,134],[-103,-2],[-1,56],[-28,-1],[-3,71]],[[8567,14696],[-104,-1]],[[8463,14695],[-4,182],[-4,138]],[[8963,15167],[106,1],[0,12],[104,3],[-1,59],[-37,143]],[[9135,15385],[20,-6],[41,6],[13,21],[30,-2],[44,15],[25,-9]],[[9308,15410],[-2,-46],[3,-202]],[[9313,14880],[-135,-1]],[[9178,14879],[-101,-2],[-17,8],[-91,-1]],[[8969,14884],[-1,13]],[[9178,14879],[0,-131]],[[9178,14748],[-51,-37]],[[9127,14711],[-18,-6],[-114,-2]],[[8995,14703],[-1,23],[-22,29],[-3,129]],[[9127,14711],[2,-197]],[[9129,14514],[-63,-12],[-28,-30],[-36,-11]],[[9132,14354],[3,-185]],[[9135,14169],[-132,-1]],[[6950,14338],[64,9],[93,2]],[[7240,14353],[2,-106]],[[7242,14247],[1,-44]],[[7243,14203],[11,-387]],[[7254,13816],[-113,-4]],[[7120,13812],[-5,270],[-132,-4],[-4,-7],[-70,-1],[-29,-133],[-23,1]],[[6857,13938],[93,400]],[[8752,15394],[30,23],[23,-5],[31,5],[25,-4],[78,-55],[92,2],[67,18],[18,17],[19,-10]],[[8910,15194],[-52,5],[-101,-2]],[[8757,15197],[-5,197]],[[8016,14328],[64,-10],[20,2],[97,37]],[[8197,14357],[4,-38],[-14,-27],[87,-49]],[[8274,14243],[-2,-15],[-105,-2],[3,-73]],[[8170,14153],[-136,-2]],[[8034,14151],[16,72],[-5,41],[-29,64]],[[2878,5045],[125,-121],[36,-17],[26,2],[29,-9],[258,-250],[291,-284]],[[2908,3696],[-23,0],[-41,13],[-32,4],[-18,11],[0,28],[-23,35],[-67,-7],[-34,-10],[-358,-11],[-141,-5],[-443,-8],[-24,28],[-28,19],[-33,52],[-6,49],[21,46],[60,35],[-12,24],[-57,37],[-9,37],[15,24],[-7,40],[23,-11],[22,15],[-1,53],[-30,-3],[-18,34],[-30,22],[-21,-2],[-53,7],[-24,44],[21,43],[27,25],[6,23],[21,12],[16,47],[16,-1],[17,-32],[23,-13],[21,10],[-3,18],[-25,26],[-34,9],[-23,-9],[-28,10],[-35,29],[-15,26],[-17,-7],[-8,-36],[-33,7],[-24,-14],[-14,11],[-16,35],[-1,63],[28,0],[-7,-41],[69,12],[-7,45],[9,18],[-9,35],[19,24],[31,1],[1,23],[-75,32],[-9,25],[14,12],[22,-7],[22,22],[5,25],[-8,37],[-22,19]],[[4642,10235],[44,8],[210,9],[37,113],[19,6],[220,-1],[0,86],[63,4],[0,29],[-65,-1],[1,25],[132,3],[2,67],[36,16],[-11,-46],[70,21],[16,49],[422,11],[89,3],[1,-92],[100,0],[2,-112],[121,2],[-2,-85],[-226,-6],[0,-41],[49,0],[7,-248],[311,10],[0,-133],[-9,0],[5,-128],[-74,-2],[-466,-21]],[[5746,9781],[0,31],[16,113],[-408,-10],[-87,-9],[-2,-19],[-36,-2],[-6,-27],[-16,-163],[-4,-10],[-43,-2],[-27,-31],[-33,-1],[-32,-23],[6,-30],[-84,-22],[-223,-4],[-175,-4],[-48,-9]],[[5746,9781],[-15,-1],[12,-322],[-23,-16],[-35,-8],[-5,-59],[8,-56],[32,-9],[2,-58],[488,7],[2,-107],[-41,-2],[-1,-106]],[[4487,10408],[16,30],[6,26],[5,76],[30,43],[95,41],[25,18],[14,37],[-7,30],[-34,45],[-20,44],[-1,25]],[[4811,11494],[48,65],[28,20],[42,6],[64,-11],[42,18],[50,38],[87,31],[5,36],[-26,42],[-16,59],[12,22],[35,25],[14,20],[3,28],[-18,54],[-31,52],[-10,36]],[[6950,14338],[34,136],[32,143]],[[7101,14619],[3,-134]],[[10206,12872],[58,-105],[172,-297],[28,-53],[103,-176],[127,-224],[49,-92]],[[7491,13278],[123,181],[29,56],[20,50]],[[7663,13565],[19,67],[8,44],[27,274],[-2,122]],[[7715,14072],[37,9],[32,-43],[15,-33],[5,-48],[19,-23],[41,-13],[25,28],[40,8],[50,-25],[37,-5],[36,-17],[40,-10],[83,46],[29,-8],[22,-46],[6,-24],[6,-74],[-20,-52],[-42,-61],[10,-32],[20,-7],[51,26],[29,3],[40,13],[14,-3],[24,-27],[-8,-50],[-9,-18],[15,-20],[1,-38]],[[6996,13541],[194,2],[71,3],[-5,195]],[[7256,13741],[33,-16],[60,2],[25,10],[60,-1],[4,-18],[27,-39],[25,-5],[72,-53],[8,-19],[25,-23],[10,-22],[58,8]],[[8614,13892],[146,2]],[[8760,13894],[2,-199],[4,-8],[65,-58]],[[8831,13629],[447,-390],[75,-72],[65,-5],[1,69],[262,10],[2,-15]],[[8608,13823],[6,23],[0,46]],[[8831,13629],[37,-1],[160,5],[70,-1],[310,4],[104,-10],[341,10],[75,1]],[[6822,13789],[20,5],[113,3]],[[6776,13593],[46,196]],[[7254,13816],[2,-75]],[[7715,14085],[79,9],[29,8],[46,40]],[[7869,14142],[25,7],[80,-9],[42,13],[18,-2]],[[8170,14153],[440,8]],[[8610,14161],[4,-269]],[[7715,14072],[0,13]],[[8760,13894],[509,9],[0,50],[132,2],[-1,80],[179,0],[122,4]],[[9701,14039],[25,-44]],[[7243,14203],[28,-9],[22,-32],[7,-42],[-26,-87],[10,-27],[19,-5],[83,41],[58,17],[66,41],[39,8],[32,-32],[-1,-22],[-19,-50],[18,-18],[19,0],[58,39],[37,39],[22,8]],[[6822,13789],[35,149]],[[7242,14247],[262,-46],[136,-25],[73,-20]],[[7713,14156],[2,-71]],[[7708,14366],[113,3]],[[7821,14369],[-3,-41],[3,-34],[29,-19],[-13,-40],[2,-27],[14,-25],[-2,-17],[18,-24]],[[7713,14156],[-5,210]],[[8610,14161],[262,4]],[[9135,14169],[131,3]],[[9565,14275],[136,-236]],[[9738,14241],[44,-29],[75,-74]],[[9565,14275],[76,21],[30,20],[27,-36]],[[7233,14623],[2,-66],[35,-12],[24,-34],[37,-13],[27,7],[10,-49],[20,-18],[25,0]],[[7233,14623],[164,5]],[[7397,14628],[145,3]],[[7703,14571],[318,-188]],[[8021,14383],[-5,-55]],[[8016,14328],[-33,5],[-51,30],[-23,8],[-88,-2]],[[8021,14383],[8,32],[-4,165]],[[8025,14580],[3,38],[-7,31]],[[8342,14357],[-70,0],[2,-114]],[[9617,14660],[60,-28]],[[9677,14632],[127,-61]],[[9649,14468],[-192,-5]],[[10376,14363],[-35,-222]],[[7586,14632],[-4,145],[35,17],[-2,105]],[[7886,14637],[0,-28],[33,-10],[1,-14],[77,3],[28,-8]],[[8271,15181],[25,16],[24,3],[15,-14]],[[8463,14695],[-167,-4]],[[8291,14905],[-4,146],[-14,59]],[[8602,14697],[2,-135]],[[8864,14699],[-97,-1]],[[8767,14698],[-8,395],[101,1]],[[9645,14851],[-28,-20],[-65,-70]],[[9178,14748],[28,20],[30,8],[79,2]],[[9707,14928],[33,-32],[22,-37],[24,-88],[-14,-37],[-95,-102]],[[8103,15109],[-17,-43],[2,-52],[-10,-13],[-66,-2]],[[8767,14698],[-100,-2]],[[8657,15143],[-1,36],[101,2],[0,16]],[[8510,15365],[28,16],[20,31],[35,21],[26,-2],[28,-16],[42,-1],[52,-26],[11,6]],[[9308,15410],[58,-2],[17,-10],[24,-31],[22,-2],[21,13],[14,-24],[27,7],[18,-15],[53,6],[29,-16],[36,14]],[[9627,15350],[1,-43]],[[8610,14161],[-3,202]],[[7542,14631],[-3,67],[-13,65],[9,33],[25,52],[5,28],[-4,30],[-25,50],[-52,-31],[-16,13],[-36,0],[-33,-20],[-29,-9]],[[7397,14628],[-1,58],[-29,-1],[-3,142],[6,82]],[[9707,14928],[7,9],[-23,31],[3,74],[30,31]],[[9724,15073],[23,-33],[-14,-37],[0,-27],[20,-28],[-2,-33],[21,-25],[28,-48],[-4,-31],[11,-30],[39,-57],[-9,-63],[-33,-10],[6,-34],[13,-19]],[[9627,15350],[77,-29],[17,-52],[-14,-19],[-13,-38],[31,-61],[-16,-51],[15,-27]]],"transform":{"scale":[0.0000631233310179821,0.00005405734465107241],"translate":[-95.874028,28.764837000000004]},"objects":{"Geometry\\48-039":{"type":"GeometryCollection","geometries":[{"arcs":[[0,1,2]],"type":"Polygon","properties":{"GEOID":"480396643004"}},{"arcs":[[3,4,5,6,7]],"type":"Polygon","properties":{"GEOID":"480396614004"}},{"arcs":[[8,9,10,11,12,13,14,15,16]],"type":"Polygon","properties":{"GEOID":"480396620004"}},{"arcs":[[17,18,19]],"type":"Polygon","properties":{"GEOID":"480396624004"}},{"arcs":[[20,21,22,23,24,25,26,27,28,29,30,31,32,33,34]],"type":"Polygon","properties":{"GEOID":"480396642001"}},{"arcs":[[35,36,37,38,39]],"type":"Polygon","properties":{"GEOID":"480396614001"}},{"arcs":[[40,41,42,43,44,45]],"type":"Polygon","properties":{"GEOID":"480396645011"}},{"arcs":[[46,47,48,49,50]],"type":"Polygon","properties":{"GEOID":"480396616022"}},{"arcs":[[51,52,53,54,55,56,57,58,59]],"type":"Polygon","properties":{"GEOID":"480396631002"}},{"arcs":[[60,61,62,63]],"type":"Polygon","properties":{"GEOID":"480399900000"}},{"arcs":[[64,65,66,67]],"type":"Polygon","properties":{"GEOID":"480396601001"}},{"arcs":[[68,69,70,71]],"type":"Polygon","properties":{"GEOID":"480396602002"}},{"arcs":[[72,73,-69,-66]],"type":"Polygon","properties":{"GEOID":"480396601003"}},{"arcs":[[74,75,76,77,78]],"type":"Polygon","properties":{"GEOID":"480396615011"}},{"arcs":[[79,80,81,82,-62,83]],"type":"Polygon","properties":{"GEOID":"480396642003"}},{"arcs":[[84,85,86,87,88,-49]],"type":"Polygon","properties":{"GEOID":"480396616011"}},{"arcs":[[89,90,91,92,93]],"type":"Polygon","properties":{"GEOID":"480396622001"}},{"arcs":[[94,95,96,97,98,99]],"type":"Polygon","properties":{"GEOID":"480396623002"}},{"arcs":[[100,101,102,103,104,-35,105,106]],"type":"Polygon","properties":{"GEOID":"480396634001"}},{"arcs":[[-92,107,108,109,110]],"type":"Polygon","properties":{"GEOID":"480396622004"}},{"arcs":[[111,112,113,114,115,116]],"type":"Polygon","properties":{"GEOID":"480396629004"}},{"arcs":[[117,118,119,-36,120,121,122,-78]],"type":"Polygon","properties":{"GEOID":"480396615013"}},{"arcs":[[123,124,125,126,127,128]],"type":"Polygon","properties":{"GEOID":"480396635004"}},{"arcs":[[129,130,-27,131,132,133]],"type":"Polygon","properties":{"GEOID":"480396640002"}},{"arcs":[[-111,134,135,136,137,138,139]],"type":"Polygon","properties":{"GEOID":"480396621003"}},{"arcs":[[-109,140,141,-96,142]],"type":"Polygon","properties":{"GEOID":"480396622003"}},{"arcs":[[143,-100,144,145,-136]],"type":"Polygon","properties":{"GEOID":"480396623001"}},{"arcs":[[-99,146,-145]],"type":"Polygon","properties":{"GEOID":"480396623003"}},{"arcs":[[-146,-147,-98,147,148,-137]],"type":"Polygon","properties":{"GEOID":"480396623004"}},{"arcs":[[-149,149,150,151,152,153,154]],"type":"Polygon","properties":{"GEOID":"480396624001"}},{"arcs":[[-54,-134,155,156,157]],"type":"Polygon","properties":{"GEOID":"480396637001"}},{"arcs":[[-156,-133,158,159,160,161,162]],"type":"Polygon","properties":{"GEOID":"480396638002"}},{"arcs":[[-161,163,164,165]],"type":"Polygon","properties":{"GEOID":"480396638003"}},{"arcs":[[-164,-160,166,-25,167,168]],"type":"Polygon","properties":{"GEOID":"480396639001"}},{"arcs":[[-125,169,170,-168,-24,171]],"type":"Polygon","properties":{"GEOID":"480396639002"}},{"arcs":[[-26,-167,172]],"type":"Polygon","properties":{"GEOID":"480396640001"}},{"arcs":[[-153,173,174,175]],"type":"Polygon","properties":{"GEOID":"480396641001"}},{"arcs":[[-152,176,177,178,-174]],"type":"Polygon","properties":{"GEOID":"480396641002"}},{"arcs":[[-175,-179,179,180]],"type":"Polygon","properties":{"GEOID":"480396641003"}},{"arcs":[[-97,-142,181,-150,-148]],"type":"Polygon","properties":{"GEOID":"480396624002"}},{"arcs":[[-138,-155,182,183]],"type":"Polygon","properties":{"GEOID":"480396625002"}},{"arcs":[[184,185,186,187]],"type":"Polygon","properties":{"GEOID":"480396626002"}},{"arcs":[[188,189,190]],"type":"Polygon","properties":{"GEOID":"480396626003"}},{"arcs":[[191,192,193,194,195,196,197,198]],"type":"Polygon","properties":{"GEOID":"480396628001"}},{"arcs":[[-29,199,-80,200,201,202]],"type":"Polygon","properties":{"GEOID":"480396642002"}},{"arcs":[[-31,203,-2,204,205]],"type":"Polygon","properties":{"GEOID":"480396643001"}},{"arcs":[[-3,-204,-30,-203,206,207,208,209,210,211]],"type":"Polygon","properties":{"GEOID":"480396643002"}},{"arcs":[[212,-205,-1,-212,213,214,-33]],"type":"Polygon","properties":{"GEOID":"480396643003"}},{"arcs":[[-32,-206,-213]],"type":"Polygon","properties":{"GEOID":"480396643005"}},{"arcs":[[-44,215,216,-214,-211,217,218,219,-201,-84,-61,220]],"type":"Polygon","properties":{"GEOID":"480396644001"}},{"arcs":[[-207,-202,-220,221]],"type":"Polygon","properties":{"GEOID":"480396644005"}},{"arcs":[[222,-106,-34,-215,-217,223,-42]],"type":"Polygon","properties":{"GEOID":"480396645012"}},{"arcs":[[-224,-216,-43]],"type":"Polygon","properties":{"GEOID":"480396645015"}},{"arcs":[[-79,-123,224,225,226,227]],"type":"Polygon","properties":{"GEOID":"480396615022"}},{"arcs":[[228,229,230,231,-18,232]],"type":"Polygon","properties":{"GEOID":"480396617002"}},{"arcs":[[233,234,235,-188,-194,236,237,238]],"type":"Polygon","properties":{"GEOID":"480396627001"}},{"arcs":[[239,240,241,242,243,244,-102]],"type":"Polygon","properties":{"GEOID":"480396633002"}},{"arcs":[[-180,-178,245,-19,246,-130,-53,247]],"type":"Polygon","properties":{"GEOID":"480396641004"}},{"arcs":[[-55,-158,248,249]],"type":"Polygon","properties":{"GEOID":"480396637002"}},{"arcs":[[250,-162,-166,251,-170,-124,252]],"type":"Polygon","properties":{"GEOID":"480396638001"}},{"arcs":[[-237,-193,253,254,255,256]],"type":"Polygon","properties":{"GEOID":"480396628003"}},{"arcs":[[-256,257,258,259]],"type":"Polygon","properties":{"GEOID":"480396628006"}},{"arcs":[[260,261,262,263,-113,264,265,-186]],"type":"Polygon","properties":{"GEOID":"480396629001"}},{"arcs":[[-187,-266,266,-195]],"type":"Polygon","properties":{"GEOID":"480396629002"}},{"arcs":[[-265,-112,-196,-267]],"type":"Polygon","properties":{"GEOID":"480396629003"}},{"arcs":[[-254,-192,267]],"type":"Polygon","properties":{"GEOID":"480396628002"}},{"arcs":[[268,269,270,271,272,273]],"type":"Polygon","properties":{"GEOID":"480396610003"}},{"arcs":[[-6,274,275,276,277,-47,278]],"type":"Polygon","properties":{"GEOID":"480396612003"}},{"arcs":[[279,280,281,-119]],"type":"Polygon","properties":{"GEOID":"480396613001"}},{"arcs":[[-282,282,283,284,285,-37,-120]],"type":"Polygon","properties":{"GEOID":"480396613003"}},{"arcs":[[-264,286,-114]],"type":"Polygon","properties":{"GEOID":"480396630001"}},{"arcs":[[-287,-263,287,288,289,290,-115]],"type":"Polygon","properties":{"GEOID":"480396630002"}},{"arcs":[[291,-223,-41,292,-290]],"type":"Polygon","properties":{"GEOID":"480396630003"}},{"arcs":[[-116,-291,-293,-46,293]],"type":"Polygon","properties":{"GEOID":"480396630004"}},{"arcs":[[-183,-154,-176,-181,-248,-52,294,295]],"type":"Polygon","properties":{"GEOID":"480396631001"}},{"arcs":[[-286,296,-4,297,-38]],"type":"Polygon","properties":{"GEOID":"480396614002"}},{"arcs":[[-40,298,299,-121]],"type":"Polygon","properties":{"GEOID":"480396614006"}},{"arcs":[[300,301,-75,-228,302]],"type":"Polygon","properties":{"GEOID":"480396615012"}},{"arcs":[[303,304,305,306,-87,307,308]],"type":"Polygon","properties":{"GEOID":"480396616012"}},{"arcs":[[-277,-308,-86,309]],"type":"Polygon","properties":{"GEOID":"480396616013"}},{"arcs":[[-278,-310,-85,-48]],"type":"Polygon","properties":{"GEOID":"480396616014"}},{"arcs":[[-295,-60,310,311]],"type":"Polygon","properties":{"GEOID":"480396631003"}},{"arcs":[[-311,-59,312,-107,-292,-289,313]],"type":"Polygon","properties":{"GEOID":"480396631004"}},{"arcs":[[-313,-58,314,315,-240,-101]],"type":"Polygon","properties":{"GEOID":"480396632001"}},{"arcs":[[316,317,-241,-316]],"type":"Polygon","properties":{"GEOID":"480396632002"}},{"arcs":[[318,-317,-315,-57]],"type":"Polygon","properties":{"GEOID":"480396632003"}},{"arcs":[[319,-309,-276,320,-284,321]],"type":"Polygon","properties":{"GEOID":"480396612002"}},{"arcs":[[-247,-232,322,-81,-200,-28,-131]],"type":"Polygon","properties":{"GEOID":"480396641005"}},{"arcs":[[-231,323,324,-88,-307,325,-82,-323]],"type":"Polygon","properties":{"GEOID":"480396617001"}},{"arcs":[[326,-50,-89,-325,327]],"type":"Polygon","properties":{"GEOID":"480396616021"}},{"arcs":[[328,-303,-227,329,330]],"type":"Polygon","properties":{"GEOID":"480396618001"}},{"arcs":[[331,332,333,-76,-302,334]],"type":"Polygon","properties":{"GEOID":"480396610001"}},{"arcs":[[-334,335,336,-118,-77]],"type":"Polygon","properties":{"GEOID":"480396610002"}},{"arcs":[[337,-328,-324,-230]],"type":"Polygon","properties":{"GEOID":"480396617003"}},{"arcs":[[-15,338,-189,339,340]],"type":"Polygon","properties":{"GEOID":"480396620001"}},{"arcs":[[-340,-191,341,342]],"type":"Polygon","properties":{"GEOID":"480396620002"}},{"arcs":[[-245,343,344,-103]],"type":"Polygon","properties":{"GEOID":"480396634002"}},{"arcs":[[345,346,-104,-345]],"type":"Polygon","properties":{"GEOID":"480396634003"}},{"arcs":[[-127,347,-22,348,349]],"type":"Polygon","properties":{"GEOID":"480396635003"}},{"arcs":[[-126,-172,-23,-348]],"type":"Polygon","properties":{"GEOID":"480396635002"}},{"arcs":[[350,-249,-157,-163,-251,351,352]],"type":"Polygon","properties":{"GEOID":"480396636001"}},{"arcs":[[353,-353,354,-242,-318]],"type":"Polygon","properties":{"GEOID":"480396636002"}},{"arcs":[[-56,-250,-351,-354,-319]],"type":"Polygon","properties":{"GEOID":"480396636003"}},{"arcs":[[355,356,357,-271]],"type":"Polygon","properties":{"GEOID":"480396611001"}},{"arcs":[[358,359,360,-356,-270]],"type":"Polygon","properties":{"GEOID":"480396611002"}},{"arcs":[[-358,361,-304,-320,362]],"type":"Polygon","properties":{"GEOID":"480396612001"}},{"arcs":[[363,364,-71,365,366,-359,-269,367,368]],"type":"Polygon","properties":{"GEOID":"480396602001"}},{"arcs":[[-299,-39,-298,-8,369]],"type":"Polygon","properties":{"GEOID":"480396614005"}},{"arcs":[[-122,-300,-370,-7,-279,-51,-327,370,-225]],"type":"Polygon","properties":{"GEOID":"480396615021"}},{"arcs":[[371,-93,-140,372,373]],"type":"Polygon","properties":{"GEOID":"480396621002"}},{"arcs":[[-330,-226,-371,-338,-229,-90,374,375]],"type":"Polygon","properties":{"GEOID":"480396618002"}},{"arcs":[[376,-45,-221,-64,377]],"type":"Polygon","properties":{"GEOID":"480396645013"}},{"arcs":[[-165,-169,-171,-252]],"type":"Polygon","properties":{"GEOID":"480396638004"}},{"arcs":[[-16,-341,-343,378,-235,379]],"type":"Polygon","properties":{"GEOID":"480396620003"}},{"arcs":[[-285,-321,-275,-5,-297]],"type":"Polygon","properties":{"GEOID":"480396614003"}},{"arcs":[[-238,-257,-260,380,381]],"type":"Polygon","properties":{"GEOID":"480396627002"}},{"arcs":[[382,383,-294,-377,384]],"type":"Polygon","properties":{"GEOID":"480396645014"}},{"arcs":[[-141,-108,-91,-233,-20,-246,-177,-151,-182]],"type":"Polygon","properties":{"GEOID":"480396624003"}},{"arcs":[[-255,-268,-199,385,-258]],"type":"Polygon","properties":{"GEOID":"480396628004"}},{"arcs":[[386,-272,-363,-322,-283,-281]],"type":"Polygon","properties":{"GEOID":"480396613002"}},{"arcs":[[-17,-380,-234,387]],"type":"Polygon","properties":{"GEOID":"480396620005"}},{"arcs":[[-173,-159,-132]],"type":"Polygon","properties":{"GEOID":"480396640003"}},{"arcs":[[388,-349,-21,-105,-347]],"type":"Polygon","properties":{"GEOID":"480396634004"}},{"arcs":[[-13,389,390,-374,391]],"type":"Polygon","properties":{"GEOID":"480396621001"}},{"arcs":[[-392,-373,-139,-184,-296,-312,-314,-288,-262,392]],"type":"Polygon","properties":{"GEOID":"480396625001"}},{"arcs":[[393,394,-68,395,396]],"type":"Polygon","properties":{"GEOID":"480396601002"}},{"arcs":[[-110,-143,-95,-144,-135]],"type":"Polygon","properties":{"GEOID":"480396622002"}},{"arcs":[[-355,-352,-253,-129,-243]],"type":"Polygon","properties":{"GEOID":"480396635001"}},{"arcs":[[-209,397,398]],"type":"Polygon","properties":{"GEOID":"480396644004"}},{"arcs":[[399,400,401,402,403,404,405]],"type":"Polygon","properties":{"GEOID":"480396604011"}},{"arcs":[[406,407,408,409,410]],"type":"Polygon","properties":{"GEOID":"480396606051"}},{"arcs":[[411,412,413,-400,414]],"type":"Polygon","properties":{"GEOID":"480396604013"}},{"arcs":[[415,416,417,418,-402]],"type":"Polygon","properties":{"GEOID":"480396604022"}},{"arcs":[[419,-411,420,421]],"type":"Polygon","properties":{"GEOID":"480396606041"}},{"arcs":[[422,423,424,425,426,427,428]],"type":"Polygon","properties":{"GEOID":"480396606122"}},{"arcs":[[429,430,431,432,433]],"type":"Polygon","properties":{"GEOID":"480396606102"}},{"arcs":[[434,435,436,437,438,439]],"type":"Polygon","properties":{"GEOID":"480396608032"}},{"arcs":[[-404,440,441,442]],"type":"Polygon","properties":{"GEOID":"480396603011"}},{"arcs":[[443,444,445]],"type":"Polygon","properties":{"GEOID":"480396604031"}},{"arcs":[[446,447,448,449,450,451]],"type":"Polygon","properties":{"GEOID":"480396606031"}},{"arcs":[[452,453,454,455,456,457,458]],"type":"Polygon","properties":{"GEOID":"480396605013"}},{"arcs":[[459,-416,-401,-414]],"type":"Polygon","properties":{"GEOID":"480396604021"}},{"arcs":[[460,-439,461,462]],"type":"Polygon","properties":{"GEOID":"480396608033"}},{"arcs":[[-438,463,464,465]],"type":"Polygon","properties":{"GEOID":"480396608052"}},{"arcs":[[-396,-67,-72,466,467]],"type":"Polygon","properties":{"GEOID":"480396603033"}},{"arcs":[[468,469,470,471,472,473]],"type":"Polygon","properties":{"GEOID":"480396606142"}},{"arcs":[[474,475,476,477]],"type":"Polygon","properties":{"GEOID":"480396609022"}},{"arcs":[[478,479,480,481]],"type":"Polygon","properties":{"GEOID":"480396605022"}},{"arcs":[[-450,482,483,484,485]],"type":"Polygon","properties":{"GEOID":"480396606071"}},{"arcs":[[-379,-342,-190,-339,-14,-393,-261,-185,-236]],"type":"Polygon","properties":{"GEOID":"480396626001"}},{"arcs":[[486,-463,487,488]],"type":"Polygon","properties":{"GEOID":"480396607052"}},{"arcs":[[-210,-399,489,-218]],"type":"Polygon","properties":{"GEOID":"480396644003"}},{"arcs":[[490,-397,-468,491,492,493]],"type":"Polygon","properties":{"GEOID":"480396603022"}},{"arcs":[[494,495,-428,496,497,498]],"type":"Polygon","properties":{"GEOID":"480396606112"}},{"arcs":[[-422,499,500,501,502]],"type":"Polygon","properties":{"GEOID":"480396606042"}},{"arcs":[[503,-489,504,505,506]],"type":"Polygon","properties":{"GEOID":"480396607053"}},{"arcs":[[507,508,509]],"type":"Polygon","properties":{"GEOID":"480396606092"}},{"arcs":[[510,511,512,-473,513,-331,-376,514,515]],"type":"Polygon","properties":{"GEOID":"480396619021"}},{"arcs":[[516,517,-478,518,519]],"type":"Polygon","properties":{"GEOID":"480396608062"}},{"arcs":[[520,521,-273,-387,-280,-337]],"type":"Polygon","properties":{"GEOID":"480396610004"}},{"arcs":[[522,-452,523,-408]],"type":"Polygon","properties":{"GEOID":"480396606032"}},{"arcs":[[524,525,526,527,-448]],"type":"Polygon","properties":{"GEOID":"480396606081"}},{"arcs":[[-484,528,-509,-434,529,530,531]],"type":"Polygon","properties":{"GEOID":"480396606101"}},{"arcs":[[-432,532,533,-507,534,535]],"type":"Polygon","properties":{"GEOID":"480396607042"}},{"arcs":[[-457,536,537]],"type":"Polygon","properties":{"GEOID":"480396605012"}},{"arcs":[[538,539,540,-415,-406,541,542,543,-480]],"type":"Polygon","properties":{"GEOID":"480396605033"}},{"arcs":[[-543,544,545,546,547]],"type":"Polygon","properties":{"GEOID":"480396605032"}},{"arcs":[[-547,548,549,-436]],"type":"Polygon","properties":{"GEOID":"480396608042"}},{"arcs":[[-437,-550,-520,550,551,-464]],"type":"Polygon","properties":{"GEOID":"480396608053"}},{"arcs":[[552,-498,553,554,555,556,-470,557,558]],"type":"Polygon","properties":{"GEOID":"480396606131"}},{"arcs":[[559,-539,-479,560,561]],"type":"Polygon","properties":{"GEOID":"480396605041"}},{"arcs":[[562,563,564,565,566]],"type":"Polygon","properties":{"GEOID":"480396607072"}},{"arcs":[[-381,-259,-386,-198,567,-383,568]],"type":"Polygon","properties":{"GEOID":"480396628007"}},{"arcs":[[-117,-384,-568,-197]],"type":"Polygon","properties":{"GEOID":"480396628005"}},{"arcs":[[569,570,-11]],"type":"Polygon","properties":{"GEOID":"480396619013"}},{"arcs":[[-571,571,-390,-12]],"type":"Polygon","properties":{"GEOID":"480396619011"}},{"arcs":[[572,-515,-375,-94,-372,-391,-572,-570,-10]],"type":"Polygon","properties":{"GEOID":"480396619012"}},{"arcs":[[573,-511]],"type":"Polygon","properties":{"GEOID":"480396619022"}},{"arcs":[[574,-502,575,-499,-553]],"type":"Polygon","properties":{"GEOID":"480396606111"}},{"arcs":[[576,-305,-362,-357,-361]],"type":"Polygon","properties":{"GEOID":"480396611003"}},{"arcs":[[577,578,579,-335,-301,-329]],"type":"Polygon","properties":{"GEOID":"480396607081"}},{"arcs":[[580,581,-578,-514,-472]],"type":"Polygon","properties":{"GEOID":"480396606152"}},{"arcs":[[582,583,584,-521,-336,-333,585]],"type":"Polygon","properties":{"GEOID":"480396609012"}},{"arcs":[[586,-368,-274,-522,-585]],"type":"Polygon","properties":{"GEOID":"480396609011"}},{"arcs":[[587,-474,-513,588]],"type":"Polygon","properties":{"GEOID":"480396606141"}},{"arcs":[[-557,589,-581,-471]],"type":"Polygon","properties":{"GEOID":"480396606143"}},{"arcs":[[590,591,-566,592,593,-586,-332,-580,594]],"type":"Polygon","properties":{"GEOID":"480396607082"}},{"arcs":[[595,596,-369,-587,-584]],"type":"Polygon","properties":{"GEOID":"480396609021"}},{"arcs":[[597,-579,-582,-590,-556]],"type":"Polygon","properties":{"GEOID":"480396606151"}},{"arcs":[[598,-558,-469,-588]],"type":"Polygon","properties":{"GEOID":"480396606132"}},{"arcs":[[599,600,-595,-598,-555]],"type":"Polygon","properties":{"GEOID":"480396606162"}},{"arcs":[[601,602,-591,-601,603]],"type":"Polygon","properties":{"GEOID":"480396607062"}},{"arcs":[[604,-465,-552,605,-476,606,-596,-583,-594]],"type":"Polygon","properties":{"GEOID":"480396609023"}},{"arcs":[[-493,607,-364,-597,-607,608]],"type":"Polygon","properties":{"GEOID":"480396603031"}},{"arcs":[[-501,609,-495,-576]],"type":"Polygon","properties":{"GEOID":"480396606113"}},{"arcs":[[610,611,-429,-496,-610]],"type":"Polygon","properties":{"GEOID":"480396606121"}},{"arcs":[[-497,-427,-604,-600,-554]],"type":"Polygon","properties":{"GEOID":"480396606161"}},{"arcs":[[612,613,614,-602,-426]],"type":"Polygon","properties":{"GEOID":"480396607031"}},{"arcs":[[615,616,-433,-536,-563,-614]],"type":"Polygon","properties":{"GEOID":"480396607041"}},{"arcs":[[-615,-567,-592,-603]],"type":"Polygon","properties":{"GEOID":"480396607061"}},{"arcs":[[-535,-506,617,-564]],"type":"Polygon","properties":{"GEOID":"480396607073"}},{"arcs":[[-442,-446,618,619,-491,620,-518]],"type":"Polygon","properties":{"GEOID":"480396603012"}},{"arcs":[[-621,-494,-609,-475]],"type":"Polygon","properties":{"GEOID":"480396603021"}},{"arcs":[[-70,-74,621,-366]],"type":"Polygon","properties":{"GEOID":"480396602003"}},{"arcs":[[-485,-532,-424,622]],"type":"Polygon","properties":{"GEOID":"480396606072"}},{"arcs":[[-531,623,-616,-613,-425]],"type":"Polygon","properties":{"GEOID":"480396607033"}},{"arcs":[[624,-458,-538,625,-533,-431,626,-526]],"type":"Polygon","properties":{"GEOID":"480396605011"}},{"arcs":[[-626,-537,-456,627,-487,-504,-534]],"type":"Polygon","properties":{"GEOID":"480396607051"}},{"arcs":[[-481,-544,-548,-435,628,629]],"type":"Polygon","properties":{"GEOID":"480396605023"}},{"arcs":[[-419,630,-444,-441,-403]],"type":"Polygon","properties":{"GEOID":"480396604023"}},{"arcs":[[-546,631,-443,-517,-549]],"type":"Polygon","properties":{"GEOID":"480396608041"}},{"arcs":[[-542,-405,-632,-545]],"type":"Polygon","properties":{"GEOID":"480396605031"}},{"arcs":[[-631,-418,632,-619,-445]],"type":"Polygon","properties":{"GEOID":"480396604032"}},{"arcs":[[-449,-528,633,-510,-529,-483]],"type":"Polygon","properties":{"GEOID":"480396606082"}},{"arcs":[[-561,-482,-630,634,-454,635]],"type":"Polygon","properties":{"GEOID":"480396605021"}},{"arcs":[[636,-562,-636,-453]],"type":"Polygon","properties":{"GEOID":"480396605042"}},{"arcs":[[637,638,-412,-541]],"type":"Polygon","properties":{"GEOID":"480396604012"}},{"arcs":[[-462,-466,-605,639]],"type":"Polygon","properties":{"GEOID":"480396608051"}},{"arcs":[[-519,-477,-606,-551]],"type":"Polygon","properties":{"GEOID":"480396608061"}},{"arcs":[[-634,-527,-627,-430,-508]],"type":"Polygon","properties":{"GEOID":"480396606091"}},{"arcs":[[-524,-451,-486,-623,-423,640,-409]],"type":"Polygon","properties":{"GEOID":"480396606073"}},{"arcs":[[-641,-612,641]],"type":"Polygon","properties":{"GEOID":"480396606061"}},{"arcs":[[-618,-505,-488,-640,-593,-565]],"type":"Polygon","properties":{"GEOID":"480396607071"}},{"arcs":[[-492,-467,-365,-608]],"type":"Polygon","properties":{"GEOID":"480396603032"}},{"arcs":[[-410,-642,-611,-500,-421]],"type":"Polygon","properties":{"GEOID":"480396606052"}},{"arcs":[[-455,-635,-629,-440,-461,-628]],"type":"Polygon","properties":{"GEOID":"480396608031"}},{"arcs":[[-128,-350,-389,-346,-344,-244]],"type":"Polygon","properties":{"GEOID":"480396633001"}},{"arcs":[[-530,-617,-624]],"type":"Polygon","properties":{"GEOID":"480396607032"}},{"arcs":[[-490,-398,-208,-222,-219]],"type":"Polygon","properties":{"GEOID":"480396644002"}},{"arcs":[[-633,642,643,-394,-620]],"type":"Polygon","properties":{"GEOID":"480396604033"}},{"arcs":[[-413,-639,644,-643,-417,-460]],"type":"Polygon","properties":{"GEOID":"480396604034"}}]}}}