{"type":"Topology","arcs":[[[5278,7098],[143,149]],[[5421,7247],[71,-110]],[[5492,7137],[-28,-22],[-165,-117]],[[5299,6998],[-92,-66],[-58,-60],[-47,44]],[[5102,6916],[45,46],[131,136]],[[5492,7137],[109,-173]],[[5601,6964],[81,-126],[-52,-52]],[[5630,6786],[-25,-26],[-90,140],[-66,-49],[-40,-26]],[[5409,6825],[-110,173]],[[5630,6786],[32,-49]],[[5662,6737],[36,-57]],[[5698,6680],[-157,-153],[-21,21],[-37,17],[-27,1]],[[5456,6566],[-1,40],[-7,30],[-27,33],[-46,25],[-34,36],[79,77],[-11,18]],[[5421,7247],[77,79]],[[5498,7326],[190,-298]],[[5688,7028],[-87,-64]],[[6032,6846],[11,-15],[-4,-18],[14,-19],[-12,-37],[-20,-33],[-25,-13],[-1,-19],[-25,-16],[-5,-12],[13,-19],[23,-11],[-53,-50],[33,-64]],[[5981,6520],[-101,-107]],[[5880,6413],[-31,29],[-151,238]],[[5662,6737],[16,35],[40,-13],[-5,17],[16,27],[12,-32],[30,38],[15,11],[33,5],[50,28],[9,25],[31,5],[28,-36],[39,-1],[39,-10],[17,10]],[[5981,6520],[14,-23],[17,-13],[114,-69],[63,-27],[75,-41],[114,-60],[-255,-261],[-23,-21],[-134,-77],[-38,-11],[-172,-8]],[[5756,5909],[-1,119],[1,53],[20,110],[31,144],[73,78]],[[5498,7326],[81,80],[88,78]],[[5667,7484],[24,-18],[91,-76],[246,-201],[115,-93],[49,-32],[47,-20],[38,-29],[46,-26],[32,-9],[58,-9],[39,-3]],[[6452,6968],[40,-64],[9,-20],[-7,-25],[-26,-14]],[[6468,6845],[-19,35],[-29,-45],[-32,17],[18,20],[-2,36],[-15,16],[-31,11],[-20,-4],[-36,-22]],[[6302,6909],[-43,33],[-22,7],[-10,35],[9,24],[-26,26],[-85,46],[-20,3],[-20,25],[-31,10],[-23,18],[-82,-18],[-28,-11],[-27,9],[-51,-1],[-20,12],[-135,-99]],[[13,4237],[301,7],[366,9],[192,3],[10,22],[-1,105],[19,15],[234,4],[27,10],[5,39],[12,13],[100,1],[21,12],[11,23],[2,72],[23,88],[17,11],[145,0],[27,2],[24,22],[1,72],[0,282],[10,11],[170,1],[14,16],[0,159],[20,16],[165,0],[10,15],[0,119],[2,68],[15,23],[27,14],[355,-2],[37,19],[176,3],[225,1],[12,73],[7,4],[139,-24],[20,6],[17,94],[66,131],[-15,60],[-2,24],[7,89],[2,124],[31,22],[256,0],[11,13],[2,166]],[[3328,6294],[25,1],[223,-1],[432,0],[10,14],[-2,39],[12,11],[56,5],[48,-9],[153,3],[7,-151],[17,-189],[17,-57],[0,-44],[-9,-32],[-14,-17],[-20,-71],[-6,-56],[-7,-24],[106,3],[270,9],[60,0],[23,40],[36,47],[124,127],[18,24]],[[4907,5966],[87,-63],[57,-2],[562,2],[143,6]],[[6032,6846],[15,8],[21,33],[6,-25],[26,-3],[14,-15],[56,5],[37,21],[18,17],[32,-1],[15,15],[20,-8],[10,16]],[[6468,6845],[-19,-9],[-7,-22],[23,-11],[27,-3],[27,17],[37,75],[21,16],[19,-1],[40,-26],[14,-2],[38,30],[37,14],[22,-3],[18,-41],[29,-25],[31,-34],[81,-28],[16,3],[9,16],[-2,19],[32,29],[21,-16],[-6,-40],[18,-23],[5,-47],[27,-44],[56,-5]],[[7082,6684],[18,-13],[4,-27],[-15,-31],[18,-24],[5,-22],[-17,-42],[9,-11],[46,8],[40,16],[21,-5],[13,-17],[-21,-44],[41,-23],[19,-17],[59,-13],[17,-22],[2,-51],[-31,-27],[-5,-12],[16,-22],[64,-16],[38,-21],[15,-27],[-16,-24],[-25,-5],[-36,-39],[12,-24],[18,-11],[-5,-34],[-49,-50],[-2,-24],[-21,-13],[-29,-7],[-10,-34],[7,-46],[-7,-21],[-21,-21],[15,-24],[30,11],[15,-2],[36,-27],[14,-32],[28,-4],[25,25],[54,-10],[24,-24],[3,-17],[-10,-25],[9,-39],[23,-6],[21,18],[22,-9],[21,11],[10,-7],[0,-24],[-10,-23],[-16,-8],[-5,-27],[11,-12],[39,-2],[14,-15],[-2,-16],[31,-42],[13,-6],[25,13],[13,-9],[23,2],[30,18],[-8,31],[18,14],[61,-16],[50,7],[15,-5],[11,-20],[-40,-17],[7,-21],[43,-10],[6,-36],[-11,-33],[4,-15],[24,-11],[-4,-51],[7,-10],[62,-38],[25,-24],[5,-14],[-1,-42],[17,-10],[33,-5],[29,-15],[35,6],[22,-5],[47,-43],[13,-22],[-18,-20],[6,-16],[-12,-10],[-30,21],[-29,13],[-33,-21],[-29,-8],[-9,-18],[24,-6],[13,-16],[2,-28],[-9,-24],[-17,-3],[-28,22],[-31,4],[-12,-24],[26,-21],[27,-38],[16,-4],[18,9],[9,-12],[-4,-25],[8,-14],[31,-7],[15,-23],[25,-7],[20,-28],[29,-28],[18,-52],[23,-29],[35,28],[44,10],[14,-17],[-15,-13],[1,-19],[32,-30],[5,-19],[-13,-43],[9,-14],[36,-8],[13,-27],[44,0],[27,-26],[-13,-52],[12,-13],[19,5],[32,-32],[-1,-46],[4,-35],[28,0],[13,30],[-4,42],[50,45],[23,1],[13,-18],[-1,-46],[10,-7],[31,8],[19,-20],[0,-19],[-25,-30],[-40,-15],[-9,-32],[12,-21],[-35,-16],[-6,-29],[6,-16],[23,-12],[9,12],[34,22],[19,-2],[8,-29],[28,3],[22,-7],[22,7],[24,19],[-2,36],[10,30],[61,15],[34,-8],[55,6],[21,7],[21,33],[29,-4],[4,-30],[18,-12],[21,3],[10,20],[49,26],[23,-3],[28,-48],[5,-15],[-6,-25],[11,-38],[22,-2],[22,-13],[4,-56],[-19,-56],[7,-35],[-4,-52],[-22,-47],[-19,-4],[-25,9],[-14,-22],[19,-12],[19,-48],[-31,-19],[10,-39],[55,-29]],[[9254,3825],[-278,-193],[-163,-112],[-337,-233],[-473,-332],[-27,-22],[-184,-127],[-98,-69],[-206,-143],[-644,-452],[-461,-322],[-546,-363],[-180,-96],[-169,-95],[-338,-243],[0,-19],[-91,-48],[-49,-31],[-88,-21],[-31,-3],[-28,14],[-30,-3],[-35,-14],[-6,-39],[-30,-60],[-37,-115],[-17,-25],[-20,-14],[-92,-27],[-61,-11],[-31,-10],[-19,2],[-8,13],[-43,115],[-16,26],[-63,54],[-23,50],[-43,18],[-16,29],[-53,44],[-5,17],[-41,52],[-16,36],[-45,48],[-80,56],[-43,19],[-48,10],[-33,-31],[-4,-16],[-83,-60],[-23,-4],[-63,-42],[-18,-25],[-25,-68],[-16,-31],[-21,-62],[-18,-42],[-36,-70],[-28,-21],[-42,-5],[-44,-20],[-34,-31],[-21,-28],[1,-23],[40,-67],[13,-46],[-2,-25],[-52,-42],[-29,-29],[-17,-1],[-28,13],[-14,14],[-38,54],[-34,22],[-43,10],[-48,19],[-17,-20],[-23,-40],[-31,-47],[-116,-77],[-72,-55],[-41,-11],[-6,-9],[10,-37],[-24,-17],[-41,3],[-21,26],[43,36],[-3,23],[-19,38],[-26,23],[-35,0],[-43,-23],[-17,-21],[-51,-42],[-35,-20],[-21,-36],[-2,-17],[20,-77],[32,-44],[9,-27],[-9,-36],[-36,-21],[-40,-1],[-21,8],[-32,22],[-60,66],[-47,57],[-19,11],[-41,3],[-21,10],[-30,41],[-3,28],[14,48],[15,91],[14,18],[5,27],[-21,42],[-37,34],[-18,7],[-73,7],[-46,32],[-21,9],[-45,-3],[-34,-12],[-20,-23],[-3,-51],[5,-41],[28,-51],[4,-17],[-18,-22],[-74,-51],[-22,-21],[-5,-26],[-33,-10],[-43,43],[-19,43],[-73,83],[-63,63],[-28,17],[-41,16],[-58,13],[-70,20],[-50,0],[-124,-42],[-49,-2],[-31,22],[-24,31],[-22,13],[-83,8],[-58,-1],[-64,-10],[-27,-10],[-63,-33],[-34,-23],[-39,-22],[-71,-52],[-8,-30],[-62,-86],[-31,-32],[-44,-38],[-22,-2],[-51,-32],[-37,4],[-18,-13],[-5,-16],[-22,-10],[-14,14],[-5,21],[2,39],[8,29],[-4,16],[4,48],[-4,20],[-32,63],[-17,48],[-19,114],[-28,53],[-87,52],[-13,4],[-30,27],[-42,7],[-20,-9],[-26,-27],[-62,-82],[-17,-27],[-19,-17],[-29,-15],[0,475],[-1,112],[-1,334],[5,26],[0,159],[-1,304],[-2,644],[-4,1135],[-1,210],[-2,305]],[[7294,8709],[-2,-129],[153,2],[225,0],[52,-4],[46,5],[-62,-218],[-133,-458],[-22,-74],[-62,-218],[-30,-109],[-17,-55],[-15,-34],[-61,-116],[-1,-36],[-14,-18],[3,-18],[-15,-31],[-3,-44],[25,-11],[-11,-24],[-35,-10],[11,-19],[-4,-33],[-29,-7],[-3,-14],[-21,-16],[-6,-19],[15,-19],[-27,-36],[-40,-14],[-26,13],[-2,-24],[-21,-42],[5,-20],[-13,-50],[11,-27],[-19,-20],[-25,-4],[22,-26],[-35,9],[-19,-10],[1,-21],[-18,1],[10,-27]],[[6452,6968],[-20,28],[-24,-4],[-33,12],[-17,40],[-42,1],[-18,7],[-40,38],[13,14],[31,3],[7,25],[-10,20],[-30,18],[-21,-7],[-12,13],[-42,68],[-11,5],[-23,-8],[-39,3],[-22,27],[-12,-2],[-16,-22],[-15,3],[-17,27],[4,31],[11,26],[13,11],[17,62],[17,37],[-10,20],[-23,21],[-83,31],[-16,12],[-5,21],[6,25],[-24,37],[-11,25],[-37,31],[-38,23],[-28,6],[-45,2],[-22,21],[-16,25],[-13,34],[6,36],[-26,40],[-49,36],[-32,16],[0,35]],[[5635,7941],[127,57],[114,49],[105,49],[335,159],[291,137],[226,88],[149,59],[312,170]],[[5515,7879],[55,31],[65,31]],[[5667,7484],[-40,19],[-36,9],[-51,-1],[-161,-46]],[[5379,7465],[-18,20],[-74,71],[-12,15],[-38,34],[-66,65],[-26,29]],[[5145,7699],[-7,17],[2,26],[61,132],[47,-9],[161,-25],[22,-1],[34,10],[50,30]],[[5,8675],[371,4],[60,30],[132,-1],[16,-28],[1,-166],[10,-14],[152,0],[21,-9],[17,-27],[0,-48],[18,-14],[174,-1],[17,-10],[-1,-164],[6,-20],[17,-10],[193,-2],[29,-4],[104,-2],[10,-12],[3,-49],[33,-16],[60,-12],[59,-32],[59,-51],[55,-30]],[[1621,7987],[1,-267],[1,-82],[-212,-3],[1,-22]],[[1412,7613],[0,-113],[231,-19],[1,-97],[52,1],[0,-120],[189,2],[16,-19],[176,-1],[-1,252],[29,3],[-3,60]],[[2102,7562],[74,4],[317,-1],[-24,275],[-11,144]],[[2458,7984],[171,-3],[259,-7],[77,0],[161,2],[200,-1],[16,-25]],[[3342,7950],[3,-14],[-3,-361],[-11,-375],[0,-123],[-1,-367],[1,-153],[-3,-263]],[[13,4237],[-2,614],[-1,166],[0,232],[-2,712],[-3,979],[-3,1164],[-2,303],[5,268]],[[10092,12035],[52,-88],[65,-132],[246,-418],[558,-945],[7,-18],[394,-668],[244,-413]],[[11658,9353],[-286,-2],[-99,1],[-24,-5],[-158,-1],[-1,-212],[-24,3],[-459,-4],[-135,2],[-99,-3],[-24,5],[-33,23],[-21,3],[-129,1],[-318,-6],[-296,-4],[-291,-3],[-11,-10],[-4,-50],[-183,-1],[-310,-4],[-112,0],[-6,34],[-300,-5],[-43,20],[-115,1],[-37,-17],[-8,3],[-247,-115],[-154,-76],[-208,-98],[-53,-27],[-176,-97]],[[7294,8709],[18,185],[-2,39],[-15,49],[-8,170],[-2,254],[-164,0],[-363,-4],[-71,-3],[-196,0],[-252,2],[82,286],[105,360],[-9,20],[-31,-1],[-3,-42],[-20,-26],[-42,7],[-13,6],[-10,21],[2,32],[-20,33],[-15,-3],[-11,-17],[-7,-40],[7,-26],[-7,-27],[-25,-22],[-18,1],[-20,-16],[-50,1],[-24,40],[-26,10],[-31,-38],[-29,8],[-17,-14],[-13,17],[-34,-17],[-7,-28],[-11,-12],[6,-21],[-17,-16],[-64,16],[-19,-6],[-30,29],[0,22],[-28,20],[-26,-39],[-13,-1]],[[5751,9918],[3,29],[15,33]],[[5769,9980],[37,27],[-22,41],[-31,29],[-15,24],[24,21],[14,33],[-10,43],[-13,17],[11,12],[-17,25],[-15,11],[13,25],[-27,44],[-2,22],[8,23],[-2,25],[48,38],[-1,59],[7,18],[-14,11],[-28,66],[32,9],[0,26],[11,23],[40,39],[4,24],[16,14],[47,-2],[24,15],[8,12],[26,-7],[27,3],[29,18],[13,-4],[23,15],[84,19],[82,48],[45,32],[54,17],[18,28],[35,13],[21,-7],[26,10],[11,22],[21,12],[38,10],[30,32],[3,48],[-3,23],[-22,8],[8,25],[-5,28],[22,39],[11,33],[-19,-5],[0,31],[-14,26],[-22,-15],[-23,13],[-2,15],[19,12],[-23,17],[-19,31],[7,17],[31,21],[40,19],[19,-3],[17,24],[1,14],[22,11],[18,51],[-17,9],[-3,22],[-24,-3],[-2,20],[22,37],[-23,0],[5,25],[-24,14],[9,23],[-28,16],[5,20],[-6,16],[6,28],[22,19],[-33,18],[-12,17],[7,23],[-59,34],[30,63],[26,7],[34,-16],[29,20],[7,13],[19,-8],[49,-5],[30,-16],[49,-5],[26,8],[13,17],[1,34],[26,5],[2,22],[28,12],[23,-22],[21,-2],[5,20],[-4,56],[15,23],[20,-16],[33,19],[17,26],[-2,51],[9,10],[0,-136],[-3,-49],[345,-3],[44,1],[59,6],[70,0],[37,-2],[34,-14],[23,-24],[10,-22],[15,-85],[30,-41],[35,-17],[37,-3],[89,2],[154,15],[226,0],[188,-2],[166,4],[48,9],[93,31],[78,29],[128,60],[32,26],[46,54],[24,17],[39,10],[115,3],[113,-1],[203,2],[541,0],[100,-1],[35,-7],[22,9],[0,12]],[[4950,6687],[25,53]],[[4975,6740],[42,91],[85,85]],[[5456,6566],[-389,-1],[-42,16],[-49,66],[-26,40]],[[5065,8065],[51,-50],[96,96],[1,6],[-49,47]],[[5164,8164],[45,47],[208,204],[-5,-45],[25,-30],[-1,-22],[8,-42],[-18,-15],[0,-15],[24,-18],[2,-29],[20,-29],[34,-25],[3,-21],[-45,-24],[5,-21],[28,-29],[3,-21],[-28,-12],[10,-21],[24,-23],[-1,-10],[-26,-25],[36,-59]],[[5145,7699],[-44,-33]],[[5101,7666],[-55,-41],[-59,66],[16,-3],[21,21],[-14,37],[18,20],[-53,36],[-29,26]],[[4946,7828],[-53,51],[1,13],[57,54],[114,119]],[[4907,5966],[17,37],[11,51],[17,223],[0,28],[-33,249],[-1,52],[6,24],[26,57]],[[1412,7613],[136,-70],[59,-21],[37,-6],[77,0],[158,7],[117,7],[42,9],[47,20],[17,3]],[[5164,8164],[-25,-25],[-86,82],[-3,16],[-7,116],[-3,85],[-9,106],[-29,-45],[-187,-190]],[[4815,8309],[-86,84]],[[4729,8393],[38,49],[41,33],[67,35],[26,31],[22,4],[2,23],[-15,18],[23,48],[33,32],[6,23],[-6,13],[9,61],[-10,65],[-29,37],[14,23],[3,34],[20,-3],[11,26],[4,28],[-9,27],[-30,15],[-32,26],[-33,-8],[-13,10],[-26,-12],[-13,43],[52,61],[4,21],[-14,15],[20,57],[27,9],[10,38],[18,27],[48,11],[27,15],[6,19],[31,42],[56,2],[24,15],[5,13],[-8,34],[-17,24],[5,16],[3,60],[-25,27],[-38,24],[-9,44],[23,-3],[8,-16],[31,18],[44,-2],[42,-25],[40,22],[17,-36],[23,-16],[-6,-16],[18,-20],[-25,-27],[21,-46],[43,44],[26,49],[32,41],[21,46],[20,23],[19,7],[46,31],[33,37],[28,18],[62,53],[54,32],[7,28],[16,10],[40,2],[11,16]],[[11658,9353],[534,-903],[141,-249],[259,-441],[410,-699],[-497,-79],[-985,-156],[-13,-3],[-731,-115],[-173,-773],[-52,-232],[-171,-751],[-73,-343],[-14,-61],[-372,-257],[-41,-30],[-626,-436]],[[3342,7950],[51,1],[214,-2],[370,-3],[7,8],[1,73],[81,0],[21,10],[27,25],[34,8],[82,-5],[9,3],[50,44],[3,12],[-1,98],[19,24],[81,30],[24,37],[11,25],[27,82],[12,17],[19,7],[76,57],[33,33]],[[4593,8534],[77,-83],[59,-58]],[[4815,8309],[109,-108],[141,-136]],[[4946,7828],[-117,-34],[-50,-21],[-41,-32],[-41,-69],[-22,-18],[-41,-66],[-28,-76],[-38,-67],[1,-16],[29,-20],[-8,-33],[144,-5],[39,24],[135,141],[6,13],[34,-10],[66,-65],[-7,-10],[-3,-35],[25,-42],[-11,-21],[51,14]],[[5069,7380],[-69,-75],[-22,-46],[-14,-42],[-2,-137],[-6,-188],[-31,-86],[26,-11],[3,-18],[21,-37]],[[8315,15017],[-193,-1],[-56,-5],[-71,-17],[-34,-19],[-107,-81],[-49,-26],[-22,-2],[-336,-1],[-270,0],[-259,2],[-38,-1],[2,-296],[-129,-2],[-21,-25],[-217,-1],[2,-176],[-1,-324],[-188,0],[-106,-3],[-217,1],[-124,0],[-128,4],[-239,-1],[-51,1],[-1,-219],[-1,-404],[-157,2],[-182,-2],[-10,12],[0,128],[-9,4],[-193,1],[-17,-12],[-12,-24],[-30,-40],[-13,-67],[-1,-200],[-39,-7],[-126,2],[-78,8]],[[4594,13226],[-24,5],[-220,62],[-94,15],[-32,1],[-339,0],[-44,20],[-12,-21],[3,-96],[9,-39],[45,-87],[13,-52],[1,-44]],[[3900,12990],[-20,-1],[-43,-29],[-12,-19],[-15,1],[-13,29],[-9,5],[-29,-27],[-13,50],[-14,9],[-26,-4],[-9,9],[7,27],[33,6],[7,18],[-15,13],[-25,4],[-16,26],[39,21],[3,47],[26,34],[-13,31],[-32,15],[-46,30],[-47,7],[-37,-9],[-62,-3],[-30,-13],[-17,-23],[-27,12],[-17,43],[1,37],[23,49],[-22,37],[-25,13],[11,18],[44,30],[61,70],[40,29],[1,28],[-19,50],[1,29],[-6,21],[-25,25],[-32,11],[-17,29],[-15,13],[-49,30],[-37,32],[-39,74],[26,36],[-5,59],[6,42],[-27,95],[-56,40],[-24,10],[-31,49],[-35,3],[-63,-4],[-33,10],[-1,29],[-17,9],[-10,-17],[7,-21],[-11,-21],[-21,16],[-4,13],[10,33],[-19,15],[-62,6],[-16,-16],[-33,-2],[-32,9],[-18,34],[-41,-10],[-19,-9],[-41,-60],[-24,-17],[-8,-19],[-20,5],[-28,-35],[-11,31],[-1,22],[-28,-3],[-1,34],[26,26],[-11,29],[-21,3],[-52,-11],[-26,2],[-17,-11],[-24,-2],[-21,35],[-24,20],[7,51],[13,22],[24,15],[-3,30],[-22,31],[-9,31],[-32,16],[-16,16],[-28,11],[-20,30],[16,11],[-4,28],[-21,-1],[-5,-19],[-28,1],[2,34],[-11,35],[-28,22],[4,36],[-8,13],[-24,4],[-13,12],[-27,10],[-48,44],[2,19],[-11,16],[-26,-21],[-4,-27],[-12,-26],[-3,-40],[-17,-11],[-2,-44],[-10,-25],[-19,-15],[-38,-17],[-43,-4],[-12,-19],[-15,5],[-39,36],[7,8],[37,-5],[-2,31],[-15,13],[-34,-9],[-18,-15],[-7,-30],[-24,-3],[-52,8],[-70,0],[-76,-5],[-40,-6],[-16,3],[-23,18],[-3,25],[-28,3],[-6,-31],[-24,-33],[-23,13],[-22,32],[-36,29],[-47,2],[-37,-21],[-23,-7],[-51,17],[-19,-15],[-26,13],[-41,-3],[-11,-11],[0,-35],[-24,-2],[-19,-11],[-3,-30],[-12,-6],[-27,31],[-15,-14],[15,-24],[-22,-19],[-26,1],[25,-25],[26,-5],[-8,-29],[-48,-30],[-38,-28],[-20,-3],[-6,-24],[-18,-43],[-16,-19],[-56,-16],[-16,-26],[-51,27],[-20,5],[1,-31],[-7,-11],[-35,18],[-15,48],[-35,16],[-51,5],[-30,-18],[-24,-23],[-15,1],[-50,19],[-22,-9],[-15,-19],[-20,13],[-17,-23],[-15,10],[0,41],[-11,3],[-27,-16],[-13,-28],[-49,-5],[-13,35],[-51,6],[12,47],[-3,25],[-42,27],[-45,35],[-38,56],[-31,6],[-43,-3]],[[120,14612],[15,648],[2,185],[9,342],[25,1108],[17,763],[549,5],[285,0],[144,1],[187,-6],[548,-1],[128,11],[559,-5],[677,-6],[788,-7],[884,-8],[0,14],[89,4],[1228,-25],[529,-11],[447,-762],[65,-107],[384,-652],[296,-505],[95,-153],[227,-397],[18,-31]],[[5101,7666],[-14,-43],[1,-24],[15,-50],[24,-53],[17,-53],[23,-33]],[[5167,7410],[-98,-30]],[[5379,7465],[-73,-21],[-50,-8],[-89,-26]],[[5295,7367],[126,-120]],[[5278,7098],[-112,108],[24,25],[31,50],[74,86]],[[5295,7367],[65,80],[19,18]],[[1621,7987],[134,-2],[374,1],[329,-2]],[[33,10382],[38,-1],[55,12],[45,22],[25,0],[43,32],[43,1],[378,-4],[169,0],[30,-7],[46,-44],[28,-12],[-2,116],[-6,28],[-22,33],[-153,148],[-14,19],[-10,36],[5,33],[88,323],[6,-6],[-2,-129],[4,-27],[15,-16],[2,-35],[12,-10],[47,2],[37,-12],[46,-1],[47,-5],[52,-2],[152,-31],[286,-2],[10,-36],[18,-33],[6,-25],[25,-33],[51,-12],[22,-25],[79,12],[28,72],[27,13],[15,-15]],[[1804,10761],[11,-23],[0,-62],[-27,-26],[-12,-21],[-3,-68],[12,-86],[-3,-59],[-23,-161],[-3,-51],[-11,-12],[-1,-48],[13,-9],[297,-222],[103,-69],[20,-17],[141,-160],[24,-20],[41,-16],[55,-3],[237,-5]],[[2675,9623],[-2,-459],[5,-48],[8,-23],[43,-76],[25,-24],[203,-137]],[[2957,8856],[79,-54],[47,-20],[355,-39],[26,-6],[35,-16],[59,-39],[45,-18],[86,-18],[51,-1],[469,5],[36,4],[158,30],[48,-7],[32,-25],[110,-118]],[[5,8675],[1,57],[14,847],[4,229],[9,574]],[[3900,12990],[42,-9],[24,-10],[30,0],[56,11],[103,-31],[53,-1],[14,-12],[19,-42],[27,-36],[17,-41],[-19,-37],[-40,-47],[-21,-34],[-1,-23],[22,-46],[34,-40],[139,-124],[53,-69]],[[4452,12399],[30,-82],[-19,-72],[-40,-93],[-68,-143],[-32,-61],[-66,-95],[-24,-51],[-13,-43],[2,-24],[14,-23],[36,-24],[20,-4],[36,4],[135,2],[72,-71],[53,-40],[118,-29],[118,-54],[43,-29],[19,-67],[-8,-54],[-39,-55],[-15,-37],[-3,-57],[12,-66],[10,-15]],[[4843,11116],[-84,-123],[-9,-41],[-222,108],[-59,-56],[33,-51],[7,-18],[-74,-71],[-17,-8],[-10,-42],[-38,-48],[-87,-84],[-33,-40],[-24,-19],[-62,-5],[-72,3],[-52,-17],[-74,-16],[-70,20],[-60,-12],[-20,-8],[-56,24],[-52,10],[-43,4],[-49,-12],[-47,-4],[-18,-9],[-39,-4],[-100,-41],[-47,-1],[-51,-21]],[[3314,10534],[-50,-12],[-26,35],[-35,38],[-21,16],[-42,52],[-63,27],[-75,51],[-29,8],[-18,18],[-50,11],[-65,20],[-47,32],[-32,16],[-62,21],[-39,24],[-82,11],[-45,-13],[-1,-54],[-12,-31]],[[2520,10804],[-48,-56],[-19,-47],[-34,-32],[-29,-4],[-66,37],[-33,22],[-33,14],[-58,61],[-46,4],[-33,15],[-1,21],[11,15],[-3,22],[-17,8],[-55,7],[-44,0],[-26,-5],[-35,-19],[-69,-55],[-34,-31],[-44,-20]],[[33,10382],[18,1105],[14,460],[22,1036],[10,545],[7,285],[8,344],[4,250],[4,205]],[[2520,10804],[84,-70],[27,-32],[41,-70],[9,-24],[9,-48],[0,-125],[-2,-193],[-13,-619]],[[3314,10534],[-33,-149],[10,-50],[15,-43],[-31,-77],[-10,-41],[28,-42],[-3,-34],[-31,-23],[-15,-55],[19,-32],[9,-42],[-5,-22],[-34,-27],[-9,-22],[-1,-52],[-5,-16],[-29,-26],[-54,-65],[4,-26],[-10,-19],[0,-51],[-8,-11],[1,-28],[16,-27],[31,-29],[19,-11],[38,-61],[-2,-11],[-40,-33],[-20,-27],[-10,-28],[-31,-41],[-3,-13],[15,-29],[-9,-21],[-13,-78],[-9,-19],[-50,-56],[-9,-26],[1,-48],[-9,-23],[-19,-8],[-69,26],[-43,-39],[-22,-29],[-7,-20],[23,-14],[50,-43],[7,-17]],[[4843,11116],[52,-43],[45,-24],[27,-37],[3,-18],[61,-62],[29,-61],[68,-17],[45,-22],[113,-29],[14,-17],[-4,-41],[7,-32],[21,-36],[-3,-44],[-10,-27],[12,-33],[12,-16],[35,-26],[7,-20],[-10,-29],[15,-33],[38,-13],[25,-27],[27,-23],[18,-36],[-10,-33],[9,-21],[37,-35],[2,-21],[27,-28],[42,-24],[23,8],[13,-13],[40,-63],[10,-38],[36,-11],[51,-54],[-1,-37]],[[4452,12399],[195,83],[-24,17],[-18,27],[-4,27],[-15,10],[1,41],[27,9],[0,178],[-47,4],[-2,175],[24,41],[9,36],[-4,179]],[[8315,15017],[39,-67],[402,-675],[190,-317],[321,-543],[231,-388],[594,-992]]],"transform":{"scale":[0.0000411598215659133,0.00003573754810957663],"translate":[-99.203601,31.448186]},"objects":{"Geometry\\48-049":{"type":"GeometryCollection","geometries":[{"arcs":[[0,1,2,3,4]],"type":"Polygon","properties":{"GEOID":"480499509001"}},{"arcs":[[-3,5,6,7,8]],"type":"Polygon","properties":{"GEOID":"480499509003"}},{"arcs":[[-8,9,10,11,12]],"type":"Polygon","properties":{"GEOID":"480499509004"}},{"arcs":[[13,14,15,-6,-2]],"type":"Polygon","properties":{"GEOID":"480499510002"}},{"arcs":[[16,17,18,-11,19]],"type":"Polygon","properties":{"GEOID":"480499511001"}},{"arcs":[[-18,20,21]],"type":"Polygon","properties":{"GEOID":"480499511003"}},{"arcs":[[22,23,24,25,26,-15]],"type":"Polygon","properties":{"GEOID":"480499510001"}},{"arcs":[[27,28,29,-21,-17,30,-26,31,32,33]],"type":"Polygon","properties":{"GEOID":"480499513002"}},{"arcs":[[34,-32,-25,35,36]],"type":"Polygon","properties":{"GEOID":"480499512002"}},{"arcs":[[37,-36,-24,38,39,40]],"type":"Polygon","properties":{"GEOID":"480499507002"}},{"arcs":[[41,42,43,44,45,46,-28,47]],"type":"Polygon","properties":{"GEOID":"480499505003"}},{"arcs":[[48,49,50,51,52]],"type":"Polygon","properties":{"GEOID":"480499503002"}},{"arcs":[[53,54,-4,-9,-13,55]],"type":"Polygon","properties":{"GEOID":"480499509002"}},{"arcs":[[-16,-27,-31,-20,-10,-7]],"type":"Polygon","properties":{"GEOID":"480499510003"}},{"arcs":[[56,57,-41,58,59,60]],"type":"Polygon","properties":{"GEOID":"480499506002"}},{"arcs":[[-56,-12,-19,-22,-30,61]],"type":"Polygon","properties":{"GEOID":"480499511002"}},{"arcs":[[62,-44]],"type":"Polygon","properties":{"GEOID":"480499505002"}},{"arcs":[[-51,-37,-38,-58,63,64,65]],"type":"Polygon","properties":{"GEOID":"480499512001"}},{"arcs":[[-50,66,-33,-35]],"type":"Polygon","properties":{"GEOID":"480499503001"}},{"arcs":[[67,68,-65,69,-61,70,71,-54,-62,-29,-47]],"type":"Polygon","properties":{"GEOID":"480499513001"}},{"arcs":[[72,73,74,75]],"type":"Polygon","properties":{"GEOID":"480499501001"}},{"arcs":[[-57,-70,-64]],"type":"Polygon","properties":{"GEOID":"480499506001"}},{"arcs":[[-60,76,77,-71]],"type":"Polygon","properties":{"GEOID":"480499506003"}},{"arcs":[[-59,-40,78,-77]],"type":"Polygon","properties":{"GEOID":"480499507001"}},{"arcs":[[79,-1,80]],"type":"Polygon","properties":{"GEOID":"480499508001"}},{"arcs":[[-39,-23,-14,-80,81]],"type":"Polygon","properties":{"GEOID":"480499508002"}},{"arcs":[[82,-45,-63,-43]],"type":"Polygon","properties":{"GEOID":"480499505001"}},{"arcs":[[-78,-79,-82,-81,-5,-55,-72]],"type":"Polygon","properties":{"GEOID":"480499508003"}},{"arcs":[[83,84,85,86,-68,-46,-83,-42,87]],"type":"Polygon","properties":{"GEOID":"480499502012"}},{"arcs":[[-75,88,89,90,91,92,-84,93]],"type":"Polygon","properties":{"GEOID":"480499502021"}},{"arcs":[[-93,94,-85]],"type":"Polygon","properties":{"GEOID":"480499502023"}},{"arcs":[[-92,95,-86,-95]],"type":"Polygon","properties":{"GEOID":"480499502022"}},{"arcs":[[-91,96,-52,-66,-69,-87,-96]],"type":"Polygon","properties":{"GEOID":"480499502011"}},{"arcs":[[97,-73,98,-53,-97,-90]],"type":"Polygon","properties":{"GEOID":"480499501002"}},{"arcs":[[-98,-89,-74]],"type":"Polygon","properties":{"GEOID":"480499501003"}}]}}}