{"type":"Topology","arcs":[[[4192,7044],[1,-20],[0,-201],[7,-29],[12,-24],[27,-32]],[[4239,6738],[-130,1],[-4,-3],[-32,-106],[-32,-35],[-27,-19],[-27,11],[-13,-5],[-16,-20],[-28,-2],[-33,-12],[-16,-1],[-20,-10],[-20,-25],[-31,-12],[-48,-6],[-22,5],[-10,-28],[-3,-35],[-9,-23],[-24,-41],[-2,-21],[-20,-31],[-24,-18],[-4,-11],[-5,-60],[-12,-29],[7,-35],[-2,-22],[0,-85],[-9,-36],[8,-29],[0,-41],[5,-15],[18,-23],[15,-6],[6,-64],[5,-15],[48,-38],[-9,-89],[-8,-23],[-17,-21],[-4,-18],[6,-22],[1,-46],[-10,-27],[-20,-28],[-3,-45],[-46,-30],[-14,-12],[-24,-11],[-39,-55],[-8,-23],[-24,-16],[-11,-31],[-3,-33],[-11,-30],[-12,-16],[-46,-17],[-29,-36],[-25,0],[-23,8],[-11,-4],[-27,-27],[-25,-13],[-5,-14],[-15,-4],[5,-35],[-4,-28],[8,-14],[5,-50],[29,-42],[22,-43],[27,-31],[6,-29],[3,-51],[-5,-75],[3,-18],[18,-57],[6,-30],[-37,-145],[3,-21],[15,-38],[31,-55],[2,-16],[2,-79],[29,-47],[13,-47],[-6,-38],[69,-15],[31,-18],[20,-33],[24,-27],[35,-16],[42,-5],[19,-8],[51,-30],[36,-24],[23,-34],[20,-64],[21,-17],[78,-1],[3,-29],[12,-39],[15,-25],[26,-6],[27,-14],[57,-64],[29,-17],[14,-33],[24,-37],[44,-46],[20,-35],[17,-41],[27,-52],[7,-35],[29,-25],[16,-35],[20,-22],[17,-64]],[[4314,3210],[-16,-3],[-40,-24],[-40,-14],[-75,-46],[-34,-7],[-39,7],[-124,16]],[[3946,3139],[-100,-12],[-30,3],[-34,17],[-78,65],[-41,21],[-91,26],[-49,1],[-429,-63],[-637,1],[-166,-17],[-309,-30],[-26,5],[-61,48],[-37,13],[-266,-3],[-637,-6],[-70,0],[-857,13]],[[28,3221],[-5,1108],[-4,335],[0,12],[-5,469],[1,13],[-4,441],[-8,973],[-3,473],[0,32],[83,1],[175,-3],[50,0],[13,-7],[66,1],[66,2],[53,0],[261,-5],[197,-8],[582,-1],[476,0],[10,1],[526,-1],[341,-4],[450,-3],[843,-6]],[[6213,1662],[27,-16],[28,-27],[17,6],[7,23],[27,37],[8,29],[19,2],[14,9],[44,3],[27,-7],[42,-36],[28,-54],[52,15],[30,15],[21,18],[19,22],[4,46],[-20,35],[15,57],[8,12],[28,22],[33,-12],[30,-21],[10,1],[13,-17],[7,-32],[2,-27],[-13,-42],[1,-23],[11,-39],[11,-1],[28,-21],[17,-32],[29,-2],[-6,26],[7,25],[16,13],[13,21],[-4,12],[5,22],[19,1],[47,30],[25,-4],[11,9],[-4,18],[-21,23]],[[6945,1801],[113,-33],[38,-5],[181,-8],[243,-36],[73,-20],[41,-8],[173,-17],[196,7],[147,45],[65,3],[44,-2],[66,-10],[66,-3],[123,-41],[21,-3],[125,12],[48,-1],[34,9],[114,66]],[[8856,1756],[3,-338],[5,-26],[2,-228],[2,-34],[1,-184],[-4,-19],[0,-38],[33,-75],[29,-34],[76,-92],[16,-15],[13,-26],[7,-25],[8,-47],[-1,-66],[8,-52],[-8,-42],[2,-40],[-4,-22],[-46,-51],[-21,-29],[-23,-43],[-22,-63],[0,-11],[17,-42],[12,-19],[16,-8],[-2,27],[16,15],[-7,18],[18,6],[18,16],[26,-8],[13,-14],[16,13],[34,13],[2,-21],[-1,-65]],[[9110,87],[-689,-3],[-486,-2],[-9,-7],[-38,1],[-363,-6],[-288,1],[-180,2],[-117,0],[-484,3],[-283,5],[-36,-2],[-204,0],[-161,-2],[-86,1]],[[5686,78],[7,78],[4,15],[21,42],[64,119],[79,153],[26,59],[17,17],[40,25],[28,34],[42,104],[165,352],[13,30],[16,60],[5,47],[0,449]],[[3946,3139],[0,-144],[-9,-22],[-8,-46],[-32,-19],[-6,-41],[-28,-26],[-22,-63],[-13,-18],[-2,-16],[-16,-23],[-5,-24],[12,-66],[29,-86],[-1,-17],[-10,-8],[-16,-36],[7,-15],[29,-22],[18,-9],[13,-39],[-2,-34],[6,-40],[25,-59],[0,-72],[1,-83]],[[3916,2111],[-203,-7],[-8,1],[-85,28],[-38,1],[-114,-142],[-19,-35],[-19,-1],[-30,-45],[-71,-75],[-23,-18],[-192,-125],[-15,-7],[-129,-1],[-11,-11],[-146,-234],[-19,-55],[-32,-38],[-35,-6],[-22,-18],[-9,-16],[-36,-43],[-21,-64],[1,-36],[-86,-15],[-14,1],[-37,49],[-28,22],[-43,5],[-9,-3],[-49,-71],[-27,-4],[-19,-13],[-34,-2],[-34,10],[-115,2],[-53,0],[-14,-6],[-42,0],[-13,-6],[-84,-75],[-61,-44],[-21,-13],[-121,1],[-84,-45],[-105,-40],[-18,-14],[-63,2],[-7,4],[-56,76],[-27,84],[-19,51],[-37,53],[-30,66],[-64,60],[-20,24],[-34,57],[-42,54],[-75,162],[-11,14],[-29,19],[-63,3],[-27,6],[-52,29],[-71,-33],[-67,-1],[-13,6],[-23,34],[-10,9],[-195,3],[-106,4],[-23,-9],[-62,1],[-15,-7],[-36,0],[-38,16],[-40,-4],[-24,4],[-14,13],[-12,33],[-12,19],[-34,26],[-22,22],[-22,10]],[[34,1813],[-1,208],[0,700],[-3,121],[3,106],[-5,273]],[[3916,2111],[105,3],[56,-9],[210,-21],[-6,-323],[-2,-22],[-27,-26],[-15,-130],[14,-112],[28,-22],[-26,-19],[-12,-39],[-26,-68],[-15,-143],[0,-11],[24,-188],[2,-37],[-22,-29],[-30,-59],[-18,-20],[-59,-59],[-15,-20],[-143,-243],[-20,-22],[-17,-11],[-114,-59],[-29,-21],[-74,-60],[-32,-19],[-55,-19],[-22,-16],[-50,-62],[-46,-31],[-20,-21],[-29,-46],[-9,-26],[0,-54]],[[3422,47],[-689,-10],[-918,-14],[-856,-13],[-407,-4],[-509,-6],[-3,282],[-2,511],[-4,1020]],[[4314,3210],[20,-4],[40,-30],[34,-13],[63,-4],[18,-9],[228,-113],[29,-6],[20,2],[63,18],[34,-10],[226,-153],[16,-8],[154,-61],[39,-6],[151,1]],[[5449,2814],[-2,-95],[1,-120],[110,-2],[154,2],[105,0],[76,-5],[122,0],[80,-1]],[[6095,2593],[-4,-63],[-6,-23],[-19,-28],[-26,-22],[-133,-119],[-17,-21],[-25,-50],[-180,-385],[-11,-19],[-20,-20],[-42,-33],[-39,-42],[-37,-24],[-34,-8],[-43,4],[-3,-27],[-9,-2],[-38,23],[-53,17],[-37,0],[-20,6],[-8,-6],[-14,-29],[6,-46],[8,-16],[13,-69],[-18,-16],[-67,-38],[-17,-23],[-15,-32],[12,-58],[-5,-21],[-29,-45],[-15,-37],[-10,-40],[0,-45],[16,-58],[-2,-16],[-10,-8],[-48,3],[-13,-10],[-5,-19],[5,-32],[30,-35],[0,-25],[30,-21],[23,-11],[65,-13],[23,-13],[11,-24],[-6,-16],[-24,-12],[-39,3],[-24,-10],[-15,-23],[7,-19],[22,-20],[41,-7],[18,-27],[7,-26],[-5,-47],[24,-69],[-10,-37],[-17,-44],[-17,-20],[-25,-3],[-11,8],[-12,27],[-14,12],[-16,-3],[-3,-22],[-12,-14],[-5,-23],[3,-53],[-25,-31],[-5,-14],[6,-17],[24,-41],[1,-24],[9,-32],[-8,-11],[-18,-7],[-24,29],[-35,-4],[-18,-7],[-12,-16],[-33,-52],[-11,-26],[-19,-10],[-11,-17],[-11,-48],[25,-47],[-7,-25],[-17,-38]],[[4943,71],[-584,-9],[-592,-10],[-345,-5]],[[6992,7066],[421,-1],[76,-1],[438,-8],[8,2],[623,4]],[[8558,7062],[19,-100],[21,-57],[0,-22],[-23,-186],[-4,-16],[-13,-20],[-24,-21],[-30,-45],[-33,-20],[-17,-19],[-18,-60],[-10,-18],[-22,-22],[-42,-26],[-26,-22],[-46,-31],[-44,-56],[-28,-53],[-3,-24],[0,-40],[-6,-18],[-85,-240],[-10,-52],[4,-313],[3,-141],[2,-97],[0,-113],[-4,-17],[-17,-31],[-61,-208],[-30,-139],[-10,-23],[-135,-248],[-12,-16],[-80,-60],[-59,-41],[-166,-111],[-17,-16],[-9,-19],[-13,-55],[-10,-18],[-25,-33],[-55,-105],[-10,-24],[-64,-108],[-71,-79],[-28,-73],[-25,-32],[-87,-101],[-15,-24],[-97,-186],[-53,-90],[-27,-29]],[[6943,3344],[-26,24],[-14,30],[-36,33],[14,39],[-5,12],[-24,-5],[-13,-12],[-34,3],[-42,39],[-13,5],[-34,46],[-34,18],[-9,11],[-10,30],[-21,27],[-30,0],[-14,11],[4,55],[-7,26],[-8,8],[-37,1],[-45,36],[-38,22],[-16,27],[-25,13],[-32,-1],[-12,11]],[[6382,3853],[5,42],[0,79]],[[6387,3974],[3,289],[4,112],[17,61],[10,61],[-2,21],[-51,116],[-25,125],[-14,23],[-5,16],[-5,103],[8,37],[28,77],[9,37],[16,37],[4,21],[-7,71],[14,73],[-3,39],[-9,40],[-2,25],[10,37],[0,25],[9,37],[-5,96],[-4,34],[4,92],[9,30],[24,27],[74,54],[12,15],[9,29],[1,32],[9,31],[16,17],[19,8],[71,0],[18,7],[20,26],[6,25],[-5,171],[8,35],[26,48],[7,35],[-13,48],[-1,24],[16,37],[11,12],[65,48],[11,12],[8,28],[0,35],[18,61],[5,160],[6,29],[66,121],[6,14],[5,44],[11,37],[11,20],[52,67]],[[6095,2593],[8,19],[77,114]],[[6180,2726],[25,-24]],[[6205,2702],[47,-46]],[[6252,2656],[-54,-75],[-7,-29],[-2,-195]],[[6189,2357],[0,-52],[3,-27],[16,-79],[3,-32],[3,-364],[-1,-141]],[[5686,78],[-191,-1],[-485,-5],[-67,-1]],[[4239,6738],[34,-41],[23,-46],[13,-60],[18,-50],[16,-22],[30,-34],[69,-93],[36,-62],[9,-20],[26,-75],[29,-61],[19,-24],[31,-24],[20,-22],[55,-72],[10,-21],[52,-159],[9,-34],[-1,-257],[2,-170],[3,-43],[61,-248],[16,-37],[152,-202],[26,-43],[72,-159],[10,-18],[29,-34],[64,-70],[21,-26],[60,-109],[22,-26],[17,-10],[97,-44],[39,-27],[30,-28],[12,-16],[18,-38],[7,-33],[1,-27],[-4,-74],[2,-30],[8,-30],[54,-142],[28,-79],[38,-120],[8,-41],[9,-68],[27,-157],[14,-48],[44,-86],[28,-38],[68,-73],[29,-42],[53,-111],[21,-32],[21,-25],[38,-37]],[[5982,2920],[-19,7],[-24,-2],[-256,-104],[-32,-5],[-202,-2]],[[7260,2984],[-4,101],[-8,17],[-6,60],[-6,16],[-38,30],[-19,31],[-19,17],[-10,-1],[-27,-20],[-18,6],[-11,22],[-46,-25],[-31,-35],[-11,3],[-9,32],[-24,54],[-4,18],[-26,34]],[[8558,7062],[322,1],[833,4],[33,-1],[105,5],[223,3],[123,4],[6,-472],[5,-422],[5,-415],[1,-41],[4,-365],[5,-291],[4,-390],[3,-140],[4,-705],[2,-394]],[[10236,3443],[-80,-49],[-23,-12],[-171,-49],[-25,-22],[-9,-26],[2,-128],[-7,-27],[-28,-26],[-349,-150],[-44,-18],[-21,-6],[-56,0],[-106,-4],[-232,-1],[-79,18],[-124,0],[-17,-2],[-38,-15],[-15,-20],[1,-346],[4,-3],[52,0],[3,-4],[0,-590],[-2,-17],[-10,-21],[-6,-46],[2,-122],[-2,-1]],[[6945,1801],[6,23],[-14,18],[-16,46],[-10,15],[7,32],[55,-19],[23,-36],[20,-11],[27,-7],[32,-3],[22,3],[47,55],[-5,56],[9,13],[4,23],[-10,30],[-12,19],[5,22],[27,23],[39,5],[0,-17],[14,-33],[-5,-22],[9,-17],[29,-27],[38,-24],[27,2],[43,40],[4,12],[21,19],[18,7],[27,-3],[17,-25],[6,-23],[31,-22],[48,-6],[31,10],[41,32],[17,10],[48,16],[-13,30],[-19,74],[15,16],[1,18],[-17,19],[-17,9],[-23,3],[-32,24],[-4,11],[10,30],[11,10],[20,38],[8,74],[10,30],[-3,25],[-22,57],[-25,13],[3,36],[21,40],[5,39],[-6,30],[-21,17],[-34,4],[-10,-8],[-11,-32],[-21,-13],[-10,18],[-2,22],[5,49],[-13,61],[-25,18],[-72,36],[-20,0],[-23,10],[-33,44],[-24,14],[-16,15],[-6,21],[8,45]],[[10236,3443],[4,-899],[8,-300],[2,-42],[2,-253],[0,-739],[0,-253],[-1,-867],[-525,-1],[-10,1],[-606,-3]],[[6189,2357],[38,-1],[200,4],[33,-52],[55,-2],[-16,47],[-26,29],[-38,35],[-22,32],[-20,73],[-41,39]],[[6352,2561],[25,35],[15,11],[26,6],[85,-6],[21,4],[66,45],[37,21],[24,18],[93,57],[66,36],[39,12],[94,44],[125,53],[103,40],[38,18],[51,29]],[[4192,7044],[155,-1],[66,6],[455,2],[416,2],[232,3],[621,9],[14,-1],[263,2],[227,-2],[119,-1],[232,3]],[[6387,3974],[-317,-330],[-69,-71],[-40,-55],[-2,-16],[-19,-31],[3,-20],[22,-29],[9,-25],[1,-21],[-12,-43],[-20,-37],[-3,-32],[9,-11],[45,-10],[10,-12],[10,-41],[-3,-160],[-20,-30],[9,-9],[-20,-32],[23,-25],[-15,-21]],[[5988,2913],[-6,7]],[[5988,2913],[120,-115]],[[6108,2798],[72,-72]],[[6382,3853],[-4,-39],[0,-46],[-5,-40],[2,-49],[-15,-97],[-24,-122],[-19,-23],[-23,-2],[-22,-17],[-12,-46],[1,-22],[16,-59],[16,-29],[2,-17],[-14,-23],[-17,-95],[0,-84]],[[6264,3043],[-5,-30],[-53,-75]],[[6206,2938],[-98,-140]],[[6943,3344],[-12,-14],[-32,-50],[-20,-55],[-14,-23],[-14,-13],[-82,-66],[-54,-33],[-48,-44],[-37,-20],[-138,-79],[-78,-25],[-30,-6]],[[6384,2916],[0,128],[-120,-1]],[[6305,2844],[32,45],[26,20],[21,7]],[[6352,2561],[-100,95]],[[6205,2702],[100,142]],[[6206,2938],[99,-94]]],"transform":{"scale":[0.00006985622317596578,0.000051651455213337095],"translate":[-99.304015,30.134298000000005]},"objects":{"Geometry\\48-171":{"type":"GeometryCollection","geometries":[{"arcs":[[0,1,2,3,4]],"type":"Polygon","properties":{"GEOID":"481719502001"}},{"arcs":[[5,6,7,8,9]],"type":"Polygon","properties":{"GEOID":"481719501001"}},{"arcs":[[-4,10,11,12]],"type":"Polygon","properties":{"GEOID":"481719502002"}},{"arcs":[[-12,13,14]],"type":"Polygon","properties":{"GEOID":"481719502003"}},{"arcs":[[-11,-3,15,16,17,18,-14]],"type":"Polygon","properties":{"GEOID":"481719505001"}},{"arcs":[[19,20,21,22,23]],"type":"Polygon","properties":{"GEOID":"481719501002"}},{"arcs":[[24,25,26,27,28,-10,29,-18]],"type":"Polygon","properties":{"GEOID":"481719505002"}},{"arcs":[[30,31,-16,-2]],"type":"Polygon","properties":{"GEOID":"481719503012"}},{"arcs":[[32,-21,33,34,-7,35]],"type":"Polygon","properties":{"GEOID":"481719501003"}},{"arcs":[[36,-8,-35]],"type":"Polygon","properties":{"GEOID":"481719501004"}},{"arcs":[[37,38,-36,-6,-29]],"type":"Polygon","properties":{"GEOID":"481719504021"}},{"arcs":[[39,-24,40,41,-31,-1]],"type":"Polygon","properties":{"GEOID":"481719503021"}},{"arcs":[[-32,-42,42,43,-25,-17]],"type":"Polygon","properties":{"GEOID":"481719503011"}},{"arcs":[[-23,44,45,46,-43,-41]],"type":"Polygon","properties":{"GEOID":"481719503022"}},{"arcs":[[-22,47,48,-45]],"type":"Polygon","properties":{"GEOID":"481719504011"}},{"arcs":[[49,-48,-33,-39,50,-27,51]],"type":"Polygon","properties":{"GEOID":"481719504012"}},{"arcs":[[52,-52,-26,-44,-47]],"type":"Polygon","properties":{"GEOID":"481719503023"}},{"arcs":[[-51,-38,-28]],"type":"Polygon","properties":{"GEOID":"481719504022"}},{"arcs":[[-49,-50,-53,-46]],"type":"Polygon","properties":{"GEOID":"481719503024"}}]}}}