{"type":"Topology","arcs":[[[3317,6908],[152,169]],[[3469,7077],[8,1]],[[3477,7078],[-14,-20],[-13,-26],[-6,-38],[3,-230],[-1,-21]],[[3446,6743],[-50,0]],[[3396,6743],[-48,-1],[-1,167],[-30,-1]],[[3398,6611],[183,3],[0,-22],[134,2]],[[3715,6594],[0,-21]],[[3715,6573],[-2,-62],[-36,2],[-17,7],[-38,26],[-9,3],[-118,-2]],[[3495,6547],[0,22],[-97,-2]],[[3398,6567],[0,44]],[[3446,6743],[168,2],[99,2]],[[3713,6747],[-2,-55],[4,-98]],[[3398,6611],[0,11]],[[3398,6622],[-2,121]],[[3236,6740],[0,21],[4,28],[11,32],[13,26],[17,22],[36,39]],[[3398,6622],[-24,-1],[0,-10],[-136,-2]],[[3238,6609],[-1,67]],[[3237,6676],[-1,64]],[[3477,7078],[226,2],[94,2],[21,-30],[3,-9]],[[3821,7043],[-51,-43],[-16,-20],[-17,-33],[-12,-33],[-11,-39],[-4,-26],[0,-39],[3,-63]],[[14165,7898],[9,-4],[365,-68],[394,-69],[208,-36],[-39,-118],[-317,-778],[-232,-566],[-276,-753],[-433,-1178],[-144,-392],[-110,-366],[-31,-123],[-378,-1484],[-126,-495],[-741,6],[-261,3]],[[12053,1477],[21,100],[9,36],[39,182],[30,137],[61,266],[29,120],[8,36],[42,170],[27,104],[16,66],[10,37],[40,156],[22,83],[56,215],[24,90],[21,75],[26,86],[22,79],[56,175],[43,154],[16,53],[24,83],[32,101],[21,74],[22,57],[14,49],[21,65],[9,25],[13,44],[52,158],[12,31],[19,62],[15,40],[9,32],[15,39],[27,79],[13,46],[31,90],[11,27],[31,95],[24,69],[15,35],[19,60],[27,68],[36,97],[10,22],[17,48],[26,80],[11,24],[39,101],[8,19],[53,149],[21,52],[20,57],[14,29],[39,99],[16,43],[32,106],[79,200],[43,102],[8,22],[61,147],[24,60],[13,24],[55,136],[25,59],[35,87],[58,145],[58,141],[23,58],[33,77],[44,109],[22,53],[46,112],[49,114]],[[3452,6066],[335,5],[0,-4],[67,1]],[[3854,6068],[0,-160],[-1,-34],[86,1],[10,2],[2,-252],[-1,-22],[-41,1],[0,-46],[-11,-27],[11,-27],[-7,-10],[-13,-8],[-12,-21],[8,-14],[-13,-10],[-20,-3],[-20,3],[-11,10],[-30,4],[-15,-4],[-2,-49],[-11,-18],[-2,-37],[-17,-34],[-16,-26],[-24,-1],[-33,11],[-10,-6],[-14,25],[-19,16],[-7,19],[-3,20],[14,21],[-7,10],[-25,19],[-3,11],[-23,-6],[-16,10],[-2,8],[-29,18],[-15,4],[-16,32],[-8,9],[-20,8]],[[3468,5515],[-2,164],[2,36],[8,48],[-12,10],[-8,18],[-4,275]],[[3690,3895],[724,9],[394,5]],[[4808,3909],[1,-159],[-22,-1],[0,-304],[3,-293],[1,-116],[0,-138],[3,-337],[2,-218],[0,-110],[5,-549],[-137,-2],[0,-80]],[[4664,1602],[-15,-2],[-38,-20],[-27,-17],[-55,-9],[-8,-10],[-22,-14],[2,-17],[-20,-43],[-10,-58],[-16,-51],[-10,-22],[-18,-5],[-26,6],[-28,30],[-17,5]],[[4356,1375],[-29,127],[-9,32],[-12,30],[-37,71],[-29,60],[-77,155],[-15,40],[-29,125],[-32,130],[-53,228],[-12,82],[-16,71],[-55,239],[-50,217],[-20,87],[-50,217],[-104,449],[-37,160]],[[3458,4899],[6,-26],[61,-265],[38,-161],[11,-50],[98,-422],[18,-80]],[[3690,3895],[-7,3],[-199,-2],[-78,-2],[-23,1],[-345,-4],[-482,-5],[-2,313],[275,2],[0,67],[0,171],[-1,371],[0,76],[42,2],[114,1],[328,5],[132,2],[14,3]],[[3127,6803],[48,0],[1,-64],[60,1]],[[3237,6676],[-109,-1]],[[3128,6675],[-48,-1]],[[3080,6674],[-1,128],[48,1]],[[3081,6585],[48,0],[-1,90]],[[3238,6609],[0,-87],[2,-84]],[[3240,6438],[1,-125]],[[3241,6313],[0,-85]],[[3241,6228],[-90,-2]],[[3151,6226],[-2,167],[-65,0],[-3,192]],[[3398,6567],[-71,-1],[1,-127]],[[3328,6439],[-88,-1]],[[3495,6547],[1,-63],[27,0],[1,-85]],[[3524,6399],[-75,-1]],[[3449,6398],[0,21],[-121,-2],[0,22]],[[3715,6573],[106,1],[-3,-15],[18,-6],[10,-28],[42,-3],[51,-31],[48,-12],[0,-74],[-5,-1]],[[3982,6404],[-191,-3],[-90,1],[-177,-3]],[[3449,6398],[1,-84]],[[3450,6314],[-145,-2],[-64,1]],[[2730,6767],[49,-35]],[[2779,6732],[178,-129],[35,-15],[23,-4],[66,1]],[[3151,6226],[1,-94],[2,-72],[1,-123]],[[3155,5937],[-18,-3],[-12,4],[-2,17],[-11,19],[-21,14],[-20,25],[-3,13],[18,16],[8,20],[-12,24],[-34,27],[-12,14],[-17,2],[-19,-5],[-10,7],[-11,19],[-8,28],[-12,10],[-3,16],[-9,12],[-49,31],[-25,20],[1,9],[17,33],[-7,13],[-16,4],[-18,21],[-16,42],[-49,-12],[-12,0],[-17,-11],[-12,8],[-6,16],[-14,6],[-3,14],[6,27],[10,12],[-17,20],[-16,6],[-19,-17],[-23,2],[-5,15],[21,9],[5,10],[2,21],[-5,11],[-19,5],[-10,-13],[-23,7],[-3,10],[11,25],[-1,14],[-19,24],[95,126],[1,11],[18,32]],[[2816,6909],[173,161],[354,5],[126,2]],[[3317,6908],[-191,-3]],[[3126,6905],[-179,-4]],[[2947,6901],[-102,-1],[-20,-1],[-9,10]],[[2948,6735],[56,0],[1,-84],[76,1],[-1,22]],[[2779,6732],[169,3]],[[3126,6905],[1,-102]],[[2948,6735],[-1,166]],[[2730,6767],[74,131],[12,11]],[[3982,6404],[3,-149],[0,-181],[-77,-1],[-18,-4],[-36,-1]],[[3452,6066],[-1,67],[-1,174]],[[3450,6307],[0,7]],[[3713,6747],[44,1],[495,7],[17,-3],[23,-12],[18,-19],[31,-45],[-25,-20],[-3,-14],[-9,-2],[-2,-45],[4,-23],[14,-17],[18,-10],[22,-7],[14,-12],[33,-35],[20,-3],[15,-12],[-9,-22],[14,-24],[10,-11],[10,-34],[-10,-29],[20,-52],[9,-47],[7,-12],[-1,-12],[23,-27],[3,-15],[-1,-29],[8,-9],[-1,-19],[21,-33],[17,-34],[12,-35],[6,-6],[35,-50],[3,-27],[-18,-52],[1,-34],[11,-21],[9,-24],[20,-32],[32,-31],[13,-8],[25,-21],[40,-29],[16,-6],[27,-21],[30,-8],[25,3],[24,-3],[13,-8],[16,-32],[1,-18],[-5,-20],[-36,-71],[-7,-22],[-11,-43],[-7,-53],[2,-32],[9,-21],[-2,-11],[6,-14],[14,-3],[0,-39],[24,-39],[24,-66],[15,-85],[16,-76],[15,-105],[14,-73],[17,-18],[90,-28],[136,-55],[22,-15],[79,-127],[52,-17],[83,10],[17,-10],[59,-90],[37,-96],[26,-127],[-236,-5],[-128,-1],[-224,-3],[-200,-2],[4,-338]],[[3458,4899],[-46,203],[-1,53],[9,52],[37,104],[6,22],[5,35],[1,37],[-1,110]],[[4395,7511],[-176,-144],[-37,-29],[-144,-118],[-217,-177]],[[3155,5937],[1,-216],[2,-128],[39,-17],[10,0],[46,34],[36,4],[21,-16],[29,-30],[35,-22],[48,-20],[46,-11]],[[4356,1375],[-20,-12],[-13,-25],[-19,-22],[-22,-10],[-28,11],[-17,16],[-18,8],[-75,5],[-17,-11],[-24,-45],[1,-17],[21,-37],[8,-24],[6,-31],[1,-15],[-7,-62],[2,-54],[-3,-50],[-8,-29],[-9,-12],[-25,-11],[-29,4],[-29,-18],[-10,-15],[-8,-21],[-24,-15],[-29,-12],[-36,2],[-18,-2],[-22,-9],[-39,-31],[-25,-24],[-17,-3],[-24,0],[-39,-11],[-13,-10],[-18,-31],[-13,-7],[-29,7],[-30,11],[-6,16],[0,28],[-8,18],[-16,14],[-37,28],[-8,2],[-39,-5],[-45,54],[-20,9],[-6,-6],[-14,-32],[-3,-18],[38,-41],[3,-22],[-4,-16],[-28,-50],[-31,-10],[-14,5],[-2,10],[7,12],[1,18],[-15,15],[-15,3],[-25,-11],[-32,-29],[-12,-21],[-24,-31],[-27,-22],[-12,-14],[-44,2],[2,35],[-6,6],[-18,-7],[-62,1],[-35,-7],[-22,-17],[-20,-47],[-46,-33],[-16,-9],[-16,-22],[-17,6],[-23,23],[-11,24],[-2,28],[-6,22],[-14,6],[-22,1],[-17,-5],[-7,-12],[-27,-13],[-12,-10],[-10,2],[-7,14],[-3,31],[-5,16],[-14,12],[-15,-3],[-24,-27],[-13,-21],[-28,-33],[-13,-5],[-45,36],[-16,17],[-36,2],[-24,0],[-10,-5],[-15,-24],[-23,-21],[-12,-24],[-17,-3],[-48,11],[-14,27],[4,22],[-5,29],[-6,16],[-13,7],[-8,13],[-14,-8],[-6,-13],[-19,-16],[-6,-22],[-2,-23],[-6,-10],[0,-24],[-10,-15],[-14,13],[-35,0],[-30,3],[-15,-6],[-18,2],[-18,13],[-18,8],[-28,-10],[-13,-11],[-2,-26],[4,-19],[-19,-11],[-28,-10],[-10,0],[-31,15],[-48,5],[-11,-7],[-23,-38],[-33,-15],[-55,-6],[-14,3],[-14,19],[-9,4],[-12,-8],[-7,-36],[1,-24],[-7,-18],[2,-46],[-20,-26],[-9,-32],[-9,-15],[-32,-6],[-4,-22],[14,-14],[18,-8],[6,-30],[-20,-35],[-19,13],[-9,0],[-15,-9],[-18,-37],[-1,-11],[18,-22],[9,-26],[-9,-21],[-12,-12],[-13,3],[-13,16],[1,16],[-10,9],[-29,7],[-17,-30],[2,-17],[-7,-11],[-24,-9],[-29,12],[-10,11],[-9,-1],[-14,-40],[1,-12],[-24,-4],[-22,-11],[-9,4],[-20,19],[-30,-5],[-12,-8],[-45,-5],[-36,7],[-26,25],[-10,3],[-4,-19],[-17,-14],[-14,-22],[-12,-2],[0,264],[0,75],[0,543],[-1,0],[-2,219],[-241,4],[-163,-4],[-434,6],[-381,4],[-3,824],[-3,764],[-3,664],[0,207],[-3,477],[-1,495],[-2,652],[-2,405],[-2,567],[1,93],[0,219],[-2,149],[-1,544],[-2,221],[-1,434],[-1,114],[1,55],[-1,117],[-1,305],[-1,184],[0,97],[-1,249],[-1,227],[15,-2],[558,0],[3,-1],[221,0],[13,-1],[119,1],[59,0],[291,2],[204,2],[83,-1],[171,1],[21,1],[173,-1],[225,0],[10,-35],[4,-37],[19,-23],[9,-7],[24,-4],[8,-16],[34,-34],[23,-30],[-6,-27],[2,-13],[-6,-13],[33,-4],[25,-22],[5,-9],[14,3],[9,-6],[23,-1],[14,-7],[20,4],[35,12],[24,5],[21,-8],[9,-13],[20,-10],[7,5],[1,17],[10,1],[7,15],[20,8],[13,-5],[11,-35],[10,-6],[12,1],[40,-9],[21,17],[8,1],[49,-21],[3,-11],[16,-4],[19,-11],[18,8],[19,2],[12,-10],[10,1],[23,14],[42,-24],[-2,-19],[16,-15],[8,-16],[-1,-12],[-11,-11],[9,-18],[23,-19],[47,-18],[21,-11],[6,-17],[13,-17],[21,3],[6,-10],[-4,-18],[-8,-6],[9,-28],[12,-8],[25,2],[10,-13],[-2,-19],[6,-21],[-16,-11],[2,-26],[-4,-25],[17,-15],[0,-13],[10,-15],[3,-32],[8,-31],[-15,-16],[-10,-18],[-11,-9],[9,-32],[14,-8],[7,-32],[-7,-7],[4,-29],[22,-25],[3,-27],[8,-20],[-1,-11],[16,-20],[19,-7],[19,16],[8,2],[11,-32],[9,-12],[10,0],[17,-25],[33,-41],[14,11],[37,-39],[12,3],[21,14],[16,-19],[26,-5],[-6,-19],[11,-10],[-10,-20],[22,-9],[7,-18],[22,-14],[3,10],[27,-9],[14,-12],[-1,-19],[23,-22],[4,-16],[30,-5],[-4,-13],[5,-17],[-8,-10],[13,-27],[13,3],[13,-12],[-2,-23],[14,4],[17,-22],[-22,-20],[10,-14],[10,1],[6,15],[16,6],[-3,-17],[14,-11],[18,5],[22,-10],[-2,-24],[30,12],[1,-21],[16,-13],[-7,-19],[-15,1],[0,-12],[27,-9],[-5,-12],[-18,-14],[19,-20],[-1,-13],[-15,1],[-15,-12],[687,4]],[[4395,7511],[275,2],[568,5],[41,1],[380,4],[520,3],[462,2],[423,3],[289,10],[312,9],[230,0],[127,-1],[578,1],[142,-2],[293,-4],[117,-1],[275,8],[32,1],[182,-3],[63,-1],[277,5],[152,-7],[120,1],[279,-2],[494,-2],[292,-1],[254,7],[429,6],[430,6],[125,42],[605,205],[230,78],[10,0],[50,18],[248,85],[43,13],[96,33],[231,-96],[96,-41]],[[12053,1477],[-65,-1],[-134,2],[-184,1],[-304,-3],[-636,0],[-1278,-221],[-129,-22],[-1971,292],[-274,47],[-151,23],[-144,-41],[-1158,-335],[-28,-3],[-24,4],[-60,48],[-23,24],[-18,24],[-21,52],[-11,13],[-29,102],[-121,-21],[-23,24],[-55,29],[-16,12],[-31,44],[-10,6],[-45,11],[-25,-3],[-44,-20],[-15,-18],[-15,-27],[-11,-11],[-14,-7],[-15,3],[-31,10],[-22,22],[-49,23],[-26,16],[-31,5],[-38,21],[-41,4],[-69,-4]],[[3450,6307],[-10,-30],[-16,-20],[-152,-110],[-15,-18],[-9,-30],[0,-37]],[[3248,6062],[-4,-1],[-3,167]],[[3248,6062],[46,2],[158,2]]],"transform":{"scale":[0.000059091407436760634,0.00004649727550130784],"translate":[-98.0598,27.209308]},"objects":{"Geometry\\48-273":{"type":"GeometryCollection","geometries":[{"arcs":[[0,1,2,3,4]],"type":"Polygon","properties":{"GEOID":"482730202002"}},{"arcs":[[5,6,7,8,9]],"type":"Polygon","properties":{"GEOID":"482730202005"}},{"arcs":[[-4,10,11,-6,12,13]],"type":"Polygon","properties":{"GEOID":"482730202004"}},{"arcs":[[14,-5,-14,15,16,17]],"type":"Polygon","properties":{"GEOID":"482730202001"}},{"arcs":[[18,19,-11,-3]],"type":"Polygon","properties":{"GEOID":"482730202003"}},{"arcs":[[20,21]],"type":"Polygon","properties":{"GEOID":"482739900000"}},{"arcs":[[22,23,24]],"type":"Polygon","properties":{"GEOID":"482730205012"}},{"arcs":[[25,26,27,28]],"type":"Polygon","properties":{"GEOID":"482730201011"}},{"arcs":[[29,30]],"type":"Polygon","properties":{"GEOID":"482730201021"}},{"arcs":[[31,-18,32,33,34]],"type":"Polygon","properties":{"GEOID":"482730203023"}},{"arcs":[[35,-33,-17,36,37,38,39,40]],"type":"Polygon","properties":{"GEOID":"482730204021"}},{"arcs":[[-16,-13,-10,41,42,-37]],"type":"Polygon","properties":{"GEOID":"482730205023"}},{"arcs":[[-9,43,44,45,-42]],"type":"Polygon","properties":{"GEOID":"482730205022"}},{"arcs":[[-8,46,47,-44]],"type":"Polygon","properties":{"GEOID":"482730205021"}},{"arcs":[[-43,-46,48,49,-38]],"type":"Polygon","properties":{"GEOID":"482730204023"}},{"arcs":[[50,51,-41,52,53]],"type":"Polygon","properties":{"GEOID":"482730204022"}},{"arcs":[[54,-1,55,56,57]],"type":"Polygon","properties":{"GEOID":"482730203011"}},{"arcs":[[58,-34,-36,-52,59]],"type":"Polygon","properties":{"GEOID":"482730203024"}},{"arcs":[[-57,60,-35,-59,61]],"type":"Polygon","properties":{"GEOID":"482730203021"}},{"arcs":[[62,-58,-62,-60,-51]],"type":"Polygon","properties":{"GEOID":"482730203022"}},{"arcs":[[-45,-48,63,-23,64,65,-49]],"type":"Polygon","properties":{"GEOID":"482730205011"}},{"arcs":[[-24,-64,-47,-7,-12,66,-26,-30,67]],"type":"Polygon","properties":{"GEOID":"482730201012"}},{"arcs":[[68,-19,-2,-55,-63,-54,69,-68,-31,-29,70]],"type":"Polygon","properties":{"GEOID":"482730201022"}},{"arcs":[[-69,71,-22,72,-27,-67,-20]],"type":"Polygon","properties":{"GEOID":"482730201013"}},{"arcs":[[-50,-66,73,74,-39]],"type":"Polygon","properties":{"GEOID":"482730204013"}},{"arcs":[[-40,-75,75,-25,-70,-53]],"type":"Polygon","properties":{"GEOID":"482730204011"}},{"arcs":[[-65,-76,-74]],"type":"Polygon","properties":{"GEOID":"482730204012"}},{"arcs":[[-56,-15,-32,-61]],"type":"Polygon","properties":{"GEOID":"482730203012"}}]}}}