{"type":"Topology","arcs":[[[5226,10649],[109,-17],[70,-3],[137,5],[66,9],[240,62],[48,7],[115,-14]],[[6011,10698],[64,-8],[63,-4],[137,1],[61,12]],[[6336,10699],[-9,-52],[11,-44],[-2,-20],[-53,-42],[-14,-36],[-2,-25]],[[6267,10480],[-1,-43],[-23,-90],[-10,-81],[-15,-54],[-26,-51]],[[6192,10161],[-17,-55],[-59,-88],[-12,-40],[-4,-33],[-1,-124],[-6,-60],[-2,-68],[5,-39]],[[6096,9654],[-207,-4],[-92,-1],[-221,-4],[-143,-2]],[[5433,9643],[-4,61],[5,37],[-43,-1],[-32,39],[-92,50],[-25,26],[-43,21],[-9,15],[6,62],[-18,10],[-34,-17],[-18,3],[1,27],[-29,37],[-2,64],[-8,21],[-1,40],[-11,56],[13,49],[22,-1],[70,31],[-19,64],[-6,51],[6,25],[19,32],[11,30],[38,52],[-4,19],[8,70],[-8,33]],[[7754,2815],[50,15],[-13,21],[9,30],[184,182],[35,-22],[41,69]],[[8060,3110],[45,-17],[117,-62],[32,-21],[128,-99],[91,-66]],[[8473,2845],[-17,-135],[-9,-41],[-40,-125],[13,-25],[27,6],[13,-7]],[[8460,2518],[-66,-37],[-57,-14],[-12,8],[-85,22],[-86,26],[-22,10],[-32,24],[-3,18],[-23,0],[-29,-33],[-25,2],[11,26],[-26,7],[-64,-25],[-34,53],[20,10],[0,29],[-25,-18],[-23,4],[0,32],[-27,21],[-24,-3],[-12,10],[7,47],[-17,16],[1,29],[-19,17],[-34,16]],[[2863,10731],[156,78],[96,79],[19,9],[113,35],[39,6],[42,-4],[70,-21],[40,-4],[133,7],[64,-5],[149,-24]],[[3784,10887],[72,-25],[77,-47],[31,-25],[115,-111],[35,-28],[71,-44],[49,-19],[70,-14],[32,-3],[98,1]],[[4434,10572],[1,-41],[8,-28],[2,-50],[27,-78],[32,-55],[-2,-23],[-18,-59],[-8,-109],[-8,-46],[-17,-44],[-3,-33]],[[4448,10006],[-25,-46],[-55,-61],[-15,-47],[4,-93],[5,-29],[19,-54],[-2,-17],[-32,-100],[40,-104],[34,-136],[2,-55],[-12,-62],[-14,-34],[-15,-59],[8,-51],[0,-64],[8,-78],[16,-51],[3,-65],[-24,-102],[-35,-84],[-25,-76],[-59,-89],[-18,-32],[-15,-67],[12,-41],[0,-20],[-51,-140],[-25,-40],[-19,-63],[9,-64],[7,-23],[40,-75]],[[4214,7884],[16,-26]],[[4230,7858],[-17,-2],[-22,-20],[-24,-2],[-12,10],[-42,-3],[-25,-8],[-24,44],[-39,23],[-19,-2],[-24,-18],[-28,-37],[-29,-9],[-7,-23],[-31,-1],[-27,23],[-31,-8],[-35,-74],[-36,-26],[-51,-19],[-52,-48],[-17,-39],[-21,29],[-28,16],[7,-38],[-163,-2],[-32,6],[-62,50],[-65,42],[-30,28],[-61,41],[-66,8],[-30,9],[-59,-13],[-45,8],[-17,-5],[-56,-35],[-14,9],[-21,37],[-18,15],[-48,99],[-52,-9],[-72,-2],[-18,6],[-1,104],[11,87],[3,55],[-5,62],[-24,46],[-6,33],[-32,41],[-29,45],[-6,39],[-29,43]],[[2549,8473],[-1,17],[18,37],[25,110],[15,37],[7,46],[-1,41],[45,34],[32,38],[9,24],[23,25],[9,21],[8,48],[-11,27],[23,31],[29,23],[34,37],[47,90],[26,75],[35,16],[31,23],[48,2],[53,19],[45,5],[54,63],[16,9],[45,-1],[40,14],[20,15],[31,2],[23,17],[36,-4],[57,8],[10,14],[9,46],[-3,49],[5,84],[13,43],[23,45],[26,67],[41,65],[7,16],[53,171],[1,59],[36,51],[11,130],[-8,53],[22,42],[7,23],[9,75],[-13,2],[-7,-46],[-27,-46],[-70,-42],[-32,-6],[-60,5],[-91,55],[-42,35],[-181,-4],[-63,8],[-44,11],[-65,7],[-39,-7],[-54,-25],[-27,78],[-4,251]],[[565,8529],[101,298],[46,146],[59,162],[238,680],[236,688],[39,115]],[[1284,10618],[110,-28],[61,-5],[216,18],[44,5],[58,19],[270,135],[39,18],[39,9],[47,1],[159,-11],[59,-10],[47,-14],[88,-32],[64,-9],[218,3],[60,14]],[[2549,8473],[-33,1],[-33,-19],[-14,-36],[-70,-34],[-64,-16],[-27,-15],[-27,49],[-45,17],[-35,55],[-31,22],[-25,-8],[-45,22],[-32,-1],[-39,-17],[-41,-39],[-31,-9],[-11,-18],[-48,-17],[-23,7],[-52,-1],[-22,-6],[-48,-28],[-10,-13],[-31,-86],[-46,20],[-37,23],[-60,57],[-29,-14],[-29,-1],[-68,12],[-58,-18],[-21,0],[-41,10],[-61,-7],[-53,10],[11,-57]],[[1220,8318],[-19,5],[-356,24],[-43,13],[-36,23],[-75,62],[-66,29],[-26,18],[-34,37]],[[4448,10006],[25,-21],[57,-93],[36,-33],[71,-38],[48,-18],[23,-2],[107,2],[19,-5],[23,-33],[5,-72],[24,-33],[67,-49],[62,-54],[47,-7],[130,1],[10,38],[24,6],[126,2],[41,4],[10,27],[30,15]],[[6096,9654],[281,8],[29,-20],[12,-46],[22,-27],[40,-27],[97,-47]],[[6577,9495],[-88,-42],[-82,-75],[-31,-17],[-129,-35],[-34,-19],[-78,-63],[-26,-32],[-27,-52],[-21,-25]],[[6061,9135],[-21,-13],[-26,-4],[-113,11],[-52,20],[-25,-1],[-47,-17],[-33,-3],[-138,6],[7,-117],[2,-90]],[[5615,8927],[-45,-17],[-43,3],[-46,-6],[-10,-21],[9,-78],[-55,-5],[-12,-32],[-158,-7],[-58,0],[-66,-9],[-45,-30],[-62,-18],[-86,-36],[-46,-43],[-57,-20],[-57,-7],[-25,10],[-15,19],[-70,37],[6,-25],[-9,-33],[-14,-11],[-30,-4],[-14,-10],[-11,-57],[-14,-13],[-13,-27],[-6,-55],[-14,-54],[2,-30],[46,-96],[16,-49],[-8,-28],[-31,-24],[-58,-21],[-32,-2],[-22,-35],[-1,-42],[-40,-8],[-47,4],[-23,-29],[-4,-86],[-14,-41],[-27,-5],[-92,-2]],[[5805,5597],[19,15],[37,10],[42,-29],[52,-29],[46,15],[80,52],[43,37],[18,26],[9,38],[-15,99]],[[6136,5831],[-1,50],[8,32],[23,26],[32,12],[25,-7],[22,-20],[22,-34],[17,-7],[39,-52],[34,-15],[26,6],[23,53],[-15,39],[10,50],[9,12],[59,49],[41,26],[59,23],[59,10],[66,21],[92,21],[67,7],[35,18],[81,80],[36,17],[80,-1],[44,-17],[24,-25],[20,-39],[25,-79],[35,-25],[16,1],[37,26],[40,21],[103,38],[42,29],[62,88],[51,18],[17,-8],[14,-27],[8,-50],[16,-52],[32,-73],[25,-48],[46,-118],[24,-47],[34,-29],[31,-68],[30,-38],[39,-22],[49,-5],[43,-24],[9,-11],[15,-53],[0,-29],[-15,-71],[-2,-51],[-21,-90],[16,-42]],[[7994,5327],[-74,-70],[-82,-87],[80,-73],[91,-89],[-105,-110],[-45,-44],[-149,-154],[-122,-124],[0,-6],[117,-114],[-34,-41],[-21,-47],[-35,-65],[5,-63],[-7,-41],[3,-47],[9,-62],[17,-27]],[[7642,4063],[-55,13],[-37,16],[-42,2],[-35,14],[-71,48],[-21,24],[-93,155],[-19,48],[-9,36],[-16,27],[-82,77],[-3,11],[4,90],[-7,19],[-42,67],[-15,31],[-40,39],[-56,35],[-63,72],[-22,21],[-45,30],[-71,70],[-59,74],[-14,23],[-15,5],[-46,-10],[-49,12],[-71,44],[-45,82],[-22,16],[-68,88],[-65,90],[-59,12],[-6,24],[-37,39],[-52,-25],[-13,-11],[-46,-74],[-7,-5],[-78,-12],[-5,21],[-17,4],[-6,17],[-23,19],[-19,3],[-37,20],[2,20],[-21,17],[-16,23],[-20,14],[-56,4],[-24,23],[-3,32]],[[8748,6318],[5,-16],[84,-76]],[[8837,6226],[-1,-6],[-55,-55],[-33,-21],[-28,3],[-50,50],[13,73],[26,33],[39,15]],[[7057,2722],[19,54]],[[7076,2776],[15,26],[71,57]],[[7162,2859],[68,66]],[[7230,2925],[23,-24],[34,34],[24,-22],[42,41],[60,-59],[7,21],[-14,23],[7,24],[39,3],[26,14]],[[7478,2980],[44,36],[-229,-338],[-28,-33],[-65,-60]],[[7200,2585],[-143,137]],[[7640,3163],[61,8],[36,15],[38,28],[20,3],[49,-11]],[[7844,3206],[15,-4],[72,-71]],[[7931,3131],[-80,-78],[-128,-109]],[[7723,2944],[5,37],[14,11],[-17,20],[-37,-26],[2,33],[11,27],[-7,26],[-25,11],[-2,36],[-19,11]],[[7648,3130],[-8,33]],[[8611,6628],[198,7],[282,3]],[[9091,6638],[-13,-45],[-87,-506]],[[8991,6087],[-55,-29],[-23,-4],[-29,15]],[[8884,6069],[14,33],[-18,46],[-34,35],[18,18],[-27,25]],[[8748,6318],[-13,29],[-85,71],[-18,36],[-22,2]],[[8610,6456],[-6,74],[7,98]],[[8555,5740],[194,-30],[-6,47]],[[8743,5757],[50,47],[72,-12],[-5,-34],[22,-4]],[[8882,5754],[42,-7],[-13,-63],[64,-11]],[[8975,5673],[-15,-93]],[[8960,5580],[-11,-76],[-18,-201]],[[8931,5303],[-8,-89],[-9,-54]],[[8914,5160],[-13,6],[-135,129],[17,30],[-199,191],[-37,-20],[14,82],[1,85],[-7,77]],[[8567,6255],[23,41],[21,102],[-1,58]],[[8884,6069],[-51,7],[-26,11],[-49,3],[-32,-17],[-16,5],[-41,27],[-41,15]],[[8628,6120],[-27,92],[-11,22],[-23,21]],[[8628,6120],[49,-145],[66,-218]],[[8555,5740],[-26,82],[9,50],[-11,80],[-51,176],[14,48],[77,79]],[[5678,11883],[2,37],[37,99]],[[5717,12019],[566,-462],[645,-525]],[[6928,11032],[-20,-15],[-66,-37]],[[6842,10980],[-93,-49],[-160,-93]],[[6589,10838],[-86,-50]],[[6503,10788],[-102,-60],[-65,-29]],[[6011,10698],[-30,114],[-21,49],[-6,43],[-32,75],[-76,67],[-41,94],[-34,51],[-17,54],[3,55],[-28,78],[0,52],[74,127],[-49,40],[6,46],[-7,16],[-28,18],[-3,35],[-15,28],[-27,19],[-26,36],[11,57],[30,22],[-17,9]],[[7519,3346],[23,-4],[24,7],[15,-13],[60,-22]],[[7641,3314],[22,-28]],[[7663,3286],[-24,-30],[-21,-42],[-81,-12]],[[7537,3202],[-14,104]],[[7523,3306],[-4,40]],[[7337,3142],[80,-79],[12,12],[22,-21]],[[7451,3054],[-27,-27],[54,-47]],[[7230,2925],[-68,65]],[[7162,2990],[51,53],[19,-15],[39,14],[63,62],[-18,18],[21,20]],[[7397,3511],[5,2],[79,-75]],[[7481,3438],[30,-38],[8,-54]],[[7523,3306],[-30,1],[-21,-10],[-25,32],[-31,-22],[-20,-4]],[[7396,3303],[-10,16],[31,23],[-8,16],[-45,35],[2,32],[-27,22]],[[7339,3447],[58,64]],[[7994,5327],[15,-9],[68,-12],[24,16],[31,43],[3,29],[25,26],[27,37],[14,40],[30,15],[33,-5],[11,-33],[19,-26],[14,-46],[-3,-20],[3,-90],[9,-19],[4,-49],[-9,-30],[-45,-34],[-35,-41],[-12,-37],[13,-39],[-2,-29],[49,-104],[24,-8],[28,-36],[9,-26],[2,-33],[-16,-77],[-18,-38],[-40,-30],[-21,-29],[-2,-29],[7,-14],[58,-33],[53,-40],[38,-44],[48,-14],[36,-17]],[[8486,4442],[-51,-9],[-59,-57],[-24,-27],[-31,-69],[-36,-48],[-15,-38],[-8,-59],[5,-64],[-4,-35],[-10,-15],[-55,-37],[-49,-56],[-12,-37],[12,-181],[-6,-24],[-24,-30]],[[8119,3656],[-126,-125]],[[7993,3531],[-62,-62]],[[7931,3469],[-87,65]],[[7844,3534],[-61,96],[-23,30],[-4,29]],[[7756,3689],[1,15],[25,48],[4,28],[-15,36],[-40,33],[-25,42],[-34,117],[-30,55]],[[5189,6173],[32,-3],[29,6],[47,25],[20,19],[20,44],[2,40],[0,99],[3,55],[-10,52],[0,25],[13,43],[83,135],[15,17],[30,18],[48,20],[37,33],[10,20],[21,73],[6,33],[1,129],[14,31],[41,27],[80,3]],[[5731,7117],[106,1],[48,-11],[53,-20],[44,-11],[28,-1],[165,3],[22,4],[76,31],[30,1],[75,-8],[143,-6]],[[6521,7100],[149,-19],[114,-18],[63,-13],[100,-15],[115,-24],[74,-36],[174,-69],[28,-6],[77,-4],[35,-11],[100,-67],[136,-69]],[[7686,6749],[22,-14],[102,-82],[43,-14],[275,5],[36,-5],[21,-12],[115,-116],[51,-45],[39,-43],[134,-130],[43,-38]],[[8914,5160],[-58,-319],[-15,-65],[-33,-94]],[[8808,4682],[-89,85],[-128,-178],[-56,-80],[-26,-52],[-23,-15]],[[6136,5831],[-22,-9],[-20,5],[-46,-1],[-22,7],[-32,23],[-86,-21],[-36,8],[-2,42],[-7,22],[-19,20],[-16,0],[-25,-16],[-19,-4],[-24,10],[-28,29],[-5,18],[12,41],[-3,73],[-13,29],[-23,29],[-24,1],[-35,11],[-62,-21],[-18,-24],[-86,-38],[-20,0],[-33,-23],[-33,-17],[-18,-34],[-31,11],[-38,51],[-13,37],[-31,26],[-17,-4],[-39,6],[-1,23],[-12,32]],[[7337,3142],[31,33]],[[7368,3175],[33,33],[54,14]],[[7455,3222],[5,-33],[77,13]],[[7663,3286],[9,2]],[[7672,3288],[-6,-37],[-23,-11],[-7,-17],[4,-60]],[[7648,3130],[-25,-8],[-6,-13],[4,-57],[-40,-28],[-19,-2],[-8,54],[-90,-12],[-13,-10]],[[4771,3015],[16,50],[39,7],[75,-27],[20,8],[13,18],[28,9],[41,-11],[34,-14],[66,25],[58,31],[40,31],[75,44],[71,54],[60,57],[58,9],[47,-11],[27,6],[24,-19],[-2,-45],[-20,-34],[-16,-10],[-47,-16],[-54,-26],[-12,-17],[4,-47],[19,-18],[33,-4],[34,21],[33,30],[31,20],[77,87],[28,43],[40,32],[43,-5],[27,-21],[145,-96],[38,-20],[50,-56],[0,-43],[-14,-19],[-37,-23],[-42,-14],[-9,-26],[21,-30],[100,-34],[27,-15],[116,-4],[47,1],[16,14],[9,23],[6,41],[14,10],[41,-18],[27,-33],[39,-18],[35,7],[51,54],[27,18],[46,8],[29,-11],[13,-15]],[[6576,2973],[-17,-42],[-31,-15],[-35,-7],[-24,-15],[-40,-85],[46,-42]],[[6475,2767],[-10,-39],[-108,-119],[45,-45],[68,-77],[54,-49],[49,-52],[124,-114],[6,-8]],[[6703,2264],[-51,-72],[-80,-68],[-59,-66],[-47,-60],[-54,-53],[-59,-35],[-62,-56],[-48,-51],[-67,-82],[-72,-68],[-118,-122],[-99,-94]],[[5887,1437],[-250,876],[-170,139],[-601,488],[-95,75]],[[6475,2767],[50,62],[79,-73],[43,-29],[118,-44],[36,-8],[27,7],[53,54],[28,16],[31,-1],[62,-60],[38,-15]],[[7040,2676],[-21,-50],[-26,-31],[-105,-104],[-16,-23],[-21,-48],[-57,-56],[-36,-44],[-55,-56]],[[8289,3574],[52,79],[50,103],[40,92],[31,65],[158,349],[188,420]],[[8808,4682],[83,-80],[15,-23],[-55,-57],[2,-7],[149,-143],[167,-160],[53,-39],[210,-204],[32,-32]],[[9464,3937],[-73,-54],[-459,-370],[-142,-120]],[[8790,3393],[-70,66],[-15,7],[-106,104],[-148,-150],[-19,-4],[-19,17],[-19,0],[-28,-17]],[[8366,3416],[-27,13],[-34,8]],[[8305,3437],[-52,21],[-52,-8],[-9,6]],[[8192,3456],[97,118]],[[8289,3574],[-34,34],[10,10],[-84,83],[-53,-54],[-9,9]],[[4142,6613],[-4,-82],[-33,-166],[-24,-126],[0,-15],[21,-58],[11,-48],[6,-56],[24,-115]],[[4143,5947],[-23,15],[-25,36],[-19,16],[-80,50],[-82,37],[-79,21],[-28,19],[-28,56],[-32,36],[-16,44],[-26,30]],[[3705,6307],[7,32],[23,24],[24,42],[27,33],[22,11],[-2,29],[35,15],[45,2],[53,16],[23,20],[10,21],[54,18],[21,20],[41,19],[54,4]],[[5963,1169],[265,274],[130,133],[117,120],[257,262],[199,207],[224,230],[116,117]],[[7271,2512],[97,-92]],[[7368,2420],[126,-123],[40,-43]],[[7534,2254],[-35,-412]],[[7499,1842],[-58,-12],[-162,-121],[-21,-46],[-52,-42],[-219,-149],[-169,-124],[-132,-64],[-48,-56],[-128,-47],[-41,-5],[-134,3],[-21,-6],[-142,-55],[-44,-41],[-120,-60]],[[6008,1017],[-45,152]],[[3476,12122],[19,-4],[28,10],[31,33],[28,13],[159,-44],[67,-27],[33,-17],[23,1],[96,48],[80,1],[33,8],[51,29],[27,23],[69,18],[53,-7],[46,-20],[34,-2],[49,-22],[58,6],[18,-8],[59,-66],[12,-2],[30,33],[78,-42],[62,-20],[46,-1],[27,-27],[19,-10],[51,0],[76,-22],[70,-29],[46,-9]],[[5054,11966],[-120,-211],[-31,-45],[-47,-30],[-45,-13],[-37,-29],[-87,-143],[-56,-49],[-14,-18],[-55,-96],[-13,-32],[-35,-125],[-14,-42],[-28,-48],[-34,-43],[-15,-42],[8,-170],[14,-50],[-11,-208]],[[3784,10887],[-7,53],[-2,117],[-2,170],[5,56],[-24,103],[-62,155],[-45,52],[4,41],[-24,63],[4,31],[24,16],[18,29],[20,76],[-38,0],[-16,33],[-10,52],[-26,38],[-61,36],[-32,24],[-9,16],[-25,74]],[[9716,5891],[203,200]],[[9919,6091],[51,-49],[48,-36],[58,-64]],[[10076,5942],[153,-148]],[[10229,5794],[89,-85],[266,-257],[384,-369],[-1,-23]],[[10967,5060],[-166,-131],[-21,-28],[-38,-59],[-22,-66],[-14,-72],[-48,-68],[-222,-95],[-7,4],[-304,-164]],[[10125,4381],[-311,301],[-15,15],[-94,127]],[[9705,4824],[-42,58]],[[9663,4882],[190,192]],[[9853,5074],[63,66],[27,-11],[127,129],[25,-6],[23,24],[-16,10],[-139,136],[-14,23],[-36,43],[-17,9],[-285,281],[6,12],[99,101]],[[10229,5794],[84,86]],[[10313,5880],[193,198],[29,19],[69,70],[-2,33],[-31,10],[-9,21],[13,37],[21,27],[-6,22],[-17,13],[-16,31],[-26,1],[-13,12],[91,92],[-1,5]],[[10608,6471],[8,3],[86,87],[5,2]],[[10707,6563],[32,8],[57,58]],[[10796,6629],[92,-89],[14,-21],[257,-252],[34,-29],[105,-106],[200,-194],[76,-77]],[[11574,5861],[-84,-46],[-80,-85],[-51,-31],[-41,-45],[-71,-165],[-2,-15],[-210,-297],[2,-24],[-48,-73],[-22,-20]],[[4341,4544],[136,-23],[32,-11],[37,-22],[39,-38],[31,-51],[33,-36],[31,-21],[129,-82],[28,-21],[152,-144],[44,-37],[154,-91],[25,-12],[52,-7],[87,23],[27,3],[52,-10],[191,-77],[193,-81],[79,-25],[56,-8],[142,-11]],[[6091,3762],[131,-11],[37,-10],[94,-49],[45,-31],[152,-68]],[[6550,3593],[42,-43],[40,-105],[60,-172],[16,-35],[26,-38],[43,-40],[92,-64],[44,-47],[73,-126],[11,-39],[4,-77],[8,-29]],[[7009,2778],[-97,15],[-26,7],[-30,17],[-30,11],[-15,18],[7,41],[-32,57],[-60,18],[-23,-21],[-30,-38],[-45,7],[-43,45],[-9,18]],[[4771,3015],[-392,316],[-591,476],[-67,54],[-84,65],[-555,452]],[[3082,4378],[39,3],[122,-15],[37,-2],[255,-7],[53,4],[41,9],[566,181],[36,6],[46,-2],[64,-11]],[[5458,5575],[12,36],[34,42],[26,10],[22,-7],[32,-52],[15,-39],[25,-12],[4,-32],[16,-19],[24,9],[26,31],[30,9],[52,35],[29,11]],[[7756,3689],[-57,-43],[-43,-11],[-120,14],[-28,25],[-81,42],[-41,12],[-7,9],[8,90],[17,12],[-11,17],[-21,12],[-52,-5],[-35,-23],[-83,-35],[-40,-29],[-1,-34],[11,-30],[-1,-21],[-29,-33],[-27,-62],[-45,-47],[-4,-46]],[[7066,3503],[-29,-28],[-4,-16]],[[7033,3459],[-87,21],[-57,30],[-37,13],[-153,12],[-53,16],[-96,42]],[[6091,3762],[-7,21],[5,47],[21,103],[30,61],[11,52],[-40,31],[-15,19],[-8,47],[22,46],[-13,55],[-261,249],[-4,14],[-44,26],[-62,44],[-34,37],[-30,57],[-25,29],[-52,41],[-44,29],[-118,32],[-25,27],[-2,14],[-27,43],[-35,88],[11,48],[4,132],[42,111],[29,70],[9,77],[-6,31],[19,21],[31,19],[-25,11],[10,34],[10,8],[1,29],[-11,10]],[[9482,8356],[34,23],[41,19],[31,63],[4,38],[27,29],[4,47],[12,16],[82,34],[9,16],[5,62],[16,20]],[[9747,8723],[313,-256],[107,-85],[55,-47]],[[10222,8335],[-14,-37],[-100,-203]],[[10108,8095],[-30,10],[-131,-22],[-130,-24],[-166,-52],[2,-193]],[[9653,7814],[-104,-2],[-1,13],[16,34],[-27,3],[-37,-7],[-77,-58],[-47,-52],[-48,-36],[-17,-21]],[[9311,7688],[-10,11],[7,25],[42,65],[25,-2],[12,13],[11,59],[38,71],[41,111],[-18,42],[18,52],[2,22],[3,199]],[[4364,5832],[13,67],[31,22],[29,7],[60,7]],[[4497,5935],[18,-54],[42,-49],[38,-66],[13,-42],[61,-91],[13,-13],[38,-13],[76,19],[70,5],[40,17],[35,1],[128,-67],[44,-2],[10,15],[50,-25],[31,13],[20,57],[25,9],[52,-6],[24,-63],[13,-16],[75,-9],[15,-5],[30,25]],[[4341,4544],[-32,141],[-2,88],[-20,63],[0,74],[-17,56],[10,44],[60,83],[8,34],[-24,121],[-1,99],[-23,116],[3,47],[31,48],[49,51],[19,29],[26,108],[-10,49],[-24,24],[-30,13]],[[8931,5303],[11,-9],[142,-138],[197,-186],[-15,-34],[216,-209],[63,-63],[5,4],[155,156]],[[10125,4381],[-94,-60],[-106,-69],[-21,-16],[-149,-129],[-26,-19],[-265,-151]],[[2724,5412],[90,59],[97,27],[23,11],[19,19],[57,4],[94,-1],[61,-6],[175,0],[0,-116],[7,-64],[6,-17],[40,-29],[93,-22],[25,-17],[37,-5],[78,9],[59,27],[22,44],[-4,28],[10,35],[34,17],[27,7],[13,15],[-2,33],[10,17],[31,29],[14,42],[21,11],[85,28],[36,9],[34,19],[30,51],[15,47],[28,33],[52,24],[24,20],[3,26],[-13,52],[36,25]],[[4191,5903],[48,-32],[18,1],[107,-40]],[[3082,4378],[-849,689],[-102,81]],[[2131,5148],[46,25],[47,33],[54,-36],[-6,31],[5,25],[108,0],[26,-5],[84,11],[17,11],[31,64],[29,45],[43,28],[92,20],[17,12]],[[7245,3265],[27,-43],[32,-26],[40,0],[24,-21]],[[7162,2990],[-18,23],[-95,97]],[[7049,3110],[52,53],[36,-36],[58,56],[-16,16],[12,19],[54,47]],[[9273,5746],[15,-6],[32,22],[25,-23],[-1,-18],[-17,-21],[22,-24],[-31,-45],[28,-13],[25,-38],[-13,-31],[26,-34],[40,-36],[31,-8],[45,-29],[33,6],[19,19],[19,-12],[-1,-58],[19,-41]],[[9589,5356],[-187,-196]],[[9402,5160],[-361,344]],[[9041,5504],[76,80],[156,162]],[[7672,3288],[38,6],[125,70],[36,5]],[[7871,3369],[64,4]],[[7935,3373],[74,5]],[[8009,3378],[-4,-13],[-28,-28]],[[7977,3337],[-133,-131]],[[7033,3459],[-41,-255],[-11,-27],[14,-14]],[[6995,3163],[-54,-55],[17,-19],[-21,-22],[53,-51],[44,40],[96,-94],[8,2],[46,-46],[-38,-39],[16,-20]],[[7076,2776],[-67,2]],[[7040,2676],[17,46]],[[7200,2585],[71,-73]],[[5963,1169],[-76,268]],[[7844,3534],[-25,-56],[-41,-43],[-26,7]],[[7752,3442],[-33,7],[-37,1],[-26,-15],[-35,-10],[-29,28],[-28,9],[-30,23],[-35,-38],[-18,-9]],[[7397,3511],[-84,83],[-20,6],[-38,37],[-56,-52],[-29,-15],[-36,-44],[-41,-18],[-27,-5]],[[8305,3437],[-88,-93]],[[8217,3344],[-41,31],[-43,8]],[[8133,3383],[59,73]],[[7339,3447],[-55,-55],[-25,-37],[-39,-40]],[[7220,3315],[-57,61],[-25,33],[-37,30],[-68,20]],[[7993,3531],[49,-49]],[[8042,3482],[-107,-109]],[[7871,3369],[-2,37],[62,63]],[[7752,3442],[-8,-15],[-35,-27],[-30,-35],[-8,-25],[-30,-26]],[[9329,6445],[152,240],[36,68],[28,63]],[[9545,6816],[44,-4],[25,-16],[14,-46],[25,-20],[70,-3],[73,0]],[[9796,6727],[1,-158],[20,-17],[-12,-57],[36,-9],[65,1],[63,36],[8,-21],[-27,-14],[-24,-33],[-35,-11],[-6,-11],[-57,2],[-99,-3],[-51,-69]],[[9678,6363],[-26,23],[-91,43],[-33,-14],[-12,-27],[-25,-11],[-162,68]],[[9678,6363],[103,-100],[27,-28],[29,-64],[82,-80]],[[9716,5891],[-11,29],[17,19],[-15,13],[0,24],[-29,14],[-4,24],[-31,94],[-41,12],[-29,27],[-12,26],[-43,19]],[[9518,6192],[93,73],[67,98]],[[3709,6688],[-5,38],[5,48],[26,13],[33,6],[67,33],[8,38],[12,16],[31,21],[30,34],[47,39],[58,25],[68,44],[19,29],[28,-3]],[[4136,7069],[-14,-20],[-23,-60],[-4,-44],[26,-98],[23,-53],[-4,-47],[2,-134]],[[3705,6307],[-40,26],[-47,22],[-58,47],[-35,24]],[[3525,6426],[12,83],[-7,43],[4,23],[18,24],[13,32],[19,10],[125,47]],[[7977,3337],[69,-63]],[[8046,3274],[-70,-88]],[[7976,3186],[-45,-55]],[[7976,3186],[68,-6],[146,22],[55,-10],[5,50],[14,23],[52,22],[47,46],[17,25],[-2,40]],[[8378,3398],[-12,18]],[[8790,3393],[-188,-168],[-82,-65],[-16,-41],[3,-11],[-18,-96],[-4,-80],[-12,-87]],[[8060,3110],[-50,6],[-43,-1],[-36,16]],[[7754,2815],[-17,56],[-14,13],[15,50],[-15,10]],[[7534,2254],[28,326]],[[7562,2580],[34,3],[33,26],[67,-82],[21,-38],[322,-309],[18,-12],[51,-9],[159,157],[65,63],[29,13],[34,7],[20,22],[17,66],[28,31]],[[8460,2518],[24,6],[59,-19],[55,-5],[29,11],[30,45],[8,52],[22,35],[47,1],[59,-35],[105,-7],[25,-12],[5,-13],[-18,-20],[4,-12],[-324,-277],[-308,-265],[-61,-51],[-236,-203],[-211,-183],[-302,-256],[-21,-25]],[[7451,1285],[48,557]],[[8884,6069],[-17,-26],[-2,-32],[8,-17],[55,-54],[-19,-28],[-27,-158]],[[8991,6087],[44,-4],[46,-24],[3,-18],[17,-11],[-63,-124],[-22,-58],[-24,-82]],[[8992,5766],[-17,-93]],[[9330,6051],[57,-57],[9,-42],[39,-38],[-162,-168]],[[9273,5746],[-13,22],[11,19],[-17,14],[-44,-2],[-9,10],[0,29],[-9,16],[-6,38],[4,35],[-15,10]],[[9175,5937],[125,142],[30,-28]],[[7220,3315],[25,-50]],[[7049,3110],[-54,53]],[[8042,3482],[68,-67],[16,-12],[-16,-19]],[[8110,3384],[-101,-6]],[[8110,3384],[23,-1]],[[8133,3383],[-87,-109]],[[8916,8721],[15,26],[159,196],[36,19],[45,7]],[[9171,8969],[1,-88],[-27,-3],[-37,-32],[5,-26],[-9,-36],[35,-1],[2,-59],[-11,-34],[41,-2],[6,-68],[-3,-111],[-12,-9],[-41,-7],[-17,6],[-67,-2],[3,-118]],[[9040,8379],[-26,-10],[-51,-32]],[[8963,8337],[-40,-26]],[[8923,8311],[-5,103],[-4,194],[-1,89],[3,24]],[[8222,8929],[1,-315],[31,-23],[314,5],[23,55],[11,39],[154,1],[29,54],[53,-26],[78,2]],[[8923,8311],[-42,-24],[-29,-7],[-171,-4],[-49,-19],[-25,-1],[-63,5],[-427,-7],[-281,-2],[-33,3],[-52,27],[-141,103],[-15,14],[-278,300]],[[7317,8699],[19,-5],[32,13],[21,-7],[43,19],[24,-16],[19,-31],[15,-3],[50,9],[35,17],[46,-3],[38,-13],[26,-17],[24,0],[49,-56],[10,-22],[19,-13],[45,24],[76,9],[31,9],[70,45],[51,58],[11,24],[-21,43],[8,28],[22,21],[29,11],[51,27],[25,28],[37,31]],[[9868,7565],[181,3],[4,-201],[48,1]],[[10101,7368],[29,-35],[5,-35],[-8,-21],[-6,-44],[-29,-30],[-27,-21],[-25,-37],[-1,-31],[8,-29],[-33,-1],[-34,-96],[-3,-26],[-25,-39],[15,-27],[8,-46],[-20,-20],[17,-31],[-14,-19],[15,-30],[-31,-20],[19,-33]],[[9961,6697],[-44,27],[-28,5],[-93,-2]],[[9545,6816],[51,119],[272,630]],[[5054,11966],[81,-25],[66,-34],[43,-12],[44,0],[145,-3],[63,3],[66,-14],[116,2]],[[5226,10649],[-90,10],[-102,1],[-17,-4],[-83,-46],[-47,-16],[-139,-14],[-64,-5],[-113,-3],[-137,0]],[[9330,6051],[77,78],[36,-12],[75,75]],[[9853,5074],[-1,31],[12,9],[-6,30],[-21,16],[-3,20],[-31,24],[17,25],[-15,16],[-27,6],[-16,-26],[-22,16],[-4,24],[-39,-2],[-28,-20],[-19,-3],[-20,35],[-3,22],[-13,12],[-25,47]],[[9961,6697],[21,-6],[258,5],[27,15],[124,124]],[[10391,6835],[181,-172],[53,-20],[82,-80]],[[10608,6471],[-86,65],[-91,-94],[-40,18],[-98,-100]],[[10293,6360],[-149,-155],[-4,-9],[-3,-79],[-15,-46],[-28,-48],[-11,-67],[-7,-14]],[[10313,5880],[-46,43],[-65,47],[-22,21],[83,84],[33,3],[119,127],[-27,24],[17,25],[-112,106]],[[9171,8969],[57,45],[29,34],[24,57]],[[9281,9105],[466,-382]],[[9482,8356],[-11,26],[-24,9],[-130,-4],[-249,-5],[-28,-3]],[[10222,8335],[5,-1],[114,-96],[554,-457]],[[10895,7781],[1,-89],[7,-252],[-93,-4],[-89,-1],[-163,-6],[-44,-4],[-55,2],[-49,-3]],[[10410,7424],[-17,43],[-8,158],[-18,23],[-28,9],[-141,-4],[-108,-1],[-27,12],[-13,18],[-4,33],[-1,134],[-46,19]],[[9999,7868],[42,94],[67,133]],[[6267,10480],[30,4],[34,22],[28,10],[31,-7],[45,-20],[67,0],[93,-30]],[[6595,10459],[-17,-50],[1,-21],[19,-14],[-11,-36],[21,-28],[33,-8],[-1,-15],[15,-20],[26,-8],[37,2],[14,7],[7,33],[67,32],[18,-7],[3,-27],[33,-25],[45,-21],[44,-47],[15,-70],[10,-15],[42,-17],[-4,-47],[10,-21],[24,-13],[32,25],[36,16]],[[7114,10064],[17,-55],[21,-37],[63,-57],[60,-61]],[[7275,9854],[-70,-70],[-36,-15],[-60,1],[-68,-13],[-36,-15],[-122,-105],[-30,-21]],[[6853,9616],[-14,3],[-31,24],[-21,28],[-4,22],[-44,32],[-40,38],[-36,22],[-27,31],[-52,5],[-38,21],[-47,4],[-27,28],[-6,24],[-20,20],[-9,33],[23,11],[18,22],[17,52],[-2,18],[-20,18],[-67,17],[-61,-14],[-58,14],[-40,52],[-55,20]],[[7566,2809],[32,32],[125,103]],[[7562,2580],[14,157],[-10,72]],[[6853,9616],[-28,-16],[-45,-7],[-31,-12],[-105,-56],[-67,-30]],[[6503,10788],[37,-30],[21,-25],[72,-20],[39,-38],[19,28],[18,-40]],[[6709,10663],[-20,-29],[-41,-13],[-23,-23],[-6,-28],[20,-60],[0,-21],[-14,-22],[-30,-8]],[[6589,10838],[19,-27],[33,-25],[18,-36],[39,18],[18,16],[32,54],[22,15],[31,0],[29,-17],[-5,-48],[-10,-8],[11,-32],[1,-78],[-12,-13],[-45,-2],[-61,8]],[[9482,8356],[-31,-6],[-8,-17],[1,-37],[-15,-67],[-15,-17],[-33,-14],[-24,8],[-17,28],[-26,-6],[-30,7],[-9,-45],[-46,0],[-17,6],[-12,26],[-32,1],[-66,16],[-33,3],[-15,10],[-38,10],[-1,25],[-52,50]],[[9999,7868],[-21,-50]],[[9978,7818],[-325,-4]],[[7396,3303],[54,-53],[5,-28]],[[9091,6638],[155,2],[-17,-48],[20,-31],[-11,-38],[-12,-13],[-9,-26],[11,-38],[14,-29],[13,-8],[24,-44],[50,80]],[[9175,5937],[-68,-65],[-52,-58],[-39,-35],[-24,-13]],[[4136,7069],[75,63],[118,174],[18,41],[5,35],[-15,42],[-13,80],[4,24],[46,90],[-1,30]],[[4373,7648],[98,1],[23,9],[51,-7],[52,0],[45,-20],[43,-58],[6,-14],[-1,-108],[6,-7],[58,4],[34,-13],[23,-17],[107,-22],[205,-19],[108,-8],[5,-6],[1,-55],[-5,-67],[57,12],[30,-5],[77,-30],[41,-33],[44,-6],[49,7],[59,23],[121,-61],[21,-31]],[[5189,6173],[-79,22],[-45,22],[-188,124],[-23,11],[-37,1],[-26,-10],[-73,-75],[-105,-114],[-55,-63],[-9,-19],[-3,-83],[-25,-41],[-24,-13]],[[4191,5903],[-48,44]],[[3045,6458],[106,-60],[17,-5],[77,-2],[30,6]],[[3275,6397],[44,22],[109,31],[42,1],[55,-25]],[[2724,5412],[-21,20],[-57,92],[-2,38],[-21,90],[1,61],[9,25],[5,44],[-27,85],[-49,22],[1,36],[12,25],[25,28],[4,13],[-12,34],[-1,97],[36,-8],[16,6],[83,68],[76,60],[118,114],[27,24],[98,72]],[[9041,5504],[-81,76]],[[9311,7688],[-7,-15],[-4,-66],[2,-193],[-10,-30],[-25,-26],[-64,-32],[-26,-23],[-84,-102],[-29,-23],[-34,-8],[-104,-2]],[[8926,7168],[15,188]],[[8941,7356],[5,84],[-10,304],[-8,89],[-3,144],[2,107],[-4,227]],[[6928,11032],[448,-365],[407,-333]],[[7783,10334],[2,-79],[-3,-49],[-7,-30],[-13,-21],[-23,-18],[-60,-11],[-19,-9],[-105,-87],[-29,-20],[-88,-45],[-163,-111]],[[7114,10064],[-37,75],[-24,41],[-39,56],[-15,55],[-46,71],[-38,105],[-30,107],[-16,80],[4,161],[-3,52],[-17,47],[-11,66]],[[9868,7565],[110,253]],[[10410,7424],[13,-52]],[[10423,7372],[-117,1],[-205,-5]],[[8217,3344],[34,-16],[19,4],[50,48],[58,18]],[[8926,7168],[-79,-2],[-42,-18],[-63,-69],[-9,-18],[-27,-87],[-44,-121],[-14,-55],[-19,-103],[-18,-67]],[[7686,6749],[12,22],[43,-29],[17,-6],[53,4],[38,-15],[16,0],[48,69],[-18,46],[12,12],[53,25],[26,33],[5,51],[23,50],[27,16],[94,23],[34,-17],[39,-4],[19,21],[18,37],[9,33],[44,43],[19,43],[55,54],[15,38],[25,20],[47,17],[14,22],[0,46],[15,25],[51,21],[15,-5],[26,-40],[8,-32],[15,-111],[11,-13],[25,12],[5,26],[30,15],[23,25],[7,26],[-16,45],[-4,24],[7,18],[40,24],[20,-6],[23,-21],[6,-32],[14,-15],[67,-22],[41,19],[39,-30]],[[10391,6835],[20,35],[0,77],[14,33],[4,47],[12,27],[-11,19],[-7,299]],[[10895,7781],[383,-312],[248,-201]],[[11526,7268],[-101,-104],[2,-8],[43,-30],[-323,-333],[8,-23],[-15,-8],[-103,-13],[-42,4],[-52,28],[-147,-152]],[[7566,2809],[-187,-187]],[[7379,2622],[-108,-110]],[[7368,2420],[27,15],[16,20],[31,13],[29,-2],[23,37],[3,31],[-25,10],[-56,56],[-37,22]],[[4887,12696],[590,-481],[240,-196]],[[5054,11966],[9,20],[1,45],[-30,114],[-1,71],[-19,48],[-67,64],[-89,112],[-22,42],[-3,22],[7,45],[34,94],[13,53]],[[3158,7188],[10,-21],[1,-40],[-17,-23],[-1,-67],[6,-55],[-19,-38],[-41,-39],[-14,-39],[8,-14],[54,-23],[41,-45],[19,-47],[4,-23]],[[3209,6714],[-20,-41],[2,-27],[18,-38],[20,-19],[-5,-29],[21,-24],[17,-7],[9,-27],[4,-105]],[[3045,6458],[-173,81],[-80,51],[-33,38],[-105,91],[-56,36],[-66,24],[-43,29]],[[2489,6808],[58,57],[46,32],[38,32],[41,42],[15,44],[-8,93],[9,55],[15,66],[-22,48],[5,32],[29,22],[38,0],[28,-12],[76,43],[14,4],[45,-15],[91,2],[22,-11],[14,-33],[2,-33],[-7,-23],[14,-29],[40,-21],[66,-15]],[[4230,7858],[67,-66],[20,-26],[28,-23],[28,-95]],[[3709,6688],[-30,7],[-14,12],[-18,47],[-44,33],[-32,-1],[-46,-30],[-43,-36],[-14,16]],[[3468,6736],[-19,30],[-5,27],[-47,53],[-42,15],[-14,-4],[-33,9],[-20,24],[13,51],[29,64],[4,50],[-13,28],[-3,31],[-24,39],[-34,18],[-64,19],[-38,-2]],[[2489,6808],[-77,36],[-163,101],[-18,15],[-31,50],[-51,47],[-54,36],[-23,22],[-17,30],[-45,47],[-96,151],[-46,56],[-162,161],[-40,44],[-21,41],[-47,155],[-21,35],[-54,50],[-18,26],[-27,58],[-9,36],[-19,134],[-9,23],[-32,28],[-77,28],[-38,26],[-43,53],[-31,21]],[[3468,6736],[-35,-3],[-39,10],[-21,20],[-56,19],[-7,-14],[-30,0],[-12,-26],[-30,-23],[-29,-5]],[[9663,4882],[-28,38],[-70,77],[-93,91],[-70,72]],[[11526,7268],[115,-94],[343,-282],[443,-368],[-95,-82],[-419,-347],[-288,-237],[-51,3]],[[2131,5148],[-285,232],[-716,584],[-363,294],[-767,616],[327,957],[238,698]],[[7783,10334],[471,-387],[681,-559]],[[8935,9388],[-4,-94],[-23,12],[-42,-31],[-20,4],[-39,-8],[-57,4],[-19,-8],[-26,-31],[-161,-1],[-12,5],[-15,28],[-29,-3],[-4,-27],[19,-33],[15,-9],[-9,-22],[-71,-31],[-52,-20],[-32,-38],[-82,-20],[-22,-15],[-6,-21],[-4,-77],[-18,-23]],[[7317,8699],[-15,13],[-75,47],[-53,23],[-74,2],[-203,-1],[-270,-5],[-36,1],[-22,7],[-31,20],[-84,73],[-20,14],[-49,16],[-97,3],[-21,4],[-36,25],[-170,194]],[[8935,9388],[346,-283]],[[1922,12492],[55,171],[246,698],[57,176],[140,410],[64,169],[27,85],[14,28],[13,46],[92,263],[1007,-818],[38,-29],[712,-574],[500,-421]],[[3476,12122],[-23,9],[-425,-6],[-263,3],[-59,34],[-11,14],[-5,49],[2,55],[-6,85],[-35,125],[-9,18],[-29,9],[-50,2],[-415,36],[-55,13],[-19,-9],[-56,-39],[-96,-28]],[[1284,10618],[39,115],[273,796],[85,271],[65,183],[68,194],[83,237],[25,78]],[[6521,7100],[-28,309],[-22,44],[-124,112],[-73,68],[-11,41],[7,47],[-10,43],[-42,58],[-22,23],[-41,3],[-24,11],[-11,25],[5,51],[-7,17],[-59,42],[-57,11],[-29,23],[-5,35],[18,36],[4,49],[-9,29],[-108,293],[-50,132],[-28,45],[-53,39],[-12,22],[-7,46],[-41,55],[-38,28],[-25,37],[-4,53]],[[7451,1285],[-303,-336],[-160,-183],[-316,-349],[-22,-26],[-353,-391],[-22,75],[-32,118],[-235,822],[0,2]]],"transform":{"scale":[0.000047381508006760226,0.00004153439262622087],"translate":[-98.2976,29.752485]},"objects":{"Geometry\\48-209":{"type":"GeometryCollection","geometries":[{"arcs":[[0,1,2,3,4,5,6]],"type":"Polygon","properties":{"GEOID":"482090108062"}},{"arcs":[[7,8,9,10]],"type":"Polygon","properties":{"GEOID":"482090103021"}},{"arcs":[[11,12,13,14,15,16,17]],"type":"Polygon","properties":{"GEOID":"482090108071"}},{"arcs":[[18,19,-18,20,21]],"type":"Polygon","properties":{"GEOID":"482090108072"}},{"arcs":[[22,-6,23,24,25,26,-15]],"type":"Polygon","properties":{"GEOID":"482090108061"}},{"arcs":[[27,28,29,30]],"type":"Polygon","properties":{"GEOID":"482090107022"}},{"arcs":[[31,32]],"type":"Polygon","properties":{"GEOID":"482090109091"}},{"arcs":[[33,34,35,36,37,38]],"type":"Polygon","properties":{"GEOID":"482090105002"}},{"arcs":[[39,40,41,42,43]],"type":"Polygon","properties":{"GEOID":"482090103022"}},{"arcs":[[44,45,46,47,-32,48,49]],"type":"Polygon","properties":{"GEOID":"482090109093"}},{"arcs":[[50,51,52,53,54,55,56]],"type":"Polygon","properties":{"GEOID":"482090109053"}},{"arcs":[[57,-49,-33,-48,58,59]],"type":"Polygon","properties":{"GEOID":"482090109092"}},{"arcs":[[-60,60,-51,61]],"type":"Polygon","properties":{"GEOID":"482090109052"}},{"arcs":[[62,63,64,65,66,67,-2,68]],"type":"Polygon","properties":{"GEOID":"482090108091"}},{"arcs":[[69,70,71,72,73]],"type":"Polygon","properties":{"GEOID":"482090102002"}},{"arcs":[[74,75,-37,76,77]],"type":"Polygon","properties":{"GEOID":"482090101002"}},{"arcs":[[78,79,-74,80,81,82]],"type":"Polygon","properties":{"GEOID":"482090102001"}},{"arcs":[[83,84,85,86,87,88,89,-30]],"type":"Polygon","properties":{"GEOID":"482090107021"}},{"arcs":[[90,91,92,93,-62,-57,94,95,-84,-29,96]],"type":"Polygon","properties":{"GEOID":"482090109051"}},{"arcs":[[97,98,99,-72,100,101,-44,102,-75]],"type":"Polygon","properties":{"GEOID":"482090101001"}},{"arcs":[[103,104,105,106,107]],"type":"Polygon","properties":{"GEOID":"482090106023"}},{"arcs":[[108,109,-106]],"type":"Polygon","properties":{"GEOID":"482090106022"}},{"arcs":[[110,111,112,113,114,115,116]],"type":"Polygon","properties":{"GEOID":"482090103061"}},{"arcs":[[-96,-111,117,-85]],"type":"Polygon","properties":{"GEOID":"482090103092"}},{"arcs":[[118,119,120]],"type":"Polygon","properties":{"GEOID":"482090108141"}},{"arcs":[[121,122,123,124,125,126]],"type":"Polygon","properties":{"GEOID":"482090104023"}},{"arcs":[[127,128,-13,129]],"type":"Polygon","properties":{"GEOID":"482090108171"}},{"arcs":[[130,131,132,133,134,135,136,137,138]],"type":"Polygon","properties":{"GEOID":"482090109163"}},{"arcs":[[139,140,141,142,143,144,-134]],"type":"Polygon","properties":{"GEOID":"482090109212"}},{"arcs":[[145,146,147,148,-104,149,150]],"type":"Polygon","properties":{"GEOID":"482090106032"}},{"arcs":[[151,-31,-90,152,153,154,-147,155]],"type":"Polygon","properties":{"GEOID":"482090107041"}},{"arcs":[[156,157,158,159,160,161]],"type":"Polygon","properties":{"GEOID":"482090109133"}},{"arcs":[[162,163,-156,-146,164]],"type":"Polygon","properties":{"GEOID":"482090108123"}},{"arcs":[[-56,165,-136,166,-112,-95]],"type":"Polygon","properties":{"GEOID":"482090109172"}},{"arcs":[[167,168,-165,-151,169,170]],"type":"Polygon","properties":{"GEOID":"482090108102"}},{"arcs":[[171,-98,-78,172,173]],"type":"Polygon","properties":{"GEOID":"482090106011"}},{"arcs":[[174,175,176,177]],"type":"Polygon","properties":{"GEOID":"482090109182"}},{"arcs":[[178,179,180,181,182,-40,-102]],"type":"Polygon","properties":{"GEOID":"482090103071"}},{"arcs":[[-155,183,184,-35,185,-148]],"type":"Polygon","properties":{"GEOID":"482090106031"}},{"arcs":[[-110,186,-39,187,-122,188,-107]],"type":"Polygon","properties":{"GEOID":"482090105003"}},{"arcs":[[-89,189,190,-79,191,-153]],"type":"Polygon","properties":{"GEOID":"482090107032"}},{"arcs":[[-116,192,193,194]],"type":"Polygon","properties":{"GEOID":"482090103053"}},{"arcs":[[-192,-83,195,196,-154]],"type":"Polygon","properties":{"GEOID":"482090107033"}},{"arcs":[[-149,-186,-34,-187,-109,-105]],"type":"Polygon","properties":{"GEOID":"482090106021"}},{"arcs":[[-87,197,198,-180,199]],"type":"Polygon","properties":{"GEOID":"482090103082"}},{"arcs":[[-191,200,-70,-80]],"type":"Polygon","properties":{"GEOID":"482090107034"}},{"arcs":[[201,202,203,204]],"type":"Polygon","properties":{"GEOID":"482090109191"}},{"arcs":[[205,-131,206,207]],"type":"Polygon","properties":{"GEOID":"482090109161"}},{"arcs":[[208,209,-121,210,211]],"type":"Polygon","properties":{"GEOID":"482090108142"}},{"arcs":[[-183,212,213,214,-41]],"type":"Polygon","properties":{"GEOID":"482090103073"}},{"arcs":[[215,216,-114,217,-9,218,-215]],"type":"Polygon","properties":{"GEOID":"482090103051"}},{"arcs":[[-42,-219,-8,219]],"type":"Polygon","properties":{"GEOID":"482090103023"}},{"arcs":[[-125,220,221,222,223]],"type":"Polygon","properties":{"GEOID":"482090104021"}},{"arcs":[[-59,224,-52,-61]],"type":"Polygon","properties":{"GEOID":"482090109253"}},{"arcs":[[-47,225,226,-53,-225]],"type":"Polygon","properties":{"GEOID":"482090109252"}},{"arcs":[[227,228,229]],"type":"Polygon","properties":{"GEOID":"482090109241"}},{"arcs":[[-197,230,-174,231,-184]],"type":"Polygon","properties":{"GEOID":"482090106012"}},{"arcs":[[-199,232,233,-181]],"type":"Polygon","properties":{"GEOID":"482090103081"}},{"arcs":[[-234,234,235,-213,-182]],"type":"Polygon","properties":{"GEOID":"482090103072"}},{"arcs":[[236,237,238,239,240]],"type":"Polygon","properties":{"GEOID":"482090109112"}},{"arcs":[[241,-241,242,243]],"type":"Polygon","properties":{"GEOID":"482090109122"}},{"arcs":[[244,245,246,-203,247]],"type":"Polygon","properties":{"GEOID":"482090109223"}},{"arcs":[[248,-69,-1,249,-129]],"type":"Polygon","properties":{"GEOID":"482090108093"}},{"arcs":[[250,-207,-139,251,-175,-228]],"type":"Polygon","properties":{"GEOID":"482090109162"}},{"arcs":[[-232,-173,-77,-36,-185]],"type":"Polygon","properties":{"GEOID":"482090106013"}},{"arcs":[[-204,-247,252,253,-142,254,255,-132,-206]],"type":"Polygon","properties":{"GEOID":"482090109192"}},{"arcs":[[-255,-141,256]],"type":"Polygon","properties":{"GEOID":"482090109211"}},{"arcs":[[257,258,-157,259,-238]],"type":"Polygon","properties":{"GEOID":"482090109111"}},{"arcs":[[-159,260,261,262,263]],"type":"Polygon","properties":{"GEOID":"482090109232"}},{"arcs":[[264,265,266,267,268,-4]],"type":"Polygon","properties":{"GEOID":"482090108165"}},{"arcs":[[269,-220,-11,-222,270]],"type":"Polygon","properties":{"GEOID":"482090104011"}},{"arcs":[[-269,271,-24,-5]],"type":"Polygon","properties":{"GEOID":"482090108163"}},{"arcs":[[-68,272,273,-265,-3]],"type":"Polygon","properties":{"GEOID":"482090108164"}},{"arcs":[[-67,274,-273]],"type":"Polygon","properties":{"GEOID":"482090108162"}},{"arcs":[[-260,275,-239]],"type":"Polygon","properties":{"GEOID":"482090109151"}},{"arcs":[[-86,-118,-117,-195,-235,-233,-198]],"type":"Polygon","properties":{"GEOID":"482090103091"}},{"arcs":[[-264,276,277,-160]],"type":"Polygon","properties":{"GEOID":"482090109131"}},{"arcs":[[-190,-88,-200,-179,-101,-71,-201]],"type":"Polygon","properties":{"GEOID":"482090107031"}},{"arcs":[[-196,-82,278,-99,-172,-231]],"type":"Polygon","properties":{"GEOID":"482090102004"}},{"arcs":[[279,-205,-208,-251,-230,280,-226,-46]],"type":"Polygon","properties":{"GEOID":"482090109251"}},{"arcs":[[-210,281,282,-91,283,-163,-169,284,-119]],"type":"Polygon","properties":{"GEOID":"482090108124"}},{"arcs":[[285,286,-211,-120,-285,-168,287]],"type":"Polygon","properties":{"GEOID":"482090108101"}},{"arcs":[[-227,-281,-229,-178,288,-54]],"type":"Polygon","properties":{"GEOID":"482090109242"}},{"arcs":[[-240,-276,-162,289,290,291]],"type":"Polygon","properties":{"GEOID":"482090109152"}},{"arcs":[[-65,292,293,-267,294]],"type":"Polygon","properties":{"GEOID":"482090108151"}},{"arcs":[[295,-277,-263,296,297,-245]],"type":"Polygon","properties":{"GEOID":"482090109222"}},{"arcs":[[-214,-236,-194,298,-216]],"type":"Polygon","properties":{"GEOID":"482090103052"}},{"arcs":[[-73,-100,-279,-81]],"type":"Polygon","properties":{"GEOID":"482090102003"}},{"arcs":[[-291,299,-50,-58,-94,300]],"type":"Polygon","properties":{"GEOID":"482090109142"}},{"arcs":[[301,-297,-262,302,303,-143,-254]],"type":"Polygon","properties":{"GEOID":"482090109231"}},{"arcs":[[-298,-302,-253,-246]],"type":"Polygon","properties":{"GEOID":"482090109221"}},{"arcs":[[-274,-275,-66,-295,-266]],"type":"Polygon","properties":{"GEOID":"482090108161"}},{"arcs":[[-76,-103,-43,-270,304,305,-188,-38]],"type":"Polygon","properties":{"GEOID":"482090105001"}},{"arcs":[[-257,-140,-133,-256]],"type":"Polygon","properties":{"GEOID":"482090109213"}},{"arcs":[[306,-305,-271,-221,-124]],"type":"Polygon","properties":{"GEOID":"482090104012"}},{"arcs":[[307,-63,-249,308]],"type":"Polygon","properties":{"GEOID":"482090108092"}},{"arcs":[[-193,-115,-217,-299]],"type":"Polygon","properties":{"GEOID":"482090103054"}},{"arcs":[[-307,-123,-306]],"type":"Polygon","properties":{"GEOID":"482090104013"}},{"arcs":[[309,310,-286,311,312]],"type":"Polygon","properties":{"GEOID":"482090108133"}},{"arcs":[[-17,313,-282,-209,314,315,-313,316,-21]],"type":"Polygon","properties":{"GEOID":"482090108111"}},{"arcs":[[-316,317,-310]],"type":"Polygon","properties":{"GEOID":"482090108132"}},{"arcs":[[-318,-315,-212,-287,-311]],"type":"Polygon","properties":{"GEOID":"482090108131"}},{"arcs":[[-176,-252,-138,318]],"type":"Polygon","properties":{"GEOID":"482090109181"}},{"arcs":[[-304,319,-144]],"type":"Polygon","properties":{"GEOID":"482090109201"}},{"arcs":[[-22,-317,-312,-288,-171,320]],"type":"Polygon","properties":{"GEOID":"482090108112"}},{"arcs":[[-290,-161,-278,-296,-248,-202,-280,-45,-300]],"type":"Polygon","properties":{"GEOID":"482090109132"}},{"arcs":[[-25,-272,-268,-294,321,322,-244,323]],"type":"Polygon","properties":{"GEOID":"482090109121"}},{"arcs":[[-289,-177,-319,-137,-166,-55]],"type":"Polygon","properties":{"GEOID":"482090109171"}},{"arcs":[[-284,-97,-28,-152,-164]],"type":"Polygon","properties":{"GEOID":"482090108122"}},{"arcs":[[-250,-7,-23,-14]],"type":"Polygon","properties":{"GEOID":"482090108063"}},{"arcs":[[-323,324,-258,-237,-242]],"type":"Polygon","properties":{"GEOID":"482090109123"}},{"arcs":[[325,-309,-128,326]],"type":"Polygon","properties":{"GEOID":"482090108181"}},{"arcs":[[327,-327,-130,-12,-20]],"type":"Polygon","properties":{"GEOID":"482090108172"}},{"arcs":[[-324,-243,-292,-301,-93,328,-26]],"type":"Polygon","properties":{"GEOID":"482090109141"}},{"arcs":[[-27,-329,-92,-283,-314,-16]],"type":"Polygon","properties":{"GEOID":"482090108121"}},{"arcs":[[-126,-224,329]],"type":"Polygon","properties":{"GEOID":"482090104022"}}]}}}