{"type":"Topology","arcs":[[[5123,10362],[-14,-155],[7,-41],[51,-101],[16,-73],[78,-205],[28,-78],[14,-101],[11,-66],[12,-36],[57,-99],[13,-47],[2,-171],[6,-33],[175,-342],[51,-82],[14,-35],[12,-51],[20,6],[23,-4],[26,26],[15,8],[19,-29],[31,-11],[7,-13],[41,-18],[24,-1],[9,-20],[30,-20],[19,5],[29,-21],[27,-4],[22,-65],[42,-25],[52,-50],[25,-9],[-5,-13],[21,-40],[33,-27],[16,2],[8,-29],[26,-10],[11,20],[20,10],[22,-1],[20,-11],[59,-23],[59,10],[21,-4],[19,11],[29,-54],[18,-13],[7,-22],[17,-24],[4,-28],[-23,-18],[-9,-18],[0,-40],[-9,-48],[-12,-38],[-34,12],[-15,-21],[-30,-2],[-10,-26],[22,-20],[-18,-14],[-26,16],[-5,-23],[19,-16],[-14,-47],[-11,-18],[36,-5],[23,10],[3,-21],[40,-7],[2,-31],[40,-8],[17,12],[9,26],[17,11],[47,-5],[8,17],[-6,61],[22,24],[5,37],[-4,23],[21,43],[25,21],[12,18],[19,-1],[56,18],[42,-11],[4,-32],[12,-17],[21,1],[22,14],[25,-24],[27,26],[47,-29],[21,4],[30,25],[3,25],[23,-2],[-1,-26],[20,-7],[23,30],[19,7],[12,-32],[45,-13],[6,15],[24,2],[2,-14],[18,-21],[23,28],[30,-13],[26,2],[18,-13],[17,5],[19,-18],[0,-23],[52,-12],[17,-12]],[[7386,7942],[-50,-65],[-46,-65],[-55,-71]],[[7235,7741],[-335,-432],[-139,-178],[-41,-47],[-62,-76],[-48,-47]],[[6610,6961],[-89,-76],[-193,-171]],[[6328,6714],[-158,-141],[-43,-36],[-29,-35],[-23,-44],[-10,-28],[-5,-34],[-7,-103]],[[6053,6293],[-63,53],[-6,2],[-210,193]],[[5774,6541],[-67,64],[-47,40],[-55,53],[-155,141],[-36,30],[-30,15],[-51,16],[-152,33]],[[5181,6933],[-490,105]],[[4691,7038],[-62,22],[-44,32],[-24,24],[-26,40],[-142,285],[-49,88],[-96,138],[-68,100],[-349,504]],[[3831,8271],[-133,193],[-3,2],[-161,233],[-34,46],[-35,39],[-28,25],[-110,82]],[[3327,8891],[-156,115],[-71,53]],[[3100,9059],[-76,56]],[[3024,9115],[39,56],[18,33],[39,115],[46,85],[40,39],[218,134],[57,37],[64,45],[34,34],[51,77],[24,23],[58,37],[27,26],[69,97],[25,22],[58,32],[29,25],[96,129],[83,114],[21,20],[33,15],[55,8],[23,-2],[88,-16],[120,-5],[32,2],[38,12],[27,16],[98,78],[42,25],[36,9],[42,-1],[137,-14],[44,-14],[75,-37],[39,-9],[74,0]],[[4186,6463],[182,-155],[183,-160],[23,-12],[47,-11],[33,-13],[14,-13],[29,-63],[16,-17],[125,-104],[25,-17]],[[4863,5898],[-38,-37],[-33,-18],[-307,-72],[-96,-15],[-189,-42],[-72,-18]],[[4128,5696],[124,144],[15,23],[7,37],[-13,45],[-59,96]],[[4202,6041],[-131,210],[-34,41],[149,171]],[[2326,9430],[31,0],[64,-6],[52,3],[1,-12],[52,1],[10,-29],[147,-22],[4,48],[12,7],[30,35],[98,-3]],[[2827,9452],[-5,-38],[12,-168],[-13,-41],[43,-6],[8,-19]],[[2872,9180],[-232,32],[-67,8],[-55,-1],[-51,-7],[-56,-14],[-85,-25]],[[2326,9173],[-153,-43]],[[2173,9130],[18,45],[39,47],[54,55],[49,82],[-7,71]],[[2870,8434],[257,296],[4,30],[20,9],[16,27],[11,30],[18,-3],[26,24],[66,29],[28,1],[11,14]],[[3831,8271],[-30,13],[-44,11],[-13,-5],[-49,1],[-3,18],[-59,-4],[-74,12],[-71,-39],[-680,-139]],[[2808,8139],[96,219],[-34,76]],[[4769,4172],[40,118],[49,77],[22,48],[19,30],[37,43],[35,35]],[[4971,4523],[158,153],[18,15],[35,18],[239,86],[72,46],[18,16],[13,27],[41,110],[19,59],[15,35],[88,129],[36,60],[32,60],[31,37],[107,83],[100,47],[36,9],[66,-1],[2,22],[13,36],[23,27]],[[6133,5597],[6,-39],[-3,-57]],[[6136,5501],[-22,-110],[-8,-48],[-3,-61],[8,-82],[38,-181],[16,-79],[31,-146],[48,-232],[6,-39],[-1,-41],[-61,-712],[2,-52],[16,-68],[93,-229],[13,-46]],[[6312,3375],[-71,-37],[2,-29],[-84,-8],[-50,1],[-49,-30],[-51,-43],[-21,-7],[-30,3],[-39,20],[-33,24],[-37,45],[-29,64],[-21,29],[-37,37],[-52,39],[-19,21],[-39,56],[-59,118],[-12,12],[-30,11],[-90,4],[-37,12],[-114,61],[-101,38],[-90,22],[-61,49],[-172,149],[-52,32],[-52,42],[-14,35],[1,27]],[[616,10068],[209,201],[530,514],[483,468],[268,264]],[[2106,11515],[-4,-141],[-4,-22],[-17,-49],[-7,-32],[0,-59],[5,-51],[10,-34],[25,-40],[22,-21],[108,-97],[55,-53],[26,-35],[28,-57],[12,-39],[5,-35],[11,-157],[0,-30],[-11,-112],[-18,-41],[-72,-101],[-12,-31],[-5,-50]],[[2263,10228],[-39,23],[-76,13],[-61,40],[-81,56],[-44,-45],[-21,-3],[-19,-47],[-20,-6],[2,-18],[-15,-11],[-21,-1],[-21,-10],[-21,-20],[-13,-42],[17,-17],[2,-25],[-20,-21],[9,-15],[-7,-17],[-24,-21],[-5,-21],[-40,-2],[-4,-18],[0,-53],[9,-54],[15,-26],[31,-42],[10,-40],[20,-28],[-1,-99]],[[1825,9658],[-85,61],[-32,15],[-21,3],[-104,-4],[-117,-6],[-53,-5],[-133,-3],[-169,16],[-53,8],[-100,30],[-41,16],[-27,18],[-189,179],[-85,82]],[[5774,6541],[-27,-36],[-45,-193],[-13,-22],[-28,-14],[-148,-7],[-25,-9],[-51,-25]],[[5437,6235],[-82,52],[-265,162],[-162,73],[104,120],[0,14],[47,54],[-2,11],[-69,61],[2,6],[109,126],[22,-4],[13,-13],[20,7],[7,29]],[[2638,8104],[170,35]],[[4691,7038],[-75,14],[-60,4],[-497,18],[-146,-9],[-62,-10],[-300,-53]],[[3551,7002],[-205,-36]],[[3346,6966],[-13,40],[-9,8],[-26,-1],[-22,-20],[-36,1],[2,53],[-12,40],[4,15],[85,-11],[4,15],[-31,67],[-72,95],[-72,104],[-52,50],[-560,661]],[[2536,8083],[102,21]],[[2214,5793],[426,334],[29,43],[29,23],[73,-61]],[[2771,6132],[33,-15],[57,-10],[35,1],[21,12],[28,29],[84,97],[37,20],[19,0],[27,-10],[19,-22],[15,-32],[22,-20],[44,-7],[60,19],[33,38],[8,34],[-8,47],[3,25],[20,31],[29,13],[58,-7],[48,7],[34,22],[24,30]],[[3521,6434],[-2,-11],[-28,-55],[-2,-25],[16,-102],[2,-157],[1,-497]],[[3508,5587],[1,-193]],[[3509,5394],[-30,-13],[-58,-35],[-45,-39],[-17,-33],[-51,-40],[-55,-25],[-77,2],[-42,-9],[-40,-18],[-110,-74],[-20,-16],[-30,1],[-82,49],[-54,15],[-57,9],[-40,-6],[-23,-31],[-6,-56],[-4,-91],[-7,-38],[-26,-45],[-31,-29],[-39,-25],[-81,-24],[-70,-33],[-77,-22],[-36,-1],[-66,7],[-51,19],[-68,39],[-28,24],[-18,33],[-13,59],[6,20],[37,55],[78,87],[12,23],[4,33],[-15,39],[-15,12],[-67,16],[-47,7],[-29,11],[-29,18],[-14,22],[-1,26],[6,26],[23,56],[43,88],[15,77],[10,34],[13,28],[48,61],[36,33],[51,32],[4,16],[-12,25]],[[2616,12007],[149,144],[220,210],[424,409]],[[3409,12770],[26,-37],[15,-35],[32,-21],[122,-27],[39,-1],[14,-9],[29,-62],[41,-48],[41,-28],[13,-18],[22,3],[10,-18],[16,-7],[-5,-18],[29,-4],[14,-20],[48,-34],[20,6],[17,-34],[52,-10],[34,-1],[19,9],[20,-4],[13,-24],[27,13],[14,-22],[18,-9],[18,4],[3,-41],[34,3],[-5,-58],[-15,-30],[16,-34],[-17,-17],[-5,-44],[-11,-14],[-31,-11],[-6,-58],[-34,-25],[-27,-1],[-23,-28],[-30,-24],[-30,-2],[-25,-25],[-19,3],[-18,19],[-18,2],[-16,-12],[2,-25],[17,-29],[-1,-13],[-25,-15],[0,-18],[39,6],[25,-26],[18,-34],[36,-26],[-15,-22],[-1,-28],[-31,-15],[-9,-14],[-66,-30],[-7,-8],[-3,-33],[12,-15],[-15,-22],[8,-61],[19,-13],[-9,-28],[-29,-6],[-8,-28],[-35,9],[0,-36],[38,-7],[15,-34],[25,-18],[11,-34],[-25,-18],[-30,18],[-15,17],[-16,-7],[5,-25],[-13,-24],[38,-29],[0,-43],[19,-2],[52,-43],[45,-18],[4,-18],[-12,-18],[-18,2],[-19,16],[-26,-7],[-1,-36],[-18,-27],[8,-15],[24,-8],[23,-17],[18,-25],[32,-19],[13,0],[17,31],[11,6],[33,2],[15,-19],[0,-28],[30,6],[14,16],[29,4],[50,-30],[-13,-38],[43,0],[-6,26],[17,15],[9,-33],[16,-14],[42,9],[22,27],[26,1],[40,9],[10,20],[34,-5],[23,-35],[43,9],[13,28],[-6,18],[5,57],[-3,51],[136,54],[58,27],[80,29],[46,7],[41,16],[34,20],[48,24],[22,6],[23,-8],[66,15],[94,44],[19,2]],[[5170,11317],[-2,-31],[33,-306],[-1,-29],[-26,-101],[-12,-94],[2,-138],[-6,-61],[-30,-126],[-5,-69]],[[3024,9115],[-41,30],[-56,26],[-55,9]],[[2827,9452],[6,44],[14,63],[1,51],[-13,36],[-17,26],[-5,22],[9,44],[2,40],[8,54],[12,43],[22,66],[16,32],[43,63],[26,15],[15,16],[-6,33],[-34,21],[-13,27],[11,26],[46,50],[38,25],[31,35],[8,41],[-3,32],[-15,29],[-30,-11],[-15,1],[-20,23],[-6,20],[2,52],[23,81],[44,42],[37,7],[13,10],[-3,23],[-37,76],[37,47],[15,44],[1,32],[-27,97],[-17,50],[9,74],[-8,30],[-13,29],[-40,50],[-31,44],[-42,31],[-40,22],[-16,32],[20,23],[42,1],[28,36],[-3,29],[-11,21],[-29,30],[-44,35],[-17,7],[-29,0],[-29,10],[-13,13],[-35,49],[6,20],[38,20],[42,8],[35,23],[46,70],[-2,29],[-25,31],[-49,23],[-32,11],[-44,26],[-60,19],[2,19],[-20,27],[-69,48],[-18,39],[13,21],[8,27]],[[7235,7741],[129,2],[12,-26],[123,-4],[9,4],[11,32],[8,39],[21,18],[75,3],[16,11],[76,-45],[8,-12],[1,-27],[9,-30],[-4,-54],[10,-28],[22,-27],[13,-26],[44,-46],[18,-34],[24,-24],[22,-36],[6,-22],[-10,-35],[-25,-17],[-51,-45],[-16,-19],[-10,-49],[-10,-24],[-29,-35],[-39,-9],[-43,-19],[-44,7],[-40,-8],[-23,-19],[-40,-46],[-26,-21],[-43,-19],[-54,-10],[-22,-13],[-91,-72],[-89,-84],[-34,-30],[-52,-17]],[[7097,6825],[-57,-9],[-79,-37],[-78,-43],[-138,-38],[-20,-13],[-88,-69],[26,53],[11,52],[-5,37],[-12,23],[-56,90],[-7,8]],[[6594,6879],[16,82]],[[7097,6825],[42,-46],[4,-8],[0,-206],[-17,-38],[1,-78],[-2,-104],[-122,-1],[-27,4],[-59,25],[-71,4],[-19,-41],[-8,-36],[9,-27]],[[6828,6273],[-111,-12],[-31,0],[-57,8],[-80,-1]],[[6549,6268],[-1,68],[1,240],[4,46],[41,257]],[[1825,9658],[67,-49],[22,-29],[12,-44],[7,-268],[3,-21],[19,-42],[83,-100]],[[2038,9105],[-93,3],[-53,-2],[-55,-8],[-52,-13],[-49,-21],[-656,-286]],[[1080,8778],[-18,14],[-103,24],[-160,50],[-61,59],[-49,30],[-48,39],[-58,76],[-69,104],[-14,50],[-14,76],[-31,14],[-141,-24],[-26,1],[-20,20],[-43,84],[-49,58],[-26,5],[-114,7],[-36,9],[616,594]],[[5170,11317],[20,35],[44,42],[68,49],[26,9],[86,15],[245,8],[33,9],[78,37],[121,31],[181,31],[136,4],[31,-11],[113,-64],[25,-9],[35,-2],[289,8],[47,12],[102,62],[70,64],[73,32],[40,20],[63,49],[59,25],[114,59],[93,57],[38,16],[56,10],[56,3],[37,6],[82,34],[162,53],[65,28],[133,43],[54,21],[44,2],[233,20],[45,0],[54,-24],[143,-26],[31,-4],[71,-1],[46,2],[109,25],[45,34],[72,17],[58,9],[73,6],[106,-2]],[[9175,12161],[-10,-214],[-11,-50],[-16,-36]],[[9138,11861],[-125,-185],[-22,-44],[-153,-344],[-38,-92],[-72,-159],[-50,-135],[-224,-617],[-138,-375],[-148,-408],[-64,-125],[-63,-131],[-14,-43],[-4,-28],[-4,-97]],[[8019,9078],[-6,-62],[-7,-41],[-17,-58],[-20,-45],[-69,-117],[-255,-425],[-145,-245],[-114,-143]],[[4863,5898],[139,148],[61,63],[48,30],[64,21],[179,40],[35,12],[48,23]],[[6053,6293],[-20,-299],[-6,-106],[6,-62],[9,-29],[79,-166],[12,-34]],[[4971,4523],[-19,20],[8,372],[-8,41],[-116,210],[-26,39],[-35,21],[-49,2],[-210,-34],[-48,7],[-24,13],[-232,196],[-112,86],[-19,20],[-11,33],[6,40],[28,101],[24,6]],[[11146,2626],[107,-114],[714,-751],[273,-283],[246,-258],[384,-407],[30,23],[20,5],[360,4],[366,3],[30,-49],[35,-13],[28,-17],[26,-35],[10,-24],[21,-13],[41,-3],[9,-9],[-5,-22],[-11,-7],[-3,-32],[21,-29],[73,-29],[18,-25],[14,-36],[2,-27],[-23,-81],[0,-24],[-9,-33],[-3,-48],[-9,-41],[12,-35],[-2,-30],[10,-9],[3,-61],[14,-71]],[[13948,45],[-990,-7],[-721,-1],[-449,0],[-586,-12],[-436,-14],[-28,1],[-373,-12],[-162,13]],[[10203,13],[-18,43],[-151,448],[-178,527],[-132,396],[-154,458]],[[9570,1885],[-22,62],[-24,50],[-54,78],[-76,101],[-74,103],[-131,175],[-101,170]],[[9088,2624],[77,62],[94,78],[61,21],[83,12],[114,23],[127,8],[46,16],[80,50],[48,19],[56,0],[88,-24],[397,-97],[245,-54],[294,-62],[248,-50]],[[8644,6031],[739,4],[75,-5],[237,-61]],[[9695,5969],[133,-34],[60,-9],[128,-10],[114,-10],[96,-4],[395,4],[158,1]],[[10779,5907],[-207,-440],[-17,-88],[-1,-19],[27,-102],[43,-154],[83,-135],[9,-30],[4,-42],[18,-77],[20,-31],[73,-76],[18,-27],[0,-82],[9,-23],[39,-54],[18,-31],[65,-67],[7,-19],[1,-144],[6,-71],[13,-17],[53,-28],[20,-22],[20,-69]],[[11100,4059],[43,-161],[43,-156],[17,-22],[186,-101],[22,-9],[152,-35],[18,-15],[49,-119],[11,-14],[30,-18],[29,-3],[169,22],[42,-72],[127,-212],[32,-51],[105,-174],[13,-19],[78,-86],[191,-218],[29,-30],[89,-67],[9,-14],[-85,-21],[-22,-9],[-19,-27],[-46,-84],[-55,-46],[-19,-4],[-41,3],[-25,-9],[-48,-31],[-24,-2],[-43,14],[-33,32],[-99,28],[-25,5],[-66,6],[-28,7],[-41,20],[-40,27],[-30,9],[-186,20],[-36,12],[-209,109],[-101,52],[-28,11],[-89,19]],[[9088,2624],[-28,46],[-129,218],[-86,123],[-70,104],[-11,13]],[[8764,3128],[-163,232],[-60,88],[-31,68],[-43,117],[-83,214],[-120,314],[-25,53],[-38,56],[-59,71],[-61,68],[-136,157],[-120,116]],[[7825,4682],[185,0],[22,2],[44,14],[51,44],[35,15],[53,6],[28,7],[-4,15],[8,128],[10,46],[-4,40],[5,40],[-2,26],[-16,39],[-4,51],[9,38],[34,48],[24,18],[28,11],[45,66],[12,-29],[16,-22],[60,45],[147,118],[1,38],[-17,30],[4,49],[26,24],[1,75],[25,70],[-1,19],[17,21],[-2,59],[-18,18],[-2,43],[-1,137]],[[10779,5907],[119,2],[65,11],[60,32],[169,153],[12,-24],[83,-98],[30,-23],[41,-19],[92,0],[33,-12],[33,-29],[41,-51],[39,-29],[110,-40],[78,-37],[95,-13],[69,-14],[67,-26],[44,-27],[17,-15],[38,-50],[16,-39],[22,-37],[35,-30],[62,-67],[12,-21],[7,-59],[8,-20],[29,-35],[59,-61],[14,-10],[100,-41],[84,-51],[21,-9],[58,-13],[17,-9],[70,-47],[141,-109],[66,-62],[75,-81],[15,-19],[53,-78],[16,-37]],[[13094,4663],[-10,-3],[-42,-58],[-37,-46],[-9,-26],[-41,-65],[-39,-43],[-51,-44],[-60,-75],[-28,-46],[-17,-38],[-5,-30],[-21,-56],[6,-28],[-3,-27],[-18,-43],[-19,-25],[-24,-69],[-12,-9],[-52,-13],[-32,0],[-18,-18],[-5,-33],[-23,-53],[-49,-82],[-14,-7],[-52,27],[-48,-4],[-23,8],[-15,16],[-44,12],[-140,255],[-7,11],[-31,21],[-44,17],[-41,7],[-56,50],[-33,52],[-50,86],[-31,62],[-31,43],[-25,15],[-34,3],[-35,-2],[-10,-30],[-92,0],[-1,34],[-40,6],[-31,28],[-70,37],[-38,28],[-29,6],[-30,-1],[-8,-7],[-61,-84],[-55,-80],[-31,-62],[-5,-21],[-22,-47],[-14,-54],[-16,-27],[-36,-29],[-42,-43]],[[9570,1885],[-20,-7],[-31,-22],[-76,-81],[-34,-25],[-31,-52],[-37,-40],[-69,-40],[-16,-13],[-57,-66],[-12,-40],[5,-35],[33,-145],[-4,-33],[-28,-77],[-5,-54],[1,-271],[-2,-13],[-34,-108],[-6,-30],[0,-310],[-2,-18],[-68,-171],[-9,-39],[-4,-98]],[[9064,97],[-271,13],[-195,18],[-27,19],[-74,21],[-72,-11],[-104,-14],[-89,12],[-28,15],[-10,28],[-11,192],[-19,70],[-13,100],[7,54],[7,19],[27,32],[54,40],[95,39],[36,24],[27,26],[18,28],[13,34],[23,76],[12,25],[51,41],[61,26],[95,25],[205,69],[74,30],[36,24],[9,31],[57,160],[15,34],[8,29],[-6,45],[-11,14],[-41,22],[-51,19],[-61,28],[-79,42],[-52,16],[-21,1],[-100,-29],[-47,-21],[-44,-6],[-32,5],[-104,53],[-29,11],[-64,8],[-26,-5],[-81,-7],[-153,-8],[-113,-3],[-21,22],[-48,79],[-27,24],[-33,17],[-50,15],[-75,38],[-70,75],[-28,21],[-49,14],[-33,0],[-57,-13],[-22,0],[-66,13],[-53,17],[-81,62]],[[7253,1995],[8,20],[-19,14],[0,23],[15,10],[23,-17],[9,17],[-3,17],[16,10],[20,-22],[27,-3],[18,25],[14,-13],[22,-7],[17,16],[21,4],[4,-20],[20,-4],[16,17],[-30,24],[-9,19],[7,18],[-6,26],[-14,-8],[-18,18],[20,17],[-15,17],[-19,55],[11,10],[-5,20],[25,2],[-3,24],[25,14],[-1,21],[46,-33],[19,-40],[10,-57],[11,-24],[67,-91],[15,-14],[32,-4],[22,22],[65,127],[33,57],[18,22],[119,74],[29,28],[199,216],[95,103],[46,43],[165,83],[20,15],[75,73],[216,160],[13,9]],[[13094,4663],[29,-97],[53,115],[33,58],[24,69],[15,64],[5,57],[12,35],[27,47],[7,31],[1,46],[-13,96],[2,34],[21,57],[5,102],[-1,35],[-10,43],[-40,107],[-3,34],[6,47],[-7,54],[-14,60],[-2,23],[84,-50],[65,-52],[23,-13],[50,-14],[34,-4],[20,-13],[45,-43],[97,-86],[63,-46],[40,-33],[27,-32],[28,-55],[38,-97],[25,-29],[127,-74],[61,-37],[33,-15],[125,-44],[168,-63],[32,-7],[50,0],[20,8],[30,1],[63,-20],[34,3],[28,9],[79,69],[7,51],[28,60],[3,24],[-11,6],[-6,32],[-36,7],[9,14],[0,25],[47,43],[-19,13],[-7,20],[-20,1],[-39,12],[-11,28],[-18,9],[10,14],[-10,33],[-14,12],[5,19],[-7,20],[4,25],[-17,12],[-8,30],[-16,18],[-3,22],[-15,10],[4,24],[-34,32],[-5,-18],[-29,11],[-19,17],[-6,23],[15,19],[0,21],[-26,7],[-12,14],[15,16],[-13,38],[-17,21],[-2,17],[20,12],[-8,21],[4,30],[14,20],[-7,25],[6,15],[-43,17],[-1,31],[-20,16],[9,24],[-21,4],[-10,22],[15,17],[-1,13],[-21,26],[-17,34],[3,26],[-11,6],[9,36],[-11,7],[-6,45],[-9,6],[17,31],[-14,23],[7,24],[-6,22],[-29,16],[-30,36],[-36,35],[1,27],[-10,50],[-18,13],[-5,16],[5,26],[-9,12],[11,29],[-7,21],[14,6],[15,47],[-25,22],[3,8],[-59,-3],[-151,-2],[-20,3],[-100,32],[-50,6],[84,114],[97,135],[55,73],[84,115],[22,24],[26,19],[61,35],[140,72],[47,14],[32,1],[46,-4],[35,2],[111,27],[55,4]],[[14753,7429],[11,-55],[18,-75],[28,-137],[53,-263],[141,-693],[114,-558],[44,-211],[157,-769],[168,-823],[-4,-36],[215,-1050],[177,-867],[134,-656],[124,-605],[69,-345],[26,-195],[6,-33],[-709,-4],[-346,-2],[-958,-7],[-126,1],[-147,-1]],[[9138,11861],[41,-21],[21,-20],[36,-42],[44,-31],[20,-8],[189,-3],[37,-5],[370,-58],[49,-10],[109,-41],[32,-5],[81,2],[41,-3],[82,-13],[36,12],[59,41],[28,10],[80,0],[54,14],[115,16],[84,32],[136,42],[28,10],[39,27],[185,171],[101,66],[23,13],[160,37],[6,-36],[13,-15],[94,-41],[81,-14],[34,-10],[156,-73],[80,-24],[40,-19],[22,-24],[24,-45],[33,-48],[18,-47],[25,-38],[21,-15],[55,-26],[21,-19],[31,-51],[45,-40],[57,-56],[51,-38]],[[12325,11415],[0,-36],[-42,-89],[-24,-83],[-15,-37],[-31,-42],[-42,-39],[-44,-51],[-17,-26],[-5,-24],[-35,-223],[4,-29],[129,-391],[-2,-41],[-63,-194],[4,-34],[27,-44],[4,-26],[-14,-34],[-260,-205],[-39,-26],[-78,-45],[-97,-102],[-13,-18],[-42,-82],[-29,-92],[-15,-29],[-33,-29],[-23,-28],[-27,-44],[-25,-35],[-10,-28],[2,-42],[-14,-37],[-139,-147],[-71,-68],[-67,-71],[-17,-11],[-94,-49],[-55,-42],[-43,-45],[-63,-43],[-33,-25],[-130,-125],[-63,-39],[-52,-36],[-45,-8],[-27,1],[-28,17],[-27,26],[-88,94],[-24,8],[-55,-4],[-42,-20],[-19,-17]],[[10274,8526],[-35,-39],[-36,-24],[-293,-144],[-33,-15],[-31,1],[-70,9],[-35,17],[-288,273],[-17,28],[-14,89],[-11,19],[-24,12],[-23,3],[-35,-4],[-41,-31],[-44,-11],[-57,2],[-45,10],[-55,0],[-61,13],[-14,10],[-41,58],[-21,24],[-98,84],[-24,24],[-56,98],[-12,24],[-7,42],[-45,79],[-15,20],[-65,50],[-13,-19],[-43,6],[-28,-5],[-28,20],[-21,1],[-22,-9],[-24,-20],[-58,17],[-9,11],[-41,7],[-39,-31],[-20,0],[-7,-13],[-27,8],[-31,-20],[4,-24],[-36,-4],[-3,-12],[-34,-21],[-20,2],[-25,-16],[-26,-25],[-58,-22]],[[6868,6273],[385,-61],[51,-6],[75,2],[238,28],[145,19],[92,9],[36,-4],[230,-47],[65,-16],[30,-10],[318,-132],[37,-13],[74,-11]],[[7825,4682],[-214,205]],[[7611,4887],[-225,216],[-210,202],[-30,23],[-62,38],[-27,24],[-38,51],[-44,104]],[[6975,5545],[-8,40],[30,-2],[17,-14],[65,10],[36,10],[19,32],[17,8],[-4,45],[4,21],[15,23],[-8,21],[2,59],[11,12],[30,71],[47,43],[5,10],[-12,42],[-33,57],[-6,46],[3,52],[-14,0],[-7,36],[-31,15],[-27,-4],[-35,10],[-5,15],[-31,-20],[-25,-2],[-15,13],[-6,22],[-15,8],[-27,-21],[-22,0],[-6,24],[-34,-1],[-10,20],[-26,8],[-1,19]],[[3346,6966],[-168,-29]],[[3178,6937],[-92,-15],[-25,0],[-165,23],[-33,6],[-49,17],[-67,28],[-1081,523]],[[1666,7519],[16,62],[6,54],[-11,73],[-79,177],[-4,5]],[[1594,7890],[942,193]],[[6133,5597],[25,29],[137,147],[28,25],[224,196],[15,39],[-18,115],[5,51],[0,69]],[[6828,6273],[40,0]],[[6975,5545],[-54,1],[-49,13],[-39,6],[-15,8],[-46,72],[-33,22],[-11,22],[-21,8],[-49,1],[-26,-16],[-47,13],[-72,-11],[-33,-17],[-52,-18],[-76,-7],[-61,-22],[-61,-49],[-94,-70]],[[9561,18180],[49,-25],[46,-28],[89,-28],[1,15],[-16,31],[7,13],[22,-5],[49,-29],[47,12],[28,-6],[22,-12],[19,-22],[12,-25],[33,-29],[-38,-2],[-8,-11],[39,-35],[33,-3],[6,-19],[33,-13],[17,-27],[31,14],[22,-17],[26,-7],[3,-26],[39,14],[29,-22],[35,-11],[20,25],[28,9],[12,-49],[49,-43],[25,-3],[5,-24],[12,-17],[45,-26],[16,-16],[27,-12],[9,19],[74,-6],[1,-20],[24,-40],[16,-11],[16,8],[24,-6],[24,3],[38,-34],[23,-27],[48,-45],[71,-27],[12,-1],[39,-19],[28,-7],[18,-22],[29,-54],[15,-4],[13,-21],[17,10],[41,-2],[21,-9],[10,31],[18,6],[15,-17],[29,11],[57,-30],[26,-30],[37,-5],[26,3],[21,-21],[25,-3],[4,13],[42,22],[18,-14],[20,0],[51,19],[54,1],[39,24],[43,-1],[30,12],[32,56],[15,2],[10,-24],[28,-35],[15,-1],[45,24],[19,-2],[67,-44],[-14,-24],[17,-24],[14,22],[31,6],[13,-26],[20,-1],[7,32],[19,20],[28,0],[59,-23],[-7,-18],[-38,-9],[15,-21],[0,-52],[9,-3],[69,44],[9,-7],[-20,-77],[10,-8],[46,-17],[18,32],[-12,35],[8,16],[23,4],[37,-41],[16,-31],[32,-3],[-15,-45],[35,-40],[19,-4],[17,20],[-26,35],[26,16],[12,-6],[3,-26],[20,-3],[11,-13],[28,19],[-3,-22],[15,-24],[35,-7],[16,17],[28,5],[9,15],[-16,26],[41,-8],[12,-23],[41,-19],[63,-5],[38,4],[79,-3],[11,-17],[-13,-35],[14,-28],[39,7],[85,45],[18,22],[51,-7],[14,-20],[8,-35],[-4,-17],[-17,-11],[-28,2],[-16,-6],[2,-32],[7,-34],[26,-20],[13,-31],[30,12],[17,-22],[25,38],[27,-17],[51,-15],[23,5],[10,-7],[-14,-31],[4,-15],[23,-15],[24,-7],[24,3],[12,11],[41,-15],[7,-26],[22,13],[6,25],[18,18],[15,31],[18,11],[7,17],[-19,41],[8,14],[24,-8],[5,39],[-25,33],[1,20],[21,31],[42,49],[53,55],[32,13],[26,-9],[8,-44],[-2,-36],[11,-53],[19,-49],[23,-21],[44,-64],[15,-32],[55,-35],[24,1],[45,39],[32,1],[9,19],[27,6],[6,23],[32,-21],[4,-11],[-21,-23],[42,-13],[14,-16],[-15,-26],[12,-24],[49,-45],[20,-5],[31,8],[27,41],[38,41],[22,-2],[3,-30],[28,0],[-8,33],[13,20],[22,-3],[7,-18],[2,-31],[17,-8],[41,27],[35,-25],[-1,-35],[32,-14],[11,9],[13,30],[36,5],[4,-10],[-8,-49],[4,-11],[29,-11],[-26,-17],[-8,-16],[43,-12],[19,10],[6,25],[17,17],[24,-4],[17,-16],[-16,-48],[-32,-13],[-21,-21],[-2,-26],[28,-15],[41,12],[22,-5],[32,2],[7,-7],[8,-60],[16,-23],[33,8],[5,27],[-28,19],[12,32],[16,-4],[12,-45],[48,-50],[4,-15],[-20,-39],[0,-23],[30,-17],[39,-46],[25,-19],[12,2],[8,20],[28,27],[41,8],[2,19],[-12,22],[3,14],[28,9],[77,-44],[8,-16],[-14,-50],[-16,-14],[4,-16],[62,-50],[16,-2],[72,14],[40,-9],[26,-18],[13,-23],[11,1],[11,30],[-18,33],[8,29],[27,2],[33,14],[26,2],[81,-40],[11,0],[11,37],[31,-12],[3,-15],[-26,-17],[-3,-17],[18,-23],[44,-29],[3,-31],[18,-7],[17,35],[14,4],[17,-14],[-14,-29],[22,-42],[14,10],[6,29],[1,35],[43,5],[16,-16],[17,-40],[47,-9],[-9,27],[4,17],[17,0],[27,-38],[8,-38],[-4,-16],[-23,-27],[-4,-16],[-567,-318],[-28,-17],[-556,-313],[-320,-179],[-76,-46],[-804,-450],[62,-334],[-1,-13],[101,-455],[30,-146],[39,-200],[34,-167],[185,-928]],[[13741,12523],[-182,76],[-317,134],[-272,112],[-70,31],[-405,171],[-653,273],[-533,223],[-362,150]],[[10947,13693],[96,184],[119,217],[25,46],[3,17],[7,85],[-7,125],[20,93],[-3,56],[-5,23],[-29,51],[-8,23],[0,28],[22,85],[-3,37],[-9,12],[-64,49],[-25,14],[-34,9],[-45,-1],[-106,-31],[-69,-27],[-39,-11],[-49,-2],[-81,-1],[-17,5],[-132,78],[-73,28],[-60,9],[-69,-24],[-28,-21],[-48,-20],[-111,-31],[-41,-2],[-23,-7],[-43,-28],[-86,-34],[-71,-50],[-120,-78],[-24,-13],[-43,-17],[-55,-5],[-28,-6],[-133,-39],[-25,-5],[-78,1]],[[9355,14515],[-52,-2],[-55,-15],[-60,-2],[10,133]],[[9198,14629],[32,442],[3,70],[10,446],[0,79],[-8,69],[-10,47],[-42,171],[-5,50],[1,42],[5,46],[12,55],[47,173],[135,495],[11,38],[89,331],[30,104],[9,65],[11,280],[4,127],[11,318],[18,103]],[[3178,6937],[0,-14],[-16,-39],[3,-41],[8,-43],[-8,-149],[-6,-86],[-375,18],[-5,-137],[0,-114],[-6,-115],[1,-60],[-3,-25]],[[2214,5793],[-21,21],[-29,11],[-99,24],[-42,8],[-40,3],[-56,-6],[-89,-16],[-93,-30],[-90,-37],[-38,-7],[-17,4],[-12,14],[0,63],[8,35],[1,41],[-6,14],[-51,163],[-30,63],[-46,54],[-122,132],[-25,41],[-15,60],[0,68],[8,34],[14,40],[15,22],[51,58],[20,52],[10,43],[1,33],[-11,64],[-31,94],[-21,47],[-31,99],[0,51],[31,47],[30,15],[104,35],[59,35],[31,32],[38,57],[40,120],[6,25]],[[3551,7002],[4,-31],[-7,-43]],[[3548,6928],[-14,-84],[0,-37],[6,-42],[6,-86],[-2,-26],[-24,-74],[7,-51],[17,-28],[-9,-16],[-14,-50]],[[3548,6928],[161,-60],[16,-9],[169,-143],[275,-237],[17,-16]],[[4202,6041],[-16,-8],[-51,5],[-26,-7],[-188,-29],[-153,-44],[-106,-47],[-37,-29],[-19,-94],[-52,-116],[-46,-85]],[[4769,4172],[-18,-1],[-40,-42],[-15,-39],[-14,-20],[-152,-38]],[[4530,4032],[-3,31],[-18,39],[-65,23],[-31,17],[-21,21],[-19,52],[-17,119],[-11,30],[-34,67],[-11,71],[2,37],[18,24],[25,9],[39,-2],[55,-41],[67,-28],[46,-7],[32,10],[47,40],[30,37],[17,30],[7,34],[-1,29],[-29,60],[-20,30],[-14,11],[-35,1],[-42,-25],[-52,-36],[-72,-43],[-24,-3],[-19,15],[-6,24],[1,65],[-8,29],[-15,19],[-41,21],[-97,8],[-65,14],[-39,17],[-61,17],[-94,11],[-51,25],[-10,17],[3,30],[27,38],[39,40],[46,24],[27,5],[37,19],[35,54],[-16,40],[-21,28],[-33,23],[-42,17],[-32,4],[-40,-12],[-48,-34],[-38,-45],[-35,-17],[-36,-11],[-39,-6],[-133,-3],[-22,5],[-15,23],[1,25],[22,50],[21,72],[-5,46],[-25,31],[-25,4],[-35,-7]],[[9355,14515],[0,-31],[-32,-27],[1,-12],[19,-27],[-26,-23],[-22,2],[-21,-12],[-1,-22],[-14,-21]],[[9259,14342],[-6,-33],[-9,-14],[20,-37],[5,-22],[28,-17],[-29,-34],[-14,0],[-23,-24],[14,-36],[-48,-17],[-50,-1]],[[9147,14107],[-35,4],[-35,-9],[-144,-2],[29,17],[1,28],[13,47],[-11,19],[23,26],[10,18],[-1,41],[-9,39],[-102,-6],[-2,21],[22,4],[4,14],[22,11],[11,24],[4,37],[31,30],[10,25],[16,13],[-1,28],[11,22],[37,-4],[30,16],[21,-10],[19,19],[19,-22],[33,39],[9,24],[16,9]],[[9175,12161],[4,83],[5,225],[5,110],[10,266],[12,260],[0,42],[-4,70],[-23,169],[-3,37],[-22,400],[-5,138],[-7,146]],[[9259,14342],[90,1],[60,-11],[105,-43],[339,-142],[199,-82],[203,-85],[454,-187],[44,-20],[194,-80]],[[13741,12523],[64,-328],[107,-535]],[[13912,11660],[-40,-16],[-162,-27],[-97,-12],[-75,5],[-124,10],[-145,11],[-36,13],[-117,89],[-26,6],[-81,-14],[-37,-3],[-87,15],[-39,-10],[-54,-31],[-42,-17],[-75,-2],[-24,-5],[-78,-30],[-100,-34],[-24,-15],[-24,-33],[-24,-62],[-12,-21],[-64,-62]],[[3409,12770],[291,278],[285,276],[549,529],[42,42],[333,321],[155,149],[68,67],[25,22],[137,130],[464,435],[270,251],[371,344],[165,206],[117,148],[276,342],[375,471],[119,153],[83,99],[385,483],[47,61],[146,182],[164,202],[481,604],[11,-18],[-1,-31],[24,-12],[-2,-33],[18,-1],[43,8],[54,-4],[-3,-24],[5,-19],[19,-10],[87,10],[31,-12],[5,-34],[24,-36],[17,-8],[39,33],[11,-1],[18,-39],[24,-10],[20,6],[29,29],[8,24],[24,-3],[14,-22],[-22,-24],[48,-44],[19,-26],[18,-78],[18,-28],[50,-8],[63,-38],[22,12],[-6,24],[11,45],[22,2],[42,-15]],[[2038,9105],[66,6],[69,19]],[[2326,9173],[37,-180],[10,-35],[88,-189],[-5,-6],[-89,-10],[-34,-57],[-2,-24],[-23,-3],[-1,-14],[16,-34],[14,-18],[20,10],[2,-23],[19,-4],[-13,-20],[8,-24],[38,-72],[23,13],[-7,-39],[15,-9],[21,9],[-8,-36],[48,-42],[-2,-34],[137,-14],[0,-214]],[[1594,7890],[-34,43],[-63,105],[-10,33],[3,37],[29,26],[57,26],[43,29],[56,54],[16,21],[-18,41],[-27,17],[-89,3],[-32,9],[-48,84],[-24,50],[-70,38],[-91,42],[-35,21],[-37,48],[-26,43],[-61,74],[-53,44]],[[6549,6268],[-107,0],[-54,-2]],[[6388,6266],[-2,123],[-36,21],[-53,17],[-1,120],[65,2],[-1,47],[-11,78],[-1,31],[-20,9]],[[13912,11660],[152,-757],[3,-23],[28,-129],[10,-56],[167,-827],[139,-688],[23,-120],[62,-305],[131,-653],[38,-197],[0,-25],[14,-80],[74,-371]],[[9695,5969],[44,74],[2,38],[1,97],[-8,41],[-19,40],[-2,26],[16,37],[88,5],[142,2],[7,4],[29,45],[36,43],[52,53],[11,7],[57,19],[44,26],[62,56],[63,70],[39,39],[49,57],[6,22],[46,443],[-5,67],[-56,115],[-47,57],[-31,45],[-93,121],[-30,54],[20,16],[76,80],[8,13],[30,71],[2,48],[24,82],[21,46],[14,43],[20,47],[-2,39],[-26,87],[-12,56],[-20,38],[-26,21],[-19,108],[-11,28],[-23,31]],[[6053,6293],[26,-15],[33,-10],[33,-4],[190,1],[53,1]],[[6312,3375],[65,36],[19,7],[79,9],[34,14],[40,32],[43,40],[55,65],[18,12],[98,56],[22,17],[27,35],[65,104],[55,101],[9,13],[71,73],[31,45],[85,69],[14,9],[165,82],[36,34],[14,29],[61,175],[45,140],[2,36],[-4,83],[7,46],[20,29],[123,121]],[[7253,1995],[-27,17],[-32,13],[-92,22],[-31,-3],[-46,-10],[-76,-23],[-85,-15],[-176,-48],[-74,-7],[-96,-5],[-47,4],[-26,8],[-74,41],[-36,35],[-25,32],[-32,54],[-29,62],[-46,63],[-55,66],[-18,12]],[[6130,2313],[79,139],[25,65],[6,34],[4,48],[15,305],[12,189],[9,44],[31,118],[5,44],[-4,76]],[[3100,9059],[-59,-51],[-33,-23],[-216,-82],[-82,-110],[160,-359]],[[2106,11515],[510,492]],[[2326,9430],[-10,57],[-17,26],[-41,46],[-12,25],[-3,26],[31,103],[8,44],[-2,26],[-14,42],[-2,20],[10,34],[32,37],[16,28],[11,41],[-1,29],[-9,34],[-57,102],[-7,30],[4,48]],[[10203,13],[-821,67],[-157,10],[-161,7]],[[6130,2313],[-22,7],[-158,27],[-10,4],[-44,39],[-44,34],[-105,49],[-65,9],[-47,-1],[-284,-16],[-47,0],[-39,-5],[-41,5],[-27,10],[-153,69],[-64,14],[-78,10],[-38,0],[-42,5],[-67,-2],[-60,-17],[-91,-43],[-36,-10],[-100,-6],[-115,-3],[-85,14],[-63,20],[-27,19],[-28,31],[-113,153],[-6,19],[-2,37],[11,18],[42,21],[31,10],[30,19],[44,17],[9,28],[-9,25],[-18,25],[-24,46],[-18,65],[17,21],[39,-5],[51,-28],[38,-4],[23,14],[35,61],[25,25],[43,10],[65,-8],[24,3],[28,14],[19,24],[11,43],[12,25],[37,30],[35,10],[69,12],[34,27],[7,29],[0,27],[-9,22],[-26,39],[-10,57],[-8,124],[-2,67],[6,173],[4,32],[-6,13],[-40,13],[-14,-3],[-66,-28],[-28,-6],[-22,6],[-12,53],[24,81]]],"transform":{"scale":[0.00004079425896267121,0.00003542019929975774],"translate":[-95.20018000000002,30.489002]},"objects":{"Geometry\\48-373":{"type":"GeometryCollection","geometries":[{"arcs":[[0,1,2,3,4,5,6,7,8,9,10,11,12]],"type":"Polygon","properties":{"GEOID":"483732103021"}},{"arcs":[[13,14,15,16]],"type":"Polygon","properties":{"GEOID":"483732102031"}},{"arcs":[[17,18,19,20,21]],"type":"Polygon","properties":{"GEOID":"483732103013"}},{"arcs":[[22,-10,23,24]],"type":"Polygon","properties":{"GEOID":"483732102062"}},{"arcs":[[25,26,27,28,29]],"type":"Polygon","properties":{"GEOID":"483732102042"}},{"arcs":[[30,31,32,33]],"type":"Polygon","properties":{"GEOID":"483732103012"}},{"arcs":[[-7,34,35]],"type":"Polygon","properties":{"GEOID":"483732102032"}},{"arcs":[[36,-24,-9,37,38,39,40]],"type":"Polygon","properties":{"GEOID":"483732102063"}},{"arcs":[[41,42,43,44,45]],"type":"Polygon","properties":{"GEOID":"483732102051"}},{"arcs":[[46,47,48,-13,49,-19,50]],"type":"Polygon","properties":{"GEOID":"483732103023"}},{"arcs":[[-3,51,52,53]],"type":"Polygon","properties":{"GEOID":"483732105002"}},{"arcs":[[-53,54,55,56]],"type":"Polygon","properties":{"GEOID":"483732105001"}},{"arcs":[[-34,57,58,59]],"type":"Polygon","properties":{"GEOID":"483732103011"}},{"arcs":[[-49,60,61,62,63,-1]],"type":"Polygon","properties":{"GEOID":"483732103022"}},{"arcs":[[-15,64,-35,-6,65,-27,66]],"type":"Polygon","properties":{"GEOID":"483732102043"}},{"arcs":[[67,68,69,70,71]],"type":"Polygon","properties":{"GEOID":"483732101041"}},{"arcs":[[72,73,74,75,-72,76,77,78]],"type":"Polygon","properties":{"GEOID":"483732101053"}},{"arcs":[[79,80,-75]],"type":"Polygon","properties":{"GEOID":"483732101043"}},{"arcs":[[-77,-71,81,82,83]],"type":"Polygon","properties":{"GEOID":"483732101062"}},{"arcs":[[84,85,-68,-76,-81]],"type":"Polygon","properties":{"GEOID":"483732101042"}},{"arcs":[[-63,86,87,88]],"type":"Polygon","properties":{"GEOID":"483732105005"}},{"arcs":[[89,-79,90,91,92]],"type":"Polygon","properties":{"GEOID":"483732101052"}},{"arcs":[[-40,93,94,95,96]],"type":"Polygon","properties":{"GEOID":"483732102053"}},{"arcs":[[97,-56,98,-93,99,-28]],"type":"Polygon","properties":{"GEOID":"483732101051"}},{"arcs":[[100,101,102,103,104]],"type":"Polygon","properties":{"GEOID":"483732104013"}},{"arcs":[[-95,105,-42,106]],"type":"Polygon","properties":{"GEOID":"483732102054"}},{"arcs":[[-94,-39,107,108,-43,-106]],"type":"Polygon","properties":{"GEOID":"483732102052"}},{"arcs":[[-109,109,-17,110,-44]],"type":"Polygon","properties":{"GEOID":"483732102033"}},{"arcs":[[-111,-16,-67,-26,111,112,-45]],"type":"Polygon","properties":{"GEOID":"483732102045"}},{"arcs":[[-104,113,114,115]],"type":"Polygon","properties":{"GEOID":"483732104021"}},{"arcs":[[-62,116,-115,117,-102,118,119,-87]],"type":"Polygon","properties":{"GEOID":"483732104012"}},{"arcs":[[-103,-118,-114]],"type":"Polygon","properties":{"GEOID":"483732104011"}},{"arcs":[[120,-105,-116,-117,-61,-48]],"type":"Polygon","properties":{"GEOID":"483732104022"}},{"arcs":[[121,-21,122,-41,-97,123,-59]],"type":"Polygon","properties":{"GEOID":"483732102065"}},{"arcs":[[-4,-54,-57,124,125]],"type":"Polygon","properties":{"GEOID":"483732103025"}},{"arcs":[[-88,-120,126,-85,-80,-74,127]],"type":"Polygon","properties":{"GEOID":"483732105004"}},{"arcs":[[128,-125,-98,-66]],"type":"Polygon","properties":{"GEOID":"483732102044"}},{"arcs":[[129,-91,-78,-84,130,131]],"type":"Polygon","properties":{"GEOID":"483732101063"}},{"arcs":[[-52,-2,-64,-89,-128,-73,-90,-99,-55]],"type":"Polygon","properties":{"GEOID":"483732105003"}},{"arcs":[[-108,-38,-8,-36,-65,-14,-110]],"type":"Polygon","properties":{"GEOID":"483732102034"}},{"arcs":[[-20,-50,-12,132,-25,-37,-123]],"type":"Polygon","properties":{"GEOID":"483732102064"}},{"arcs":[[133,-51,-18,134,-32]],"type":"Polygon","properties":{"GEOID":"483732103014"}},{"arcs":[[-70,135,-82]],"type":"Polygon","properties":{"GEOID":"483732101061"}},{"arcs":[[-100,-92,-130,-29]],"type":"Polygon","properties":{"GEOID":"483732101031"}},{"arcs":[[-11,-23,-133]],"type":"Polygon","properties":{"GEOID":"483732102061"}},{"arcs":[[-135,-22,-122,-58,-33]],"type":"Polygon","properties":{"GEOID":"483732103015"}},{"arcs":[[-126,-129,-5]],"type":"Polygon","properties":{"GEOID":"483732103024"}},{"arcs":[[-112,-30,-132,136]],"type":"Polygon","properties":{"GEOID":"483732102041"}}]}}}