{"type":"Topology","arcs":[[[3791,4289],[15,22],[23,3],[-2,8],[10,24],[-12,15],[28,30],[18,-12],[22,22],[22,4],[11,-3],[23,10],[11,9],[12,-18],[24,18],[-2,17],[9,17],[-8,19],[1,23],[-5,23],[105,-78],[91,-43],[5,4]],[[4192,4403],[24,-15]],[[4216,4388],[125,-72],[30,-17],[192,-111],[31,-31],[6,1],[258,-154],[188,-113],[41,-28],[100,-59]],[[5187,3804],[-251,-234],[-20,-18],[-162,-153],[-55,-50]],[[4699,3349],[-350,-327],[-15,-13],[-50,-30],[-44,-23]],[[4240,2956],[3,25],[-13,9],[-60,-38],[-18,29],[-3,18],[6,36],[-12,23],[-18,12],[-33,36],[-9,24],[-12,3],[-17,-4],[-8,-24],[-15,-20],[-10,-2],[-13,23],[-37,7],[-33,12],[0,20],[12,20],[26,27],[-6,12],[8,20],[-8,18],[-10,9],[-9,25],[-10,8],[-14,39],[-9,7],[-15,-1],[-24,-18],[-16,2],[-9,33],[-16,17],[-29,13],[-27,3],[-29,-7],[-12,-24],[-16,-17],[-34,-15],[-24,3],[-25,-9],[-14,15],[9,33],[20,17],[19,12],[24,8],[25,-1],[8,7],[8,23],[1,15],[-29,23],[-18,29],[-1,27],[6,32],[0,17],[-19,32],[6,22],[13,12],[7,18],[0,56],[-7,13],[-3,26],[6,40],[27,10],[10,-5],[17,-25],[21,-5],[5,16],[16,20],[-5,38],[0,21],[15,62],[2,21],[-4,13],[-23,1],[-29,-14],[-43,-16],[-21,-3],[-15,11],[0,27],[-19,19],[-7,13],[-1,26],[9,10],[57,34],[6,18],[-8,9],[-15,3],[-16,21],[10,10],[47,4],[14,25],[-12,12],[-15,1],[-19,-19],[-28,3],[-14,21],[-1,8],[9,31],[8,4],[22,-11],[49,-20],[16,9],[12,58],[13,28],[-2,14]],[[4216,4388],[213,204],[76,71],[16,0],[59,-34],[16,-3],[26,9],[144,60],[248,104],[121,77],[19,0],[8,-9],[52,-100],[171,110],[245,155],[11,10],[29,36],[30,24],[207,131],[232,145],[64,37]],[[6203,5415],[2,-19],[-5,-15],[-21,-17],[0,-28],[25,-45],[8,-38],[-14,-32],[-1,-14],[13,-22],[8,-22],[9,-6],[29,-8],[8,-9],[28,-6],[31,15],[26,19],[45,-4],[30,-14],[5,-35],[8,-37],[4,-28],[41,-23],[19,-18],[-7,-8],[-3,-18],[3,-27],[8,-10],[32,-12],[16,-3],[22,3],[18,-19],[5,-22],[-4,-42],[9,-40],[8,-15],[18,-46],[14,-23],[-2,-29],[-10,-40],[-7,-7],[-21,-42],[-22,-24],[-23,-33],[-15,-28],[-3,-14],[-1,-46],[9,-20],[-9,-29],[-19,-22],[-5,-21],[-34,-57],[-32,-21],[-25,-43],[-1,-14],[7,-26],[-1,-27],[37,-29],[12,-21],[7,-30],[12,-24],[13,-18],[42,-39],[19,-32],[5,-13],[27,-22],[13,-17],[6,-30],[-4,-14],[5,-30],[13,-20],[24,-14],[39,-6],[44,-27],[26,-29],[8,-2],[27,-44],[-2,-17],[25,-25],[49,-8],[10,2],[34,-10],[23,-1],[33,-11],[4,-9],[-10,-20],[-1,-13],[30,-74],[-4,-21],[-17,-52],[-4,-21],[-21,-39],[-5,-15]],[[6945,3389],[-154,-143],[-524,-480],[-69,-63]],[[6198,2703],[-35,72],[-150,294],[-182,357],[-25,23],[-51,30],[-85,46],[-82,48],[-168,96],[-31,16],[-64,38],[-31,20],[-59,21],[-48,40]],[[2617,7156],[92,-346],[-25,-8],[24,-90],[16,-22]],[[2724,6690],[-36,-33],[-25,-21],[-39,-15],[-98,-14],[-39,-15],[-22,-18],[-37,-35]],[[2428,6539],[-44,43],[-352,328],[-36,28],[-67,42]],[[1929,6980],[12,9],[119,37],[29,17],[25,0],[133,42],[21,0],[28,-20],[14,1],[175,54],[35,5],[97,31]],[[2661,7490],[39,10],[29,-6],[39,-13],[13,58],[122,-32]],[[2903,7507],[-10,-46],[1,-6],[342,-89],[5,4],[35,154],[20,-2],[124,-35]],[[3420,7487],[-75,-320],[-13,-37],[-22,-31],[-21,-19],[-30,-17],[-232,-95],[-35,-24],[-103,-96],[-165,-158]],[[2617,7156],[41,14],[13,10],[-28,34],[-21,86],[81,25],[-42,165]],[[1810,7057],[106,163],[184,282],[13,21],[135,205],[34,53]],[[2282,7781],[11,-41],[129,40],[7,-4],[9,-34],[25,3],[9,-46],[-25,-39],[1,-15],[16,-30],[55,-43],[6,-8],[28,-107],[108,33]],[[1929,6980],[-119,77]],[[2903,7507],[42,176],[0,11],[-11,25],[1,10],[33,131],[16,65],[29,132]],[[3013,8057],[231,-68],[110,-29],[196,-53]],[[3550,7907],[-34,-33],[-12,-23],[-26,-123],[-46,-191]],[[3432,7537],[-12,-50]],[[2547,8187],[25,-8],[116,-33],[63,-17],[165,-46],[97,-26]],[[2282,7781],[17,24],[78,122],[87,131],[83,129]],[[1976,5827],[2,8],[59,111],[56,110],[95,187],[17,41],[21,30],[18,13],[19,26],[14,31],[24,34],[127,121]],[[2428,6539],[166,-167],[51,-53],[266,-269]],[[2911,6050],[107,-109],[24,-30],[82,-132],[18,-36],[28,-78],[20,-40],[50,-60]],[[3240,5565],[-46,-44]],[[3194,5521],[-16,25],[-5,-20],[-21,-38],[-19,-26],[-33,-31],[-19,-29],[-12,-41],[-23,-65],[-46,-82],[-102,-176],[50,-68],[37,-66],[41,-51],[16,-18],[69,-42],[6,-5]],[[3117,4788],[-14,-7],[-99,-165],[-26,-42],[-13,-6],[-39,-2],[-215,-7],[-113,-6],[-77,-8],[-27,-1],[-59,8],[-49,-4],[-128,-27],[-60,-24],[-40,-14],[-75,-17],[-52,-7],[-50,-1],[-17,-6],[-34,-32],[-13,-7],[-53,-2],[-126,-4],[-13,-3],[-14,-12],[-47,-89],[-16,-15],[-29,3],[-58,37],[-19,6],[-55,-1],[-99,-7],[-94,-3],[-44,8]],[[1250,4331],[-12,43],[-6,61],[4,28],[147,279],[7,3],[82,-50],[11,3],[92,182],[44,84],[63,-41],[54,107],[48,96],[10,25],[7,33],[60,120],[105,201],[46,90],[90,174],[6,13],[-55,24],[-77,21]],[[3556,7910],[29,21],[22,30],[11,45],[84,369],[13,28],[23,20],[76,46],[165,97],[87,51],[12,10],[15,25],[7,25]],[[4100,8677],[80,-157],[2,-29],[26,-49],[10,-26],[-177,-114],[-12,-10],[13,-29],[-35,-23],[-29,7],[-15,-17],[4,-18],[-32,-46],[3,-30],[10,-4],[11,-32],[-1,-46],[-16,-20],[-5,-32]],[[3937,8002],[1,-11],[-15,-39],[-29,-48],[-18,-42],[-12,-30],[-32,-28]],[[3832,7804],[-84,21],[-22,9],[-51,38],[-10,5],[-105,30],[-4,3]],[[3048,8946],[43,-4],[63,0],[398,6],[156,4],[137,-5],[168,-8],[281,-15],[37,-11],[58,-23]],[[4389,8890],[-145,-88],[-28,-16],[-83,-52],[-12,-10],[-15,-25],[-6,-22]],[[3556,7910],[-6,-3]],[[2547,8187],[122,184],[119,183],[9,11],[147,225],[104,156]],[[3432,7537],[15,-34],[20,-12],[33,0],[17,-64],[16,-10],[36,-32],[3,-25],[21,-48],[21,-22],[19,-15],[21,-7],[29,-17],[35,-2],[16,-6],[12,-12],[51,15],[15,-5],[20,-33],[5,-25],[3,-45]],[[3840,7138],[0,-23],[12,-11],[-1,-35],[-12,-6],[-6,-18],[-39,-41],[-7,-16],[-10,-6],[-9,-18],[-4,-25],[-17,-31],[-13,-2],[-18,-14],[-2,-9],[6,-33],[20,-57],[-2,-22],[-19,-17],[-21,-2],[-15,4],[-16,-7],[-10,-42],[-14,-29],[-19,-31],[-33,-9],[-21,0],[-15,11],[-26,-18],[-28,-3],[-10,-29],[-5,-27],[-28,-16],[-20,-26],[-4,-20],[-19,-36],[-15,-11],[-3,-27],[-19,-38],[-18,-10],[-18,-26],[-14,19],[-26,-4],[-19,-9],[-28,-7],[-21,-16],[-47,-50],[-9,-18],[-19,-17],[-21,-33],[-19,-21],[-13,-5],[-13,-21],[-29,-26],[-45,-2],[-8,-5],[-23,-28],[-31,-29],[-14,-7],[-32,-33]],[[5099,9345],[-10,-78],[-7,-82],[-25,-132],[-4,-27],[-20,-35],[-19,-13],[-11,0],[-11,-10],[-16,-4],[-5,-21],[-1,-24],[-5,-18],[8,-28],[0,-10],[32,-25],[4,-17],[-8,-4],[-17,7],[-180,-109],[-35,2],[-38,-23],[5,-9],[-145,-87]],[[4591,8598],[-95,209],[-8,15],[-23,27],[-19,15],[-25,13],[-32,13]],[[3048,8946],[107,164],[105,158],[59,98],[96,150],[70,103],[4,8],[115,174],[23,33],[86,135],[102,151],[1,0],[106,161],[74,109],[68,104],[39,21],[29,-23],[-25,-26],[-14,-5],[9,-17],[15,-15],[14,-32],[15,-9],[1,-24],[-4,-15],[-27,-1],[-21,-7],[-12,-11],[-10,-37],[3,-14],[13,-16],[19,-6],[10,-14],[4,-15],[-6,-16],[14,-32],[0,-14],[13,-4],[10,-12],[3,-24],[7,-24],[4,-27],[-9,-26],[-16,-22],[-22,-5],[-4,-18],[27,-44],[16,-2],[15,10],[17,-6],[8,-23],[-12,-38],[-11,-43],[-8,-26],[22,-5],[10,-12],[5,-17],[-2,-29],[13,-15],[-9,-24],[-4,-31],[-6,-8],[-21,16],[-12,-11],[14,-17],[15,-9],[9,-16],[23,-21],[-3,-33],[10,-21],[-3,-21],[19,-11],[25,-35],[21,-6],[7,-40],[22,-30],[6,-15],[-4,-25],[-11,-26],[-31,-40],[18,-27],[27,-9],[1,-25],[16,-16],[2,-9],[50,-60],[-9,-34],[19,-23],[17,-14],[12,-23],[16,8],[168,107],[6,2],[87,61],[120,71],[20,11],[246,-5]],[[3937,8002],[59,27],[68,54],[65,-123],[6,0],[30,19],[-3,18],[19,69],[10,7],[28,34],[21,21],[30,18],[9,-20],[65,42],[141,88],[203,129]],[[4688,8385],[217,-482],[35,-76]],[[4940,7827],[5,-20],[-6,-10],[-211,-130],[-122,-77],[-143,-90]],[[4463,7500],[-87,166],[-9,6],[-262,64],[-117,30],[-156,38]],[[4707,6954],[50,32],[171,-331],[85,-173],[83,-172]],[[5096,6310],[-346,-337],[-136,-134],[-104,-100],[-310,-303],[57,-72],[3,-15],[31,-56],[-121,-120],[-39,-37],[-162,-158],[4,-13],[-122,-121]],[[3851,4844],[-122,148],[-74,77]],[[3655,5069],[288,280],[11,17],[-61,77],[5,13],[69,68],[127,123],[5,21],[25,72],[29,42],[68,70],[52,58],[-7,14],[-1,23],[6,19],[9,12],[72,70],[11,15],[63,147],[25,51],[39,89],[47,85],[13,64],[2,45],[9,33],[24,34],[14,28],[29,80],[30,43],[12,22],[10,37],[20,60],[-3,13],[-17,35],[6,11],[21,14]],[[4463,7500],[-28,-18],[-2,-11],[21,-41]],[[4454,7430],[-72,-47],[-38,-22],[-90,-58],[-80,-49],[-20,-14],[-5,-15],[-64,-25],[-27,-16],[-11,3],[-41,-27],[-64,12],[-17,12],[-13,-14],[-9,-21],[-20,8],[-36,-12],[-7,-7]],[[4591,8598],[97,-213]],[[4454,7430],[95,-179],[92,-176],[66,-121]],[[3655,5069],[-79,82],[-164,202],[-172,212]],[[3194,5521],[126,-193],[56,-124],[31,-41],[75,-53],[94,-117],[95,-140],[93,-113]],[[3764,4740],[-79,-81],[-19,23],[-7,-15],[-1,-33],[-4,-34],[-9,-17],[-8,-31],[4,-36],[1,-37],[-10,-23],[-17,-15],[-30,-4],[-60,52],[-15,15],[-10,3],[-19,-4],[-19,-28],[-2,-15],[12,-27],[2,-14],[-5,-12]],[[3469,4407],[-21,-7],[-2,-22],[-18,-38],[-8,-6],[-17,6],[-11,12],[-26,23],[-13,25],[1,21],[11,10],[15,-6],[8,9],[0,19],[-18,24],[-4,31],[10,19],[48,45],[20,21],[14,1],[19,-8],[32,1],[11,11],[2,18],[-12,15],[-46,17],[-9,16],[-40,-15],[-60,-6],[-11,-4],[-18,-18],[-16,0],[-87,63],[-36,35],[-19,26],[-51,43]],[[5099,9345],[207,-4],[151,-5],[511,2],[369,-3],[58,-2],[216,0],[177,-5]],[[6788,9328],[-15,-174]],[[6773,9154],[-66,40],[-6,-1],[-117,-76],[-81,-51],[-25,-7],[-21,5],[-19,0],[-14,-7],[-8,16],[-2,20],[5,32],[-6,26],[-27,49],[-9,9],[-24,8],[-25,-6],[-136,-89],[-10,-6],[-21,8],[-46,84],[-10,12],[-20,-2],[-114,-75],[-10,-15],[1,-10],[15,-28],[-18,-12],[6,-10],[-4,-40],[-26,-38],[-28,-32],[-8,-16],[-31,-49],[-14,-41],[-21,-33],[-8,-25],[-2,-18],[6,-22],[-4,-13],[-20,-27],[-25,-24],[-38,-29],[-3,-32],[-14,-21],[-13,-29],[-27,-4],[-12,-19],[0,-19],[-14,-32],[-3,-15],[-18,-27],[-10,-6],[-22,-31],[-15,3],[-10,-7],[-16,-34],[2,-6],[-30,-14],[-14,-14],[-15,-25],[-28,-20],[-15,-2],[-9,-13],[-17,-13],[-10,-14],[-13,-3],[-12,-12],[-24,-11],[-12,-11],[-11,-32],[-15,-21],[-56,-38],[-31,-29],[26,-134],[8,-26],[99,-211],[2,-35],[-64,-232],[-15,27],[-12,-13],[-33,-26],[-22,16],[-4,15],[10,19],[6,33],[13,16],[-1,13],[-17,21],[-20,-1],[-37,-63],[1,-9],[-17,-15],[-8,13],[-13,4],[-18,-18],[-21,30],[-88,122],[-31,49],[-30,64],[-29,58]],[[6773,9154],[-34,-406],[-6,-66],[-33,-395],[-19,10],[-11,-3],[-74,-144],[58,-110]],[[6654,8040],[-73,-45],[-35,-23],[-114,-72],[-264,-168],[-108,-68],[109,-204],[-20,4],[-20,-12],[-7,-10],[1,-51],[-25,-16],[-5,-33],[-13,-7],[-30,-27],[-16,-8],[-18,-3],[-26,-10],[-17,-20],[1,-34],[-8,-15],[-4,-21],[-35,-31],[-31,-19],[-12,-3],[-15,8],[-25,1],[-18,-47],[-11,-18],[-14,-6],[-34,-6],[-6,-17],[-16,-28],[-21,-17],[5,-17],[16,-7],[28,5],[-6,-21],[21,-11],[10,-23],[-3,-19],[-32,-26],[-9,-20],[22,-22]],[[5776,6853],[-34,-15],[-152,-77],[-52,-27],[-30,-22],[-199,-193],[-213,-209]],[[3764,4740],[16,-19],[-16,-16],[50,-62],[33,-22],[29,33],[13,32],[4,19],[0,60],[7,18]],[[3900,4783],[82,-98],[113,-164],[57,-81],[18,-20],[22,-17]],[[3791,4289],[-6,27],[-8,17],[-13,13],[-12,3],[-17,-6],[-13,-20],[-7,-42],[4,-21],[-27,-21],[-17,-2],[-7,32],[16,15],[4,12],[-10,36],[-20,10],[-15,-2],[-12,-10],[0,-31],[-12,-32],[-16,-13],[-7,11],[-13,43],[-15,13],[-16,-8],[-3,-28],[7,-13],[17,10],[-3,-39],[-11,-15],[-8,-1],[-20,14],[-22,42],[-7,24],[0,31],[4,20],[-23,43],[-14,6]],[[4240,2956],[-71,-37],[-133,-90],[-131,-86],[-13,-8],[-24,5],[-23,21],[-24,1],[-290,-166],[-50,-30],[-305,-198],[-74,-48],[-144,-95],[-176,-114],[-119,-78],[-237,-155],[-195,-129],[-9,3],[0,61],[-8,1],[-160,-1],[-14,-5],[-67,-61]],[[1973,1747],[-357,470],[-51,74],[-346,460],[-97,131],[-215,282],[-106,142],[-33,43],[-137,181],[-100,134],[-49,63],[-120,158],[-83,110],[-122,162],[-92,120]],[[65,4277],[28,-4],[44,6],[27,-2],[87,-33],[31,-4],[72,4],[23,7],[19,20],[22,63],[18,24],[11,7],[28,3],[53,-19],[18,-5],[25,0],[117,23],[118,34],[33,5],[78,-2],[148,-1],[42,-10],[126,-57],[17,-5]],[[6654,8040],[29,-53],[61,-120],[51,-96],[56,-110],[141,-268],[44,-87],[89,-166],[18,-35],[46,-83],[39,-75],[-111,-71],[-173,-111],[-152,-96],[66,-41],[212,-135]],[[7070,6493],[-53,-13],[-50,-3],[-162,-4],[6,-64],[34,-364],[-8,-6],[-142,-90],[-19,-18],[-9,-17],[-33,-93],[-12,-22],[-14,-12],[-208,-132],[-20,-18],[-10,-19],[-32,-88],[-22,-32],[-70,-58],[-43,-25]],[[6203,5415],[5,84],[32,74],[4,20],[-32,22],[-3,28],[8,47],[10,34],[6,45],[-3,31],[9,15],[0,14],[-11,23],[-2,25],[-15,16],[-19,11],[-13,12],[-30,-1],[-23,22],[-3,28],[-7,16],[15,29],[-3,14],[-38,15],[-9,-10],[-18,13],[1,29],[-31,99],[6,23],[-4,14],[-23,16],[-16,35],[-17,27],[1,32],[9,10],[-6,67],[-8,7],[-3,24],[15,26],[-14,15],[-21,0],[-17,-9],[-11,15],[-22,48],[-10,52],[3,24],[-24,40],[0,19],[5,21],[15,30],[-10,38],[-46,4],[-17,-3],[-9,16],[-6,25],[3,45],[-14,20],[-16,2]],[[1160,6091],[312,467],[203,305],[40,55],[95,139]],[[1976,5827],[-25,4],[-66,4],[-63,14],[-55,2],[-89,11],[-29,8],[-20,10],[-24,30],[-37,32],[-9,14],[-5,21],[-9,59],[-10,26],[-14,13],[-65,37],[-35,6],[-42,-6],[-40,5],[-43,11],[-21,-4],[-60,-24],[-55,-9]],[[6788,9328],[90,-1],[266,-5],[407,-11],[113,-3],[62,0],[103,-2],[174,-3],[243,-2],[282,-4],[-82,-132],[-92,-151],[-93,-150],[-10,-16],[397,-498],[87,-106],[159,-200],[106,-133],[236,-296],[278,-361],[35,-47]],[[9549,7207],[-451,-129],[-447,-130],[-72,-25],[-101,-28],[-35,-7],[-284,-81],[-359,-104],[-604,-174],[-126,-36]],[[4699,3349],[25,-46],[16,-92],[7,-62],[3,-13],[41,-112],[49,-77],[25,-29],[21,-21],[24,-31],[39,-241],[16,-28],[279,-368],[184,168],[147,-269]],[[5575,2128],[-169,-155],[-111,-103],[-102,-93],[-81,-75],[-83,-75],[-29,-29],[-88,-80],[-81,-72],[-445,-423],[-143,-146],[-235,-207],[-123,-111],[-499,-443],[-132,-116],[-325,434],[-38,53],[-298,399],[-231,309],[-31,35],[-37,49],[-231,348],[-90,120]],[[3851,4844],[49,-61]],[[65,4277],[-65,87],[147,203],[184,279],[215,327],[424,635],[73,108],[117,175]],[[9549,7207],[18,-23],[4,-11],[33,-37],[36,-45],[132,-173],[7,-9],[105,-129],[328,-398],[-37,-35],[-263,-242],[-28,-23],[-344,-316],[-195,-180],[-34,-30],[-139,-127],[-248,-228],[-64,-58],[-175,-160],[-452,-416],[-8,-5],[-551,-507],[-87,-79],[-248,-226],[-310,-287],[-84,-74]],[[6198,2703],[-82,-75],[-193,-178],[-245,-226],[-103,-96]]],"transform":{"scale":[0.00006647992557775188,0.00005318326200665733],"translate":[-98.407336,28.882332999999996]},"objects":{"Geometry\\48-493":{"type":"GeometryCollection","geometries":[{"arcs":[[0,1,2,3,4,5]],"type":"Polygon","properties":{"GEOID":"484930006004"}},{"arcs":[[6,7,8,9,-3]],"type":"Polygon","properties":{"GEOID":"484930006002"}},{"arcs":[[10,11,12,13]],"type":"Polygon","properties":{"GEOID":"484930004062"}},{"arcs":[[14,15,16,-11,17]],"type":"Polygon","properties":{"GEOID":"484930004063"}},{"arcs":[[18,19,-18,-14,20]],"type":"Polygon","properties":{"GEOID":"484930004061"}},{"arcs":[[21,22,23,24,-16]],"type":"Polygon","properties":{"GEOID":"484930004051"}},{"arcs":[[25,-22,-15,-20,26]],"type":"Polygon","properties":{"GEOID":"484930004052"}},{"arcs":[[27,28,29,30,31,32,33]],"type":"Polygon","properties":{"GEOID":"484930002021"}},{"arcs":[[34,35,36,37]],"type":"Polygon","properties":{"GEOID":"484930001043"}},{"arcs":[[38,39,-35,40,-23,-26,41]],"type":"Polygon","properties":{"GEOID":"484930001032"}},{"arcs":[[-12,-17,-25,42,43,-29]],"type":"Polygon","properties":{"GEOID":"484930004042"}},{"arcs":[[44,45,-39,46]],"type":"Polygon","properties":{"GEOID":"484930001031"}},{"arcs":[[47,48,49,50,-37]],"type":"Polygon","properties":{"GEOID":"484930001041"}},{"arcs":[[51,52,53,54]],"type":"Polygon","properties":{"GEOID":"484930004022"}},{"arcs":[[-24,-41,-38,-51,55,56,-43]],"type":"Polygon","properties":{"GEOID":"484930004043"}},{"arcs":[[-40,-46,57,-48,-36]],"type":"Polygon","properties":{"GEOID":"484930001042"}},{"arcs":[[-57,58,-55,59,-30,-44]],"type":"Polygon","properties":{"GEOID":"484930004041"}},{"arcs":[[60,61,62,-32]],"type":"Polygon","properties":{"GEOID":"484930003001"}},{"arcs":[[63,64,65,-49,-58,-45]],"type":"Polygon","properties":{"GEOID":"484930001022"}},{"arcs":[[-50,-66,66,67,68,-52,-59,-56]],"type":"Polygon","properties":{"GEOID":"484930001021"}},{"arcs":[[69,70,-1,71,-62]],"type":"Polygon","properties":{"GEOID":"484930003002"}},{"arcs":[[-33,-63,-72,-6,72,73,74]],"type":"Polygon","properties":{"GEOID":"484930002022"}},{"arcs":[[75,76,77,-68]],"type":"Polygon","properties":{"GEOID":"484930005003"}},{"arcs":[[78,-21,-13,-28,79]],"type":"Polygon","properties":{"GEOID":"484930002012"}},{"arcs":[[-65,80,81,-76,-67]],"type":"Polygon","properties":{"GEOID":"484930005001"}},{"arcs":[[-5,82,83,-73]],"type":"Polygon","properties":{"GEOID":"484930006001"}},{"arcs":[[-60,-54,84,-70,-61,-31]],"type":"Polygon","properties":{"GEOID":"484930003003"}},{"arcs":[[-69,-78,-7,-2,-71,-85,-53]],"type":"Polygon","properties":{"GEOID":"484930004021"}},{"arcs":[[-80,-34,-75,85]],"type":"Polygon","properties":{"GEOID":"484930002011"}},{"arcs":[[-77,-82,86,-8]],"type":"Polygon","properties":{"GEOID":"484930005002"}},{"arcs":[[-4,-10,87,-83]],"type":"Polygon","properties":{"GEOID":"484930006003"}}]}}}