{"type":"Topology","arcs":[[[6298,7969],[11,-9],[-6,-29],[9,-11],[-8,-32],[21,-1],[30,17],[15,20],[10,30],[80,2],[7,-9],[46,0],[27,11]],[[6540,7958],[6,-180],[-12,-68],[-50,-150],[-22,-53],[-21,-118],[3,-63],[-14,-10],[16,-29],[0,-36],[6,-72],[-3,-14],[-21,-15],[3,-64],[8,-40],[7,-72],[-10,-41],[0,-38],[17,-26],[11,-41],[27,-27],[9,-46],[-11,-29],[-35,-35],[-1,-23],[-21,-15]],[[6432,6653],[-50,-3],[-44,22],[-24,6],[-118,-19],[-40,6],[-202,98],[-24,3],[-45,-36],[-107,-107],[-35,-14],[-98,-7],[-24,6],[-63,35],[-31,29],[-46,72],[14,90],[17,51],[93,179],[10,30],[6,67],[13,44],[34,17],[120,-9],[18,7],[17,25],[9,33],[-1,136],[14,52],[83,134],[36,25],[60,20],[25,24],[10,28],[31,145],[25,46],[21,12],[52,7],[81,18],[16,6],[13,38]],[[7243,6540],[174,-227],[92,-286],[22,-91],[51,-321],[0,-20]],[[7582,5595],[4,-105],[8,-73],[-27,-37],[-8,-34],[0,-87]],[[7559,5259],[-147,-1],[0,-66],[-115,1],[0,-129],[-17,-1],[0,-51]],[[7280,5012],[0,-38],[-34,-23]],[[7246,4951],[-28,-2],[-25,17],[-31,47],[-21,42],[-12,59],[-16,132],[-30,112],[-23,27]],[[7060,5385],[-10,35],[-34,30],[-22,4],[-28,16],[-17,1],[-27,55],[-18,30],[-59,74],[-25,19],[8,38],[-5,29],[23,62],[26,93],[28,48],[11,54],[25,49],[28,35],[29,52],[8,37],[15,35],[22,11],[15,-5],[57,83],[20,-7],[0,51],[10,7],[1,40],[12,15],[19,-6],[13,21],[4,30],[23,46],[0,27],[13,11],[18,35]],[[6898,5181],[7,17],[67,0],[12,-5],[-48,119],[-2,72],[126,1]],[[7246,4951],[0,-142]],[[7246,4809],[1,-105]],[[7247,4704],[-1,-260],[-10,-92],[-12,-52]],[[7224,4300],[-36,18],[-41,44],[-38,19],[-17,27],[-11,37],[-23,42],[-23,29],[-25,65],[24,0],[25,45],[4,26],[-12,35],[-18,15],[-14,29],[0,29],[-12,51],[-26,59],[-8,37],[-18,17],[9,37],[-14,29],[-1,26],[-17,21],[-18,7],[9,53],[13,35],[-14,37],[-24,12]],[[7246,4809],[97,0],[0,-51],[125,0]],[[7468,4758],[30,-4],[21,-11],[27,-26],[17,-29],[20,26],[41,32],[29,10],[24,-1],[118,-25]],[[7795,4730],[26,-7],[9,-35],[14,-33],[9,-37],[-9,-45],[8,-11],[-8,-27],[7,-38],[-17,-21],[-9,-26],[5,-40],[-8,-27],[-14,-1],[-24,-24],[-6,-50],[14,-25],[-2,-32],[-19,-38],[-18,-12],[-27,-60],[-64,-35],[-13,-14]],[[7649,4092],[-7,43],[-9,126],[-9,32],[-26,30],[-31,1],[-17,27],[-48,97],[-19,91],[-15,8],[0,53],[-31,0],[0,52],[-94,0],[0,52],[-96,0]],[[7795,4730],[-1,609]],[[7794,5339],[33,29],[8,40],[21,23],[47,17],[19,17],[100,99],[59,53],[46,47],[173,170],[65,-162],[55,-132],[21,-39],[124,-291],[69,-156],[16,-15],[69,-47],[307,-204],[283,-176],[464,-297],[180,-117]],[[9953,4198],[-15,-77],[-35,-75],[-11,-59],[-26,-158],[-4,-156],[-6,-36],[-36,-145],[-7,-54],[-16,-47],[-17,-21],[-45,-47],[-46,-15],[-14,-23],[-15,-49],[-11,-57],[-18,-53],[-33,-87],[-12,-19],[-35,-26],[-135,-42],[-25,-14],[-35,-42],[-19,-46],[-46,-134],[20,-11],[-8,-18],[-29,3],[-17,-28],[-76,-1],[-57,-79],[1,-27],[-31,-64],[-18,-2],[3,-30],[-30,-24],[-20,7],[4,29],[-20,34],[6,38],[-7,24],[-26,-13],[7,-34],[-16,-126],[-13,9],[8,24],[-12,41],[-25,12],[-28,-29],[-6,-19],[-105,60],[-44,27],[-184,102],[-154,87],[-13,27],[-40,30],[-14,18],[-573,898],[-30,57],[-34,87],[-19,66],[-42,201]],[[7280,5012],[159,2],[-7,-38],[1,-124],[11,-8],[24,12],[0,-48]],[[7468,4808],[0,-50]],[[7468,4808],[56,1],[22,5],[12,17],[14,70],[5,117],[-18,75],[0,166]],[[7582,5595],[213,0],[-1,-256]],[[6432,6653],[24,-22],[35,-1],[20,13],[-1,20],[32,15],[1,-33],[262,4],[5,-14],[48,12],[8,-39],[-14,-40],[-3,-58],[-10,-27],[-15,-86],[-18,-45],[11,-24],[26,5],[51,31],[19,5],[17,18],[30,20],[39,50],[37,55],[67,127],[15,56],[49,-55],[44,-76],[6,10],[26,-34]],[[6898,5181],[-12,16],[0,40],[-12,26],[-27,-26],[-9,10],[2,36],[-35,72],[-11,50],[-15,14],[-71,-19],[-28,8],[-32,33],[-32,58],[4,25],[-7,34],[-20,34],[-12,9],[4,60],[-12,4],[6,31],[-17,29],[-9,43],[-9,14],[-44,10],[-39,68],[-1,74],[9,28],[31,26],[-25,125],[-8,52],[-29,24],[11,50],[-2,67],[-7,65],[-5,90],[-3,192]],[[7764,12434],[449,-7],[209,-5],[899,1],[499,1],[435,1],[156,-1],[345,-4],[279,-3],[180,-8],[587,-11],[312,-4],[0,-177],[313,-2],[449,1],[615,1],[518,1],[706,5],[198,-5],[131,0]],[[15044,12218],[1,-67],[4,-50],[8,-42],[-13,-59],[-18,-21],[-26,-17],[-19,-2],[-18,15],[-26,38],[-22,43],[-36,36],[-31,1],[-48,-40],[-73,-39],[-70,-1],[-36,-17],[-30,-7],[-11,9],[-29,93],[-10,22],[-26,33],[-34,8],[-73,-13],[-36,-39],[-12,-37],[8,-43],[-12,-24],[-13,3],[-20,-17],[-10,-50],[-34,-58],[-34,-49],[-19,-42],[-47,-181],[-8,-50],[-18,-45],[-30,-48],[-45,-14],[-66,10],[-25,1],[-62,21],[-26,26],[-28,7],[-51,-8],[-32,-24],[-33,-66],[-12,-43],[4,-30],[-7,-15],[-24,-14],[-16,-18],[-9,-32],[-23,-10],[-21,8],[-24,19],[-21,2],[-32,-21],[-8,-15],[-22,-68],[-60,-17],[-63,49],[-13,-4],[-43,-28],[-18,3],[-16,25],[-19,11],[-49,5],[-40,-29],[-29,-33],[-12,-51],[-38,-54],[-26,-14],[-16,10],[-28,5],[-19,17],[-46,13],[-47,31],[-42,11],[-61,-4],[-28,-7],[-27,17],[-17,-8],[-17,-20],[-22,-5],[-35,26],[-24,4],[-58,-12],[-59,-6],[-54,9],[-104,12],[-36,-17],[-51,0],[-77,-26],[-67,-62],[-13,-16],[-16,-37],[-35,-131],[-38,-122],[-20,-51],[-42,-57],[-29,-26],[-2,-56],[-13,-63],[-23,-64],[-8,-7],[-32,-2],[-21,-14],[-31,-38],[-15,-11],[-24,-3],[-39,9],[-20,-11],[-45,-6],[-64,-77],[-97,-171],[-70,-62],[-31,-47],[-27,-21],[-47,-71],[-20,-8],[-20,-22],[-51,-23],[-87,7],[-21,9],[-151,42],[-50,28],[-27,6],[-24,-17],[-11,-22],[-6,-64],[-3,-56],[-30,-51],[-17,-103],[-31,-38],[-78,-50],[-87,-183],[-8,-45],[9,-105],[-10,-77],[-15,-52],[3,-47],[-15,-66],[4,-36],[-7,-125],[-7,-56],[-4,-52],[-24,-87],[3,-41],[-25,-65],[-17,-28],[-3,-43],[10,-28],[-6,-29],[-24,-31],[-12,-40],[-8,-61],[-17,-29],[-4,-26],[-16,-40],[-34,-41],[-28,-24],[-15,-31],[-11,-58],[-23,-19],[-4,-28],[4,-50],[-14,-115],[1,-167],[-2,-39],[-20,-94],[-19,-52],[-70,-144],[-14,-33],[-12,-55],[0,-100],[16,-488],[7,-160],[9,-100],[-1,-47],[-8,-89],[-7,-118],[5,-58],[-2,-83],[-8,-128],[-6,-60],[-12,-135],[1,-58],[10,-133],[-10,-53],[-35,-79],[-24,-46],[-22,-70],[-13,-96]],[[10109,5068],[-42,-92],[-18,-52],[-14,-75],[-3,-38],[0,-95],[4,-38],[13,-51],[4,-35],[-5,-34],[-36,-107],[-25,-98],[-34,-155]],[[6540,7958],[76,2],[1,110],[-42,20],[-22,20],[-50,14],[-40,16],[-17,24],[-4,18],[-31,11],[-16,18],[-22,8],[-10,21],[-11,98],[4,113],[-9,38],[-20,37],[-26,70],[-7,47],[4,29],[-19,0]],[[6279,8672],[29,115],[1,57],[-15,67],[-4,39],[12,52],[44,113],[6,52],[-11,42],[-21,45],[-5,45],[6,47],[10,12],[38,14],[8,-5],[24,-56],[27,-12],[11,9],[24,54],[48,38],[26,52],[48,56],[13,22],[10,48],[58,115],[70,78],[21,30],[22,45],[24,68],[35,31],[24,47],[9,53],[30,49],[11,47],[18,26],[24,11],[21,36],[29,92],[17,43],[34,60],[35,42],[37,23],[28,26],[33,62],[36,36],[58,141],[38,68],[28,31],[11,62],[39,85],[25,69],[17,34],[16,19],[30,15],[50,13],[8,38],[-22,43],[3,48],[16,53],[5,52],[32,90],[2,40],[-22,53],[0,43],[24,22],[35,13],[45,57],[38,2],[9,20],[-10,68],[-11,103],[3,43],[6,32],[79,270],[8,40],[-2,62],[-18,107]],[[6298,7969],[1,54],[-27,75],[-28,166],[-7,97],[-7,249],[2,64],[47,-2]],[[7224,4300],[-30,-125],[-12,-55],[-11,-84],[-4,-92],[3,-580],[0,-350],[2,-76],[5,-91],[12,-139],[2,-65],[-5,-95],[-15,-91],[-22,-86],[-407,-1241],[-70,-215],[-31,-103],[-33,-124],[-26,-110],[-37,-186],[-54,-318]],[[6491,74],[-391,-1],[-641,0],[-470,5],[-162,-1],[-155,4],[-125,-1],[-336,2],[-148,-1],[-619,-1],[-621,2],[0,-82],[-63,0],[7,38],[-2,57],[-13,84],[1,28],[17,79],[25,44],[38,43],[20,31],[10,37],[1,30],[-7,29],[-27,65],[-5,47],[17,38],[39,67],[3,40],[-13,96],[-14,35],[-26,41],[-24,25],[-34,71],[-17,76],[-9,80],[0,130],[-7,59],[-23,40],[-16,48],[-3,46],[12,45],[0,51],[-19,38],[-11,54],[-4,58],[2,92],[7,57],[8,35],[-7,35],[-32,43],[-9,27],[-10,67],[-21,47],[-9,43],[-8,15],[-33,23],[-35,56],[-22,109],[-13,40],[-29,50],[-33,10],[-14,-12],[-53,-4],[-28,33],[-14,36],[-7,53],[6,45],[-12,79],[1,39],[31,79],[-22,60],[-25,33],[-40,39],[-17,7],[-59,54],[11,24],[8,53],[13,43],[-1,37],[-9,20],[-33,48],[-2,81],[-26,62],[-1,23],[10,95],[5,16],[36,33],[35,74],[-12,30],[-25,9],[-57,59],[-18,33],[-9,85],[12,77],[2,28],[-30,16],[-19,49],[-2,75],[-11,101],[-14,44],[-4,33],[3,47],[-11,46],[-4,79],[-26,45],[-6,21],[-10,83],[6,88],[-14,44],[-9,40],[-13,108],[-23,100],[-2,36],[21,52],[-1,33],[-12,51],[-17,35],[0,57],[-9,23],[-30,7],[-21,20],[-30,18],[-15,-24],[5,-51],[-7,-49],[-9,-27],[-11,-50],[-17,-41],[-22,-14],[-47,-4],[-29,-12],[-24,-20],[-15,-39],[7,-65],[13,-77],[1,-36],[-11,-29],[-41,14],[-24,-22],[-17,-72],[-18,-39],[-20,-20],[-27,-15],[-34,-2],[-25,12],[-25,22],[-28,42],[-11,25],[-26,112],[-4,7],[-70,48],[-12,53],[-3,66],[-18,56],[-24,41],[-27,148],[-9,30],[-31,34],[-31,15],[-22,21],[-33,20],[-17,29],[-11,30],[-23,37],[-5,28],[4,123],[-4,50],[-9,51],[-9,22],[-28,19],[-26,46],[-10,38],[-7,90],[19,45],[3,35],[-14,33],[-5,54],[-18,44],[1,108],[-28,42],[-21,-2],[-31,41],[-37,39],[-23,12],[-14,20],[0,77],[11,88],[-12,66],[7,59],[2,41],[17,32],[-9,45],[-16,24],[-35,25],[-72,102],[-21,56],[-10,74],[-4,70],[-34,72],[-38,41],[-34,4],[-11,14],[-5,70],[-21,60],[-41,53],[-9,52],[3,63],[13,56],[20,33],[-21,30],[-9,33],[6,72],[-11,49],[5,43],[-1,57],[11,48],[0,20],[-16,62],[-20,21],[-18,9],[-35,0],[-30,-13],[-13,8],[-10,49],[0,56],[-4,60],[5,51],[-6,11],[-41,-1],[-40,18],[-21,52],[-7,48],[-13,14],[-27,12],[-39,9],[-29,-9],[-41,14],[-31,18],[-1,738],[0,272],[0,896],[0,494],[0,1513],[656,0],[697,1],[512,-2],[164,-4],[281,-2],[176,-5],[312,-17],[0,69],[221,0],[164,-1],[157,-3],[310,0],[501,-3],[279,-4],[316,-3],[496,-8],[641,-10],[435,-7],[155,-1],[1,9],[308,-2],[320,-6],[312,-2],[350,-9]],[[7224,4300],[21,-19],[53,-83],[17,10],[19,36],[17,-8],[19,-28],[36,-8],[48,3],[23,17],[11,22],[19,9],[20,-28],[1,-44],[9,-34],[21,-5],[4,-23],[-10,-44],[29,-46],[24,66],[44,-1]],[[10109,5068],[25,-8],[45,-7],[119,-47],[61,-7],[23,6],[104,93],[56,24],[17,27],[26,-38],[34,-40],[8,-1],[33,-49],[30,-22],[65,-22],[9,-11],[40,-70],[17,-66],[13,-24],[9,-39],[-7,-74],[-16,-74],[7,-27],[32,-79],[21,-67],[42,-69],[2,-17],[37,-46],[4,-42],[99,-1],[17,12],[17,-10],[7,-38],[6,-71],[-4,-56],[16,0],[52,-59],[26,-22],[-80,-244],[-145,-452],[-50,-156],[-7,-41],[-20,-39],[-50,-202],[-55,-268],[-22,-88],[-10,-31],[-275,256],[-68,53],[-38,20],[5,-51],[25,-119],[4,-104],[-1,-56],[-10,-113],[-37,-113],[4,-53],[13,-33],[7,-33],[23,-47],[36,-45],[27,-41],[11,-33],[2,-73],[-5,-53],[-12,-48],[-7,-95],[-11,-106],[-26,-91],[9,-46],[3,-140],[10,-86],[-1,-29],[-15,-72],[4,-65],[13,-89],[1,-23],[-13,-47],[-25,-51],[-40,-111],[-10,-67],[4,-32],[29,-16],[65,-54],[66,-87],[42,-18],[13,-11],[7,-24],[2,-48],[24,-69],[8,-43],[25,-39],[11,-30],[-4,-48],[8,-32],[15,-23],[13,-46]],[[10693,82],[-216,1],[-169,2],[0,-20],[-163,10],[-674,-3],[-271,-1],[-482,0],[-276,1],[-324,-6],[-158,3],[-547,2],[-922,3]],[[15044,12218],[242,-1],[438,-1],[281,0],[253,0],[301,3],[172,2],[139,-3],[176,-2],[158,-14],[124,2],[519,4],[482,-2],[212,0],[445,-2],[691,-2],[592,-1],[535,-1],[731,-2],[157,1],[466,0],[506,0],[-25,-41],[-48,-33],[-46,-14],[-19,-14],[-27,-34],[-10,-20],[-2,-29],[13,-58],[39,-61],[31,-27],[67,-41],[45,-18],[26,-20],[35,-40],[23,-41],[28,-85],[11,-17],[8,-57],[3,-67],[-12,-54],[-27,-47],[-29,-14],[-32,4],[-55,32],[-59,67],[-40,61],[-66,34],[-67,10],[-42,-11],[-50,-34],[-82,-78],[-23,-13],[-27,8],[-41,-2],[-87,24],[-14,11],[-10,63],[2,66],[8,101],[-11,133],[-14,70],[-19,45],[-31,10],[-31,-19],[-40,-47],[-23,-48],[-6,-39],[15,-124],[31,-122],[15,-46],[39,-96],[23,-160],[3,-33],[-3,-65],[7,-49],[19,-76],[-16,-84],[-49,-128],[-13,-70],[-13,-106],[-21,-114],[3,-81],[-19,-205],[-8,-48],[-23,-69],[-19,-43],[-15,-20],[-28,0],[-94,97],[-49,25],[-15,-5],[-24,-20],[-6,-20],[4,-82],[-1,-50],[-16,-98],[-14,-29],[-4,-64],[-7,-28],[-41,-76],[-20,-20],[-36,-73],[-9,-39],[-4,-76],[6,-65],[11,-39],[47,-135],[29,-61],[7,-22],[0,-28],[-11,-46],[-19,-43],[-27,-21],[-12,4],[-55,67],[-23,16],[-32,37],[-16,26],[-29,92],[2,58],[-4,88],[5,43],[-1,38],[13,79],[4,50],[-3,96],[-19,17],[-9,68],[-49,60],[-34,21],[-31,-2],[-25,8],[-42,-25],[-91,-13],[-46,-15],[-53,-9],[-38,-19],[-14,-13],[-58,-39],[-19,-60],[-12,-69],[-2,-112],[5,-59],[9,-25],[45,-61],[73,-61],[40,-57],[28,-79],[-1,-24],[15,-120],[18,-71],[23,-67],[13,-29],[71,-86],[26,-37],[16,-51],[-8,-55],[-22,-74],[-24,-28],[-64,-43],[-20,-6],[-28,7],[-50,33],[-115,-21],[-43,-26],[-19,-43],[11,-51],[0,-32],[8,-45],[2,-39],[-14,-121],[-8,-46],[-24,-62],[-38,-49],[-42,-26],[-44,-12],[-22,-38],[-17,-70],[1,-46],[7,-41],[15,-32],[23,-16],[79,56],[60,24],[64,4],[17,-7],[26,-22],[28,-52],[23,-74],[-3,-59],[-25,-36],[-9,-30],[-8,-73],[14,-93],[2,-51],[17,-88],[8,-72],[13,-66],[-10,-59],[-18,-20],[-19,-41],[-16,-47],[20,-67],[-5,-58],[-16,-60],[-23,-37],[-28,-24],[-18,-56],[-12,-69],[-12,-36],[-19,-40],[-18,-52],[-17,-17],[-40,-1],[-57,48],[-34,23],[-24,1],[-49,-15],[-18,-21],[-11,-98],[0,-42],[-7,-43],[-3,-91],[1,-53],[13,-31],[38,-20],[17,-26],[37,-40],[28,-49],[11,-36],[38,-43],[54,-128],[3,-20],[-10,-27],[-35,-27],[-40,-23],[-13,-1],[-36,27],[-59,26],[-13,-2],[-28,-35],[-3,-49],[-10,-61],[-1,-61],[-13,-98],[-1,-46],[-25,-44],[-32,-32],[-24,-47],[-5,-74],[4,-49],[-24,-33],[-36,-27],[-28,-3],[-21,-36],[-6,-41],[4,-44],[-6,-30],[-36,-53],[-19,-36],[-12,-12],[-4,-90],[-6,-28],[3,-35],[19,-68],[13,-18],[16,-63],[26,-38],[46,-23],[18,-20],[42,-125],[-7,-64],[-26,-57],[-20,-79],[-26,-45],[-30,-27],[-16,-23],[-22,-9],[-29,-1],[-29,-10],[-17,-21],[-6,-39],[-44,-82],[-33,-165],[-14,-56],[-5,-39],[6,-19],[8,-113],[-10,-37],[7,-46],[13,-28],[37,-19],[27,-27],[15,-58],[15,-12],[31,-63],[9,-54],[-7,-62],[1,-35],[16,-87],[-5,-34],[-35,-134],[-3,-21],[19,-72],[-10,-63],[-17,-38],[-35,-53],[-35,-21],[-19,4],[-56,-22],[-34,6],[-39,-10],[-57,-43],[-10,-38],[3,-19],[35,-39],[16,-28],[32,-39],[40,-91],[1,-47],[14,-37],[66,-61],[29,-3],[22,14],[14,-5],[31,21],[23,4],[25,-10],[11,-22],[16,-77],[2,-124],[-6,-56],[5,-38],[-5,-112],[16,-103],[8,-37],[16,-46],[4,-45],[-7,-49],[4,-47],[10,-47],[7,-53],[-2,-21],[17,-37],[47,-40],[14,-33],[2,-41],[14,-60],[28,-74],[5,-26],[-8,-118],[-11,-71],[-23,-68],[-85,-134],[-20,-27],[-16,-53],[-2,-29],[13,-99],[14,-30],[21,-21],[8,-23],[0,-34],[-11,-25],[-34,-47],[-373,0],[-811,0],[-616,0],[-124,1],[-311,-1],[-777,5],[-311,1],[-622,1],[-465,0],[-155,1],[-316,-2],[-303,-6],[-470,0],[-292,1],[-444,-1],[-197,3],[-155,3],[-267,2],[-163,0],[-504,4],[-285,2],[-211,2],[-967,0],[-149,2],[-34,-2],[-309,1]]],"transform":{"scale":[0.00006020305925666197,0.000027770185837872377],"translate":[-111.247506,39.467455]},"objects":{"Geometry\\49-007":{"type":"GeometryCollection","geometries":[{"arcs":[[0,1,2]],"type":"Polygon","properties":{"GEOID":"490070005003"}},{"arcs":[[3,4,5,6,7,8]],"type":"Polygon","properties":{"GEOID":"490070002002"}},{"arcs":[[9,-8,10,11,12,13]],"type":"Polygon","properties":{"GEOID":"490070002001"}},{"arcs":[[14,15,16,17,-12]],"type":"Polygon","properties":{"GEOID":"490070003003"}},{"arcs":[[-17,18,19,20]],"type":"Polygon","properties":{"GEOID":"490070001002"}},{"arcs":[[-7,21,22,-15,-11]],"type":"Polygon","properties":{"GEOID":"490070003004"}},{"arcs":[[23,-5,24,-19,-16,-23]],"type":"Polygon","properties":{"GEOID":"490070001001"}},{"arcs":[[-24,-22,-6]],"type":"Polygon","properties":{"GEOID":"490070003001"}},{"arcs":[[25,-9,-10,26]],"type":"Polygon","properties":{"GEOID":"490070002003"}},{"arcs":[[27,28,29,-20,-25,-4,-26,-2,30,31]],"type":"Polygon","properties":{"GEOID":"490070006002"}},{"arcs":[[-31,-1,32]],"type":"Polygon","properties":{"GEOID":"490070005002"}},{"arcs":[[-32,-33,-3,-27,-14,33,34]],"type":"Polygon","properties":{"GEOID":"490070005001"}},{"arcs":[[35,-21,-30,36,37,-34]],"type":"Polygon","properties":{"GEOID":"490070006003"}},{"arcs":[[38,-37,-29]],"type":"Polygon","properties":{"GEOID":"490070006001"}},{"arcs":[[-18,-36,-13]],"type":"Polygon","properties":{"GEOID":"490070003002"}}]}}}