{"type":"Topology","arcs":[[[8891,10366],[36,0]],[[8927,10366],[49,-84],[61,-87],[24,-38]],[[9061,10157],[72,-119],[52,-91]],[[9185,9947],[-47,0],[-2,18],[-21,29],[-39,38],[-179,0]],[[8897,10032],[-6,46],[0,288]],[[11912,2368],[19,32],[-1,49],[10,26],[42,37],[53,53],[38,52],[174,213],[10,7]],[[12257,2837],[32,35],[13,28]],[[12302,2900],[5,6]],[[12307,2906],[7,28],[-6,22],[5,29],[-14,34],[-19,31],[-28,7],[0,95],[-14,30],[-30,-3],[-20,27],[5,44]],[[12193,3250],[44,10],[30,-8],[32,0],[18,8],[45,-10],[34,7],[58,-15],[53,15],[18,14],[57,25],[34,28],[37,-18],[25,11],[69,18],[63,-1],[40,18],[74,15],[67,-6],[30,-21],[23,-3],[30,17],[37,-8],[40,8],[63,-26],[23,2],[27,23],[41,-22],[44,7],[24,17],[25,9],[33,-2],[34,8],[46,-4],[63,-18],[38,-2],[23,-7],[46,1],[41,-12],[33,13],[45,-1],[26,3],[14,42],[-14,88]],[[13826,3473],[24,15],[23,1],[33,-33],[12,-42],[-1,-33],[-22,-39],[-26,-57],[-7,-29],[-10,-78],[-27,-18],[-4,-32],[-29,-29],[-5,-45],[17,-38],[58,11],[20,15],[57,-18],[10,-18],[23,-7],[48,20],[31,0],[22,-13],[22,2],[40,-23],[74,-22],[27,-33],[17,-10],[5,-37],[26,-42],[40,-43],[3,-42],[21,-51],[3,-25],[-25,-14],[-30,-8],[-52,6],[-44,-13],[-17,-15],[-8,-19],[-1,-28],[-9,-48],[-34,-58],[-29,-34],[-16,-7],[-40,27],[-16,-6],[-42,-35],[-13,-4],[-28,18],[-8,-20],[-33,-34],[-34,-17],[-50,-36],[-29,-26],[-36,11],[-36,0],[-16,-19],[-40,-19],[-35,-43],[-23,-38],[-71,-24],[-49,24],[-27,18],[-45,8],[-21,-2],[-66,-29],[-39,-43],[-22,-7],[-36,-34],[-28,-41],[-22,2],[-33,-27],[-22,-11],[-30,-33],[-29,30],[-18,8],[-33,0],[-55,23],[-20,-7],[-32,-21],[-17,-1],[-30,-17],[-24,-29],[-7,-27],[-56,-63],[-55,-20],[-60,5],[-13,-8],[-6,-29],[-30,-20],[-34,3],[-34,-10],[-23,-22],[-61,-2]],[[12459,1795],[-14,61],[-25,73],[-22,24],[-34,3],[-59,19],[-12,8],[-32,46],[-19,37],[-3,36],[4,76],[-5,26],[-16,15],[-26,12],[-34,3],[-28,26],[-14,20],[-32,19],[-15,24],[-57,16],[-88,10],[-16,19]],[[11654,3626],[32,0]],[[11686,3626],[119,1],[7,2]],[[11812,3629],[1,-127]],[[11813,3502],[-159,-2]],[[11654,3500],[0,126]],[[9644,8470],[167,-280],[64,48],[9,3]],[[9884,8241],[-11,-36],[-36,-62],[-37,-44],[-23,-16],[-31,-42],[-27,-14],[-22,1],[-32,-22]],[[9665,8006],[-47,67],[-3,11],[0,386],[29,0]],[[11601,3154],[183,0],[11,40]],[[11795,3194],[28,-5],[-3,-24],[0,-81],[-3,-10]],[[11817,3074],[-258,0]],[[11559,3074],[42,80]],[[9891,9315],[-1,-191]],[[9890,9124],[0,-188],[-17,-31]],[[9873,8905],[-42,-33]],[[9831,8872],[-203,340]],[[9628,9212],[-62,102]],[[9566,9314],[325,1]],[[12549,7796],[-28,-6],[-31,-17],[-20,-65],[-30,-76],[-1,-25],[12,-26],[15,-93],[11,-25],[-3,-32],[-15,-28],[14,-37],[23,-31],[35,-24],[41,4],[20,15],[50,-6],[42,-58],[16,-8],[10,-19],[18,-54],[30,-44],[23,-73],[18,-33],[-25,-79],[4,-19],[31,-28],[39,-3],[30,-19],[24,-4],[23,8],[22,-2],[16,-15],[27,-7],[72,-82],[11,-17],[-10,-38],[-1,-26],[19,-34],[29,-97],[40,-49],[10,-34],[31,-37],[20,-44],[18,-12],[27,-7],[66,-86],[21,-77],[27,-48],[37,-50],[27,-68],[34,-74],[2,-48],[17,-19],[16,-44],[2,-31],[12,-32],[18,-20],[6,-20],[18,-18],[18,-38],[22,-33],[11,-39],[43,-50],[13,-46],[-3,-17],[-40,-27],[-54,-3],[-26,-15],[-13,-21],[-25,-3],[-25,11],[-19,26],[-34,27],[-39,16],[-23,37],[-76,3],[-45,-44],[-20,-11],[-41,19],[-66,-11],[-27,-11],[-47,-45],[-18,-7],[-21,10],[-28,30],[-29,19],[-22,22],[-14,-5]],[[12911,5549],[-70,75],[-34,-83],[-43,-3],[-88,-15],[-58,7],[-20,-14],[-41,-14],[-30,7],[-59,32],[-35,25],[-16,21],[-20,13],[-18,26],[-30,20],[-28,6],[-24,27],[-12,-10],[-59,-18],[-28,-30],[-26,-8],[-33,16],[-38,62],[-31,-3],[-13,6],[-27,-7],[-107,17],[-98,30],[-23,-12],[-91,-1],[-58,-39],[-49,-17]],[[11604,5665],[0,40]],[[11604,5705],[2,379],[-4,16],[-33,46],[-16,5]],[[11553,6151],[10,17],[3,31],[112,-2],[-9,50],[47,18],[-50,199],[-12,36],[-23,107],[20,24],[4,19],[-8,23]],[[11647,6673],[-119,0],[1,107],[-58,-1],[-34,52],[-1,175],[-12,10],[-5,26],[-24,64]],[[11395,7106],[-5,19],[10,15],[-27,20],[17,19],[-6,21],[-23,0],[-2,103],[2,19]],[[11361,7322],[-13,87],[-8,68],[-17,128],[85,41],[42,31],[24,67],[11,8],[37,3],[11,23],[25,-21],[58,-1],[25,8],[41,-1],[20,18],[36,13],[10,13],[26,10],[65,7],[37,11],[38,-12],[21,-16],[36,41],[29,-1],[13,-32],[23,1],[10,47],[64,-17],[35,-21],[29,-31],[59,-21],[58,11],[47,-9],[19,3],[58,26],[35,5],[71,-3],[28,-10]],[[11604,5705],[-145,1]],[[11459,5706],[-2,69],[-10,45],[-36,86],[-16,50],[-50,198]],[[11345,6154],[208,-3]],[[10334,8883],[10,-3],[215,0]],[[10559,8880],[48,0],[0,81],[149,-23],[75,37],[27,49],[53,54]],[[10911,9078],[105,2],[64,8]],[[11080,9088],[-1,-116]],[[11079,8972],[-36,-2],[-24,-24],[-27,7],[-44,-4],[-36,-16],[-28,-62],[-44,-26],[-16,-15],[-65,-17],[-26,-3],[-20,7],[-40,-4],[-12,-17],[19,-18],[-86,-4],[-2,26],[-25,-11],[-16,-27],[-31,-11],[-34,0],[4,-13],[-48,-20],[-17,22],[-41,-27],[-20,15],[-2,54],[-27,4]],[[10335,8786],[-1,97]],[[10466,9068],[7,-60],[61,-1],[2,-34],[20,-40],[3,-53]],[[10334,8883],[1,121],[-5,30],[57,12],[79,22]],[[11060,7049],[9,41]],[[11069,7090],[57,34],[13,26],[19,-1],[22,22],[58,41],[1,19],[33,20],[22,39],[23,25],[44,7]],[[11395,7106],[-21,-19],[-2,-18],[20,-63],[-16,-53],[-15,23],[-38,-28],[-18,-18],[-44,-79],[-31,-32],[49,-78],[-136,1]],[[11143,6742],[-77,230],[-7,52],[1,25]],[[9891,9734],[258,-2]],[[10149,9732],[-2,-197]],[[10147,9535],[-168,0],[-75,22],[-13,-1]],[[9891,9556],[0,178]],[[9891,9554],[0,2]],[[10147,9535],[7,-22],[1,-169],[3,-32]],[[10158,9312],[-56,2],[-167,1]],[[9935,9315],[-44,0]],[[9891,9315],[-1,82]],[[9890,9397],[1,157]],[[8525,10578],[182,0]],[[8707,10578],[4,-212]],[[8711,10366],[-186,0]],[[8525,10366],[0,212]],[[8513,11160],[159,1]],[[8672,11161],[16,-65],[12,-95]],[[8700,11001],[-179,0]],[[8521,11001],[-8,159]],[[8158,9735],[366,0]],[[8524,9735],[0,-210]],[[8524,9525],[-125,0],[0,-12],[-148,2],[-65,0],[0,-59],[-29,1]],[[8157,9457],[1,278]],[[8159,10367],[366,-1]],[[8525,10366],[0,-211]],[[8525,10155],[-183,1]],[[8342,10156],[-183,-1]],[[8159,10155],[0,104]],[[8159,10259],[0,108]],[[8525,10155],[0,-209]],[[8525,9946],[-140,1],[-43,209]],[[9890,9124],[53,1],[0,-9],[47,1],[39,8]],[[10029,9125],[32,-1],[0,-57],[102,1]],[[10163,9068],[0,-157],[12,-21]],[[10175,8890],[-14,0]],[[10161,8890],[-90,2],[-184,1],[-14,12]],[[10158,9312],[6,-39],[-1,-205]],[[10029,9125],[1,22],[15,37],[0,32],[-9,34],[-101,-1],[0,66]],[[9751,8892],[36,-55],[44,35]],[[9831,8872],[77,-128],[108,-169]],[[10016,8575],[39,-62],[55,-76],[15,-33],[8,-53],[-3,-68]],[[10130,8283],[-28,2],[-72,121]],[[10030,8406],[-32,30],[-70,73],[-40,34],[-57,53],[-70,77],[-120,110],[-108,109]],[[9533,8892],[218,0]],[[10434,9304],[17,36],[75,195],[14,51],[3,81]],[[10543,9667],[72,5],[58,16],[72,36],[50,30]],[[10795,9754],[102,62],[71,38],[23,8],[45,3],[67,-13]],[[11103,9852],[-4,-37]],[[11099,9815],[-23,11],[-44,-11],[-76,-52],[-15,-24],[-17,-68],[-34,-35],[-21,-30],[-37,-32],[-34,-10],[-25,1],[-48,-37],[-32,-46],[-68,-54],[-26,-28],[-19,-5],[-26,4],[-9,-12],[-2,-33],[-20,-19],[-17,-29]],[[10506,9306],[-72,-2]],[[10466,9068],[29,18],[23,8],[89,-2]],[[10607,9092],[28,-1],[74,16],[11,-2],[64,-33],[16,-4],[43,17],[68,-7]],[[10430,7469],[102,1]],[[10532,7470],[-3,-75],[17,-5],[94,-1],[79,-6],[48,27]],[[10767,7410],[33,-41]],[[10800,7369],[-12,-14],[-13,-42],[-12,-17],[-24,-9],[-22,-40],[1,-30],[-14,-23],[12,-30],[-6,-31]],[[10710,7133],[-29,0],[-22,-15],[-4,-21],[-26,-5],[-26,-26],[-14,-37]],[[10589,7029],[-22,29],[-25,49],[-9,29],[-85,274]],[[10448,7410],[-18,59]],[[10800,7369],[1,-1]],[[10801,7368],[152,-193]],[[10953,7175],[-21,-24],[5,-27],[-10,-30],[-21,-31],[-5,-42]],[[10901,7021],[-24,26],[-103,0],[0,29],[-21,8],[-40,-1],[-3,50]],[[11456,4952],[23,-2],[40,-22],[159,2]],[[11678,4930],[10,-88],[-1,-185]],[[11687,4657],[-233,-1]],[[11454,4656],[2,296]],[[11502,2355],[43,-35],[43,0],[42,-34],[1,-12],[-15,-30],[27,0],[13,-16],[-3,-18],[11,-18],[18,2],[8,-14]],[[11690,2180],[-13,-10],[-91,-134],[-21,-57],[-10,-16]],[[11555,1963],[-39,33],[-33,12],[6,51],[-3,48],[-25,-14],[-17,0],[-17,-19],[-13,5],[-15,-14],[-23,-7],[-10,9],[-3,22],[-32,-16],[-30,19],[-4,24],[-35,0]],[[11262,2116],[40,24],[23,23],[35,47],[17,-17],[24,16],[22,-30],[20,14],[-2,39],[-16,15],[-10,35],[25,33],[19,17],[43,23]],[[10998,2117],[94,0]],[[11092,2117],[92,0]],[[11184,2117],[78,-1]],[[11262,2116],[-4,-14],[-49,-81],[-27,-22],[-11,-21]],[[11171,1978],[-28,17],[-40,9],[-32,-16],[-25,-4],[-28,-76],[-25,-42]],[[10993,1866],[2,66],[3,185]],[[11457,5329],[149,0]],[[11606,5329],[13,-89],[15,-54],[21,-98],[18,-122]],[[11673,4966],[5,-36]],[[11456,4952],[1,377]],[[10900,10071],[142,0],[79,-2],[-4,-69],[-14,-148]],[[10795,9754],[-31,67],[12,30],[2,91],[31,-1],[0,107],[91,0],[0,23]],[[11080,8889],[4,-83],[6,-225],[0,-143]],[[11090,8438],[-95,-25],[-44,-7],[-35,-19],[-43,-12]],[[10873,8375],[-78,-24],[-88,-31],[-118,-31],[-60,-42]],[[10529,8247],[-25,48],[-47,132]],[[10457,8427],[-30,86]],[[10427,8513],[36,7],[55,23],[43,37],[29,43],[56,24],[38,-2],[62,30],[43,43],[28,17],[59,18],[72,-5],[37,81],[-3,53],[5,14],[19,11],[19,-13],[55,-5]],[[11079,8972],[1,-83]],[[10427,8513],[-10,25],[-76,128],[-5,15]],[[10336,8681],[-2,15],[1,90]],[[10532,7470],[3,68],[90,41],[7,8]],[[10632,7587],[135,-177]],[[8524,9525],[0,-211]],[[8524,9314],[-192,0]],[[8332,9314],[-175,0]],[[8157,9314],[0,143]],[[8525,9946],[-1,-159]],[[8524,9787],[0,-52]],[[8158,9735],[1,420]],[[10626,10353],[20,-29],[18,-13],[54,-9]],[[10718,10302],[34,-4],[44,-27],[12,-22],[2,-29],[13,-21],[27,-12],[45,2],[21,7],[38,22],[63,41],[57,25],[17,12],[10,41],[36,12],[2,60],[-5,41],[-9,37],[-69,156]],[[11056,10643],[27,-7],[30,6],[39,27],[63,13],[14,11],[35,-2],[34,-27],[35,2],[39,14],[32,16],[76,28],[27,4],[51,-12],[56,0],[35,13],[50,-9],[33,10],[47,9],[97,-2],[56,-23],[17,10],[75,-3],[-7,79],[34,-11],[31,-30],[38,8],[5,-29],[-24,-19],[4,-16],[69,-27],[53,-36],[30,-28],[5,-24],[20,-60],[25,-48],[-8,-61],[6,-32],[30,-60],[2,-43],[6,-25],[-29,-39],[-10,-40],[-24,-12],[-29,-61],[-6,-27],[-77,-29],[-25,-45],[-21,-30],[11,-37],[24,-27],[3,-24]],[[12160,9888],[-42,-5],[-73,-13],[-127,-27],[-23,-8],[-30,0],[-52,12],[-16,14],[-28,3],[-34,-18],[-37,-4],[-24,4],[-25,-14],[-48,3],[-19,13],[-43,4],[-32,20],[-39,-25],[-30,-4],[-34,15],[-31,-11],[-18,8],[-62,10],[-46,-39],[-42,-3],[-55,-25],[-16,-2],[-35,19]],[[10900,10071],[1,72],[-182,-1],[0,80],[-93,34]],[[10626,10256],[0,97]],[[11125,7583],[-3,40]],[[11122,7623],[-17,310]],[[11105,7933],[-11,209],[-3,122]],[[11091,8264],[-1,18]],[[11090,8282],[76,19],[0,8],[37,9],[16,11],[55,21],[34,0],[43,15],[29,-2],[16,-21],[21,-13],[27,15],[27,-54],[28,10],[2,27],[10,3],[50,-12],[13,-30],[44,-2],[18,-10],[18,-29],[22,0],[18,15],[21,4],[16,-8],[35,7],[29,-7],[60,0],[73,17],[55,-25],[52,16],[67,30],[44,17],[14,21],[23,20],[15,58],[145,20]],[[12343,8432],[-5,-27],[2,-33],[14,-16],[-5,-66],[1,-66],[5,-28],[-6,-26],[18,-27],[45,-89],[41,-32],[7,-68],[-19,-58],[34,-9],[22,-24],[28,-50],[24,-17]],[[11069,7090],[46,147],[8,39],[9,77],[1,71],[-8,159]],[[8700,11001],[3,-211]],[[8703,10790],[-178,0]],[[8525,10790],[-9,212],[5,-1]],[[8161,10579],[364,-1]],[[8159,10367],[2,212]],[[8711,10366],[4,0]],[[8715,10366],[2,-31],[16,-85],[27,-59],[20,-36]],[[8780,10155],[-255,0]],[[10149,9732],[29,0],[72,-10]],[[10250,9722],[118,-23],[129,-28],[46,-4]],[[10434,9304],[-167,2],[-109,6]],[[10718,2926],[1,-233]],[[10719,2693],[1,-119]],[[10720,2574],[-262,-1]],[[10458,2573],[-5,85],[5,61],[13,46],[73,158],[174,3]],[[11171,1978],[17,-21],[-3,-42],[11,-54],[-7,-48],[8,-17],[20,-8],[15,9],[9,25],[11,50],[28,20],[48,-1],[17,-6],[12,-28],[-6,-39],[11,-39]],[[11362,1779],[-20,-36],[-3,-49],[5,-15],[26,-14],[41,-66],[19,-46],[18,-18]],[[11448,1535],[-178,0],[0,-57],[-90,0],[0,56],[-200,0]],[[10980,1534],[13,332]],[[10130,8283],[3,-32],[31,-84]],[[10164,8167],[-163,-113]],[[10001,8054],[-53,142],[-28,84]],[[9920,8280],[30,67],[34,36],[46,23]],[[9185,9947],[63,-108],[-232,0]],[[9016,9839],[-35,48],[-63,97],[-21,48]],[[9094,9732],[219,1]],[[9313,9733],[125,-209]],[[9438,9524],[-2,-42],[1,-168],[-72,-1]],[[9365,9313],[-111,172]],[[9254,9485],[-160,247]],[[9415,9237],[33,-47],[45,-46]],[[9493,9144],[43,-39]],[[9536,9105],[-49,-72],[0,-47],[-20,1],[-13,-19]],[[9454,8968],[-126,124],[-35,45],[-11,20],[18,13],[74,-3],[11,11],[10,38],[20,21]],[[8524,9787],[96,35],[175,67],[94,-159]],[[8889,9730],[14,-24],[119,-194],[117,-199]],[[9139,9313],[-93,1]],[[9046,9314],[-158,0]],[[8888,9314],[-183,0]],[[8705,9314],[-181,0]],[[9536,9105],[171,-159],[44,-54]],[[9533,8892],[-79,76]],[[11091,9578],[0,-52]],[[11091,9526],[-81,-3],[-3,-13],[-33,-31],[-26,-39],[-14,-69],[6,-17]],[[10940,9354],[-35,-31],[-18,-9]],[[10887,9314],[1,208],[-17,15],[21,33],[32,16],[44,38],[3,-15],[21,-23],[21,-2],[23,15],[23,-19],[32,-2]],[[11099,9815],[-6,-162],[-2,-75]],[[10887,9314],[-141,0],[-45,-6],[-195,-2]],[[9185,9947],[71,-1]],[[9256,9946],[-2,-83],[35,-62],[24,-26],[36,-23],[7,-20]],[[9356,9732],[-43,1]],[[9094,9732],[-12,20],[-66,87]],[[11847,4731],[7,-38],[-10,-36],[-65,0]],[[11779,4657],[-92,0]],[[11673,4966],[77,-16],[44,-5],[31,-9],[14,-14],[15,-61],[2,-21],[-9,-31],[0,-78]],[[11003,10712],[26,-62],[27,-7]],[[10718,10302],[1,111],[-1,162],[69,0],[16,-4],[25,-30],[25,10],[8,23],[28,1],[-2,121],[116,16]],[[10363,7830],[192,-2]],[[10555,7828],[-3,-128],[7,-14],[73,-99]],[[10430,7469],[-25,83],[-17,73],[-3,105],[-5,49],[-17,51]],[[13332,4687],[15,-48],[12,-16],[0,-27],[-39,-68],[-6,-34],[3,-33],[9,-19],[-1,-23],[-26,-72],[9,-73],[22,-29],[26,7],[22,-19],[39,-9],[32,-25],[47,-8],[15,-8],[18,-25],[8,-32],[1,-47],[28,-64],[18,-19],[8,-34],[0,-32],[10,-28],[25,-28],[17,-50],[-8,-37],[-15,-25],[-22,-13],[-39,-5],[-18,-62],[70,25],[57,-24],[42,-69],[8,-22],[13,-56],[-1,-32],[24,-47],[16,7],[55,9]],[[12193,3250],[-44,42]],[[12149,3292],[23,32],[1,125],[3,150],[-1,36]],[[12175,3635],[0,45],[12,33],[1,34],[16,1],[5,-33],[13,-28],[33,-34],[15,6],[-15,42],[-4,27],[5,19],[23,24],[-13,17],[-18,-1],[-41,14],[-27,23],[-26,7],[-60,33],[-34,48],[-69,0]],[[11991,3912],[-2,86]],[[11989,3998],[0,29],[22,0],[1,39],[-7,74],[-13,47],[-15,102],[31,-5],[24,-11],[30,12],[23,-7],[72,5],[8,-22],[42,9],[23,-19],[17,10],[22,24],[47,7],[23,11],[14,15],[23,-4],[20,21],[52,-1],[34,37],[35,14],[40,31],[14,5],[34,-10],[78,44],[67,-10],[51,20],[27,3],[61,28],[18,13],[48,21],[18,14],[28,10],[23,-19],[35,-7],[27,15],[27,-10],[41,-73],[35,-39],[7,37],[33,28],[42,85],[40,40],[11,27],[-2,47],[12,2]],[[11804,2967],[11,5]],[[11815,2972],[183,0]],[[11998,2972],[2,-176]],[[12000,2796],[-78,8],[-36,22],[-76,1]],[[11810,2827],[-2,127],[-4,13]],[[11812,3814],[81,-1],[33,-6],[63,0]],[[11989,3807],[0,-171]],[[11989,3636],[-22,0]],[[11967,3636],[-128,-1],[-27,-6]],[[11812,3629],[0,185]],[[11847,4731],[26,-11],[34,24],[22,-7],[45,11],[20,26],[26,13],[34,34],[22,3],[22,29],[52,41],[25,7],[58,-11],[41,2],[46,8],[22,-3],[21,9],[18,-8],[37,35],[70,9],[26,16],[17,30],[3,17],[22,17],[49,17],[57,10],[29,0],[16,15],[41,20],[24,26],[20,6],[24,19],[60,-5],[62,65],[49,55]],[[12987,5250],[37,-9],[35,0],[6,-33],[17,-27],[1,-30],[13,-31],[20,-23],[-12,-66],[10,-37],[38,-42],[21,-49],[24,-29],[33,-21],[36,-51],[14,-67],[41,-34],[11,-14]],[[11989,3998],[-88,3],[-1,-15],[-88,0]],[[11812,3986],[0,15]],[[11812,4001],[1,188]],[[11813,4189],[2,245]],[[11815,4434],[0,62],[-10,76],[-26,85]],[[8715,10366],[176,0]],[[8897,10032],[-6,0],[0,-87]],[[8891,9945],[-4,0],[-38,77],[-69,133]],[[11368,3632],[48,5],[128,-1],[40,-11],[70,1]],[[11654,3500],[-219,1],[0,11],[-78,-1]],[[11357,3511],[3,55],[8,66]],[[11080,9088],[6,190],[5,248]],[[12160,9888],[3,-22],[-28,-57],[-15,-55],[-5,-41],[4,-28],[17,-42],[15,-28],[29,-36],[25,-17],[3,-13],[-16,-16],[-39,-70],[-12,-45],[14,-52],[20,-41],[48,-48],[-11,-33],[-3,-60],[-8,-29],[0,-36],[23,-29],[-2,-48],[10,-56],[20,-24],[18,-41],[-5,-28],[-20,-62],[-15,-34],[-11,-65],[-18,-35],[3,-38],[53,-125],[11,-13],[42,-22],[16,-32],[19,-18],[-2,-17]],[[11090,8282],[0,156]],[[9382,11162],[236,0],[0,50],[19,0],[49,-25],[86,-25],[165,-1],[61,-30],[39,-36],[44,-12],[21,-16],[58,-71],[33,-28],[15,-55],[19,-34],[4,-36],[-12,-31],[42,-21],[27,-23],[58,-31],[36,8],[89,-26],[65,19]],[[10536,10738],[-4,-24],[0,-133],[4,-18],[-3,-102],[14,-8],[40,-59],[39,-41]],[[10626,10256],[-15,-11],[-29,-41],[-37,-32],[-20,42],[-31,1],[-14,7]],[[10480,10222],[1,29],[-51,7],[-9,20],[-32,-15],[0,101],[-41,0],[0,13],[-52,50],[-38,43],[-94,0],[-172,101],[-47,165],[-49,47],[-50,7],[-75,91],[-13,8],[-48,110],[-10,0],[-27,22],[0,18],[32,-18],[-23,49],[-57,-37],[-25,-11],[-47,-31],[-3,55],[-27,29],[-25,10],[-28,26],[-18,2],[-42,29],[-22,7],[-6,13]],[[10940,9354],[1,-34],[-15,0],[-50,-58],[-32,-7],[-23,-26],[-48,-69],[-65,-7],[-31,9],[-5,9],[-44,7],[-10,13],[-34,4],[-30,-26],[41,-35],[12,-42]],[[10334,8883],[-16,5],[-143,2]],[[10336,8681],[-77,-19],[-33,-14],[-32,0]],[[10194,8648],[1,161],[-16,79],[-4,2]],[[10427,8513],[-101,-46],[-135,3]],[[10191,8470],[2,159],[1,19]],[[8672,11161],[236,0]],[[8908,11161],[-1,-39],[0,-119]],[[8907,11003],[-207,-2]],[[8907,11003],[0,-214]],[[8907,10789],[-204,1]],[[8907,10789],[1,-211]],[[8908,10578],[-201,0]],[[8707,10578],[-4,212]],[[8908,10578],[0,-118],[2,-35],[17,-59]],[[8160,11163],[209,-3],[144,0]],[[8525,10790],[-365,0]],[[8160,10790],[0,373]],[[9920,8280],[-36,-39]],[[9644,8470],[-60,102],[-66,105],[-27,48],[-100,167]],[[9391,8892],[142,0]],[[10175,8199],[11,-16]],[[10186,8183],[65,-86],[58,-62],[61,80],[15,14]],[[10385,8129],[144,118]],[[10529,8247],[37,-163],[7,-54],[34,-131]],[[10607,7899],[2,-72]],[[10609,7827],[-54,1]],[[10363,7830],[-11,24],[-29,39],[-43,45],[-24,31],[-24,38],[-39,88]],[[10193,8095],[-22,71],[4,33]],[[10873,8375],[16,-27],[10,-51],[44,-107],[9,-51],[8,-12]],[[10960,8127],[-43,-51],[-33,-15],[-29,-27],[-85,-44],[-21,-15],[-142,-76]],[[10960,8127],[11,10],[52,84],[28,29],[40,14]],[[11105,7933],[-68,-5],[-22,-5],[-32,-17],[-83,-56],[-37,-17],[-48,-9]],[[10815,7824],[-206,3]],[[10191,8470],[-2,-247],[-14,-24]],[[10193,8095],[-29,72]],[[10016,8575],[67,177],[17,37],[61,101]],[[11122,7623],[-47,-1],[-1,14],[-22,28],[-56,-24],[-115,2],[-1,-29],[-67,0],[-1,22]],[[10812,7635],[3,189]],[[11125,7583],[-33,-8],[-22,-19],[-37,-41],[-25,-7],[-16,-20],[-45,-32],[-57,-10],[-41,-16],[6,-13],[-14,-29],[-40,-20]],[[10632,7587],[18,4],[75,1],[1,44],[86,-1]],[[10901,7021],[-24,-23],[-9,-30],[-13,-6],[-17,-25],[9,-31],[9,-7],[-10,-34],[-18,-9],[-31,-41],[-5,-30]],[[10792,6785],[-56,52],[-60,70],[-38,60],[-49,62]],[[11060,7049],[-16,15],[-91,111]],[[11647,6673],[-36,-37],[-23,-13],[-17,-43],[-11,-44],[7,-45],[0,-54],[-68,0],[-48,-6],[-31,17],[-10,20],[-126,2],[-49,-5]],[[11235,6465],[-92,277]],[[11345,6154],[-23,89],[-40,91],[-47,131]],[[11604,5665],[0,-217],[2,-119]],[[11457,5329],[2,377]],[[10824,4134],[28,109],[21,66],[50,63],[27,21],[70,40],[38,18],[17,21],[64,262],[15,25],[88,101],[20,39],[8,103],[-67,194],[3,12],[-32,52],[-75,68],[-23,3],[-52,23],[-55,35],[6,320]],[[10975,5709],[283,-3],[201,0]],[[11454,4656],[2,-84],[6,-101],[0,-37]],[[11462,4434],[-5,-118],[-2,-126]],[[11455,4190],[-1,-188]],[[11454,4002],[-205,1],[-187,-1]],[[11062,4002],[-31,-2],[-26,5],[-26,19],[-266,1],[-3,15],[77,47],[37,47]],[[11815,4434],[-163,2],[-190,-2]],[[11813,4189],[-309,2],[-49,-1]],[[11812,4001],[-125,-1]],[[11687,4000],[-233,2]],[[11213,2414],[61,118]],[[11274,2532],[15,-9],[60,0],[18,13],[8,-11],[25,0],[19,-13]],[[11419,2512],[-58,-82],[-2,-72],[-30,-55],[-36,-52],[-109,-134]],[[11092,2117],[67,192],[54,105]],[[11419,2512],[6,8]],[[11425,2520],[8,-7],[201,0]],[[11634,2513],[-42,-89],[-32,-41],[-58,-28]],[[11634,2513],[156,0]],[[11790,2513],[14,-9],[42,-45],[15,-34],[20,-19],[25,-7],[6,-31]],[[11912,2368],[-47,-12],[-40,-38],[-37,-52],[-34,-29],[-32,-48],[-32,-9]],[[12175,3635],[-21,5],[-49,-4],[-116,0]],[[11989,3807],[2,105]],[[11812,3814],[0,172]],[[11967,3636],[-5,-136],[-9,-147]],[[11953,3353],[-140,0]],[[11813,3353],[0,149]],[[12149,3292],[-62,17],[-7,8],[0,35],[-20,1]],[[12060,3353],[-107,0]],[[11687,4000],[0,-203]],[[11687,3797],[-209,2],[-58,-1]],[[11420,3798],[27,57],[8,41],[-1,106]],[[11686,3626],[1,171]],[[11368,3632],[9,46],[18,61],[25,59]],[[11654,3500],[1,-148]],[[11655,3352],[-95,-1]],[[11560,3351],[-125,0]],[[11435,3351],[-81,-1]],[[11354,3350],[3,161]],[[11813,3353],[-158,-1]],[[11959,3116],[32,75],[33,56],[16,41],[20,65]],[[12307,2906],[-7,24],[-21,19],[-5,34],[-14,24],[-23,-1],[-18,10],[-23,29],[-49,20],[-21,-10],[-46,32],[-35,14],[-40,3],[-46,12]],[[11959,3116],[-29,38],[-28,30],[-42,13],[-27,29],[-31,12]],[[11802,3238],[10,62],[1,53]],[[12302,2900],[-31,23],[-36,35],[-23,13],[-214,1]],[[11815,2972],[2,102]],[[11795,3194],[7,44]],[[12257,2837],[-20,26],[-118,0],[-14,-15],[-1,-48],[-13,-25],[-12,18],[-27,3],[0,-47],[-18,8],[-20,36],[-14,3]],[[11812,2612],[-2,153],[5,29],[-5,33]],[[11790,2513],[19,48],[3,51]],[[11601,3154],[47,87],[7,20],[0,91]],[[11504,2971],[55,103]],[[11804,2967],[-35,-9],[-37,14]],[[11732,2972],[-173,-1]],[[11559,2971],[-55,0]],[[11466,2975],[82,189],[12,42],[0,145]],[[11504,2971],[-38,4]],[[11466,2975],[-31,8],[0,368]],[[11252,2688],[9,16],[41,86],[17,47],[19,80],[8,56],[4,102]],[[11350,3075],[4,275]],[[11466,2975],[-23,-65],[-5,-54],[-13,-40],[-19,-29],[-48,-95]],[[11358,2692],[-33,0],[-43,-12],[-30,8]],[[11812,2612],[-32,-13],[-18,4],[-43,46],[-32,45],[-43,40]],[[11644,2734],[21,39],[52,139],[15,60]],[[11644,2734],[-22,-24],[-38,-19],[-26,0]],[[11558,2691],[1,280]],[[11425,2520],[70,95],[63,59],[0,17]],[[10998,2117],[2,73],[14,69],[19,54],[56,99],[36,1],[3,-8],[57,1],[28,8]],[[11368,3632],[-50,-5],[-69,8],[-186,1],[-1,125],[0,241]],[[10172,4335],[86,37],[115,-11],[1,-191],[7,-17],[20,-17],[20,-2],[178,1],[225,-1]],[[11354,3350],[-105,0]],[[11249,3350],[-185,-1]],[[11064,3349],[-311,-3],[-36,-1],[-1,-272],[1,-103]],[[10717,2970],[1,-44]],[[10458,2573],[-97,0],[-103,-249],[-19,9],[-14,-4]],[[10225,2329],[-41,-17],[-31,2],[-19,-21],[-45,8],[-4,10],[29,15],[53,6],[-20,54],[-2,36],[-33,-13],[-51,46],[4,9],[48,3],[3,11],[-29,29],[-13,2],[-39,-20],[-1,54],[-10,40],[45,62],[-14,31],[9,43],[30,20],[2,11],[-23,27],[-2,52],[21,19],[-20,16],[26,35],[-7,38],[-18,7],[-12,22],[17,16],[-57,22],[-26,-15],[-30,15],[12,52],[-35,29],[-6,45],[30,56],[37,43],[-10,30],[4,38],[-23,31],[20,32],[-23,25],[9,43],[47,56],[2,83],[53,39],[31,10],[4,56],[43,31],[-5,43],[18,68],[-1,521]],[[9244,6585],[1102,16],[23,1]],[[10369,6602],[99,-1],[1,5]],[[10469,6606],[123,-2],[0,4],[105,0],[3,-8],[-25,-33],[-58,0],[1,-14],[19,-30],[7,-27],[26,-23],[79,-1],[0,-49],[4,-12],[26,-23],[30,-36],[11,-3],[67,3],[-2,-26],[-1,-125]],[[10884,6201],[0,-56],[-3,-435],[94,-1]],[[10172,4335],[0,109],[-911,1],[-30,-24]],[[9231,4421],[2,79],[6,1212],[2,585],[3,288]],[[8908,11161],[349,2],[125,-1]],[[10480,10222],[-70,-1],[-21,-17],[0,-50],[-168,-5],[-10,0],[0,-177],[-2,-73],[4,-27],[35,-78],[2,-72]],[[9891,9734],[-90,0]],[[9801,9734],[-171,0]],[[9630,9734],[-11,14],[1,21],[-52,38]],[[9568,9807],[-40,34],[-94,108]],[[9434,9949],[20,9],[-198,158],[0,25],[-65,34],[-63,49],[-1,-27],[-66,-40]],[[9257,7712],[60,68],[45,60]],[[9362,7840],[24,-2],[140,-194],[186,178],[29,17],[39,-1]],[[9780,7838],[76,-132],[55,-78],[68,-64],[44,-49],[27,-75],[51,-74],[41,-36],[17,-22],[4,-20],[3,-272],[-4,-56],[-15,-18],[31,-52],[39,-51],[79,-121],[73,-116]],[[9244,6585],[1,133],[208,512],[-197,438],[1,44]],[[9665,8006],[93,-127],[22,-41]],[[9362,7840],[9,17],[38,40],[30,-2],[80,74],[27,27],[42,-4],[35,-10],[42,24]],[[797,9261],[202,1],[1993,14],[557,4],[1067,17],[1222,20],[7,-2],[1121,1],[89,1],[187,0]],[[7242,9317],[182,-1]],[[7424,9316],[367,0]],[[7791,9316],[1,-137],[-2,-44],[1,-237],[-1,-338],[7,-9],[156,-74],[20,-4],[182,-1],[455,-1]],[[8610,8471],[276,0]],[[8886,8471],[366,-1]],[[9252,8470],[-1,-289],[0,-152],[6,-317]],[[9231,4421],[-361,-294],[-929,-760],[-468,-381],[-479,-394],[-302,-246],[-126,-104],[-326,-343],[-412,-434],[-570,-599],[-407,-431],[-223,-235],[-60,-62],[-131,-138],[-380,772],[-394,802],[-295,599],[-247,493],[-204,414],[-530,1072],[-148,300],[-216,434],[-421,847],[-490,985],[-418,841],[-395,795],[-299,603],[797,304]],[[797,9261],[575,220],[352,134],[346,130],[1039,396],[607,231],[181,69],[719,271],[979,370],[240,91],[839,-8],[375,-1]],[[7049,11164],[-1,-321],[2,-40],[11,-14],[1,-216],[0,-210],[296,0],[12,4]],[[7370,10367],[56,0]],[[7426,10367],[0,-212]],[[7426,10155],[-5,-23],[39,-105],[33,-73],[61,-114],[61,-103]],[[7615,9737],[-372,1],[-1,-421]],[[10536,10738],[20,6],[83,2],[58,-41],[50,47],[61,-20],[41,3],[41,20],[11,-4],[0,-25],[57,0],[4,6],[41,-20]],[[10458,2573],[13,-230]],[[10471,2343],[3,-175],[7,-61],[28,1],[44,12],[132,0],[17,48],[16,73],[6,65],[-1,73]],[[10723,2379],[-3,195]],[[10719,2693],[343,1]],[[11062,2694],[154,0],[14,4]],[[11230,2698],[22,-10]],[[11358,2692],[-84,-160]],[[10980,1534],[-573,-1],[-7,60],[49,79],[10,25],[-8,27],[3,22],[18,41],[-3,25],[-26,9],[-10,30],[12,42],[-20,40],[-26,71],[-29,15],[-4,32],[-11,17],[-40,26],[-9,15],[9,30],[26,15],[-60,45],[-19,77],[-37,53]],[[10717,2970],[55,2],[62,9],[115,2],[11,-25],[45,0],[21,9],[36,0]],[[11062,2967],[0,-273]],[[8887,8893],[0,37]],[[8887,8930],[0,45]],[[8887,8975],[30,13],[56,-1],[22,6]],[[8995,8993],[10,-20],[1,-81],[127,0]],[[9133,8892],[120,0]],[[9253,8892],[-1,-206],[0,-216]],[[8886,8471],[1,422]],[[9256,9946],[0,8],[51,-6],[127,1]],[[9568,9807],[1,-73],[-195,-2]],[[9374,9732],[-18,0]],[[8523,8893],[1,75]],[[8524,8968],[-1,125],[1,221]],[[8705,9314],[1,-105]],[[8706,9209],[1,-106],[0,-210]],[[8707,8893],[-93,0],[0,-194],[-35,2],[-13,10],[-43,0]],[[8523,8711],[-1,131],[1,51]],[[7791,9316],[77,-1]],[[7868,9315],[24,-63],[53,-95],[32,-47]],[[7977,9110],[79,-110],[52,-56],[55,-52]],[[8163,8892],[62,-51],[113,-100],[29,-30],[100,-108],[54,-49]],[[8521,8554],[68,-59],[21,-24]],[[10850,6728],[36,13],[193,0],[64,1]],[[11235,6465],[-36,-25],[-37,-48],[-119,-159],[-33,-27],[-24,-5],[-102,0]],[[10469,6606],[13,77],[8,30],[-3,16],[-1,62],[-24,26]],[[10462,6817],[42,-33],[27,-33],[27,-8],[152,0],[35,-5],[39,-32],[27,-1],[39,23]],[[12911,5549],[-15,-68],[18,-52],[25,-50],[14,-52],[7,-44],[27,-33]],[[9801,9734],[1,-163],[-2,-21],[91,4]],[[9890,9397],[-19,10],[-54,7],[-41,16],[-55,26],[-32,18],[-69,49]],[[9620,9523],[1,122],[-8,20],[-19,21],[-2,49],[38,-1]],[[9438,9662],[99,-73],[40,-39],[43,-27]],[[9566,9314],[-63,106],[-65,104]],[[9438,9524],[-2,91],[2,47]],[[9253,8892],[138,0]],[[9780,7838],[135,1],[165,-2]],[[10080,7837],[70,-196],[22,-45],[26,-44],[-7,-18],[42,-111],[103,-297]],[[10336,7126],[61,-173],[27,-50],[8,-85],[30,-1]],[[10448,7410],[-105,3],[-1,-8],[-53,1],[-5,-8],[133,-223],[-81,-49]],[[10080,7837],[-59,158],[-20,59]],[[10850,6728],[-58,57]],[[7049,11164],[856,-1]],[[7905,11163],[-53,-82],[-15,-11],[-45,2],[-4,-5],[0,-66],[5,0],[-1,-211]],[[7792,10790],[-202,0],[0,-7],[-178,-200],[-4,-49],[-11,-32],[-31,-59],[0,-54],[4,-22]],[[11362,1779],[24,-10],[15,8],[69,83],[34,28],[51,75]],[[12459,1795],[-23,7],[-10,19],[-26,21],[-54,-13],[-6,-34],[-32,-34],[-48,21],[-15,-23],[-78,-9],[2,-17],[-12,-20],[-41,-29],[-16,-23],[-23,-56],[-60,15],[-32,-23],[-38,17],[-22,-11],[-42,-1],[-11,-9],[-13,-52],[-11,-9],[-101,2],[-299,1]],[[9374,9732],[3,-25],[61,-45]],[[7905,11163],[91,0]],[[7996,11163],[0,-43],[-21,-1],[0,-118],[11,0],[1,-187],[14,0],[0,-25]],[[8001,10789],[-25,0]],[[7976,10789],[-184,1]],[[8707,8893],[180,0]],[[8521,8554],[2,157]],[[7783,9500],[9,-5],[21,-37],[55,-143]],[[7424,9316],[1,227],[108,1],[17,14],[68,-1],[34,10],[0,-39],[11,-22],[27,-20],[84,5],[9,9]],[[7792,10367],[367,0]],[[8159,10259],[-220,0],[-22,4],[-125,1],[0,103]],[[7976,10789],[0,-211],[185,1]],[[7792,10367],[0,423]],[[8891,9945],[-1,-23],[-1,-192]],[[10385,8129],[-20,24],[-27,20],[-20,-4],[-26,61],[-14,15]],[[10278,8245],[32,56],[43,39],[-2,19],[77,44],[29,24]],[[7868,9315],[106,0]],[[7974,9315],[183,-1]],[[8332,9314],[-3,-38],[0,-114],[-5,-25],[-17,-25]],[[8307,9112],[-23,2],[-299,0],[-8,-4]],[[8525,10790],[0,-212]],[[8161,10579],[-2,56],[1,155]],[[10278,8245],[-30,-45],[-62,-17]],[[11558,2691],[-14,2],[-186,-1]],[[11062,2967],[2,382]],[[11249,3350],[0,-275]],[[11249,3075],[-1,-333],[-20,-34],[2,-10]],[[9254,9485],[0,-65],[-94,2],[-11,-4],[52,-105]],[[9201,9313],[-62,0]],[[7615,9737],[31,-30],[42,-54],[29,-43],[66,-110]],[[7792,10367],[-366,0]],[[8163,8892],[246,1],[114,0]],[[8706,9209],[60,-92],[107,-167],[14,-20]],[[9201,9313],[53,0]],[[9254,9313],[0,-211]],[[9254,9102],[-129,1]],[[9125,9103],[-137,0]],[[8988,9103],[1,131],[46,0],[13,19],[-2,61]],[[8001,10789],[159,1]],[[9125,9103],[0,-67],[8,-18],[2,-86],[-2,-40]],[[8995,8993],[-7,17],[0,93]],[[7974,9315],[0,159],[1,67],[-1,195],[184,-1]],[[9365,9313],[-111,0]],[[8887,8975],[1,339]],[[9628,9212],[-32,-31],[-94,0],[-9,-37]],[[9415,9237],[-50,76]],[[9253,8892],[1,210]],[[11249,3075],[101,0]],[[10471,2343],[26,-5],[37,8],[12,40],[10,12],[37,24],[28,2],[43,-5],[17,-41],[42,1]],[[7426,10155],[252,2],[364,-2],[117,0]],[[8307,9112],[-2,-13],[-1,-128],[7,-14],[56,0],[25,13],[33,1],[27,-14],[32,2],[19,10],[21,-1]],[[7996,11163],[164,0]]],"transform":{"scale":[0.00005258191066824632,0.000034364163396361245],"translate":[-112.493515,40.769093]},"objects":{"Geometry\\49-011":{"type":"GeometryCollection","geometries":[{"arcs":[[0,1,2,3,4]],"type":"Polygon","properties":{"GEOID":"490111257022"}},{"arcs":[[5,6,7,8,9,10,11]],"type":"Polygon","properties":{"GEOID":"490111264022"}},{"arcs":[[12,13,14,15,16]],"type":"Polygon","properties":{"GEOID":"490111267003"}},{"arcs":[[17,18,19]],"type":"Polygon","properties":{"GEOID":"490111260022"}},{"arcs":[[20,21,22,23]],"type":"Polygon","properties":{"GEOID":"490111269012"}},{"arcs":[[24,25,26,27,28,29]],"type":"Polygon","properties":{"GEOID":"490111258051"}},{"arcs":[[30,31,32,33,34,35,36,37]],"type":"Polygon","properties":{"GEOID":"490111262041"}},{"arcs":[[-34,38,39,40]],"type":"Polygon","properties":{"GEOID":"490111262043"}},{"arcs":[[41,42,43,44,45,46]],"type":"Polygon","properties":{"GEOID":"490111259051"}},{"arcs":[[47,-42,48]],"type":"Polygon","properties":{"GEOID":"490111259082"}},{"arcs":[[49,50,-37,51,52]],"type":"Polygon","properties":{"GEOID":"490111262032"}},{"arcs":[[53,54,55,56]],"type":"Polygon","properties":{"GEOID":"490111258072"}},{"arcs":[[57,-56,58,59,60,61,62]],"type":"Polygon","properties":{"GEOID":"490111258071"}},{"arcs":[[63,64,65,66]],"type":"Polygon","properties":{"GEOID":"490111253052"}},{"arcs":[[67,68,69,70]],"type":"Polygon","properties":{"GEOID":"490111253043"}},{"arcs":[[71,72,73,74]],"type":"Polygon","properties":{"GEOID":"490111255032"}},{"arcs":[[75,76,77,78,79,80]],"type":"Polygon","properties":{"GEOID":"490111255011"}},{"arcs":[[-78,81,82]],"type":"Polygon","properties":{"GEOID":"490111255013"}},{"arcs":[[-26,83,84,85,86,87]],"type":"Polygon","properties":{"GEOID":"490111258052"}},{"arcs":[[-60,88,-85,89]],"type":"Polygon","properties":{"GEOID":"490111258053"}},{"arcs":[[90,91,92,93,94,95]],"type":"Polygon","properties":{"GEOID":"490111260011"}},{"arcs":[[96,97,98,99,100,101]],"type":"Polygon","properties":{"GEOID":"490111258041"}},{"arcs":[[102,103,-43,-48]],"type":"Polygon","properties":{"GEOID":"490111259083"}},{"arcs":[[104,105,106,107,108,109,110]],"type":"Polygon","properties":{"GEOID":"490111261054"}},{"arcs":[[111,112,113,114,-108]],"type":"Polygon","properties":{"GEOID":"490111261052"}},{"arcs":[[115,116,117,118]],"type":"Polygon","properties":{"GEOID":"490111263042"}},{"arcs":[[119,120,121,122]],"type":"Polygon","properties":{"GEOID":"490111264052"}},{"arcs":[[123,124,125,126,127,128]],"type":"Polygon","properties":{"GEOID":"490111264042"}},{"arcs":[[129,130,131,-116,132]],"type":"Polygon","properties":{"GEOID":"490111263043"}},{"arcs":[[133,-99,134]],"type":"Polygon","properties":{"GEOID":"490111251043"}},{"arcs":[[135,136,137,138,139,140]],"type":"Polygon","properties":{"GEOID":"490111259061"}},{"arcs":[[-46,141,-141,142,143]],"type":"Polygon","properties":{"GEOID":"490111259054"}},{"arcs":[[144,145,-106]],"type":"Polygon","properties":{"GEOID":"490111261053"}},{"arcs":[[-74,146,147,148,149]],"type":"Polygon","properties":{"GEOID":"490111255031"}},{"arcs":[[-79,-83,150,151,-72,152]],"type":"Polygon","properties":{"GEOID":"490111255012"}},{"arcs":[[153,154,155,156,-100,-134,157,158]],"type":"Polygon","properties":{"GEOID":"490111251042"}},{"arcs":[[159,160,161,162,163,164,-38,-51,165]],"type":"Polygon","properties":{"GEOID":"490111251022"}},{"arcs":[[-70,166,167,168]],"type":"Polygon","properties":{"GEOID":"490111253041"}},{"arcs":[[169,-67,-76,170]],"type":"Polygon","properties":{"GEOID":"490111253053"}},{"arcs":[[-66,171,172,173,-77]],"type":"Polygon","properties":{"GEOID":"490111255022"}},{"arcs":[[174,175,-97,176,-59,-55]],"type":"Polygon","properties":{"GEOID":"490111258044"}},{"arcs":[[177,178,179,180]],"type":"Polygon","properties":{"GEOID":"490111270032"}},{"arcs":[[-128,181,182,183,184]],"type":"Polygon","properties":{"GEOID":"490111264041"}},{"arcs":[[-94,185,186,187,188]],"type":"Polygon","properties":{"GEOID":"490111260014"}},{"arcs":[[-4,189,190]],"type":"Polygon","properties":{"GEOID":"490111257023"}},{"arcs":[[191,192,193,194,195]],"type":"Polygon","properties":{"GEOID":"490111257011"}},{"arcs":[[196,197,198,199]],"type":"Polygon","properties":{"GEOID":"490111258011"}},{"arcs":[[-73,-152,200,201,202,203,204,205,-147]],"type":"Polygon","properties":{"GEOID":"490111256001"}},{"arcs":[[206,-96,207,-199]],"type":"Polygon","properties":{"GEOID":"490111258013"}},{"arcs":[[208,209,210,211]],"type":"Polygon","properties":{"GEOID":"490111258042"}},{"arcs":[[212,-212,213,-101]],"type":"Polygon","properties":{"GEOID":"490111258043"}},{"arcs":[[214,215,216,-192,217,-190]],"type":"Polygon","properties":{"GEOID":"490111257021"}},{"arcs":[[218,219,-117,-132,220]],"type":"Polygon","properties":{"GEOID":"490111263031"}},{"arcs":[[221,-155,222]],"type":"Polygon","properties":{"GEOID":"490111251041"}},{"arcs":[[223,224,-145,-105,225]],"type":"Polygon","properties":{"GEOID":"490111271002"}},{"arcs":[[226,-10,227,228,229,230,231]],"type":"Polygon","properties":{"GEOID":"490111264021"}},{"arcs":[[232,233,234,235,236]],"type":"Polygon","properties":{"GEOID":"490111268022"}},{"arcs":[[237,238,239,240,241]],"type":"Polygon","properties":{"GEOID":"490111265003"}},{"arcs":[[242,243,-232,244,245,246,247,248,-219]],"type":"Polygon","properties":{"GEOID":"490111263051"}},{"arcs":[[249,-5,250,251,-173]],"type":"Polygon","properties":{"GEOID":"490111255021"}},{"arcs":[[252,-17,253,254]],"type":"Polygon","properties":{"GEOID":"490111267001"}},{"arcs":[[-45,255,-209,-213,-157,256,-164,257,-136,-142]],"type":"Polygon","properties":{"GEOID":"490111251021"}},{"arcs":[[258,259,-159,260,261]],"type":"Polygon","properties":{"GEOID":"490111251032"}},{"arcs":[[-177,-102,-214,-211,262,-103,-49,263,-86,-89]],"type":"Polygon","properties":{"GEOID":"490111259071"}},{"arcs":[[-210,-256,-44,-104,-263]],"type":"Polygon","properties":{"GEOID":"490111259081"}},{"arcs":[[-264,-47,-144,264,265]],"type":"Polygon","properties":{"GEOID":"490111259052"}},{"arcs":[[-265,-143,266,267]],"type":"Polygon","properties":{"GEOID":"490111259053"}},{"arcs":[[268,269,270,-69]],"type":"Polygon","properties":{"GEOID":"490111253011"}},{"arcs":[[-271,271,272,-167]],"type":"Polygon","properties":{"GEOID":"490111253012"}},{"arcs":[[273,274,275,-273]],"type":"Polygon","properties":{"GEOID":"490111253013"}},{"arcs":[[-275,276,-1,-250,-172,-65]],"type":"Polygon","properties":{"GEOID":"490111253014"}},{"arcs":[[277,-71,-169,278,279]],"type":"Polygon","properties":{"GEOID":"490111253042"}},{"arcs":[[-95,-189,280,-18,281,282]],"type":"Polygon","properties":{"GEOID":"490111260021"}},{"arcs":[[283,284,285,286,287,288,-224,289,290]],"type":"Polygon","properties":{"GEOID":"490111261011"}},{"arcs":[[-138,291,292,-287]],"type":"Polygon","properties":{"GEOID":"490111261012"}},{"arcs":[[-293,293,-162,294,295,-288]],"type":"Polygon","properties":{"GEOID":"490111261013"}},{"arcs":[[-87,-266,-268,296,-291,297,-186,-93,298]],"type":"Polygon","properties":{"GEOID":"490111260013"}},{"arcs":[[-137,-258,-163,-294,-292]],"type":"Polygon","properties":{"GEOID":"490111261014"}},{"arcs":[[-295,-161,299,300]],"type":"Polygon","properties":{"GEOID":"490111271005"}},{"arcs":[[-300,-160,301,-112,-107,-146,302]],"type":"Polygon","properties":{"GEOID":"490111271004"}},{"arcs":[[-289,-296,-301,-303,-225]],"type":"Polygon","properties":{"GEOID":"490111271001"}},{"arcs":[[-115,303,304,-109]],"type":"Polygon","properties":{"GEOID":"490111261051"}},{"arcs":[[-302,-166,-50,305,-113]],"type":"Polygon","properties":{"GEOID":"490111271003"}},{"arcs":[[-36,306,307,-52]],"type":"Polygon","properties":{"GEOID":"490111262031"}},{"arcs":[[-307,-35,-41,308]],"type":"Polygon","properties":{"GEOID":"490111262042"}},{"arcs":[[-39,-33,309,-130,310]],"type":"Polygon","properties":{"GEOID":"490111263032"}},{"arcs":[[311,312,-311,-133,-119,313,314,315,316,317]],"type":"Polygon","properties":{"GEOID":"490111263041"}},{"arcs":[[-118,-220,-249,318,-314]],"type":"Polygon","properties":{"GEOID":"490111263061"}},{"arcs":[[-319,-248,319,-315]],"type":"Polygon","properties":{"GEOID":"490111263062"}},{"arcs":[[-320,-247,320,321,-316]],"type":"Polygon","properties":{"GEOID":"490111263063"}},{"arcs":[[322,323,324,-125,325]],"type":"Polygon","properties":{"GEOID":"490111264062"}},{"arcs":[[326,327,328,-123,-126,-325]],"type":"Polygon","properties":{"GEOID":"490111264061"}},{"arcs":[[-329,329,330,331,-120]],"type":"Polygon","properties":{"GEOID":"490111264051"}},{"arcs":[[-230,332,-239,333]],"type":"Polygon","properties":{"GEOID":"490111265001"}},{"arcs":[[-245,-231,-334,-238,334]],"type":"Polygon","properties":{"GEOID":"490111265002"}},{"arcs":[[-241,335,336,337,-15]],"type":"Polygon","properties":{"GEOID":"490111265004"}},{"arcs":[[-240,-333,-229,338,339,-336]],"type":"Polygon","properties":{"GEOID":"490111265005"}},{"arcs":[[-322,340,341,342]],"type":"Polygon","properties":{"GEOID":"490111266001"}},{"arcs":[[-341,-321,-246,-335,-242,-14,343]],"type":"Polygon","properties":{"GEOID":"490111266002"}},{"arcs":[[-342,-344,-13,-253,344]],"type":"Polygon","properties":{"GEOID":"490111266003"}},{"arcs":[[-254,345,346,347,348,349]],"type":"Polygon","properties":{"GEOID":"490111267002"}},{"arcs":[[-16,-338,350,-346]],"type":"Polygon","properties":{"GEOID":"490111267004"}},{"arcs":[[-88,-299,-92,-27]],"type":"Polygon","properties":{"GEOID":"490111260012"}},{"arcs":[[351,-339,-228,-9,352]],"type":"Polygon","properties":{"GEOID":"490111268011"}},{"arcs":[[-337,-340,-352,353,354]],"type":"Polygon","properties":{"GEOID":"490111268012"}},{"arcs":[[-354,-353,-8,355,-234,356,-22,357]],"type":"Polygon","properties":{"GEOID":"490111268013"}},{"arcs":[[-356,-7,358,-235]],"type":"Polygon","properties":{"GEOID":"490111268021"}},{"arcs":[[359,-236,-359,-6,-331,360]],"type":"Polygon","properties":{"GEOID":"490111268023"}},{"arcs":[[-351,-355,-358,-21,361]],"type":"Polygon","properties":{"GEOID":"490111269011"}},{"arcs":[[362,-23,-357,-233,363,364,365]],"type":"Polygon","properties":{"GEOID":"490111269013"}},{"arcs":[[366,-347,-362,-24,-363,367]],"type":"Polygon","properties":{"GEOID":"490111269014"}},{"arcs":[[-348,-367,368]],"type":"Polygon","properties":{"GEOID":"490111269015"}},{"arcs":[[369,370,-349,-369,371,372]],"type":"Polygon","properties":{"GEOID":"490111269016"}},{"arcs":[[-364,-237,-360,373,374]],"type":"Polygon","properties":{"GEOID":"490111269021"}},{"arcs":[[-365,-375,375,376]],"type":"Polygon","properties":{"GEOID":"490111269022"}},{"arcs":[[377,-376,-374,-361,-330,-328]],"type":"Polygon","properties":{"GEOID":"490111269023"}},{"arcs":[[-326,-124,378]],"type":"Polygon","properties":{"GEOID":"490111270021"}},{"arcs":[[-317,-343,-345,379]],"type":"Polygon","properties":{"GEOID":"490111270031"}},{"arcs":[[380,-318,-380,-255,-350,381,382,383,384,-181,385,386]],"type":"Polygon","properties":{"GEOID":"490111270033"}},{"arcs":[[387,388,389,390,-312,-381,391,392]],"type":"Polygon","properties":{"GEOID":"490111262062"}},{"arcs":[[393,-262,394,-175,-54,395,396,397,398,399,-2,-277,-274,-272,-270]],"type":"Polygon","properties":{"GEOID":"490119800001"}},{"arcs":[[400,401,402,-388,403]],"type":"Polygon","properties":{"GEOID":"490111261082"}},{"arcs":[[404,-402,405]],"type":"Polygon","properties":{"GEOID":"490111261071"}},{"arcs":[[406,407,408,409,410,411,412,-404,-393,413]],"type":"Polygon","properties":{"GEOID":"490111254112"}},{"arcs":[[414,415,416,417,418,419,-407]],"type":"Polygon","properties":{"GEOID":"490111254082"}},{"arcs":[[420,-223,-154,-260]],"type":"Polygon","properties":{"GEOID":"490111251033"}},{"arcs":[[-386,421,422,423,-179,424,425,426,-373,427,-323,-379,-129,-185,428]],"type":"Polygon","properties":{"GEOID":"490111270024"}},{"arcs":[[429,430,-425,-178,-385]],"type":"Polygon","properties":{"GEOID":"490111270052"}},{"arcs":[[431,432,433,434,435,436,-412,437]],"type":"Polygon","properties":{"GEOID":"490111254151"}},{"arcs":[[438,-399,439,440,-216]],"type":"Polygon","properties":{"GEOID":"490111252012"}},{"arcs":[[441,442,-206,443,444,445,446]],"type":"Polygon","properties":{"GEOID":"490111254131"}},{"arcs":[[447,448,449,450,451,-410]],"type":"Polygon","properties":{"GEOID":"490111254111"}},{"arcs":[[452,-308,453,-390,454,455]],"type":"Polygon","properties":{"GEOID":"490111262051"}},{"arcs":[[-454,-309,-40,-313,-391]],"type":"Polygon","properties":{"GEOID":"490111262061"}},{"arcs":[[-32,456,-243,-221,-131,-310]],"type":"Polygon","properties":{"GEOID":"490111263033"}},{"arcs":[[-261,-158,-135,-98,-176,-395]],"type":"Polygon","properties":{"GEOID":"490111251031"}},{"arcs":[[-397,457,-63,458,459]],"type":"Polygon","properties":{"GEOID":"490111258093"}},{"arcs":[[460,-459,-62,-30,461,462]],"type":"Polygon","properties":{"GEOID":"490111258102"}},{"arcs":[[-437,463,-282,-20,-406,-401,-413]],"type":"Polygon","properties":{"GEOID":"490111260023"}},{"arcs":[[464,465,466,-455,-389,-403]],"type":"Polygon","properties":{"GEOID":"490111261081"}},{"arcs":[[-187,-298,-290,-226,-111,467,-466,468]],"type":"Polygon","properties":{"GEOID":"490111261062"}},{"arcs":[[-114,-306,-53,-453,469,-304]],"type":"Polygon","properties":{"GEOID":"490111262052"}},{"arcs":[[470,471,472,-416]],"type":"Polygon","properties":{"GEOID":"490111253074"}},{"arcs":[[473,-121,-332,-12,474,-183]],"type":"Polygon","properties":{"GEOID":"490111264043"}},{"arcs":[[-441,475,-463,-193,-217]],"type":"Polygon","properties":{"GEOID":"490111258101"}},{"arcs":[[476,477,478,479,-472]],"type":"Polygon","properties":{"GEOID":"490111253062"}},{"arcs":[[-446,480,-438,-411,-452,481]],"type":"Polygon","properties":{"GEOID":"490111254132"}},{"arcs":[[482,-448,-409,483]],"type":"Polygon","properties":{"GEOID":"490111254081"}},{"arcs":[[484,-81,485]],"type":"Polygon","properties":{"GEOID":"490111254071"}},{"arcs":[[-480,486,-171,-485,487]],"type":"Polygon","properties":{"GEOID":"490111253071"}},{"arcs":[[-19,-281,-188,-469,-465,-405]],"type":"Polygon","properties":{"GEOID":"490111261072"}},{"arcs":[[-82,-174,-252,488,-201,-151]],"type":"Polygon","properties":{"GEOID":"490111255023"}},{"arcs":[[-139,-286,489,490]],"type":"Polygon","properties":{"GEOID":"490111259064"}},{"arcs":[[491,492,-149,493,494,-449]],"type":"Polygon","properties":{"GEOID":"490111254091"}},{"arcs":[[-279,495,-170,496]],"type":"Polygon","properties":{"GEOID":"490111253054"}},{"arcs":[[-297,-267,-140,-491,497,-284]],"type":"Polygon","properties":{"GEOID":"490111259062"}},{"arcs":[[-372,-368,-366,-377,498]],"type":"Polygon","properties":{"GEOID":"490111269025"}},{"arcs":[[-499,-378,-327,-324,-428]],"type":"Polygon","properties":{"GEOID":"490111269024"}},{"arcs":[[499,-383,500,501,-426,-431]],"type":"Polygon","properties":{"GEOID":"490111270061"}},{"arcs":[[-490,-285,-498]],"type":"Polygon","properties":{"GEOID":"490111259063"}},{"arcs":[[-400,-439,-215,-3]],"type":"Polygon","properties":{"GEOID":"490111252011"}},{"arcs":[[-251,-191,-218,-196,502,503,-202,-489]],"type":"Polygon","properties":{"GEOID":"490111257013"}},{"arcs":[[504,-484,-408,-420]],"type":"Polygon","properties":{"GEOID":"490111254083"}},{"arcs":[[-488,505,-417,-473]],"type":"Polygon","properties":{"GEOID":"490111253072"}},{"arcs":[[506,-447,-482,-451]],"type":"Polygon","properties":{"GEOID":"490111254101"}},{"arcs":[[507,-432,-481,-445]],"type":"Polygon","properties":{"GEOID":"490111254121"}},{"arcs":[[-203,-504,508,509,510,511,512]],"type":"Polygon","properties":{"GEOID":"490111254141"}},{"arcs":[[-479,513,-497,-487]],"type":"Polygon","properties":{"GEOID":"490111253073"}},{"arcs":[[-512,514,-435,515]],"type":"Polygon","properties":{"GEOID":"490111254143"}},{"arcs":[[-75,-150,-493,516]],"type":"Polygon","properties":{"GEOID":"490111254072"}},{"arcs":[[-195,517,-509,-503]],"type":"Polygon","properties":{"GEOID":"490111257012"}},{"arcs":[[-110,-305,-470,-456,-467,-468]],"type":"Polygon","properties":{"GEOID":"490111261061"}},{"arcs":[[-204,-513,-516,-434,518]],"type":"Polygon","properties":{"GEOID":"490111254152"}},{"arcs":[[-194,-462,-29,519,-197,520]],"type":"Polygon","properties":{"GEOID":"490111258015"}},{"arcs":[[-510,-518,-521,-200,-208,-283,-464,521]],"type":"Polygon","properties":{"GEOID":"490111258012"}},{"arcs":[[-396,-57,-58,-458]],"type":"Polygon","properties":{"GEOID":"490111258091"}},{"arcs":[[-122,-474,-182,-127]],"type":"Polygon","properties":{"GEOID":"490111264044"}},{"arcs":[[522,-370,-427,-502]],"type":"Polygon","properties":{"GEOID":"490111270063"}},{"arcs":[[-511,-522,-436,-515]],"type":"Polygon","properties":{"GEOID":"490111254142"}},{"arcs":[[523,-423]],"type":"Polygon","properties":{"GEOID":"490111270023"}},{"arcs":[[-440,-398,-460,-461,-476]],"type":"Polygon","properties":{"GEOID":"490111258092"}},{"arcs":[[-28,-91,-207,-198,-520]],"type":"Polygon","properties":{"GEOID":"490111258014"}},{"arcs":[[-180,-424,-524,-422]],"type":"Polygon","properties":{"GEOID":"490111270022"}},{"arcs":[[-382,-371,-523,-501]],"type":"Polygon","properties":{"GEOID":"490111270062"}},{"arcs":[[-205,-519,-433,-508,-444]],"type":"Polygon","properties":{"GEOID":"490111254122"}},{"arcs":[[-500,-430,-384]],"type":"Polygon","properties":{"GEOID":"490111270051"}},{"arcs":[[524,-153,-517,-492,-483,-505,-419]],"type":"Polygon","properties":{"GEOID":"490111254073"}},{"arcs":[[-495,525,-442,-507,-450]],"type":"Polygon","properties":{"GEOID":"490111254102"}},{"arcs":[[-168,-276,-64,-496]],"type":"Polygon","properties":{"GEOID":"490111253051"}},{"arcs":[[526,-280,-514,-478]],"type":"Polygon","properties":{"GEOID":"490111253061"}},{"arcs":[[-494,-148,-443,-526]],"type":"Polygon","properties":{"GEOID":"490111254092"}},{"arcs":[[-61,-90,-84,-25]],"type":"Polygon","properties":{"GEOID":"490111258054"}},{"arcs":[[-506,-486,-80,-525,-418]],"type":"Polygon","properties":{"GEOID":"490111254074"}}]}}}