{"type":"Topology","arcs":[[[8864,4962],[312,297],[63,57],[143,139],[43,29],[81,33]],[[9506,5517],[167,65],[72,31]],[[9745,5613],[30,-131],[27,-65],[83,-140]],[[9885,5277],[-33,-34],[-199,-168],[-111,-89],[-124,-129],[-157,-184]],[[9261,4673],[-33,-34],[-343,271],[-21,52]],[[6066,9349],[31,3],[45,-21],[71,-58],[40,2],[67,34],[13,13],[18,36],[106,104],[59,87],[90,139],[46,100],[35,53],[50,24],[36,26],[76,47],[60,28],[14,13]],[[6923,9979],[99,-24],[43,5],[112,44],[33,8],[57,0],[32,-5],[131,-46],[26,-2],[76,15],[21,0],[47,-12],[30,-21],[12,-29],[-7,-28],[5,-35],[10,-26],[23,-33],[10,-54]],[[7683,9736],[-3,-25],[28,-44],[23,-20],[22,-1],[31,-23],[2,-25],[29,-27],[22,-6],[17,-22],[30,-19],[13,-15],[15,-50],[2,-41],[-13,-34],[15,-34],[50,-25],[33,-40],[32,-24],[10,-17],[6,-36],[18,-7]],[[8065,9201],[-14,-25],[-46,-54],[-10,-17],[-26,-117],[-19,-62],[-14,-17],[-49,-36],[-48,-16],[-61,-15],[-25,5],[-40,23],[-26,2],[-45,-17],[-20,-17],[-30,-53],[-71,-85],[-55,-47],[-69,-21],[-60,-32],[-19,-31],[-10,-34],[-19,-111],[-5,-16],[-45,-85],[-57,-79],[-9,-23],[-15,-105],[12,-44],[-10,-47],[-81,-120],[-39,-70],[-26,-70]],[[7014,7765],[-26,-22],[-31,-8]],[[6957,7735],[-20,21],[-15,31],[-27,36],[-30,80],[-48,75],[-30,32],[-15,24],[-38,81],[-16,56],[-21,29],[-39,25],[-24,32],[-5,62],[-19,5],[-29,-8],[-41,-39],[-11,-20],[6,-28],[-11,-10],[-40,16],[-27,5],[-58,-2],[-36,-13],[-18,-25],[-42,-28],[-32,9],[-43,60],[-63,43],[-9,13],[-17,52],[-33,82],[2,10],[43,25],[-22,114],[8,16],[38,-14],[59,52],[50,33],[73,59],[46,23],[14,39],[-29,13],[-43,-3],[-48,36],[-51,15],[-26,22],[-43,12],[-40,6],[-41,-3],[-12,18],[8,22],[-7,34],[28,69],[26,37],[5,28],[-19,33],[-58,52],[-1,57],[-31,31]],[[6035,9267],[14,18],[-8,14],[4,25],[21,25]],[[10135,6785],[10,-9],[106,-71],[26,-13],[34,-7],[26,-16],[53,-54],[18,-12],[-1,-17],[20,-42],[6,-42],[-13,-69],[-19,-37],[4,-31],[18,-52],[-5,-66],[11,-32],[17,-17],[7,-24],[1,-54],[4,-28],[-1,-36],[-32,-149],[-4,-77],[-6,-57],[6,-42],[32,5],[1,-39],[-4,-30],[44,30],[53,28],[18,31],[27,8],[46,57],[62,12],[57,25],[44,29],[20,23],[11,-15],[10,-234],[-3,-217],[12,-50],[4,-77],[25,-87],[10,-21],[61,-63],[42,-63],[27,-24],[240,-197],[19,-13],[122,-66],[-85,-23],[-626,-167]],[[10690,4593],[-47,122],[-25,45],[-47,54],[-45,37],[-43,26],[-35,15],[-261,92],[-53,24],[-45,29],[-75,59],[-44,44],[-27,37],[-58,100]],[[9745,5613],[-37,161],[-31,85],[-100,224],[-40,68],[-37,45],[-57,56],[-175,148]],[[9268,6400],[11,3],[25,-21],[117,75],[94,44],[37,15],[38,1],[36,-9],[26,3],[106,36],[65,9],[71,45],[129,114],[26,21],[86,49]],[[8337,3868],[208,423],[25,48],[232,421],[25,52],[16,74],[0,58],[21,18]],[[9261,4673],[174,-70],[121,-19],[18,-1],[100,10],[22,-23],[5,-23],[-118,-200],[-34,-70],[-80,-62],[-234,-175],[-57,-40],[-47,-21],[-129,-49],[-274,-120],[-19,32],[-26,-20],[-88,-8],[-16,-23],[-20,6]],[[8559,3797],[-16,35],[-9,36],[-23,39],[-23,10],[-51,-14],[-33,-26],[-36,-15],[-31,6]],[[5617,19252],[8,-93],[-73,11],[-165,2],[-267,-1],[-60,6],[-39,10],[-81,30],[-40,-146],[-8,-71],[0,-315],[-9,-96],[-25,-83],[-58,-137],[-16,-53],[-4,-43],[4,-45],[24,-68],[222,-379],[29,-60],[67,-175],[63,-155],[24,-67],[143,-530],[30,-77],[76,-134],[35,-52],[64,-73],[26,-33],[20,-54],[9,-56],[20,-54],[114,-241],[21,-36],[53,-75],[29,-60],[19,-99],[29,-69],[99,-172],[27,-69],[10,-50],[12,-143],[22,-64],[28,-37],[33,-30],[199,-136],[160,-111]],[[6491,14869],[-19,-14],[-316,-150],[-29,-10],[-33,-3],[-208,3],[-130,5],[-57,-4],[-57,3],[-29,-22],[-20,-8],[-70,-15],[-47,-15],[-15,-11],[-29,-38],[-45,-45],[-54,-38],[-11,-12],[-34,-84],[-106,-314],[-23,-56],[-9,-42],[-38,-116],[-85,-248],[-273,-114],[-33,-7],[-60,4],[-43,19],[-36,27],[-159,131],[-14,10],[-45,12],[-427,25],[-60,-7],[-228,-71],[-37,-4],[-95,13],[-24,17],[-134,85],[-25,4],[-219,-11],[-70,-11],[-26,-11],[-13,-17],[-213,-221],[-43,-33],[-55,-32],[-67,-23],[-39,-1],[-151,26],[-56,3],[-122,-15],[-17,12],[-20,28],[-48,-1],[-44,25],[-20,5],[-67,-7],[-49,1],[-54,-10],[-16,4],[-16,22],[-13,37],[-30,51],[-54,46],[-38,49],[-36,58],[-34,30],[-59,40],[-41,20],[-66,18],[-34,3],[-28,31],[-31,16],[-88,6],[-30,10],[-45,-7],[-39,-14],[-32,-3],[-55,15],[-106,-10],[-47,-17],[-130,-23],[-65,3],[-39,8],[-50,-7],[-38,-10]],[[681,13862],[-1,18],[-16,19],[-20,63],[3,21],[-11,28],[-26,10],[-22,23],[-15,0],[-24,15],[7,15],[-14,20],[-45,15],[-10,18],[-32,11],[-9,46],[-40,22],[-6,13],[-3,46],[-9,10],[-16,55],[-33,48],[-24,7],[-35,24],[-13,22],[-24,25],[-7,50],[-24,39],[5,27],[-16,29],[7,15],[-8,35],[9,19],[-9,54],[7,32],[-138,-19],[-50,-1],[-19,84],[3,23],[29,59],[29,34],[28,-1],[17,32],[25,30],[68,29],[180,87],[78,12],[45,69],[8,44],[280,-42],[184,25],[27,42],[25,93],[27,51],[32,13],[62,-9],[61,4],[45,9],[83,5],[50,-1],[17,10],[37,38],[47,-54],[57,17],[13,144],[129,37],[-9,27],[35,-18],[-10,-31],[19,-18],[22,13],[43,8],[26,-1],[50,12],[-3,155],[-11,7],[15,107],[-26,13],[-39,1],[8,32],[-176,52],[-45,11],[9,47],[-94,71],[1,14],[-16,29],[19,130],[60,61],[54,82],[33,7],[31,72],[35,29],[91,117],[0,23],[-14,20],[-8,58],[18,41],[39,43],[11,20],[40,41],[41,33],[90,12],[68,32],[45,57],[55,10],[153,52],[30,17],[28,-2],[54,56],[14,52],[-1,54],[17,12],[24,81],[17,40],[49,32],[12,53],[59,28],[92,-18],[13,33],[30,30],[11,51],[-8,21],[16,46],[71,33],[18,32],[4,28],[31,30],[15,44],[17,18],[25,86],[47,23],[28,42],[-9,100],[12,64],[68,12],[13,23],[30,14],[86,77],[42,50],[24,19],[46,61],[32,11],[44,53],[12,22],[4,51],[32,38],[25,5],[71,61],[23,40],[54,75],[69,77],[44,27],[8,22],[-22,47],[12,34],[34,34],[49,25],[21,23],[48,37],[89,72],[23,12],[61,6],[39,-13],[31,8],[34,18],[30,42],[38,31],[38,13],[35,21],[94,67],[15,20],[63,134],[10,8],[1086,-302]],[[9660,12401],[50,64],[141,225],[308,489],[26,28],[27,17],[36,12],[192,30],[37,-1],[79,-33],[33,-2],[30,20],[35,54],[10,32],[24,34],[5,25],[25,30],[32,-4],[22,16],[41,5],[24,-10],[40,13],[25,-5],[22,-15],[17,7],[10,55],[209,-64],[50,-11],[82,-6]],[[11292,13406],[347,-627],[460,-834]],[[12099,11945],[-252,-124],[-83,-40],[-249,-115],[-33,-13],[-172,-48],[-208,-52]],[[11102,11553],[-43,-3],[-81,7],[-45,-4],[-52,-23],[-276,-172],[-68,-46],[-38,-33],[-265,-240]],[[10234,11039],[-60,82],[-78,101],[-60,88],[-7,17],[-28,97],[-25,96],[-48,10],[-2,54],[-12,25],[16,73],[-14,11],[7,75],[-5,70],[-27,23],[-39,23],[-40,16],[-13,23],[-16,56],[-28,12],[-23,17],[-1,38],[7,27],[-2,23],[-26,29],[-45,18],[-28,0],[-40,57],[-1,23],[46,96],[18,82]],[[9261,12047],[78,154],[31,39],[49,32],[166,79],[33,17],[42,33]],[[10234,11039],[-197,-178],[-79,-73],[-186,-168]],[[9772,10620],[-286,-255],[-39,-37]],[[9447,10328],[-35,-26],[-36,-16],[-22,-4],[-44,2],[-126,15],[-60,5]],[[9124,10304],[-1,58],[17,48],[6,44],[-2,51],[-12,67],[3,29],[37,80],[8,25],[15,13],[24,50],[3,67],[15,12],[7,47],[53,115],[20,31],[-2,17],[57,131],[53,132],[1,21],[-21,76],[-15,65],[-7,80],[29,212],[1,31],[-59,58],[-22,12],[-12,19],[7,77],[-17,34],[-7,34],[-42,7]],[[5040,13030],[86,114],[70,82],[130,120],[47,76],[102,186],[40,77],[21,31],[259,185],[45,28],[31,35],[116,169],[61,103],[27,60],[13,37],[37,51],[42,43],[37,63],[16,16],[38,25],[148,77],[89,30],[71,18],[35,17],[30,4],[114,-19],[20,-8],[71,-47],[47,-22],[63,-24],[37,-23],[53,-42],[5,2],[24,63]],[[7065,14557],[88,-29],[94,-18],[45,-3],[74,2],[332,21]],[[7698,14530],[111,-91],[28,-24],[67,-70],[51,-47],[97,-104],[49,-58],[30,-42],[40,-69],[94,-211],[35,-48],[29,-26],[46,-33],[39,-41],[23,-42],[10,-29],[5,-42],[-14,-104],[14,-61],[58,-136],[12,-51],[17,-352],[-12,-58],[-121,-223],[-37,-84],[-35,-145],[-47,-115],[-71,-203],[-8,-30],[0,-30],[32,-173],[8,-23],[44,-84],[24,-34],[40,-32],[112,-62],[41,-36],[22,-39],[8,-32]],[[8539,11446],[-3,-53],[-51,-252],[-4,-24]],[[8481,11117],[-87,-12],[-20,3],[-65,33],[-49,12],[-42,-15],[-58,3],[-83,54],[-20,22],[-18,8],[-72,20],[-25,-53],[-68,-62],[-14,2],[-63,46],[-108,51],[-10,-7],[-125,-194],[-46,-80],[-129,-198],[-30,2],[-117,137],[-25,-7],[-51,-68],[-79,-102]],[[7077,10712],[-5,32],[-56,140],[-22,37],[-41,43],[-25,9],[-62,-11],[-22,-9],[-45,-28],[-58,-25],[-120,-36],[-37,3],[-18,17],[-24,43],[-29,35],[-25,57],[-31,37],[-12,28],[6,52],[-11,37],[-46,65],[-3,45],[-6,23],[-26,35],[-33,30],[-16,22],[-53,141],[-30,39],[-22,35],[-46,55],[-16,31],[-39,101],[-37,84]],[[6067,11879],[-22,48],[-22,38],[-47,47],[-56,34],[-22,27],[-11,39],[-12,18],[-45,37],[-12,18],[-2,70],[3,33],[-6,37],[-6,167],[-19,40],[-21,22],[-77,47],[-23,6],[-73,10],[-51,19],[-178,97],[-18,12],[-191,174],[-116,111]],[[8065,9201],[57,150],[17,21],[69,41],[38,11],[30,-2],[83,-18],[102,-35],[10,2],[41,28],[33,31],[50,31],[18,5],[61,3],[-4,-37],[14,-102],[-5,-78],[1,-27],[25,-132],[44,-149],[23,-131],[8,-14],[203,-59],[231,-69],[4,-3]],[[9218,8668],[-12,-27],[-40,-49],[-79,-86],[-19,-26],[-20,-50],[-141,-414],[-42,-91],[-53,-133],[-52,-150],[-6,-29],[0,-56]],[[8754,7557],[-37,0],[-64,-15],[-58,-38],[-17,-19],[-13,-35],[-34,-114],[-25,-49],[-24,-54],[-24,-47],[-53,-85],[-217,231],[-42,34],[-26,12],[-274,100],[-24,4],[-49,-5],[-279,-47],[-52,3],[-24,11],[-61,44],[-53,48],[-74,72],[-28,23],[-127,74],[-61,60]],[[12572,3762],[85,-95],[45,-82],[19,-49],[10,-40],[6,-46],[177,57],[14,-5],[15,-27],[14,-7],[9,-25],[31,-17],[58,-63],[20,-6],[15,-19],[-1,-43],[-27,-31],[-2,-32],[10,-43],[3,-53],[-4,-20],[25,-15],[43,-43],[-12,-12],[-6,-38],[-22,-43],[10,-20],[-9,-29],[10,-63],[18,-19],[51,-41],[16,-49],[13,-8],[-30,-40],[-30,-7],[-15,-39],[4,-16],[-12,-40],[15,-15],[21,9],[15,-19],[-27,-31],[11,-44],[19,-16],[50,7],[33,-30],[34,-14],[6,-17],[28,-20],[6,-28],[-15,-17],[-13,-36],[4,-31],[-40,-57],[31,-18],[-9,-18],[-26,-9],[-13,-30],[19,-39],[-9,-22],[-14,-58],[25,-23],[63,-31],[-17,-48],[21,-19],[-15,-42],[6,-22]],[[13332,1856],[-7,-17],[-5,-71],[18,-29],[32,-5],[13,-19],[-12,-22],[-42,-19],[25,-28],[21,-2],[22,-26],[3,-37],[-12,-34],[-5,-41],[24,-45],[19,-10],[12,-34],[30,-32],[-3,-27],[18,-54],[-22,-2],[-27,-16],[-6,-44],[14,-35],[-2,-17],[-32,-30],[-39,3],[-43,-10],[9,-36],[-9,-58],[62,-46],[0,-21],[20,-17],[22,-7],[32,-22],[5,-15],[-1,-81],[-5,-22],[23,-52],[-15,-27],[10,-14],[-8,-17],[1,-34],[-10,-11]],[[13462,673],[-55,31],[-32,23],[-157,130],[-49,45],[-40,43],[-35,31],[-230,178],[-38,34],[-59,68],[-117,153],[-31,37],[-120,136],[-62,60],[-195,169],[-84,61],[-34,36],[-25,48],[-12,49],[-8,103],[0,62],[3,156],[-5,49],[-16,50],[-110,267],[-51,91],[-57,77],[-36,37],[-43,37]],[[11764,2934],[-57,39],[-52,28],[-230,113],[-48,30]],[[11377,3144],[-5,37],[7,15],[42,57],[13,45],[30,43],[93,104],[23,22],[52,1],[191,78],[78,41],[46,13],[101,1],[2,22],[36,34],[101,78],[117,69],[25,25],[87,-45],[50,-35],[45,-25],[17,4],[44,34]],[[2767,11320],[62,45],[60,9],[32,19],[38,9],[91,5],[52,20],[117,69],[92,115],[125,178],[24,40],[21,19],[357,175],[72,37],[43,62],[49,86],[22,34],[85,66],[40,48],[45,69],[24,27],[31,19],[26,37],[26,25],[207,173],[60,30],[44,5],[32,-12],[31,-1],[37,21],[82,102],[13,8],[77,32],[86,47],[21,18],[49,74]],[[6067,11879],[-29,-44],[-10,-4],[-41,11],[-21,-10],[-31,-39],[-28,-55],[-16,-45],[-8,-54],[-26,-43],[1,-60],[20,-50],[31,-48],[-3,-37],[-84,-62],[-51,-51],[-20,-7],[-45,8],[-21,-1],[-46,17],[-20,16],[-35,10],[-21,-11],[-84,58],[-76,45],[-18,24],[-36,60],[-44,44],[-63,12],[-80,29],[-28,7],[-70,27],[-178,56],[-13,6],[-46,-123],[-16,-28],[-59,-52],[-48,-46],[-37,-29],[-34,-57],[-91,-189],[-37,-52],[-18,-8],[11,-37],[24,-37],[39,-126],[13,-50],[0,-62],[11,-40],[192,-251],[44,-49],[34,-27],[73,-51],[37,-50],[29,-56],[48,-48],[77,-99],[40,-69],[4,-62],[31,-49],[41,-38],[61,-8],[115,-90],[40,-17],[46,-13],[30,-18],[139,-50],[36,-34],[95,-64],[27,-61],[22,-27],[34,-29],[25,-63],[12,-18],[23,-15],[70,-17],[40,-25],[16,-5]],[[6035,9267],[-9,6],[-54,8],[-21,-4],[-6,36],[-18,4],[-32,-29],[-25,7],[-29,27],[-23,10],[-55,7],[-68,-2],[-41,-16],[-33,15],[-21,-16],[-57,4],[-60,26],[-26,18],[-36,-3],[-43,-18],[-21,0],[-13,-17],[3,-16],[29,-36],[-3,-16],[-65,-22],[-18,4],[-105,55],[-39,38],[-33,11],[-19,-2],[-25,12],[-23,-14],[-11,-35],[-17,-31],[-70,-21],[-27,19],[-11,46],[-16,12],[-67,13],[-15,-8],[-13,-34],[-18,-63],[-45,-10],[-21,6],[-48,27],[-24,25],[-52,31],[-39,7],[-17,37],[-14,4],[-47,-8],[-79,38],[-23,1],[-53,26],[-13,14],[-24,9],[-19,50],[-21,16],[-25,-1],[-38,-13],[-17,4],[-17,23],[-48,-1],[-44,36],[-41,26],[-28,5],[-13,22],[-20,5],[-20,27],[-69,27],[-54,6],[-52,24],[-106,22],[-23,24],[2,19],[-7,29],[-26,38],[-20,45],[-53,27],[-22,23],[-15,38],[-16,12],[-53,14],[-25,16],[-59,16],[-8,19],[-48,89],[-48,39],[-11,15],[-42,19],[-54,-1],[-9,17],[20,51],[21,7],[57,-2],[26,-6],[38,11],[48,-8],[16,3],[18,21],[3,35],[-11,7],[-41,8],[-42,2],[6,42],[10,1],[69,45],[5,13],[-35,8],[-23,-18],[-34,20],[-38,-8],[-31,-1],[-26,17],[-9,37],[-2,39],[6,11],[41,30],[3,11],[-60,93],[-35,-7],[-42,0],[-35,-14],[-30,30],[-4,33],[9,27],[67,43],[23,119],[-8,24],[-34,-15],[-37,27],[-12,26],[32,82],[28,54],[8,25],[-38,48],[-21,4],[-33,-39],[-42,-11],[-40,18],[-10,21],[-35,-24],[-42,28],[-4,25],[-14,30],[-34,13],[16,22],[-14,37]],[[6491,14869],[102,-70]],[[6593,14799],[165,-113],[52,-32],[55,-27],[70,-27],[130,-43]],[[2767,11320],[11,59],[23,43],[-3,66],[20,48],[25,8],[27,55],[21,19],[-1,19],[23,33],[-1,21],[-13,29],[-25,20],[-44,53],[-21,20],[16,45],[-8,25],[35,24],[14,-1],[-1,-27],[23,-23],[34,11],[2,12],[34,-3],[8,20],[29,23],[-32,28],[-19,0],[-20,39],[7,47],[-77,18],[-20,-7],[-38,7],[-19,15],[6,38],[-7,25],[-18,18],[-2,28],[-15,5],[-15,27],[12,35],[16,12],[30,-10],[20,17],[-20,32],[-9,27],[-36,6],[-28,35],[-17,41],[-12,2],[-15,23],[7,15],[28,-2],[69,17],[28,0],[18,8],[10,19],[-5,23],[-32,0],[-25,35],[-40,6],[-58,53],[-33,21],[-25,4],[-12,11],[-47,8],[-38,-7],[-19,-11],[-31,-39],[-48,-1],[-19,-18],[-38,-17],[-16,4],[-7,18],[30,69],[-29,20],[-50,8],[-34,30],[-25,-4],[-9,-41],[9,-12],[10,-42],[-5,-13],[-59,21],[-23,0],[-24,20],[-1,30],[33,55],[11,6],[8,36],[-14,49],[-34,14],[-12,30],[-16,-2],[-56,64],[-34,16],[-25,18],[-9,20],[-66,40],[-46,42],[-70,5],[-26,-4],[-20,32],[9,42],[-46,41],[-44,23],[-18,15],[-84,13],[-25,8],[-4,29],[-45,41],[-40,30],[-39,70],[-43,31],[-24,23],[-27,5],[-22,-27],[-32,-6],[-18,19],[-33,21],[-33,3],[-33,35],[-39,51],[-45,8],[-75,0],[-10,16],[12,16],[-13,12],[-28,-12],[-23,0],[-29,25],[-25,11],[-27,-4],[-31,34],[12,24],[-10,18],[-40,18],[-14,1],[-16,21],[-10,41],[-24,42],[-31,43]],[[8863,3274],[42,13],[264,60],[12,7],[65,64],[20,-13],[110,-55],[48,-31],[24,-32],[42,-114],[24,-53],[52,5],[26,8],[43,23],[52,20],[51,15],[112,2],[37,12],[27,16],[276,223],[25,16],[118,58],[124,68],[123,70],[33,29],[57,63],[25,18],[43,5],[105,-25],[24,5]],[[10867,3751],[260,-398],[38,-48],[51,-46],[161,-115]],[[11764,2934],[-17,-15],[-58,-21],[-44,-6],[-62,-17],[-130,-20],[-208,-45],[-303,-561],[-192,-425],[-62,-64],[-445,-849],[-32,-357]],[[10211,554],[-16,3],[-61,38],[-51,47],[-29,48],[-3,30],[-15,31],[-85,97],[-37,92],[-12,41],[-3,39],[24,105],[13,38],[0,23],[-31,135],[-3,72],[11,53],[9,127],[-19,21],[-42,18],[-141,64],[-36,20],[-62,6],[-54,29],[-30,29],[-35,54],[-30,71],[-10,39],[5,23],[21,26],[32,21],[19,20],[12,28],[-12,30],[-53,63],[-58,28],[-19,22],[-15,36],[3,33],[-5,91],[-12,52],[-24,47],[1,23],[18,74],[-11,24],[-26,11],[-26,-3],[-56,-24],[-47,-7],[-18,20],[0,24],[21,63],[3,28],[-11,25],[-31,21],[-35,13],[-39,23],[-41,34],[-54,56],[-44,29],[-23,25],[-16,27],[-59,70],[-15,28],[-5,24],[0,116],[5,41],[10,26],[5,39]],[[8507,5989],[154,79],[140,70],[66,25],[73,45],[65,46],[64,26],[112,60],[58,33],[29,27]],[[9506,5517],[-18,18],[-52,-3],[-102,12],[-77,17],[-154,11],[-49,-2],[-176,-13],[-67,-2],[-37,70],[-46,74],[-36,51],[-102,191],[-13,12],[-70,36]],[[8754,7557],[7,-36],[89,-248],[10,-52],[5,-382],[24,-9],[40,-31],[21,-25],[60,-107],[43,-63],[37,-39],[178,-165]],[[8507,5989],[-267,139],[-101,53],[-154,78],[-81,44],[-12,18],[-21,51],[-22,34],[-15,65],[-10,25],[-33,49],[-23,17],[-62,17],[-42,26],[-51,21],[-43,0],[-56,7],[-58,20],[-71,18],[-30,17],[-11,29],[8,66],[-92,8]],[[7260,6791],[13,34],[-3,19],[-18,23],[-36,16],[-36,-14],[-39,3],[-44,38],[-56,10],[-18,23],[-25,71],[-19,87],[-18,32],[11,13],[25,6],[14,16],[2,34],[-11,9],[-63,-4],[-44,-22],[-44,-2],[-30,-19],[-25,21],[-6,48],[9,38],[-14,16],[-41,21],[-25,46],[3,14],[38,36],[21,14],[26,4],[22,11],[57,5],[25,11],[7,39],[11,28],[-31,60],[1,22],[25,-1],[20,12],[19,27],[-12,40],[11,41],[-5,18]],[[10690,4593],[12,-50],[103,-643],[15,-62],[14,-32],[33,-55]],[[8863,3274],[-9,50],[-39,59],[-37,48],[-33,35],[-36,49],[-53,101],[-75,97],[-9,15],[-13,69]],[[9218,8668],[7,57],[-9,146],[8,87],[-26,26],[-27,80],[-3,75],[5,32],[32,81],[3,67],[-6,31]],[[9202,9350],[12,18],[12,120],[-3,12]],[[9223,9500],[55,-29],[53,-48],[67,-80],[40,-24],[19,-1],[49,14],[29,23]],[[9535,9355],[3,-32],[10,-24],[39,-59],[17,-35],[27,-41],[20,-58],[11,-20],[188,-181],[35,-30],[64,-40],[34,-1],[42,11],[29,1],[28,-19],[189,-203],[78,-80],[34,-42],[8,-20],[29,-165],[20,-77],[29,-53],[31,-65],[4,-16],[0,-77],[25,-120],[13,-29],[27,-32],[33,-22],[77,-27],[36,-25],[13,-21],[108,-247]],[[10836,7506],[-6,-5],[-163,-195],[-18,-19],[-48,-23],[-25,-20],[-49,-72],[-14,-16],[-60,-47],[-14,-26],[-16,-51],[-12,-23],[-70,-62],[-40,-50],[-22,-18],[-144,-94]],[[13462,673],[-27,-8],[-40,-48],[-3,-11],[20,-18],[3,-43],[-9,-14],[11,-24],[-2,-32],[26,-46],[-10,-49],[-24,-28],[-70,-20],[-14,-16],[-9,-41],[8,-48],[-19,-18],[-8,-26],[19,-20],[19,-75],[-25,-43],[-4,-23],[-42,-18],[-24,-4],[-48,6],[-152,81],[-36,17],[-103,57],[-84,58],[-66,25],[-103,42],[-91,28],[-41,6],[-78,19],[-62,27],[-78,65],[-66,33],[-55,8],[-42,-5],[-43,4],[-54,12],[-26,14],[-56,43],[-64,18],[-72,7],[-41,-4],[-102,-41],[-46,7],[-20,-6],[-16,-18],[-19,-58],[-10,-20],[-27,-29],[-35,-16],[-46,-1],[-64,11],[-30,15],[-68,25],[-39,4],[-113,-31],[-145,-51],[-119,-51],[-18,-20],[-25,-62],[-14,-21],[-58,-68],[-27,-19],[-88,-5],[-41,9],[-10,11],[-24,60],[-7,66],[-38,68],[-13,68],[-1,56],[-19,46],[-46,33],[-91,16],[-36,11],[-48,5],[-63,-1]],[[11540,6733],[37,45],[25,16],[324,155],[37,27]],[[11963,6976],[18,-1],[82,38],[68,34],[236,112],[39,-48],[63,-59],[89,81],[9,3],[67,-159],[16,-43],[98,-232],[66,-174],[22,-53],[20,-29],[22,-14],[61,-14],[29,-16],[101,-82]],[[13069,6320],[103,-84],[71,-49],[97,-122],[91,-110],[19,-13],[34,-7],[85,8],[42,-5],[16,-10],[31,-35],[13,-31],[27,-236],[38,10],[39,3],[76,-2],[23,-7],[9,-184],[-4,-39],[-18,-50],[-18,-29],[-77,-105],[-15,-33],[-1,-67],[-4,-66],[-10,-35],[-28,-68],[-17,-48],[-12,-92],[4,-36],[20,-82],[17,-43],[78,-139],[7,-26],[-8,-46],[4,-31],[10,-15],[58,-65],[14,-26],[32,-95],[20,-154],[0,-19],[-11,-57],[0,-41],[6,-41],[22,-69],[9,-37],[17,-168],[11,-44],[42,-103],[38,-83],[29,-99],[37,-74],[40,-47],[22,-35],[14,-35],[3,-71],[-2,-57],[-18,-69],[-7,-45],[5,-26],[29,-30],[40,-26]],[[14261,2780],[-663,-660],[-60,12],[-52,-191],[-91,25],[-23,-22],[-13,-26],[15,-51],[-13,-11],[-29,0]],[[12572,3762],[59,62],[24,35],[21,13],[57,19],[50,46],[43,26],[12,15],[18,39],[43,44],[-22,32],[-31,72],[-31,35],[-124,75],[-139,70],[-81,29],[-34,20],[-31,43],[-10,48],[1,21],[15,60],[2,42],[-5,25],[-15,29],[-70,58],[-13,50],[-54,152],[-59,158],[-14,24],[-29,31],[-75,58],[-119,106],[-45,33],[-118,101],[-119,99],[-38,37],[-89,150],[-29,23],[-71,32],[-24,18],[-26,36],[-10,41],[-4,88],[-7,49],[-22,49],[-20,16],[-61,7],[-43,8],[-36,22],[-65,73],[-114,116],[100,80],[141,132],[31,27],[248,197]],[[8539,11446],[42,32],[76,116],[40,83],[25,37],[25,20],[461,248],[30,25],[23,40]],[[9124,10304],[-209,24],[-62,-8]],[[8853,10320],[-21,35],[-10,70],[-17,50],[-45,80],[-123,199],[-101,159],[-20,34],[-17,48],[-13,58],[-5,64]],[[7077,10712],[-17,-45],[-70,-80],[-24,-35],[-77,-156],[-13,-42],[-14,-286],[5,-27],[12,-25],[24,-25],[20,-12]],[[9009,9841],[137,-84],[8,-8],[8,-47]],[[9162,9702],[19,-116],[21,-58],[21,-28]],[[9202,9350],[-17,31],[-133,182],[-48,43],[-118,75],[86,92],[37,68]],[[9124,10304],[13,-134],[1,-28],[-11,-102],[-10,-25],[-37,-37],[-75,-120],[-8,-8]],[[8997,9850],[-17,-2],[-145,79],[-134,30],[-36,3]],[[8665,9960],[110,283],[11,26],[19,22],[48,29]],[[5617,19252],[945,-263],[778,-217],[1074,-299],[539,-151]],[[8953,18322],[-14,-45],[-112,17],[-67,13],[-90,24],[-12,-10],[-32,-3],[-17,-56],[-35,-76],[-82,-136],[-19,-39],[-12,-44],[-20,-224],[-7,-48],[-12,-51],[-25,-66],[-27,-58],[-11,-34],[-18,-95],[-23,-53],[-155,-296],[132,7],[63,16],[33,1],[36,-24],[61,-61],[19,-11],[47,-59],[26,-22],[42,-15],[1,-65],[-14,-8],[-37,8],[-21,-20],[4,-24],[-31,-19],[-4,-19],[46,-14],[15,-23],[-23,-23],[-38,-27],[-22,-8],[-35,-23],[-30,-33],[-37,-58],[-30,-30],[-9,-24],[-36,-10],[-23,-30],[-10,-28],[-28,-28],[-4,-24],[20,-9],[-30,-76],[-37,-60],[-1,-22],[34,-43],[-47,-56],[2,-33],[-43,-34],[-14,-54],[3,-40],[-27,-28],[-31,7],[-30,-28],[-4,-33],[-19,-40],[-15,-19],[-29,-58],[8,-23],[90,-58],[-3,-28],[-18,-8],[-36,-38],[-19,-42],[-104,-10],[-32,-13],[-40,-44]],[[7834,15454],[-196,140],[10,94],[-9,10],[-140,-69],[-24,-8],[-12,-32],[-38,-60],[-25,-73],[-6,-117],[26,-65],[-1,-18],[-31,-89],[-2,-30],[-66,-6],[-44,-33],[-68,-88],[-58,-39],[-68,-36],[-113,-55],[-55,-11],[-54,14],[-63,35],[-63,58],[-9,18],[-28,-40],[-1,-15],[-22,-41],[-31,-42],[-40,-38],[-10,-19]],[[8953,18322],[1002,-280],[695,-195],[1066,-299],[949,-267],[96,-27],[-19,-35],[-24,-62],[-4,-60],[7,-29],[-24,-37],[-2,-34],[-16,-13],[-37,-13],[-9,-11],[-28,-65],[-39,-59],[-17,-57],[-18,-31],[2,-17],[31,-30],[-22,-41],[-8,-47],[-12,-37],[10,-16],[-2,-25],[-15,-32],[-19,-21],[-7,-19],[2,-48],[-15,-28],[-13,-5],[-14,-29],[-25,-24],[-22,-32],[7,-10],[-17,-42],[-2,-21],[-15,-33],[-23,-36],[-6,-22],[-23,-30],[-24,-39],[-13,-32],[-28,-34],[-25,-47],[-20,-49],[-42,-65],[-42,-93],[-15,-13],[-30,-77],[-327,-202],[-94,-234],[1,-34],[-49,-115],[-2,-121],[-39,-138],[6,-44],[-12,-62]],[[11568,14704],[-33,0],[-32,10],[-249,183],[-86,61],[-22,12],[-108,28],[-35,0],[-66,-23],[-33,-2],[-77,10],[-18,6],[-53,33],[-41,10],[-131,-13],[-69,5],[-219,-16],[-20,-3],[-45,-20],[-269,-183],[-58,-28],[-129,-56],[-47,68],[-115,-32],[2,-18],[-94,2],[-60,-4],[-16,10],[-28,-55],[-23,7],[-434,116],[-28,5],[-57,2],[-249,-16],[-198,-10],[-127,3],[-41,7],[-149,49],[-55,29]],[[8056,14881],[4,45],[0,104],[-42,58],[-5,28],[20,69],[2,29],[-7,23],[-34,29],[-90,111],[-46,48],[-2,15],[-22,14]],[[7698,14530],[123,7],[71,54],[118,55],[29,41],[13,108],[4,86]],[[11568,14704],[0,-49],[-7,-26],[-21,-35],[-6,-104],[-11,-59],[-22,-59],[17,-6],[-1,-60],[-12,-61],[-7,-6],[-12,-56],[-35,-76],[-24,-74],[-288,3],[2,-22],[-9,-48],[7,-146],[13,-41],[-10,-24],[-4,-78],[154,-271]],[[10836,7506],[40,-93],[12,-22],[63,-63],[21,-26],[47,-70],[19,-21],[199,-187],[303,-291]],[[14884,6887],[380,-693],[506,-923],[270,-492],[40,-22],[-790,-953],[-323,-321],[-706,-703]],[[13069,6320],[83,90],[35,32],[149,126],[40,38],[22,34],[-10,195],[6,33],[68,87],[76,147],[3,15],[-20,96],[1,14],[46,111],[29,-17],[50,-55],[43,-113],[12,-19],[44,-38],[163,-133],[86,-63],[67,-37],[14,-16],[58,-227],[-5,-22],[-29,-30],[57,16],[29,-6],[26,2],[78,31],[42,1],[38,9],[28,-22],[35,-51],[2,-21],[29,-51],[44,-34],[37,-9],[37,6],[30,-8],[33,7],[4,32],[22,18],[22,-10],[12,21],[-19,42],[-17,9],[-36,-5],[-8,24],[-21,12],[-7,24],[-1,70],[23,22],[39,16],[54,6],[19,20],[65,21],[41,31],[15,35],[4,30],[28,31]],[[8337,3868],[-26,22],[-43,72],[-24,29],[-40,36],[-49,56],[-46,32],[-73,62],[-17,8],[-30,-4],[-29,-12],[-30,-5],[-28,3],[-33,20],[-32,31],[-48,59],[-76,97],[-8,46],[-20,63],[-11,13],[-18,45],[-55,40],[-8,15],[0,39],[-9,32],[-19,30],[-55,58],[-26,4],[-42,-18],[-28,5],[-41,19],[-19,31],[4,36],[9,24],[-1,25],[-18,8],[-54,-8],[-43,58],[-44,80],[-9,23],[-6,102],[1,41],[-21,53],[-4,33],[-37,52],[-40,70],[-30,40],[-14,11],[-83,42],[-53,57],[-32,46],[-36,41],[-32,45],[23,41],[10,47],[-4,35],[5,23],[18,31],[27,31],[49,28],[108,42],[54,-12],[22,25],[24,69],[43,42],[17,39],[-4,16],[-30,34],[-33,18],[-43,13],[-26,22],[-66,38],[-16,15],[-15,75],[-13,9],[-30,-6],[-15,6],[-20,30],[16,76],[1,30],[10,26],[39,35],[26,13],[64,42],[46,-9],[42,24],[23,-1],[30,-14],[22,3],[22,22],[-5,22],[4,42],[13,23],[11,71]],[[9772,10620],[207,-88],[65,-20],[71,-7]],[[10115,10505],[-25,-80],[-19,-52],[-16,-26],[-46,-29],[-106,-57],[-1,-6],[98,-145],[7,-40],[-55,-48],[-40,-10],[-15,-28],[12,-48],[-71,-141],[-13,-36],[-2,-33],[-14,-75],[-55,-92],[-45,-67],[-32,-61],[-17,-56]],[[9660,9375],[-125,-20]],[[9162,9702],[5,2],[128,-6],[95,3],[-10,299],[-3,81],[-2,103],[9,45],[31,64],[32,35]],[[7683,9736],[384,79],[210,49],[63,19],[65,16],[260,61]],[[8997,9850],[12,-9]],[[12099,11945],[587,-1064]],[[12686,10881],[-62,-22],[-37,-17],[-117,-64],[-55,-19],[-121,-62],[-29,-8],[-67,-1]],[[12198,10688],[-3,57],[-149,84],[-65,16],[-43,2],[-23,16],[-36,49],[-17,9],[23,50],[-28,0],[-29,12],[-48,39],[-25,42],[-134,93],[-70,23],[-21,20]],[[11530,11200],[24,40],[45,87],[-91,47],[-124,66],[-14,4],[-98,15],[-51,11]],[[11221,11470],[-114,43],[-5,40]],[[11505,9470],[22,34],[180,-3],[33,31],[-1,89],[32,114],[13,30]],[[11784,9765],[323,-116],[356,-131],[24,-6],[70,13],[125,-27],[321,101],[27,0],[411,-196],[49,-57],[80,-70]],[[13570,9276],[515,-936],[277,-504],[522,-949]],[[11963,6976],[13,17],[156,229],[24,30],[46,42],[-369,238],[-56,39],[-16,3],[-83,78],[-106,107],[-60,49],[-91,57],[-111,59],[-120,67],[-99,46],[8,9],[-31,50],[-21,43],[-6,42],[6,40],[37,85],[74,121],[28,38],[12,39],[25,40],[53,48],[32,35],[25,36],[75,83],[121,123],[22,54],[7,31],[2,52],[16,60],[4,32],[8,136],[-1,24],[10,66],[-1,57],[-19,16],[-35,43],[-37,30]],[[11139,10501],[47,-24],[55,-6],[32,-8],[59,-2],[25,-33],[35,-28],[21,-51],[24,-10],[29,-1],[43,20],[19,1],[34,17],[23,31],[47,-5],[49,1],[22,-7],[67,29],[50,30],[26,26],[40,27],[10,-8],[53,6],[107,118],[33,27],[67,29],[42,8]],[[12686,10881],[552,-1003],[332,-602]],[[11784,9765],[-181,64],[-51,36],[-253,264],[-55,52],[-192,159]],[[11052,10340],[87,161]],[[10115,10505],[341,-31],[176,-29]],[[10632,10445],[216,-35],[122,-22],[29,-10],[53,-38]],[[11505,9470],[-38,13],[-36,-10],[-12,-13],[-92,-135],[-21,-17],[-79,-32],[-59,3],[-122,18],[-151,25],[-59,14],[-124,41],[-51,2],[-259,-78],[-122,-40],[-29,-6],[-96,-12],[-35,0],[-57,9],[-70,4],[-90,-15],[-18,9],[-97,66],[-44,39],[-42,19],[-42,1]],[[11139,10501],[61,121],[30,34],[22,10],[-14,30],[46,83],[24,76],[1,36],[16,33],[91,157],[11,14],[82,79],[21,26]],[[10632,10445],[2,13],[34,0],[30,24],[50,120],[22,38],[7,29],[21,34],[-1,54],[11,40],[4,61],[28,1],[28,-22],[35,-18],[38,70],[54,-15],[29,88],[43,92],[12,48],[9,78],[36,58],[24,110],[39,53],[34,69]]],"transform":{"scale":[0.000037309639303482086,0.00003089797483890774],"translate":[-78.131267,38.409554]},"objects":{"Geometry\\51-061":{"type":"GeometryCollection","geometries":[{"arcs":[[0,1,2,3,4]],"type":"Polygon","properties":{"GEOID":"510619307063"}},{"arcs":[[5,6,7,8,9,10,11]],"type":"Polygon","properties":{"GEOID":"510619302051"}},{"arcs":[[12,13,-3,14,15]],"type":"Polygon","properties":{"GEOID":"510619307051"}},{"arcs":[[16,-5,17,18]],"type":"Polygon","properties":{"GEOID":"510619307062"}},{"arcs":[[19,20,21]],"type":"Polygon","properties":{"GEOID":"510619302032"}},{"arcs":[[22,23,24,25,26]],"type":"Polygon","properties":{"GEOID":"510619303041"}},{"arcs":[[27,-27,28,29,30,31]],"type":"Polygon","properties":{"GEOID":"510619303031"}},{"arcs":[[32,33,34,35,36,37,38]],"type":"Polygon","properties":{"GEOID":"510619302041"}},{"arcs":[[39,40,41,-9]],"type":"Polygon","properties":{"GEOID":"510619302062"}},{"arcs":[[42,43,44,45,46]],"type":"Polygon","properties":{"GEOID":"510619307042"}},{"arcs":[[47,-39,48,-12,49]],"type":"Polygon","properties":{"GEOID":"510619302042"}},{"arcs":[[-21,50,51,-33,-48,52]],"type":"Polygon","properties":{"GEOID":"510619302031"}},{"arcs":[[53,54,-46,55,56]],"type":"Polygon","properties":{"GEOID":"510619307032"}},{"arcs":[[57,-15,-2,58]],"type":"Polygon","properties":{"GEOID":"510619307071"}},{"arcs":[[-10,-42,59,-58,60,61]],"type":"Polygon","properties":{"GEOID":"510619302061"}},{"arcs":[[-18,-4,-14,62,-54,63]],"type":"Polygon","properties":{"GEOID":"510619307061"}},{"arcs":[[64,65,66,67,68,-16,-60,-41]],"type":"Polygon","properties":{"GEOID":"510619302071"}},{"arcs":[[-45,69,-56]],"type":"Polygon","properties":{"GEOID":"510619307031"}},{"arcs":[[70,71,72,73,-43,74]],"type":"Polygon","properties":{"GEOID":"510619307041"}},{"arcs":[[-36,75,-32,76,77]],"type":"Polygon","properties":{"GEOID":"510619303032"}},{"arcs":[[-38,78,-6,-49]],"type":"Polygon","properties":{"GEOID":"510619302052"}},{"arcs":[[79,80,-66,81]],"type":"Polygon","properties":{"GEOID":"510619303053"}},{"arcs":[[-77,82,83,84]],"type":"Polygon","properties":{"GEOID":"510619303052"}},{"arcs":[[85,86,87,-51,-20]],"type":"Polygon","properties":{"GEOID":"510619301011"}},{"arcs":[[88,89,90,-87]],"type":"Polygon","properties":{"GEOID":"510619301022"}},{"arcs":[[91,-90,92,-23,-28,-76,-35]],"type":"Polygon","properties":{"GEOID":"510619301021"}},{"arcs":[[-69,93,-75,-47,-55,-63,-13]],"type":"Polygon","properties":{"GEOID":"510619307052"}},{"arcs":[[94,-73,95]],"type":"Polygon","properties":{"GEOID":"510619307043"}},{"arcs":[[-61,-59,-1,-17,96]],"type":"Polygon","properties":{"GEOID":"510619307072"}},{"arcs":[[-30,97,98,99,-67,-81,100]],"type":"Polygon","properties":{"GEOID":"510619304052"}},{"arcs":[[101,-84,102,-82,-65,-40,-8]],"type":"Polygon","properties":{"GEOID":"510619303051"}},{"arcs":[[-37,-78,-85,-102,-7,-79]],"type":"Polygon","properties":{"GEOID":"510619303061"}},{"arcs":[[-91,-92,-34,-52,-88]],"type":"Polygon","properties":{"GEOID":"510619301012"}},{"arcs":[[-25,103,104,105,106,107]],"type":"Polygon","properties":{"GEOID":"510619304013"}},{"arcs":[[108,109,110,-96,-72,111]],"type":"Polygon","properties":{"GEOID":"510619304042"}},{"arcs":[[112,-105,113,-110,114,115]],"type":"Polygon","properties":{"GEOID":"510619304011"}},{"arcs":[[116,117,-115,-109,118,-99]],"type":"Polygon","properties":{"GEOID":"510619304022"}},{"arcs":[[-100,-119,-112,-71,-94,-68]],"type":"Polygon","properties":{"GEOID":"510619304041"}},{"arcs":[[-106,-113,119]],"type":"Polygon","properties":{"GEOID":"510619304012"}},{"arcs":[[-107,-120,-116,-118,120]],"type":"Polygon","properties":{"GEOID":"510619304021"}},{"arcs":[[-83,-31,-101,-80,-103]],"type":"Polygon","properties":{"GEOID":"510619304051"}},{"arcs":[[-29,-26,-108,-121,-117,-98]],"type":"Polygon","properties":{"GEOID":"510619304023"}}]}}}