{"type":"Topology","arcs":[[[7928,7762],[33,-87],[10,-63],[-8,-61],[-29,-105],[-8,-52],[12,-140]],[[7938,7254],[-76,11],[-51,18],[-39,23],[-75,55],[-55,31],[-35,13],[-65,16],[-43,2],[-64,-10],[-49,-22],[-53,-42],[-38,-55],[-217,-408],[-27,-45],[-34,-43],[-67,-68],[-89,-75],[-28,-30],[-31,-44],[-19,-35],[-67,-137],[-15,-44],[-13,-53],[-6,-65],[4,-56],[15,-120],[-3,-82],[-18,-69],[-19,-42],[-129,-243],[-30,-65],[-21,-67],[-39,-137],[-13,-33],[-32,-56],[-103,-145],[-34,-57],[-14,-37],[-24,-78],[-24,-107],[-14,-101],[-7,-28],[-17,-38],[-25,-36],[-61,-52],[-213,-149],[-50,-38],[-183,-160],[-98,-77],[-83,-59],[-67,-41],[-82,-35],[-48,-14],[-67,-10],[-130,-13],[-86,-21],[-86,-37],[-159,-81],[-36,-21],[-103,-71],[194,-120],[-37,-46],[-32,-31],[-37,-24],[-29,-14],[-66,-15],[-45,-1],[-88,8],[-62,-4],[-43,-11],[-60,-27],[-40,-26],[-211,-142],[-206,-140],[-107,-69],[-14,-27]],[[3700,3082],[-10,5],[-623,252],[-175,74],[-129,60],[-523,229],[-172,73],[-111,51],[-269,107],[-235,107],[-152,66],[-176,62],[-84,27],[-517,166],[-148,49],[-151,51],[-225,73],[220,350],[84,142],[150,268],[35,24],[114,100],[36,24],[68,39],[-60,86],[84,114],[78,111],[5,4],[473,646],[418,571],[76,105],[82,110],[570,779],[480,654],[540,731],[830,1149],[23,-1],[56,-54],[43,-17],[16,-18],[90,-63],[95,-58],[24,-35],[45,-24],[42,-31],[34,-17],[84,-30],[59,-27],[47,-14],[43,-21],[71,-52],[82,-45],[39,-28],[31,-12],[44,-6],[61,-3],[36,-10],[41,-19],[27,-31],[3,-35],[-9,-37],[-28,-32],[-23,-6],[-31,9],[-28,-4],[-33,-39],[3,-49],[13,-23],[32,-27],[40,-3],[23,8],[18,26],[6,42],[31,0],[19,-17],[5,-28],[-22,-59],[-6,-33],[12,-43],[-40,-38],[-34,-7],[-28,-16],[-17,-46],[-40,-30],[-42,-17],[-14,-22],[-6,-37],[-10,-28],[5,-46],[29,-21],[50,1],[22,-37],[-3,-27],[-34,-19],[-25,11],[-36,-11],[-58,9],[-12,-7],[-18,-30],[0,-24],[24,-39],[58,-27],[33,-43],[31,19],[11,14],[34,-1],[29,-9],[47,-27],[33,-3],[30,-13],[13,-16],[35,-68],[33,-36],[45,-36],[23,-40],[10,-51],[12,-32],[23,-30],[7,-17],[28,-25],[-13,-38],[1,-74],[7,-23],[19,-20],[139,-86],[79,-28],[142,-28],[101,-8],[35,-29],[26,-48],[35,-35],[13,-20],[15,-47],[-5,-28],[-12,-25],[-18,-65],[-17,-22],[-48,-15],[-10,-18],[2,-29],[19,-13],[30,1],[13,22],[23,9],[23,-7],[28,-39],[12,-8],[48,1],[46,31],[67,0],[63,14],[67,36],[31,3],[38,-37],[83,5],[50,-4],[145,-24],[18,-7],[28,-41],[31,-22],[6,-37],[-5,-31],[20,-23],[37,3],[55,35],[29,-14],[9,-33],[-3,-42],[8,-11],[29,-10],[47,-23],[24,-6],[87,13],[153,8],[52,-12],[48,-19],[65,-17],[102,-4],[64,1],[17,10],[20,57],[21,30]],[[7938,7254],[146,-19],[78,-2],[225,-19],[68,-11],[47,-15],[70,-35],[99,-56],[87,-46],[58,-17],[67,-8],[96,-17],[50,1],[70,14],[202,42],[126,20],[49,11],[81,21]],[[9557,7118],[10,-42],[7,-10],[67,-26],[82,-49],[28,-27],[22,-7],[73,10],[23,-2],[150,-97],[104,-39],[52,-26],[40,-41],[1,-22],[-19,-45],[4,-22],[22,-22],[77,-21],[38,-24],[24,-55],[10,-33],[7,-63],[24,-53],[31,-34],[41,-15],[17,-34],[18,-15],[23,-7],[21,-20],[9,-40],[31,-57],[14,-13],[77,-32],[68,-15],[40,-14],[49,-28],[19,-18],[30,-42],[52,-31],[19,-4],[46,19],[59,-1],[54,-20],[34,-25],[32,-35],[27,-53],[16,-22],[27,-13],[43,-12],[21,-34],[24,-13],[51,0],[24,-5],[33,-16],[14,-14],[22,-63],[8,-11],[83,-33],[89,-39],[112,-52],[93,-48],[58,-35],[61,-41],[70,-39],[251,-118],[47,-14],[1,-12]],[[12362,5234],[3,-69],[-7,-60],[-24,-74],[-30,-53],[-95,-135],[-307,-437],[-24,-31],[-405,-484],[-181,-214],[-49,-63],[-47,-74],[-24,-48],[-25,-59],[-141,-356],[-22,-50],[-22,-35],[-47,-59],[-28,-26],[-52,-38],[-167,-100],[-79,-58],[-57,-55],[-40,-47],[-348,-454],[-42,-52],[-66,-71],[-67,-63],[-142,-115],[-45,-30],[-218,-113],[-22,-34],[-102,-100],[-67,-59],[-232,-173],[-155,-116],[-430,-321]],[[8556,908],[-62,13],[-659,301],[-589,271],[-423,193],[-592,256],[-924,429],[-631,275],[-477,210],[-499,226]],[[12362,5234],[20,-3],[98,-55],[63,-39],[56,-48],[57,-41],[59,-27],[51,-37],[90,-54],[37,-27],[73,-94],[23,-27],[26,-17],[157,-76],[37,-14],[91,-44],[88,-56],[59,-50],[67,-65],[29,-23],[62,-61],[30,-34],[34,-20],[124,-51],[36,-25],[34,-29],[100,-79],[30,-35],[31,-57],[48,-65],[55,-32],[32,-6],[43,-16],[63,-37],[22,-20],[44,-55],[13,-46],[35,-99],[18,-36],[41,-61],[45,-19],[48,-11],[14,-7],[37,-36]],[[14582,3500],[49,-50],[93,-83],[59,-73],[71,-77],[26,-46],[18,-65],[18,-26],[31,-30],[34,-59],[23,-29],[24,-17],[61,-34],[60,-53],[56,-63],[46,-66],[46,-41],[59,-38],[65,-54],[18,-23],[33,-75],[18,-21],[34,-19],[87,-35],[40,-35],[24,-42],[23,-71],[15,-36],[24,-31],[33,-30],[22,-27],[20,-56],[-4,-42],[-12,-35],[-32,-155],[-2,-74],[7,-18],[21,-19],[78,-43]],[[15868,1709],[-18,-16],[-31,-7],[-27,-15],[-25,-28],[-22,-15],[-55,-22],[-34,5],[-51,1],[-39,21],[-8,44],[-11,17],[-18,-2],[-27,23],[-7,39],[-19,38],[-25,5],[-12,22],[-17,1],[-22,-13],[-17,9],[-35,42],[-28,43],[25,45],[8,31],[-18,23],[-50,14],[-63,0],[-35,-9],[-61,-5],[-33,-20],[-23,-3],[-61,34],[-24,9],[-16,17],[9,32],[-14,36],[-8,40],[-93,51],[-38,45],[-23,2],[-36,17],[-16,24],[-27,7],[-28,22],[-49,-9],[-33,-16],[-13,-16],[-21,-11],[-31,22],[-71,-7],[-32,1],[-28,-9],[-25,22],[-38,20],[-61,22],[-37,23],[-34,27],[-15,-4],[-16,-18],[-48,-24],[-25,4],[-15,-16],[-71,-28],[-1,-21],[-13,-15],[-29,-13],[-28,-23],[-23,-1],[-13,-11],[-12,-26],[-33,-12],[-16,-16],[2,-21],[-26,-10],[-19,1],[-13,-12],[-26,-6],[-7,-11],[-48,-23],[-23,0],[-40,-29],[-9,-20],[7,-36],[27,-34],[-8,-27],[11,-11],[-10,-25],[12,-37],[-11,-24],[-16,-7],[-31,-51],[-37,-31],[-4,-22],[-27,-22],[-25,-44],[-14,-42],[-68,-11],[-15,9],[-21,-24],[5,-15],[-12,-47],[-55,14],[-58,-20],[-43,0],[-19,-19],[-21,-3],[-40,5],[-17,18],[-20,-4],[-15,23],[-13,3],[-28,-32],[-4,-13],[-21,-12],[-62,-7],[-32,-12],[-52,-10],[-48,9],[-17,-22],[-17,-7],[-32,4],[-33,14],[-11,-6],[-52,3],[-22,13],[-25,0],[-33,-32],[-38,3],[-77,-13],[-6,19],[-35,26],[-24,24],[-12,25],[-50,34],[6,19],[-48,48],[-35,-9],[-41,40],[-60,-9],[-31,1],[-16,-8],[-27,-37],[-69,5],[-13,28],[-24,9],[-1,15],[-28,31],[-5,36],[-41,8],[-10,-23],[-21,-8],[-24,-26],[-27,-19],[-8,-25],[-28,-15],[6,-37],[-24,-39],[-3,-39],[-23,-5],[5,-21],[-22,-35],[-29,-14],[-27,27],[-40,-10],[-31,-27],[-20,10],[-4,-23],[-20,-1],[-18,-21],[-49,4],[-29,-13],[-4,-29],[-33,11],[-8,-15],[-24,-2],[-47,-28],[-34,17],[-15,-4],[-49,4],[-12,12],[-36,-10],[-26,2],[-28,13],[-33,6],[-16,-7],[-38,-4],[-30,13],[-20,19],[-9,-17],[-24,-15],[-27,-7],[-1,-16],[-22,-5],[-18,-19],[-15,10],[-28,-18],[-54,-27],[-28,-28],[-18,-26],[-33,-36],[-59,-36],[-34,-47],[3,-25],[-25,-39],[-11,-48],[-22,-47],[-18,-29],[-25,-17],[-30,-4],[-32,-26],[-11,-23],[-54,18],[-36,8],[-26,22],[-7,-20],[-27,15],[-34,0],[-19,9],[-13,-16],[-33,0],[-38,-12],[-79,-9],[-26,0],[-20,8],[-49,-2],[-36,14],[-38,-10],[-37,-31],[-87,-51],[-177,-79],[-1121,223]],[[26260,8505],[10,98],[17,47],[56,63],[12,48],[12,18],[113,136],[21,16],[60,26],[13,17],[5,29],[-3,34],[-18,87],[-6,79],[-13,60],[-24,140],[-11,82],[-31,184],[-20,56],[-1,59],[10,31],[34,55],[17,40],[9,46],[35,100],[5,44],[0,72],[5,20],[51,127],[5,26],[-6,103],[2,34],[16,56],[15,23],[35,38],[20,13],[90,25],[35,28],[45,68],[16,29],[13,41],[9,66],[10,39],[26,47],[8,25],[4,47],[-9,45],[-19,24],[-75,54],[-14,21],[-46,98],[-18,25],[-40,42],[-19,28],[-59,133],[50,26]],[[26712,11523],[94,42],[62,23],[56,26],[43,28],[280,210],[305,231],[83,56],[49,25],[67,25],[552,169],[155,47],[161,44],[218,62],[519,144],[223,65],[148,44]],[[29727,12764],[283,83],[149,42],[349,99],[574,167],[314,92]],[[31396,13247],[347,101],[247,74],[402,117],[468,136],[291,83],[210,58],[149,42]],[[33510,13858],[1,-336],[-35,-29],[-9,-87],[-16,-126],[-82,-139],[-39,13],[-39,-6],[21,-79],[-89,-43],[-34,-55],[-13,-80],[-60,-9],[-1,7],[-71,-13],[15,-85],[-13,-25],[-74,-83],[-62,-57],[-471,-518],[-199,-237],[12,-21],[-69,-84],[-74,-98],[-69,-87],[-238,37],[19,-334],[-55,-67],[7,-12],[43,-48],[17,-43],[3,-38],[-90,-27],[-91,-13],[-4,-16],[-193,-11],[0,-8],[-169,-89],[-84,-115],[-26,-29],[-307,-383],[-117,-138],[120,-129],[86,26],[-36,-186],[-45,11],[-292,-137],[70,-156],[-213,-136],[-315,-195],[-143,-84],[-67,146],[-34,-4],[59,-145],[-263,-307],[-6,-237],[0,-54],[-165,73],[-195,-241],[-89,-41],[-27,-57],[-152,-276],[-44,-72],[-39,-84],[-11,-16],[-73,-143],[-76,-144],[-356,112],[-174,-214],[42,-55],[-47,-250],[-42,-34],[4,93],[-23,-24],[-37,-77],[26,-16],[-65,-53],[-40,-53],[-89,42],[-99,-138],[89,-45],[-24,-23],[-51,-75],[-26,-28],[-38,-27],[-101,-59],[-86,-41],[-50,-4],[14,-203],[-50,-144],[-44,-113],[-124,19],[-37,-159],[-167,-34],[31,-102],[28,-122],[-174,-176],[-680,104],[-110,-5],[-144,9],[6,-53],[-12,-44],[234,-66],[28,-82],[84,-22],[-146,-381],[121,-113],[-176,-114]],[[26300,4889],[-29,82],[-4,18],[-25,177],[-7,31],[-34,94],[-4,73],[-8,70],[-33,144],[-6,52],[-8,95],[-6,29],[-21,55],[-5,97],[0,144],[11,34],[60,34],[17,14],[61,62],[36,46],[44,34],[-7,30],[-20,191],[117,9],[17,11],[39,42],[81,77],[53,45],[90,70],[47,27],[35,5],[127,6],[-4,22],[-36,106],[-22,39],[-24,20],[-97,55],[-71,44],[-163,85],[-41,24],[-46,42],[-38,42],[-53,67],[-75,65],[-19,20],[-34,57],[-38,93],[-11,46],[3,38],[24,89],[0,52],[-5,46],[-16,89],[-10,90],[1,30],[13,49],[16,45],[30,120],[39,137],[13,55],[6,51]],[[21077,16448],[29,12],[31,-2],[21,-15],[291,-108],[73,-47],[71,-55],[88,-79],[36,-27],[56,-28],[50,-11],[26,0],[38,16],[72,76],[37,46],[19,58],[36,73],[127,131],[40,28],[66,32],[55,18],[56,11],[60,8],[51,23],[31,26],[45,27],[48,18],[60,9],[32,0],[105,7],[173,8],[119,3],[177,31],[154,32],[165,22],[85,9],[101,43],[116,59],[116,106],[84,69],[101,65],[69,47],[24,28],[17,30],[26,86],[33,93],[35,85],[15,50],[6,34],[2,130],[16,150],[11,70],[9,40],[28,46],[28,29],[98,81],[51,15],[96,4],[125,-23],[28,3],[23,11],[106,81],[43,26],[42,38],[40,44],[102,82],[58,52],[33,19],[43,6],[39,-1],[45,-9],[143,-50],[20,-22],[46,-88],[21,-46],[5,-21],[-5,-71],[-11,-46],[-9,-100],[9,-71],[12,-66],[14,-42],[22,-42],[31,-22],[31,-10],[103,-13],[97,12],[65,11],[86,-4],[75,1],[74,46],[58,26],[115,46],[105,9],[63,-10],[34,0],[55,9],[46,3],[103,18],[67,22],[62,13],[128,1],[29,5],[53,24],[87,21],[44,6],[143,-11],[72,0],[53,-3],[28,-14],[23,-25],[27,-41],[34,-40],[48,-41],[100,-80],[74,-41],[56,-26],[16,-3]],[[28061,17713],[-46,-31],[-18,-32],[-10,-53],[5,-16],[28,-32],[44,-18],[42,-28],[48,-1],[24,-15],[4,-33],[-5,-13],[-47,-21],[-46,-68],[-12,-23],[-6,-54],[25,-14],[19,-21],[47,-68],[22,-24],[33,-54],[16,-5],[23,-22],[1,-22],[-21,-31],[-21,6],[-37,30],[-20,4],[-34,-21],[-13,-15],[-3,-29],[18,-26],[23,-22],[14,-32],[-25,-15],[2,-43],[10,-33],[20,-25],[14,-29],[-16,-10],[-22,5],[-15,15],[-46,33],[-36,20],[-37,4],[-34,-8],[-20,-11],[-13,-32],[3,-21],[23,-34],[31,-25],[17,-26],[6,-21],[-5,-26],[-17,-24],[-24,-21],[-2,-31],[17,-18],[31,-6],[72,8],[25,-15],[12,-54],[-26,-51],[-41,-33],[-19,-6],[-35,-1],[-25,12],[-32,4],[-30,-29],[-7,-46],[-36,-30],[-23,0],[-27,-13],[-55,-1],[-46,-35],[34,-35],[12,-57],[17,-25],[0,-18],[-38,-37],[-29,-7],[-102,-62],[-43,-2],[-66,-29],[-26,-20],[-20,4],[-12,-11],[25,-39],[23,-51],[14,-20],[27,-3],[47,-91],[-1,-17],[-23,-13],[-31,6],[-21,-3],[-50,-28],[-40,-10],[-34,-33],[-28,-19],[-40,-12],[-10,-63],[48,-46],[5,-26],[-63,-28],[-32,2],[-57,-18],[-53,-21],[-24,-15],[-39,54],[-17,-27],[-20,-48],[-9,-38],[4,-24],[31,-54],[7,-31],[-7,-67],[-11,-69],[-14,-32],[-59,-55],[-32,-80],[-29,-92],[-54,-134],[-20,-26],[-30,-23],[-105,-64],[-39,-21],[-70,-52],[-27,-34],[-29,-48],[-40,-90],[-19,-50],[-25,-94],[-2,-32],[8,-89],[-5,-47],[-53,-141],[-2,-59],[13,-68],[25,-60],[16,-63],[-23,-112],[-45,-114],[-16,-36],[-7,-30],[-1,-79],[3,-72],[-5,-117],[-24,-79],[-3,-54],[3,-34],[16,-63],[0,-93],[11,-58],[53,-174],[5,-58],[19,-69],[5,-41],[37,-85],[18,-69],[14,-80],[25,-119],[26,-42],[45,-37],[31,-53],[7,-17],[14,-89],[20,-62],[2,-89],[-6,-56],[5,-28]],[[26260,8505],[-24,62],[-19,32],[-31,27],[-30,18],[-138,71],[-30,18],[-56,40],[-40,38],[-21,12],[-140,59],[-65,32],[-22,26],[-18,67],[-37,66],[-12,35],[0,71],[6,57],[16,113],[51,369],[15,136],[31,204],[-169,174],[-86,71],[-210,156],[-36,34],[-21,36],[-65,-23],[-34,-9],[-69,-9],[-62,-1],[-69,7],[-67,15],[-4,18],[-69,100],[-13,26],[-2,31],[25,124],[19,83],[3,55],[0,79],[-7,30],[-18,48],[-34,76],[-64,130],[-34,43],[-117,97],[-104,88],[-90,69],[-133,88],[-38,39],[-41,96],[-35,52],[-155,168],[-79,98],[-103,124],[-46,43],[-132,112],[-71,64],[-66,47],[-28,25],[-59,64],[-45,57],[-62,72],[-32,24],[-160,109],[-143,87],[-111,70],[-49,19],[-108,30],[-61,24],[-118,76],[-201,140],[-59,45],[-44,60],[-58,113],[-44,51],[-38,20]],[[21980,13623],[15,1111],[3,283],[3,229],[0,40],[-11,78],[-8,34],[-34,90],[-31,56],[-46,62],[-50,51],[-276,254],[-170,157],[-165,153],[-58,68],[-35,69],[-40,90]],[[16105,13168],[17,34],[30,38],[41,38],[53,39],[60,30],[42,9],[34,-5],[46,4],[52,19],[38,24],[56,46],[49,53],[38,48],[30,49],[39,29],[37,13],[31,1],[52,-15],[37,-22],[36,-39],[26,-59],[48,-88],[51,-79],[20,-16],[31,-10],[76,5],[70,-5],[46,-11],[55,-21],[70,-35],[35,-12],[46,-10],[51,-2],[36,3],[47,10],[37,13],[49,27],[39,13],[26,15],[29,23],[35,49],[13,36],[2,24],[-9,34],[-34,36],[-70,139],[-12,64],[-12,97],[1,23],[17,36],[28,39],[83,72],[66,82],[34,52],[30,52],[3,132],[16,42],[20,20],[47,17],[84,-6],[47,2],[87,19],[104,33],[80,37],[37,22],[71,38],[77,35],[107,42],[70,113],[10,28],[30,51],[60,75],[84,90],[125,129],[38,29],[48,23],[30,21],[29,32],[33,51],[61,67],[101,83],[40,27],[42,23],[43,15],[22,13],[34,32],[23,36],[72,89],[52,55],[57,55],[52,41],[44,26],[44,8],[69,-1],[46,-9],[56,-19],[42,-24],[81,-59],[58,-54],[27,-11],[208,33],[91,16],[70,-5],[41,-10],[43,-18],[47,-7],[43,6],[28,23],[31,50],[13,33],[9,43],[-4,49],[-14,35],[-17,25],[-38,34],[-23,38],[-17,55],[-6,91],[4,52],[9,43],[20,68],[33,58],[28,33],[56,51],[36,27]],[[21980,13623],[-4,-327],[-3,-153],[-4,-369],[-9,-639],[-7,-597],[-10,-654],[-10,-756],[0,-11]],[[21933,10117],[-293,-88],[-181,-53],[-235,-70],[-125,-34],[-126,-25],[-90,-12],[-108,-8],[-60,-2],[-402,-7],[-43,-3],[-72,-14],[-72,-26],[-65,-37],[-152,-107],[-52,-28],[-54,-18],[-62,-10],[-55,0],[-275,18],[-49,1],[-65,-8],[-94,-23],[-280,-71],[-365,-95],[-56,-13],[-70,-4],[-113,7],[-50,-2],[-41,-7],[-64,-21],[-67,-40],[-69,-57],[-324,-282],[-106,-90],[-63,-42],[-53,-25],[-120,-41],[-465,-156],[-166,-54],[-127,-44],[-74,-17],[-69,-5]],[[16461,8504],[-33,1],[-50,10],[-149,40],[-62,12],[-54,5],[-309,19],[-99,10],[-60,14],[-257,69],[-41,9],[-72,5],[-55,-4]],[[15220,8694],[-44,46],[-21,40],[-19,13],[-53,26],[-32,23],[-29,31],[-27,10],[-16,26],[-6,42],[23,7],[24,17],[18,31],[2,28],[-14,67],[1,41],[27,190],[17,52],[28,49],[63,96],[84,146],[30,46],[52,65],[71,111],[11,24],[29,78],[25,51],[90,145],[31,64],[28,85],[12,27],[34,51],[31,36],[70,72],[37,47],[55,97],[18,42],[33,45],[147,185],[363,454],[93,119],[210,262],[44,58],[80,136],[15,32],[11,41],[44,263],[33,207],[2,37],[-4,36],[-21,56],[-42,78],[-42,46],[-36,20],[-595,297],[-43,27],[-57,53]],[[21933,10117],[5,-43],[87,-524],[120,-721],[68,-408],[145,-873],[120,-722],[60,-355],[28,-177],[55,-323],[112,-678],[78,-472],[25,-151],[57,-342],[115,-690],[13,-77],[20,-71],[25,-51],[43,-60],[98,-113],[36,-44],[30,-49],[22,-65],[8,-56],[1,-100],[12,-69],[23,-55],[53,-111],[48,-118],[30,-85],[28,-93],[36,-146],[14,-78],[12,-83],[16,-141],[28,-176]],[[23604,1797],[-15,-45],[8,-65],[-21,-30],[-72,-26],[-16,-14],[-9,-26],[7,-20],[-9,-21],[9,-30],[8,-61],[-4,-37],[-27,-31],[-38,-22],[-59,-5],[-93,-25],[-49,5],[-24,28],[-265,-309],[-30,13],[-40,-78],[-7,4]],[[22858,1002],[-39,29],[-57,48],[-39,63],[-33,11],[-191,-2],[-151,-6],[-21,4],[-87,41],[-61,13],[-86,28],[-50,12],[-19,9],[-15,19],[-23,68],[-22,27],[-40,28],[-39,41],[-49,14],[-72,-5],[-34,6],[-77,32],[-36,24],[-83,90],[-17,11],[-48,15],[-82,44],[-53,38],[-94,86],[-42,30],[-44,40],[-57,73],[-40,36],[-77,47],[-47,19],[-30,17],[-29,26],[-44,60],[-29,23],[-90,48],[-14,12],[-33,-24],[-30,-9],[-54,4],[-40,22],[-59,48],[-85,80],[-53,39],[-52,42],[-37,23],[-150,24],[-153,34],[-84,16],[-20,-3],[-37,-23],[-23,-8],[-32,4],[-20,12],[-88,81],[-26,27],[21,34],[21,26],[43,31],[104,55],[21,14],[61,59],[19,24],[33,60],[27,113],[9,66],[14,46],[22,47],[29,79],[34,73],[47,59],[84,103],[36,51],[88,103],[84,112],[-84,81],[-172,168],[-68,71],[-38,43],[-6,51],[2,61],[11,42],[30,42],[86,96],[81,92],[51,62],[75,80],[147,147],[4,16],[-21,127],[-15,73],[-11,100],[-28,51],[-41,7],[-17,26],[4,15],[-14,82],[-18,95],[5,66],[-13,25],[-63,28],[-122,42],[-23,25],[-5,35],[-64,-18],[-173,-43],[-34,-4],[-24,8],[-143,87],[-119,66],[-164,88],[-43,17],[-168,28],[-116,21],[-105,24],[-21,10],[-34,32],[-113,141],[-76,105],[-19,31],[-55,111],[-137,285],[-99,203],[-24,36],[-54,65],[-199,228],[-47,62],[-72,106],[-37,60],[-29,40],[-25,15],[-314,114],[-60,19],[-72,28],[-32,18],[-85,65],[-142,113],[-228,185],[-44,29],[-76,30],[-86,20],[-17,8],[-23,29],[-28,68],[-25,47],[-58,95],[-16,12],[-48,3],[-32,19],[-25,37],[-78,135],[-11,12]],[[13573,6610],[158,-65],[15,3],[52,50],[25,8],[52,-20],[31,-24],[110,-147],[20,-18],[15,-3],[66,4],[60,11],[29,13],[61,36],[38,31],[55,53],[41,33],[51,19],[26,0],[30,-14],[90,-28],[56,-20],[59,-16],[37,-5],[118,-4],[148,44],[21,1],[37,-11],[70,-30],[31,-7],[45,19],[38,32],[48,66],[34,37],[10,3],[75,161],[29,52],[46,62],[32,35],[26,22],[170,121],[29,29],[18,28],[11,34],[3,35],[-8,49],[-24,43],[-27,26],[21,10],[35,-7],[69,-30],[3,35],[-7,49],[-10,40],[-21,60],[-10,43],[-13,84],[-42,106],[-23,52],[-14,42],[-26,100],[16,32],[-22,33],[-81,106],[-53,50],[-17,10],[-13,29],[-15,51],[-15,9],[-14,31],[-26,11],[-32,2],[-22,15],[-31,11],[-20,61],[-39,43],[-3,18],[-17,26],[-57,104],[4,43],[8,31],[-23,36]],[[22858,1002],[-67,-120],[-23,-107],[-80,20],[-20,-64],[-48,3],[-17,-55],[-121,-444],[-27,-71],[-27,-6],[-21,-14],[-16,-21],[0,-47],[6,-21],[-16,-27],[-16,-14],[-21,0],[-53,-14],[-32,13],[-16,14],[-37,0],[-27,20],[0,20],[-26,7],[-32,-14],[-82,-9],[-53,-1],[-117,-25],[-52,1],[-60,12],[-106,38],[-47,34],[-56,36],[-71,40],[-55,45],[-43,30],[-18,37],[-20,13],[-45,14],[-24,-5],[-13,-13],[-42,-15],[-78,-54],[-33,-16],[-32,-31],[-64,22],[-31,20],[-51,19],[-22,-36],[-29,3],[-17,-18],[-3,-42],[-17,-6],[-18,8],[-19,20],[-40,-3],[-32,13],[-7,-42],[-19,-19],[-20,-2],[-32,11],[-38,28],[-81,37],[-46,16],[-36,28],[-8,31],[15,16],[-35,58],[-26,10],[-42,-3],[-6,27],[-18,44],[-2,23],[-15,28],[-42,-4],[-32,8],[-24,-19],[-32,12],[-52,35],[-1,15],[20,14],[18,32],[5,54],[-1,70],[-9,24],[-29,15],[-14,26],[-16,5],[-48,1],[-33,31],[10,27],[-6,11],[-26,-5],[-25,12],[-24,33],[-38,40],[-20,5],[-63,65],[-34,45],[-72,85],[-71,87],[-77,107],[-46,47],[-9,21],[12,27],[-14,20],[-17,-1],[-12,-17],[-47,-4],[-43,19],[-20,39],[-33,12],[-28,-14],[-50,-2],[-25,-18],[-31,7],[-22,26],[-18,1],[-21,30],[-15,-4],[-28,13],[-29,24],[-17,-7],[-24,2],[-41,-12],[-16,-25],[6,-15],[-21,-16],[-47,1],[-28,10],[-11,19],[-18,4],[-46,-12],[-16,9],[-25,40],[-47,-6],[-19,16],[-6,36],[7,42],[-16,15],[-61,15],[-20,-1],[-34,-13],[-16,-40],[-23,-4],[-15,13],[-6,22],[-25,39],[-25,-2],[-14,-29],[-29,-39],[-11,-35],[5,-53],[-13,-23],[-3,-22],[-22,-6],[-6,-33],[-21,-22],[-4,-31],[-19,-39],[-3,-31],[-12,-21],[-32,7],[-10,9],[-6,44],[-12,19],[-64,38],[-28,10],[-74,33],[-31,30],[0,24],[-32,3],[-8,-12],[-10,-46],[-21,-20],[-16,-42],[-33,-42],[-35,-17],[-5,-16],[-36,-25],[-12,-20],[-15,-4],[-33,16],[-23,-3],[-33,-24],[-26,-31],[-95,-17],[-29,-13],[-48,-15],[-29,24],[19,46],[8,60],[-46,-5],[-30,11],[-50,-3],[-31,-6],[-12,-18],[-7,-33],[-13,-8],[-55,-17],[-29,11],[-93,9],[-42,-5],[-55,8],[-14,13],[1,37],[-25,6],[-18,-21],[-26,1],[-9,19],[-19,5],[-31,32],[-57,33],[-19,22],[-24,-7],[-23,3],[-50,42],[-46,25],[-33,25],[-12,-17],[-28,-20],[-31,15],[-2,22],[-12,6],[-17,42],[-16,16],[-53,25],[-21,-6],[-56,15],[-7,7],[-36,-13],[-29,8],[-53,-15],[-19,-17],[-36,1],[-31,-8],[-14,-11],[-17,9],[1,25],[-7,34],[-14,19],[-37,26],[-19,0],[-47,22],[-12,17],[-24,8],[-49,-12],[-40,13],[-15,20],[-34,32],[-23,-2],[-18,-32]],[[14582,3500],[13,15],[14,35],[12,72],[14,45],[20,48],[26,48],[34,39],[19,41],[3,37],[-17,299],[-12,44],[-57,82],[-27,43],[-26,56],[-27,50],[-51,84],[-18,17],[-54,33],[-22,20],[-52,89],[-14,41],[-9,52],[-3,40],[0,77],[-4,33],[-15,32],[-72,122],[-55,108],[-35,84],[-39,60],[-44,57],[-173,235],[-22,56],[-21,31],[-96,112],[-54,72],[-17,30],[-14,45],[-13,56],[-71,111],[-36,76],[-48,76],[16,76],[23,133],[15,98]],[[9557,7118],[62,13],[61,25],[41,29],[42,42],[53,41],[97,64],[138,103],[102,82],[187,135],[69,46],[42,20],[68,21],[116,24],[55,15],[182,54],[29,11],[47,29],[30,25],[145,160],[59,52],[64,31],[43,10],[81,14],[42,12],[124,44],[115,51],[45,18],[70,14],[200,12],[31,4],[39,12],[97,40],[79,17],[229,39],[131,27],[124,14],[88,20],[280,67],[64,7],[89,-6],[115,20],[148,23],[113,41]],[[13593,8640],[4,-27],[20,-239],[12,-101],[11,-30],[56,-109],[18,-56],[40,-45],[8,-18],[39,-130],[139,-492],[7,-37],[-1,-97],[-4,-25],[-21,-45],[-43,-45],[-185,-149],[-21,-25],[-57,-115],[-12,-43],[-30,-202]],[[30574,17249],[52,-33],[66,-32],[112,-45],[47,-7],[44,7],[32,-1],[20,-8],[30,-29],[60,-99],[39,-47],[93,-87],[28,-29],[38,-28],[32,-15],[33,1],[40,23],[55,14],[96,4],[81,20],[57,30],[16,21],[11,55],[-16,58],[-3,72],[-21,59],[-28,46],[-23,22],[-53,16],[-61,-15],[-59,6],[-34,23],[-43,43],[-39,26],[-104,85],[-86,64],[-72,50],[-45,43],[-26,35],[-8,20],[0,57],[30,81],[16,26],[27,24],[67,29],[33,40],[25,62],[14,58],[8,61],[16,87],[8,16],[9,45],[41,82],[38,41],[66,60],[23,28],[88,87],[37,35],[95,105],[60,50],[84,53],[49,17],[45,10],[60,-3],[31,-14],[138,-36],[18,-14],[24,-4],[51,-22],[8,-9],[36,-10],[60,-45],[32,-39],[41,-68],[39,-56],[66,-89],[51,-53],[46,-22],[54,-6],[43,-9],[37,-14],[134,-66],[43,-17],[51,-8],[26,6],[43,24],[34,13],[45,2],[52,-12],[58,-26],[39,-31],[23,-25],[29,-53],[7,-33],[-6,-63],[-15,-42],[-33,-41],[-36,-22],[-75,-38],[-38,-5],[-75,-2],[-40,-16],[-24,-40],[-2,-33],[23,-26],[43,-10],[199,-125],[41,-9],[23,3],[41,22],[21,28],[54,39],[60,23],[66,5],[47,-8],[46,-17],[30,-17],[19,-26],[29,-22],[42,-15],[22,0],[52,26],[52,9],[25,-7],[35,-23],[38,-60],[23,-29],[41,-30],[56,-22],[195,-130],[34,-9],[54,-5],[41,0],[52,-13],[128,-61],[96,-36],[94,-30],[107,-55],[96,-57],[103,-75],[75,-80],[118,-137],[114,-102],[72,-48],[45,-20],[-3,-26],[-42,-31],[-21,-31],[7,-23],[35,-32],[6,-24],[-67,19],[-20,-4],[-20,-22],[-18,1],[-70,34],[-31,4],[-20,-12],[3,-26],[33,-34],[23,-38],[24,-11],[51,12],[10,-8],[-22,-54],[23,-24],[11,-24],[-7,-20],[0,-33],[-32,-2],[-52,21],[-30,-3],[-20,15],[-19,2],[-8,24],[-50,133],[-66,-239],[-36,-106],[25,-59],[-4,-39],[3,-25],[-13,-12],[-43,17],[-25,19],[-40,11],[1,-22],[-17,-24],[7,-32],[-48,-24],[-40,-33],[-6,-52],[26,-35],[48,-30],[19,-21],[39,-81],[15,-6],[-28,-87],[-36,-26],[-8,-38],[-12,-7],[-61,36],[-30,1],[-7,-26],[-13,-21],[-56,-20],[-19,-54],[-12,-14],[-63,-30],[-17,-19],[8,-31],[-22,-26],[-4,-46],[12,-25],[20,-13],[10,-19],[30,0],[40,-14],[15,-20],[35,-26],[11,-52],[1,-31],[52,4],[31,-22],[-11,-39],[6,-21],[-11,-11],[-20,1],[-20,-21],[-60,-4],[-18,10],[-29,-10],[-61,-2],[-64,8],[-7,-30],[33,-40],[-20,-26],[-17,7],[-42,-14],[-29,-14],[16,-19],[-20,-26],[-27,-2],[-34,-31],[-7,-31],[-2,-58],[-28,-75],[-42,-89],[-16,-18],[-44,-84],[-7,-37],[-38,-60],[-11,-54],[-10,2]],[[34197,14157],[-51,16],[-26,14],[-77,62],[-89,83],[-143,139],[-105,100]],[[33706,14571],[-56,57],[-28,37],[-28,53],[-99,240],[-21,49],[-121,292],[-43,97],[-39,48],[-143,144],[-50,58],[-41,52],[-147,182],[-54,73],[-56,88]],[[32780,16041],[-118,184],[-40,42],[-161,112]],[[32461,16379],[-71,49],[-53,44],[-64,74],[-37,55],[-131,211],[-29,52],[-28,60],[-26,-23],[-26,-36],[-25,-42],[-40,-46],[-9,-21],[-5,-65],[-5,-20],[-25,-49],[-11,-59],[1,-86],[-10,-29],[-40,-79],[-2,-95],[10,-77],[-1,-27],[-26,-101],[-66,-138],[-27,-74],[-6,-25],[4,-59],[18,-39],[4,-37],[-17,-60],[-90,-193],[-100,-211],[-28,-60],[-78,-180],[1,-18],[53,-76],[9,-44],[-36,-98],[-22,-54],[-47,-90],[-80,-125],[-22,-25],[-76,-62],[-18,-20],[2,-14],[22,-35],[9,-36],[-2,-25],[-11,-31],[-21,-36],[0,-38]],[[31183,14166],[-5,-64],[-9,-73],[10,-60],[26,-61],[57,-90],[15,-16],[48,-34],[19,-19],[17,-42],[-2,-78],[-7,-28],[-26,-45],[-6,-41],[0,-48],[12,-47],[64,-173]],[[29727,12764],[-48,80],[-71,99],[-46,47],[22,50],[26,155],[28,114],[19,38],[68,73],[163,152],[58,59],[18,40],[15,93],[37,50],[50,41],[142,81],[35,34],[61,85],[14,33],[25,98],[17,38],[53,80],[31,63],[12,34],[53,285],[32,102],[3,50],[-5,49],[-12,60],[-2,91],[10,96],[1,43],[-5,37],[-20,58],[-17,34],[-56,82],[-21,37],[-18,72],[-30,74],[-45,73],[-25,52],[-24,66],[-28,60],[-6,32],[6,36],[18,61],[55,173],[89,156],[29,61],[57,166],[7,46],[-8,34],[-43,64],[-8,19],[5,65],[-8,36],[-25,167],[-34,109],[-23,86],[-32,41],[45,14],[17,-4],[21,-19],[22,-8],[28,56],[-1,35],[11,13],[25,-6],[21,-18],[36,-17],[21,17],[2,12]],[[32780,16041],[-17,-35]],[[32763,16006],[-8,-15],[-27,-11],[-68,5],[-46,-11],[-20,-15],[-18,-24],[-15,-64],[35,-53],[-56,-282],[30,-43],[-6,-16],[3,-36],[-110,-73],[-19,-21],[-37,-188],[-18,-41],[-16,-20],[-96,-65],[-9,-45]],[[32262,14988],[-247,-34],[-28,61],[-7,-1],[-73,19],[-192,151],[50,65],[-97,75],[-18,34],[7,38],[131,281],[30,31],[37,15],[90,6],[-3,32],[6,48],[30,54],[-30,20],[21,49],[10,15],[43,31],[5,9],[34,15],[57,46],[20,40],[99,97],[41,59],[74,55],[60,37],[49,43]],[[32187,14898],[46,30],[25,35],[4,25]],[[32763,16006],[1,-34],[-19,-90],[5,-21],[15,-21],[72,-63],[133,-95],[12,-20],[-1,-59],[10,-27],[36,-33],[23,-37],[23,-62],[27,-127],[0,-49],[-11,-28],[-40,-65],[-18,-20],[-40,-21],[-102,-42],[-25,-18],[-60,-64],[-13,-18],[-9,-33],[0,-33],[12,-189],[-2,-35],[-10,-17],[-25,-12],[-36,-3],[-29,-12],[-27,-29],[-105,-178],[-20,-32],[-25,-15],[-135,-33]],[[32380,14371],[-48,-3],[-21,8],[-19,24],[-6,42],[15,89],[-17,31],[-11,44],[-110,157],[24,135]],[[26300,4889],[-122,-10],[3,-37],[120,10],[-8,-57],[6,-16],[-270,-133],[10,-136],[-40,-16],[-47,-29],[-29,-32],[-18,-33],[-48,-56],[-28,-29],[-129,-189],[-63,-55],[-19,-19],[-70,-91],[-13,-9],[-87,14],[-42,-5],[-276,-328],[-46,14],[-9,-30],[-13,-23],[-53,-65],[-17,-36],[-2,-26],[-161,-191],[11,-24],[-7,-65],[7,-64],[7,-41],[14,-31],[16,-20],[49,-33],[-48,-204],[-47,18],[-21,21],[-27,12],[-9,14],[4,23],[-14,6],[-52,-5],[-42,-13],[-30,14],[-25,3],[-35,16],[-16,21],[-10,33],[-446,-523],[-128,66],[-39,13],[-62,12],[-19,-35],[-23,-66],[112,-47],[-10,-58],[-157,8],[-40,-129],[-34,-100],[36,-12],[-22,-67],[-35,12],[-71,-212],[-12,-22]],[[33706,14571],[-9,-27],[-29,0],[-21,28],[-28,-49],[-14,-50],[-30,-61],[-16,-22],[-25,-23],[-82,-54],[-22,-33],[-14,-49],[-19,-22],[-30,-14],[-124,-33],[-29,0],[-88,14],[-32,8],[-20,25],[-1,24],[18,78],[12,21],[31,14],[59,5],[-50,27],[-39,7],[-31,-12],[-24,-21],[-15,-3],[-41,5],[-78,-25],[-41,9],[-76,68],[-156,-128],[-42,-8],[-25,10],[-15,-40],[-19,-17],[-22,-6],[-28,18],[-95,93],[-16,43]],[[32187,14898],[-90,-65],[-21,-31],[-21,-18],[-13,-67],[-26,-39],[-29,-22],[-17,-22],[-80,-53],[-19,-32],[-17,-85],[-10,-38],[-11,-8],[-13,-62],[-11,-8],[-13,-77],[6,-21],[-8,-40],[-19,-24],[-127,-82],[-13,-14],[-47,1],[-46,9],[-26,-5],[-42,-22],[-50,12],[-18,-4],[-58,-1],[-31,8],[-23,35],[-46,11],[-20,16],[-45,16]],[[34197,14157],[-19,-69],[-27,-40],[-39,-19],[-107,-29],[7,-31],[-55,-14],[-9,34],[-44,-12],[-10,7],[-47,-24],[-63,-24],[-274,-78]],[[13593,8640],[132,49],[-30,82],[-33,99],[-139,381],[-17,73],[-11,87],[-17,92],[-49,167],[-26,85],[-32,93],[-14,32],[-28,44],[-55,56],[-143,125],[-60,64],[-39,58],[-189,297],[-39,55],[-60,60],[-246,206],[-228,190],[-37,49],[-23,53]],[[12210,11137],[39,42],[28,19],[42,18],[61,12],[28,-5],[102,-36],[39,-5],[35,1],[47,29],[48,2],[59,-2],[61,17],[49,0],[39,-14],[25,-17],[11,-31],[-8,-52],[2,-35],[17,-68],[12,-31],[20,-27],[18,-2],[41,13],[31,20],[56,66],[15,28],[4,38],[-27,109],[-10,65],[1,25],[17,42],[55,77],[21,46],[36,98],[20,18],[29,8],[80,11],[42,12],[35,5],[139,-15],[49,10],[57,31],[21,18],[15,30],[8,37],[19,46],[14,22],[47,34],[39,34],[49,60],[43,45],[27,38],[18,41],[20,69],[16,36],[25,41],[37,49],[48,40],[53,19],[50,-1],[61,-12],[42,14],[19,16],[50,89],[125,122],[24,41],[29,72],[8,27],[3,43],[-23,92],[-20,161],[-20,91],[6,23],[-2,52],[7,25],[17,17],[25,10],[33,-3],[24,-28],[43,-32],[25,-7],[35,7],[46,21],[47,15],[85,11],[35,22],[49,94],[41,53],[53,48],[28,31],[38,32],[77,48],[63,11],[98,8],[66,0],[23,8],[46,0],[33,-12],[57,-43],[92,-81],[67,-68],[48,-55],[22,-37],[9,-26],[20,-80],[23,-67],[34,-46],[27,-22],[36,4],[21,13],[38,40],[24,42],[24,67]],[[28061,17713],[94,2],[43,18],[40,34],[30,36],[49,67],[9,22],[-7,61],[17,41],[15,16],[40,19],[47,5],[83,-10],[83,-16],[45,-3],[51,7],[71,16],[36,5],[36,-7],[94,-37],[73,-25],[73,-32],[91,-52],[81,-30],[146,-59],[48,-8],[28,12],[59,35],[41,4],[72,-10],[78,-26],[183,-50],[94,-32],[66,-35],[70,-40],[44,-33],[60,-58],[104,-116],[52,-43],[70,-53],[104,-89]],[[7928,7762],[11,33],[9,62],[32,133],[7,82],[-9,49],[-24,82],[7,44],[23,81],[32,81],[19,34],[18,45],[18,22],[111,16],[42,4],[131,35],[60,-1],[77,-17],[37,-18],[30,-23],[43,-49],[33,-23],[21,-7],[27,6],[40,41],[34,68],[13,68],[27,37],[46,23],[45,2],[42,17],[32,7],[26,-8],[30,-38],[7,-26],[15,-3],[26,7],[68,35],[47,16],[51,33],[112,10],[51,-7],[18,7],[88,93],[33,43],[19,37],[21,80],[27,52],[57,76],[17,18],[47,28],[33,4],[58,-13],[36,17],[28,43],[5,20],[-5,45],[16,14],[20,2],[29,17],[35,9],[38,-3],[57,8],[82,-4],[24,8],[6,20],[-4,23],[-21,33],[-8,40],[2,30],[17,82],[14,86],[5,50],[22,83],[8,50],[17,33],[15,44],[-4,23],[-13,19],[-19,12],[-37,1],[-68,-18],[-31,-23],[-13,-33],[-7,-55],[-27,-19],[-9,-17],[-24,-7],[-80,61],[-12,32],[3,22],[16,15],[42,18],[11,12],[3,23],[-21,32],[-39,40],[-7,13],[-41,15],[-31,32],[-6,26],[11,40],[19,34],[23,31],[20,14],[38,7],[63,-8],[95,16],[67,7],[63,26],[51,3],[18,-9],[27,-38],[26,3],[12,14],[15,47],[29,-2],[33,-88],[46,-114],[23,-45],[40,-65],[19,-14],[41,-4],[17,42],[6,171],[-1,17],[22,90],[24,35],[46,19],[54,0],[81,-11],[36,-15],[19,-20],[20,-41],[45,-44],[39,-22],[61,-39],[42,-38],[27,-12],[110,1],[65,-7],[150,-3],[43,2],[17,9],[12,42],[-3,49],[-6,22],[-17,32],[-50,39],[-129,77],[-45,35],[-66,85],[-22,40],[-13,47],[-5,53],[5,55],[59,140],[19,40],[56,103],[29,60],[40,90],[26,48],[18,24],[27,21],[97,47],[66,27],[23,15],[27,31],[43,17],[38,6],[78,2],[26,-7],[31,-23],[31,-38],[-7,-15],[-37,-24],[-43,-40],[-45,-75],[-15,-40],[-6,-49],[6,-79],[11,-47],[13,-35],[39,-63],[49,-7],[56,9],[69,35],[40,32],[21,22],[38,51],[38,60],[23,60],[3,17],[23,43]]],"transform":{"scale":[0.00001879013007533658,0.000014671994033349628],"translate":[-78.368984,38.117622]},"objects":{"Geometry\\51-137":{"type":"GeometryCollection","geometries":[{"arcs":[[0,1,2]],"type":"Polygon","properties":{"GEOID":"511371103022"}},{"arcs":[[3,4,5,6,-2]],"type":"Polygon","properties":{"GEOID":"511371103021"}},{"arcs":[[7,8,9,-6]],"type":"Polygon","properties":{"GEOID":"511371103012"}},{"arcs":[[10,11,12,13,14,15]],"type":"Polygon","properties":{"GEOID":"511371101042"}},{"arcs":[[16,17,-11,18,19]],"type":"Polygon","properties":{"GEOID":"511371101061"}},{"arcs":[[20,-20,21,22,23,24]],"type":"Polygon","properties":{"GEOID":"511371101053"}},{"arcs":[[-23,25,26,27]],"type":"Polygon","properties":{"GEOID":"511371101051"}},{"arcs":[[28,-24,-28,29,-9,30]],"type":"Polygon","properties":{"GEOID":"511371101052"}},{"arcs":[[31,32,-31,-8,-5]],"type":"Polygon","properties":{"GEOID":"511371103011"}},{"arcs":[[33,34,35,36,37,38,-13,39]],"type":"Polygon","properties":{"GEOID":"511371101081"}},{"arcs":[[-37,40,41,42]],"type":"Polygon","properties":{"GEOID":"511371101083"}},{"arcs":[[43,-42,44,45]],"type":"Polygon","properties":{"GEOID":"511371101071"}},{"arcs":[[-19,-16,46,-26,-22]],"type":"Polygon","properties":{"GEOID":"511371101062"}},{"arcs":[[-45,-41,-36,47]],"type":"Polygon","properties":{"GEOID":"511371101072"}},{"arcs":[[-43,-44,48,-38]],"type":"Polygon","properties":{"GEOID":"511371101082"}},{"arcs":[[-49,-46,-48,-35,49,-14,-39]],"type":"Polygon","properties":{"GEOID":"511371101073"}},{"arcs":[[-25,-29,-33,50,51]],"type":"Polygon","properties":{"GEOID":"511371102001"}},{"arcs":[[52,-40,-12,-18]],"type":"Polygon","properties":{"GEOID":"511371101041"}},{"arcs":[[53,-51,-32,-4,-1]],"type":"Polygon","properties":{"GEOID":"511371102002"}}]}}}