{"type":"Topology","arcs":[[[8759,13997],[28,6],[72,50],[29,12],[39,-3],[36,-15],[17,130],[14,38],[-31,24],[-10,31]],[[8953,14270],[5,1]],[[8958,14271],[21,-40],[24,-2],[20,-18],[96,-13],[71,-24],[26,0],[41,-16],[51,5],[30,21],[68,3],[86,-31],[29,3],[9,20],[-4,55],[25,42],[40,2],[76,15],[37,-24],[-2,-45],[8,-20],[54,-43],[28,-10],[75,-2],[59,-31],[54,9]],[[9980,14127],[-63,-85],[-36,-34],[-72,-20]],[[9809,13988],[-64,68],[-144,-128]],[[9601,13928],[-56,51],[-42,-5],[-102,-57],[-47,-15],[-40,0],[-119,21],[-46,2],[-192,-55]],[[8957,13870],[-47,-13]],[[8910,13857],[-10,41],[-45,-6],[-67,4],[-26,77],[-3,24]],[[15717,7156],[42,29],[28,11],[92,16],[259,60]],[[16138,7272],[22,-78],[20,-46]],[[16180,7148],[-20,-9],[9,-59],[32,-23],[-14,-88],[-16,-35],[17,-18],[7,-36],[26,-44],[-14,-85]],[[16207,6751],[-31,-23],[-31,-8]],[[16145,6720],[-7,63],[4,65],[-7,37],[-41,86],[-45,69],[-25,25],[-36,15],[-85,10],[-36,-29],[-12,-44],[-39,-34],[-33,59],[-28,34],[-28,69],[-10,11]],[[15432,558],[36,27],[7,28],[47,-18],[47,56],[36,61],[8,28],[41,13],[35,30],[26,11],[21,36],[-14,195],[-29,40],[1,47],[-11,22],[17,43],[85,2],[158,-11]],[[15943,1168],[28,-33],[217,-134],[27,4],[37,-18],[48,-2],[31,-12],[44,-8],[26,-26],[22,-7],[29,-32],[66,-49],[44,-14],[20,24],[70,-30],[48,-30],[36,-33]],[[16736,768],[69,-67],[-98,-89],[27,-107],[54,-120],[82,-169]],[[16870,216],[-30,-16],[-76,-19],[-38,-1],[-33,18],[-85,70],[-42,5],[-99,-18],[-78,-45],[-16,-16],[-6,-32],[17,-28],[98,-78],[10,-30],[-20,-22],[-29,-4],[-41,9],[-287,137],[-57,39],[-41,22],[-49,12],[-68,6],[-61,20],[-92,23],[-70,40],[-103,87],[-85,52],[-26,21],[-30,47],[-1,43]],[[8976,10754],[60,71],[63,81],[8,17],[17,119],[56,23],[28,-46],[123,91],[47,-31],[63,-13],[67,16],[19,-36],[-1,-39]],[[9526,11007],[-51,-133],[-6,-220],[-7,-23],[-27,-39],[-3,-24],[29,-72],[-5,-64],[-20,-35]],[[9436,10397],[-105,41],[-457,224]],[[8874,10662],[35,37],[49,35],[18,20]],[[10590,11258],[14,55],[12,3],[-8,64],[77,-9],[13,76]],[[10698,11447],[125,-74],[153,-65],[62,-45],[45,-51],[51,-43]],[[11134,11169],[-39,-34],[-115,-19],[43,-9],[39,-21],[39,1],[23,-14],[6,-29],[66,-46],[46,-75],[49,-28],[44,-15],[-11,-30],[32,-25],[-1,-13],[54,-22],[2,-25],[28,-46],[-11,-21],[2,-49],[-92,33],[-6,-30],[4,-54],[-55,-183],[1,-53],[-153,-13],[-101,-1],[-40,-9],[7,-39],[-6,-163],[-9,-25],[-75,-88],[-66,-34],[-33,-28],[-21,-31]],[[10785,9931],[-107,54],[-86,52],[-117,101],[-53,34],[-54,24],[-85,22],[-121,16]],[[10162,10234],[22,31],[39,101],[26,52],[110,187],[32,59],[53,112],[24,36],[36,35],[132,69],[44,49],[51,108],[-32,22],[-109,163]],[[9493,12222],[101,-58],[-5,-28],[36,-5],[10,-42],[-24,-3],[4,-29],[82,15],[23,-6],[6,-35],[-79,-12],[11,-65],[-55,0],[-58,18],[2,34],[-64,-12],[17,83],[-31,2],[24,143]],[[11078,11964],[-38,-7],[-28,-15],[-25,-25],[-20,-60],[159,-10],[18,-14],[30,-64]],[[11174,11769],[133,-141],[22,-58],[70,-61],[2,-62],[-21,-51],[20,-91],[14,-107],[8,-22]],[[11422,11176],[-70,-27],[-79,-16],[-63,6],[-76,30]],[[10698,11447],[11,66],[32,148],[31,175],[14,100],[-3,51],[-39,100],[27,10],[73,352],[-153,106],[-205,138],[72,95],[-45,31],[-25,27],[-31,-41],[-134,88],[80,108],[164,-107],[-18,-25],[40,-18],[76,-47],[142,-96],[55,67],[104,-65],[-38,-44],[28,-14],[59,-62],[-12,-151],[41,-11],[-23,-111],[-15,11],[-31,-23],[-45,-52],[-34,-5],[-23,-22],[82,-72],[61,-99],[62,-91]],[[5808,14228],[941,76]],[[6749,14304],[-1,-59],[-24,-33],[-63,-52],[-10,-15],[-7,-53],[2,-43],[102,-43],[65,-16],[95,-8],[171,0],[90,13],[60,19]],[[7229,14014],[60,-27],[44,-34],[21,-28],[31,-99],[14,-27]],[[7399,13799],[-1,-20]],[[7398,13779],[-26,-60],[-5,-28],[13,-35],[26,-38],[24,-71],[27,-28],[-6,-20],[-94,-57],[-13,-18],[-8,-62],[-35,-32]],[[7301,13330],[-51,61],[-41,32],[-44,22],[-206,73],[-208,97],[-70,109],[-43,57],[-41,40],[-51,35],[-44,22],[-142,59]],[[6360,13937],[-347,142],[-93,50],[-55,42],[-57,57]],[[6044,13214],[86,-39],[-4,-58],[-7,-11],[-5,-65],[26,-23],[-11,-80],[2,-97],[-12,-90],[-15,-43]],[[6104,12708],[8,-46],[-18,-65],[-8,-90],[9,-59],[47,-51],[20,-5],[1,-33],[39,-104],[1,-26],[18,-42],[-9,-38],[63,-100],[24,-4],[39,-23]],[[6338,12022],[-15,-23],[29,-12]],[[6352,11987],[-75,-24],[-107,-69],[-13,-19]],[[6157,11875],[-162,66],[-46,35],[-33,48],[-63,66],[-211,148],[-60,51]],[[5582,12289],[67,35],[26,34],[58,142],[54,91],[38,45],[68,118],[11,34],[-12,93],[74,184],[78,149]],[[4183,14133],[123,39],[467,144]],[[4773,14316],[329,-53],[243,-38],[108,-11],[108,-2],[101,4]],[[5662,14216],[146,12]],[[6360,13937],[-167,-196],[-20,-34],[-19,-64],[-21,-26],[-52,-44],[-32,-53]],[[6049,13520],[-46,-3],[-95,-15],[-179,-19],[-45,5],[-39,18],[-153,106],[-254,169],[-135,96],[-90,56],[-95,65],[-44,25],[-64,8],[-51,-8],[-80,-21],[-87,-44],[-23,-115],[-3,-56],[-13,-79],[-42,-39],[-22,-58],[-42,-79]],[[4447,13532],[-12,16]],[[4435,13548],[-26,47],[-42,93],[-64,156],[-14,53],[1,49],[-20,55],[-32,36],[-55,96]],[[14756,6377],[25,10],[26,-40],[56,-21],[28,-33],[150,-45]],[[15041,6248],[75,-22],[16,-16],[12,-44],[50,-46],[37,-26]],[[15231,6094],[-13,-26],[44,-6],[-3,-45],[-14,-25],[-91,-85],[-46,-13],[-31,7],[-8,-25]],[[15069,5876],[-51,35],[-26,31],[-44,66]],[[14948,6008],[-107,177],[-49,121],[-36,71]],[[18510,8808],[54,-34],[50,-48],[55,-76],[-25,-15],[55,-85],[36,-45],[24,-43],[24,-71],[37,-88],[30,-24],[174,-77]],[[19024,8202],[-127,-43],[-65,-19],[-108,-26]],[[18724,8114],[-77,-16],[-174,-26]],[[18473,8072],[-12,50],[-31,45],[-8,32],[7,40]],[[18429,8239],[24,58],[-23,73],[-17,83],[-3,86],[14,99],[-10,41],[9,36],[54,-56],[15,10],[18,139]],[[15406,3226],[52,-43],[48,-16],[33,-29],[32,-11],[27,3],[44,18],[-7,-38],[40,3],[12,10],[48,12],[98,-2]],[[15833,3133],[-40,-43]],[[15793,3090],[-218,-231],[-29,-43],[-9,-29],[-35,-193]],[[15502,2594],[-21,-112],[-77,-196],[-68,-129]],[[15336,2157],[-268,172]],[[15068,2329],[184,580],[30,94],[23,58],[45,85],[56,80]],[[7301,13330],[60,-80],[41,-66],[32,-68]],[[7434,13116],[29,-83]],[[7463,13033],[-144,-85],[-108,-57]],[[7211,12891],[-23,-13]],[[7188,12878],[-64,40],[-213,159],[-16,-4],[-45,40],[-46,27],[-83,24]],[[6721,13164],[-118,30],[-44,19],[-20,19],[-73,95],[-72,73],[-60,39],[-223,74],[-62,7]],[[17720,8153],[61,12],[75,-18],[18,47],[33,37],[38,22],[42,15],[45,32]],[[18032,8300],[25,-23],[11,-36],[28,-31],[31,-73],[37,-34],[30,-3],[19,-16],[31,34],[58,6],[97,-30],[31,-28]],[[18430,8066],[-125,-18]],[[18305,8048],[-127,-21],[-109,-36],[-55,-28],[-81,-55]],[[17933,7908],[-55,26],[-33,5],[-6,24],[-44,37],[-20,35],[-60,1],[8,58],[-3,59]],[[18032,8300],[19,33],[10,66],[20,30]],[[18081,8429],[129,-76],[51,-41],[37,-51],[19,-15],[33,-5],[47,4],[32,-6]],[[18473,8072],[-43,-6]],[[11151,6273],[154,82],[48,51]],[[11353,6406],[43,-11],[158,-31],[41,2],[22,-14],[45,-6],[144,-28],[27,-2]],[[11833,6316],[251,-99],[110,-46],[51,-24],[71,-43]],[[12316,6104],[26,-19]],[[12342,6085],[71,-49],[423,-300]],[[12836,5736],[70,-47],[92,-85],[136,-151],[27,-24],[54,-29],[47,-11],[299,-35],[240,-26],[192,-22],[78,-14]],[[14071,5292],[72,-32],[216,-115]],[[14359,5145],[204,-109],[61,-24],[144,-38]],[[14768,4974],[115,-30],[127,-44],[13,6],[82,-22],[66,-31]],[[15171,4853],[60,-52],[102,-114],[71,-117],[18,-46]],[[15422,4524],[6,-36],[11,-234],[14,-56],[65,-145],[24,-40],[34,-36]],[[15576,3977],[-17,-43],[23,-221],[-276,-119],[-64,-35],[-33,-43],[-32,-163],[17,-7],[-22,-49],[78,-34],[28,0],[36,14],[49,0],[43,-51]],[[15068,2329],[-23,14]],[[15045,2343],[-107,69],[-48,18],[-60,7],[-143,-2],[-78,-4],[-67,33],[-92,28],[-41,21],[-45,42],[-38,28],[-37,9],[-47,-7],[-40,-14],[-72,10],[-21,20],[-35,68],[-24,29],[-28,21],[-98,49],[-60,26],[-204,73],[-30,8],[-77,10],[-173,3],[-242,93],[-79,36],[-28,6],[-122,4],[-81,-8],[-43,1],[-68,29],[-95,7],[-107,26],[-56,36],[-62,6],[-56,-1],[-70,38],[-50,58],[-21,39],[-33,40],[-68,65],[-42,28],[-102,55],[-69,48],[-49,50],[-21,99],[-49,61],[-63,52],[-64,21],[18,73],[-11,42],[-49,73],[-17,60],[7,54],[35,73],[70,95],[9,27],[1,44],[12,115],[20,72],[4,35],[-4,65],[16,58],[29,44],[52,53],[13,30],[6,251],[-7,17],[-95,67],[-53,24],[-38,43],[-28,59],[-68,76],[-126,80],[-22,42],[-6,44],[-55,72],[-39,116],[-15,66],[-17,135],[-33,84],[-62,9],[-40,1],[4,297]],[[15576,3977],[29,-23],[163,-89],[128,-72]],[[15896,3793],[-28,-37],[-462,-530]],[[15896,3793],[174,-94],[54,-41],[106,-102]],[[16230,3556],[-123,-135],[-73,-76],[-201,-212]],[[16322,3722],[21,62],[25,48]],[[16368,3832],[87,146]],[[16455,3978],[103,-56],[187,-135],[28,-29],[30,-48],[41,-51]],[[16844,3659],[29,-35],[37,-27],[61,-30]],[[16971,3567],[66,-72],[48,-26],[30,-28],[45,-82]],[[17160,3359],[21,-44],[9,-39],[-31,-25]],[[17159,3251],[-32,-4],[-64,3],[-43,32],[-74,6],[-44,12],[-90,15],[-57,38],[-22,1]],[[16733,3354],[-57,14],[8,37],[-18,88],[-23,36],[-56,45],[-100,52],[-93,75],[-72,21]],[[16171,4441],[104,299],[37,87],[56,91],[45,57],[80,87]],[[16493,5062],[35,-9],[21,-27],[53,-31],[58,-72],[-43,-17],[-26,-41],[11,-32],[19,-10],[60,-7],[18,-15],[-51,-66],[58,-79],[25,-23],[27,-54],[30,-25],[30,12],[39,-12]],[[16857,4554],[-119,-163]],[[16738,4391],[-161,-220]],[[16577,4171],[-37,-53]],[[16540,4118],[-275,245]],[[16265,4363],[-94,78]],[[16201,2589],[35,0],[41,25],[17,41],[22,22],[44,79],[12,55]],[[16372,2811],[72,23],[61,24],[58,15]],[[16563,2873],[35,-23],[22,-33],[16,-61],[27,-71],[11,-13],[15,-50],[61,-16]],[[16750,2606],[-53,-91],[20,-38],[78,-120],[-23,-24]],[[16772,2333],[-115,-112],[-151,-269],[-33,-97],[24,-24],[-3,-27],[11,-28],[-10,-57],[-23,-96],[-64,-87],[-26,-18],[-14,-26]],[[16368,1492],[-64,22],[-43,5],[-69,-5],[-2,28],[15,70],[-7,64],[10,39],[24,31],[62,37],[17,22],[-6,32],[-22,36],[18,44],[-51,43],[31,27],[118,54],[41,37],[-84,72],[-40,45],[-84,74],[-29,33],[-29,63],[-40,17],[-70,-41]],[[16064,2341],[-34,48],[-7,27],[14,46],[65,68],[43,17],[39,-13],[17,55]],[[18189,8953],[37,-34],[69,-34],[50,0],[136,-68],[29,-9]],[[18081,8429],[-82,74]],[[17999,8503],[32,15],[19,30],[45,35],[91,32],[50,62],[-24,33],[59,121],[-101,61],[19,61]],[[17732,6011],[93,141]],[[17825,6152],[66,-43],[47,-47],[28,-37],[26,-18],[52,-18],[71,-70]],[[18115,5919],[-18,-19],[-63,-39],[-90,-22],[-77,-16],[-46,-27],[-24,-46]],[[17797,5750],[-9,24],[2,50],[-6,55],[-14,51],[-16,20],[2,44],[-24,17]],[[3687,13972],[323,104],[173,57]],[[4435,13548],[-16,-24]],[[4419,13524],[-26,22],[-35,-2],[-7,24],[-28,22],[-87,4],[-39,-9],[-39,-37],[-20,-53],[-22,-27],[-31,-16],[-39,-4],[-37,-14],[-31,-22],[-44,-20],[-30,-21],[-39,-14],[-32,8],[-53,47],[-34,-18],[-55,-6],[-18,-35],[-34,-17],[-97,-22]],[[3542,13314],[3,20],[99,163],[44,82],[-9,36],[-4,72],[-32,31],[2,18],[41,37],[16,28],[-13,43],[-8,58],[6,70]],[[6788,12497],[32,39],[51,97],[29,34],[70,35],[55,39],[80,81],[36,29],[47,27]],[[7211,12891],[108,-171],[-82,-25],[26,-69],[81,-149],[-255,-131],[-31,-35],[-8,-34],[-115,36],[-31,20],[-22,26],[-22,54],[-29,42]],[[6831,12455],[-43,42]],[[6352,11987],[64,22],[61,-29],[63,-49]],[[6540,11931],[44,-41],[11,-32],[38,-8],[49,-1]],[[6682,11849],[30,-43],[-6,-40],[7,-59],[-23,-24],[-36,18],[-65,-9],[-40,4],[-30,-44],[-83,-52]],[[6436,11600],[-30,38],[-49,75],[-39,70]],[[6318,11783],[-61,52],[-100,40]],[[11082,8515],[66,-6],[27,3],[24,-45],[36,7],[36,27],[113,175],[28,15],[36,4],[11,-87],[58,-20],[-4,-33],[19,-31],[30,-2],[23,-39],[-5,-31],[11,-53],[46,-56],[33,-22],[19,8],[42,-8],[57,5],[62,-6],[3,-39],[-30,-71]],[[11823,8210],[-35,5],[-30,-7],[-38,-32],[-10,-26],[-7,-62],[-35,-120],[-27,7],[-176,60],[-25,15],[-42,37],[-39,7],[-57,-12],[-72,1]],[[11230,8083],[-45,192],[-28,55],[-54,87],[-21,63],[0,35]],[[15987,3940],[40,91],[144,410]],[[16265,4363],[-15,-14],[95,-89],[-92,-105],[-13,-29],[11,-40],[34,-25],[-43,-51],[-13,-79],[47,-22],[50,-51],[42,-26]],[[16322,3722],[-6,-24]],[[16316,3698],[-9,-40],[-30,-54],[-47,-48]],[[15896,3793],[47,69],[44,78]],[[17722,4137],[53,5],[54,-33],[52,-9],[60,-24],[-11,-72],[42,-44],[58,-15],[76,-28],[35,-1],[60,39],[26,33],[102,-38],[70,-115],[32,-44],[336,-238]],[[18767,3553],[-160,-560],[-54,-101],[24,-23],[-20,-12]],[[18557,2857],[-104,61],[-84,58],[-22,22],[-5,35],[-8,137],[-42,29],[-39,56],[-51,44],[-19,8],[-46,0],[-50,12],[-58,8],[-44,-7],[-64,31],[-67,10],[-51,-36],[-17,-48],[-33,-43],[-14,-44],[-27,-41],[-23,7],[-14,42],[-57,53],[-47,26],[-16,16],[-11,45],[-25,25],[-38,6],[-3,73],[-70,-8],[-73,-2],[-43,-10],[-132,-63]],[[16971,3567],[37,45],[41,10],[46,-14],[31,0],[34,31],[29,56],[0,82],[-11,13],[-16,77],[-17,42],[6,17],[30,19],[23,27],[56,41],[52,12],[31,16],[76,12],[38,22],[61,12],[58,22],[85,7],[76,1],[-15,20]],[[6682,11849],[63,0],[53,-6],[24,-16],[15,-44],[54,-85],[7,-33],[30,-2],[38,16],[26,31],[39,23],[22,-1],[20,-22],[12,-79],[33,-54],[31,-70],[58,-34],[4,29],[108,100],[15,48],[7,59],[26,46],[55,-22],[23,-16],[10,-27],[-3,-117],[5,-30],[49,-174]],[[7506,11369],[-108,-32],[-367,-132],[-52,-21],[-57,-35],[-50,-45]],[[6872,11104],[-13,6],[-100,78],[-146,117],[-35,55],[-25,82],[-19,39],[-92,112]],[[6442,11593],[-6,7]],[[9526,11007],[289,-114],[24,-49],[57,16]],[[9896,10860],[116,-299],[49,-145],[3,-50],[-7,-118]],[[10057,10248],[-150,25],[-86,20],[-359,96],[-26,8]],[[14305,9086],[38,3],[167,-33],[139,-15],[88,-12],[28,-9],[13,27],[-2,38],[22,35],[-7,32],[25,26],[43,21],[32,27],[42,52],[32,-3],[64,17],[35,34],[75,2],[11,24],[38,40],[91,19],[25,-26],[30,15],[50,10],[-9,-64],[57,-22],[20,14],[-2,47],[45,13],[45,21],[32,-21],[5,-22],[24,-19],[52,14],[33,-20],[19,-29],[-1,-31],[-23,-19],[-9,-31],[11,-29]],[[15683,9212],[4,-30],[-10,-20],[-38,-3],[-66,64],[-26,-5],[-7,-27],[-4,-65]],[[15536,9126],[-27,-8],[-46,-34],[-76,-39]],[[15387,9045],[-19,78],[6,41],[-65,-3],[-60,-19],[-57,0],[-11,-66],[-36,1],[1,-27],[-16,-13],[-13,-56],[19,-31],[-38,-13],[-63,10],[-5,-131],[-33,-44],[-17,-10],[-96,-34],[0,-54],[-13,-103],[-39,-80]],[[14832,8491],[-56,15],[-106,5],[-69,16],[-85,36]],[[14516,8563],[-120,72]],[[14396,8635],[14,48],[-39,104],[-11,102],[-15,62],[-40,135]],[[16138,7272],[76,18],[69,23],[60,28],[100,29],[47,22],[29,23]],[[16519,7415],[4,4]],[[16523,7419],[186,-207],[17,-23]],[[16726,7189],[-71,-35],[-54,-39],[-117,-111],[-63,-29],[-51,-1],[-47,13],[-69,56],[-47,59],[-27,46]],[[16621,6591],[45,57],[-4,70],[-18,36],[-34,35],[-3,36],[-14,23],[164,13]],[[16757,6861],[65,-197],[28,-48],[27,-24],[3,-32],[-55,-92],[-27,-57],[-38,-119],[-59,-127],[-26,-103]],[[16675,6062],[-166,36]],[[16509,6098],[10,37],[-26,32],[-4,42],[-32,32],[23,41],[3,31],[17,43],[0,56],[-8,34],[20,43],[39,28],[44,41],[26,33]],[[19116,7405],[39,40],[47,-26],[72,-4],[34,11],[14,20],[26,-7],[33,27],[113,-107],[2,35],[13,16],[52,33],[146,6]],[[19707,7449],[195,-208],[40,-51],[49,-86],[21,-54],[21,-86],[7,-60],[1,-56],[-7,-73],[-11,-52],[-21,-65],[-31,-55]],[[19971,6603],[-221,52],[-27,14],[-89,73],[-5,69],[-60,50],[-13,30],[-30,126],[-15,6],[-198,-44],[-39,63],[-53,96],[-31,74],[23,17],[8,43],[-31,100],[-72,19],[-2,14]],[[17352,5956],[43,31],[45,51]],[[17440,6038],[21,-13],[80,-68],[67,65],[34,-36],[-5,-38],[31,-36]],[[17668,5912],[-26,-30],[-125,-121]],[[17517,5761],[-171,-167],[-28,-40]],[[17318,5554],[-89,-228]],[[17229,5326],[-26,2],[-28,27],[-3,25],[18,135],[25,78],[-1,37],[-31,81],[-10,83],[7,29],[26,53],[28,31],[58,18],[60,31]],[[11880,9725],[172,54],[22,11],[76,15],[10,37],[-32,73],[-61,72],[-26,25],[-58,42],[-16,57],[9,30],[141,8],[44,-11],[14,-71],[12,-28],[58,-69],[51,-39],[34,-5],[18,8],[15,83]],[[12363,10017],[3,9]],[[12366,10026],[55,-72],[21,-48],[8,-43]],[[12450,9863],[-67,-52],[24,-36],[-2,-43],[9,-33],[20,-29],[11,-51],[-3,-36],[32,-43],[-12,-16],[1,-32],[54,-22],[1,-25],[-32,-58],[-6,-29],[23,-46],[31,-18],[-49,-36],[1,-24],[-23,-25],[4,-40],[15,-22],[-16,-25],[-12,-54],[-18,-25],[6,-59],[30,-41],[3,-17],[-30,-83],[0,-37],[54,-66],[36,-26],[16,-24],[-3,-47],[26,-56],[39,-53],[30,-80],[30,-51],[35,-47],[37,-35],[38,-18],[65,-17],[36,-19],[29,-28],[18,-38]],[[12931,8201],[-52,-27],[-138,-87]],[[12741,8087],[-71,-34]],[[12670,8053],[-6,4],[-183,-70],[-146,-70],[-147,-64],[-81,-39]],[[12107,7814],[-17,19],[-26,49],[-32,171],[2,81]],[[12034,8134],[6,141],[-4,123],[-6,27],[-70,124],[-23,27],[-51,35],[-11,26],[3,40],[44,92],[17,55],[-2,62],[16,71],[-68,13],[-129,40],[-58,28],[-128,75],[-29,13],[1,43],[27,42],[5,50],[-38,64],[3,24],[19,12],[53,-23],[24,-3],[23,59],[21,18],[0,30],[18,20],[37,8],[54,-1],[20,27],[-31,89],[12,42],[28,28],[35,15],[28,55]],[[15268,1707],[48,-8],[10,43],[35,45],[32,60],[37,23],[-30,55],[3,23],[38,46],[43,15],[34,40]],[[15518,2049],[23,-15],[85,-34],[26,-21],[37,-76],[29,-28]],[[15718,1875],[22,-35],[17,-55]],[[15757,1785],[-37,-18],[-61,-44],[7,-87],[239,-143],[38,-325]],[[15432,558],[2,44],[-10,36],[-27,18],[-69,20]],[[15328,676],[40,62],[8,27],[-1,49],[18,82],[15,23],[-40,32],[-17,35],[-11,56],[-17,15],[0,55],[-29,64],[-20,16],[-28,50],[-30,8],[0,153],[3,48],[21,50],[28,206]],[[15422,4524],[89,20],[51,24],[8,17],[-9,47],[-16,28],[63,-5],[10,-28],[-6,-44],[28,-70],[9,-104],[-24,-93],[6,-98],[22,-52],[40,-27],[92,-93],[61,-35],[19,-20],[62,-17],[60,-34]],[[11095,8782],[-9,-108],[-4,-159]],[[11230,8083],[-1,-47],[-31,-189],[-30,-142]],[[11168,7705],[-78,21],[-88,-4],[-53,8],[-10,-51],[-18,-27],[-24,-9],[-52,1],[-51,11],[-62,-20],[-43,-32],[-53,1],[-87,-5],[-42,2],[1,45],[-17,27],[-8,46],[2,52],[-23,62],[13,57],[-1,50],[36,61],[6,25],[-1,85],[-45,74]],[[10470,8185],[29,88],[53,18],[8,48],[23,39],[4,43],[-13,8],[-86,-21],[-22,30],[11,18],[-21,36],[-3,25],[-19,17],[-69,28],[34,39],[46,23],[30,33],[43,23],[56,12],[33,14],[51,7],[52,69],[11,38],[-72,5],[5,67],[33,63],[104,-13],[38,11],[47,-6],[59,-46],[18,-42],[16,-16],[107,-56],[19,-5]],[[17208,5274],[21,52]],[[17318,5554],[80,-28],[42,13],[41,53],[45,2],[25,-18],[29,-41],[73,23],[30,22],[12,28],[6,59]],[[17701,5667],[89,-9]],[[17790,5658],[52,-24]],[[17842,5634],[-7,-32],[11,-40],[33,-29],[-4,-31],[5,-37],[44,-62],[-2,-34],[35,-48],[11,-89],[13,0]],[[17981,5232],[-46,-63],[-26,-3],[-65,-34],[-46,-10]],[[17798,5122],[-72,45],[-38,10],[-67,3],[-109,60],[-32,13],[-40,-52],[-30,-20]],[[17410,5181],[-34,-23],[-66,-11],[-40,21],[-17,62],[-45,44]],[[15718,1875],[90,48],[70,5],[71,35],[15,20],[14,44],[103,33],[-153,153],[-32,14],[11,44],[22,26],[32,12],[38,-4],[65,36]],[[16368,1492],[7,-8],[-6,-62],[-82,25],[-65,7],[-163,-11],[-68,14],[-53,46],[-40,88],[-29,45],[-59,51],[-36,52],[-17,46]],[[16772,2333],[638,-651],[-129,-316],[271,-10]],[[17552,1356],[-37,-68],[-2,-83],[-26,-41],[-49,-23],[-47,-57],[-13,-52]],[[17378,1032],[-37,41],[-20,-20]],[[17321,1053],[-74,53],[8,13],[-40,49],[-23,6],[-68,-104],[-29,-36]],[[17095,1034],[-135,50],[-17,-5],[-22,-96],[-85,-36],[-36,-26],[-39,-42],[-21,-51],[-4,-60]],[[17321,1053],[39,-28],[-37,-26],[-13,-45],[-25,7],[-17,-39],[-195,76],[22,36]],[[18055,7492],[68,12],[49,35],[71,40],[30,2],[79,-20],[32,4],[42,24]],[[18426,7589],[53,-82],[20,-10],[49,-5],[91,-20],[19,-16]],[[18658,7456],[-343,7],[-76,-264]],[[18239,7199],[-66,1]],[[18173,7200],[-11,41],[-95,226],[-12,25]],[[17383,6881],[267,569]],[[17650,7450],[240,-62],[58,-24]],[[17948,7364],[69,-47],[73,-75],[27,-20],[56,-22]],[[18173,7200],[-169,-9],[-42,-11],[-135,-88]],[[17827,7092],[-32,-25],[-74,-78]],[[17721,6989],[-31,-35],[-22,-38],[-34,-28],[-59,-22],[-24,-21],[-26,-50],[-8,-47]],[[17517,6748],[-21,4],[3,48],[-15,15],[-43,14],[-36,43],[-22,9]],[[17668,5912],[64,99]],[[17797,5750],[-15,-46],[8,-46]],[[17701,5667],[-68,14],[-80,44],[-36,36]],[[4680,12570],[20,-6],[50,-34],[32,-10],[38,0],[67,-26],[53,5],[100,-7]],[[5040,12492],[31,-79],[38,-30],[39,-44],[33,-5],[79,-51],[25,-34],[29,-11]],[[5314,12238],[-30,-72],[-47,-96]],[[5237,12070],[-70,33],[-34,66],[-32,-1],[-1,-27],[-34,-11],[-102,7],[-78,27],[-54,-17],[-16,-43],[-32,-28],[-26,12],[-13,47],[1,80],[-6,41],[16,31],[29,17],[48,4],[-13,33],[-60,18],[-35,-12],[-63,38]],[[4662,12385],[5,40],[-2,66],[15,79]],[[17721,6989],[21,-27],[-44,-126],[-1,-16],[21,-106],[62,17],[25,-42],[65,95],[57,-23]],[[17927,6761],[25,-12],[13,25],[18,6],[26,-17],[162,-38]],[[18171,6725],[-45,-101],[-68,-110]],[[18058,6514],[-86,-134]],[[17972,6380],[-51,28],[-47,1],[-39,-19]],[[17835,6390],[-21,29],[-106,64],[15,51],[-19,44],[-31,29],[-26,59],[-26,22],[-39,18],[-26,22],[0,22],[-39,-2]],[[17454,6414],[76,-24],[32,-17],[36,-32],[43,-17],[46,-4],[55,15],[93,55]],[[17972,6380],[-147,-228]],[[17732,6011],[-27,-7],[-23,9],[-44,49],[-46,30],[-48,63],[-46,23],[-26,21]],[[17472,6199],[0,105],[-17,74],[-1,36]],[[16540,4118],[-85,-140]],[[6104,12708],[44,-16],[127,-30],[7,2],[129,-37],[43,-1],[69,-8],[23,2]],[[6546,12620],[0,-114],[-20,-81],[1,-32],[-23,-24],[-20,-98],[2,-22],[-26,-79],[-42,-56],[-54,-45],[-26,-47]],[[7506,11369],[106,39],[206,84]],[[7818,11492],[81,-216],[27,-49],[-159,18],[-65,-22],[12,-77],[-62,-21],[24,-171]],[[7676,10954],[-165,-118],[-264,-183]],[[7247,10653],[-125,165],[-89,101],[-43,55],[-59,83]],[[6931,11057],[-59,47]],[[7434,13116],[66,71]],[[7500,13187],[86,-71],[192,214],[194,201]],[[7972,13531],[56,-54],[27,-47],[36,-181],[9,-25],[40,-52],[223,-267],[19,-39],[14,-50],[32,-42],[42,-28]],[[8470,12746],[-15,-66],[-4,-83],[13,-78],[12,-37]],[[8476,12482],[-112,55],[-127,50],[-352,143],[-163,65],[-86,43],[-83,63],[-43,47],[-47,85]],[[17454,6414],[-223,67]],[[17231,6481],[58,175],[45,115],[49,110]],[[16493,5062],[200,214]],[[16693,5276],[46,-39],[40,-13],[129,-22],[115,13],[47,1],[61,-17],[40,-22]],[[17171,5177],[-139,-357]],[[17032,4820],[-26,-58],[-23,-37],[-126,-171]],[[17798,5122],[-25,-9],[-19,-62],[-4,-60],[139,-12],[36,-13],[66,-54],[-7,-53],[11,-32],[61,9],[3,-38],[24,-47],[38,-46],[-46,-33],[47,-139],[1,-48],[-35,-53],[-41,-21],[-40,-1],[4,46],[-24,50],[-30,29],[-97,43],[-60,2],[-19,-9],[-22,30],[-76,64],[-31,10],[-76,7],[-46,-7],[-119,11]],[[17411,4686],[13,107],[-18,112],[-10,36],[14,240]],[[17827,7092],[14,-15],[41,-4],[105,69],[92,7],[14,-10],[38,-135],[-2,-21],[-46,-104],[-132,50],[-11,-47],[18,-52],[-31,-69]],[[18239,7199],[30,-3],[39,-15],[78,-73]],[[18386,7108],[-65,-55],[-19,-29],[-47,-108]],[[18255,6916],[-84,-191]],[[18386,7108],[197,143]],[[18583,7251],[47,-58],[0,-49],[7,-20]],[[18637,7124],[-109,-80],[-16,-20],[-53,-38],[35,-16],[33,-42],[34,-16]],[[18561,6912],[-34,-9],[-29,11],[-78,17],[-9,-14]],[[18411,6917],[-94,11],[-62,-12]],[[17842,5634],[91,-75],[78,-27],[40,-4],[69,6],[32,-6],[22,61],[111,193],[-56,69]],[[18229,5851],[38,21],[51,-69],[45,17],[28,-17],[47,1],[5,-67],[45,-53],[-22,-29],[10,-35]],[[18476,5620],[-36,-17],[39,-40],[23,-35],[4,-48],[-38,-111],[-7,-82]],[[18461,5287],[-2,-65],[-28,-52],[6,-27],[-17,-82],[-1,-62],[-6,-39],[52,-87],[61,-66]],[[18526,4807],[-82,47],[-48,35],[-87,75],[-37,46],[-34,59],[-46,62],[-55,46],[-111,55],[-45,0]],[[7398,13779],[80,-116],[20,-54],[57,-52]],[[7555,13557],[18,-33],[14,-52],[42,-59],[22,-56]],[[7651,13357],[-151,-170]],[[3088,14548],[41,-12],[68,-50],[29,-45],[30,-24],[67,-28],[71,-35],[38,-33],[22,-49],[112,40],[10,-26],[93,-37],[-17,-54],[50,-37],[1,-73],[-17,-55],[1,-58]],[[3687,13972],[-189,-60],[-146,-40]],[[3352,13872],[-6,16],[-36,198],[-13,40],[-34,38],[-26,12],[-94,25],[-54,80],[-11,36],[3,40],[-23,24],[-34,-3],[19,67],[45,103]],[[16406,6746],[40,-3],[8,23],[3,59],[58,-10],[35,-25],[54,-60],[14,-35],[3,-104]],[[16509,6098],[-16,4]],[[16493,6102],[-105,23]],[[16388,6125],[6,61],[-26,83],[6,35],[20,23],[7,27],[-8,79],[-30,56],[-1,47],[33,41],[6,24],[5,145]],[[9579,13261],[-21,-15],[-157,-135],[19,-30],[-197,-237],[-92,20]],[[9131,12864],[51,202],[41,89],[45,28],[-20,31],[86,50],[-18,45],[67,58],[62,-57],[134,-49]],[[4419,13524],[25,-9],[-12,-56],[2,-23],[-45,-148],[-3,-34],[8,-51],[21,-33],[32,-28],[31,-47],[14,-50],[27,-18],[14,-26],[38,-17],[4,-48],[55,-75],[95,-48]],[[4725,12813],[-286,-126],[-123,-52],[-62,-7],[-45,8],[11,54],[-32,48],[-32,26],[-49,14],[-15,56],[-16,21],[-68,41]],[[4008,12896],[40,34],[60,75],[61,70],[65,49],[35,39],[23,51],[42,75],[30,41],[43,111],[12,83]],[[6049,13520],[-3,-37],[21,-186],[0,-27],[-23,-56]],[[5582,12289],[-81,86],[-77,105]],[[5424,12480],[-40,33],[-199,103],[-34,31],[-150,200],[-54,97]],[[4947,12944],[-2,15],[-58,120],[-63,99],[-79,79],[-129,102],[-64,66],[-71,68],[-34,39]],[[8762,13014],[-92,69]],[[8670,13083],[-110,84]],[[8560,13167],[72,77],[59,20],[105,44],[36,-8],[6,-33],[-39,-92],[4,-66],[-24,-77],[-17,-18]],[[6546,12620],[96,-26],[41,-18],[54,-34],[51,-45]],[[6831,12455],[11,-41],[-6,-62],[-17,-41],[-1,-159],[3,-57],[-36,-32],[-35,-20],[-19,-35],[-14,-58],[-48,-28],[-72,-5],[-57,14]],[[14152,6918],[37,-41],[34,7],[28,-25],[2,-40],[55,-8],[83,-18],[78,-6],[48,40],[-2,15],[24,27],[27,11],[23,35],[-5,48],[32,21],[24,41],[19,16],[32,-38]],[[14691,7003],[-18,-82],[14,-27],[-30,-59],[11,-64],[-39,-3],[10,-117],[-13,-61],[18,-61],[43,-52]],[[14687,6477],[4,-4]],[[14691,6473],[-35,-25],[-72,-31],[-97,-25],[-167,-16],[-138,-10]],[[14182,6366],[-77,7]],[[14105,6373],[3,35],[-8,54],[15,109],[-11,85],[3,160],[-20,32],[65,70]],[[16844,3659],[63,63],[20,38],[48,116],[7,28],[-4,37],[-35,93],[-23,35]],[[16920,4069],[44,26],[47,5],[34,12],[24,22],[13,44],[-22,48],[-97,86]],[[16963,4312],[9,32],[-47,43],[0,30],[72,55]],[[16997,4472],[34,-31],[65,-11],[18,-14],[40,-2],[32,-15],[30,1],[44,16],[40,-9],[64,-28],[72,-10],[11,-22]],[[17447,4347],[23,-24],[6,-37],[36,-31],[74,-3],[19,-35],[56,-26],[34,-41],[27,-13]],[[18637,7124],[100,-119],[5,-71],[-37,-3],[-98,-71],[-46,52]],[[17032,4820],[105,-38],[173,-92],[42,-8],[59,4]],[[17411,4686],[-6,-166],[13,-96],[28,-50],[1,-27]],[[16997,4472],[-13,15],[-48,-2],[-26,20],[-12,33],[-41,16]],[[3149,14711],[141,-101],[77,-49]],[[3367,14561],[68,-30],[47,-14],[167,-41],[61,-29],[36,-33],[31,-50],[24,-70],[17,-26],[40,-36],[80,-40],[66,-12],[149,-7],[30,-40]],[[3088,14548],[11,76],[50,87]],[[18557,2857],[-77,-12],[-60,-18],[-37,-23],[-14,-25],[2,-92],[-11,-21],[-63,-47],[-79,-21],[-69,-46],[-116,-57],[-64,-37],[-59,-43],[-44,-52],[-17,-58],[-67,-73],[-10,-24]],[[17772,2208],[-155,14],[7,60],[27,44],[6,29],[-4,69],[4,51],[17,107],[-22,3],[-22,42],[-32,24],[-70,2],[-16,-29],[-80,-63],[-29,61],[-11,40],[-46,81],[-32,78],[-1,37],[-23,60],[-28,26],[-25,84],[-26,50],[2,34],[-38,110],[-16,29]],[[16963,4312],[-11,-35],[-21,-35],[-79,50],[-114,99]],[[14042,8394],[119,51],[59,32],[46,34],[109,93],[21,31]],[[14516,8563],[-18,-24],[18,-33],[16,-108],[11,-45],[57,-98],[36,-25],[-1,-28]],[[14635,8202],[-68,-29],[-22,-20],[-69,-88]],[[14476,8065],[-45,-57],[-71,71],[-30,41],[-75,53],[-21,47],[-12,-4]],[[14222,8216],[-38,0],[-44,26],[-98,152]],[[6721,13164],[-13,-63],[-34,-63],[-33,-131],[2,-26],[-16,-20],[-33,-97],[4,-29],[-16,-40],[-20,-25],[-16,-50]],[[6014,11213],[55,-3],[50,-12],[52,3],[33,11],[45,35],[19,30],[11,43],[-15,73],[2,44],[19,42],[31,31],[126,83]],[[6931,11057],[-62,-21],[-49,-4]],[[6820,11032],[-490,98],[-63,3],[-215,-29],[-72,-1]],[[5980,11103],[3,49],[31,61]],[[16577,4171],[63,-43],[62,-23],[39,-2],[78,7],[60,-11],[41,-30]],[[15328,676],[-26,2],[-90,-44],[-125,36],[-21,30],[-45,14],[-56,-2],[-40,13],[-35,-6],[-13,10]],[[14877,729],[-12,96],[14,35],[11,66],[0,121],[15,49],[0,45],[-19,94],[9,77],[16,72],[53,135],[15,84],[19,82],[22,18],[84,0],[98,16],[66,-12]],[[16022,9393],[14,-24],[2,-39],[-12,-53],[48,-169],[-4,-56],[-11,-25],[31,-13],[54,-5],[73,-26],[61,1]],[[16278,8984],[7,-111],[13,-52]],[[16298,8821],[-91,-28],[-52,-39],[-55,-54],[-35,-24],[-95,-52]],[[15970,8624],[-5,-2]],[[15965,8622],[-6,23],[6,49],[69,127],[-55,19],[-23,90],[-18,87],[-7,103],[21,66],[0,56],[-49,8]],[[15903,9250],[7,76],[22,63],[90,4]],[[9936,7602],[100,20],[2,-31],[20,-20],[20,1],[176,52],[49,4],[9,20],[35,25],[-15,17],[-58,12],[-14,21],[3,30],[29,23],[17,30],[-22,52],[21,37],[59,56],[32,24],[2,38],[20,22],[-10,62],[3,17],[29,22],[27,49]],[[11168,7705],[-23,-90],[-19,-59]],[[11126,7556],[-26,-87],[-30,-87],[-57,-133],[-15,-48],[-17,-202],[2,-52],[20,-58],[24,-39],[205,-157],[294,-230],[75,-49],[232,-98]],[[11353,6406],[-292,162],[-208,112],[-61,51],[-106,123],[-36,15],[-74,14],[-93,33],[-122,35],[-50,31],[-33,31],[-62,69],[-44,64],[-69,137],[-38,67],[-21,57],[-55,75],[-18,32],[-35,88]],[[18583,7251],[103,75]],[[18686,7326],[38,30],[45,54],[57,90]],[[18826,7500],[40,-22],[-25,-71],[-27,-102],[-26,-157],[-4,-60],[-4,-361]],[[18780,6727],[-82,-12],[-24,5],[-29,24],[-83,-13],[-49,-40],[-43,-16]],[[18470,6675],[-31,43],[-3,19],[10,67],[-35,113]],[[15344,8244],[68,-2],[63,28],[189,154],[46,50]],[[15710,8474],[47,52],[70,29],[50,26]],[[15877,8581],[88,41]],[[15970,8624],[10,-35],[0,-47],[10,-36],[31,-34],[20,-32]],[[16041,8440],[-37,-34],[-46,-68],[-31,-22],[-103,-35],[-49,5],[-78,-31],[-34,-8],[-72,21],[-45,-95],[-29,-5],[-136,-7]],[[15381,8161],[-30,32],[-7,51]],[[16752,7551],[43,-23],[44,-7],[140,-1],[52,-5],[90,-31],[250,-128],[50,62],[61,36],[55,13],[41,-1],[72,-16]],[[17231,6481],[-84,-277],[-39,-109]],[[17108,6095],[-82,18],[-57,1],[-44,-11],[-101,-51],[-63,-8],[-86,18]],[[16757,6861],[8,1],[-25,81],[-5,36],[6,135],[-1,35],[-14,40]],[[16523,7419],[32,19],[96,22],[38,26],[63,65]],[[18777,6173],[3,554]],[[18826,7500],[25,37]],[[18851,7537],[63,-64],[19,-29],[98,-217],[56,33],[15,25],[-9,25],[13,54],[-5,30],[15,11]],[[19971,6603],[-279,-536],[-34,-59],[-18,-58],[35,-320],[79,-662],[-435,-295]],[[19319,4673],[-411,66],[-337,52]],[[18571,4791],[7,23],[96,410],[16,88],[48,331],[29,215],[8,120],[2,195]],[[13904,977],[57,58],[265,248],[143,140],[188,193],[280,283],[47,58],[46,71],[24,48],[28,69],[63,198]],[[15336,2157],[36,-19]],[[15372,2138],[71,-30],[37,-23],[38,-36]],[[14877,729],[-24,-1],[-37,22],[-44,14],[-70,49],[-30,-1],[-26,23],[-40,8],[-41,-31],[-57,1],[-8,14],[-47,30],[-25,51],[-79,14],[-43,30],[-94,12],[-2,-22],[-48,-52],[-76,-7],[-26,-10],[-48,21],[-41,4],[-17,12],[-22,39],[-28,28]],[[6219,11578],[38,-10],[16,36],[38,126],[7,53]],[[6014,11213],[15,26],[2,48],[-9,31],[11,51],[16,19],[8,94],[40,-6],[40,-40],[31,15],[9,25],[-9,23],[3,76],[48,3]],[[16752,7551],[43,44],[40,28],[139,50],[90,29],[35,18],[48,37],[57,72],[26,45]],[[17230,7874],[24,60],[28,41],[89,91],[57,72],[62,32],[87,24],[27,12],[61,41]],[[17665,8247],[34,-47],[21,-47]],[[17933,7908],[-51,-45],[-61,-71],[-29,-45],[-38,-74],[-104,-223]],[[11422,11176],[44,13],[72,4],[83,-22],[48,-23],[44,-28],[67,-70],[37,-64]],[[11817,10986],[86,-198],[107,-256],[35,-79],[52,-91],[37,-54],[229,-291]],[[11880,9725],[-39,-3],[-102,38],[-70,15],[-89,44],[-73,-10],[-25,-36],[-9,-41],[1,-51],[-29,-30],[-41,15],[-44,60],[-41,35],[-43,20],[-172,41],[-108,-6],[-91,-18]],[[10905,9798],[-68,96],[-52,37]],[[8934,13495],[22,-6],[-145,-458]],[[8811,13031],[-15,-43]],[[8796,12988],[-34,26]],[[8560,13167],[-55,41]],[[8505,13208],[53,60],[-36,71],[82,31],[22,-43],[36,21],[7,-19],[58,20],[-2,41],[21,20],[-14,41],[170,48],[32,-4]],[[8952,13607],[6,-39],[-24,-73]],[[8505,13208],[-179,136],[-32,34],[-41,71],[-23,68]],[[8230,13517],[220,58],[61,-11],[83,-45],[41,-3],[317,91]],[[17171,5177],[37,97]],[[13900,6912],[170,58]],[[14070,6970],[21,-13],[35,-4],[26,-35]],[[14105,6373],[-35,8],[-71,-1],[-25,-6]],[[13974,6374],[-3,49],[37,37],[18,31],[-83,22],[-14,64],[-5,49],[-46,-10],[-67,10],[-30,61],[-11,58],[52,24],[62,14],[-1,30],[17,59],[0,40]],[[8952,13607],[43,7],[29,-15]],[[9024,13599],[235,-144]],[[9259,13455],[-16,-4],[-1,-38],[-38,-55],[-16,-49],[-38,-43],[-17,-42],[-57,-7],[-93,-46],[-47,-20],[-42,-39],[-15,-46],[-50,-36],[-18,1]],[[17440,6038],[21,40],[7,43],[4,78]],[[18470,6675],[-68,-40],[-42,-3],[-26,-48],[-47,-54],[-19,-90],[-11,-27],[-34,-38]],[[18223,6375],[-15,9],[-150,130]],[[18223,6375],[-88,-98],[-13,-51],[0,-48],[7,-80],[-14,-179]],[[18777,6173],[-89,32]],[[18688,6205],[-434,157]],[[18254,6362],[-31,13]],[[18016,7497],[39,-5]],[[17948,7364],[28,79],[40,54]],[[15387,9045],[41,-134],[-2,-68],[-15,-40],[-29,-30],[51,-58],[30,-20],[48,-17]],[[15511,8678],[52,-43],[34,-78],[41,-45],[72,-38]],[[15344,8244],[-41,15],[-287,142]],[[15016,8401],[34,61],[92,-45],[18,32],[-3,52],[-20,96],[30,55],[-2,43],[31,82],[27,34],[31,9],[5,38],[32,34],[34,71],[6,45],[20,21],[36,16]],[[7399,13799],[112,59],[4,13],[153,60],[37,22]],[[7705,13953],[32,-39],[30,-15],[56,-11],[49,-38],[22,-53],[-5,-58]],[[7889,13739],[-36,13],[-44,-3],[-26,-24],[-29,-66],[-56,-59],[-51,-1],[-59,-22],[-33,-20]],[[18115,5919],[78,-77],[36,9]],[[17021,8365],[12,37],[47,19],[40,25],[10,27],[52,-4],[20,18],[-4,51],[22,43],[38,5],[87,29]],[[17345,8615],[37,-10],[49,-40],[44,-23],[62,-20],[78,-30],[66,-17]],[[17681,8475],[68,-8]],[[17749,8467],[-18,-139],[-28,-50],[-38,-31]],[[17230,7874],[-12,10],[-179,186],[0,34],[-11,83],[-28,49],[-2,68],[23,61]],[[16693,5276],[95,106],[64,96],[40,85],[205,502],[11,30]],[[17108,6095],[41,-10],[57,-26],[146,-103]],[[18426,7589],[106,58]],[[18532,7647],[183,101],[-28,49],[-72,80],[-122,114],[-9,18],[-11,63]],[[18724,8114],[41,-158],[21,-64],[22,-39],[40,-44],[115,-99]],[[18963,7710],[-112,-173]],[[18686,7326],[-23,63],[8,28],[-13,39]],[[7229,14014],[41,16],[42,28],[79,75],[47,30],[39,15],[129,27],[75,-195],[24,-57]],[[15537,5147],[31,0],[38,16],[71,55],[30,39],[12,45],[2,98],[10,54],[20,64]],[[15751,5518],[80,-16],[197,-21],[100,-2],[76,7]],[[16204,5486],[-12,-42],[-27,-21],[-16,-37],[-38,-1],[1,-60],[-6,-50],[-44,-66],[-35,-41],[-19,-4],[-58,-71],[-8,-58],[-57,-74]],[[15885,4961],[-39,39],[-27,-8],[-35,5],[-49,34],[-53,5],[-16,43],[-72,41],[-44,2],[-13,25]],[[17378,1032],[-39,-26],[-16,-43],[78,-30],[-4,-16],[-60,22],[-15,-29],[-30,-29],[-16,-2],[-45,-52],[-40,-112],[-15,1],[-174,-311],[-14,14],[-45,115],[-40,26],[-34,-15],[-53,-70],[1,-43],[60,-91],[9,-39],[-2,-61],[-14,-25]],[[15784,9222],[41,21],[18,26],[33,-23],[27,4]],[[15877,8581],[-17,49],[1,32],[14,44],[-2,38]],[[15873,8744],[-19,37],[-48,55],[-15,31],[0,54],[32,106],[1,45],[-17,74],[-23,76]],[[12034,8134],[-101,5],[-46,18],[-38,38],[-26,15]],[[11095,8782],[5,54],[17,67],[5,74],[-25,213],[-10,42],[-33,107],[-3,38],[0,134],[-11,65],[-32,67],[-101,153]],[[10907,9796],[-2,2]],[[9259,13455],[47,15],[100,89],[-6,32]],[[9400,13591],[24,-19],[34,-10],[37,4],[15,-28],[29,-33],[-12,-20],[52,-32],[14,-28],[-10,-106],[17,-35]],[[9600,13284],[-21,-23]],[[9131,12864],[-140,26],[-83,19]],[[8908,12909],[-49,31],[-63,48]],[[14244,5769],[38,-13],[15,-33],[34,-19],[-36,-50],[25,-50],[27,5],[89,39],[41,-64],[25,-1],[82,30],[39,-2],[-2,-31]],[[14621,5580],[-1,-11],[-40,-40],[-17,-28],[46,-66],[12,-45],[40,-30],[68,-1],[101,50],[98,5],[21,-33]],[[14949,5381],[-57,-21],[-28,-52],[-12,-56],[-36,-68],[-34,-40]],[[14782,5144],[-212,117],[-52,14],[-60,-12],[-52,-45],[-47,-73]],[[14071,5292],[1,37],[-37,67],[-28,24],[-43,19],[-6,36],[-16,35],[-37,47],[-20,42]],[[13885,5599],[46,-37],[79,32],[51,3],[40,43],[32,1],[16,35],[-2,29],[11,32],[70,20],[16,12]],[[14949,5381],[60,-99],[65,-42],[64,9],[36,-1],[61,28],[37,29],[30,-8]],[[15302,5297],[81,-113],[13,-25]],[[15396,5159],[4,-41],[-11,-35],[-21,-34],[-38,-86],[-38,-35],[-35,-13],[-54,-2],[-32,-60]],[[14768,4974],[12,38],[-59,21],[29,66],[32,45]],[[17749,8467],[67,15],[107,41],[36,1],[40,-21]],[[16470,9858],[50,31],[44,17],[81,17],[40,-2],[48,-20],[32,-27],[31,-55],[37,-48],[33,-28]],[[16866,9743],[-64,-22],[-5,-23]],[[16797,9698],[-51,45],[-65,-31],[-37,0],[-5,-39],[-28,-94],[1,-34],[28,-99],[-7,-48],[-52,-68],[-12,-24],[-8,-48],[12,-64],[17,-43],[42,-78]],[[16632,9073],[-82,-33],[-46,-13]],[[16504,9027],[-7,70],[-21,50],[-5,33],[-35,59],[-3,67],[13,40],[0,53],[15,66],[-10,38],[49,64],[23,59],[-4,117],[-15,21],[-3,69],[-31,25]],[[12366,10026],[25,98],[20,117],[55,62],[43,103],[43,76],[35,51],[31,27],[38,11],[42,-24],[49,-57],[41,-131],[-11,-85],[8,-61],[9,-13],[45,-8],[41,11],[103,44],[37,23],[7,16],[5,111]],[[13032,10397],[201,-93],[39,-26],[77,-74],[42,-56],[105,-178],[24,-75],[36,-238],[31,-82],[47,-58],[53,-37],[55,-23],[44,-9],[158,-16],[65,-18],[30,-23],[21,-29],[43,-82],[34,-44],[26,-21],[83,-51],[35,-33]],[[14281,9131],[24,-45]],[[14396,8635],[-69,31],[-73,20],[-191,31],[-83,20],[-75,36],[-128,84],[-55,30],[-67,21],[-48,6],[-107,-2],[-53,4],[-43,10],[-59,26],[-58,42],[-40,49],[-17,31],[-43,114],[-45,70],[-53,54],[-44,31],[-86,47],[-86,29],[-61,12],[-128,8],[-47,6],[-48,16],[-48,27],[-34,30],[-35,49],[-18,45],[-12,69],[-2,64],[10,118]],[[16260,8204],[34,19],[61,67],[11,24],[37,172]],[[16403,8486],[75,-10],[46,32],[48,7],[17,-51],[18,-25],[38,-28],[3,-42],[-13,-33],[58,-27],[28,-41],[-18,-27],[8,-21],[46,0],[16,-17]],[[16773,8203],[-11,-25],[-44,-51],[-17,-46],[-23,-21],[-19,-35],[-67,-2],[-36,-54],[-38,-25],[-60,17],[-64,3],[-47,-42]],[[16347,7922],[-7,15],[-69,230]],[[16271,8167],[-11,37]],[[16298,8821],[34,-1],[104,-33]],[[16436,8787],[-3,-55],[42,-52],[12,-60],[-16,-71],[-53,-41],[-15,-22]],[[16260,8204],[-36,53],[-45,34],[-17,23],[-11,40],[-33,39],[-45,22],[-32,25]],[[13108,7636],[-6,-30],[46,-12],[47,-27],[14,-25],[77,-1],[26,-18],[50,-17],[58,-30],[19,-27],[57,-25],[26,-23],[42,-1],[44,18]],[[13608,7418],[24,-36],[62,-163],[21,-33],[64,-58],[-94,-89],[-67,-49],[-87,-156],[-21,-23],[-37,-17]],[[13473,6794],[-22,37],[-43,86],[-65,142],[-56,76],[-37,35],[-124,95],[-33,22],[-81,44],[-49,53],[-58,129],[-37,72]],[[12868,7585],[78,28],[53,37],[44,6],[65,-20]],[[12741,8087],[52,-46],[43,-15],[6,-26],[31,-71],[5,-25],[264,-4],[92,1],[49,14],[27,-76]],[[13310,7839],[-25,-9],[-27,-30],[-34,-124],[-18,-31],[-30,-18],[-32,-2],[-36,11]],[[12868,7585],[-47,76],[-26,77],[-8,83],[-24,61],[-40,48],[-23,48]],[[12700,7978],[-30,75]],[[13608,7418],[52,40],[32,10],[46,-7],[76,-1],[15,6]],[[13829,7466],[69,-88],[41,-8],[29,-52],[-26,-42],[14,-17],[-21,-44],[7,-21],[-10,-36],[82,-54],[21,-26],[-4,-24],[19,-50],[20,-34]],[[13900,6912],[-99,-39],[-130,-44],[-176,-69]],[[13495,6760],[-22,34]],[[8874,10662],[-89,51],[-95,73],[-42,42],[-451,474]],[[8197,11302],[254,175],[214,-99],[88,-64],[-16,-50],[14,-61],[29,-63],[98,-182],[73,-141],[25,-63]],[[4716,14911],[22,40],[12,42],[8,129],[24,50],[45,29],[35,8],[35,24],[28,62],[15,60],[-114,25],[5,24],[-2,71],[51,-7],[75,27],[94,15]],[[5049,15510],[19,-40],[31,-12],[89,-71],[9,-15],[33,11],[26,-20],[78,-40],[27,3],[27,-20],[50,-21]],[[5438,15285],[-25,-27],[-44,-25],[-36,-36],[-59,-3],[-57,-48],[-43,-6],[-79,-37],[-7,-18],[-35,-24],[-9,-32],[-17,-15],[-21,14],[-24,-5],[-3,-28],[-64,-47],[-79,-31],[-49,-6],[-40,9],[-31,-9]],[[4204,15515],[-2,-110],[-27,-83],[-39,-55],[-39,-100],[9,-29],[-16,-36],[1,-41]],[[4091,15061],[-43,-16],[-22,23],[-32,5],[-62,30],[-10,27],[-24,10],[-39,48],[-18,32],[-25,16],[-21,-7],[-23,33],[-39,40],[-34,7],[-15,-12]],[[3684,15297],[-77,33],[-16,-15],[-62,7],[-68,20]],[[3461,15342],[-8,127],[-15,67],[49,8],[12,24],[62,46],[45,19],[73,4],[57,10],[101,41],[49,-2],[31,-21],[15,-30],[-1,-32],[-22,-34],[27,-21],[51,-8],[60,-23],[83,3],[74,-5]],[[15356,6329],[82,-1],[41,7],[68,20],[83,-10],[27,9],[27,27],[62,128],[70,78]],[[15816,6587],[31,-29],[145,-177]],[[15992,6381],[-50,-42],[-29,-61]],[[15913,6278],[-52,-76],[-27,8],[-33,-35],[-19,23],[-60,-61],[-78,-64]],[[15644,6073],[-23,8],[-10,25],[12,48],[-10,26],[-80,42],[-125,7]],[[15408,6229],[-52,100]],[[19024,8202],[34,-21],[38,-36],[120,-153]],[[19216,7992],[-84,-87],[-81,-73],[-31,-35],[-57,-87]],[[15511,8678],[28,58],[-5,37],[5,46],[13,14],[38,80]],[[15590,8913],[62,-52],[45,-21],[50,-54],[9,-20],[74,-28],[43,6]],[[15683,9212],[55,-5],[46,15]],[[15590,8913],[5,63],[27,36],[-2,53],[-19,5],[-50,-39],[-31,-1],[2,38],[14,58]],[[16155,9592],[42,3],[48,11],[56,38],[59,103],[44,58],[66,53]],[[16504,9027],[-226,-43]],[[16278,8984],[-3,52],[36,166],[37,65],[9,39],[-1,60],[-19,74],[-23,16],[-42,11],[-36,25],[-47,-20],[-34,120]],[[15682,9792],[46,-58]],[[15728,9734],[-5,-37],[25,-52],[42,-28],[47,-9],[88,1],[127,-16],[71,1]],[[16123,9594],[23,-62],[-31,-88],[-70,-33],[-23,-18]],[[15784,9222],[-10,53],[14,66],[-7,53],[-25,36],[-119,95],[-54,29],[2,32],[13,22],[12,49],[30,41],[42,94]],[[16797,9698],[-20,-67],[29,-15],[-8,-34],[8,-42],[-22,-14],[-5,-33],[-33,-121],[-1,-37],[13,-50],[15,-23]],[[16773,9262],[-27,-29],[-6,-58],[-57,-77],[-51,-25]],[[5316,11719],[15,-18],[32,-74],[20,-30],[44,-26],[64,-17],[107,-37]],[[5598,11517],[-30,-80],[-36,-128],[-25,-106],[-7,-9],[-42,11],[-21,-13],[-19,-31],[-9,-45]],[[5409,11116],[-88,12],[-86,23],[-95,22],[-47,20]],[[5093,11193],[45,156],[41,-6],[10,25],[33,30],[29,70],[26,27],[18,46],[21,178]],[[7884,13621],[226,248]],[[8110,13869],[47,-139]],[[8157,13730],[73,-213]],[[8670,13083],[-44,-127],[-39,-61],[-80,-74],[-20,-27],[-17,-48]],[[7972,13531],[-74,71],[-14,19]],[[7889,13739],[-20,-54],[15,-64]],[[7884,13621],[-233,-264]],[[18381,7844],[57,-44],[94,-153]],[[18016,7497],[-70,16],[38,131],[20,25],[78,48],[13,23],[-2,72],[41,3],[34,21],[48,-15],[84,-12],[36,4],[45,31]],[[4212,14819],[66,220]],[[4278,15039],[77,-34],[50,26],[47,16],[47,-6],[38,-16],[64,-68],[-17,-16],[68,-29],[20,-19],[44,18]],[[4716,14911],[-20,-49],[-2,-38],[7,-43],[-3,-55],[-11,-38],[-1,-78],[-8,-37],[-15,-29],[-39,-40],[43,-27],[51,-8],[80,4],[47,-7],[36,-18],[31,-31],[23,-52],[-162,-49]],[[4773,14316],[-150,34],[-98,34],[-227,97],[-103,55],[-69,41]],[[4126,14577],[19,35],[67,207]],[[12107,7814],[-189,-101],[-109,-53],[-89,-36],[-66,-19],[-106,-20],[-116,-26],[-170,-25],[-58,1],[-78,21]],[[13289,11539],[60,-20],[104,-98],[105,-88],[44,-52],[23,-35],[30,-63],[15,-55],[15,-177],[-14,-43],[-32,-40],[-51,-94],[-22,-76],[-5,-83]],[[13561,10615],[-23,7],[-32,-10],[-35,-30],[-46,-22],[-21,2],[-81,81],[-37,72],[18,84],[28,97],[-28,103],[-29,33],[-61,6],[-90,-18],[-31,-41],[-113,-164],[-41,-270],[90,-72],[3,-76]],[[11817,10986],[23,-8],[83,29],[82,9],[78,16],[41,4],[138,-4],[99,17],[97,42],[56,10],[89,-22],[59,-1],[75,13],[89,10],[111,1],[55,27],[72,79],[48,33],[73,41],[32,25],[25,50],[15,92],[12,49],[20,41]],[[5521,9458],[413,285],[458,318]],[[6392,10061],[608,420],[247,172]],[[7676,10954],[-11,-14],[76,-95],[-14,-143],[18,-29],[69,-9],[46,-27],[12,-47],[-62,-140],[-46,-46],[2,-24],[54,9],[57,-11],[39,-25],[37,-49],[81,-32],[73,0],[84,38],[287,-482]],[[8478,9828],[0,-31],[-48,-61],[-6,-53],[45,-26],[98,-24],[24,-40],[-11,-56],[30,-35],[36,-66],[23,-53],[6,-81],[28,-38],[9,-45],[30,-32],[89,-43],[32,-4],[50,11],[120,15],[77,21],[27,38],[-18,54],[-3,74],[-9,48],[10,22],[39,26],[84,14],[55,15],[32,-16]],[[9327,9462],[53,-66],[8,-37],[-51,-88],[-101,-150],[-46,-92],[4,-50]],[[9194,8979],[-63,-11],[-43,-47]],[[9088,8921],[-72,-73],[5,-40],[29,-26],[83,-59],[51,-31],[19,-70],[2,-95],[5,-35],[29,-55],[1,-21],[-89,-27],[-80,-10],[-66,-15],[-31,2],[-26,15],[-11,38],[-55,84],[-25,81],[-8,60],[-18,21],[-33,7],[-37,-6],[-57,-42],[-95,-116],[-12,-19],[-8,-83],[9,-107],[-4,-98],[21,-50],[39,-15],[30,6],[26,17],[20,28],[24,8],[38,-36],[55,-12],[73,-33],[17,-30],[-6,-21],[-46,-53],[-54,-33],[-74,-10],[-50,-44],[-22,-79],[-76,-47],[-10,-42],[66,-20],[11,-26],[-38,-78],[-27,-21],[-39,-3],[-28,-14],[-43,-41],[-45,-12],[-18,-20],[-32,-4],[-54,-43],[-38,-71],[-47,-66],[6,-53],[-16,-67],[-31,-101],[-19,-138],[21,-91],[30,-112],[2,-36]],[[8260,6738],[-118,-8],[-43,6],[-89,54],[-249,189],[-167,131],[-173,134],[-178,135],[3,6],[43,206],[-3,33],[-71,191],[-15,51],[-6,67],[1,87],[-7,31],[-76,40],[-24,20],[-88,56],[-34,12],[-38,29],[-23,5],[-45,32],[-55,22],[-72,-13],[-29,19],[-103,37],[-60,16],[-27,16],[-42,8],[-30,16],[-28,32],[-79,27],[-57,24],[-28,20],[-113,25],[-52,33],[-31,57],[-109,100],[-58,9],[-31,16],[-30,45],[-74,46],[17,27],[41,94],[91,246],[24,74],[-404,217]],[[13561,10615],[4,-45],[17,-82],[38,-93],[75,-118],[55,-77],[61,-75],[38,-33],[52,-31],[73,-33],[34,0],[39,28],[16,46],[10,69],[31,39],[27,15],[69,19],[49,28]],[[14249,10272],[50,-33],[-5,-55],[8,-25],[-1,-54],[26,-8],[46,1],[-2,-46],[26,-103],[-14,-72],[-29,-54],[23,-61],[-18,-35],[-6,-38],[-53,-52],[-29,-7],[-21,-34],[2,-18],[-16,-35],[61,-40],[57,-51],[40,-24],[42,-38]],[[14436,9390],[-43,-40],[-61,-122],[-32,-76],[-19,-21]],[[15310,6948],[6,2]],[[15316,6950],[325,156],[76,50]],[[16145,6720],[-24,-53],[-40,-33],[-46,-8],[-19,6],[-55,39],[-62,-4],[-18,-13],[-65,-67]],[[15816,6587],[-65,42],[-77,27],[-225,58],[-33,16],[-35,34]],[[15381,6764],[-43,62],[-12,25],[-4,69],[-12,28]],[[18381,7844],[-33,22],[51,66],[-26,19],[-68,97]],[[9088,8921],[42,-41],[323,-394],[129,-127],[17,-32],[17,-83],[3,-62],[11,-45],[43,-93],[17,-27],[45,-40],[49,-65],[85,-47],[31,-38],[15,-37],[2,-97],[11,-34],[8,-57]],[[11151,6273],[-56,-27],[-75,-15],[-57,16],[-66,44],[-50,15],[-73,-4],[-45,-10],[-49,-24],[-31,-5],[-215,25],[-59,-6],[-54,1],[-98,22],[-127,41],[-79,46],[-140,65],[-54,29],[-37,41],[-54,80],[-61,41],[-52,8],[-29,-2],[-167,2],[-80,-19],[-93,-46],[-45,-11],[-82,25],[-84,57],[-78,41],[-254,146],[-56,13],[-38,-4],[-57,-17],[-160,-73],[-46,-15],[-90,-15]],[[16953,9213],[124,-12],[-33,-283],[13,-79],[30,-68],[7,-34],[-11,-48]],[[17083,8689],[-222,46],[-86,7]],[[16775,8742],[-1,81],[11,38],[54,106],[84,112],[20,51],[10,83]],[[14683,7635],[95,16],[45,-2],[95,-27],[37,-20],[93,-78]],[[15048,7524],[56,-54]],[[15104,7470],[10,-24],[-1,-42],[-11,-29]],[[15102,7375],[-175,-69],[-131,-45]],[[14796,7261],[-24,32],[-57,51],[-31,73],[-8,50],[15,89],[-8,79]],[[8908,12909],[-82,-148],[-147,-290],[-60,-93]],[[8619,12378],[-36,33],[-107,71]],[[6749,14304],[1172,95]],[[7921,14399],[67,-177],[49,-140]],[[8037,14082],[73,-213]],[[15793,3090],[45,-38],[41,-45],[-37,-37],[74,-60],[31,4],[101,92],[8,-27],[33,-53]],[[16089,2926],[-21,-1],[-60,-37],[-52,-68],[-31,-28],[-52,-10],[-71,-33],[-12,-15]],[[15790,2734],[-40,-16],[-28,-29],[-31,-19],[-15,-26],[-31,-28],[-70,-22],[-41,5],[-32,-5]],[[15102,7375],[137,52],[26,-12],[78,30],[168,41],[30,-8],[8,-17],[9,-71],[-151,-54],[-22,-27],[2,-33],[-12,-38],[-47,-59],[-39,-57],[-40,-6],[-49,-40],[-8,-23],[19,-15],[19,17],[28,-4],[59,-46],[-25,-29],[24,-26]],[[15310,6948],[-165,-80],[-48,-26]],[[15097,6842],[-70,-47],[-78,-66],[-78,-80]],[[14871,6649],[-6,10],[11,122],[39,96],[-1,49]],[[14914,6926],[-3,58],[25,31],[-8,40],[-64,54],[-54,108],[-14,44]],[[17895,9195],[33,-41],[131,-112],[60,-24],[70,-65]],[[17681,8475],[8,48],[-11,46],[3,21],[39,53],[11,34],[-23,54],[-67,71],[62,43],[14,20],[22,98],[20,29],[29,81],[25,22],[23,-1],[27,19],[32,82]],[[16347,7922],[28,-35],[1,-40],[-27,-90],[-28,-72],[-13,-82],[13,-53],[45,-40],[80,-26],[28,-22],[45,-47]],[[16138,7272],[-17,52],[-33,48],[-22,21]],[[16066,7393],[33,98],[22,26],[75,35],[13,39],[9,88],[12,42],[-3,47],[11,82],[23,34],[51,6],[35,32]],[[16773,8203],[28,60],[27,34],[86,9],[27,12],[40,41],[40,6]],[[8157,13730],[217,63]],[[8374,13793],[71,18]],[[8445,13811],[87,12],[123,41],[43,1],[159,-15],[53,7]],[[8957,13870],[41,-122]],[[8998,13748],[41,-121],[-15,-28]],[[9601,13928],[-265,-150],[-149,-45],[-20,63],[-169,-48]],[[9809,13988],[-45,-15],[-68,-69]],[[9696,13904],[-37,-80],[-29,-10],[-38,-50],[-59,-55],[-56,-31],[-17,-41],[-49,-24],[-11,-22]],[[7921,14399],[291,23],[54,9],[63,16],[54,21],[488,227],[228,111],[22,8]],[[9121,14814],[43,-65],[2,-19],[-14,-55],[-7,-71],[-26,-51],[-50,-73],[-96,-121],[-15,-36],[0,-52]],[[8953,14270],[-34,5],[-26,20],[-47,-22],[-47,23],[-19,-2],[-77,-24],[-68,-55],[-19,-27],[-46,-12]],[[8570,14176],[-56,-2],[-63,39],[-61,-9],[-33,-17],[-53,-42],[-26,-7],[-39,18],[-50,11],[-29,-6],[-37,-20],[-46,-42],[-40,-17]],[[8445,13811],[-3,42],[9,29],[29,36],[99,82],[48,12],[132,-15]],[[16207,6751],[-7,-60],[-26,-71],[18,-89],[15,-52],[1,-32],[16,-10],[51,-113],[15,-43],[11,-62],[21,-52],[-3,-28]],[[16319,6139],[-42,9]],[[16277,6148],[-87,25],[-46,28],[-25,25],[-127,155]],[[14889,8464],[127,-63]],[[15381,8161],[40,-59],[44,-108],[24,-40]],[[15489,7954],[-30,-24],[-86,-37]],[[15373,7893],[-41,65],[-28,22],[-69,39],[-17,26],[-67,9],[-22,-4],[-21,-23],[-37,-77],[-23,-16],[-74,-22]],[[14974,7912],[2,21]],[[14976,7933],[-1,35],[-31,32],[-14,26],[-16,97],[-28,192],[32,87],[-30,41],[1,21]],[[15373,7893],[-72,-33],[-26,31],[-21,-23],[-72,-134],[-18,-13],[-53,5],[-24,-6],[2,-26],[-45,-1]],[[15044,7693],[-19,80],[-34,63],[-17,76]],[[15489,7954],[31,-30],[148,-114]],[[15668,7810],[-35,-54],[-25,-18],[-212,-56],[-28,3],[-18,-16],[-76,-20],[-39,5],[-42,19],[-18,-47],[-8,-61],[-11,-37],[-37,-49],[-15,-9]],[[15048,7524],[16,21],[9,39],[-23,71],[-6,38]],[[9823,13767],[63,84],[22,-5],[107,-8],[10,110],[120,-9],[15,157],[21,44]],[[10181,14140],[71,-33],[36,11],[39,32],[34,57],[42,4],[36,-18]],[[10439,14193],[-24,-48],[-6,-44],[19,-131],[2,-41],[-16,-147]],[[10414,13782],[-6,-62]],[[10408,13720],[-61,5],[-524,42]],[[9980,14127],[29,17],[88,17],[48,-7],[36,-14]],[[9823,13767],[-25,-17]],[[9798,13750],[-9,30],[-80,72],[-13,52]],[[16207,6751],[52,37],[57,27],[27,37],[49,36],[20,-36],[-6,-106]],[[16388,6125],[-69,14]],[[14476,8065],[36,-24],[92,-51],[32,-27],[19,-50],[28,-278]],[[14683,7635],[-175,-33],[-65,-6]],[[14443,7596],[-403,-7],[-17,1]],[[14023,7590],[-57,11]],[[13966,7601],[9,52],[-9,37],[-22,29],[5,57],[10,29],[-15,14],[4,37],[40,39],[30,10],[37,35],[84,18],[40,29],[13,52],[29,40],[16,39],[-15,98]],[[13442,7939],[68,-2],[36,-10],[42,-26],[41,-60]],[[13629,7841],[37,-58],[31,-34],[51,-35],[91,-50]],[[13839,7664],[98,-52],[29,-11]],[[14023,7590],[-11,-101],[109,-379],[25,-68],[21,-25],[36,-25],[17,-28]],[[14220,6964],[-50,-27],[-18,-19]],[[13829,7466],[-14,20],[-4,43],[-17,33],[-20,12],[-61,-11],[0,52],[-39,66],[-30,22],[-28,-5],[-21,18],[-42,-1],[-38,75]],[[13515,7790],[-17,30],[-7,34],[-24,26],[1,37],[-26,22]],[[14443,7596],[19,-51],[-7,-61],[-88,-141],[-10,-68],[10,-33],[49,-66],[15,-44],[-4,-28],[-25,-53],[-39,-35],[-79,-23],[-64,-29]],[[14914,6926],[-113,28],[-35,30],[-61,3],[-14,16]],[[10439,14193],[16,-21],[3,-27],[27,-20],[36,13],[48,-6],[66,7],[33,16],[30,55],[14,52],[34,65],[5,23],[-24,49],[1,31],[52,40],[10,1]],[[10790,14471],[75,-170],[15,-60],[-3,-80],[-31,-158],[-85,-42],[-103,-45],[-204,-118],[-40,-16]],[[10753,13486],[42,220],[471,-78],[94,15],[1,-31],[66,-2]],[[11427,13610],[-1,-98],[-9,-113],[13,-40],[20,-5]],[[11450,13354],[-4,-22]],[[11446,13332],[-58,-46],[-223,228],[-22,18],[-23,-55],[-18,-20],[-25,-48],[-72,-64],[-5,-44],[39,-92],[11,-56],[-29,-62],[-50,-166],[-12,-14],[-110,100],[-95,51],[-37,-1],[-50,-10]],[[10667,13051],[36,175],[50,260]],[[10390,13545],[363,-59]],[[10667,13051],[-42,55],[-53,38],[-196,130],[-8,15],[13,132],[9,124]],[[16089,2926],[19,-38],[40,-36],[18,-29],[82,-29],[68,0],[56,17]],[[16201,2589],[-7,16],[-47,22],[-9,14],[-228,23]],[[15910,2664],[-52,14],[-68,56]],[[16773,9262],[20,9],[57,6],[48,17],[39,26],[22,-43],[-6,-64]],[[16775,8742],[-70,4],[-40,8],[-68,36],[-64,13],[-71,-16],[-26,0]],[[18254,6362],[-9,-41],[41,-149],[17,-36],[121,-164],[118,76],[15,-29],[7,-194],[48,1],[5,-143],[-3,-38],[-29,0],[-109,-25]],[[14899,5953],[48,39],[1,16]],[[15069,5876],[38,-15],[50,-9],[80,-6],[62,-14],[65,-24],[44,-25],[60,-47],[88,-101],[49,-53],[51,-33],[95,-31]],[[15537,5147],[-85,16],[-56,-4]],[[15302,5297],[-12,28],[-15,69],[-12,28],[-51,76],[-34,38],[-75,64],[-26,33],[-22,42],[-38,43],[-53,39],[-87,36],[-26,32]],[[14851,5825],[-9,38],[17,51],[40,39]],[[9327,9462],[41,34],[29,73],[121,171],[29,34],[92,67],[282,125],[30,22],[90,88],[66,82],[55,76]],[[10907,9796],[-69,-15],[-57,-23],[-48,-67],[23,-60],[107,-68],[72,-15],[26,-33],[-12,-43],[-43,-38],[-112,2],[-164,45],[-87,-47],[-3,-66],[-30,-23],[-39,-11],[-102,3],[-29,-13],[-8,-26],[57,-25],[27,-42],[7,-38],[-22,-24],[-66,-33],[-59,30],[-124,32],[-35,-22],[2,-27],[77,-114],[48,-80],[-19,-34],[-122,-69],[-34,-26],[-35,-10],[-88,-67],[-34,-70],[-36,-31],[-73,-28],[-45,8],[-104,59],[-65,40],[-161,109],[-218,138],[-16,5]],[[14182,6366],[-24,-129],[-18,-63],[63,-49],[9,-66],[-7,-19],[1,-50]],[[14206,5990],[8,-38],[4,-116],[19,-30],[7,-37]],[[13885,5599],[-2,47],[31,123],[7,153],[-22,68],[-49,84],[-19,55],[-27,121]],[[13804,6250],[39,29],[33,33],[53,41],[45,21]],[[15702,7780],[29,12],[14,37],[58,69],[109,121],[18,16],[59,20],[71,-11],[27,7],[51,52],[77,25],[56,39]],[[16066,7393],[-259,236],[-48,57],[-57,94]],[[10057,10248],[105,-14]],[[8478,9828],[13,69],[19,48],[59,58],[59,144],[6,79],[-6,52],[-59,87],[-52,36],[-23,27],[1,36],[16,22],[-9,21],[-41,8],[-28,-22],[-66,62],[56,85],[-44,54],[9,16],[-197,315],[29,27],[-38,57],[-58,142],[73,51]],[[10790,14471],[24,22],[47,17],[41,-9],[111,2],[30,-20],[50,-95],[49,-57],[24,-47],[15,-10],[34,-103],[20,-36],[9,-54],[54,-93],[4,-19],[-13,-57],[2,-23],[48,-72],[47,-41],[43,-53],[10,-25],[-2,-55],[-10,-33]],[[10390,13545],[18,175]],[[8570,14176],[-11,-35],[-16,-21],[-8,-46],[-29,-51],[-49,-44],[-75,-90],[-13,-39],[5,-57]],[[4785,15782],[36,0],[36,-14],[22,-54],[48,-59],[2,-18],[40,-52],[53,-58],[27,-17]],[[4278,15039],[29,44],[35,8],[75,-4],[55,17],[92,90],[16,38],[10,316],[7,25],[44,46],[62,22],[43,41],[39,100]],[[19216,7992],[88,-108],[286,-308],[117,-127]],[[15231,6094],[17,32],[47,10],[26,29],[41,22],[18,38],[28,4]],[[15644,6073],[-43,-55],[1,-47],[-7,-22],[-81,-52],[-12,-21],[8,-19],[122,-45],[26,0],[70,-25],[11,-15],[47,-10],[51,-2],[22,-29]],[[15859,5731],[-22,-52],[-31,14],[-30,-86],[-25,-89]],[[15913,6278],[19,-42],[63,-27],[42,-71],[9,-28],[7,-73],[-13,-26],[7,-30],[48,-57],[12,-53],[23,-34]],[[16130,5837],[-33,-25],[-57,-95],[-38,18],[-43,-1],[-24,-36],[-61,22],[-15,11]],[[16215,5487],[26,39],[114,278],[138,298]],[[16693,5276],[-110,119],[-37,32],[-73,43],[-71,24],[-67,10],[-120,-17]],[[15091,6429],[25,-43],[51,-45],[45,-17],[52,-4],[49,9],[43,0]],[[15041,6248],[7,54],[-32,59],[-7,38],[29,6],[53,24]],[[15668,7810],[34,-30]],[[14687,6477],[60,46],[124,126]],[[15097,6842],[39,-76],[-4,-44],[-21,-32]],[[15111,6690],[-54,-53],[-19,-28],[-3,-72],[56,-108]],[[14756,6377],[-36,62],[-29,34]],[[2741,13698],[210,64],[401,110]],[[3542,13314],[-13,-79],[19,-383],[3,-4]],[[3551,12848],[-67,-21],[-54,-23],[-60,-1],[-19,8],[-13,40],[-31,43],[-83,59],[-24,9],[-41,37],[-43,21],[-39,-2],[-42,-17],[-11,-15]],[[3024,12986],[-28,47],[-40,203],[1,44],[-54,92],[-51,47],[-16,47],[4,57],[-9,19],[-31,12],[-26,76],[-19,28],[-14,40]],[[4008,12896],[-43,-32],[-69,-78],[-22,-44],[-5,-37],[5,-87],[-21,-6],[-51,-47]],[[3802,12565],[-33,35],[-4,30],[-27,21],[-21,-3],[-20,-22],[-22,2],[-18,32],[28,64],[-9,51],[-44,19],[-25,28],[-56,26]],[[16130,5837],[92,65],[49,46],[1,21],[-13,93],[6,49],[12,37]],[[16215,5487],[-11,-1]],[[1464,13291],[98,47],[63,22],[175,42],[110,38],[130,42]],[[2040,13482],[701,216]],[[3024,12986],[-33,-33],[-130,-14],[-61,-18],[-38,-22],[-61,-2],[-43,-10],[-43,-22],[-66,21],[-70,-22],[-37,-42],[-28,-19],[-38,3],[-91,49],[-41,27],[-33,44],[-18,36],[-18,18],[-39,-19],[-101,-85],[-35,-9],[-82,6],[-18,-28],[-10,-43],[-13,-20],[-5,-84],[-19,-37],[-3,-32],[18,-57]],[[1868,12572],[-404,719]],[[2819,14968],[50,-12],[54,-26],[38,-27],[38,-39],[33,-48],[43,-48],[74,-57]],[[2040,13482],[-27,75],[-10,59],[3,31],[82,477],[21,75],[57,182],[19,45],[37,62],[54,65],[49,44],[249,181],[110,82],[135,108]],[[6392,10061],[-4,31],[-19,27],[-147,-2],[-105,6],[634,824],[69,85]],[[16316,3698],[35,0],[32,-25],[-10,-47],[-2,-69],[10,-66],[-31,-87],[7,-80],[35,-25],[7,-60],[18,-37],[-7,-17],[17,-104],[-23,-11],[6,-152],[14,-13],[27,6],[72,-14],[40,-24]],[[4091,15061],[34,-15],[93,-13],[60,6]],[[4212,14819],[-92,25],[-66,28],[-57,18],[-90,19],[-98,40],[-90,22],[-92,58]],[[3627,15029],[40,148],[17,120]],[[3065,15178],[11,9]],[[3076,15187],[472,-268]],[[3548,14919],[-22,-29],[-71,-119],[33,-18],[-60,-69],[20,-20],[-39,-56],[-22,-14],[-20,-33]],[[2819,14968],[82,67],[25,30],[139,113]],[[9798,13750],[-76,-91],[-147,-185],[142,-55],[-117,-135]],[[15381,6764],[-36,-5],[-8,-31],[-17,-17],[6,-25]],[[15326,6686],[-22,-10],[-46,-44],[-54,-16],[-48,-20],[-22,15],[-3,64],[-20,15]],[[15326,6686],[32,-29],[22,-43],[26,-33],[58,-58],[29,-46],[6,-42],[-28,-31],[-77,-32],[-41,-11],[3,-32]],[[14899,5953],[-28,35],[-31,19],[-50,7],[-67,-27],[-31,-35],[-63,-50],[-58,30],[-88,22],[-35,-5],[-65,-22],[-16,13],[-34,1],[-87,50],[-40,-1]],[[18688,6205],[-43,-72],[-9,-35],[6,-220],[8,-42],[5,-167],[-9,-100],[-14,-83],[-55,10],[-48,-42],[-4,-44],[8,-46],[-28,-64],[-44,-13]],[[18526,4807],[45,-16]],[[19319,4673],[-334,-238],[-10,-118],[-12,-74],[-196,-690]],[[15910,2664],[-3,-50],[-10,-29],[-33,-23],[-47,-3],[-14,-28],[-45,-50],[-51,-34],[-48,-61],[-27,-22],[-48,3],[-25,-68],[-78,-177],[-97,27],[-12,-11]],[[12836,5736],[291,295],[25,-26],[32,-1],[10,17],[35,7],[33,-42],[37,-27],[24,-27],[7,-34],[28,-47],[-8,-50],[16,-17],[57,-28],[14,0],[15,-34],[26,-14],[18,7],[28,-28],[65,-43],[6,-19],[31,-21],[28,-44],[44,-16],[11,19],[28,-6],[3,27],[42,2],[35,25],[34,1],[34,-13]],[[12931,8201],[80,26],[169,34]],[[13180,8261],[27,-27],[4,-19],[49,-80],[9,-46],[23,-1],[23,-31],[25,-10],[8,-18],[30,-13],[20,-32],[52,-28],[-8,-17]],[[13515,7790],[-78,-29],[-22,35],[-23,50],[-20,9],[-62,-16]],[[5314,12238],[31,83],[59,128],[20,31]],[[6219,11578],[-114,91],[-68,10],[-95,19],[-65,20],[-57,6],[-88,62],[-26,3]],[[5706,11789],[-29,35],[-38,28],[-47,83],[-15,51],[-22,18],[-28,-2],[-76,-22]],[[5451,11980],[-29,21],[-35,0],[-25,30],[-30,12],[-95,27]],[[3548,14919],[56,-32]],[[3604,14887],[205,-117],[156,-93],[161,-100]],[[16493,5062],[-78,13],[-18,14],[-16,39],[-42,17],[-17,-14],[-14,-45],[-50,-36],[-19,-37],[-64,-31],[-23,-56],[-28,-21],[-76,1],[-31,-5],[-68,5],[-73,-10],[-12,18],[23,30],[-2,17]],[[14851,5825],[-45,-22],[-18,-20],[-12,-35],[-7,-64],[-18,-28],[-41,-39],[-42,8],[-47,-45]],[[5040,12492],[2,39],[37,76],[2,77],[-4,19],[-47,33],[-61,27],[-29,5],[-54,-3],[-36,20],[-39,-11],[-31,7],[-35,30]],[[4745,12811],[-20,2]],[[4725,12813],[7,19],[203,135],[12,-23]],[[5598,11517],[64,146],[27,88],[17,38]],[[5980,11103],[-208,14],[-114,-18],[-39,-2],[-210,19]],[[5316,11719],[24,58],[63,75],[14,53],[34,75]],[[13804,6250],[-24,72],[-62,99],[-223,339]],[[16123,9594],[32,-2]],[[5471,18679],[34,6],[32,20],[34,-11],[67,-37],[64,-14],[11,39],[16,9],[62,-19],[32,-33],[59,-19],[54,-36],[23,-58],[24,-17],[70,-16],[68,-23],[18,-24],[58,26],[26,24],[24,-1],[35,-18],[47,41],[63,21],[35,25],[32,2],[29,-11],[10,-31],[61,-22],[40,-35],[19,1],[0,-61],[18,-27],[-5,-69],[28,-78],[52,-90],[8,-69],[-14,-48],[-32,-17],[-45,-86],[29,-32],[19,-40],[5,-40],[-7,-22],[-27,-35],[34,-84],[59,-98],[-28,-33],[-60,-43],[-40,-42],[-16,-30],[8,-35],[39,16],[35,-3],[103,-65],[5,-13],[-33,-42],[-30,-64],[-68,-61],[-10,-19],[-4,-68],[-23,-17],[-10,-34],[61,-43],[27,-7],[91,-48],[28,-35],[-1,-36],[-42,-70],[-63,-87],[-18,-33],[28,-54],[12,-47],[26,-7],[34,17],[28,-32],[56,16],[15,22],[-1,35],[-85,30],[16,31],[36,-9],[39,52],[53,14],[54,-29],[15,-20],[161,-73],[29,5],[48,-9],[49,-19],[13,-20],[-58,-111],[-24,-82]],[[7235,16370],[-19,10],[-58,-16],[-45,48],[-39,19],[-181,51],[-40,6],[-80,-11],[-32,5],[-44,26],[-145,167],[-62,56],[-53,32],[-73,30],[-385,103],[-85,18],[-88,3],[-42,9],[-42,21],[-170,129],[-69,28],[-282,44]],[[5201,17148],[-640,100],[-57,15],[-611,219]],[[3893,17482],[20,59],[7,46],[16,31],[52,62],[9,28],[2,93],[25,50],[-2,41],[516,145],[298,92],[176,58],[27,7],[5,67],[20,187],[-8,74],[25,21],[35,-23],[71,-13],[29,-23],[41,-14],[79,13],[39,-7],[34,4],[9,37],[31,54],[-9,10],[15,46],[1,32],[15,20]],[[3462,19141],[117,820],[96,672]],[[3675,20633],[14,-22],[75,-17],[46,2],[31,-8],[46,29],[37,-4],[51,-40],[8,-41],[18,-31],[-10,-15],[8,-57],[43,-17],[5,-38],[28,-38],[38,-19],[5,-23],[41,-13],[12,-20],[-9,-33],[24,-73],[28,-30],[-5,-30],[21,-50],[-21,-46],[9,-51],[23,-19],[27,-46],[14,-62],[15,-3],[26,-76],[40,-21],[17,-36],[46,-5],[38,-13],[30,0],[64,-28],[11,-44],[32,-50],[5,-28],[37,-31],[16,-34],[8,-41],[38,-38],[-4,-16],[39,-38],[3,-37],[15,-38],[34,-7],[16,-31],[54,-42],[74,-15],[64,-47],[39,-39],[-13,-70],[2,-43],[51,-14],[79,-4],[106,-54],[40,-62],[3,-15],[48,-32],[16,-1],[30,-29],[11,-41],[32,-19],[27,0]],[[3893,17482],[-242,85],[-78,31],[-255,91],[-62,9],[-8,16]],[[3248,17714],[16,39],[28,206],[27,190],[143,992]],[[14042,8394],[-129,-56],[-47,-15],[-85,-13],[-52,0],[-137,10],[-72,-1],[-120,-14],[-220,-44]],[[12700,7978],[-44,-26],[-79,-112],[-30,-74],[-27,-19],[-49,-17],[-27,-2],[-122,8],[7,-33],[49,-124],[17,-55],[26,-45],[10,-51],[16,-35],[119,-161],[-8,-64],[-10,-15],[-38,-19],[1,-11],[44,-250],[-24,-13],[-131,56],[-37,-51],[15,-13],[37,-3],[21,-20],[47,-10],[32,-56],[37,-6],[9,-28],[25,-39],[58,-52],[64,-31],[-47,-40],[-29,-52],[24,-14],[3,-67],[-149,-55],[-210,-72],[6,-28],[43,-66],[6,-21],[-30,-59],[-9,-29]],[[3802,12565],[-118,-78],[-67,-25],[-52,-7],[-102,17],[-13,-4],[-132,-253],[-12,-12],[-87,-62],[-11,-49],[335,-72],[45,4],[151,41],[44,9],[64,4],[177,-13],[26,-6],[34,-24],[357,-417]],[[4441,11618],[-52,-68],[-24,-51],[-33,-124],[-8,-16],[-32,-11],[8,-591],[17,-25],[53,-24],[58,-41],[3,-324],[-1,-26],[-32,-244],[-142,1],[-47,23],[-39,52],[-56,39],[-41,21],[-61,20],[-107,42],[-62,30],[-155,88],[-39,17],[-221,61],[-292,82],[-23,33],[-50,4],[-89,18]],[[2974,10604],[-819,1458],[-287,510]],[[13904,977],[-17,24],[-37,29],[9,48],[-50,59],[-8,42],[-54,54],[-28,-10],[-7,22],[-22,2],[-34,-25],[-31,9],[-50,0],[-27,-10],[-51,-4],[-15,15],[-7,62],[12,20],[57,51],[-4,23],[-71,26],[-58,16],[-38,26],[36,53],[3,32],[-26,20],[-62,6],[-64,-20],[-20,17],[-5,22],[11,47],[-9,12],[-83,40],[-36,24],[-23,49],[-16,15],[-11,33],[15,36],[-16,30],[-50,29],[-28,6],[-35,49],[-23,55],[26,29],[32,11],[12,18],[-10,26],[-91,127],[-31,21],[-53,19],[-33,-7],[-36,-22],[-23,-1],[13,39],[26,39],[-13,38],[-68,36],[-34,52],[-72,43],[-87,67],[-40,3],[-24,-21],[-27,-5],[-1,53],[-24,36],[-27,22],[-65,39],[-75,-30],[-29,9],[-35,51],[-2,29],[-32,15],[-49,3],[-7,24],[-33,3],[-11,44],[-35,31],[4,19],[-25,36],[-30,7],[-47,-12],[17,32],[7,41],[23,12],[3,22],[-33,0],[-60,-27],[-15,37],[10,24],[-22,10],[-49,-3],[-15,21],[-31,0],[-15,-16],[-41,15],[-33,22],[-73,32],[-76,81],[-7,29],[-34,78],[-45,27],[-26,-11],[-24,8],[-9,41],[-37,51],[0,18],[-49,32],[-35,-10],[-57,5],[-22,34],[-43,32],[-71,27],[-22,-3],[-36,26],[-24,41],[-45,32],[7,37],[-14,35],[10,29],[-46,72],[-42,18],[-31,-17],[-29,13],[-32,-11],[-33,7],[-32,-24],[-71,1],[-16,19],[-45,0],[-16,-29],[-100,-18],[-13,-27],[-48,-6],[-16,-14],[-27,1],[-11,17],[-67,-30],[-29,-7],[-21,14],[-39,92],[-49,22],[-16,30],[4,39],[-30,37],[-27,11],[-9,40],[20,28],[-85,25],[4,27],[-36,32],[4,73],[-15,49],[-36,6],[-50,32],[-12,-10],[-33,20],[-18,34],[-75,51],[-27,-4],[-15,-18],[-84,2],[-33,32],[-40,-11],[1,-15],[-49,-24],[-26,-21],[-20,26],[-40,33],[-14,-15],[-30,-6],[-41,5],[-56,-17],[-22,-19],[-79,-11],[-30,-16],[-31,-60],[-41,-9],[-2,-34],[-36,17],[-13,-37],[-48,-36],[-33,-40],[8,-29],[-14,-100],[-33,-46],[-10,-36],[-30,-31],[-30,-53],[-1284,-1138],[-61,33],[-406,727],[-766,1369]],[[6231,4798],[24,20],[39,51],[32,32],[-139,79],[44,46],[117,-95],[45,82],[26,32],[89,84],[-34,52],[-47,16],[-306,157],[40,60],[12,-5],[38,18],[2,29],[14,12],[8,61],[-27,6],[22,42],[-27,47],[107,11],[36,1],[86,-13],[21,-12],[17,-35],[37,-34],[37,-54],[38,-16],[51,21],[50,-3],[75,16],[26,13],[7,47],[25,23],[85,25],[70,40],[35,0],[68,34],[39,15],[49,10],[48,28],[29,38],[45,14],[69,-35],[66,11],[-3,124],[6,3],[-10,268],[-50,24],[176,102],[390,-41],[241,-23],[4,18],[43,80],[9,48],[-7,77],[5,37],[7,174],[26,54],[4,24]],[[4151,8509],[838,582],[532,367]],[[6231,4798],[-717,1280],[-642,1145],[-721,1286]],[[13804,6250],[-56,-19],[-73,3],[-105,34],[-96,21],[-74,-8],[-53,-27],[-52,-13],[-151,-8],[-70,10],[-91,32],[-102,28],[-105,-16],[-36,-34],[-35,-49],[-91,-47],[-50,-18],[-136,-10],[-45,-15],[-41,-29]],[[13629,7841],[34,18],[-21,40],[-31,43],[3,27],[20,22],[71,24],[38,-7],[-13,73],[48,10],[33,-6],[65,-36],[14,-18],[12,-60],[1,-69],[-9,-23],[-36,-17],[29,-62],[2,-30],[-12,-43],[-38,-63]],[[11174,11769],[38,90],[14,10],[255,5],[26,17],[46,76],[51,52],[64,83]],[[11668,12102],[44,58],[36,32],[40,53],[49,83],[14,33],[-3,32],[15,70],[78,55],[-123,339],[65,-28],[50,17],[55,28],[-123,260],[18,71],[-67,22],[-153,88],[-94,23],[-54,-4],[1,23],[-70,-25]],[[11450,13354],[31,12],[48,51],[25,5],[121,-84],[14,-16],[75,-42],[67,-22],[51,-29],[26,-53],[45,-5],[28,-29],[79,-30],[87,-58],[80,-39],[36,-46],[-9,-26],[-81,-52],[-20,-29],[-19,-92],[1,-18],[22,-27],[46,-7],[26,-17],[28,-40],[4,-43],[-4,-78],[-36,-41],[-49,17],[-19,-3],[-75,-44],[0,-26],[14,-26],[37,-95],[21,-21],[45,-5],[182,-108],[76,-36],[50,-33],[13,-26],[-19,-45],[-25,-20],[-128,-131],[-41,-87],[-14,-71],[6,-47],[14,-17],[27,-1],[96,18],[32,35],[31,13],[48,0],[47,-9],[27,13],[5,21],[-30,51],[-26,84],[5,31],[41,80],[43,25],[29,8],[34,-7],[32,-26],[75,-73],[20,-41],[29,-6],[74,26],[77,0],[73,-25],[27,-4],[93,1],[21,-5],[21,-43],[-4,-52],[-26,-56],[-26,-40],[-19,-46],[4,-52],[25,-19],[75,-37]],[[9896,10860],[316,181],[152,122],[26,-36],[39,20],[95,61],[66,50]],[[14436,9390],[23,23],[75,61],[19,28],[7,55],[-1,113],[-13,80],[21,63],[34,-5],[68,18],[37,5],[44,-8],[79,0],[90,-14],[40,4],[40,17],[81,59],[104,136],[16,-25],[47,-23],[32,-36],[-2,-24],[40,-27],[8,-21],[33,-32],[40,-14],[76,73],[28,-13],[17,-34],[65,-4],[52,-37],[47,-4],[-1,-12]],[[1204,17148],[72,-40],[13,-2],[203,52],[88,21],[169,47],[14,11],[30,65],[44,3],[69,-23],[31,1],[221,61],[278,86],[83,23],[130,43],[166,50],[193,51],[232,68]],[[3240,17665],[-18,-132],[-1,-38],[-22,-147],[-11,-116],[-56,-400]],[[3132,16832],[10,-78],[20,-60]],[[3162,16694],[-31,2],[-26,-11],[-52,11],[-52,42],[-66,12],[-24,-47],[-44,-12],[-41,14],[-41,2],[-77,21],[-65,48],[-25,46],[-32,10],[-8,27],[-47,21],[-17,42],[-23,-39],[-27,-64],[-34,-34],[-19,-40],[6,-67],[1,-83],[13,-31],[-34,-20],[21,-30],[27,-65],[-36,-13],[-54,2],[-10,-16],[2,-35],[-10,-41],[-24,-28]],[[2313,16318],[-26,-2],[-21,22],[-38,-1],[-65,37],[-33,30],[19,39],[-7,19],[-63,5],[-93,17],[-59,37],[-78,23],[-11,34],[-22,8],[-9,51],[-11,3],[-28,54],[-11,40],[-29,23],[-1,22],[-34,24],[-48,54],[-4,20],[-28,20],[-11,24],[11,18],[-37,28],[-45,13],[-26,32],[-46,15],[-53,3],[-40,-9],[-56,13],[-29,20],[-80,86]],[[1201,17140],[3,8]],[[3132,16832],[74,-35],[66,-18],[78,-52],[68,-65],[26,-33],[31,-8],[87,-63],[33,-14],[-1,-22],[35,-24],[31,-35],[40,-21],[57,-8],[37,-25],[36,6],[33,-59],[52,-128],[66,-62],[32,-14],[50,-62],[90,-56],[32,-51],[25,-17],[15,-25],[28,-10],[31,-32],[31,11],[54,-7],[100,-83]],[[4469,15820],[-26,-9]],[[4443,15811],[-72,2],[-55,-20],[-48,24],[-79,-8],[-232,-54],[-178,-43],[49,278],[-72,8],[-349,52],[-90,8]],[[3317,16058],[-5,13]],[[3312,16071],[-53,141],[-12,49],[-26,147]],[[3221,16408],[-34,193],[-25,93]],[[3604,14887],[29,36],[-22,14],[16,92]],[[3802,12565],[94,-78],[33,-33],[11,-23],[-22,-22],[5,-18],[30,-24],[20,-52],[24,-14],[56,7],[31,-33],[-4,-72],[44,-32],[55,-6],[46,-15],[71,-16],[38,19],[7,26],[-28,85],[5,25],[31,80],[8,66],[40,22],[88,-3],[80,-23],[70,-29],[27,-17]],[[5093,11193],[-85,43],[-170,43],[-99,51],[-42,27],[-138,122],[-118,139]],[[4745,12811],[4,-19],[25,-22],[-67,-110],[-27,-90]],[[16750,2606],[41,71],[24,107],[-20,71],[1,86],[-20,60],[14,30],[-17,68],[3,72],[8,64],[-16,52],[-35,67]],[[17772,2208],[-8,-31],[6,-69],[28,-79],[-9,-103],[-16,-75],[-16,-15],[-23,-43],[-69,-87],[-10,-100],[10,-17],[-45,-4],[13,-51],[-81,-178]],[[4151,8509],[-790,1408],[-387,687]],[[8619,12378],[-298,-413],[-57,-86],[-45,-77],[-20,-45],[-5,-32],[16,-75],[-392,-158]],[[1719,19321],[22,24],[19,48],[36,57],[35,44],[10,32],[34,55],[22,48],[4,31],[25,61],[-10,15],[33,49],[37,35],[21,42],[20,7],[23,42],[-2,71],[9,28],[29,31],[22,48],[4,37],[-15,24],[18,55],[-1,29],[13,40],[33,61],[-13,20],[-33,24],[-3,25],[26,46],[25,85],[60,86],[42,97],[14,15],[56,19],[24,20],[2,50],[36,56],[-10,42],[7,89],[35,91],[29,52],[63,-23],[83,28],[73,-4],[56,-29],[37,-30],[56,2],[28,27],[32,5],[16,20],[27,-7],[27,17],[50,-2],[45,-45],[19,15],[23,-12],[31,3],[53,-11],[31,-33],[-2,-20],[40,-66],[23,-7],[17,-51],[55,-49],[77,-100],[62,-36],[17,-32],[30,8],[48,-17],[54,-6],[21,-44],[26,-20]],[[3462,19141],[-177,24],[-658,88],[-183,26],[-164,26],[-90,2],[-23,-25],[-81,-13],[-25,-22],[-41,-67],[-57,13],[-56,-1],[-18,27],[-66,-49],[0,43],[-38,-17],[-26,18],[-21,72],[-19,35]],[[5438,15285],[32,-7],[35,29],[81,28],[41,26],[72,10],[-45,100],[-13,16],[121,-8],[1,-40],[38,-99],[4,-48],[-19,-413],[-20,-284],[-13,-103],[-22,-74],[-31,-39],[-36,-62],[-17,-43],[15,-58]],[[4785,15782],[11,34],[5,126],[14,54],[29,42],[46,52],[19,55],[-2,67],[4,143],[2,202],[6,25],[34,86],[30,36],[51,72],[30,27],[63,11],[35,15],[31,39],[5,28],[3,252]],[[7235,16370],[0,-20],[35,-79],[49,-64],[53,-13],[46,-22],[98,-71],[17,-6],[80,20],[104,-13],[61,-11],[65,18],[95,46],[57,21],[130,64],[67,15],[55,21],[30,27],[31,9],[30,-3],[32,-16],[24,-34],[-19,-32],[6,-39],[44,-69],[-19,-34],[-37,-8],[-29,4],[-34,-10],[-20,-42],[15,-46],[6,-41],[-9,-45],[-19,-35],[-40,-41],[-9,-35],[29,-43],[65,-46],[36,-31],[49,-29],[162,-87],[20,-41],[-18,-37],[-56,-79],[-25,-20],[-21,-56],[15,-39],[4,-34],[15,-23],[3,-48],[16,-73],[92,-68],[61,-39],[58,-20],[108,-15],[67,-29],[82,-19],[50,-29],[51,-21],[28,-46]],[[14249,10272],[29,58],[19,83],[36,102],[29,63],[36,62],[81,85],[46,29],[37,-3],[24,-20],[50,-55],[35,-48],[29,-28],[37,-24],[54,-18],[77,-11],[101,4],[53,-7],[100,-46],[40,-9],[110,-2],[44,-5],[70,-15],[64,-21],[44,-30],[20,-35],[-2,-41],[-29,-192],[19,-47],[50,-28],[50,-3],[46,12],[71,33],[65,23],[45,4],[80,-10],[40,-12],[29,-23],[20,-42],[3,-48],[-13,-20],[-55,-24],[-68,-41],[-54,-63],[-83,-125]],[[3076,15187],[144,118],[31,39],[40,70]],[[3291,15414],[22,-13],[34,-36],[114,-23]],[[3240,17665],[8,49]],[[4785,15782],[-50,25],[-57,-17],[-31,-33],[-59,-13],[-57,5],[-37,55],[-25,16]],[[1204,17148],[-178,120],[-74,23],[-123,98],[-26,7],[-88,-13],[-58,-2]],[[657,17381],[12,34],[7,57],[-9,65],[10,49],[20,55],[29,101],[1,70],[-11,15],[12,26],[1,68],[73,170],[-1,51],[142,346],[494,298],[6,31],[21,30],[17,53],[22,19],[63,138],[64,96],[31,72],[38,70],[20,26]],[[11078,11964],[27,-51],[79,89],[12,-16],[-7,-35],[46,7],[22,57],[-4,27],[22,20],[-2,38],[45,74],[-209,89],[81,106],[180,-109],[59,-18],[110,-22],[25,-20],[104,-98]],[[1201,17140],[-5,-39],[5,-218],[4,-15],[79,-148],[97,-178],[12,-17],[91,-86],[56,-42],[93,-110],[90,-117],[52,-71],[50,-77],[82,-89],[42,-40],[115,-76],[75,-68],[85,-104],[62,-112],[48,-64],[8,-29]],[[2342,15440],[-1,-100],[185,-4],[121,-11],[82,-15],[97,-26],[59,-20],[88,-37],[92,-49]],[[1464,13291],[-700,1242],[-542,963],[-213,365],[6,47],[1,70],[15,35],[-20,60],[-6,109],[2,26],[-7,81],[13,71],[-2,32],[434,-3],[31,85],[4,24],[53,113],[19,82],[10,8],[19,92],[1,88],[-26,9],[34,87],[16,87],[5,121],[5,34],[30,51],[12,38],[-1,73]],[[2313,16318],[32,-52],[71,-42],[18,-31],[26,-19],[34,2],[79,-13]],[[2573,16163],[57,-25],[23,-39],[-18,-38],[13,-11],[-17,-31],[33,-96],[-10,-12],[10,-34],[28,-32],[34,-23],[38,-36],[26,-44],[47,5]],[[2837,15747],[-9,-15],[-45,-8],[-74,-35],[-23,-42],[-14,-7],[-14,-78],[-4,-80],[-15,-32],[-16,-2],[-82,17],[-13,-13],[-11,-38],[-24,-1],[-9,-43],[-47,1],[-36,17],[-38,47],[-21,5]],[[14832,8491],[57,-27]],[[14976,7933],[-22,8],[-4,27],[-56,45],[-15,54],[-43,-3],[-21,9],[-32,39],[11,24],[-27,6],[-39,-4],[-52,19],[-31,1],[-10,44]],[[2573,16163],[64,34],[83,28],[130,38],[40,16],[105,72],[72,31],[48,11],[106,15]],[[3312,16071],[8,-43],[-20,-16],[9,-63],[-1,-58],[-23,-1],[-23,-81],[-25,7],[-16,-63],[-77,7],[14,140],[-28,-14],[-17,-57],[-16,-18],[-35,-17],[-44,2],[-29,21],[-33,9],[-18,-42],[-22,-23],[-40,-2],[-39,-12]],[[4204,15515],[-4,61],[-18,41],[99,-3],[35,19],[23,23],[20,49],[9,75],[27,27],[48,4]],[[17771,9277],[57,-23],[35,-24],[32,-35]],[[17345,8615],[-14,46],[1,22],[23,19],[67,34],[-1,14],[-41,30],[-4,33],[8,91],[-8,17],[-48,41],[1,35],[56,42],[70,-23],[40,-6],[14,17],[11,38],[41,60],[66,105],[37,27],[41,12],[66,8]],[[17083,8689],[28,-8],[76,-48],[62,-14],[38,5],[58,-9]],[[16866,9743],[50,-26],[99,-30],[37,-18],[103,-64],[51,-37],[41,-23],[90,-39],[204,-148],[38,-21],[142,-42],[50,-18]],[[3291,15414],[27,72],[12,59],[10,150],[19,204],[-5,54],[-37,105]]],"transform":{"scale":[0.000024734294695873428,0.000020890348804234717],"translate":[-77.715936,38.500787]},"objects":{"Geometry\\51-153":{"type":"GeometryCollection","geometries":[{"arcs":[[0,1,2,3,4,5,6,7]],"type":"Polygon","properties":{"GEOID":"511539016022"}},{"arcs":[[8,9,10,11,12]],"type":"Polygon","properties":{"GEOID":"511539004034"}},{"arcs":[[13,14,15,16]],"type":"Polygon","properties":{"GEOID":"511539011022"}},{"arcs":[[17,18,19,20]],"type":"Polygon","properties":{"GEOID":"511539013033"}},{"arcs":[[[21,22,23,24,25]],[[26]]],"type":"MultiPolygon","properties":{"GEOID":"511539012323"}},{"arcs":[[27,28,29,-23,30]],"type":"Polygon","properties":{"GEOID":"511539012314"}},{"arcs":[[31,32,33,34,35,36,37]],"type":"Polygon","properties":{"GEOID":"511539014182"}},{"arcs":[[38,39,40,41,42,43]],"type":"Polygon","properties":{"GEOID":"511539014211"}},{"arcs":[[44,45,46,-38,47,48,49,50]],"type":"Polygon","properties":{"GEOID":"511539014212"}},{"arcs":[[51,52,53,54,55]],"type":"Polygon","properties":{"GEOID":"511539004083"}},{"arcs":[[56,57,58,59,60]],"type":"Polygon","properties":{"GEOID":"511539003012"}},{"arcs":[[61,62,63,64,65,66]],"type":"Polygon","properties":{"GEOID":"511539010142"}},{"arcs":[[-37,67,68,69,70,71,72,-48]],"type":"Polygon","properties":{"GEOID":"511539014095"}},{"arcs":[[73,74,75,76,77]],"type":"Polygon","properties":{"GEOID":"511539003021"}},{"arcs":[[78,79,-60,80,-75]],"type":"Polygon","properties":{"GEOID":"511539003024"}},{"arcs":[[81,82,83,84,85,86,87,88,89,90,91,92,-67,93,94]],"type":"Polygon","properties":{"GEOID":"511539010141"}},{"arcs":[[95,96,-93]],"type":"Polygon","properties":{"GEOID":"511539010131"}},{"arcs":[[97,98,-62,-97]],"type":"Polygon","properties":{"GEOID":"511539010132"}},{"arcs":[[99,100,101,102,103,104,105,106]],"type":"Polygon","properties":{"GEOID":"511539009043"}},{"arcs":[[107,108,109,110,111,112,113]],"type":"Polygon","properties":{"GEOID":"511539010162"}},{"arcs":[[114,115,116,117,118,119,120]],"type":"Polygon","properties":{"GEOID":"511539009053"}},{"arcs":[[121,-61,-80,122,123]],"type":"Polygon","properties":{"GEOID":"511539003011"}},{"arcs":[[124,125,126,127]],"type":"Polygon","properties":{"GEOID":"511539007013"}},{"arcs":[[128,-51,129,130,131]],"type":"Polygon","properties":{"GEOID":"511539014114"}},{"arcs":[[132,-71,133,134]],"type":"Polygon","properties":{"GEOID":"511539014098"}},{"arcs":[[-42,135,136,137,138,139]],"type":"Polygon","properties":{"GEOID":"511539014094"}},{"arcs":[[140,141,142]],"type":"Polygon","properties":{"GEOID":"511539012334"}},{"arcs":[[143,-114,144,-100,145,146,-98,147]],"type":"Polygon","properties":{"GEOID":"511539010151"}},{"arcs":[[148,149,150,-104,151]],"type":"Polygon","properties":{"GEOID":"511539008042"}},{"arcs":[[-138,152,153,154,155]],"type":"Polygon","properties":{"GEOID":"511539014096"}},{"arcs":[[156,157,158,-19]],"type":"Polygon","properties":{"GEOID":"511539013031"}},{"arcs":[[159,160,161,162,163,164,165]],"type":"Polygon","properties":{"GEOID":"511539012364"}},{"arcs":[[166,167,168,169,-10]],"type":"Polygon","properties":{"GEOID":"511539004035"}},{"arcs":[[170,171,172,173]],"type":"Polygon","properties":{"GEOID":"511539004033"}},{"arcs":[[174,175,176]],"type":"Polygon","properties":{"GEOID":"511539001002"}},{"arcs":[[177,178,179,180,181,182]],"type":"Polygon","properties":{"GEOID":"511539005024"}},{"arcs":[[183,184,185,186,187,188,189,190,191]],"type":"Polygon","properties":{"GEOID":"511539012331"}},{"arcs":[[192,193,194,195,-14,196,197]],"type":"Polygon","properties":{"GEOID":"511539011021"}},{"arcs":[[198,-148,-96,-92]],"type":"Polygon","properties":{"GEOID":"511539010122"}},{"arcs":[[199,-143,200,201,202]],"type":"Polygon","properties":{"GEOID":"511539013064"}},{"arcs":[[203,-182,204,205,206,207,208,209,210]],"type":"Polygon","properties":{"GEOID":"511539007015"}},{"arcs":[[211,-120,212,-195]],"type":"Polygon","properties":{"GEOID":"511539009052"}},{"arcs":[[-213,-119,213,214,215,216,217,-15,-196]],"type":"Polygon","properties":{"GEOID":"511539011013"}},{"arcs":[[-217,218]],"type":"Polygon","properties":{"GEOID":"511539011011"}},{"arcs":[[219,220,221,222,223]],"type":"Polygon","properties":{"GEOID":"511539002033"}},{"arcs":[[224,225,226,227,228,229,230]],"type":"Polygon","properties":{"GEOID":"511539005031"}},{"arcs":[[-180,231,-128,232,-206,233]],"type":"Polygon","properties":{"GEOID":"511539007014"}},{"arcs":[[234,235,236,237,238]],"type":"Polygon","properties":{"GEOID":"511539014133"}},{"arcs":[[239,240,241,242,243,244,-230]],"type":"Polygon","properties":{"GEOID":"511539005041"}},{"arcs":[[245,-244,246,-125,247,248]],"type":"Polygon","properties":{"GEOID":"511539005023"}},{"arcs":[[-113,249,-101,-145]],"type":"Polygon","properties":{"GEOID":"511539010152"}},{"arcs":[[250,251,-40]],"type":"Polygon","properties":{"GEOID":"511539014201"}},{"arcs":[[-154,252,253,254,255,256]],"type":"Polygon","properties":{"GEOID":"511539014093"}},{"arcs":[[257,258,259,260,261,-69]],"type":"Polygon","properties":{"GEOID":"511539014034"}},{"arcs":[[-231,-245,-246,262,263]],"type":"Polygon","properties":{"GEOID":"511539005032"}},{"arcs":[[264,265,266,267,-109]],"type":"Polygon","properties":{"GEOID":"511539010161"}},{"arcs":[[-210,268,269]],"type":"Polygon","properties":{"GEOID":"511539008013"}},{"arcs":[[-229,270,-240]],"type":"Polygon","properties":{"GEOID":"511539005043"}},{"arcs":[[-223,271,272,273,-241,-271,-228]],"type":"Polygon","properties":{"GEOID":"511539005042"}},{"arcs":[[274,275,276,277,278,-273]],"type":"Polygon","properties":{"GEOID":"511539006023"}},{"arcs":[[279,280,281,282,283,-208]],"type":"Polygon","properties":{"GEOID":"511539007025"}},{"arcs":[[284,285,286,-258,-68,-36]],"type":"Polygon","properties":{"GEOID":"511539014183"}},{"arcs":[[287,288,289]],"type":"Polygon","properties":{"GEOID":"511539015083"}},{"arcs":[[290,-174,291,292,293]],"type":"Polygon","properties":{"GEOID":"511539004031"}},{"arcs":[[294,295]],"type":"Polygon","properties":{"GEOID":"511539017031"}},{"arcs":[[296,297,298]],"type":"Polygon","properties":{"GEOID":"511539014123"}},{"arcs":[[299,-44,300,301,302,-49]],"type":"Polygon","properties":{"GEOID":"511539014213"}},{"arcs":[[303,304,305]],"type":"Polygon","properties":{"GEOID":"511539017043"}},{"arcs":[[-252,306,-135,307,-136,-41]],"type":"Polygon","properties":{"GEOID":"511539014092"}},{"arcs":[[308,309,310,311,312,313]],"type":"Polygon","properties":{"GEOID":"511539012284"}},{"arcs":[[314,315,316,317,318,-152,-103]],"type":"Polygon","properties":{"GEOID":"511539008041"}},{"arcs":[[319,-277]],"type":"Polygon","properties":{"GEOID":"511539006022"}},{"arcs":[[-268,320,321,-318,322]],"type":"Polygon","properties":{"GEOID":"511539008014"}},{"arcs":[[323,324,-129,-288,325]],"type":"Polygon","properties":{"GEOID":"511539015082"}},{"arcs":[[-105,-151,326,327]],"type":"Polygon","properties":{"GEOID":"511539009044"}},{"arcs":[[-323,-317,328,-110]],"type":"Polygon","properties":{"GEOID":"511539008031"}},{"arcs":[[329,-165,330,331,332,333]],"type":"Polygon","properties":{"GEOID":"511539012124"}},{"arcs":[[-73,334,-251,-39,-300]],"type":"Polygon","properties":{"GEOID":"511539014202"}},{"arcs":[[335,-155,-257,336,337,338]],"type":"Polygon","properties":{"GEOID":"511539014162"}},{"arcs":[[-250,-112,339,-315,-102]],"type":"Polygon","properties":{"GEOID":"511539008033"}},{"arcs":[[-198,340,341]],"type":"Polygon","properties":{"GEOID":"511539011023"}},{"arcs":[[342,343,344,345,346,347]],"type":"Polygon","properties":{"GEOID":"511539012214"}},{"arcs":[[348,-202,349,350,-83,351]],"type":"Polygon","properties":{"GEOID":"511539013063"}},{"arcs":[[-320,-276,352,353,354,355,356,-278]],"type":"Polygon","properties":{"GEOID":"511539006021"}},{"arcs":[[357,358,359,-346,360,361,362]],"type":"Polygon","properties":{"GEOID":"511539012253"}},{"arcs":[[363,-225,-264,364,365,-172,366,-169,367]],"type":"Polygon","properties":{"GEOID":"511539004036"}},{"arcs":[[368,-355,369,370,-177,371,372,373]],"type":"Polygon","properties":{"GEOID":"511539001003"}},{"arcs":[[374,-94,-66,375,376,-193,-342,377]],"type":"Polygon","properties":{"GEOID":"511539011024"}},{"arcs":[[378,-139,-156,-336,379]],"type":"Polygon","properties":{"GEOID":"511539014163"}},{"arcs":[[380,381,382,-78,383,-364]],"type":"Polygon","properties":{"GEOID":"511539003022"}},{"arcs":[[-30,384,385,-184,386,387,-24]],"type":"Polygon","properties":{"GEOID":"511539012321"}},{"arcs":[[-72,-133,-307,-335]],"type":"Polygon","properties":{"GEOID":"511539014097"}},{"arcs":[[388,389,390,-306,391,392]],"type":"Polygon","properties":{"GEOID":"511539017041"}},{"arcs":[[393,-393,394,395]],"type":"Polygon","properties":{"GEOID":"511539017044"}},{"arcs":[[-267,396,-211,-270,-321]],"type":"Polygon","properties":{"GEOID":"511539008011"}},{"arcs":[[397,398,-314,399,400]],"type":"Polygon","properties":{"GEOID":"511539012282"}},{"arcs":[[-389,-394,401,402,403]],"type":"Polygon","properties":{"GEOID":"511539017042"}},{"arcs":[[-248,-232,-179,404]],"type":"Polygon","properties":{"GEOID":"511539005022"}},{"arcs":[[-242,-274,-279,-357,405,406]],"type":"Polygon","properties":{"GEOID":"511539006011"}},{"arcs":[[-247,-243,-407,407,-126]],"type":"Polygon","properties":{"GEOID":"511539007012"}},{"arcs":[[-406,-356,-369,408,409,410]],"type":"Polygon","properties":{"GEOID":"511539006012"}},{"arcs":[[411,-224,-227,412]],"type":"Polygon","properties":{"GEOID":"511539002032"}},{"arcs":[[413,414,-358,415,416]],"type":"Polygon","properties":{"GEOID":"511539012363"}},{"arcs":[[417,418,419,-285,-35]],"type":"Polygon","properties":{"GEOID":"511539014191"}},{"arcs":[[-127,420,-280,-207,-233]],"type":"Polygon","properties":{"GEOID":"511539007024"}},{"arcs":[[421,422,423,424,-382,425]],"type":"Polygon","properties":{"GEOID":"511539012092"}},{"arcs":[[426,427,-183,-204,-397,-266]],"type":"Polygon","properties":{"GEOID":"511539004103"}},{"arcs":[[428,429,-59,430,431,-370,-354,432,-221]],"type":"Polygon","properties":{"GEOID":"511539002012"}},{"arcs":[[433,-418,-34]],"type":"Polygon","properties":{"GEOID":"511539014181"}},{"arcs":[[434,435,436,437]],"type":"Polygon","properties":{"GEOID":"511539010113"}},{"arcs":[[-218,-219,-216,438,-16]],"type":"Polygon","properties":{"GEOID":"511539011012"}},{"arcs":[[439,-347,-360,440,441]],"type":"Polygon","properties":{"GEOID":"511539012213"}},{"arcs":[[-387,-192,442,-141,-200,443,444]],"type":"Polygon","properties":{"GEOID":"511539012332"}},{"arcs":[[-404,445,446,447,-296,448,449,-390]],"type":"Polygon","properties":{"GEOID":"511539017032"}},{"arcs":[[450,451,452,453,-88,454,455]],"type":"Polygon","properties":{"GEOID":"511539010103"}},{"arcs":[[-453,456,457,458,-90,459]],"type":"Polygon","properties":{"GEOID":"511539010101"}},{"arcs":[[-111,-329,-316,-340]],"type":"Polygon","properties":{"GEOID":"511539008032"}},{"arcs":[[-425,460,-123,-79,-74,-383]],"type":"Polygon","properties":{"GEOID":"511539003023"}},{"arcs":[[461,462,463,464,465]],"type":"Polygon","properties":{"GEOID":"511539012221"}},{"arcs":[[466,467,468,-166,469,-186]],"type":"Polygon","properties":{"GEOID":"511539012192"}},{"arcs":[[470,471,472,473,474]],"type":"Polygon","properties":{"GEOID":"511539012243"}},{"arcs":[[-345,475,476,-471,477,-361]],"type":"Polygon","properties":{"GEOID":"511539012242"}},{"arcs":[[478,479,480,481]],"type":"Polygon","properties":{"GEOID":"511539012291"}},{"arcs":[[482,483,-482,484,485,-189]],"type":"Polygon","properties":{"GEOID":"511539012302"}},{"arcs":[[-480,486,487,-398,488,489]],"type":"Polygon","properties":{"GEOID":"511539012292"}},{"arcs":[[-21,490,491]],"type":"Polygon","properties":{"GEOID":"511539013032"}},{"arcs":[[492,493,494]],"type":"Polygon","properties":{"GEOID":"511539015042"}},{"arcs":[[495,496,497,498]],"type":"Polygon","properties":{"GEOID":"511539015053"}},{"arcs":[[499,500,501,502,503,504]],"type":"Polygon","properties":{"GEOID":"511539004091"}},{"arcs":[[-58,505,506,-431]],"type":"Polygon","properties":{"GEOID":"511539002011"}},{"arcs":[[507,508,-441,-359,-415]],"type":"Polygon","properties":{"GEOID":"511539012371"}},{"arcs":[[-161,509,-442,-509,510]],"type":"Polygon","properties":{"GEOID":"511539012372"}},{"arcs":[[511,-466,512,513]],"type":"Polygon","properties":{"GEOID":"511539012212"}},{"arcs":[[514,515,516,-348,-440,517]],"type":"Polygon","properties":{"GEOID":"511539012352"}},{"arcs":[[518,519,-464]],"type":"Polygon","properties":{"GEOID":"511539012222"}},{"arcs":[[520,521,522,523]],"type":"Polygon","properties":{"GEOID":"511539014143"}},{"arcs":[[524,525,526,-395,-392,-305,527,-260,528]],"type":"Polygon","properties":{"GEOID":"511539014033"}},{"arcs":[[-420,529,530,-286]],"type":"Polygon","properties":{"GEOID":"511539014072"}},{"arcs":[[531,-429,-220,-412,532]],"type":"Polygon","properties":{"GEOID":"511539002023"}},{"arcs":[[533,534,535,536,537]],"type":"Polygon","properties":{"GEOID":"511539015044"}},{"arcs":[[-350,-201,-142,-443,-191,538]],"type":"Polygon","properties":{"GEOID":"511539012333"}},{"arcs":[[539,540,-467,-185,-386,541]],"type":"Polygon","properties":{"GEOID":"511539012312"}},{"arcs":[[542,543,-255,544,545,546,547,548,549]],"type":"Polygon","properties":{"GEOID":"511539013052"}},{"arcs":[[550,551,552,-468,-541]],"type":"Polygon","properties":{"GEOID":"511539012193"}},{"arcs":[[553,554,-13,555,556,557]],"type":"Polygon","properties":{"GEOID":"511539004041"}},{"arcs":[[-76,-81,-430,-532,558]],"type":"Polygon","properties":{"GEOID":"511539002021"}},{"arcs":[[559,-352,-82,560,-549]],"type":"Polygon","properties":{"GEOID":"511539013061"}},{"arcs":[[561,562,563]],"type":"Polygon","properties":{"GEOID":"511539012233"}},{"arcs":[[564,565,566,567,568]],"type":"Polygon","properties":{"GEOID":"511539012121"}},{"arcs":[[-528,-304,-391,-450,569,570,-261]],"type":"Polygon","properties":{"GEOID":"511539014031"}},{"arcs":[[571,572,573,-525,-530,-419,-434,-33]],"type":"Polygon","properties":{"GEOID":"511539014071"}},{"arcs":[[574,575,576,-64]],"type":"Polygon","properties":{"GEOID":"511539009011"}},{"arcs":[[-568,577,-554,578,579,580,581]],"type":"Polygon","properties":{"GEOID":"511539012032"}},{"arcs":[[582,-124,-461,-424,583]],"type":"Polygon","properties":{"GEOID":"511539012082"}},{"arcs":[[584,-167,585,586]],"type":"Polygon","properties":{"GEOID":"511539012091"}},{"arcs":[[-473,587,-426,-381,-368,-168,-585]],"type":"Polygon","properties":{"GEOID":"511539012093"}},{"arcs":[[588,589,590,-7,591,592,-402,-396,-527]],"type":"Polygon","properties":{"GEOID":"511539016011"}},{"arcs":[[-6,593,-592]],"type":"Polygon","properties":{"GEOID":"511539016012"}},{"arcs":[[-594,-5,594,595,-446,-403,-593]],"type":"Polygon","properties":{"GEOID":"511539016013"}},{"arcs":[[596,597,-2,598,599,-573]],"type":"Polygon","properties":{"GEOID":"511539016024"}},{"arcs":[[-8,-591,600]],"type":"Polygon","properties":{"GEOID":"511539016021"}},{"arcs":[[-12,601,602,603,-501,-556]],"type":"Polygon","properties":{"GEOID":"511539004042"}},{"arcs":[[604,-416,-363,605,606,607,608,609]],"type":"Polygon","properties":{"GEOID":"511539012111"}},{"arcs":[[-608,610,611]],"type":"Polygon","properties":{"GEOID":"511539012112"}},{"arcs":[[-611,-607,612,613,-566,614]],"type":"Polygon","properties":{"GEOID":"511539012113"}},{"arcs":[[615,616,617,618,619]],"type":"Polygon","properties":{"GEOID":"511539017021"}},{"arcs":[[-4,620,-616,621,622,-595]],"type":"Polygon","properties":{"GEOID":"511539017022"}},{"arcs":[[623,-294,624,-602]],"type":"Polygon","properties":{"GEOID":"511539004043"}},{"arcs":[[-333,625,626,627,628,629]],"type":"Polygon","properties":{"GEOID":"511539012263"}},{"arcs":[[630,631,632,-629,633,634,-399,-488,635,636]],"type":"Polygon","properties":{"GEOID":"511539012273"}},{"arcs":[[-628,637,-634]],"type":"Polygon","properties":{"GEOID":"511539012271"}},{"arcs":[[-638,-627,-569,-582,638,-309,-635]],"type":"Polygon","properties":{"GEOID":"511539012272"}},{"arcs":[[639,640,-618]],"type":"Polygon","properties":{"GEOID":"511539019001"}},{"arcs":[[641,642,643,644,645]],"type":"Polygon","properties":{"GEOID":"511539019004"}},{"arcs":[[646,-646,647]],"type":"Polygon","properties":{"GEOID":"511539019003"}},{"arcs":[[648,-115,649,650,-576]],"type":"Polygon","properties":{"GEOID":"511539009013"}},{"arcs":[[-513,-465,-520,651,-564,652,-476,-344]],"type":"Polygon","properties":{"GEOID":"511539012232"}},{"arcs":[[-411,653,-281,-421,-408]],"type":"Polygon","properties":{"GEOID":"511539007021"}},{"arcs":[[654,-55,655,-435,656,-458,657,658]],"type":"Polygon","properties":{"GEOID":"511539010111"}},{"arcs":[[659,-25,-388,-445,660,-547]],"type":"Polygon","properties":{"GEOID":"511539013041"}},{"arcs":[[-400,-313,661,662,-456,663,664]],"type":"Polygon","properties":{"GEOID":"511539010092"}},{"arcs":[[665,-474,-587,666]],"type":"Polygon","properties":{"GEOID":"511539012251"}},{"arcs":[[-491,-20,-159,667,-660,-546,668]],"type":"Polygon","properties":{"GEOID":"511539013042"}},{"arcs":[[-619,-641,669,-642,-647,670]],"type":"Polygon","properties":{"GEOID":"511539019002"}},{"arcs":[[-600,671,-589,-526,-574]],"type":"Polygon","properties":{"GEOID":"511539016025"}},{"arcs":[[672,-493,-535,673]],"type":"Polygon","properties":{"GEOID":"511539015043"}},{"arcs":[[-432,-507,674,-175,-371]],"type":"Polygon","properties":{"GEOID":"511539001001"}},{"arcs":[[675,-504,676,677,-656,-54]],"type":"Polygon","properties":{"GEOID":"511539004081"}},{"arcs":[[-503,678,679,-677]],"type":"Polygon","properties":{"GEOID":"511539004092"}},{"arcs":[[680,-292,-173,-366,-427,681]],"type":"Polygon","properties":{"GEOID":"511539004102"}},{"arcs":[[682,-505,-676,-53,683]],"type":"Polygon","properties":{"GEOID":"511539004082"}},{"arcs":[[-433,-353,-275,-272,-222]],"type":"Polygon","properties":{"GEOID":"511539002031"}},{"arcs":[[-614,684,-667,-586,-9,-555,-578,-567]],"type":"Polygon","properties":{"GEOID":"511539012031"}},{"arcs":[[685,-580,686,687,-684,-52,688,-311]],"type":"Polygon","properties":{"GEOID":"511539004073"}},{"arcs":[[-531,-529,-259,-287]],"type":"Polygon","properties":{"GEOID":"511539014032"}},{"arcs":[[-599,-1,-601,-590,-672]],"type":"Polygon","properties":{"GEOID":"511539016023"}},{"arcs":[[689,-289,-132,690,691,692]],"type":"Polygon","properties":{"GEOID":"511539014112"}},{"arcs":[[-131,-299,693,694,-691]],"type":"Polygon","properties":{"GEOID":"511539014113"}},{"arcs":[[-263,-249,-405,-178,-428,-365]],"type":"Polygon","properties":{"GEOID":"511539005021"}},{"arcs":[[-680,695,-603,-625,-293,-681,696,-436,-678]],"type":"Polygon","properties":{"GEOID":"511539004101"}},{"arcs":[[-170,-367,-171,-291,-624,-11]],"type":"Polygon","properties":{"GEOID":"511539004032"}},{"arcs":[[697,698,-693,699,700]],"type":"Polygon","properties":{"GEOID":"511539014111"}},{"arcs":[[701,-326,-290,-690,-699,702]],"type":"Polygon","properties":{"GEOID":"511539015081"}},{"arcs":[[-337,-256,-544,703]],"type":"Polygon","properties":{"GEOID":"511539014161"}},{"arcs":[[-99,-147,704,-116,-649,-575,-63]],"type":"Polygon","properties":{"GEOID":"511539009012"}},{"arcs":[[-497,705,-534,706,707]],"type":"Polygon","properties":{"GEOID":"511539015062"}},{"arcs":[[708,709,710,-324,-702,711]],"type":"Polygon","properties":{"GEOID":"511539015072"}},{"arcs":[[-623,712,-447,-596]],"type":"Polygon","properties":{"GEOID":"511539017023"}},{"arcs":[[-502,-604,-696,-679]],"type":"Polygon","properties":{"GEOID":"511539004093"}},{"arcs":[[-579,-558,713,714,-687]],"type":"Polygon","properties":{"GEOID":"511539004074"}},{"arcs":[[-715,715,-683,-688]],"type":"Polygon","properties":{"GEOID":"511539004072"}},{"arcs":[[-312,-689,-56,-655,716,-662]],"type":"Polygon","properties":{"GEOID":"511539010091"}},{"arcs":[[-410,717,-282,-654]],"type":"Polygon","properties":{"GEOID":"511539007022"}},{"arcs":[[-269,-209,-284,718,-373,719,-149,-319,-322]],"type":"Polygon","properties":{"GEOID":"511539008012"}},{"arcs":[[-718,-409,-374,-719,-283]],"type":"Polygon","properties":{"GEOID":"511539007023"}},{"arcs":[[-557,-500,-716,-714]],"type":"Polygon","properties":{"GEOID":"511539004071"}},{"arcs":[[-577,-651,720,-376,-65]],"type":"Polygon","properties":{"GEOID":"511539009014"}},{"arcs":[[-650,-121,-212,-194,-377,-721]],"type":"Polygon","properties":{"GEOID":"511539009051"}},{"arcs":[[-639,-581,-686,-310]],"type":"Polygon","properties":{"GEOID":"511539012283"}},{"arcs":[[721,-455,-87]],"type":"Polygon","properties":{"GEOID":"511539010052"}},{"arcs":[[-188,722,723,-637,724,-483]],"type":"Polygon","properties":{"GEOID":"511539012301"}},{"arcs":[[725,-301,-43,-140,-379,726,727,728,-237]],"type":"Polygon","properties":{"GEOID":"511539014151"}},{"arcs":[[729,730,-537,-45,-325,-711]],"type":"Polygon","properties":{"GEOID":"511539015071"}},{"arcs":[[-437,-697,-682,-265,731]],"type":"Polygon","properties":{"GEOID":"511539010112"}},{"arcs":[[-460,-89,-454]],"type":"Polygon","properties":{"GEOID":"511539010102"}},{"arcs":[[-717,-659,732,-451,-663]],"type":"Polygon","properties":{"GEOID":"511539010094"}},{"arcs":[[-733,-658,-457,-452]],"type":"Polygon","properties":{"GEOID":"511539010093"}},{"arcs":[[-302,-726,-236,733,734,735]],"type":"Polygon","properties":{"GEOID":"511539014131"}},{"arcs":[[-130,-50,-303,-736,-297]],"type":"Polygon","properties":{"GEOID":"511539014121"}},{"arcs":[[736,-727,-380,-339,737,-522]],"type":"Polygon","properties":{"GEOID":"511539014152"}},{"arcs":[[-728,-737,-521,738]],"type":"Polygon","properties":{"GEOID":"511539014142"}},{"arcs":[[-162,-511,-508,-414]],"type":"Polygon","properties":{"GEOID":"511539012361"}},{"arcs":[[-401,-665,739,-489]],"type":"Polygon","properties":{"GEOID":"511539012281"}},{"arcs":[[-517,740,-514,-343]],"type":"Polygon","properties":{"GEOID":"511539012211"}},{"arcs":[[741,742,743,744]],"type":"Polygon","properties":{"GEOID":"511539015032"}},{"arcs":[[745,746,-745,747,748]],"type":"Polygon","properties":{"GEOID":"511539015031"}},{"arcs":[[-234,-205,-181]],"type":"Polygon","properties":{"GEOID":"511539007011"}},{"arcs":[[-470,-330,749,-723,-187]],"type":"Polygon","properties":{"GEOID":"511539012191"}},{"arcs":[[-539,-190,-486,750,-84,-351]],"type":"Polygon","properties":{"GEOID":"511539012342"}},{"arcs":[[-692,-695,751,752,753,-700]],"type":"Polygon","properties":{"GEOID":"511539014172"}},{"arcs":[[-77,-559,-533,-413,-226,-384]],"type":"Polygon","properties":{"GEOID":"511539002022"}},{"arcs":[[-561,-95,-375,754,755]],"type":"Polygon","properties":{"GEOID":"511539801001"}},{"arcs":[[756,-550,-756,757]],"type":"Polygon","properties":{"GEOID":"511539013051"}},{"arcs":[[-485,-481,-490,-740,758,-85,-751]],"type":"Polygon","properties":{"GEOID":"511539012341"}},{"arcs":[[-759,-664,-722,-86]],"type":"Polygon","properties":{"GEOID":"511539010051"}},{"arcs":[[-632,759]],"type":"Polygon","properties":{"GEOID":"511539012261"}},{"arcs":[[760,761,-644,762,-542,-385,-29]],"type":"Polygon","properties":{"GEOID":"511539012311"}},{"arcs":[[763,-26,-668,-158]],"type":"Polygon","properties":{"GEOID":"511539012322"}},{"arcs":[[-553,764,-518,-510,-160,-469]],"type":"Polygon","properties":{"GEOID":"511539012351"}},{"arcs":[[765,766,767,768,769,770]],"type":"Polygon","properties":{"GEOID":"511539015111"}},{"arcs":[[771,772,773,774,775,776,-768]],"type":"Polygon","properties":{"GEOID":"511539015051"}},{"arcs":[[-707,-538,-731,777]],"type":"Polygon","properties":{"GEOID":"511539015063"}},{"arcs":[[778,-238,-729,-739,-524,779,-752]],"type":"Polygon","properties":{"GEOID":"511539014141"}},{"arcs":[[-298,-735,780,-239,-779,-694]],"type":"Polygon","properties":{"GEOID":"511539014122"}},{"arcs":[[-734,-235,-781]],"type":"Polygon","properties":{"GEOID":"511539014132"}},{"arcs":[[-459,-657,-438,-732,-108,-144,-199,-91]],"type":"Polygon","properties":{"GEOID":"511539010121"}},{"arcs":[[781,-106,-328,782,-214,-118]],"type":"Polygon","properties":{"GEOID":"511539009042"}},{"arcs":[[-107,-782,-117,-705,-146]],"type":"Polygon","properties":{"GEOID":"511539009041"}},{"arcs":[[-753,-780,-523,-738,-338,-704,-543,-757,783]],"type":"Polygon","properties":{"GEOID":"511539014171"}},{"arcs":[[-308,-134,-70,-262,-571,784,-253,-153,-137]],"type":"Polygon","properties":{"GEOID":"511539014091"}},{"arcs":[[785,-746,786]],"type":"Polygon","properties":{"GEOID":"511539015092"}},{"arcs":[[-495,787,-46,-536]],"type":"Polygon","properties":{"GEOID":"511539015041"}},{"arcs":[[788,-743,789,-597,-572,-32,-47,-788,-494,-673]],"type":"Polygon","properties":{"GEOID":"511539015034"}},{"arcs":[[790,-515,-765,-552]],"type":"Polygon","properties":{"GEOID":"511539012194"}},{"arcs":[[791,792,-498,-708,-778,-730,-710]],"type":"Polygon","properties":{"GEOID":"511539015061"}},{"arcs":[[793,-748,-744,-789,794,-772,-767]],"type":"Polygon","properties":{"GEOID":"511539015033"}},{"arcs":[[-787,-749,-794,-766,795,796]],"type":"Polygon","properties":{"GEOID":"511539015093"}},{"arcs":[[-548,-661,-444,-203,-349,-560]],"type":"Polygon","properties":{"GEOID":"511539013062"}},{"arcs":[[797,-761,-28]],"type":"Polygon","properties":{"GEOID":"511539012313"}},{"arcs":[[-796,-771,798,799,-712,-703,-698,800]],"type":"Polygon","properties":{"GEOID":"511539015091"}},{"arcs":[[-770,801,802,803,-799]],"type":"Polygon","properties":{"GEOID":"511539015101"}},{"arcs":[[-164,804,-610,805,-331]],"type":"Polygon","properties":{"GEOID":"511539012123"}},{"arcs":[[-332,-806,-609,-612,-615,-565,-626]],"type":"Polygon","properties":{"GEOID":"511539012122"}},{"arcs":[[-750,-334,-630,-633,-760,-631,-724]],"type":"Polygon","properties":{"GEOID":"511539012262"}},{"arcs":[[-163,-417,-605,-805]],"type":"Polygon","properties":{"GEOID":"511539012362"}},{"arcs":[[806,-776,807,-803]],"type":"Polygon","properties":{"GEOID":"511539015103"}},{"arcs":[[-769,-777,-807,-802]],"type":"Polygon","properties":{"GEOID":"511539015112"}},{"arcs":[[808,-773,-795,-674,-706,-496]],"type":"Polygon","properties":{"GEOID":"511539015054"}},{"arcs":[[809,-584,-423,810]],"type":"Polygon","properties":{"GEOID":"511539012081"}},{"arcs":[[-478,-475,-666,-685,-613,-606,-362]],"type":"Polygon","properties":{"GEOID":"511539012252"}},{"arcs":[[-653,-563,811,-422,-588,-472,-477]],"type":"Polygon","properties":{"GEOID":"511539012241"}},{"arcs":[[-463,812,-811,-812,-562,-652,-519]],"type":"Polygon","properties":{"GEOID":"511539012231"}},{"arcs":[[-774,-809,-499,-793,813]],"type":"Polygon","properties":{"GEOID":"511539015052"}},{"arcs":[[-804,-808,-775,-814,-792,-709,-800]],"type":"Polygon","properties":{"GEOID":"511539015102"}},{"arcs":[[-484,-725,-636,-487,-479]],"type":"Polygon","properties":{"GEOID":"511539012303"}}]}}}