{"type":"Topology","arcs":[[[4345,3848],[25,21],[21,56],[20,18],[47,15],[37,24],[32,11],[16,-69],[18,-38],[59,-77],[74,-72],[18,14],[1,43],[-10,20],[5,78],[-6,23],[21,75],[-6,75],[19,31],[-8,43],[0,61],[71,55],[19,36],[45,48],[30,15],[81,27],[74,32],[25,28],[20,5],[28,-40],[9,-43],[19,-29],[21,3],[43,34],[51,53],[37,23],[52,110],[40,37],[43,50],[11,4],[104,-38]],[[5551,4610],[83,-40],[52,-9],[50,-16],[72,-49],[65,-57],[78,-40],[30,-22],[74,-21],[9,-11],[-41,-27],[-113,-84],[-73,-64],[-139,-88],[-24,-20],[-22,-42],[-2,-32],[13,-78],[-9,-121],[8,-74],[3,-108],[-122,-193],[-66,-71],[-50,-116],[-34,-57],[1,-61],[-43,-44],[-24,-55],[-53,-79],[-42,-81],[-35,-41]],[[5197,2809],[-434,518],[-182,216],[-12,33],[-76,61],[-10,54],[-21,53],[-37,37],[-18,5],[-62,62]],[[354,6178],[49,-27],[85,-54],[38,-17],[59,-4],[725,73],[44,-2],[40,-15],[107,-64],[138,-62],[62,-18],[204,2]],[[1905,5990],[180,-3],[232,-53],[34,-15],[155,-108],[92,-76],[25,-39],[35,-109],[17,-42],[49,-61],[157,-134],[36,-28],[52,-26],[85,-27]],[[3054,5269],[66,-37],[309,-236],[27,-18],[66,-23],[28,-4],[47,6],[36,17],[198,138],[66,24],[-22,-39],[-10,-57],[-16,-17],[-28,-69],[39,-92],[51,-102],[0,-44],[12,-44],[27,-53],[-10,-34],[-24,-41],[66,-24],[54,-41]],[[4036,4479],[-476,-455],[-62,-64],[-61,-31],[-22,-20],[-20,-43],[-50,-69],[-8,-23],[-43,-56],[-15,-7],[-60,0],[-41,-60],[-64,-41],[-31,-6],[-29,-22],[-19,-31],[-18,-47],[-100,-43],[-49,-50],[-25,1],[-49,-20],[-33,-40],[-39,28],[-28,-5],[16,-49],[21,-23],[31,-13],[19,-46],[-19,-21],[-17,-79],[-236,72],[-776,222],[-113,116],[-28,75],[3,51],[51,120],[7,57],[-6,40],[-21,64],[-12,22],[-124,77],[-94,21],[-53,-2],[-26,-14],[-30,-40],[-37,-73],[-54,-138],[-19,-64],[-58,-94],[-45,-48],[-84,-28],[-110,-23],[-27,-11],[-67,-14],[-43,-3],[-26,9],[-43,42],[-15,53],[-4,68],[4,96],[-9,28],[-23,34],[-41,42],[-86,59],[-62,48],[-116,60],[-33,33],[-23,71],[2,31],[32,146],[2,29],[-28,87],[-1,34],[-20,234],[13,70],[2,51],[8,37],[0,42],[-8,107],[-19,73],[-50,130],[-4,51],[-20,45],[-6,45],[-37,85],[-38,42],[-28,14],[-6,56],[-47,35],[-13,56],[19,48],[-13,62],[3,33],[42,56],[-2,18],[38,2],[63,22],[13,19],[30,9],[69,-8],[42,32],[6,22],[-34,39],[4,39],[40,38],[28,12],[6,63]],[[3054,5269],[99,114],[68,53],[48,67],[15,66],[22,133],[-10,94],[40,102],[140,200],[-1,44],[16,197]],[[3491,6339],[89,-83],[69,-45],[79,-60],[60,-61],[83,-94],[43,-54],[33,-32],[54,-40],[47,-26],[77,-33],[34,-6],[82,-3],[81,4],[40,-14],[62,0],[15,-10],[21,-54],[62,-40],[85,-8],[57,-11],[54,-24],[26,-22],[98,-39],[183,-10],[102,5],[82,14],[78,24],[126,51],[37,-5],[76,21],[55,21],[33,3],[70,24],[22,0],[61,-18],[135,26],[82,-2],[27,-12],[124,-18],[100,-25],[68,22],[118,0]],[[6421,5705],[2,-36],[57,-122],[23,-68],[18,-104],[-11,-42],[5,-26],[-56,-64],[-81,-58],[-4,-59],[-22,-12],[-40,25],[-38,9],[-47,-8],[-43,2],[-91,-55],[-40,-32],[-123,-115],[-125,-67],[-30,-29],[-38,-21],[-57,-73],[-57,-11],[-60,-95],[-12,-34]],[[4345,3848],[-19,17],[-21,45],[-12,62],[-22,34],[-20,71],[-3,38],[9,43],[-30,40],[-4,60],[-28,39],[-19,-1],[-31,20],[-19,50],[-4,47],[-37,33],[-39,18],[-10,15]],[[6421,5705],[42,-3],[164,-47],[34,-20],[72,-21],[37,0],[498,-45]],[[7268,5569],[-40,-147],[-18,-45],[-24,-88],[-5,-47],[-1,-90],[-15,-156],[17,-83],[20,-48],[37,-55],[39,-45],[110,-70],[30,-56],[20,-182],[13,-42],[40,-34],[78,10],[52,-4],[29,-43],[-4,-53],[-14,-26],[-56,-53],[-24,-30],[-29,-69],[-16,-75],[-16,-34],[-33,-39],[-46,-25],[-93,-26],[-107,12],[-55,-13],[-54,-39],[-10,-139]],[[7093,3735],[-5,-40],[7,-62],[35,-114],[21,-47],[35,-47],[39,-28],[29,-32],[127,-193],[36,-36]],[[7417,3136],[-45,-60],[-7,-48],[-47,-87],[-22,-77],[-53,-116],[-34,-88],[46,-52],[17,-27],[29,-98],[90,-150],[-108,-46],[-81,41],[-21,-17],[-71,-154],[-14,-12],[-141,-49],[-50,-31],[-58,-95],[-244,-76],[-33,-20]],[[6570,1874],[-33,13],[-82,22],[-21,-2],[-67,44],[2,24],[-54,100],[-51,46],[-66,51],[-29,12],[-18,24],[-37,8],[-58,96],[-84,63],[-28,11],[-31,45],[-28,2],[-36,22],[-41,49],[-38,79],[-29,39],[-94,30],[-36,18],[-73,-16],[-21,-27],[-102,-4],[-33,11],[-4,37],[-35,82],[-45,33],[-58,-12],[-43,35]],[[7093,3735],[56,-6],[69,11],[39,-6],[46,-23],[115,-147],[17,-19],[80,-64],[216,-153],[161,-95]],[[7892,3233],[145,-91],[48,-28],[91,-43],[54,-6],[297,37],[74,-2],[177,-50],[94,-35],[118,-69]],[[8990,2946],[277,-150],[38,-29],[27,-41],[64,-169],[11,-38],[62,-321],[21,-77],[116,-252],[52,-84],[47,-107],[17,-28],[58,-57],[243,-163],[39,-34],[83,-97],[67,-63],[56,-76]],[[10268,1160],[-27,-44],[-59,-40],[-46,-1],[-46,-29],[-33,27],[-35,-6],[-38,-24],[-63,-19],[-70,-12],[-86,16],[-119,-3],[-38,-38],[-11,-52],[-24,-23],[-1,-22],[-23,-72],[-49,-72],[1,-58],[-31,-36],[-30,-48],[-50,-66],[0,-51],[-21,-60],[-18,-29],[-25,-18],[-24,-35],[-12,-180],[-9,-30],[-29,-29],[-8,-22],[7,-54],[-36,1],[-50,-31],[-22,0],[-33,28],[-44,6],[-66,34],[-44,8],[-8,12],[2,60],[-14,33],[-21,18],[-18,85],[-30,67],[-57,63],[-14,40],[-19,14],[-112,24],[-36,26],[-30,-3]],[[8599,515],[-8,38],[9,41],[119,198],[-94,76],[-1,24],[104,127],[9,23],[-13,25],[-105,87],[143,187],[25,24],[63,45],[68,87],[17,13],[1,41],[33,78],[-92,21],[-30,-2],[-76,-20],[-53,22],[-21,45],[-33,14],[-6,29],[-19,11],[-97,6],[-6,9],[22,68],[-4,73],[53,82],[-8,77],[24,79],[-11,59],[-89,63],[-20,-7],[-58,26],[-38,24],[-39,59],[-31,34],[-55,47],[-66,29],[-49,39],[-33,42],[-47,29],[-46,47],[9,45],[-44,48],[-22,33],[-105,56],[-45,11],[-58,116],[-58,46],[-34,18],[-48,13],[-25,27],[-60,32],[-134,57]],[[7268,5569],[550,-49],[97,-14],[26,-9],[40,3],[29,-9],[37,6],[45,-18],[670,-124]],[[8762,5355],[104,-281],[39,-86],[163,-230],[68,-177],[23,-40],[-8,-45],[-16,-16],[-13,-48],[-35,0],[-26,19],[-29,0],[-12,-56],[6,-10],[-88,-76],[-58,-33],[-40,-30],[-65,-32],[-30,-23],[-32,-5],[-58,44],[-35,-1],[-75,-24],[-33,-19],[-57,-9],[-38,-24],[-29,-9],[-91,7],[-5,-21],[-29,-41],[-67,-61],[-34,-14],[-69,8],[-15,-10],[-37,-69],[-46,-54],[0,-55],[-7,-60],[-24,-46],[-15,-85],[8,-32],[-3,-41],[13,-85],[-1,-39],[-9,-42],[-32,-78],[-33,-93]],[[2397,7035],[88,-188],[18,-4],[92,-55],[89,-59],[53,-48],[143,-37],[70,-8],[116,-3],[40,-17],[92,-18],[18,-28],[26,-17],[40,-8],[30,-19],[20,-26],[44,-34],[31,-40],[43,-31],[41,-56]],[[1905,5990],[56,145],[33,63],[85,110],[16,54],[-81,-16],[-87,-5],[2,10],[-90,40],[3,42],[23,43],[-18,24],[-10,67],[-55,105],[2,58],[-7,46]],[[1777,6776],[-9,63],[15,59],[52,45],[34,21],[88,-16],[96,-38],[42,-66],[49,-21],[52,-3],[101,50],[28,29],[72,136]],[[8762,5355],[456,-83],[96,27],[71,-7],[42,-39],[102,-35],[29,-2],[97,-27],[59,-7],[134,-2],[34,-19],[-2,-18],[-116,15],[5,-24],[113,-379],[11,-72],[22,-42],[35,-142],[-7,-38],[24,-117],[9,-102],[14,-45],[-13,-38],[98,-187]],[[10075,3972],[-43,-7],[-45,-55],[-53,18],[-21,-35],[-50,-36],[-29,-37],[-80,-122],[-10,-46],[-20,-17],[-14,-54],[-11,-9],[10,-66],[-50,-34],[-59,-65],[-66,38],[-61,6],[-96,61],[-74,28],[-37,-61],[-24,-55],[-44,-125],[-13,-24],[-61,-69],[-39,-80],[-42,-53],[-16,-32],[-37,-95]],[[373,6716],[42,26],[57,-38],[42,1],[15,-32],[45,-27],[9,-36],[43,-18],[16,37],[38,-7],[37,11],[22,-9],[47,20],[19,31],[37,-7],[11,-18],[-7,-35],[32,-24],[23,12],[19,30],[16,-10],[-9,-30],[30,-14],[15,-27],[36,-4],[37,41],[43,5],[34,-12],[47,45],[54,-40],[17,3],[22,47],[-16,38],[7,54],[14,12],[74,-23],[55,24],[19,-3],[48,23],[66,-9],[23,21],[43,12],[9,-16],[15,-79],[49,4],[19,28],[39,30],[51,23]],[[354,6178],[0,38],[19,500]],[[440,8318],[63,-50],[90,-98],[17,-56],[0,-60],[-6,-40],[13,-76],[-1,-42],[-17,-56],[-25,-48],[-7,-182],[10,-63],[57,-78],[98,-64],[65,-68],[52,26],[19,22],[-2,66],[16,60],[16,16],[106,8],[68,-38],[60,4],[29,14],[29,25],[61,31],[61,6],[114,49],[20,1],[141,-91],[50,-54],[-33,-116],[8,-34],[85,-123],[20,-63],[124,24],[190,-5],[20,20],[-16,46],[2,56],[11,93],[-11,87],[23,56],[47,55]],[[2107,7578],[20,-31],[-3,-59],[23,-49],[54,13]],[[2201,7452],[196,-417]],[[373,6716],[59,1598],[8,4]],[[1396,8770],[27,-85],[35,-23],[121,-9],[33,-22],[151,-221],[70,-107]],[[1833,8303],[98,-149],[4,-10]],[[1935,8144],[62,-86],[51,-32],[11,-24],[7,-49],[3,-103],[17,-45],[33,-65],[1,-36],[-24,-44],[11,-82]],[[440,8318],[29,14],[15,-7],[70,3],[9,-19],[41,-40],[40,-4],[19,47],[24,24],[10,56],[-30,34],[34,23],[58,25],[8,48],[17,20],[32,-6],[41,14],[41,-6],[34,29],[58,5],[49,-17],[50,14],[9,57],[42,14],[61,31],[23,37],[7,39],[-5,31],[41,9],[43,-43],[24,-5],[62,25]],[[10075,3972],[54,-45],[94,-66],[9,0],[56,-53],[87,-106],[8,-27]],[[10383,3675],[-28,-99],[6,-14],[3,-86],[-7,-9],[-88,-17],[-44,-28],[-13,-24],[-39,-43],[-4,-69],[19,-62],[39,-67],[42,-42],[15,-32],[51,-22],[-12,-55],[-22,-38],[-75,-30],[-3,-13],[59,-80],[-82,-31],[-41,7],[-30,28],[-33,-72],[-35,-61],[-3,-35],[114,-363],[2,-37],[13,-48],[79,45],[134,-49],[66,-47],[56,-5],[13,-18],[18,-78],[5,-153],[-20,-37],[-36,-25],[74,-136]],[[10576,1730],[-18,-14],[-2,-40],[-24,-25],[16,-31],[40,0],[8,-13],[-30,-64],[8,-59],[-11,-15],[-62,-4],[-23,-29],[-33,-20],[-24,-41],[-33,-28],[3,-32],[-47,-36],[-23,-28],[3,-38],[-17,-22],[-39,-31]],[[8599,515],[-46,19],[-23,-3],[-80,17],[-26,-14],[-72,1],[-42,-11],[-66,-36],[-22,-28],[-22,24],[-62,19],[-26,-4],[-22,13],[-21,35],[-244,-12],[-374,254],[-101,78],[-135,81],[-315,-14],[-8,-42],[-86,-39],[-19,-26],[-34,13],[-56,33],[-105,37],[-49,44],[-25,7],[-49,43],[-32,40],[15,48],[67,36],[33,52],[-5,47],[26,44],[-30,84],[12,60],[-9,19],[4,42],[-6,34],[30,34],[7,25],[47,76],[-4,20],[18,28],[-26,29],[-13,47],[12,28],[-10,39],[-35,38]],[[1974,8492],[47,-36],[26,-52],[45,-63],[40,-29],[34,-38],[39,-58],[11,-63]],[[2216,8153],[-281,-9]],[[1833,8303],[94,76],[-11,15],[86,70],[-28,28]],[[10383,3675],[43,-16],[19,-20],[35,-11],[73,-43],[29,-23],[65,-39],[49,-23],[8,-12],[65,-40],[160,-63],[41,-49],[120,-94],[71,-49],[74,-58],[98,-34],[42,-54],[6,-61],[-10,-113],[6,-42],[24,-69],[43,-81],[126,-213],[23,-12],[167,-174],[29,-45],[-4,-287],[-197,7],[-75,-17],[-206,-64],[-42,-22],[-70,-72],[-79,-57],[-120,-34],[-71,27],[-29,-2],[-58,25],[-44,-4],[-79,-27],[-124,24],[-15,-4]],[[2216,8153],[15,-130],[12,-45],[42,-97],[20,-79],[9,-59],[0,-109],[-24,-64],[-89,-118]],[[1396,8770],[44,40],[146,-124],[41,22],[87,-4],[49,11],[25,-2],[33,-43],[27,-18],[24,-46],[72,-69],[30,-45]]],"transform":{"scale":[0.000046526253286961996,0.000035469580022701976],"translate":[-77.064658,37.965559]},"objects":{"Geometry\\51-193":{"type":"GeometryCollection","geometries":[{"arcs":[[0,1,2]],"type":"Polygon","properties":{"GEOID":"511930102002"}},{"arcs":[[3,4,5,6]],"type":"Polygon","properties":{"GEOID":"511930103001"}},{"arcs":[[7,8,9,-1,10,-6]],"type":"Polygon","properties":{"GEOID":"511930102001"}},{"arcs":[[-10,11,12,13,14,15,-2]],"type":"Polygon","properties":{"GEOID":"511930102003"}},{"arcs":[[16,17,18,19,20,-14]],"type":"Polygon","properties":{"GEOID":"511930101023"}},{"arcs":[[21,22,-17,-13]],"type":"Polygon","properties":{"GEOID":"511930101011"}},{"arcs":[[23,-8,-5,24,25]],"type":"Polygon","properties":{"GEOID":"511930103003"}},{"arcs":[[26,27,-18,-23]],"type":"Polygon","properties":{"GEOID":"511930101012"}},{"arcs":[[28,-25,-4,29]],"type":"Polygon","properties":{"GEOID":"511930103002"}},{"arcs":[[30,31,32,-26,-29,33]],"type":"Polygon","properties":{"GEOID":"511930104011"}},{"arcs":[[34,35,36,-31,37]],"type":"Polygon","properties":{"GEOID":"511930104012"}},{"arcs":[[38,39,40,-19,-28]],"type":"Polygon","properties":{"GEOID":"511930101021"}},{"arcs":[[-15,-21,41]],"type":"Polygon","properties":{"GEOID":"511930101024"}},{"arcs":[[42,43,-36,44]],"type":"Polygon","properties":{"GEOID":"511930104021"}},{"arcs":[[45,-40]],"type":"Polygon","properties":{"GEOID":"511930101022"}},{"arcs":[[46,-32,-37,-44]],"type":"Polygon","properties":{"GEOID":"511930104022"}},{"arcs":[[47,-45,-35]],"type":"Polygon","properties":{"GEOID":"511930104023"}}]}}}