{"type":"Topology","arcs":[[[2839,6174],[12,27],[27,0],[-17,-44],[-22,17]],[[2610,6844],[79,36],[24,-2],[18,40],[36,18],[31,4],[23,15],[22,32],[30,21],[41,8],[44,29],[38,14],[11,-6],[40,-82],[90,-102],[41,-62],[36,8],[35,32],[35,4],[39,-22],[52,-19],[61,28],[48,-12],[66,-30],[17,-17],[38,-73],[46,-26],[33,-62],[-4,-59],[97,31],[50,2],[75,23],[101,56],[66,-20],[34,14],[16,17],[36,10],[23,-4],[53,11],[22,-5],[27,-25],[36,28],[56,4],[57,35],[38,-22],[51,4],[-3,-27],[30,7],[74,-9],[66,5],[4,-7],[-16,-74],[6,-48],[-15,-58],[-2,-55],[-27,-46],[-16,-61],[2,-54],[-10,-49],[40,-41]],[[4651,6201],[-6,-13]],[[4645,6188],[-36,12],[-65,9],[-63,-3],[-369,-69],[-78,-5],[-74,7],[-43,-2],[-174,-20],[-164,-35],[-58,-4],[-80,11],[-58,-3],[-250,-56],[-23,-13],[-148,-103],[-122,-59]],[[2840,5855],[-20,58],[29,15],[-23,110],[174,52],[-42,116],[23,15],[25,35],[86,26],[66,46],[-8,17],[26,34],[-104,108],[16,33],[-11,304],[-219,-29],[-2,157],[-175,-124],[1,-88],[-7,-80],[-38,-219],[-7,-88],[-18,-61],[-38,-63],[-27,-10],[-11,42],[19,24],[35,71],[3,69],[22,166],[12,124],[-17,129]],[[4645,6188],[-39,-92],[-172,-460],[-57,-140],[22,-313],[-19,-224],[132,43]],[[4512,5002],[-389,-297],[-80,-46],[-68,-21],[-47,-6],[-348,-11],[-46,0]],[[3534,4621],[-88,9],[-64,13],[-307,98],[-138,34],[-86,14],[-131,13],[-100,3],[-169,-9],[-89,3],[-58,10],[-140,33],[-84,14],[-183,22],[-45,-2],[-67,-16],[-32,-15],[-6,18]],[[1747,4863],[-36,98],[-39,69],[18,15],[42,72],[19,-29],[29,19],[71,21],[-19,18],[-28,57],[77,55],[10,89],[-43,-2],[-65,92],[36,19],[5,40],[-34,7],[-21,32],[22,60],[109,32],[38,-1],[37,-15],[50,-5],[63,-20],[31,-4],[45,6],[15,-29],[10,-45],[-22,-18],[0,-98],[32,-60],[25,172],[0,44],[62,2],[18,-20],[3,-33],[24,-45],[54,-30],[35,-9],[29,-24],[30,-61],[3,-27],[16,-13],[33,31],[22,89],[-12,69],[-18,43],[-22,6],[-33,49],[-31,24],[35,24],[-8,15],[101,67],[115,8],[0,59],[-34,82],[51,29],[19,-29],[19,19],[70,35],[24,-65],[11,6]],[[3534,4621],[14,-52],[47,-40],[2,-37],[17,-21],[55,-89],[40,-19],[46,-35],[22,-3],[63,48],[41,1],[68,14],[24,12],[99,66],[59,13],[65,-17],[80,-60],[83,-32],[40,-26],[43,-5],[44,-37],[25,-64],[56,-27],[158,-130],[38,-36],[34,-45],[-28,-82],[-18,-23],[-50,-42],[-100,-109],[-7,-15],[-45,-263],[8,-100],[-36,-18],[-57,-37],[-72,-37],[-78,-28],[-61,-63],[-47,-37],[-73,-44],[-31,-9],[-94,0],[-57,-30],[-48,-101],[29,-25],[29,-46],[51,-36],[17,-22],[46,-126],[-9,-97],[-17,-63],[-15,-23],[-8,-68],[-11,-39],[1,-34],[37,-81],[96,-98],[24,-75],[51,-108],[35,-64],[-38,-47],[-14,-66],[-28,-60],[7,-45],[37,-45],[15,-47],[-1,-52],[16,-16],[23,-73],[19,-16],[-6,-31],[27,-119],[26,-69],[9,-57],[148,-110]],[[4499,1104],[41,-83],[14,-80],[-14,-48],[-127,-138],[-24,-8],[-30,4],[-28,21],[-29,62],[-26,33],[-63,39],[-31,-24],[8,-74],[38,-118],[12,-71],[0,-38],[10,-47],[-4,-43],[-45,-38],[-55,9],[-77,36],[-60,57],[-23,70],[-41,57],[-52,11],[-24,16],[-21,28],[-26,-14],[-11,-67],[6,-107],[21,-64],[19,-93],[4,-47],[-3,-67],[-21,-26],[-42,-7],[-99,13],[-64,-14],[-26,-25],[-3,-30],[50,-155],[-12,-30],[-36,-4],[-24,13],[-26,35],[-15,39],[0,36],[-49,153],[-25,42],[-49,43],[-29,-11],[-46,18],[-44,47],[-23,46],[-43,101],[-24,40],[-30,86],[6,64],[-20,61],[7,30],[-8,43],[-36,40],[-7,27],[-44,52],[-41,88],[-45,50],[-40,74],[-31,23],[-28,3],[-51,-19],[-30,-3],[-35,-29],[-22,-41],[-4,-26],[10,-31],[19,-25],[62,-16],[37,-33],[24,-46],[7,-42],[2,-71],[-57,-99],[-53,-126],[-30,-30],[-52,-9],[-69,-26],[-21,-29],[-57,-116],[-14,-21],[-33,-22],[-27,-40],[-46,-17],[-25,18],[-12,27],[-123,-37],[-39,-22],[-16,-20],[-21,-46],[-4,-52],[-23,-27],[-72,-33],[-102,309],[-25,88],[-128,388],[-88,234],[-5,70],[-6,16],[-2,173],[-26,157],[17,2],[4,283],[-7,9],[-16,120],[5,63],[23,41],[12,75],[-4,63],[-15,50],[-24,34],[-32,12],[-28,-29],[-15,-44],[-24,-31],[-23,-17],[-30,-5],[-19,21],[-7,51],[3,50],[21,112],[-17,63],[-18,44],[-46,88],[-14,40],[-6,47],[19,48],[36,60],[33,19],[41,-1],[64,-22],[108,-14],[49,-27],[29,-63],[70,-77],[20,-35],[14,-114],[4,-65],[12,-14],[43,-17],[40,1],[34,9],[33,37],[11,90],[15,88],[-6,112],[-18,68],[-49,58],[-45,22],[-54,-5],[-98,-1],[-21,21],[-1,30],[50,113],[12,49],[12,13],[60,19],[46,22],[4,22],[-20,72],[-33,36],[-44,62],[-24,59],[-69,45],[-66,8],[-30,17],[-14,28],[11,106],[-50,40],[-18,71],[0,95],[-11,100],[-9,39],[-12,118],[-2,52],[-10,33],[-21,13],[-25,-39],[-32,-131],[-33,-43],[-28,-55],[-31,-51],[-38,-24],[-24,-2],[-27,13],[-9,26],[-2,66],[-59,39],[-69,26],[-60,11],[-6,14],[6,42],[-48,61],[-19,39],[-20,60],[-17,116],[-14,70],[-24,50],[61,37],[-7,94],[11,16],[75,2],[18,-5],[54,7],[3,24],[32,-3],[0,-34],[184,103],[107,65],[159,113],[10,5]],[[5842,8000],[120,133]],[[5962,8133],[25,16],[59,23],[42,23],[61,50],[57,22],[96,45],[59,1],[29,-14],[39,9],[77,32],[57,29],[36,-3],[67,7],[167,67],[41,-10],[25,2],[78,47],[33,15],[77,15],[23,19],[16,51],[25,36],[12,3],[132,-30],[38,41]],[[7333,8629],[115,-10],[26,-10],[123,-73],[61,-4],[47,-19],[24,-29],[13,-65]],[[7742,8419],[21,-34],[-11,-75],[-50,-101],[-32,-22],[-4,-51],[68,-141],[25,-85],[34,-80],[26,-48],[21,-9],[43,1],[51,-34],[130,-37],[96,-66],[54,-75],[30,-13],[73,-63],[34,-42],[50,-34],[19,-27],[82,-51],[26,-67],[32,-31],[48,4]],[[8608,7238],[-34,-91],[-43,-74],[-54,-55],[-149,-108],[-56,-35],[-463,-257],[-52,-34],[-35,-35],[-37,-52],[-45,-97],[-230,-62],[-121,-17],[-54,-11],[-38,-14],[-85,-43]],[[7112,6253],[-206,209],[-71,68],[-60,51]],[[6775,6581],[-425,362],[-54,42],[-45,16],[-46,3],[-132,31],[-43,19],[-62,42],[-58,52],[-55,60],[-42,36]],[[5813,7244],[-62,54],[-43,58],[-27,53],[-14,67]],[[5667,7476],[7,78],[35,85],[16,57],[33,163],[16,48],[27,46],[41,47]],[[3466,8083],[62,-26],[61,-11],[78,0],[42,-7],[82,-30],[69,-13],[140,-4],[63,-5],[80,-16],[86,-23],[76,-17],[69,2],[114,24],[103,-3],[33,8],[88,48],[27,6],[177,21],[65,10],[139,47],[74,8],[122,-11]],[[5316,8091],[-89,-125],[-30,-39],[-130,-116],[-9,-209],[-5,-72],[18,-90]],[[5071,7440],[-78,2],[-66,14],[-55,18],[-8,-5],[-63,4],[-61,-21],[55,-33],[42,-62],[4,-84],[-5,-64],[11,-114],[7,-33],[-22,-35],[-24,-67],[5,-81],[18,-31],[89,-26]],[[4920,6822],[-38,-5],[-37,10],[-36,47],[-11,99],[-16,28],[-29,23],[-187,77],[-24,5],[-70,-3],[-67,25],[-75,56],[-51,51],[-107,114],[-48,21],[-63,-3],[-45,13],[-59,64],[-29,16],[-41,8],[-120,-7],[-1,17],[-62,-3],[-57,18],[-63,11],[-14,32],[13,49],[-12,65],[15,95],[-8,11],[-64,20],[-55,-18],[-38,37],[0,49],[-11,70],[7,47],[13,38],[33,21],[6,17],[-3,46]],[[7362,9839],[-1,86],[17,189],[9,67],[28,38],[18,101],[-2,90],[-23,45],[-14,72],[21,187]],[[7415,10714],[25,11],[40,63],[61,-13],[31,19],[44,96],[54,80],[53,24],[12,34],[1,78],[72,89],[43,11],[40,20],[27,68],[18,33],[43,51],[63,48],[52,50]],[[8094,11476],[45,30],[18,3],[28,-24],[29,-9],[54,15],[74,32],[59,60],[49,43],[26,53],[33,12],[45,-8],[37,8],[102,53],[28,22],[64,62],[34,42],[33,21],[108,104],[115,68],[35,63],[84,117],[27,67],[44,24],[36,43],[74,116],[116,166],[22,19],[74,36],[83,72],[41,15],[42,0],[120,181],[39,29],[91,53],[42,37],[87,54],[45,53],[79,52],[63,60],[56,42],[53,48],[48,21],[48,-16]],[[10524,13415],[225,-354],[346,-557]],[[11095,12504],[-29,-6],[-46,20],[-46,-17],[-39,-38],[-47,-161],[-36,-76],[-24,-39],[-124,-141],[-134,-189],[-28,-58],[-12,-105],[-14,-56],[-37,41],[-45,25],[-51,-30],[-45,-12],[-75,-32],[-36,-22],[-42,-13],[-55,-48],[-105,-14],[-35,-19],[-17,1],[-17,-31],[-61,-32],[-50,-42],[-6,-50],[-102,-130],[-6,-61],[26,-71],[-41,-112],[37,-36],[8,-17],[-8,-84],[7,-32],[8,-103],[-66,10],[-117,-8],[-35,-22],[-96,-99],[-30,-44],[-16,-47],[-5,-44],[-10,-25],[-32,-31],[-49,-22],[-24,-20],[-33,-73],[6,-57],[29,-37],[36,-16],[70,-17],[52,-25],[37,-26],[92,-77],[14,-17],[67,-101],[31,-74],[79,-89],[-1,-49],[-41,-32],[-31,-7],[-7,-17],[65,-82],[12,-46],[-18,-54],[-17,-31],[-53,-56],[-49,-43],[-52,-59],[-8,-44],[-12,-16],[-45,-7],[-40,9],[-49,-11],[-43,-31],[-77,-36],[-88,-59],[-43,16],[-84,0],[-31,-4],[-110,-39],[-33,-36],[-39,-33],[-90,-41],[-158,-114],[-26,-34],[-26,-14],[-47,14],[-28,-5],[-56,-35],[-69,-60],[-33,-7],[-23,5],[-108,-10],[-74,-47],[-61,-52],[-50,-92],[-13,-15],[-45,-19],[-199,-34],[-26,-7]],[[7333,8629],[1,69],[8,36],[54,162],[26,71],[7,35],[2,63],[-11,202],[30,51],[8,28],[-8,23],[-111,154],[-6,35],[8,57],[20,25],[42,16],[18,41],[-20,64],[-35,17],[-7,16],[3,45]],[[6040,11277],[-11,-155],[-26,-84],[-87,-172]],[[5916,10866],[-36,23],[-21,3],[-65,-5],[-43,-9],[-44,-20]],[[5707,10858],[-19,46]],[[5688,10904],[-12,37],[-2,56],[20,58],[-4,68],[350,154]],[[5327,7436],[96,-24],[55,-1],[31,10],[93,41],[65,14]],[[5813,7244],[-6,-6],[62,-57],[22,-40],[28,-79],[2,-55]],[[5921,7007],[-128,11],[-78,24],[-66,2],[-33,-16],[-100,-18]],[[5516,7010],[-9,57],[-2,51],[-35,5],[-47,-53],[-61,55],[-33,16],[1,46],[11,20],[-14,29],[-3,64],[-12,81],[15,55]],[[4022,12465],[54,-23],[27,1],[107,23],[198,26],[64,-3],[259,-37],[47,-20],[67,-55],[35,-19],[43,-8],[64,2],[66,-18],[41,-36]],[[5094,12298],[-27,-24],[-43,-24],[-19,0],[-40,-28],[-15,-35],[-49,-41],[-110,-108],[-62,-97],[-42,-1],[-47,-36],[-34,-59],[-43,-32],[-90,-100],[-23,-35],[-4,-66],[-29,-38],[-43,-15],[-53,-55],[-23,-16],[-39,-68],[-5,-39],[-22,-45],[-39,-12],[-35,-53],[-45,-42],[-55,-31],[-15,-51],[-37,-17],[-36,-35],[-38,-25],[-28,5],[-60,-29],[-47,27],[-65,-7],[-18,-12],[-61,-5],[-46,-23],[-23,-35],[-47,9],[11,-57],[30,-125],[8,-69],[-14,-55],[0,-41],[-42,-43],[-32,-111],[12,-20],[-6,-36],[11,-7],[59,12],[19,-18],[-10,-92],[29,-39],[29,-76]],[[3641,10223],[-98,-17],[-7,-7],[-3,-66],[-16,-18],[-63,46],[-34,45],[-61,21],[-58,29],[-64,22],[-14,-7],[-9,-47],[-97,-39],[-70,3],[-35,-18],[-23,-102],[-23,-18],[3,-57],[-17,-56],[13,-59],[37,-54],[20,-56],[43,-69],[10,-78],[13,-32],[0,-31],[13,-17],[85,-21],[21,-24],[6,-33],[41,-86],[24,-38],[152,-30],[63,-33],[10,-21],[-39,-8],[-30,-22],[-50,20],[-12,-54],[-14,-18],[-42,-20],[-33,-57],[-20,-49],[-1,-43],[-37,-109],[-38,-69],[-33,-28],[-48,-25],[-14,2],[-35,65],[0,43],[-13,52],[-35,15],[-46,9]],[[2963,8959],[-1,30],[-17,56],[-34,81],[-50,69],[-56,35],[-53,22],[-102,-1],[-47,-3],[-107,-19],[-141,-22],[-116,-68],[-44,-18],[-152,-27],[-52,-18],[-45,-7],[-44,-21],[-45,-7],[-77,-30],[-28,-15],[-251,-123],[-27,-25],[-31,-43],[-36,-28],[-128,-148],[-53,-41],[-78,-81],[-89,-143],[-54,-56],[-64,-46],[-63,-3],[-58,24],[-43,27],[-52,50],[-82,105],[-35,55],[-56,122],[-50,166],[-35,151],[-62,126],[-53,80],[-28,34],[-53,47],[-58,63],[-64,43],[-52,72],[-32,70],[-26,79],[-5,53],[11,120],[19,101],[0,41],[-25,79],[-24,51],[-12,56],[-3,140],[10,54],[26,64],[24,39],[27,29],[80,52],[52,55],[32,52],[22,67],[13,73],[-5,53],[-21,56],[48,29],[55,51],[56,28],[64,47],[71,17],[29,13],[86,14],[103,55],[47,19],[87,23],[63,51],[101,39],[66,38],[38,14],[69,43],[129,49],[74,36],[48,11],[77,10],[133,40],[139,30],[101,39],[100,19],[265,75],[37,18],[115,26],[41,14],[54,36],[98,48],[55,22],[50,12],[50,19],[83,57],[166,79],[262,119],[65,22],[29,22],[120,81],[139,86],[53,52],[41,26],[80,44],[175,84]],[[4512,5002],[23,9],[399,137],[238,80],[489,165]],[[5661,5393],[-16,-62],[-21,-46],[-84,-153],[-18,-24],[-86,-74],[39,-107],[19,-32],[11,-36],[25,-47],[48,-124],[0,-53],[20,-54],[114,-199],[66,-59],[36,-8],[110,44],[52,25],[47,-1],[58,7],[92,45],[28,5],[35,-24],[34,-4],[22,-25],[20,2],[62,43],[56,59],[33,15],[179,0]],[[6642,4506],[30,-51],[-7,-24],[-44,-37],[-6,-22],[-78,-51],[-78,-34],[-88,-23],[-61,-25],[-20,-45],[-8,-86],[-45,-25],[-48,-34],[-36,-56],[-19,-130],[-12,-55],[4,-67],[-8,-24],[-45,-51],[36,-40],[-3,-102],[5,-19],[-5,-56],[-16,-41],[0,-37],[10,-20],[-7,-29],[-20,-23],[-51,-11],[-32,-28],[-30,-9],[-39,-24],[-22,-29],[-23,-62],[-7,-91],[18,-22],[-4,-39],[13,-51],[-11,-65],[31,-33],[29,-43],[-166,-99],[-209,-129],[29,-7],[45,3],[82,44],[14,-13],[44,-92],[22,-17],[51,5],[-15,-50],[2,-31],[14,-31],[29,-9],[57,19],[6,-36],[22,-30],[44,-77],[15,-61],[-11,-42],[-1,-54],[7,-45],[49,-20],[33,-39],[-13,-54],[-38,-52],[-35,-33],[-38,-66],[-4,-47],[30,-52],[48,-34],[33,-33],[40,-64],[65,-126],[29,-42],[-12,-23]],[[6213,1355],[-36,41],[-22,62],[-39,60],[-38,44],[-58,35],[-34,50],[-25,23],[-20,-3],[-53,-86],[-27,-124],[-5,-48],[24,-41],[33,-37],[22,-53],[57,-51],[33,-58],[1,-18],[-26,-76],[0,-62],[8,-28],[-12,-71],[-18,-29],[-62,-38],[-67,-17],[-150,30],[-25,24],[-10,24],[-6,56],[11,74],[11,32],[6,61],[-17,69],[-28,52],[-50,79],[-59,52],[-73,30],[-113,31],[-60,-29],[-11,-13],[-1,-45],[8,-98],[-9,-34],[-103,-139],[-47,-30],[-18,-3],[-40,30],[-17,25],[-21,66],[-8,112],[-13,47],[-6,60],[10,71],[-1,60],[-24,56],[-21,34],[-24,22],[-60,11],[-34,-2],[-29,-18],[-8,-47],[-19,-28],[-9,-88],[15,-23],[9,-45],[46,-68],[0,-46],[-40,-27],[-36,-9],[-54,10],[-82,-12],[-60,3],[-54,-14],[-20,-16],[-10,-62],[4,-51]],[[4651,6201],[66,167],[67,189],[136,265]],[[4920,6822],[61,8],[44,-24],[29,-44],[39,-35],[65,-25],[60,-8],[31,-9],[63,-34],[103,-79],[65,-35],[115,-50],[42,-12],[44,0],[142,28],[94,-7]],[[5917,6496],[50,-266],[23,-40],[104,-103]],[[6094,6087],[-115,-136]],[[5979,5951],[-106,48],[-40,6],[-161,-11],[-373,-19],[-37,4],[-253,76],[-162,55],[-202,78]],[[2643,8623],[-45,-46],[-29,-4],[-6,-17],[24,-158],[16,-31],[0,-97],[35,8],[34,26],[69,25],[59,-10],[48,26],[60,10],[10,-7],[4,-61],[28,-63],[56,-52],[39,-51],[17,-56],[20,-27],[22,26],[52,29],[14,32],[61,-33],[22,4],[24,32],[7,37],[50,-3],[47,15],[16,-6],[19,-50],[51,-8],[-1,-30]],[[2610,6844],[-16,77],[-38,109],[-23,58],[-67,86],[-44,43],[-44,23],[-69,-14],[-53,-30],[-85,-36],[-86,-20],[-77,-1],[-72,31],[-17,22],[-16,48],[-15,99],[-25,86],[-61,129],[-15,21],[-27,75],[-15,27],[-69,52],[-92,59],[-90,116],[-11,46],[-1,70],[22,68],[54,120],[155,157],[51,117],[39,74],[58,52],[37,21],[74,32],[166,46],[46,17],[61,13],[70,6],[41,-14],[93,-49],[126,-50],[68,-7]],[[2643,8623],[71,1],[71,17],[57,27],[30,25],[29,42],[44,93],[18,81],[0,50]],[[3641,10223],[14,3]],[[3655,10226],[17,-29],[20,-70],[4,-40],[12,-26],[25,1],[55,21],[37,-12],[8,-22],[25,-20],[39,-10],[72,4],[56,-30],[55,-23],[12,-17],[5,-44],[59,-33],[45,-45],[86,-155],[40,-78]],[[4327,9598],[-6,-3],[82,-277],[38,-136],[12,-8],[246,3],[18,-14],[3,-40],[13,-15],[115,-23],[32,-17],[36,-47]],[[4916,9021],[-22,-29],[-13,-49],[32,-52],[60,-15],[65,1],[48,7],[28,-3],[72,-29],[56,-17],[32,5],[56,-2],[88,-18],[24,-20],[37,-2],[70,-41],[5,-12],[30,-174],[14,-25]],[[5598,8546],[38,-11],[10,-13]],[[5646,8522],[-118,-135],[-37,-83],[-67,-112],[-70,-47],[-38,-54]],[[6642,4506],[4,39],[23,29],[30,57],[49,35],[77,68],[41,91],[7,36],[-15,73],[-1,65],[26,49],[24,60],[22,18],[39,18],[12,14],[15,47],[-6,52],[7,61],[-5,18]],[[6991,5336],[32,54],[40,19],[117,11],[136,5],[60,-27],[33,-31],[42,-1],[53,31],[95,74],[32,10],[48,1],[44,7],[67,31],[42,45],[46,21],[-24,-77],[27,-13],[60,18],[124,12],[12,-22],[28,-10],[19,-22],[-39,-67],[18,-38],[21,-2],[36,18],[29,-2],[20,-22],[48,-21],[110,37],[25,-4],[22,-31],[49,-31],[28,-36],[0,-50],[14,-39]],[[8505,5184],[-14,-19],[-35,-15],[-62,-47],[-1,-34],[16,-82],[42,-48],[-23,-22],[-51,-13],[-76,-62],[-12,-40],[-17,-27],[-17,-72],[24,-24],[36,-3],[37,10],[16,36],[-4,33],[27,-1],[28,-79],[11,-11],[-47,-50],[-9,-38],[-2,-62],[16,-24],[24,-8],[14,-23],[-1,-98],[-18,-54],[6,-30],[45,-76],[31,-32],[5,-33],[-45,-49],[-37,0],[-14,-13],[-15,-58],[5,-62],[0,-64],[6,-24],[77,-58],[57,-70],[29,-10],[33,4],[80,-52],[27,-29],[25,-6],[89,3],[130,26],[35,21],[76,15],[95,50],[34,13],[80,20],[69,2],[73,-34],[68,29],[127,15],[28,9]],[[9626,3814],[-416,-503],[-26,-39],[-229,-261],[-191,-223],[-755,-874],[-47,-54],[-26,-56],[20,-35],[2,-36],[-23,-50],[-46,-37],[-27,10],[-58,-13],[-43,3],[-79,-33],[-76,-23],[-43,20],[-104,-22],[-57,8],[-71,61],[-25,8],[-23,-7],[-64,-46],[-31,-13],[-34,-1],[-46,-64],[-39,-13],[-36,5],[-69,53],[-23,9],[-60,-35],[-12,0],[-55,32],[-73,28],[-36,28],[-41,9],[-89,-55],[-46,-76],[-16,-18],[-6,-30],[-20,-25],[-28,-10],[-16,-19],[-37,-23],[-34,-1],[-64,22],[-38,-41],[-57,-19]],[[4916,9021],[30,-18],[26,19],[0,51],[30,25],[1,17]],[[5003,9115],[32,49],[41,44],[125,-2],[74,-11],[42,6],[98,-16],[46,3],[66,38],[17,44],[37,46]],[[5581,9316],[490,-435],[191,-180]],[[6262,8701],[-25,-77],[-30,-59],[-32,-40],[-28,-50]],[[6147,8475],[-13,20],[1,33],[-19,18],[-53,-18],[-34,-4],[-45,17],[-94,-4],[-33,-16],[-78,13],[-43,-11],[-96,38],[-28,-2],[-14,-13]],[[3655,10226],[47,10],[40,27],[23,33],[63,39],[32,26],[155,91],[81,36],[76,25],[-2,17],[25,69],[10,12],[108,51],[76,60],[76,23],[165,100],[45,4],[43,69],[15,15],[109,81],[52,2],[11,14],[29,92],[20,34],[3,38],[-18,88],[5,16],[126,90],[30,-20],[18,-86],[9,-22],[73,-90],[70,-75],[7,-27],[84,-106],[41,-79],[26,-33]],[[5428,10850],[-76,-103],[-23,-37],[-50,-106],[-89,-249],[-24,-91],[-13,-111],[0,-88]],[[5153,10065],[-64,-35],[-94,-31],[-126,-88]],[[4869,9911],[-48,-71],[-27,-88],[-23,-24],[-63,-39],[-125,-57],[-30,-7],[-80,-3],[-130,-18],[-16,-6]],[[5511,10745],[35,-72],[5,-29]],[[5551,10644],[-93,-23],[-35,9],[-26,-12],[-51,-5],[-24,-37],[11,-35],[18,-23],[-26,-13]],[[5325,10505],[-18,45],[0,81],[24,50],[15,12],[106,27],[59,25]],[[5551,10644],[60,35],[37,8],[48,-4]],[[5696,10683],[-4,-88],[3,-17]],[[5695,10578],[-60,-42],[-54,-24],[-13,1],[-4,-48],[51,-128]],[[5615,10337],[-95,-66],[-31,-13],[-33,-2],[-72,11]],[[5384,10267],[5,63],[-64,175]],[[5696,10683],[7,51],[18,50],[-1,35],[-13,39]],[[5916,10866],[-135,-262]],[[5781,10604],[-41,-101]],[[5740,10503],[-45,75]],[[5740,10503],[-9,-42],[10,-41],[18,-25],[73,-78]],[[5832,10317],[-35,-32],[-30,15],[-54,-54],[-39,43],[-42,22],[-17,26]],[[5758,9894],[133,129],[-32,42]],[[5859,10065],[26,26],[-47,71],[64,63],[-30,49],[-40,43]],[[5832,10317],[27,32],[73,-81]],[[5932,10268],[26,-33],[-13,-13],[88,-115],[-24,-23],[47,-60]],[[6056,10024],[127,-161]],[[6183,9863],[-61,-68],[-15,-24],[2,-96],[-125,24],[-25,-1],[-68,-33],[-53,17],[-49,-4]],[[5789,9678],[-3,68],[-10,35],[3,63],[-21,50]],[[6775,6581],[-40,-15],[-85,1],[-70,-33],[-40,-9],[-34,2],[-95,26],[-41,7],[-166,12]],[[6204,6572],[-77,2],[-34,-9],[-100,-51],[-39,-14],[-37,-4]],[[5917,6496],[-10,83],[1,103]],[[5908,6682],[-1,63],[10,159],[4,103]],[[6145,10109],[51,49],[-37,54],[80,76]],[[6239,10288],[52,-70],[19,-40],[38,-11],[12,-14],[49,-1],[2,104],[46,-14],[30,0],[8,62],[-11,50],[69,16],[73,-40],[7,27],[-35,45],[-34,15],[-45,-1],[-3,25],[37,4],[-5,49],[-44,8],[7,23],[-15,13],[39,86],[-15,94]],[[6520,10718],[23,9],[33,46],[9,39],[-5,41],[15,28],[35,-3],[17,-29],[67,26]],[[6714,10875],[54,-26],[75,-29],[42,-12],[59,2],[81,-24],[26,-12],[87,-26],[94,6],[54,9],[129,-49]],[[7362,9839],[-38,-16],[-25,-41],[-39,-4],[-41,-106],[-22,-45],[-50,-84],[-42,-27],[-40,8],[-64,50],[-38,16],[-50,7],[-27,-5]],[[6886,9592],[-19,-12],[-61,-75],[-26,-13],[-37,-1],[-29,14],[-49,14],[-82,-12],[-42,-16]],[[6541,9491],[-38,108]],[[6503,9599],[-31,82],[26,56],[78,-32],[44,70],[14,32],[-106,37],[-11,-38],[-43,18],[-12,42],[-26,-8],[-31,-54],[-53,35],[43,60],[-69,93],[-54,-47],[-44,58],[26,25],[-50,67],[-30,-23],[-29,37]],[[5094,12298],[29,-34],[37,-29],[39,-15],[459,-66],[66,-19],[41,-31]],[[5765,12104],[35,-51],[15,-52],[2,-42],[-15,-71]],[[5802,11888],[-277,-845],[-43,-105]],[[5482,10938],[-54,-88]],[[5646,8522],[2,-16],[-23,-39],[-3,-25],[22,-19],[13,-57],[28,-25],[31,-11],[30,-29],[10,-39],[-3,-64],[-35,-102],[7,-20],[42,-57],[75,-19]],[[5327,7436],[-95,22],[-59,-1],[-102,-17]],[[5516,7010],[9,-86],[-7,-43],[-28,-46],[-14,-58],[79,-43],[19,-19],[49,-3],[38,-42],[43,3],[204,9]],[[7112,6253],[-88,-42],[-38,-12],[-37,-4]],[[6949,6195],[-34,4],[-42,16],[-56,38],[-64,21],[-56,-4],[-28,-12]],[[6669,6258],[-29,30],[-19,59],[-44,49],[-48,85],[-34,19],[-69,18],[-30,13],[-100,16]],[[6296,6547],[-77,12],[-15,13]],[[6183,9863],[89,-112],[33,-63],[17,-53],[20,-101]],[[6342,9534],[15,-72],[16,-111]],[[6373,9351],[11,-100],[0,-59],[-7,-80],[-19,-88],[-44,-151]],[[6314,8873],[-52,-172]],[[5581,9316],[-54,50],[-75,81],[-45,57]],[[5407,9504],[268,138],[114,36]],[[5802,11888],[21,-17],[26,-58],[20,-103],[44,-110],[87,-139],[25,-54],[15,-63]],[[6040,11344],[0,-67]],[[5688,10904],[-44,-3],[-48,19],[-20,19],[-24,-17],[-33,14],[-37,2]],[[5428,10850],[83,-105]],[[5384,10267],[-38,-4],[-32,-18],[-78,-67],[-21,-24],[-34,-57],[-28,-32]],[[6344,10630],[22,20],[35,50],[30,15],[89,3]],[[6239,10288],[-27,37],[113,106],[28,-36],[30,28],[34,6],[-2,23],[25,42],[-22,15],[-40,-33],[-21,54],[-20,25],[9,25],[-2,50]],[[6503,9599],[-161,-65]],[[6056,10024],[89,85]],[[6669,6258],[-25,-19],[-51,-62],[-89,-51],[-21,-7],[-130,-16],[-71,-2],[-86,13],[-58,25]],[[6138,6139],[60,75],[53,123],[9,30],[36,180]],[[6138,6139],[-44,-52]],[[6373,9351],[21,-7],[30,-41],[51,39],[19,19],[47,27],[-9,45],[23,13],[-14,45]],[[6886,9592],[-3,-98],[-115,-158],[-42,-65],[-36,-45],[-97,-135],[-99,-145],[-148,-71],[-32,-2]],[[5962,8133],[52,59],[32,52],[108,226],[-7,5]],[[5707,10858],[-166,-85],[-30,-28]],[[4931,9675],[43,-12],[50,-47],[22,-51],[12,-107]],[[5058,9458],[-29,-75],[-12,-6],[-54,-58]],[[4963,9319],[-29,17],[-6,32],[-57,74],[-26,6],[-27,45],[-38,43],[45,32],[61,64],[23,30],[22,13]],[[4937,9819],[37,-57],[18,-19],[71,-113],[13,-2],[45,-94],[-21,-31],[-42,-45]],[[4931,9675],[7,93],[-1,51]],[[5859,10065],[-35,37],[-40,18],[-29,-20],[-53,-54],[-19,-13],[-29,2],[-43,-17],[30,-73],[40,-119],[77,68]],[[5407,9504],[-47,67],[-101,158],[-26,46],[-41,97],[-22,78],[-17,115]],[[5003,9115],[-23,41],[-31,98],[-5,28],[19,37]],[[4937,9819],[-23,52],[-45,40]],[[6040,11344],[38,16],[118,110],[19,27],[14,45],[63,92],[118,-173],[40,-37],[22,-38],[47,-29],[19,-27],[13,-61],[29,-58],[10,-41],[14,-23],[44,-46],[39,-62],[60,-8],[47,-26],[0,-19],[-51,-45],[-31,-41],[2,-25]],[[6344,10630],[-156,-109]],[[6188,10521],[-21,42],[-54,70],[-57,101],[-47,64],[-63,49],[-30,19]],[[5979,5951],[-94,-112],[-123,-159],[-23,-37],[-52,-124]],[[5687,5519],[-19,-78],[-7,-48]],[[11095,12504],[142,-225],[624,-977],[179,-288],[52,-73]],[[12092,10941],[-45,-35],[-57,-64],[-47,-68],[-45,-44],[-65,-34],[-446,-138],[-67,-26],[-52,-35],[-37,-34],[-52,-70],[-89,-146],[-48,-67],[-33,-33],[-41,-32],[-62,-35],[-54,-18],[-72,-11],[-57,-16],[-39,-22],[-47,-46],[-28,-50],[-80,-197],[-20,-64],[-14,-66],[-8,-165],[-18,-66],[-25,-50],[-56,-59],[-66,-53],[-13,-29],[-22,-89],[-16,-42],[-8,-64],[-18,-37],[-12,-82],[-29,-52]],[[10204,8802],[-22,-32],[-41,-41],[-349,-331],[-64,-46],[-35,-16],[-180,-70],[-45,-24],[-34,-29],[-48,-68],[-94,-206],[-37,-60],[-59,-65],[-80,-53],[-245,-121],[-80,-53],[-55,-59],[-49,-80],[-79,-210]],[[8608,7238],[63,12],[55,-26],[7,-44],[19,-12],[64,-10],[44,5],[34,-6],[14,-11],[8,-33],[17,-19],[35,-12],[44,0],[33,15],[-4,-37],[-35,-41],[-79,-68],[-33,-49],[-91,-171],[-97,-125],[-33,-32],[-25,-14],[-108,-36],[14,-16],[17,-42],[105,1],[33,-20],[38,-11],[52,-28],[20,1],[37,25],[24,-3],[63,-29]],[[8943,6402],[117,-70],[15,-28],[3,-42],[13,-50],[23,-31],[7,-27],[-9,-60],[-18,-50],[1,-33],[15,-22],[68,-61],[23,-6],[49,14],[29,1],[31,-31],[-8,-131],[-37,-66],[-6,-51],[-22,-86],[28,-29],[46,-21],[39,-43],[4,-23],[-13,-37],[-24,1],[-61,-26],[-18,-14],[-49,-65],[-35,-24],[-27,-1],[-33,17],[-44,38],[-9,40],[17,23],[-14,26]],[[9044,5434],[-22,9],[5,41],[-17,24],[-57,23],[-52,-7],[-61,20],[-28,22],[-58,98],[-21,53],[-1,26],[-16,39],[-22,22],[-41,26],[-42,18],[-33,55],[-29,25],[-18,33],[-44,28],[-43,8],[-24,25],[-24,-15],[-93,-22],[-71,-43],[-41,-12],[-39,-20],[-63,-4],[-34,-19],[-15,-22],[-60,-15],[-76,-28],[-60,75],[-51,46],[-71,49],[-48,9],[-77,-22],[-27,-16],[-49,-16],[-139,-21],[-141,15],[18,29],[1,31],[-11,32],[-73,139],[-22,36],[-42,45]],[[10204,8802],[48,-14],[25,6],[45,44],[51,43],[80,3],[27,15],[25,32],[31,125],[24,19],[79,12],[51,-16],[43,-29],[39,-46],[28,-22],[68,-26],[43,-5],[74,15],[41,16],[44,-5]],[[11070,8969],[-11,-38],[-31,-56],[-13,-52],[16,-34],[1,-33],[19,-42],[-7,-46],[5,-33],[17,-28],[25,-18],[28,-35],[8,-45],[-16,-36],[25,-60],[-8,-47],[-41,-26],[-73,-24],[-64,-58],[-15,-34],[-24,-36],[10,-29],[39,-21],[5,-40],[30,-38],[36,-15],[30,1],[43,-38],[46,-67],[34,-90],[2,-43],[-7,-81],[-19,-75],[-23,-53],[12,-80],[-32,-42],[-45,-6],[-60,-32],[-52,-11],[-22,10],[-34,94],[-12,10],[-49,-12],[-44,-29],[-44,-37],[-34,-74],[37,-53],[5,-23],[-10,-32],[-5,-53],[-58,-43],[-34,-8],[-15,-30],[7,-35],[-20,-26],[-36,-25],[-34,-40],[-58,-2],[-12,25],[-27,17],[-70,-6],[-76,-38],[-38,-46],[-6,-46],[87,-21],[15,-12],[20,-39]],[[10393,6854],[-1115,-339],[-99,-39],[-106,-32],[-104,-39],[-26,-3]],[[11070,8969],[5,38],[36,177],[38,103],[9,143],[-8,100],[23,39],[40,47],[9,42],[-12,35],[4,44],[35,38],[7,23],[-13,21],[40,78],[34,31],[32,-6],[35,-39],[33,-20],[30,-32],[28,-17],[69,-11],[66,4],[51,-11],[60,1],[37,-33],[26,-60],[42,-8],[33,10],[41,32],[32,38],[36,61],[33,82],[4,24],[-9,90],[-10,62],[92,48],[146,81],[93,55],[148,93]],[[12465,10372],[18,-21],[61,-14],[-1,-33],[-43,11],[14,-209],[88,-878],[117,-1186],[49,-492]],[[12768,7550],[-317,-70],[-243,-72],[-474,-139],[-78,-24],[-432,-138],[-74,-22],[-238,-63],[-519,-168]],[[5765,12104],[17,13],[4,25],[28,11],[38,-11],[100,8],[34,-11],[92,27],[20,0],[58,-18],[16,2],[166,45],[40,5],[30,-7],[82,-38],[33,-21],[57,47],[1,47],[37,44],[64,2],[65,12],[35,-14],[30,24],[103,14],[82,21],[42,-1],[64,35],[37,-10],[25,34],[31,23],[-6,44],[-20,57],[3,50],[-8,68],[17,41],[32,9],[4,28],[-21,52],[22,0],[68,-90],[56,-32],[40,-6],[69,-23],[21,-22],[21,-49],[43,-51],[34,-12],[26,3],[16,-13],[-10,-29],[10,-29],[27,-36],[4,-25],[63,-50],[30,-49],[57,-37],[32,-69],[39,-40],[48,-90],[8,-41],[21,-56],[33,-15],[11,-59],[14,-15],[7,-47],[20,-36],[18,-64],[30,-51],[39,-41],[5,-37],[-27,-59],[2,-15]],[[12092,10941],[52,-77],[17,-160],[11,-43],[144,-104],[89,-62],[6,-40],[-9,-29],[28,-7],[35,-47]],[[4022,12465],[122,120],[59,71],[55,47],[110,114],[143,123],[45,28],[73,57],[79,70],[115,82],[97,91],[63,55],[55,62],[79,83],[109,100],[107,84],[35,36],[75,54],[158,98],[38,26],[28,29],[119,102],[144,100],[120,36],[166,61],[105,32],[43,19],[116,60],[126,70],[90,56],[36,16],[28,23],[19,32],[42,22],[53,40],[132,88],[90,44],[22,7],[133,76],[121,59],[81,48],[145,92],[183,110],[203,151],[89,73],[62,59],[59,65],[128,172],[73,106],[45,59],[126,121],[445,-377],[132,-72],[595,-336],[417,-233],[256,-102],[106,-1347],[7,-12]],[[6349,5771],[122,60],[64,23],[46,6],[185,5],[72,7],[62,15],[36,14],[5,80],[-6,148],[14,66]],[[9044,5434],[-93,14],[-17,-5],[-18,-32],[1,-26],[15,-25],[-22,-19],[-53,14],[-42,-10],[-71,-7],[-35,-22],[-6,-60],[-38,-8],[-33,-114],[-26,-11],[-79,31],[-22,30]],[[6991,5336],[-51,50],[-33,0],[-108,-43],[-78,-11],[-101,28],[-18,9],[-105,116],[-35,67],[-15,58],[-31,75],[-28,44],[-39,42]],[[12768,7550],[123,-1235],[8,-94],[-5,-327],[-8,-481],[-570,-295],[-546,-287],[-178,-66],[-179,-58],[-137,-57],[-430,-184],[-69,-33],[-434,-189],[-233,-103],[-98,-39],[-234,-107],[-26,-34],[-126,-147]],[[5687,5519],[144,18],[85,25],[55,24],[378,185]],[[5781,10604],[92,-29],[-20,-81],[41,1],[3,-22],[48,-50],[94,10],[43,-45]],[[6082,10388],[-83,-70],[-67,-50]],[[6188,10521],[-48,-37],[-58,-96]],[[6349,5771],[-57,64],[-77,121],[-50,57],[-71,74]]],"transform":{"scale":[0.000033966741607876386,0.00002437120926135674],"translate":[-80.61581,36.981477]},"objects":{"Geometry\\51-121":{"type":"GeometryCollection","geometries":[{"arcs":[[[0]],[[1,2,3,4]]],"type":"MultiPolygon","properties":{"GEOID":"511210215013"}},{"arcs":[[-4,5,6,7,8]],"type":"Polygon","properties":{"GEOID":"511210215011"}},{"arcs":[[-8,9,10]],"type":"Polygon","properties":{"GEOID":"511210215012"}},{"arcs":[[11,12,13,14,15,16,17,18,19]],"type":"Polygon","properties":{"GEOID":"511210208011"}},{"arcs":[[20,21,22,23]],"type":"Polygon","properties":{"GEOID":"511210212021"}},{"arcs":[[24,25,26,27,28,-14,29]],"type":"Polygon","properties":{"GEOID":"511210213003"}},{"arcs":[[30,31,32,33]],"type":"Polygon","properties":{"GEOID":"511210204021"}},{"arcs":[[34,-19,35,36,37]],"type":"Polygon","properties":{"GEOID":"511210211023"}},{"arcs":[[38,39,40,41]],"type":"Polygon","properties":{"GEOID":"511210212012"}},{"arcs":[[-7,42,43,44,45,-10]],"type":"Polygon","properties":{"GEOID":"511210215021"}},{"arcs":[[46,47,48,49,50,-3]],"type":"Polygon","properties":{"GEOID":"511210211012"}},{"arcs":[[51,-24,-47,-2,52]],"type":"Polygon","properties":{"GEOID":"511210212022"}},{"arcs":[[53,-41,54,55,56,57,58,59,-21,-52]],"type":"Polygon","properties":{"GEOID":"511210212011"}},{"arcs":[[60,61,62,63,-45]],"type":"Polygon","properties":{"GEOID":"511210215022"}},{"arcs":[[64,65,66,67,68,-58]],"type":"Polygon","properties":{"GEOID":"511210202022"}},{"arcs":[[69,70,71,72,-56]],"type":"Polygon","properties":{"GEOID":"511210203022"}},{"arcs":[[73,74,75]],"type":"Polygon","properties":{"GEOID":"511210203012"}},{"arcs":[[76,77,78,79,80,-75]],"type":"Polygon","properties":{"GEOID":"511210203013"}},{"arcs":[[81,-32,82,83,84,-78]],"type":"Polygon","properties":{"GEOID":"511210204012"}},{"arcs":[[-85,85,86,-79]],"type":"Polygon","properties":{"GEOID":"511210203014"}},{"arcs":[[87,88,89,90,91,92,93]],"type":"Polygon","properties":{"GEOID":"511210207011"}},{"arcs":[[-18,94,95,96,97,-36]],"type":"Polygon","properties":{"GEOID":"511210208013"}},{"arcs":[[98,99,100,101,-25,102,103,104,105]],"type":"Polygon","properties":{"GEOID":"511210206004"}},{"arcs":[[106,107,108,109,-70,-55,-40]],"type":"Polygon","properties":{"GEOID":"511210203021"}},{"arcs":[[-60,110,-20,-35,111,-22]],"type":"Polygon","properties":{"GEOID":"511210211021"}},{"arcs":[[-112,-38,112,-97,-48,-23]],"type":"Polygon","properties":{"GEOID":"511210211011"}},{"arcs":[[-95,-17,113,114,115,116]],"type":"Polygon","properties":{"GEOID":"511210208012"}},{"arcs":[[-93,117,118,119,120,-67,121,122]],"type":"Polygon","properties":{"GEOID":"511210207012"}},{"arcs":[[123,124,-34,125,-109]],"type":"Polygon","properties":{"GEOID":"511210204023"}},{"arcs":[[126,-76,-81,127,-71]],"type":"Polygon","properties":{"GEOID":"511210203011"}},{"arcs":[[128,-100,129]],"type":"Polygon","properties":{"GEOID":"511210206003"}},{"arcs":[[-106,130,-118,-92,131]],"type":"Polygon","properties":{"GEOID":"511210206001"}},{"arcs":[[-116,132,133]],"type":"Polygon","properties":{"GEOID":"511210208022"}},{"arcs":[[-117,-134,134,-49,-96]],"type":"Polygon","properties":{"GEOID":"511210208021"}},{"arcs":[[-120,135,-104,136]],"type":"Polygon","properties":{"GEOID":"511210207021"}},{"arcs":[[137,-68,-121,-137,-103,-30,-13]],"type":"Polygon","properties":{"GEOID":"511210207022"}},{"arcs":[[-131,-105,-136,-119]],"type":"Polygon","properties":{"GEOID":"511210207023"}},{"arcs":[[-126,-33,138,-127,-110]],"type":"Polygon","properties":{"GEOID":"511210204022"}},{"arcs":[[-139,-82,-77,-74]],"type":"Polygon","properties":{"GEOID":"511210204011"}},{"arcs":[[-37,-98,-113]],"type":"Polygon","properties":{"GEOID":"511210211022"}},{"arcs":[[139,140,141]],"type":"Polygon","properties":{"GEOID":"511210202012"}},{"arcs":[[142,-140,143]],"type":"Polygon","properties":{"GEOID":"511210202011"}},{"arcs":[[-128,-80,-87,-89,144,-94,-123,145]],"type":"Polygon","properties":{"GEOID":"511210201001"}},{"arcs":[[-72,-146,-122,-66,146,-141,-143,147]],"type":"Polygon","properties":{"GEOID":"511210202013"}},{"arcs":[[-125,148,-101,-129,149,150,-31]],"type":"Polygon","properties":{"GEOID":"511210205003"}},{"arcs":[[-88,-145]],"type":"Polygon","properties":{"GEOID":"511210201002"}},{"arcs":[[-51,151,152,-43,-6]],"type":"Polygon","properties":{"GEOID":"511210210001"}},{"arcs":[[-73,-148,-144,-142,-147,-65,-57]],"type":"Polygon","properties":{"GEOID":"511210202014"}},{"arcs":[[-29,153,154,155,-15]],"type":"Polygon","properties":{"GEOID":"511210213001"}},{"arcs":[[-16,156,157,158]],"type":"Polygon","properties":{"GEOID":"511210209003"}},{"arcs":[[-156,159,160,161,-157]],"type":"Polygon","properties":{"GEOID":"511210214003"}},{"arcs":[[162,163,164,-161]],"type":"Polygon","properties":{"GEOID":"511210214002"}},{"arcs":[[-26,-102,-149,-124,-108,165]],"type":"Polygon","properties":{"GEOID":"511210205004"}},{"arcs":[[-155,166,-163,-160]],"type":"Polygon","properties":{"GEOID":"511210214001"}},{"arcs":[[-27,-166,-107,-39,167]],"type":"Polygon","properties":{"GEOID":"511210213002"}},{"arcs":[[168,-114,-159,169,-62,170]],"type":"Polygon","properties":{"GEOID":"511210209002"}},{"arcs":[[-170,-158,-162,-165,171,-63]],"type":"Polygon","properties":{"GEOID":"511210214004"}},{"arcs":[[-153,172,-171,-61,-44]],"type":"Polygon","properties":{"GEOID":"511210210002"}},{"arcs":[[-84,173,174,-90,-86]],"type":"Polygon","properties":{"GEOID":"511210205001"}},{"arcs":[[-151,175,-174,-83]],"type":"Polygon","properties":{"GEOID":"511210205002"}},{"arcs":[[-176,-150,-130,-99,-132,-91,-175]],"type":"Polygon","properties":{"GEOID":"511210206002"}},{"arcs":[[-135,-133,-115,-169,176]],"type":"Polygon","properties":{"GEOID":"511210209001"}},{"arcs":[[-50,-177,-173,-152]],"type":"Polygon","properties":{"GEOID":"511210210003"}},{"arcs":[[-138,-12,-111,-59,-69]],"type":"Polygon","properties":{"GEOID":"511210202021"}}]}}}