{"type":"Topology","arcs":[[[13500,17624],[32,-5],[37,18],[70,50],[48,26],[58,-2],[66,-44],[51,-62],[43,-45],[47,-26],[34,-51],[6,-40],[30,-94],[13,-67],[-2,-26],[-20,-32],[-2,-49],[5,-19],[27,-14],[72,-6],[19,-6],[45,-42],[12,-32],[0,-74],[30,-29],[43,-15],[35,-19],[24,-33],[21,-57],[11,-71],[-11,-99],[-14,-48],[-2,-50],[-14,-26],[-25,-12],[-93,-30],[-64,-48],[-21,-39],[-34,-10],[-149,-8],[-22,-7],[-29,-25],[-35,-54],[-40,-39],[-23,-41],[-12,-46],[-15,-31],[-86,-124],[-10,-26],[-5,-74],[-23,-77],[-34,-127],[-54,-7],[-20,11],[-57,71],[-12,5],[-60,-21],[-120,-80],[-18,-26],[-18,-44],[1,-71],[-10,-36],[23,-56],[28,-42],[21,-49],[104,-70],[14,-14],[22,-58],[39,-34],[46,-47],[124,-56],[88,-27],[57,-5],[42,6],[42,-15],[33,-18],[105,-73],[1,-39],[-17,-30],[-9,-34],[17,-51],[-36,-100],[-95,-107],[-12,-66],[8,-38],[2,-50],[17,-140],[25,-41],[345,-61],[-16,-44],[-38,-46],[-11,-37],[5,-72],[51,-119]],[[14251,13886],[3,-60],[-8,-16],[-144,-78],[-31,-44],[-11,-41],[2,-105],[17,-45],[-6,-65],[-2,-115],[-30,-80],[2,-21],[51,-91],[4,-24],[-19,-63],[-44,-35],[-72,-39],[-27,-9]],[[13936,12955],[-36,83],[-48,82],[1,24],[-31,76],[-1,17],[-30,19],[-19,-1],[-75,19],[-71,27],[-80,13],[-21,12],[-34,36],[-30,-2],[-28,-24],[-50,-12],[-86,-4],[-35,14],[-46,44],[-7,14],[-36,24],[-21,33],[6,50],[-19,18],[11,43],[-22,29],[-65,15],[-40,71],[-41,40],[-49,11],[-4,17],[12,36],[-20,15],[-50,7],[-6,56],[48,9],[23,31],[32,59],[20,62],[41,33],[62,23],[27,24],[-5,15],[-63,55],[-20,13],[-43,11]],[[12987,14192],[-57,35],[-48,22],[-35,2],[-40,-34],[-36,1],[-12,-42],[-91,10],[-40,-8],[-18,3],[-29,29],[-42,15],[-39,39],[-67,-5],[-39,-17],[-23,4],[-13,26],[11,26],[2,77],[-26,85],[-16,10],[-44,-29],[-37,-1],[-1,24],[-15,36],[-5,71],[-26,37],[-26,5],[-35,-15],[-17,43],[-11,81],[-36,7],[-21,-15],[-3,-22],[15,-22],[-33,-10],[-46,4],[-19,-31],[9,-19],[-9,-30],[-19,-14],[-30,6],[-33,26],[-17,79],[-15,30],[19,51],[9,52],[-7,24],[-47,57],[-47,43],[-58,101],[-14,10],[-46,69],[-43,0],[-44,-32]],[[11577,15086],[17,68],[36,-7],[18,11],[11,41],[23,12],[46,6],[37,12],[60,43],[80,43],[35,32],[81,106],[20,46],[-9,67],[-21,38],[-34,28],[-70,38],[-22,26],[-58,138],[-21,35],[-43,34],[-56,18],[-72,33],[-10,16],[-66,18],[-24,17],[-44,63],[-41,32],[6,95],[-2,34],[14,33],[9,49],[29,38],[-75,128],[-7,27],[-9,126],[-19,80],[-21,45],[-56,77],[-38,44],[-12,55],[-27,73],[4,43]],[[11246,17047],[12,25],[5,47],[-14,47],[-51,56],[-47,44]],[[11151,17266],[55,20],[50,7],[40,-14],[38,0],[26,9],[64,39],[67,24],[28,-26],[56,20],[49,-1],[4,29],[-13,30],[12,23],[23,16],[52,26],[24,38],[37,23],[24,-1],[59,-27],[63,-23],[114,-16],[82,11],[79,23],[44,5],[55,-10],[101,-27],[54,3],[79,20],[58,-11],[42,-2],[61,8],[51,-16],[42,-7],[45,2],[41,-15],[35,-4],[27,6],[18,-8],[65,67],[87,73],[39,21],[80,30],[40,22],[44,30],[67,21],[42,18],[26,-39],[73,-59]],[[5887,10325],[-32,155],[-16,29],[-33,40],[-10,33],[-15,145],[-7,46],[13,24],[29,17],[43,6],[52,21],[69,39],[63,31],[32,24],[23,36],[62,157],[38,38],[68,31],[113,76],[35,38],[40,74],[12,43],[-6,33],[-25,71],[-4,39],[8,101]],[[6439,11672],[48,-11],[64,11],[182,22],[13,-1],[94,-29],[55,-35],[74,-41],[15,-4],[-22,-95],[-14,-35],[-11,-50],[3,-46],[9,-22],[32,-42],[22,-63],[33,-36],[34,-13],[42,-7],[62,1],[56,-12],[22,-13],[55,-57],[14,-35],[7,-50],[33,-81],[49,-57],[-28,-37],[9,-18],[-18,-44],[50,-18],[44,36],[52,2],[29,-14],[13,9],[20,-29],[12,-67],[21,-31],[0,-47],[-21,-41],[-17,-62],[15,-98],[31,-20],[9,-30],[39,-56],[88,-56],[-2,-15],[-39,-67],[-21,-63],[3,-80],[-12,-22],[30,-52],[7,-26],[-11,-19],[24,-22],[11,-24],[1,-40],[11,-18],[7,-82],[-1,-51],[31,-26],[39,9],[23,-5],[29,-47],[-6,-26],[-22,12],[-29,0],[-27,-18],[-20,-27],[-40,-10],[-19,-36],[25,-7],[36,-38],[10,-47],[12,-14],[-22,-80],[7,-36],[15,-35],[47,-77],[103,-45],[3,-43],[23,-28],[21,-6],[-15,-42],[-5,-34],[14,-70],[-2,-27],[52,-40],[5,-9],[-8,-52],[30,-34],[42,-21],[15,-25],[74,-68],[4,-97],[149,-212],[44,-59]],[[8404,8249],[-64,2],[-72,-11],[-44,-3],[-33,10],[-55,40],[-61,16],[-34,3],[-36,15],[-56,10],[-31,-8],[-31,14],[-54,12],[-40,-3],[-43,-39],[-34,-8],[-63,7],[-62,-5],[-45,5],[-71,-5],[-28,15],[-56,14],[-37,48],[-38,6],[-40,-21],[-74,2],[-49,-13],[-60,-29],[-101,19],[-46,1],[-23,-30],[-56,-19],[-64,-54],[-46,-32],[-40,-39],[-109,-83],[-30,-17],[-74,-24],[-61,-1],[-37,-36],[-33,-20],[-39,-7],[-48,0],[-33,7],[-12,-27],[-3,-32],[-45,-102],[10,-37],[-22,-94],[-29,-25],[-11,-32],[-47,-44],[-10,-18],[0,-52],[-12,-58],[11,-47],[-4,-52],[57,-70],[13,-30],[-21,-54],[0,-26],[-35,-27],[-4,-39],[15,-26],[0,-89],[-25,-37],[-9,-33],[-13,-12],[-20,-56],[-8,-59]],[[6029,6810],[-91,38],[-43,11],[-120,13],[-37,0]],[[5738,6872],[-4,75],[4,130],[4,26],[46,184],[54,177],[0,23],[-21,72],[6,33],[26,54],[11,39],[-2,29],[-57,134],[-18,92],[0,147],[19,197],[7,39],[61,66],[45,164],[2,56],[-8,45],[-25,58],[-25,78],[-8,119],[13,188],[8,267],[-7,106],[-21,136],[-22,79],[2,46],[83,161],[55,78],[16,32],[2,29],[-15,121],[-17,44],[-46,79],[-19,50]],[[818,3911],[276,-135],[89,-48],[153,-101],[87,-62],[65,-51],[353,-280],[28,-18],[58,-24],[274,-70],[128,-34],[200,-50],[379,-63],[63,-5],[274,-7]],[[3245,2963],[-5,-12],[-53,-32],[-54,-26],[-11,-127],[3,-56],[28,-94],[9,-45],[1,-41],[13,-67],[12,-116],[10,-60],[1,-69],[-7,-65],[-2,-99],[-11,-94],[10,-82],[-4,-45],[-4,-177],[1,-214],[6,-60],[68,-129],[4,-50],[17,-29],[95,-81],[64,-27],[50,-56],[70,-41],[46,-59],[16,-29],[12,-57],[-3,-60],[28,-61],[24,-85],[23,-48],[31,-46],[10,-44],[-40,-6],[-157,-4],[-77,-14],[-166,-74],[-38,-19],[-114,-69],[-111,-84],[-55,-38],[-218,-145]],[[2767,27],[-535,3],[-169,0],[-215,2],[-60,-1],[-245,2],[-865,3],[-678,4],[254,1199],[212,1004],[6,32],[159,749],[118,564],[69,323]],[[11339,20770],[33,10],[81,37],[157,30],[73,24],[85,42],[147,69],[58,40],[50,48],[14,38],[-3,44],[-13,13],[-74,36],[-38,27],[-13,38],[13,44],[19,26],[42,33],[49,24],[61,10],[29,-4],[39,-30],[26,-47],[7,-43],[-6,-54],[3,-38],[14,-37],[51,-75],[42,-70],[32,-28],[34,-15],[36,-5],[65,-21],[60,-40],[114,-69],[70,-53],[90,-61],[41,-37],[60,-43],[149,-86],[85,-60],[67,-59],[40,-66],[24,-29],[67,-57],[37,-16],[85,-21],[71,-7]],[[13512,20232],[-26,-34],[-32,-18],[-72,-6],[-35,-9],[-50,-23],[-50,-45],[-92,-151],[-68,-107],[-23,-27],[-32,-23],[-90,-43],[-119,-44],[-186,-84],[-26,-16],[-282,-218],[-52,-31],[-12,-33],[-38,-46],[-10,-51],[45,-50],[3,-37],[14,-37],[77,-40],[77,-27],[53,-14],[71,-7],[23,-9],[47,-40],[55,-72],[17,-32],[43,-35],[59,-78],[32,-87],[14,-5],[79,18],[28,-7],[36,-53],[14,-10],[107,-40],[134,-75],[79,-32],[135,-19],[56,9],[32,19]],[[13547,18463],[-3,-27],[-8,-171],[3,-68],[11,-78],[21,-107],[-1,-47],[-27,-77],[-1,-32],[10,-82],[-8,-54],[-44,-96]],[[11151,17266],[-26,39],[-19,90],[6,95],[0,50],[15,54],[57,72],[-10,66],[0,79],[-22,43],[-54,42],[-7,21],[5,86],[-11,68],[-21,54],[4,53],[-4,117],[-23,95],[4,29],[48,52],[60,27],[15,12],[34,71],[25,64],[71,126],[15,18],[56,35],[24,26],[61,139],[3,35],[-4,61],[7,49],[23,63],[17,92],[19,119],[15,77],[26,81],[-55,15],[-11,12],[5,50],[15,46],[1,22],[-16,54],[-22,46],[-10,49],[-10,106],[-17,49],[-56,84],[-29,32],[-48,69],[-66,54],[-18,25],[-9,43],[5,64],[7,22],[61,50],[15,31],[-1,19],[45,3],[20,-15],[6,-42],[14,-2],[25,55],[34,15],[-56,60],[-5,59],[-35,-5],[-10,34],[22,26],[1,37],[-23,37]],[[10887,3867],[14,37],[27,35],[-9,53],[53,45],[21,26],[3,40],[15,12],[3,67],[32,40],[11,89],[37,69],[47,22],[0,31],[25,69],[14,22],[-6,31],[0,74],[23,-3],[41,9],[36,20],[30,7],[69,4],[76,24]],[[11449,4690],[10,-69],[13,-27],[88,-56],[45,-5],[140,-61],[95,0],[13,-6],[31,-76],[13,17],[108,92],[32,44],[79,53],[62,35],[30,9],[209,3],[50,6],[67,16],[55,18],[33,26],[22,28],[10,38],[0,54],[9,47],[0,38],[14,34],[25,27]],[[12702,4975],[34,-35],[65,-77],[21,-19],[34,-19],[191,-75],[33,-36],[40,-93],[26,-46],[194,-179],[17,-22],[44,-94],[13,-85]],[[13414,4195],[5,-49],[-11,-42],[-56,-99],[-22,-22],[-46,-28],[-37,-33],[-21,-30],[-45,-50],[-89,-63],[-23,-12],[-79,-22],[-15,-9],[-146,-174],[-61,-92],[-15,-102],[-3,-127]],[[12750,3241],[-25,-30],[-42,-12],[-36,-24],[-37,-55],[-7,-28],[-34,-31],[-73,-88],[-16,-36],[-17,-16],[-45,-22],[-35,-9],[-56,-4],[-36,-9],[-38,-2],[-35,-15],[-75,-41],[-48,-15],[-7,16],[-62,11],[-38,-9],[-47,-59],[-57,-98],[-91,-84],[-35,-43],[-30,-70],[-37,-23],[-87,-17]],[[11604,2428],[-11,27],[-76,-5],[-142,18],[-6,-24],[-58,-5],[-51,-37],[-108,277],[-14,49]],[[11138,2728],[64,44],[33,31],[-20,44],[-23,3],[-12,17],[20,34],[42,38],[1,18],[-18,18],[-19,41],[-48,79],[-6,17],[2,53],[41,57],[14,52],[19,54],[20,31],[-1,42],[-25,84],[-16,19],[-47,32],[-25,-1],[-59,-33],[-18,3],[-12,31],[-22,9],[-57,-1],[-3,24],[31,43],[1,28],[-14,20],[-2,47],[-15,65],[-14,17],[-29,4],[-2,30],[-32,45]],[[13547,18463],[16,10],[80,23],[44,-8],[47,-18],[99,-1],[108,18],[35,10],[68,43],[90,8],[43,-6],[43,-27],[29,-10],[38,-1],[51,-20],[34,-8]],[[14372,18476],[76,-11],[31,4],[52,19],[55,28],[129,22],[40,12],[16,39],[27,40],[20,77],[72,140],[22,27],[61,56],[14,35],[-8,25],[-23,24],[33,28],[22,45],[25,172],[15,70],[-1,50],[-10,79],[0,87],[11,37],[53,59],[15,68],[6,55],[-9,36],[-34,85],[1,48],[61,78],[6,26],[-16,51],[-95,52],[-63,18],[-29,20],[-17,38],[-4,42],[9,38],[20,33],[56,58],[79,31],[37,38],[2,44],[-22,56],[9,23],[45,26],[12,23],[-8,32],[-43,63],[-35,85],[6,46],[17,17],[50,19]],[[15160,20889],[36,-116],[45,-101],[72,-90],[12,-28],[6,-41],[5,-82],[27,-167],[11,-55],[16,-44],[42,-69],[58,-51],[56,-26],[45,-9],[82,-3],[52,13],[69,38],[67,51],[17,25],[11,45],[1,85],[-11,48],[-37,123],[-3,66],[8,67],[13,44],[16,29],[48,52],[35,23],[61,20],[63,-1],[68,-33],[62,-67],[190,-188],[53,-90],[19,-57],[-2,-110],[4,-28],[48,-102],[18,-58],[-1,-46],[-16,-65],[-8,-69],[-25,-169],[6,-148],[-16,-46],[-22,-45],[-26,-79],[-22,-52],[-35,-64],[3,-64],[26,-80],[90,-216]],[[16497,18859],[-45,5],[-45,40],[-27,35],[-35,27],[-49,13],[-78,-19],[-67,-6],[-49,-16],[-24,-24],[-31,-5],[-19,-12],[-43,12],[-37,-18],[-9,-26],[16,-73],[-3,-55],[34,-66],[60,-23],[42,-31],[17,-39],[3,-46],[-6,-12],[-64,-60],[-40,-58],[-7,-26],[-4,-63],[-16,-82],[-39,-75],[-6,-40],[21,-119],[-23,-71],[-16,-117],[-39,-83],[-11,-44],[14,-51],[8,-83],[33,-65],[11,-52],[36,-87],[-3,-18],[-35,-63],[-42,-44],[-55,-31],[-44,-49],[-38,-72],[-8,-25],[-5,-99],[-14,-28],[-38,-30],[-63,-37],[46,-77],[87,-151],[51,-71],[44,-31],[42,-44],[33,-16],[66,-17],[46,-30],[15,-16],[71,-97],[22,-44],[10,-44],[-13,-61],[2,-31],[30,-129],[12,-29],[80,-74],[52,-65],[20,-18],[61,-26],[101,-34],[214,-131],[21,-135],[10,-226],[24,-143],[23,-120],[37,-231],[9,-94],[-12,-155],[-18,-121],[-27,-70],[5,-20]],[[16779,14297],[-426,-78],[-528,-80],[-6,-40],[-213,-270],[-33,-65],[-18,-13],[-69,-13],[-28,5],[-88,69],[-47,22],[-155,20],[-112,25],[-206,23],[-160,9],[-81,1],[-104,-8],[-73,-20],[-31,-1],[-150,3]],[[6624,12215],[87,-5],[66,10],[189,50],[31,11],[135,64],[40,21],[66,50],[21,21]],[[7259,12437],[74,14],[101,4],[80,-5],[53,16],[66,29],[39,1],[40,-13],[56,-27],[35,-9],[78,-1],[76,-7],[42,16],[13,13],[10,40],[27,33],[29,16],[39,2],[41,-11],[32,-2],[112,19],[53,1],[32,15],[40,35],[24,11],[48,6],[22,23],[15,46],[25,23],[40,2],[55,-15],[34,-32],[23,-12],[44,-9],[117,-14],[18,-45],[19,-16],[148,-94],[32,-11],[51,6],[32,13],[41,60],[56,62],[38,12],[88,-17],[94,-47],[62,-17],[158,11],[58,-11],[83,-5],[54,3],[116,-27],[33,-21]],[[10055,12501],[-134,-155],[-35,-56],[-11,-32],[-7,-47],[-27,-256],[-2,-40],[9,-58],[26,-62],[43,-56],[41,-35],[77,-56],[31,-42],[163,-328],[109,-223]],[[10338,11055],[-57,-24],[-39,-42],[-10,-53],[5,-44],[14,-29],[59,-82],[48,-95],[4,-29],[-10,-39],[-30,26],[-26,3],[-29,-10],[-30,10],[-40,1],[-21,33],[-25,14],[-9,38],[-13,11],[-111,-46],[-87,-16],[-64,28],[-43,-10],[-26,-19],[-14,-81],[2,-86],[6,-89],[22,-63],[29,-46],[66,-64],[-90,-99],[28,-35],[22,-11],[39,-4],[20,-30],[29,-11],[3,-34],[20,-59],[-2,-83],[-27,-25],[-7,-48],[33,-39],[-25,-54],[-38,-34],[-15,-26],[2,-75],[-23,-27],[9,-17],[31,-4],[19,-17],[25,-53],[30,-3],[35,-71],[4,-73],[-30,-73],[-70,-142],[-41,-93],[-15,-46],[-5,-50],[6,-64],[100,17],[94,8],[161,-5],[93,32],[8,-1]],[[10332,8903],[-7,-188],[4,-87],[9,-40],[14,-26],[39,-42]],[[10391,8520],[-36,-13],[-35,-55],[-5,-26],[6,-37],[-15,-11],[-47,1],[-70,-11],[-150,2],[-56,-16],[-96,2],[-58,-18],[-36,-6],[-82,6],[-24,7],[-38,-5],[-19,-23],[-10,-26],[-41,-53],[-36,-23],[-33,-28],[-98,-31],[-81,-10],[-61,6],[-37,-4],[-75,21],[-44,27],[-13,24],[-37,27],[-38,10],[-48,-18],[-54,-56],[-15,-37],[-59,-16],[-18,-18],[-31,-5],[-83,54],[-126,46],[-45,6],[-42,18],[-101,18]],[[6439,11672],[9,79],[27,48],[30,29],[70,45],[41,38],[49,75],[4,33],[-27,81],[-25,40],[-4,30],[11,45]],[[18353,10959],[-232,-1082],[-24,-111],[-93,-430],[-252,-1092],[-34,-158]],[[17718,8086],[-29,29],[-32,44],[-50,0],[-27,-29],[-69,-1],[9,-24],[-8,-34],[-28,-11],[21,-49],[-44,-10],[-39,-23],[-20,10],[-29,-15],[-38,8],[-40,-3],[-29,-13],[-33,9],[-38,54],[-23,7],[-7,23],[-38,5],[-26,-17],[-14,-23],[-33,-8],[3,-17],[-43,-24],[-31,5],[-51,-8],[-25,11],[-9,31],[-56,30],[-60,-7],[-36,-31],[-28,-6],[-39,4],[-33,-22],[-50,-6],[-36,24],[-19,-4],[-67,41],[-56,50],[4,17],[-21,23],[-36,11],[-18,29],[-1,40],[-12,52],[-17,25],[-20,9],[-26,-11],[-51,4],[-71,45],[-21,5],[-95,-8],[-12,-15],[-219,-42],[-63,30],[-23,-2],[-9,-15],[10,-26],[-23,-21],[-33,-3],[-60,6],[-96,-30],[-51,-11],[-34,-13],[-49,-30],[-41,-6],[-111,-34],[-56,-52],[-22,4],[-55,36],[-38,-9],[-36,-19],[-30,-8],[-48,0],[-31,39],[-42,14],[-20,-5],[-56,-41],[-27,-12],[-54,11],[-59,-11],[-2,-25],[-34,4],[-77,-27],[-18,2],[-45,-55],[-45,-29],[-21,-27],[-24,-11],[-12,-28],[-65,-57],[-60,-72],[-28,-22],[-25,-36],[0,-24],[-16,-36],[-43,-9],[-36,-25],[-23,-27]],[[14071,7558],[-23,21],[-37,67],[-21,22],[-40,29],[-38,40],[-46,82],[-30,31],[-30,15],[-86,7],[-44,-6],[-41,-20],[-100,175],[2,27],[14,36],[22,34],[9,49],[-6,38],[-27,43],[-23,87],[-13,94],[-5,61],[-16,46],[-28,29],[-40,19],[-105,69],[-47,47],[-17,47],[-11,11],[13,66],[23,42],[95,80],[20,37],[10,73],[50,191],[15,32],[29,20],[43,11],[-17,40],[-14,13],[-59,35],[-22,20],[-39,59],[-5,39],[-26,30],[-79,15],[-55,20],[-22,12],[-14,25],[7,67],[-26,55],[2,36],[18,101],[2,49],[-18,84],[-30,48],[-18,10],[-51,14],[-72,-5],[-31,26],[-40,148],[-24,53],[-49,0],[-49,-7],[-80,-28]],[[12731,10269],[-2,43],[27,31],[30,12],[103,31],[38,15],[36,-5],[53,-32],[52,-3],[43,-40],[35,-1],[115,48],[42,14],[29,51],[6,53],[-43,43],[-17,54],[12,20],[82,38],[110,1],[73,-11],[69,-25],[49,-2],[48,31],[47,74],[-4,24],[-44,50],[-12,25],[-32,35],[8,13],[68,42],[9,26],[133,129],[59,30],[115,13],[36,-4],[86,-3],[30,-12],[70,19],[35,-22],[38,4],[4,37],[65,15],[-14,42],[-43,13],[-17,25],[8,18],[-15,20],[-3,39],[-25,37],[1,30],[-22,29],[16,36],[74,62],[27,42],[35,15],[61,-9],[77,-45],[36,-15],[131,-35],[19,-33],[9,-29],[18,-7],[46,14],[38,-4],[52,-13],[24,2],[31,17],[10,29],[31,44],[64,35],[10,51],[-4,82],[-28,51],[-13,79],[18,98],[78,62],[39,40],[38,-3],[57,24],[186,5],[16,20],[16,63],[16,-4],[-21,-68],[-16,-33],[-10,-63],[9,-32],[50,-71],[51,-80],[31,-21],[102,-110],[27,-42],[54,-59],[97,-79],[89,-56],[108,-72],[79,-77],[15,-62],[-23,-41],[-47,-50],[70,-57],[47,-52],[105,-43],[88,-48],[48,-13],[96,-6],[42,-21],[29,-4],[235,4],[135,35],[72,14],[77,0],[19,-7],[50,-44],[18,-8],[94,-11],[43,9],[67,-12],[111,-11],[19,4],[86,35],[42,10],[116,-4],[26,4],[69,25],[74,22],[28,2],[7,41],[31,40],[31,9],[157,-27],[21,3],[26,21],[49,8]],[[6859,2798],[46,44],[11,38],[-23,89],[-2,20],[17,49],[20,34],[56,68],[20,29],[19,45],[103,125],[48,47],[97,86],[43,51]],[[7314,3523],[79,-71],[46,-18],[38,1],[119,43],[50,11],[75,-5],[58,-23],[51,-41],[59,-88],[19,-21],[87,-48],[37,-26],[25,-27],[43,-32],[34,-13]],[[8134,3165],[23,-13],[49,-50],[46,-16],[138,-9],[43,-6],[190,-77],[34,-22],[67,-61],[27,-17],[68,-28],[29,-21],[28,-34],[83,-14],[63,-7],[113,18],[83,-23],[60,-7]],[[9278,2778],[44,-4],[130,-22],[32,6],[42,28],[15,4],[64,-27],[24,3]],[[9629,2766],[0,-11],[-29,-29],[9,-24],[32,-34],[-17,-20],[25,-22],[17,-26],[-18,-18],[-11,-42],[-19,-45],[-17,-10],[-10,-31],[10,-16],[-24,-13],[-19,-47],[-89,-45],[-13,-46],[10,-30],[-18,-25],[-33,-24],[-5,-26],[12,-20],[-3,-22],[-210,-57],[-12,33],[-38,-11],[-21,6],[-56,45],[-51,99],[-103,88],[6,5],[-22,54],[-174,-59],[-29,59],[-1,40],[-26,15],[-36,1],[-20,-12],[-20,-32],[-3,-41],[-18,-4],[-20,16],[-25,119],[-36,13],[-25,24],[-45,18],[-67,-2],[-66,-21],[-80,41],[-24,15],[-77,19],[-7,-51],[-13,-7],[-68,40],[-22,33],[-16,38],[-43,0],[-7,-29],[-14,-15],[-22,0],[-43,20],[-60,6],[-60,-3],[-39,-11],[-56,30],[-41,41],[-38,3],[-66,-33],[-23,-3],[-68,23],[-36,-33],[-52,-81],[-15,7],[2,44],[-20,14],[-68,-12],[-25,26],[-30,-29],[-58,11],[-35,38],[-66,41],[-20,21],[-46,-15],[-22,7],[-14,25],[-26,16]],[[6883,2773],[-24,25]],[[10055,12501],[35,39],[41,-3],[103,38],[32,0],[39,-13],[42,-43],[16,-72],[29,-28]],[[10392,12419],[44,-14],[72,-7],[27,-14],[52,-101],[24,-28],[52,-46],[80,-38],[60,-19],[47,-24],[60,-21],[59,-13],[51,-3],[107,7],[95,0],[160,-5],[38,-14],[56,-37],[72,-51],[58,-35],[61,-19],[104,-21],[88,-10],[54,-17],[41,-40],[45,-32],[39,-19],[93,-52],[44,-31],[39,-48]],[[12214,11667],[13,-7],[55,-55],[139,-81],[79,-109],[35,-69],[36,-32],[50,-36],[37,-73],[22,-25],[156,-64],[49,-15],[28,-17],[22,-36],[37,-43],[6,-41],[3,-105],[14,-46],[17,-32],[6,-48],[-14,-73],[-56,-79],[-19,-32],[-30,-67],[-65,-52],[-54,-29],[-100,-75],[-44,-24],[-27,-30],[-20,-4],[-7,-19],[7,-29],[142,49]],[[12731,10269],[33,-41],[43,-76],[81,-71],[16,-28],[36,-107],[77,-111],[8,-27],[-35,-38],[-29,-6],[-43,17],[-21,23],[-34,60],[-16,15],[-41,22],[-51,4],[3,-24],[31,-49],[5,-24],[-23,-42],[-10,-35],[-16,-2],[-111,36],[-36,6],[-46,-7],[-7,-27],[38,-32],[-3,-51],[-47,-30],[-20,-38],[-34,-4],[-47,64],[-22,24],[-37,17],[-55,10],[-6,-29],[27,-47],[4,-59],[-22,-87],[-31,-24],[-59,4],[-141,106],[-17,5],[-32,-36],[-10,-23],[7,-28],[78,-86],[25,-14],[83,10],[46,-20],[22,-40],[-43,-43],[-11,-33],[-89,-9],[-19,-9],[-6,-20],[13,-28],[25,-31],[4,-19],[-17,-27],[-28,-27],[-31,-14],[-58,-15],[-84,-29],[-32,-28],[4,-42],[28,-33],[48,-45],[11,-20],[-12,-41],[-19,-14],[-44,7],[-34,23],[-91,86],[-46,24],[-27,-5],[12,-72],[-5,-22],[-27,-21],[-74,52],[-29,-9],[-25,-22],[-28,10],[-40,-8],[-58,-25],[15,-27],[-18,-19],[-37,-20],[-10,-33],[-25,-16],[-20,-37],[-37,-2],[-15,16],[-36,12],[-31,-14],[-14,12],[-2,56],[-24,22],[-11,29],[-29,4],[-21,-19],[-25,-41],[-39,-9],[-80,-95],[-90,-110],[-72,-118],[-58,-71],[-15,-4],[-56,7],[-54,13],[-19,31],[-33,19],[7,46],[-20,55],[1,28],[-17,45],[-49,13],[-14,-4],[-19,-31],[-29,-22],[-20,5],[-53,-21]],[[10332,8903],[15,458],[2,68],[34,-15],[29,18],[87,6],[25,10],[42,-6],[43,22],[75,9],[69,14],[57,18],[-61,18],[-56,-6],[-7,8],[13,58],[-17,30],[-44,35],[-7,25],[4,35],[-56,54],[81,89],[26,36],[19,36],[17,59],[40,414],[-2,75],[-10,37],[-31,62],[-22,29],[-289,345],[-25,33],[-45,78]],[[4089,10021],[72,67],[36,27],[42,19],[72,12],[167,-13],[103,-2],[79,3],[123,12],[64,10],[243,47],[349,66],[60,15],[89,28],[67,5],[90,-14],[43,-2],[55,10],[44,14]],[[5738,6872],[-69,-23],[-65,-52],[-26,-14],[-45,-4],[-33,12],[-181,126],[-63,29],[-61,6],[-69,-16],[-97,-47],[-59,-21],[-96,-25],[-75,-9],[-45,6],[-242,68],[-51,20],[-29,19],[-35,35],[-27,45]],[[4370,7027],[-106,195],[-32,46],[-55,65],[-69,110],[-16,34],[-5,46],[24,95],[5,40],[-3,52],[-15,61],[-66,211],[-13,61],[-4,71],[9,70],[60,284],[14,42],[25,44],[22,29],[82,90],[32,63],[22,91],[8,57],[-7,64],[-42,168],[-8,45],[-36,375],[-14,66],[-43,116],[-6,39],[7,125],[-2,43],[-10,33],[-39,63]],[[9931,6190],[44,30],[68,24],[52,29],[39,15],[92,16],[109,10],[85,23],[27,15],[103,86],[53,57],[27,15]],[[10630,6510],[27,-52],[76,-75],[31,-37],[102,-144],[116,33],[44,18],[39,48],[45,105],[29,51],[76,91],[161,144],[59,28],[44,36],[22,30],[20,-33],[42,-27],[36,-49],[-9,-46],[28,-65],[5,-27],[-15,-76],[4,-17],[25,-24]],[[11637,6422],[32,-17],[74,-112],[45,-60],[-14,-55],[-52,-74],[28,-79],[57,-72],[11,-51],[39,-48],[113,-72],[78,-19],[25,-34],[2,-63],[26,-32],[-29,-12],[28,-38],[100,-63],[34,-42],[54,-110],[30,-47],[48,-50],[32,-26],[106,-48],[56,-28],[24,-19],[40,-71],[38,-41],[13,-32],[27,-32]],[[11449,4690],[-11,73],[6,59],[-3,31],[6,43],[-1,132],[-13,38],[-46,63],[-114,119],[-45,58],[-43,16],[-50,-3],[-40,-23],[-209,-55],[-42,-5],[-26,24],[-29,-8],[-84,-52],[-58,-18],[-33,-1],[-58,13],[-99,-13],[-21,-8],[-46,-38],[-31,-12],[-144,-89],[-30,-28],[-31,17],[-21,-28],[-73,-24],[-49,-33]],[[10011,4938],[-8,30],[-26,23],[-116,41],[-17,36],[0,25],[-16,79],[3,63],[22,34],[-10,40],[10,55],[-4,21],[10,24],[-17,63],[2,23],[38,57],[34,41],[-3,49],[5,77],[-33,68],[-11,62],[12,48],[46,50],[26,39],[16,50],[19,31],[-2,32],[-16,56],[-44,35]],[[7231,1427],[64,59],[81,55],[84,17],[154,3],[51,-7],[45,-16],[162,-88],[118,-47],[78,-18],[248,-89],[-22,-101],[-44,-39],[-18,-141],[-102,-197],[-67,61],[-37,-33],[-90,-54],[-123,-83],[-44,-325],[160,-219],[-13,-85],[-37,-76],[-850,-1]],[[7029,3],[89,40],[24,18],[17,33],[1,61],[-8,54],[-5,125],[-9,25],[-55,103],[-29,87],[-36,119],[-19,84],[-6,46],[-3,85],[10,68],[23,94],[5,96],[9,62],[11,36],[40,61],[143,127]],[[10887,3867],[-37,18],[-26,42],[-39,39],[-69,36],[-51,33],[-77,14],[-21,-2],[-77,42],[-17,24],[-38,5],[-24,-10],[-40,9],[-36,52],[-26,53],[-66,116],[-15,58],[-44,33],[-38,13],[-24,34],[-21,70],[28,13],[14,24],[-21,36],[-3,19],[-26,19],[19,31],[50,31],[14,52],[-26,24],[-51,25],[-8,17],[-33,13],[-30,46],[-17,42]],[[16497,18859],[24,-60],[26,-49],[80,-94],[57,-59],[63,-123],[27,-32],[18,-10],[60,0],[54,29],[32,30],[36,55],[15,56],[26,141],[38,88],[44,82],[41,56],[21,21],[42,26],[52,13],[82,-15],[23,-20],[62,-69],[71,-35],[67,-14],[71,18],[41,20],[58,39],[64,66],[49,29],[104,25],[62,11],[98,27],[83,40],[35,12],[79,10],[88,20],[115,52],[36,32],[21,36],[22,67],[4,51],[11,62],[31,50],[68,63],[49,36],[69,29],[100,25],[99,-2],[31,-7],[88,-27],[41,-25],[58,-57],[6,-58],[35,-58],[21,-79],[31,-76],[10,-77],[27,-63],[13,-58],[57,-171],[22,-30],[22,-13],[55,-11],[91,1],[45,-17],[87,-63],[33,-13],[70,-10],[44,-11],[91,-51],[45,-42],[-70,-306],[-63,-286],[-197,-909],[-116,-525],[-52,-211],[-69,-406],[-13,-68],[-87,-405]],[[19371,15562],[-68,-39],[-540,-405],[-455,-343],[-77,-49],[-65,-32],[-599,-250],[-61,-20],[-727,-127]],[[2993,14131],[25,-27],[26,-51],[53,-58],[28,-23],[39,-16],[21,-2],[36,-25],[66,-81],[24,-16],[34,-8],[74,15],[38,33],[58,26],[146,38],[2,21],[-19,35],[-4,35],[30,31],[78,34],[35,9],[84,8],[41,-7],[32,-43],[11,-5],[14,-38],[26,-44],[51,-39],[62,-15],[36,11],[51,25],[74,1],[62,27],[32,9],[115,13],[40,-4],[66,-39],[80,-37],[14,-13],[24,-48],[40,-11],[28,-26],[37,-82],[28,-53],[11,-35],[3,-52],[16,-9],[87,-6],[19,2],[21,26],[-3,24],[-28,31],[-13,27],[-12,71],[0,33],[29,39],[44,15],[50,-2],[35,10],[63,33],[23,32],[-24,22],[-22,47],[31,40],[29,8],[26,-6],[39,-57],[79,-72],[91,4],[45,28],[54,17],[86,11],[38,-46],[10,-29],[-3,-29],[7,-54],[18,-68],[-15,-32],[1,-35],[-44,-21],[-45,-41],[-33,-21],[-18,-23],[-26,-12],[-36,-63],[-8,-57],[-24,-29],[-22,-12],[-31,-37],[54,-16],[33,11],[69,3],[43,9],[32,-10],[62,-48],[38,-25],[73,11],[137,-41],[114,-9],[30,-90],[97,-153],[45,-91],[2,-57],[13,-55],[10,-82],[-2,-23],[18,-54],[5,-57],[13,-46],[23,-34],[37,-32],[75,-83],[19,-29],[50,-57],[68,-55],[50,-30],[37,-5]],[[4089,10021],[-23,-17],[-41,-19],[-55,-12],[-53,-17],[-54,-29],[-83,-59],[-71,-60],[-59,-63],[-31,-41],[-86,-130],[-51,7],[-52,-6],[-58,10],[-70,27],[-75,44],[-79,54],[-26,25],[-19,32],[-36,24],[-105,31],[-51,23],[-64,11],[-58,-10],[-33,-39],[-125,-59],[-69,-37],[-79,-3],[-95,-29],[-59,-27],[-150,-74],[-39,-14],[-14,-28],[-57,-86],[-92,-121],[-16,-25]],[[1961,9304],[263,1243],[3,10],[161,754],[120,557],[27,125],[45,200],[69,324],[128,585],[123,595],[93,434]],[[19371,15562],[-28,-133],[-180,-767],[-170,-797],[-98,-441],[-169,-803],[-147,-643],[-63,-287],[-151,-674],[-12,-58]],[[12214,11667],[-1,53],[5,46],[14,25],[27,26],[141,93],[52,48],[14,22],[14,58],[21,52],[23,35],[28,31],[142,139],[27,25],[42,25],[59,21],[43,6],[371,19],[53,23],[6,31],[-22,38],[3,48],[23,25],[247,105],[26,16],[183,175],[77,26],[63,42],[15,25],[26,10]],[[14071,7558],[-20,-28],[-23,-46],[-22,-21],[-81,-39],[-73,-48],[-35,-41],[-38,-22],[-28,-7],[-45,1],[-63,-21],[-23,-15],[-19,-40],[-16,-15],[-42,-22],[-34,7],[-51,32],[-40,46],[-37,17],[-30,-2],[-37,-26],[-96,-25],[-30,-18],[-42,-6],[-69,-19],[-20,3],[-32,-14],[-18,-21],[-76,-42],[-98,-11],[-42,-18],[-22,0],[-40,-24],[-46,-16],[-37,-45],[-36,-7],[-52,-21],[-26,-32],[-21,-2],[-56,-27],[-103,-102],[-13,-35],[-16,-16],[-42,-18],[-7,-12],[-48,-21],[-19,-29],[-54,-25],[-31,-32],[-31,-55],[-35,-13],[-65,-6],[-67,-36],[-43,6],[-54,-6],[-15,-28],[-27,-13],[-29,-37],[-75,-19],[-44,-4]],[[10630,6510],[-8,70],[10,45],[107,328],[84,244],[15,47],[5,39],[-14,82],[-33,56],[-42,44],[-235,239],[-20,32],[-11,45],[-37,332],[-1,101],[14,163],[0,31],[-12,42],[-14,24],[-47,46]],[[5564,2343],[54,-15],[98,-17],[311,-19],[9,40],[37,35],[0,19],[-54,49],[-20,36],[5,27],[22,21],[15,33],[57,100],[13,14],[42,15],[40,25],[67,14],[66,-8],[49,8],[59,25],[19,-27],[30,-59],[55,-71],[92,93],[72,53],[41,9],[35,-1],[40,18],[41,38]],[[6883,2773],[-66,-55],[-54,-9],[-11,13],[-47,-28],[-91,-67],[6,-4],[-75,-74],[-9,-13],[-10,-155],[6,-56],[-33,-2],[-154,16],[2,-46],[-14,-23],[-29,-28],[-9,-46],[62,-42],[48,-24],[152,-94],[177,-107],[134,-45],[77,-13],[-59,-49],[-11,-20],[89,-16],[15,-35],[-3,-18],[61,-99],[22,-24],[2,-36],[43,-32],[33,-18],[23,-35],[1,-29],[15,-22],[55,-11]],[[7029,3],[-688,-1]],[[6341,2],[-16,120],[-2,117],[2,59],[1,227],[-21,57],[-39,41],[-44,28],[-63,13],[-81,-6],[-34,7],[-27,19],[-62,64],[-68,63],[-42,30],[-81,24],[-33,0],[-39,-8],[-45,-26],[-31,-32],[-37,-48],[-30,-55],[-39,-87],[-28,-42],[-40,2],[-42,-26],[-31,-2],[-29,14],[-77,-45],[-96,-98],[-73,-79],[-21,-16],[-42,-12],[-85,9],[-50,14],[45,84],[10,33],[20,33],[-27,66],[94,88],[67,114],[74,59],[25,33],[3,24],[26,66],[23,39],[69,69],[33,46],[-9,66],[4,24],[25,58],[8,33],[-3,111],[-21,55],[128,65],[68,52],[71,73],[32,50],[78,206],[-90,75],[-24,39],[-4,19],[6,73],[-16,85],[-6,84],[-9,34],[-34,45],[2,14]],[[12750,3241],[36,-55],[61,-160],[18,-63],[44,-63],[31,-34],[28,-39],[-11,-52],[-14,-32],[-28,-31],[-23,-41],[-41,-87],[-16,-54],[-3,-31],[3,-132],[22,-58],[24,-24],[58,-44],[59,-39],[53,-93],[61,-72],[22,-21],[32,-149],[16,-150],[-9,-230]],[[13173,1487],[-36,-10],[1,26],[-92,6],[1,-39],[-57,28],[-10,-16],[-154,3],[-3,19],[-38,-2],[-4,21],[-33,21],[-38,-15],[-27,-30],[1,-13],[-248,1],[-15,59],[15,56],[-22,45],[2,54],[-36,5],[-54,-2],[5,215],[14,138],[10,125],[-71,-11],[-401,-39],[-63,-9],[-53,-19],[-8,41],[-42,-14],[-13,-12],[-54,161],[-29,67],[-17,81]],[[9738,14831],[469,-5],[612,-7]],[[10819,14819],[40,-1],[43,-10],[12,13],[98,5],[92,35],[36,-193],[2,-19],[68,-46],[48,-14],[81,-12],[46,-18],[31,-1]],[[11416,14558],[18,-160],[-12,-64],[-35,-51],[-141,-133],[-76,-78],[-54,-70],[-225,-315],[-68,-102],[-23,-44],[-26,-70],[-10,-52],[-17,-222],[-8,-41],[-61,-180],[-26,-87],[-52,-115],[-170,-263],[-38,-92]],[[7259,12437],[43,117],[12,60],[31,62],[37,44],[20,33],[15,41],[33,51],[55,31],[46,33],[47,43],[45,75],[69,81],[68,103],[53,111],[16,79],[16,27],[61,43],[72,54],[41,21],[58,14],[53,1],[48,-5],[38,-10],[211,-85],[36,-7],[32,2],[85,24],[70,40],[25,28],[58,83],[57,104],[23,27],[126,122],[33,53],[31,103],[33,39],[122,71],[108,59],[181,115],[121,88],[21,25],[31,71],[42,80],[4,92],[28,59],[24,92]],[[14071,7558],[41,-27],[24,-10],[95,-22],[46,-8],[238,15],[-7,-25],[-19,-111],[28,-59],[-14,-52],[-9,-68],[3,-27],[-24,-62],[-29,-20],[-40,-3],[-34,-33],[-26,-63],[-42,-47],[-11,-22],[-27,-90],[-29,-26],[-30,-40],[-3,-29],[12,-22],[-11,-29],[-18,-89],[-54,-66],[-120,-47],[-58,-12],[-183,-4],[-28,-10],[-66,-69],[-5,-31],[15,-51],[-2,-37],[-25,-51],[-81,-100],[-11,-43],[-26,-19],[-46,-3],[-48,-35],[-8,-39],[5,-61],[24,-72],[-5,-34],[-32,-92],[-65,-118],[-20,-59],[-7,-45],[-18,-42],[-50,-72],[-33,-17],[-72,-8],[-48,-18],[-42,-42],[-11,-35],[2,-32],[-21,-31],[-90,-52],[-118,-36],[-38,-15],[-38,-22],[-27,-35],[-33,-59]],[[13905,20261],[21,17],[19,34],[42,43],[26,14],[76,29],[143,62],[33,32],[26,70],[23,123],[15,58],[34,76],[95,146],[39,57],[61,71],[56,51],[48,30],[99,47],[71,18],[51,-7],[60,-43],[139,-159],[35,-46],[32,-53],[11,-42]],[[14372,18476],[-22,146],[-5,93],[6,25],[-14,53],[-64,80],[-30,63],[-9,39],[2,50],[11,22],[-4,76],[-12,35],[-47,64],[-16,30],[-39,46],[-16,43],[-32,68],[-10,36],[-27,37],[-13,64],[-1,36],[-25,90],[-11,101],[3,46],[-7,25],[18,35],[-8,50],[-23,11],[-10,22],[-27,33],[14,75],[15,47],[-3,20],[-68,22],[-6,31],[34,30],[-21,41]],[[5934,4223],[17,-16],[52,-28],[69,-17],[191,-76],[45,-22],[54,-45],[134,-137],[47,-19],[112,13],[102,-9],[67,1],[123,-23],[50,-27],[25,-41],[88,-61],[100,-98],[104,-95]],[[5564,2343],[-65,25]],[[5499,2368],[30,97],[12,25],[41,55],[25,91],[34,53],[-24,103],[-19,64],[18,70],[1,28],[-21,64],[-67,83],[-27,29],[-63,53],[-25,15],[-80,13],[-47,37],[-16,23],[-43,100],[128,70],[76,37],[21,22],[84,108],[13,23],[9,49],[15,33],[78,132],[17,46],[19,114],[18,31],[28,25],[77,55],[123,107]],[[12987,14192],[-204,-95],[-52,-16],[-266,-52],[-66,-7],[-55,4],[-42,8],[-60,23],[-36,21],[-235,179],[-296,230],[-46,30],[-41,19],[-77,20],[-95,2]],[[10819,14819],[11,59],[25,60],[29,44],[54,58],[138,111],[27,-40],[30,-18],[52,-14],[84,-7],[112,4],[60,-11],[21,-17],[40,-8],[75,46]],[[9931,6190],[-244,-169],[-35,-22],[-27,-7],[-78,-6],[-38,-13],[-101,-64],[-31,-29],[-149,-191],[-15,-15],[-82,-62],[-23,-32],[-22,-63],[-55,-100],[-18,-20],[-81,85],[-40,49],[-112,143],[-84,120],[-41,35],[-46,12],[-134,10],[-90,22],[-29,11],[-111,65],[-66,58],[-84,87],[-22,16],[-130,64],[-62,21],[-46,5],[-132,8],[-44,17],[-179,110]],[[7480,6335],[-338,207],[-34,16],[-37,5],[-47,-9],[-81,-35],[-44,-8],[-57,17],[-93,58],[-46,12],[-251,29],[-46,11],[-32,13],[-119,64],[-226,95]],[[13512,20232],[59,7],[112,18],[70,1],[81,-6],[71,9]],[[3245,2963],[91,-3],[66,-9],[43,-14]],[[3445,2937],[40,-20],[167,-114],[97,-59],[68,-34],[88,-35],[59,-18],[78,-20],[109,-16],[366,-35],[47,-8],[254,-55],[580,-124],[101,-31]],[[6341,2],[-822,-2],[-1109,11],[-561,9],[-304,5],[-351,1],[-271,0],[-156,1]],[[4840,5014],[34,24],[81,40],[38,11],[35,-4],[107,-28],[89,-37],[32,-3],[205,13],[51,23],[45,41],[95,57],[26,21],[31,41],[85,123],[69,105],[168,152],[71,56],[18,28],[26,67],[4,40],[10,6],[267,-218],[14,-14],[15,-35],[13,-114],[78,-6],[109,-21],[147,9],[69,-5],[102,-33],[33,-21],[30,-39],[28,-120],[12,-29],[35,-28],[184,-101],[64,-25],[73,2],[33,-8],[18,-22],[8,-63],[23,-80],[23,-22]],[[7538,4797],[18,0],[70,32],[29,-7],[29,-81],[14,-26],[41,-14],[63,10],[59,-1],[65,-10],[24,-9],[18,-22],[25,-60],[15,-54],[14,-20],[68,-49],[109,-33]],[[8199,4453],[-144,-72],[-57,-44],[-15,-25],[0,-33],[-26,-28],[-84,-33],[-19,-14],[-48,-63],[-29,-50],[-86,-67],[-63,-44],[-43,-40],[-57,-95],[-86,-81],[-18,-25],[-71,-162],[-39,-54]],[[5934,4223],[-61,74],[-39,28],[-27,7],[-55,5],[-33,15],[-43,72],[-71,33],[-26,5],[-49,-7],[-81,-45],[-45,-40],[-26,-10],[-62,4],[-230,98],[-44,37]],[[5042,4499],[-25,25],[-94,116],[-23,40],[-4,39],[5,26],[32,63],[-6,52],[-40,48],[-29,85],[-18,21]],[[4091,4356],[66,-46],[79,-19],[25,8],[41,26],[60,6],[32,-9],[28,-24],[34,-13],[39,3],[55,19],[52,51],[33,17],[63,11],[71,3],[120,23],[46,1],[41,8],[26,22],[6,23],[34,33]],[[3445,2937],[53,66],[27,44],[4,38],[27,12],[73,97],[130,196],[26,35],[49,52],[10,19],[35,107],[14,22],[78,58],[53,48],[34,17],[60,18],[29,17],[19,28],[1,39],[-10,74],[-3,72],[-21,75],[2,51],[-43,106],[0,27],[10,38],[-11,63]],[[7480,6335],[-97,-87],[-54,-55],[-133,-107],[-41,24],[-58,17],[-18,-33],[-19,-16],[-82,-93],[-42,-66],[-13,-12],[-25,-47],[-4,-47],[-15,-27],[-30,-28],[14,-132],[7,-23],[31,-36],[79,-102],[23,-41],[21,-17],[42,-20],[42,-2],[106,15],[39,-7],[36,-42],[41,-22],[62,-52],[-7,-11],[33,-35],[2,-20],[22,-12],[5,-28],[-12,-49],[-1,-27],[21,-57],[40,-46],[18,-57],[10,-115],[15,-23]],[[4840,5014],[-54,44],[-71,64],[-55,31],[-29,25],[-21,29],[-26,54],[-31,48],[-40,49],[-19,32],[-5,44],[11,32],[38,87],[5,96],[24,126],[-15,37],[-130,168],[-24,53],[-26,182],[-29,83],[-31,130],[-32,82],[-49,50],[-59,68],[-24,36],[-13,67]],[[4135,6731],[-7,51],[9,33],[35,42],[44,36],[83,95],[29,21],[42,18]],[[10011,4938],[-68,-70],[-20,-6],[-76,-7],[-31,-15],[-53,-37],[-48,6],[-49,25],[-68,25],[-53,11],[-43,-14]],[[9502,4856],[-54,67],[-10,-3],[-59,20],[-60,1],[-166,-45],[-40,-5],[-150,6],[-65,-6],[-36,-12],[-52,-26],[-65,-48],[-52,-27],[-27,-28],[-97,-131]],[[8569,4619],[-71,36],[-31,2],[-53,-25],[-20,-17],[-85,-89],[-40,-34],[-70,-39]],[[8569,4619],[-51,-75],[-30,-52],[-40,-103],[-11,-86],[-40,-94],[-5,-21],[6,-84],[-20,4],[-18,-20],[-11,-44],[-22,-22],[19,-100],[5,-94],[-12,-96],[4,-102],[-32,-37],[-25,-10],[-57,-7],[-64,-38],[-20,-23],[-23,-65],[-2,-29],[12,-38],[2,-40],[11,-23],[31,-19],[22,-41],[-64,-95]],[[13203,1432],[379,-2],[649,-2]],[[14231,1428],[13,-66],[27,-67],[-8,-67],[6,-79],[-2,-132],[-20,-23],[10,-38],[-6,-19],[-34,-26],[-14,-24],[-3,-54],[-29,-48],[-7,-56],[-14,-44],[25,-25],[43,-3],[28,-26],[-2,-24],[42,-25],[47,34],[39,-4],[-18,-76],[12,-49],[54,-79],[41,-70],[31,-22],[51,-13],[12,-50],[-6,-72],[-6,-22],[-4,-82],[8,-34],[-6,-27]],[[14541,16],[-193,2],[-257,4],[-275,0],[-1184,1],[-379,3],[-289,0],[-52,99],[-39,52],[-63,52],[-49,48],[-47,61],[-21,35],[28,37],[8,25],[31,13],[27,38],[56,61],[19,5],[51,37],[40,42],[-16,68],[-15,24],[-16,-5],[-31,10],[-12,15],[34,49],[31,28],[23,-85],[85,59],[76,37],[131,69],[-3,33],[110,57],[-67,73],[-39,-20],[-57,64],[51,37],[31,9],[29,-28],[34,25],[26,-12],[38,-41],[26,-8],[-55,-40],[28,-30],[63,45],[40,-44],[6,22],[133,78],[17,-9],[40,58],[76,-27],[26,-45],[-11,-20],[14,-30],[64,-27],[35,-25],[8,10],[61,37],[45,-18],[24,13],[32,-7],[15,-13],[33,-6],[28,10],[59,35],[-1,37],[7,33],[38,40],[18,41],[4,105],[-65,-3],[2,37],[-15,0],[0,86],[12,0]],[[11246,17047],[-60,1],[-69,-14],[-71,15],[-51,-7],[-61,-20],[-24,1],[-166,51],[-35,5],[-168,2],[-22,6],[-103,51],[-20,-2],[-58,-41],[-35,-8],[-38,0],[-28,19],[-19,-16],[-16,-46],[-3,-36],[-22,-35],[-49,-39],[-42,-46],[-16,-69],[-31,-85],[-77,-99],[-25,-23],[-90,-62],[-33,-10],[-16,-16],[-18,-61],[-31,-27],[-53,-13],[-50,-38],[-38,-52],[-60,-44],[-86,-40],[-116,-66],[-73,-31],[-43,-35],[-38,-42],[-53,-108],[-25,-38],[-42,-39],[-40,-18],[-62,-63],[-46,-43],[-31,-14],[-84,-11],[-71,-27],[-97,-27],[-28,0],[-280,65],[-26,10],[-78,55],[-37,11],[-43,-9],[-157,18],[-27,8],[-67,40],[-77,34],[-82,33],[-51,43],[-32,46],[-71,77],[-28,23]],[[7557,16141],[27,30],[17,41],[4,127],[17,53],[36,46],[55,31],[62,61],[53,12],[30,16],[14,37],[-41,123],[-32,57],[-23,25],[-71,58]],[[7705,16858],[100,102],[19,15],[101,44],[56,-2],[74,-14],[47,-1],[67,13],[44,34],[22,31],[8,39],[-7,49],[-17,31],[-55,50],[-117,81],[-180,114],[-48,44],[-83,69],[-148,83],[-69,41],[-66,57],[-18,33],[-7,27],[12,45],[34,39],[39,56],[40,95],[1,24],[-11,43],[-39,80],[-30,34],[-99,92],[-75,80],[-63,84],[-40,94],[-5,44],[24,62],[18,26],[43,36],[45,25],[41,13],[149,22],[116,-15],[105,-35],[126,-53],[66,-22],[255,-73],[41,-15],[91,-56],[65,-35],[72,-20],[37,-3],[100,2],[109,-2],[58,10],[91,29],[74,46],[70,51],[43,24],[51,16],[216,22],[86,2],[44,-3],[141,-21],[90,12],[89,32],[58,12],[72,8],[39,12],[48,24],[34,33],[30,72],[10,78],[-2,92],[-16,199],[4,176],[3,79],[8,67],[-13,47],[-45,104],[-6,34],[9,42],[30,30],[68,22],[136,11],[149,-7],[106,-25],[29,-1],[35,12],[30,56],[25,27],[106,64],[115,61],[112,47],[29,24],[42,50],[38,63],[32,71],[40,115],[5,51],[-21,56],[-45,56],[-50,34],[-39,9],[-73,-2],[-56,5],[-49,12],[-62,24],[-48,47],[24,66],[23,28],[40,22],[69,16],[90,7],[155,-25],[56,-3],[75,-19],[73,-13],[69,15]],[[9502,4856],[119,-184],[18,-58],[1,-124],[21,-59]],[[9661,4431],[-28,-3],[-45,5],[-18,-8],[-13,-25],[-47,-49],[-76,-29],[-50,-13],[-23,-15],[-29,-46],[-40,-83],[-30,-28],[-47,-19],[-31,-35],[-38,-16],[-9,-44],[-3,-48],[-33,-13],[3,-29],[-26,-30],[1,-23],[-15,-43],[20,-19],[-22,-38],[26,-42],[-8,-51],[5,-25],[-32,-41],[-14,-34],[-28,-35],[-80,-34],[-36,11],[-32,-14],[-24,-57],[8,-27],[22,-34],[6,-27],[-6,-30],[32,-49],[2,-26],[22,-11],[17,-25],[-2,-28],[21,-32],[-18,-22],[21,-58],[25,-20],[12,-24],[30,-35],[21,-5],[17,-22],[70,-56],[5,-12],[45,-37],[17,-24],[43,-30],[29,-46]],[[14166,4481],[87,49],[29,20],[164,129],[81,32],[149,95],[31,17],[73,27],[113,49],[50,34],[76,42],[71,53],[42,21],[294,117],[26,13],[54,53],[43,18],[157,24],[35,-5],[9,18],[75,112],[18,23],[37,30],[29,42],[22,0],[35,16],[71,-7],[102,5],[73,36],[31,40],[19,14],[144,51],[19,12],[21,54],[37,57],[38,20],[57,17],[61,50],[21,-17],[87,-4],[33,-12],[57,-1],[18,-6],[33,-43],[13,-51],[-2,-26],[50,-49],[9,-22],[-3,-29],[28,-11],[14,22],[44,16],[43,3],[39,-14],[44,13],[20,-1]],[[17187,5627],[-155,-717],[-183,-887],[-228,-999],[-16,-71]],[[16605,2953],[-98,-27],[-13,8],[-36,-10],[-23,19],[-56,-26],[-109,-81],[-82,-49],[-77,-21],[-696,-94],[-6,32],[-19,36],[-100,105],[-260,207],[-64,52],[-99,103],[-14,30]],[[14853,3237],[-26,81],[-3,21],[9,59],[21,60],[2,41],[-8,62],[11,94],[4,100],[-39,88],[-22,29],[-101,69],[-57,54],[-114,120],[-75,77],[-79,62],[-19,21],[-54,93],[-25,28],[-112,85]],[[9661,4431],[151,-304],[61,-125],[116,-175],[50,-89],[51,-66],[34,-32]],[[10124,3640],[3,-15],[-91,-14],[-70,-158],[-34,-101],[-12,-25],[84,-51],[-19,-71],[21,-3],[-27,-35],[-28,-8],[-75,-63],[-17,-5],[-16,-37],[-33,-24],[-10,-25],[-26,-16],[6,-39],[-29,-30],[-6,-32],[-23,-39],[-32,-24],[-2,-14],[-37,-19],[-26,0],[4,-26]],[[11138,2728],[-3,25],[-2,197],[-8,380],[-9,58],[-40,-5],[-60,13],[-70,36],[-39,10],[-39,-15],[-26,-26],[-38,-61],[-96,51],[-99,86],[-122,-14],[-109,-10],[9,79],[31,1],[-11,39],[-18,88],[-103,-49],[-91,91],[-50,-20],[19,-36],[-40,-6]],[[13414,4195],[95,21],[33,2],[76,-17],[135,3],[42,25],[41,71],[79,69],[39,21],[119,53],[93,38]],[[14853,3237],[-2,-61],[-43,-84],[-22,-26],[-81,-76],[-38,-25],[-122,-52],[-27,-21],[-28,-36],[-37,-63],[-33,-104],[-38,-42],[-44,-11],[-34,4],[23,-44],[-10,-88],[29,-22],[20,-27],[15,-91],[2,-48],[-8,-11],[-47,-29],[-8,-53],[-43,-70],[-34,-38],[-46,-38],[-12,-31],[-10,-58],[-11,-23],[-64,-57],[80,-28],[51,-14],[92,-17],[52,-23],[23,-28],[27,-80],[77,-120],[25,-51],[24,-76],[22,-48],[-342,1]],[[13203,1432],[2,53],[-32,2]],[[3300,15576],[134,618],[62,283],[5,19],[326,1280],[60,210],[83,-29],[116,-63],[83,-36],[193,-73],[95,-24],[37,0],[74,14],[39,-1],[153,-45],[48,-10],[37,-2],[54,11],[56,42],[12,52],[-3,24],[-39,66],[-10,31],[6,45],[32,28],[48,31],[18,0],[115,-20],[33,-16],[57,-19],[41,-8],[64,-6],[55,11],[65,27],[49,27],[44,43],[12,31],[-18,63],[-26,36],[-39,30],[-65,19],[-93,11],[-35,9],[-26,40],[7,22],[23,22],[58,12],[75,-15],[130,-42],[53,-21],[45,-24],[49,-45],[8,-46],[-24,-82],[-2,-34],[18,-45],[22,-27],[32,-26],[23,-27],[78,-59],[96,-64],[94,-53],[92,-31],[44,-10],[60,-3],[101,-11],[98,-35],[104,-45],[63,-39],[50,-44],[56,-55],[51,-44],[76,-47],[69,-37],[22,-4],[43,-21],[43,-30],[61,-55],[85,-120],[67,-79],[57,-71],[36,-56],[75,-147],[28,-46],[39,-38],[46,-19],[32,-3],[54,20],[34,34],[20,42],[62,81]],[[7557,16141],[-28,-24],[-46,-15],[-75,-106],[-73,-80],[-32,-61],[-19,-73],[-4,-50],[6,-27],[29,-61],[-15,-88],[1,-71],[5,-15],[64,-126],[-3,-84],[-25,-63],[4,-36],[74,-116],[8,-35],[4,-80],[9,-24],[79,-48],[50,-35],[69,-62],[64,-23],[54,-27],[44,-55],[42,-75],[68,-79]],[[7911,14502],[-414,8],[-38,-2],[-490,-68],[-52,-2],[-141,13],[-43,13],[-499,223],[-438,194],[-77,19],[-58,3],[-59,-7],[-65,-14],[-41,-14],[-62,-30],[-46,-28],[-40,-11],[-44,1],[-278,51],[-61,17],[-625,297],[-59,25],[-231,90],[-360,142],[-390,154]],[[9738,14831],[-305,4],[-44,-5],[-174,-49],[-573,-165],[-39,-9],[-533,-103],[-47,-5],[-112,3]],[[1095,5189],[16,11],[69,93],[33,62],[15,11],[78,9],[25,16],[24,75],[42,71],[67,81],[33,28],[69,102],[66,76],[54,91],[153,146],[155,89],[75,26],[46,-147],[24,-55],[47,-69],[28,-55],[41,-41],[124,-82],[89,-64],[87,-90],[13,-1],[80,31],[36,21],[25,31],[40,72],[37,39],[84,42],[37,10],[68,4],[81,10],[113,24],[42,22],[63,69],[30,49],[17,59],[0,22],[-13,50],[4,45],[9,25],[28,31],[35,23],[60,81],[33,18],[52,13],[32,15],[52,47],[27,18],[119,53],[17,12],[52,55],[30,8],[62,6],[43,18],[53,38],[83,53],[36,45]],[[4091,4356],[-21,14],[-28,3],[-168,-37],[-1,27],[22,52],[15,49],[-22,18],[-3,51],[-32,77],[-3,38],[-37,-22],[-80,-12],[-30,30],[-26,8],[-22,29],[-12,31],[-24,7],[-60,6],[-29,45],[-28,19],[-38,-7],[-21,7],[-12,38],[-22,20],[-22,-34],[0,-18],[20,-59],[-18,-24],[-37,0],[-16,28],[-23,4],[-19,-13],[-6,-29],[14,-28],[57,-23],[11,-23],[-25,-21],[-43,-21],[-29,-35],[-12,-54],[-66,-65],[-22,-28],[-25,-46],[-18,0],[-28,33],[31,21],[13,25],[-2,78],[-16,53],[-4,32],[14,55],[-5,42],[-37,42],[-44,23],[-39,52],[-24,9],[-89,14],[-63,17],[-49,31],[-68,1],[-60,-37],[-57,53],[-40,-8],[-55,11],[-25,11],[-60,-9],[-43,-2],[-106,-153],[-53,-38],[-43,-7],[-92,10],[-48,-13],[-78,31],[-16,29],[13,34],[8,62],[-30,15],[-54,-5],[-27,3],[-50,24],[-48,37],[-71,70],[11,72],[-6,26],[-24,13],[-78,-16],[-56,-1],[-65,11],[-61,-1],[-19,-6],[-111,-65],[-19,2],[-56,31],[-91,84],[-15,35]],[[1092,5188],[3,1]],[[818,3911],[57,269],[217,1008]],[[16605,2953],[-30,-133],[-80,-375],[-126,-581],[-186,-856],[-207,-953],[0,-26],[-110,-2],[-589,-10],[-338,-7],[-398,6]],[[17718,8086],[-121,-579],[-304,-1388],[-106,-492]],[[1092,5188],[115,533],[108,515],[216,1032],[180,855],[250,1181]],[[2993,14131],[307,1445]]],"transform":{"scale":[0.00003107021658848193,0.000027874503574265296],"translate":[-79.714849,36.540856]},"objects":{"Geometry\\51-143":{"type":"GeometryCollection","geometries":[{"arcs":[[0,1,2,3,4,5,6]],"type":"Polygon","properties":{"GEOID":"511430101003"}},{"arcs":[[7,8,9,10,11]],"type":"Polygon","properties":{"GEOID":"511430104002"}},{"arcs":[[12,13,14]],"type":"Polygon","properties":{"GEOID":"511430111002"}},{"arcs":[[15,16,17,-7,18]],"type":"Polygon","properties":{"GEOID":"511430102003"}},{"arcs":[[19,20,21,22,23,24,25]],"type":"Polygon","properties":{"GEOID":"511430114002"}},{"arcs":[[-18,26,27,28,29,30,-1]],"type":"Polygon","properties":{"GEOID":"511430101002"}},{"arcs":[[31,32,33,34,35,36,-9,37]],"type":"Polygon","properties":{"GEOID":"511430105003"}},{"arcs":[[38,39,40,41]],"type":"Polygon","properties":{"GEOID":"511430107002"}},{"arcs":[[42,43,44,45,46,47]],"type":"Polygon","properties":{"GEOID":"511430112001"}},{"arcs":[[48,49,50,51,-36,52,-34]],"type":"Polygon","properties":{"GEOID":"511430105001"}},{"arcs":[[53,-12,54,55]],"type":"Polygon","properties":{"GEOID":"511430104003"}},{"arcs":[[56,57,58,-21,59,60]],"type":"Polygon","properties":{"GEOID":"511430108011"}},{"arcs":[[61,62]],"type":"Polygon","properties":{"GEOID":"511430112003"}},{"arcs":[[-60,-20,63]],"type":"Polygon","properties":{"GEOID":"511430114001"}},{"arcs":[[64,65,-30]],"type":"Polygon","properties":{"GEOID":"511430101001"}},{"arcs":[[66,-38,-8,-54,67,68]],"type":"Polygon","properties":{"GEOID":"511430104001"}},{"arcs":[[-53,-35]],"type":"Polygon","properties":{"GEOID":"511430105002"}},{"arcs":[[-2,-31,-66,69,-42,-51,70]],"type":"Polygon","properties":{"GEOID":"511430107001"}},{"arcs":[[-41,71,-58,72,-52]],"type":"Polygon","properties":{"GEOID":"511430109001"}},{"arcs":[[73,-48,74,-63,75,76]],"type":"Polygon","properties":{"GEOID":"511430112002"}},{"arcs":[[-24,77,78]],"type":"Polygon","properties":{"GEOID":"511430114003"}},{"arcs":[[79,80,81,-49,-33,82]],"type":"Polygon","properties":{"GEOID":"511430106002"}},{"arcs":[[-72,83,-59]],"type":"Polygon","properties":{"GEOID":"511430108012"}},{"arcs":[[84,-28,85]],"type":"Polygon","properties":{"GEOID":"511430102001"}},{"arcs":[[86,-43,-74,87,88]],"type":"Polygon","properties":{"GEOID":"511430110012"}},{"arcs":[[-4,89,-81,90]],"type":"Polygon","properties":{"GEOID":"511430106001"}},{"arcs":[[-37,-73,-57,91,92,-10]],"type":"Polygon","properties":{"GEOID":"511430109002"}},{"arcs":[[93,-86,-27,-17]],"type":"Polygon","properties":{"GEOID":"511430102002"}},{"arcs":[[94,95,-88,-77,96,-14]],"type":"Polygon","properties":{"GEOID":"511430111001"}},{"arcs":[[97,98,99,-87,100,101]],"type":"Polygon","properties":{"GEOID":"511430110021"}},{"arcs":[[102,-101,-89,-96,103]],"type":"Polygon","properties":{"GEOID":"511430110011"}},{"arcs":[[-55,-11,-93,104,-98,105,106]],"type":"Polygon","properties":{"GEOID":"511430110023"}},{"arcs":[[-92,-61,107,108,109,-99,-105]],"type":"Polygon","properties":{"GEOID":"511430110022"}},{"arcs":[[-110,110,-44,-100]],"type":"Polygon","properties":{"GEOID":"511430113022"}},{"arcs":[[111,112,113]],"type":"Polygon","properties":{"GEOID":"511430108032"}},{"arcs":[[-19,-6,114,115,116]],"type":"Polygon","properties":{"GEOID":"511430103011"}},{"arcs":[[-109,117,118,-45,-111]],"type":"Polygon","properties":{"GEOID":"511430113021"}},{"arcs":[[119,120,121,122]],"type":"Polygon","properties":{"GEOID":"511430108031"}},{"arcs":[[123,124,-46,-119]],"type":"Polygon","properties":{"GEOID":"511430113011"}},{"arcs":[[-108,-64,-26,125,-124,-118]],"type":"Polygon","properties":{"GEOID":"511430113012"}},{"arcs":[[126,-123,127,-112,128,-78,-23]],"type":"Polygon","properties":{"GEOID":"511430108042"}},{"arcs":[[129,-116,130,131]],"type":"Polygon","properties":{"GEOID":"511430103023"}},{"arcs":[[-115,-5,-91,-80,132,-131]],"type":"Polygon","properties":{"GEOID":"511430103021"}},{"arcs":[[133,-106,-102,-103,134]],"type":"Polygon","properties":{"GEOID":"511430110014"}},{"arcs":[[135,-135,-104,-95,-13,136]],"type":"Polygon","properties":{"GEOID":"511430110013"}},{"arcs":[[-122,137,-113,-128]],"type":"Polygon","properties":{"GEOID":"511430108033"}},{"arcs":[[-40,138,-120,-127,-22,-84]],"type":"Polygon","properties":{"GEOID":"511430108041"}},{"arcs":[[-82,-90,-3,-71,-50]],"type":"Polygon","properties":{"GEOID":"511430106003"}},{"arcs":[[-68,-56,-107,-134,-136,139]],"type":"Polygon","properties":{"GEOID":"511430104004"}},{"arcs":[[-132,-133,-83,-32,-67,140]],"type":"Polygon","properties":{"GEOID":"511430103022"}}]}}}