{"type":"Topology","arcs":[[[1318,1157],[10,21],[23,-1],[57,31],[21,17],[103,118],[27,23],[57,16],[162,8],[69,-2],[117,-21],[46,-3],[94,0]],[[2104,1364],[42,0],[0,-18],[43,-4],[261,-42]],[[2450,1300],[-15,-19],[-45,-34],[-49,-18],[-41,-4]],[[2300,1225],[-28,-1],[-25,11],[-50,7],[-64,-13],[-30,-29],[-139,-215],[-81,-92],[-19,-33],[-9,-35]],[[1855,825],[-70,54],[-33,19],[-37,-122],[-5,-32],[-23,38],[-20,19],[-24,8],[-65,1],[-10,-63],[-95,-49],[-57,-52],[-105,-66],[-89,-54],[-9,71],[-18,-4]],[[1195,593],[5,126],[-2,30],[0,165],[8,23],[93,104],[20,34],[8,32],[-9,50]],[[1232,336],[80,51],[126,77]],[[1438,464],[21,-92]],[[1459,372],[14,-62],[6,-101],[8,-32],[17,-17],[47,-23],[71,43]],[[1622,180],[-38,-78],[-26,-71],[-10,-17]],[[1548,14],[-242,11]],[[1306,25],[-9,30],[-65,281]],[[1438,464],[92,58],[35,24],[43,19],[53,32],[44,18],[57,-7]],[[1762,608],[-7,-87],[-10,-64]],[[1745,457],[-14,-42],[-28,-59],[-54,-122]],[[1649,234],[-181,143],[-9,-5]],[[1855,825],[-7,-23]],[[1848,802],[-10,-64],[-10,-23],[-54,-58],[-12,-49]],[[1232,336],[-25,91],[-14,133],[2,33]],[[1848,802],[32,-1],[29,-20],[41,-48],[28,-14],[68,-9],[36,-19],[30,-51],[23,-98],[15,-79]],[[2150,463],[-23,-32],[-74,12],[-47,-16],[7,-38]],[[2013,389],[-59,-25],[-79,-62],[-59,133],[-25,18],[-46,4]],[[1649,234],[-27,-54]],[[2300,1225],[28,-50],[92,-18],[38,5],[1,-39],[-28,-6],[11,-36],[41,-50],[11,24],[-1,45],[50,-37],[-30,-65],[15,-43],[-20,-34],[-21,26],[-24,-41],[-51,-96],[-5,-14],[8,-39],[-29,-32],[-9,-44]],[[2377,681],[-68,-47],[-58,-89],[-66,-37],[-35,-45]],[[2450,1300],[70,-10],[76,0],[85,18],[46,18],[41,22]],[[2768,1348],[2,-58],[16,-65],[137,-324]],[[2923,901],[-97,-127],[-99,-184]],[[2727,590],[-53,33],[-26,9],[-89,10],[-84,4],[-51,33],[-26,11],[-21,-9]],[[814,709],[33,42],[35,38],[32,12],[47,45],[26,16],[36,37],[122,104],[123,121],[50,33]],[[1232,336],[-171,-106]],[[1061,230],[-16,44],[-46,53],[14,29],[-31,69],[-22,38],[-54,60],[-34,53],[-36,64],[-22,69]],[[3002,2220],[-67,-82],[-18,98],[-70,1],[-13,93],[8,43],[35,-40],[32,46],[93,-159]],[[2768,1348],[12,243],[-71,-1],[-21,9],[28,70]],[[2716,1669],[133,-10],[117,1],[107,134],[120,64],[-48,91],[-103,165],[-40,106]],[[3002,2220],[28,36],[33,20],[72,55],[-37,80],[-135,-26],[-22,-2],[-56,115],[42,54],[25,-36],[13,17],[-14,19],[29,39],[-12,11],[60,75],[-16,24],[-23,-5],[-59,3],[-29,73],[-24,84],[-32,11],[-25,30],[-15,54],[-11,57],[-23,65],[9,62],[-36,7],[-41,26],[-49,0],[-39,11],[-37,-4],[-11,-10],[-76,19],[-25,-1],[-29,11],[-1,40],[47,-20],[66,-12],[46,16],[47,-4],[26,-15],[34,20],[4,-10],[34,4],[52,-7],[-5,24],[16,14],[-14,35],[-7,77],[-8,37],[-27,38],[0,29],[-12,63],[38,-71],[2,-20],[35,14],[-7,-28],[20,-46],[26,-12],[-12,-25],[21,-60],[42,-18],[33,23],[31,-54],[27,25],[143,-138],[50,-121],[-5,-131],[-38,-42],[-27,-42],[-8,29],[-20,-30],[-67,-68],[14,-22],[22,2],[53,-110],[30,23],[144,-279],[84,83],[88,-9],[5,-130],[18,-69],[-92,-66],[8,-26],[-32,-29],[-10,-52],[-53,-55],[-5,-41],[-15,-69],[-59,-32],[78,-131],[113,-205],[-118,-86],[-18,-21],[-11,-36],[-340,-447]],[[1306,25],[-482,22],[-43,4]],[[781,51],[57,40],[223,139]],[[781,51],[-87,2],[-190,-1],[-21,9],[-36,-13],[-132,-1],[-315,-1],[11,19],[51,-11],[28,20],[26,53],[19,27],[88,73],[-17,47],[21,31],[3,45],[-16,53],[6,20],[28,-44],[27,-19],[44,22],[20,-6],[42,31],[46,14],[78,58],[44,42],[36,15],[185,148],[39,43],[5,-18]],[[2727,590],[-316,-584],[-201,1],[-95,-3]],[[2115,4],[-8,44],[-20,56],[-36,34],[-21,81],[5,40],[-22,130]],[[2115,4],[-118,-3],[-125,-1],[-167,1],[-19,6],[-138,7]],[[2104,1364],[-11,156],[52,38],[266,185],[133,100],[76,-216],[78,44],[18,-2]]],"transform":{"scale":[0.00003995628415300341,0.00002357961964234936],"translate":[-82.241918,36.594585]},"objects":{"Geometry\\51-520":{"type":"GeometryCollection","geometries":[{"arcs":[[0,1,2,3,4,5]],"type":"Polygon","properties":{"GEOID":"515200202021"}},{"arcs":[[6,7,8,9,10,11]],"type":"Polygon","properties":{"GEOID":"515200202013"}},{"arcs":[[12,13,14,15,-8]],"type":"Polygon","properties":{"GEOID":"515200202011"}},{"arcs":[[-5,16,17,-13,-7,18]],"type":"Polygon","properties":{"GEOID":"515200202022"}},{"arcs":[[-18,19,20,21,-14]],"type":"Polygon","properties":{"GEOID":"515200203003"}},{"arcs":[[-16,22,-9]],"type":"Polygon","properties":{"GEOID":"515200202012"}},{"arcs":[[-4,23,24,-20,-17]],"type":"Polygon","properties":{"GEOID":"515200204003"}},{"arcs":[[-3,25,26,27,28,-24]],"type":"Polygon","properties":{"GEOID":"515200204004"}},{"arcs":[[29,-6,-19,30,31]],"type":"Polygon","properties":{"GEOID":"515200201001"}},{"arcs":[[[32]],[[-27,33,34,35]]],"type":"MultiPolygon","properties":{"GEOID":"515200204001"}},{"arcs":[[-31,-12,36,37]],"type":"Polygon","properties":{"GEOID":"515200201002"}},{"arcs":[[-32,-38,38]],"type":"Polygon","properties":{"GEOID":"515200201003"}},{"arcs":[[-25,-29,39,40,-21]],"type":"Polygon","properties":{"GEOID":"515200203001"}},{"arcs":[[-10,-23,-15,-22,-41,41]],"type":"Polygon","properties":{"GEOID":"515200203002"}},{"arcs":[[-34,-26,-2,42]],"type":"Polygon","properties":{"GEOID":"515200204002"}}]}}}