{"type":"Topology","arcs":[[[8198,7097],[114,84],[151,106],[120,90],[99,71]],[[8682,7448],[6,-47],[-4,-47],[9,-49],[20,-48],[19,-27],[35,-32],[44,-19],[72,-12]],[[8883,7167],[-11,-30],[0,-37],[-10,-19],[-80,-83],[-7,-17],[-6,-54],[-19,-6],[-52,13],[-28,-1],[-60,-33],[-128,0]],[[8482,6900],[-289,3]],[[8193,6903],[1,160],[4,34]],[[10963,2352],[26,72],[18,21],[120,102],[5,27],[1,369]],[[11133,2943],[254,7],[353,7]],[[11740,2957],[-5,-75],[-15,-67],[-4,-73],[5,-105],[12,-49],[3,-34],[27,-41],[24,-58],[13,-86],[-1,-79],[18,-50],[5,-34],[-6,-48],[29,-31],[72,-38],[-8,-42]],[[11909,2047],[-20,-9],[-15,-29],[-31,-20],[-24,-3],[-27,12],[-30,37],[-44,12],[-45,35],[-33,10],[-12,53],[-13,9],[-29,-6],[-24,35],[-33,17],[-19,27],[-24,1],[-28,-53],[-42,7],[-54,42],[-6,27],[-23,26],[-27,-1],[-36,-19],[-72,22],[-25,18],[-40,41],[-29,-7],[-7,25],[-35,35],[-22,-19],[-40,-3],[-17,-15],[-20,-2]],[[8001,7934],[17,-6],[122,-70],[42,-9],[72,14]],[[8254,7863],[32,5],[35,-3],[85,-27]],[[8406,7838],[60,-19]],[[8466,7819],[18,-12]],[[8484,7807],[0,-53],[-146,-15],[-335,-39]],[[8003,7700],[-2,234]],[[4249,9189],[108,0],[406,3],[10,-1],[-27,-56],[-6,-32],[-1,-89],[5,-40]],[[4744,8974],[0,-1]],[[4744,8973],[-96,0],[-21,-9],[-84,-89],[-38,-9]],[[4505,8866],[-6,49],[-18,33],[-26,17],[-26,6],[-150,3],[-33,13],[3,202]],[[11195,6064],[43,9],[23,-5],[34,6],[34,36],[20,46],[28,10],[15,-10],[26,-37],[26,-51],[18,-71],[-8,-23],[-19,-10],[-26,2],[-31,15],[-51,10],[-33,2],[-43,-25],[-14,-27],[-3,-30],[13,-50],[23,-19],[32,6],[32,51],[22,10],[29,-3],[73,-35],[27,-33],[6,-32],[28,-20],[26,6],[66,59],[22,8],[25,-11]],[[11658,5848],[-43,-52],[-65,-59],[-240,-208]],[[11310,5529],[-15,7],[-75,13],[-26,10]],[[11194,5559],[0,295],[-1,11],[2,199]],[[7082,6488],[141,0],[4,6],[0,127]],[[7227,6621],[18,-19],[125,-45]],[[7370,6557],[55,-20]],[[7425,6537],[-199,-143]],[[7226,6394],[-35,-6],[-50,2],[-35,41],[-23,4],[-1,53]],[[2069,9249],[69,-308],[132,-174],[70,-418],[11,-32],[-17,-180],[17,-29],[-27,-21],[-24,-49],[-9,-35],[4,-49],[37,-5],[2,-48],[19,-35]],[[2353,7866],[-30,-16],[-196,-71],[-438,-159],[-39,-16],[-390,-140],[-54,-20],[-84,-18],[-316,-57],[-124,-11],[-49,-21],[-142,-26],[-60,-7],[-143,-35],[-21,1],[-211,-37]],[[56,7233],[-18,-2],[-6,285],[4,415],[6,408],[-5,211],[2,208],[-17,485],[396,-16],[381,15],[384,8],[192,2],[193,-4],[194,0],[192,4],[115,-3]],[[5398,11528],[-43,4],[-218,-299],[-296,-343],[-96,-121],[-52,-76],[-46,-87]],[[4647,10606],[-61,179],[14,37],[18,17],[5,19],[3,100],[-6,7],[-123,-2],[-26,-18],[-146,-143],[-30,-25],[-92,-51],[-29,-20],[-200,-158]],[[3974,10548],[-5,3],[-102,2],[-12,5],[-66,11],[-25,40],[-28,24],[-256,3]],[[3480,10636],[19,133],[19,142],[8,29],[27,58],[31,46],[40,52],[40,43],[50,44],[78,59],[79,51],[83,44],[39,18],[55,10],[101,27],[123,39],[145,84],[94,95],[59,67],[48,93],[18,15],[31,116],[7,103],[-6,73],[8,45],[17,31],[29,35],[39,31],[45,25],[49,12],[13,-12],[17,-75],[-10,-111],[24,-42],[44,-34],[42,-23],[142,-15],[42,-42],[29,-16],[130,-42],[7,-70],[23,-64],[6,-69],[34,-113]],[[3974,10548],[-99,-90],[-22,-16],[-175,-107],[-46,-39],[-23,-47],[-8,-45],[-1,-357],[-17,-43],[-42,-45],[-32,-58],[-6,-36],[-3,-181],[-9,-104],[-17,-61],[-22,-40],[-58,-83],[-20,-15],[-65,-22],[-30,-22]],[[3279,9137],[-38,50],[-27,27],[-27,17],[-37,15],[-185,-10],[-47,5],[-27,10],[-129,62],[-41,30],[-37,40],[-46,30],[-59,14],[-133,-3],[-106,-20]],[[2340,9404],[-1,193],[5,201],[20,51],[71,79],[60,59],[75,57],[32,28],[95,36],[77,16],[55,5],[70,-1],[77,-7],[68,-16],[42,-4],[21,11],[44,-2],[60,13],[50,25],[58,41],[87,117],[22,46],[16,69],[27,156],[9,59]],[[4847,5457],[95,507]],[[4942,5964],[30,156],[40,88],[204,380]],[[5216,6588],[7,2],[51,-23],[121,0]],[[5395,6567],[-1,-132],[8,-40],[14,-29],[57,-79],[135,-176]],[[5608,6111],[139,-184],[101,-161]],[[5848,5766],[-65,-62],[-29,-23],[-34,-15],[-32,-4],[-274,1],[-29,3],[-91,0],[-1,196],[-9,11],[-279,0],[-1,-415]],[[5004,5458],[-157,-1]],[[5218,6592],[44,87],[49,130]],[[5311,6809],[63,-1],[23,-83],[-2,-158]],[[5216,6588],[2,4]],[[6552,8775],[95,0]],[[6647,8775],[0,-312]],[[6647,8463],[-2,-351]],[[6645,8112],[-48,-9],[-46,-23]],[[6551,8080],[-1,81]],[[6550,8161],[-1,45],[3,569]],[[6647,8775],[100,1],[72,-6],[39,4],[58,37],[79,10],[51,44]],[[7046,8865],[12,-14],[16,13],[31,-9],[10,-25],[36,-11],[29,3],[24,-11],[24,-42],[-11,-48],[1,-20],[-24,-52],[7,-40],[14,-13],[38,-4],[31,-36]],[[7284,8556],[-11,-26],[-12,-65],[-21,-4],[-144,0],[-449,2]],[[5914,7182],[0,101]],[[5914,7283],[110,0]],[[6024,7283],[1,-33],[13,-21],[24,-4],[108,-1]],[[6170,7224],[0,-186]],[[6170,7038],[1,-96],[-7,-19]],[[6164,6923],[-42,21],[-61,-2],[-43,-30],[-136,-1]],[[5882,6911],[1,115],[5,32],[20,33],[6,28],[0,63]],[[6040,7742],[132,0]],[[6172,7742],[0,-205]],[[6172,7537],[-2,-209]],[[6170,7328],[0,-104]],[[6024,7283],[1,192],[-11,74],[0,101],[12,0],[-1,83],[15,9]],[[6170,7328],[382,-4]],[[6552,7324],[-1,-104]],[[6551,7220],[1,-209],[-1,-123]],[[6551,6888],[-67,8],[-63,2],[-15,8],[-8,29],[13,22],[-27,29],[-13,4],[-58,39],[-92,0],[-27,9],[-24,0]],[[2069,9249],[77,-1],[193,-12],[1,168]],[[3279,9137],[26,-38],[34,-67],[26,-75],[8,-54],[-4,-140],[49,9],[85,-8]],[[3503,8764],[-1,-80],[18,-67],[24,-49],[37,-41],[41,-25],[64,-27],[0,-5],[54,-83],[49,-86],[32,-15],[62,-68],[24,-71],[-3,-21],[-20,-30]],[[3884,8096],[-6,-34],[6,-27],[33,-52],[-9,-24],[-25,-8],[-22,-34],[0,-33],[-11,-19],[20,-19],[22,-6],[-26,-27],[30,-21],[-10,-31],[15,-14],[-23,-28],[-9,-30],[17,-28],[-19,-18],[-30,-44],[3,-15],[-20,-40],[-43,-41]],[[3777,7503],[-91,57],[-122,59],[-20,16],[-120,75],[-571,115],[-183,13],[-199,49],[-33,7],[-85,-28]],[[4647,10606],[-59,-119],[-21,-57],[-10,-37],[-17,-21],[-5,-162],[9,-54],[61,-154],[12,-52],[-5,-56],[-29,-68],[-36,-51]],[[4547,9775],[-47,-54],[-124,-117],[-105,-92],[-80,-64]],[[4191,9448],[-309,-248],[-196,-149],[-7,29],[-18,-17],[-66,-43],[-28,-31],[-36,-81],[-28,-144]],[[7520,10329],[1,273],[143,2]],[[7664,10604],[13,-62],[84,-17],[63,-41],[25,-50],[23,-63],[97,2],[95,-19],[38,-53],[70,-41],[52,-53],[14,-51],[16,-36],[36,-14],[13,-34],[57,-22],[68,-53],[56,-48],[57,-5],[65,-43],[36,-53],[57,-17],[45,-42]],[[8744,9789],[-28,-141],[-23,32],[-2,17],[-96,2],[-11,-9],[-2,-95],[-93,2],[-164,0],[-225,5]],[[8100,9602],[-72,-2],[-115,0],[-6,4],[-194,1]],[[7713,9605],[0,411],[-158,1],[-20,3],[-16,31],[1,278]],[[5398,11528],[72,-211]],[[5470,11317],[-39,-55],[-54,-101],[-28,-62],[-54,-162],[-35,-171],[-12,-125],[2,-142],[8,-109],[-12,-16],[-5,-351]],[[5241,10023],[-2,-158]],[[5239,9865],[-3,-256]],[[5236,9609],[-252,2],[-187,-1],[1,-104],[-62,4],[-30,20],[-14,45],[-41,1],[-11,7],[-8,39],[-85,153]],[[13087,2122],[370,1],[13,-41],[25,-29],[52,-91],[27,-27],[47,-61],[13,-28],[36,-18],[34,2],[-44,-41],[-26,-47],[-54,-73],[-12,-69],[0,-69],[-13,-25],[-47,-51],[-53,29],[-41,12],[-59,3],[-39,34],[-16,26],[-34,21],[-56,0],[-37,22],[-28,32],[-5,16],[5,73],[19,72],[-2,37],[-75,290]],[[11735,4905],[65,-43],[68,-23],[52,-12],[68,2],[31,-11],[33,-28],[131,-62],[56,-19],[68,-31],[23,-16],[9,-23],[4,-40],[26,-77],[24,-47],[34,-44],[35,-37],[33,-8],[71,8],[58,-8],[39,-15],[64,-40],[25,-32],[73,-54],[54,-44],[35,-59],[32,-45],[0,-15],[-40,-37],[0,-42],[-17,-73],[0,-64],[24,-94],[31,-40],[18,-55],[8,-44],[31,-26],[5,-46],[-4,-41],[-19,-77],[-27,-66],[45,6],[39,-14],[20,-24],[-1,-24],[-16,-31],[-35,-25],[-12,-31],[-4,-99],[5,-85],[8,-34],[26,-19],[30,-1],[36,20],[7,20],[20,1],[38,-13],[54,-47],[57,-7],[23,-31],[-6,-40]],[[13290,2899],[-32,5],[-30,23],[-8,25],[-23,-32],[3,-28],[30,-57],[-51,-26],[-33,-34],[-23,-11],[-63,-14],[-70,-44],[-60,-28],[-26,-33]],[[12904,2645],[-18,18],[-45,25],[-35,6],[-14,15],[-16,50],[-16,22],[-54,19],[-72,44],[-51,46],[-60,41],[-55,42],[-54,51],[-121,79],[-91,47],[-23,17],[-107,86],[-49,18],[-82,0],[-20,-9]],[[11921,3262],[1,124],[19,54],[38,65],[11,26],[15,60],[31,92],[5,27],[-1,75],[30,125],[1,39],[-28,62],[-29,42],[-135,136],[-15,26],[-5,76],[-7,13],[-40,7],[-100,80],[-24,23],[-96,105]],[[11592,4519],[30,55],[51,48],[2,9],[1,234],[59,40]],[[10748,5273],[49,64],[3,24],[0,297]],[[10800,5658],[38,-47],[25,-3],[51,3],[141,-15],[51,-11],[88,-26]],[[11310,5529],[-308,-269],[-9,-25],[-99,-89]],[[10894,5146],[-146,127]],[[4505,8866],[9,-46],[-29,-52],[-6,-30],[-5,-70],[-27,-52],[-14,-79],[0,-84]],[[4433,8453],[0,-297]],[[4433,8156],[-1,-139],[-3,-54]],[[4429,7963],[-92,48]],[[4337,8011],[-43,26],[-51,53],[-76,121],[-32,87],[-9,54],[-15,134],[-4,64],[9,34],[37,61],[7,32],[0,62],[7,28],[30,34],[37,9],[116,-19],[24,0],[52,21],[39,39],[40,15]],[[6938,7012],[273,0]],[[7211,7012],[5,-99],[11,-60],[1,-49]],[[7228,6804],[0,-104]],[[7228,6700],[-290,2]],[[6938,6702],[0,310]],[[5311,6809],[74,201]],[[5385,7010],[23,62],[9,47],[9,163]],[[5426,7282],[69,5]],[[5495,7287],[-4,-39],[42,-171],[14,-52]],[[5547,7025],[26,-62],[38,-74],[27,-32],[18,-11],[226,-85]],[[5882,6761],[-1,-86]],[[5881,6675],[-1,-83],[-7,-28]],[[5873,6564],[-42,1],[-436,2]],[[5882,6911],[0,-150]],[[5547,7025],[43,-4],[38,6],[-5,50],[98,0],[0,104],[193,1]],[[5495,7287],[64,0]],[[5559,7287],[4,-2],[215,-1]],[[5778,7284],[136,-1]],[[6172,7742],[284,-3]],[[6456,7739],[1,-208]],[[6457,7531],[-253,4],[-32,2]],[[7284,8556],[9,-57],[17,-11],[14,-26]],[[7324,8462],[-66,-18],[-40,-20],[-24,-22],[-188,-205],[-37,-30],[-32,-18],[-23,-5],[-269,-37]],[[6645,8107],[0,5]],[[6551,7220],[192,-1]],[[6743,7219],[4,-177],[11,-40]],[[6758,7002],[15,-44],[0,-35],[-18,-54],[-7,-43],[-1,-124]],[[6747,6702],[-91,4],[-34,12],[-70,33]],[[6552,6751],[-1,137]],[[6937,7219],[1,-207]],[[6938,7012],[-157,-1],[-23,-9]],[[6743,7219],[194,0]],[[6937,7219],[44,-3],[20,-11],[118,-103],[45,-31],[42,-3]],[[7206,7068],[5,-56]],[[6938,6702],[-1,0]],[[6937,6702],[-190,0]],[[7170,7837],[180,50]],[[7350,7887],[-1,-44]],[[7349,7843],[0,-37]],[[7349,7806],[1,-28],[-11,-12],[-3,-98],[-41,-2],[0,-43]],[[7295,7623],[-9,-15],[-137,-1],[-9,-4],[-22,34],[12,8],[37,0],[1,167],[2,25]],[[6935,7513],[34,-9],[63,-1],[1,-14],[35,-7],[0,-35],[11,-9],[59,-1],[1,-72],[33,-5]],[[7172,7360],[4,-48],[28,-102],[-2,-95],[4,-47]],[[6937,7219],[0,130],[-2,164]],[[7165,7528],[119,1],[2,31],[23,-10]],[[7309,7550],[26,-1],[65,35],[7,30],[40,43],[69,-3]],[[7516,7654],[-2,-208],[2,-25],[17,-33],[31,-18],[75,-1]],[[7639,7369],[49,-1],[17,-12],[6,-49]],[[7711,7307],[-173,0],[-105,-18],[4,-28],[-14,-32],[-7,-62],[1,-107],[8,-20],[33,-20],[57,-47],[55,-14],[8,-8]],[[7578,6951],[-58,-18]],[[7520,6933],[-27,-2],[-72,6],[-42,21],[-73,74],[-35,28],[-25,8],[-40,0]],[[7172,7360],[3,59],[-10,109]],[[7711,7307],[2,-137],[6,-159],[1,-73]],[[7720,6938],[-61,21],[-31,6],[-50,-14]],[[7713,9394],[3,1],[388,2]],[[8104,9397],[21,-8],[28,-34],[22,-105],[29,-53],[50,31],[55,24],[39,38],[24,9],[30,-10],[-12,-20],[2,-27],[51,-49],[43,-5],[-2,-349],[-8,-30],[-47,-43],[0,-51]],[[8429,8715],[-125,-29],[-312,-54]],[[7992,8632],[-13,56],[-82,88],[-30,40],[-146,261],[-7,27],[-2,84]],[[7712,9188],[1,206]],[[8744,9789],[27,-76],[41,-29],[18,-22],[38,44],[59,26],[70,-26],[32,-56],[49,5],[28,68],[48,14],[158,-2]],[[9312,9735],[13,-45],[5,-42],[-4,-35],[-11,-45],[-13,-16],[-36,-17],[-24,-29],[-8,-66],[5,-67],[-8,-22],[-23,-16],[-67,-20],[-58,-36],[-24,-8],[-10,-20],[33,-74],[-6,-58],[-33,-53],[-4,-36],[18,-38],[30,-42],[26,-84]],[[9113,8866],[-146,-87],[-44,-18],[-27,-3],[-70,1]],[[8826,8759],[-89,1],[-169,-15],[-139,-30]],[[8104,9397],[1,67],[-5,36],[0,102]],[[6552,6751],[-60,28],[-69,39],[-94,20]],[[6329,6838],[-79,17],[-21,8],[-37,39],[-28,21]],[[7678,7818],[53,-27],[130,-83],[21,-9],[49,-6],[72,7]],[[8003,7700],[0,-55],[-27,-47],[-18,-60],[-1,-24],[12,-37],[30,-44],[28,-15],[57,-11],[26,-12],[73,-69],[12,-24],[3,-205]],[[8193,6903],[-98,-1]],[[8095,6902],[-148,2],[-41,7]],[[7906,6911],[3,80],[-22,33],[-21,17],[-9,27],[13,47],[8,9],[8,66],[14,57],[-16,57],[-34,26],[-21,27],[-42,22],[-10,44]],[[7777,7423],[-34,140],[-45,210],[-20,45]],[[7350,7887],[62,27],[64,50],[44,17]],[[7520,7981],[75,13],[86,25],[19,1],[13,15]],[[7713,8035],[290,112]],[[8003,8147],[-2,-213]],[[7678,7818],[-17,4],[-255,9],[-57,12]],[[8484,7807],[39,-51],[46,-37],[18,-31],[17,-84],[14,-26],[32,-33],[12,-27],[20,-70]],[[8003,8147],[164,39],[23,9]],[[8190,8195],[2,-38],[9,-14],[33,-7],[11,-18],[-1,-33],[34,-8],[2,-170],[-6,-19],[-22,-12],[2,-13]],[[8190,8195],[104,58],[82,39],[47,8]],[[8423,8300],[14,-39],[0,-56],[-5,-24],[-26,-49],[-34,-44],[-3,-42],[37,-56],[6,-53],[-3,-30],[17,-24],[-18,-15],[-2,-30]],[[10325,6012],[10,1],[107,-94],[46,-14],[26,-27],[23,-56],[31,-19],[36,-54],[57,-46],[70,-25],[69,-20]],[[10748,5273],[-169,142],[-154,131],[-12,30],[0,172],[-14,67],[-31,44],[-43,40]],[[10325,5899],[0,113]],[[8466,7819],[21,24],[31,17],[8,22],[16,3],[14,24],[31,7],[14,12],[27,4],[6,-14],[29,33],[-11,46],[19,38],[-3,20],[18,41],[1,53],[9,28],[19,29],[-13,13],[4,21]],[[8706,8240],[-12,110],[-24,43],[12,18],[-14,56],[2,36],[76,144],[-5,44],[72,49],[13,19]],[[9113,8866],[23,-57],[33,-35],[6,-24],[-6,-27],[-31,-19],[-11,-23],[2,-22],[33,-39],[47,-16],[49,-27],[7,-17],[-3,-44],[13,-12],[35,-13],[35,-22]],[[9345,8469],[1,-23],[-17,-40],[-132,-204],[-125,-184],[-35,-57],[22,-16],[63,-16],[12,-15],[44,-107],[51,-232],[11,-32],[107,-112],[5,-16],[0,-258],[-9,-15]],[[9343,7142],[-48,41],[-52,53],[-26,22],[-73,22],[-49,6],[-47,-10],[-45,-43],[-74,-53],[-27,-15],[-19,2]],[[4191,9448],[28,-122],[-1,-83],[30,-6],[1,-48]],[[4337,8011],[-49,15],[-62,7],[-189,-15],[-30,0],[-34,10],[-26,14],[-63,54]],[[4744,8973],[11,-90],[12,-77],[-5,-102],[12,-89]],[[4774,8615],[8,-71],[1,-92]],[[4783,8452],[-350,1]],[[11002,5055],[177,-149],[80,-81],[78,-40],[19,-13],[69,-72],[167,-181]],[[11592,4519],[-14,-52],[3,-39],[-8,-38],[-43,-173],[-30,-67],[-2,-29],[-42,-23],[-106,0],[-6,8],[1,91],[-8,10],[-140,0],[-177,2],[-251,-2]],[[10769,4207],[167,222],[68,84],[30,58],[60,72],[62,84],[-159,-1],[3,65],[1,261],[1,3]],[[7574,45],[27,30],[297,316],[70,69],[58,61],[74,98],[153,213],[27,40]],[[8280,872],[64,87],[274,363],[34,37],[4,14],[98,137],[16,18],[141,189],[159,209],[10,27],[136,166],[117,158],[134,185]],[[9467,2462],[68,94],[145,192]],[[9680,2748],[9,-8],[110,3],[176,0],[34,-8],[23,-15],[54,-59],[69,-135],[39,-33],[38,-11],[13,-13],[19,5],[70,-18],[19,7],[39,42],[19,11],[30,-7],[14,-39],[66,-27],[24,-17],[32,-4],[56,-37],[82,-11],[46,2],[51,-19],[18,6],[15,22],[96,-34],[22,1]],[[11909,2047],[49,6],[-11,-34],[13,-37],[31,-15],[37,8],[54,23],[15,11],[17,49],[30,-10],[49,-1],[-5,-19],[33,-43],[9,-64],[26,-53]],[[12256,1868],[8,-90],[31,-70],[23,-6],[15,-51],[20,-26],[13,-49],[38,-20],[8,-12],[3,-33],[14,-63],[13,-6],[30,28],[29,-12],[5,-31],[26,-15],[46,-5],[31,-18],[20,-22],[4,-27],[34,11],[10,-15],[7,-38],[36,-26],[34,7],[32,38],[15,0],[23,-24],[24,-41],[20,6],[46,-18],[6,-13],[-18,-23],[3,-30],[23,14],[38,-4],[28,-18],[42,-79],[56,-53],[70,-27],[17,-12],[26,23],[21,-8],[7,-16],[-10,-22],[4,-18],[51,25],[26,-4],[13,-16],[-5,-20],[-34,-13],[-11,-25],[19,-34],[35,-6],[19,26],[-3,28],[17,7],[19,-12],[30,-35],[32,4],[-3,-32],[-17,-38],[-7,-39],[2,-130],[-7,-30],[23,-38],[-8,-35],[7,-46],[-27,-9],[0,-42],[-21,-32],[-17,-1],[-34,-45],[-91,-45],[-80,-47],[-49,-2],[-56,-13],[-62,-26],[-24,-30],[-31,-20],[-72,20],[-34,-15],[-89,-23],[-19,-26],[-27,-81],[-29,-36]],[[12663,18],[-348,12],[-384,10],[-389,-5],[-446,-20],[-371,-12],[-384,18],[-197,14],[-200,3],[-168,4],[-189,2],[-165,5],[-219,-3],[-405,3],[-336,2],[-381,-6],[-384,4],[-123,-4]],[[5873,6564],[-22,-22],[-41,-15],[-17,-23],[-14,-62],[-1,-179],[-5,-8],[-165,-144]],[[6329,6838],[-2,-200],[1,-32],[25,-48],[6,-67]],[[6359,6491],[-239,26],[-6,-20]],[[6114,6497],[0,34],[-11,23],[-32,16],[-4,21],[-18,9],[-36,0],[-5,24],[12,18],[-7,43],[-47,-17],[-14,27],[-25,-5],[-11,-16],[-35,1]],[[6940,6487],[142,1]],[[7226,6394],[-163,-117]],[[7063,6277],[-28,-22]],[[7035,6255],[-32,45],[-9,20],[-11,53],[-18,35],[-25,79]],[[6457,7531],[80,-1],[16,-12],[-1,-194]],[[7777,7423],[-75,-4],[-55,1],[-9,-8],[1,-43]],[[7516,7654],[1,101],[-14,19],[-21,3],[-101,0],[-21,4],[-11,25]],[[7906,6911],[-31,-4],[-57,1],[-98,30]],[[7425,6537],[230,169],[13,7]],[[7668,6713],[32,-4],[9,-10],[234,-192],[153,0]],[[8096,6507],[1,-124],[-35,-17],[-97,-2],[-32,6],[-9,-97]],[[7924,6273],[-234,-5],[-82,-118],[-46,-2],[-72,8],[-142,73],[-77,45],[-79,3],[-72,-7],[-42,1],[-15,6]],[[6319,8776],[24,32],[47,-7],[45,-22],[117,-4]],[[6550,8161],[-269,-26],[1,128],[-72,0]],[[6210,8263],[3,47],[-20,109],[-6,60],[3,55],[8,33],[41,52],[13,23],[31,76],[36,58]],[[9601,4410],[148,293],[46,84],[83,166],[127,241],[25,55],[134,257],[81,160],[18,31],[63,122],[-1,80]],[[10894,5146],[-64,-54],[-79,-59],[-173,-150],[-64,-61],[-46,-54],[-33,-44],[-286,-417]],[[10149,4307],[-117,-3],[-7,14],[0,76],[-11,13],[-271,3],[-142,0]],[[10371,6111],[37,-32],[34,-37],[39,-49],[32,-16],[54,-9],[83,-2],[25,-9],[126,-86],[9,15],[-3,33],[15,75],[-17,93],[-1,39],[7,17],[29,3],[54,-11],[38,3],[58,-11],[51,-43],[45,-18],[109,-2]],[[10325,6012],[2,39],[44,60]],[[7713,9394],[0,211]],[[9996,3170],[42,57],[296,395],[397,532],[38,53]],[[11921,3262],[-62,-27],[-37,-23],[-44,-38],[-8,-20],[-21,-92],[-9,-105]],[[11133,2943],[4,210],[-364,4],[-395,-1],[-356,5],[-26,9]],[[9680,2748],[101,139],[215,283]],[[6747,6702],[8,-74],[11,-32],[133,-266]],[[6899,6330],[-352,116],[-127,38],[-61,7]],[[5236,9609],[-5,-328]],[[5231,9281],[-13,0],[-87,-17],[-127,-39],[-64,-32],[-49,-37],[-64,-91],[-20,-40],[-19,-14],[-15,-34],[-29,-3]],[[8423,8300],[104,10],[53,-9],[59,-1],[13,-41],[23,-24],[31,5]],[[12904,2645],[-26,-52],[-4,-25],[9,-38],[-8,-48],[-22,-32],[0,-23],[15,-89],[-10,-115],[-126,2],[-35,7],[-106,29],[-77,16],[-28,-4],[-25,-25],[-16,-35],[-39,-57],[-66,-111],[-11,-14],[-26,-9],[5,-22],[-14,-85],[-41,-2],[3,-45]],[[5353,8565],[7,-38],[3,-59],[1,-193]],[[5364,8275],[-68,0],[-3,44],[-94,1],[-1,23],[-130,-1]],[[5068,8342],[0,100]],[[5068,8442],[-4,80],[-46,92]],[[5018,8614],[-13,60],[107,1],[10,7],[67,-98],[42,-3],[9,-17],[113,1]],[[4571,7065],[19,57],[36,94],[44,100],[0,33],[-17,85],[2,48],[7,20],[27,41],[34,25],[30,9],[62,3]],[[4815,7580],[4,-28],[0,-117],[-3,-90],[25,-4],[33,9],[38,22],[28,0],[25,-21],[30,-4],[20,14],[15,31],[25,25]],[[5055,7417],[3,-52],[28,-2],[58,-23],[43,-56],[34,-9],[55,-40],[22,-43],[1,-24]],[[5299,7168],[0,-150]],[[5299,7018],[-250,3],[-1,86],[-14,13],[-85,0]],[[4949,7120],[-36,-1],[-38,-13],[-17,20],[-45,10],[-25,15],[-32,6],[-48,-36],[-81,-55],[-56,-1]],[[4791,7739],[184,-141]],[[4975,7598],[42,-30],[30,-12],[67,-5]],[[5114,7551],[-1,-92]],[[5113,7459],[-11,-21],[-28,3],[-19,-24]],[[4815,7580],[-5,46],[-47,13],[-42,0],[9,21],[61,79]],[[5113,7459],[94,-1],[1,-81],[10,-32],[22,-17],[42,-3],[-4,-71],[113,-6],[-1,-29],[-22,1],[-1,-25],[-20,-1],[0,-24],[-48,-2]],[[4791,7739],[165,211]],[[4956,7950],[154,0]],[[5110,7950],[-2,-132],[-81,1],[-1,-50],[-41,-2],[2,-45],[-26,-29],[20,-13],[87,0],[-15,-28],[10,-25]],[[5063,7627],[-88,-29]],[[5063,7627],[40,16],[20,36],[75,103],[53,40],[115,60]],[[5366,7882],[25,-248],[57,-102],[7,-30],[20,-11]],[[5475,7491],[-34,-29],[-23,-49]],[[5418,7413],[-38,18],[-18,19],[-26,56],[-48,37],[-39,7],[-135,1]],[[5848,5766],[43,-67],[103,-119],[25,-20],[78,-47],[69,-33]],[[6166,5480],[0,-21],[-185,-2],[-203,-1],[-365,3],[-409,-1]],[[4949,7120],[5,-27],[20,-22],[26,-64],[-3,-54],[4,-34],[29,-15],[4,-22],[-5,-39],[-16,-34]],[[5013,6809],[-196,-1],[0,-131],[36,-11],[17,-38],[29,-12],[3,-56],[-4,-94],[-43,-15],[-10,-59]],[[4845,6392],[-42,-6],[-174,-1],[-7,8],[0,101],[-224,0]],[[4398,6494],[11,42],[162,529]],[[8095,6902],[2,-28],[0,-179],[2,-73],[-3,-34],[0,-81]],[[7668,6713],[20,33],[-21,56],[7,22],[-10,57],[-44,14],[-5,28],[-34,11],[-3,17]],[[7228,6804],[194,0],[15,-30],[-2,-26]],[[7435,6748],[-12,-36],[0,-116],[-9,-25],[-33,-2],[-11,-12]],[[7227,6621],[1,79]],[[6937,6702],[3,-215]],[[7035,6255],[-49,-37]],[[6986,6218],[-45,33],[-42,79]],[[4697,4623],[119,0],[189,6],[386,-3]],[[5391,4626],[0,-186],[1,-25],[31,-146],[6,-81],[-9,-79],[-9,-46],[-32,-132]],[[5379,3931],[-140,16],[-60,-8],[-90,-19],[-265,-63],[-83,-13],[-35,0],[-277,14]],[[4429,3858],[20,84],[27,73],[191,494],[21,71],[9,43]],[[2796,2473],[61,13],[26,16],[22,59],[33,34],[40,61],[18,21],[36,27],[32,66],[47,83],[27,38],[10,24],[47,78],[22,44],[40,62],[15,49],[12,76],[14,155],[13,65],[-1,37],[-10,88],[18,136],[29,171],[5,50],[10,36],[4,38]],[[3366,4000],[96,2],[42,6],[33,-7],[215,3],[201,-148],[25,-8],[25,5],[79,42],[94,31],[43,8],[39,-4],[86,-43],[17,-23],[42,-104]],[[4403,3760],[-190,-922],[-13,-45],[-93,-243],[-233,-609]],[[3874,1941],[-80,-210]],[[3794,1731],[-82,-5],[-99,-2],[-229,-3],[-405,-3]],[[2979,1718],[-76,102],[-68,80],[-18,25],[-47,87],[-11,30],[-27,121],[2,56],[16,50],[44,101],[5,20],[-3,83]],[[3794,1731],[6,0],[-158,-415],[-6,0],[-64,-161]],[[3572,1155],[-87,1],[-6,14],[-33,-9],[-46,0],[-26,14],[-28,38]],[[3346,1213],[-171,238],[-196,267]],[[11658,5848],[23,-13],[5,-44],[-33,-29],[-58,-14],[-31,-12],[-27,-22],[-11,-19],[-3,-57],[23,-71],[21,-78],[16,-121],[30,-40],[5,-19],[-1,-42],[21,-84],[-7,-49],[-1,-46],[31,-89],[40,-62],[34,-32]],[[11002,5055],[-108,91]],[[9335,4201],[103,0],[8,11],[1,180],[5,17],[149,1]],[[10149,4307],[-86,-125],[-28,-35],[-30,-22],[-395,-207],[-31,-25],[-16,-27],[-30,-88],[-18,-38],[-32,-44],[-133,-116]],[[9350,3580],[-61,80],[42,35],[-5,15],[2,111],[4,357],[3,23]],[[6509,2907],[34,-9],[29,10],[39,-14],[33,-24],[23,-34],[23,-10],[19,5],[19,21],[32,14],[36,-4],[79,46],[12,0],[86,-22],[147,-56],[72,-19],[51,2],[52,-40]],[[7295,2773],[-56,-10],[-245,-22],[-117,-10],[1,-6],[-370,-33]],[[6508,2692],[-26,72],[19,9],[9,18],[-1,116]],[[6249,2746],[12,11],[28,49],[52,34],[25,42],[17,4],[17,29],[53,9],[21,-1],[35,-16]],[[6508,2692],[-70,-6],[-49,-19],[-30,-28],[-47,-64],[-34,-66],[-13,-32],[-17,-64],[-15,-32]],[[6233,2381],[-16,-1],[5,33],[-30,0],[0,133],[-25,-19]],[[6167,2527],[28,69],[3,54],[26,12],[6,39],[20,0],[-1,45]],[[3777,7503],[-16,-59],[0,-97],[31,-76],[4,-54],[4,-185],[-21,-65],[-4,-38],[8,-69],[-35,-92],[-10,-33],[-24,-125],[-16,-24],[-92,-107],[-83,-106],[-62,-93],[-37,-41],[-54,-20],[-24,-15],[-95,-146],[-32,-34],[-54,-68],[-7,-18]],[[3158,5938],[-61,-50],[-59,-12],[-12,-15],[-3,-35],[-20,-25],[-37,-24],[-41,-36],[-10,-18],[-10,-62],[-11,-34],[-27,-47],[-51,-53],[-15,-10],[-42,-9],[-27,-20],[-8,-23],[-26,-19],[-9,-32],[-19,-37],[-20,-24],[-4,-33],[-25,-25],[-42,0],[-35,-28],[-35,-11],[-25,1],[-30,13],[-23,-7],[-54,-34],[-34,-49],[-8,-37],[3,-44],[27,-95],[55,-87],[16,-39],[37,-54],[74,-80],[37,-17],[73,-3],[41,-24],[31,-28],[38,-49],[5,-28],[-3,-235],[20,-56],[69,-67],[91,-74],[100,-66],[17,-15],[6,-29],[0,-56]],[[3072,3997],[0,-114],[-9,-40],[-21,-38],[-195,-248],[-312,92],[-108,30],[-51,21],[-35,31],[-42,48],[-26,14],[-36,-9],[-80,-9],[-45,11],[-46,32],[-21,8],[-100,11],[-143,-6],[-26,5],[-73,24],[-29,21],[-28,5],[-49,-7],[-32,-19],[-10,-26],[1,-59],[-32,-39],[-21,-68],[-34,-42],[-20,-11],[-38,-9],[-62,-6],[-54,-21],[-42,-9],[-37,-29],[-24,-13],[-42,8],[-35,-13],[-26,-61],[7,-28],[-11,-19],[-6,-54],[4,-55],[0,-79],[32,-42],[26,-63],[7,-33],[0,-88],[-45,-10],[-42,9],[-35,22],[-22,46],[17,78],[-3,30],[-16,42],[-57,86],[-84,43],[-3,45],[18,52],[54,77],[28,54],[6,29],[-6,54],[-42,142],[-13,16],[-21,5],[-48,-6],[-57,4]],[[777,3819],[-2,406],[4,413],[4,274],[5,403],[3,236],[7,329],[-1,396],[20,415],[-405,24],[-412,8],[40,384],[-2,122],[18,4]],[[3572,1155],[-55,-150],[-5,-27],[4,-55],[9,-32],[197,-503]],[[3722,388],[-68,-6],[-96,2],[-51,221],[-45,3],[-20,11],[-20,30],[-35,83],[-30,47],[-190,171]],[[3167,950],[8,19],[2,133],[-2,111],[171,0]],[[10769,4207],[-348,-2],[-261,-5],[15,96],[-26,11]],[[6746,10567],[105,-46],[32,-6],[46,24],[108,2],[0,-209],[384,-1],[99,-2]],[[7712,9188],[-193,1],[-103,43],[-34,30],[-7,26],[-15,6],[-199,1],[-33,21],[-42,17],[-35,26],[-55,3],[-24,8],[-22,22]],[[6950,9392],[-7,13]],[[6943,9405],[15,27],[-26,22],[13,53],[-43,58],[-19,46],[-12,206],[6,122],[-45,134],[-40,53],[-31,146],[17,156],[-28,26],[-4,113]],[[5241,10023],[407,-1],[33,1],[16,-7],[44,48],[50,84],[2,41],[14,15],[15,36]],[[5822,10240],[17,-45],[43,-35],[27,56],[63,59],[74,73],[19,13],[85,37],[21,34]],[[6171,10432],[1,-15],[1,-420],[1,-384]],[[6174,9613],[-203,2],[-196,0],[19,33],[-82,4],[-34,-11],[-38,7],[-395,214],[-6,3]],[[6746,10567],[6,82],[27,55],[-21,67],[5,123],[11,41],[16,85],[-5,65],[0,130],[12,154],[-14,77],[7,87],[27,63],[18,74],[29,73],[52,167],[49,68],[141,50],[47,-46],[20,-45],[-4,-65],[22,-73],[19,-106],[22,-48],[70,-10],[43,-71],[79,-113],[31,-82],[21,-75],[50,-27],[27,-60],[4,-60],[-2,-65],[36,-58],[43,-51],[23,-55],[13,-72],[-4,-92],[-25,-55],[13,-46],[10,-49]],[[6705,10585],[41,-18]],[[6943,9405],[-21,-5],[-77,0],[-46,-12],[-25,-18],[-76,-78],[-21,-15],[-56,-29],[-30,-31],[-39,-67],[-37,-39],[0,81],[-340,5]],[[6175,9197],[-1,416]],[[6171,10432],[0,12],[198,-4],[14,-3],[64,45],[53,61],[47,16],[61,29],[26,27],[71,-30]],[[3167,950],[-10,9],[-72,1],[-94,-37],[-20,-3],[-101,2],[-19,4],[-98,34],[-95,51],[-51,44],[-41,43],[-47,29],[-18,18]],[[2501,1145],[1,11],[9,372],[2,12],[-30,24],[-134,98],[-41,29]],[[2308,1691],[29,22],[273,4],[369,1]],[[8482,6900],[1,-213],[-2,-102],[8,-65],[-5,-34],[-43,-91]],[[8441,6395],[17,-40],[-138,-86],[-69,-4],[-327,8]],[[5299,7018],[63,0],[23,-8]],[[5218,6592],[-88,45],[-76,33],[-12,-15],[-44,45],[-2,32],[17,77]],[[6245,3996],[144,60],[42,15],[243,102],[145,57],[88,22],[60,4],[367,-35]],[[7334,4221],[5,-51],[12,-24],[75,-13],[14,-7],[36,-44],[45,-33],[51,-30],[13,57],[57,-12],[34,-23],[31,-41],[63,-66],[20,-29],[46,-33],[67,-53],[15,-18],[54,-35],[32,-14],[55,-55],[26,-73],[10,-15],[37,2],[23,-44],[41,-28],[43,-69],[-10,-52],[9,-54],[14,-9],[54,-15],[27,-29],[79,-65],[40,-16],[13,31],[18,-5],[6,-27],[25,-15],[49,-2],[30,-26],[41,-14]],[[8634,3172],[-388,-103],[-53,-19],[-197,-86],[-26,-14],[-62,-44],[-75,-66],[-39,-14],[-56,4],[-36,-4],[-206,-52],[-23,-4],[-142,-11],[-36,14]],[[6249,2746],[-6,53],[-60,240],[-23,78],[-14,66],[0,46],[6,38],[62,490],[9,77],[22,162]],[[2308,1691],[-66,17],[-36,3],[-100,-3],[-169,3]],[[1937,1711],[0,60],[82,99],[412,453],[40,37],[48,33],[47,24],[53,17],[177,39]],[[6705,10585],[-5,76],[-19,36],[7,18],[-47,35],[7,67],[-3,53],[-22,97],[31,29],[37,41],[27,38],[15,63],[-18,103],[-4,68],[0,63],[-19,22],[-22,50],[-7,117],[-25,42],[-27,31],[-61,5],[-56,-22],[-52,34],[-66,-14],[-43,-55],[-43,25]],[[6290,11607],[80,78],[59,68],[58,76],[48,74],[36,66],[19,51],[27,52],[35,52],[40,49],[42,39],[50,33],[79,39],[34,13],[44,25],[44,45],[68,-37],[93,-65],[43,-36],[68,-81],[56,-83],[34,-60],[12,-33],[27,-50],[29,-33],[66,-49],[18,-19],[32,-94],[22,-94],[63,-112],[55,-80],[84,-110],[21,-52],[28,-37],[24,-22],[35,-19],[89,-60],[31,-32],[17,-37],[23,-108],[19,-49],[36,-43],[81,-77],[13,-20],[47,-32],[58,-26],[64,-59],[45,-35],[16,-19],[50,-34],[42,-43],[125,-99],[86,-95],[69,-56],[95,-68],[32,-15],[103,-25],[37,-3],[29,4],[109,-18],[41,-23],[8,-30],[56,-252],[28,-112]],[[5066,8285],[2,57]],[[5364,8275],[1,-197]],[[5365,8078],[-46,-3]],[[5319,8075],[-26,45],[-231,7]],[[5062,8127],[4,158]],[[5110,7950],[105,-3],[5,66],[44,-1],[0,39],[45,-1],[10,25]],[[5365,8078],[1,-24]],[[5366,8054],[0,-172]],[[7435,6748],[35,-13],[52,-1],[-2,199]],[[778,1864],[142,-15],[412,-41],[92,-11],[361,-64],[114,-19],[38,-3]],[[2501,1145],[-72,111],[-12,15],[-58,29],[-106,-3],[-134,0],[-143,-2],[-195,1],[-54,-3],[-151,-2],[-39,1],[-90,54],[-49,24],[-29,20],[-42,22],[-65,44],[-21,-1],[-23,-13],[-41,-58],[-4,-35],[8,-36],[-20,-38],[-16,-9],[-145,-13],[-40,-11],[-47,-20],[-23,-39],[-5,-27],[13,-46],[-24,-2],[-32,-21],[-60,-12]],[[782,1075],[1,42],[-7,62],[1,348],[-1,194],[2,143]],[[4347,7089],[14,-27],[0,-52],[90,3],[18,32],[55,8],[47,12]],[[4398,6494],[-72,-232],[-58,-195],[-23,-71],[-135,-331]],[[4110,5665],[-84,-1],[-18,-11],[-56,-20],[-33,6],[-70,52],[-11,21]],[[3838,5712],[16,14],[8,27],[39,31],[-4,28],[22,24],[6,22],[16,6],[22,34],[3,32],[39,43],[-10,75],[23,52],[16,144],[32,76],[35,148],[32,319],[23,90],[86,86],[105,126]],[[3777,7503],[27,-21],[358,-234],[206,-74],[-12,-28],[-27,-27],[18,-30]],[[3838,5712],[-40,-2],[-29,42],[-31,9],[-29,31],[-3,32],[-22,29],[-13,44],[-52,33],[-35,-40],[-26,-12],[-41,8],[-15,-17],[-24,7],[-32,-3],[-24,17],[-19,26],[-66,-21],[-15,-56],[5,-37],[-122,1],[-20,3],[-22,20],[-5,19],[0,93]],[[6166,5480],[26,-14],[56,-40],[28,-36],[83,-142]],[[6359,5248],[8,-41],[-8,-119],[-7,-45],[-64,-152],[-86,-11],[-60,-29],[-28,-30],[-15,-47],[-23,-21],[-22,-5],[-47,0],[-77,-52],[-33,-39],[-41,-31],[-164,-1],[-301,1]],[[4697,4623],[86,460],[-6,0],[70,374]],[[8441,6395],[63,-3],[60,-15],[29,-1],[113,11],[61,0],[48,11],[38,20],[141,120],[24,25],[52,71],[44,70],[27,52],[70,155],[28,39],[68,58],[57,27],[37,36]],[[9401,7071],[46,-48],[388,-218],[21,-17],[112,-124],[47,-67],[31,-68],[70,-202],[16,-108],[12,-62],[25,-56],[64,-116],[15,-18],[77,-68]],[[9335,4201],[-388,-1],[-33,-24],[-48,-83],[-79,-98],[-36,46],[-55,41],[-42,39],[-62,78],[-47,120],[-48,80],[-37,42],[-16,12],[-112,67],[-15,22],[-21,63],[-21,51],[-46,93],[-55,78],[-70,114],[-74,69],[-16,26],[-52,127]],[[7962,5163],[22,18],[5,28],[3,176],[-22,66],[-36,36],[-4,12],[25,45],[2,30],[11,28],[57,81],[14,49],[-20,68],[-2,35],[-9,54],[1,31],[10,45],[7,67],[31,42],[9,35],[-17,50],[-43,33],[-22,9],[-51,5],[-9,12],[0,55]],[[4942,5964],[-37,23],[-18,27],[-1,160],[-2,9],[-57,58]],[[4827,6241],[20,24],[50,72],[48,59],[-36,-4],[-64,0]],[[5418,7413],[-2,-29],[10,-102]],[[6456,7739],[48,-1]],[[6504,7738],[41,0],[8,10],[6,42],[91,0]],[[6650,7790],[94,-1]],[[6744,7789],[1,-184],[-51,0],[38,-168]],[[6732,7437],[8,-70],[3,-148]],[[6744,7789],[59,0]],[[6803,7789],[0,-24],[37,0],[0,-222]],[[6840,7543],[-2,-36],[-17,0],[-9,-31],[-33,-37],[-47,-2]],[[6935,7542],[1,52]],[[6936,7594],[96,-2],[96,1]],[[7128,7593],[31,-47],[6,-18]],[[6935,7513],[0,29]],[[7033,7777],[0,25]],[[7033,7802],[20,3],[117,32]],[[7295,7623],[15,-13],[-1,-60]],[[7128,7593],[-82,123],[-13,30],[0,31]],[[7712,8564],[195,52],[85,16]],[[7992,8632],[12,-87],[5,-111]],[[8009,8434],[-332,-104]],[[7677,8330],[-12,44],[48,15],[1,130],[-2,45]],[[7520,8281],[157,49]],[[7677,8330],[5,-47],[19,-13],[0,-33]],[[7701,8237],[0,-59],[-8,-15],[19,-14],[1,-114]],[[7520,7981],[0,300]],[[8009,8434],[-2,-128]],[[8007,8306],[-52,5],[-61,-6],[2,-122],[-37,8],[-12,37],[-21,8],[-38,-1],[-23,-12],[-23,-1],[-41,15]],[[8007,8306],[-4,-159]],[[4827,6241],[-160,-184],[-57,-70],[-26,-42],[-46,-63],[-169,-218]],[[4369,5664],[-10,1],[-249,0]],[[4847,5457],[-189,0],[-264,1],[-172,0],[-9,2],[156,204]],[[4429,7963],[164,-78],[56,-33],[142,-113]],[[4783,8452],[0,-169]],[[4783,8283],[0,-126]],[[4783,8157],[-158,1],[-192,-2]],[[7324,8462],[90,23]],[[7414,8485],[9,-40],[0,-193]],[[7423,8252],[0,-84],[-8,-28],[-40,-44],[-24,-41],[-1,-168]],[[7033,7802],[-145,53],[-48,30],[0,8],[-198,37]],[[6642,7930],[6,21],[-3,156]],[[7033,7777],[-97,-1]],[[6936,7776],[-80,0],[0,13],[-53,0]],[[6650,7790],[-5,25],[-3,115]],[[7423,8252],[97,29]],[[5231,9281],[-2,-32],[8,-97],[23,-123],[53,-235]],[[5313,8794],[40,-229]],[[5018,8614],[-244,1]],[[3722,388],[124,-317]],[[3846,71],[-199,-1],[-193,4],[-764,-6],[-194,-2],[-191,1],[-190,4],[-480,-16],[-93,-2],[-394,8],[-378,5],[-2,419],[8,422],[6,168]],[[5949,11359],[107,62],[40,38],[49,57],[29,26],[97,47],[19,18]],[[5822,10240],[-36,74],[1,409],[1,128],[37,10],[12,15],[1,93],[62,142],[24,28],[12,43],[0,28],[-11,118],[24,31]],[[5470,11317],[21,-4],[125,-7],[49,18],[40,5],[102,0],[94,11],[48,19]],[[6175,9197],[0,-415]],[[6175,8782],[-109,-3],[-250,0]],[[5816,8779],[-61,0],[-4,6],[2,194],[-3,26],[-14,8],[-21,-14],[-30,2],[-22,-20],[-60,-26],[-29,-95],[-17,-17],[-87,-49],[-19,-3]],[[5451,8791],[-138,3]],[[8009,8434],[430,135]],[[8439,8569],[12,4],[1,-55],[-4,-42],[3,-77],[-18,-47],[-10,-52]],[[9343,7142],[20,-31],[38,-40]],[[6504,7738],[-2,245],[1,21],[48,2],[0,74]],[[7962,5163],[-26,57],[-14,17],[-159,150],[-28,33]],[[7735,5420],[-58,103],[-26,41],[-79,102],[-121,146],[-52,80],[-29,61],[-28,38],[-29,23],[-118,75],[-15,20],[-21,52],[-36,37],[-44,19],[-28,18],[-16,20]],[[5475,7491],[52,23],[24,17]],[[5551,7531],[25,29],[62,94],[19,38]],[[5657,7692],[5,-10],[62,-49],[16,-22],[25,-65],[30,-16],[98,-10],[31,-26],[3,-20],[-84,0],[1,-95],[-67,-10]],[[5777,7369],[-54,36],[-14,3],[-116,0],[-33,-44],[-1,-77]],[[5520,7897],[91,1],[-2,-71],[28,-3],[32,-15],[17,-25]],[[5686,7784],[13,-15]],[[5699,7769],[-42,-77]],[[5551,7531],[-31,38],[0,328]],[[5667,8229],[45,-1],[0,17],[29,-1]],[[5741,8244],[125,0]],[[5866,8244],[0,-117]],[[5866,8127],[0,-243],[1,-48]],[[5867,7836],[-61,-6],[-36,-8],[-34,-18],[-37,-35]],[[5686,7784],[18,35],[12,68],[-30,56],[-6,25],[-9,94]],[[5671,8062],[-13,134],[9,33]],[[6114,6497],[4,-45],[-20,-20],[4,-17],[31,-29],[34,-9],[23,18],[26,-18],[6,-25],[-2,-57],[-36,5],[1,-40],[-33,-78],[4,-42],[21,-16],[33,-2],[-10,-44],[-31,3],[-40,-5],[6,-34],[-59,-51],[-23,-11],[-31,-26],[13,-38],[-14,-40],[-39,-18],[-32,-8],[-35,-21],[4,-48],[28,-38],[24,-15],[28,33],[23,-17],[-6,-36],[16,-26],[-1,-25],[-16,-34],[22,-11],[18,-31],[36,22],[31,-12],[26,-39],[73,-75],[63,-19],[45,-30],[15,-18],[20,6],[29,-6],[13,22],[21,-5],[20,-23],[21,-7],[12,-45],[-1,-17],[-51,-27],[3,-38],[15,-25]],[[6446,5245],[-8,-2]],[[6438,5243],[-79,5]],[[6438,5243],[21,-11],[18,-31],[26,-22],[3,-20],[-8,-47],[-10,-21],[-29,-21],[-33,-84],[16,-20],[32,18],[-4,-38],[15,-20],[2,-33],[14,-28],[31,-24],[22,-36],[30,-27],[10,-35],[5,-62],[15,-16],[34,-11],[15,13],[5,31],[32,33],[39,18],[21,-9],[40,-2],[35,-55],[16,-4],[18,33],[-4,22],[4,43],[-5,45],[-11,31],[21,16],[16,-51],[15,-33],[39,-28],[44,-16],[30,-21],[31,20],[50,10],[45,-45],[-34,-12],[-5,-15],[20,-33],[12,1],[2,-50],[17,-38],[22,-32]],[[7178,4526],[15,-12],[-2,-22],[12,-30],[47,-45],[32,-92],[-30,-16],[14,-23],[65,-15],[7,-15],[-4,-35]],[[6245,3996],[-182,-74],[-113,-48],[-47,-10],[-41,-1],[-76,14],[-407,54]],[[3072,3997],[200,3]],[[3272,4000],[94,0]],[[778,1864],[0,269],[-2,162],[-4,249],[9,408],[-2,219],[-2,295],[0,353]],[[6167,2527],[-49,-40],[-46,-30],[-58,-27],[-1103,-380]],[[4911,2050],[-6,128],[-2,81],[0,169],[10,39],[43,103],[110,245],[37,95],[5,24],[-1,79],[18,29],[52,28],[11,17],[26,67],[6,41],[23,69],[22,39],[4,32],[-12,84],[1,16],[40,139],[7,34],[13,122],[7,39],[28,62],[26,100]],[[6446,5245],[25,10],[25,27],[17,34],[36,37],[2,90],[11,9],[168,0],[14,19],[0,136],[320,0],[77,13],[8,65],[-5,43],[-18,81],[2,292],[-1,39],[-8,32],[-26,30],[-19,8],[-88,8]],[[7735,5420],[-79,-56],[-34,-14],[-26,-3],[-174,9],[-38,-9],[-23,-44],[-4,-79],[-10,-20],[-23,-14],[-65,-14],[-20,-26],[-23,-60],[-12,-47],[-2,-86],[-21,-51],[8,-62],[-3,-22],[-35,-63],[6,-55],[38,-75],[15,-52],[-2,-39],[-30,-12]],[[3874,1941],[16,-8],[45,-5],[57,5],[118,31],[35,12],[15,46],[44,34],[46,-9],[17,17],[37,1],[8,-24],[18,-25],[14,-63],[-2,-34],[21,-56],[32,-45],[37,-16],[78,-1],[125,91]],[[4635,1892],[-4,-194],[232,-187],[163,-127],[68,-59],[84,-58],[-8,-25],[6,-23],[-2,-50],[28,-47],[30,-16],[25,-92],[2,-80],[-16,-81],[-6,-75],[-7,-32],[3,-57],[6,-29],[-3,-41],[5,-43],[-23,-28],[0,-48],[8,-35]],[[5226,465],[-72,-77],[-38,-58],[-18,-61],[-1,-65],[-6,-17],[-41,-30],[-46,-68],[-7,-32]],[[4997,57],[-189,3],[-193,1],[-385,4],[-384,6]],[[8634,3172],[306,82],[33,13],[47,28],[30,25],[300,260]],[[9467,2462],[-10,32],[-26,8],[-18,-34],[-26,-10],[-35,29],[-57,60],[-38,57],[-22,25],[-20,-11],[-25,17],[-4,34],[-32,18],[-9,19],[-1,31],[-11,20],[-33,12],[-17,20],[-26,-16],[-53,-13],[-34,35],[-53,-8],[-12,24],[-19,17],[-37,-12],[-20,10],[-12,27],[-16,15],[-38,-8],[-32,21],[8,38],[-11,26],[-33,20],[-4,30],[10,40],[-8,19],[-21,8],[-8,38],[-11,13],[-19,59]],[[8280,872],[-51,28],[-91,73],[-109,1],[-46,5],[-20,-5],[-92,-65],[-24,-9],[-51,4],[-61,28],[-35,32],[-24,13],[-170,66],[-10,8],[-8,63],[-17,10],[-132,42],[-19,3],[-111,1],[-90,13],[-199,8],[1,105],[8,48],[-7,23],[-28,15],[-33,-4],[-32,9],[-21,15],[-38,12],[-176,39],[-24,19],[-20,57],[-13,20],[-60,50],[-17,26],[-47,20],[-193,0]],[[6220,1645],[6,258],[7,224],[5,188],[-7,36],[2,30]],[[4635,1892],[122,88],[65,37],[89,33]],[[6220,1645],[-7,-307],[-4,-50],[-8,-19],[-98,-167],[-14,-35],[-28,-47],[-35,-38],[-27,-20],[-29,-6],[-94,21],[-24,9],[-128,70],[-37,11],[-31,-4],[-29,-17],[-20,-29],[-20,-75],[-6,-74],[-20,-50],[-10,-13],[-55,-41],[-17,-49],[-52,-71],[-80,-139],[-30,-31],[-15,-8],[-76,-1]],[[4783,8157],[69,-4],[38,-18],[24,-5],[148,-3]],[[5062,8127],[-1,-46],[-105,-131]],[[13290,2899],[5,-23],[21,-16],[43,14],[48,84],[28,17],[23,-3],[112,-44],[29,-15],[6,-25],[-18,-49],[3,-61],[58,-67],[61,-92],[11,-26],[20,-4],[34,24],[3,17],[-21,23],[0,15],[28,32],[23,3],[18,-10],[38,-43],[2,-46],[23,-16],[49,-4],[39,-23],[39,-13],[32,-28],[25,-3],[83,22],[28,-4],[66,-55],[26,5],[43,-2],[37,-25],[-9,-53],[16,-23],[66,-3],[30,27],[60,-9],[-6,-31],[-21,-35],[22,-27],[43,-2],[78,44],[49,9],[88,28],[64,10],[39,-12],[5,-35],[49,-53],[13,-36],[35,-27],[40,-12],[41,-5],[8,7],[24,55],[23,33],[11,29],[38,44],[30,5],[32,-21],[11,-29],[52,-28],[21,-28],[13,-2],[14,34],[34,20],[20,-7],[14,-31],[39,-64],[27,-27],[72,-14],[40,-30],[56,-15],[47,3],[109,25],[43,72],[33,47],[70,39],[23,17],[24,8],[40,-54],[-1,-30],[-46,-29],[-24,-29],[0,-13],[51,-46],[34,-38],[16,-46],[-22,-25],[-9,-40],[8,-46],[32,-13],[37,-32],[30,-1],[21,-15],[35,8],[17,17],[45,4],[57,14],[28,-2],[53,-18],[39,-30],[-1,-29],[14,-43],[-24,-80],[-2,-59],[2,-157],[28,-118],[3,-61],[-12,-21],[-30,-21],[-27,-35],[-27,-92],[-36,-44],[-26,-59],[-2,-37],[-17,-34],[-7,-30],[21,-79],[31,-47],[9,-47],[13,-22],[26,-7],[39,3],[30,-15],[21,-24],[18,-36],[38,-24],[28,8],[14,-6],[26,-34],[23,-69],[19,-44],[41,-38],[38,-26],[19,-23],[14,-30],[21,-66],[19,-11],[15,8],[18,27],[37,37],[27,3],[29,-38],[150,-235],[67,-38],[59,-9],[19,18],[1,24],[-9,63],[6,43],[12,25],[29,27],[49,14],[96,-31],[29,6],[21,34],[4,34],[14,27],[21,9],[36,0],[59,14],[43,-3],[19,-13],[11,-36],[26,-32],[41,10],[60,-29],[6,-43],[13,-28],[28,-22],[26,-6],[41,16],[29,21],[32,2],[22,-10],[32,-34],[39,2],[41,33],[43,9],[20,-16],[11,-20],[17,-73],[12,-24],[35,-23],[25,-6],[24,-20],[5,-22],[-96,-2],[-286,-3],[-201,-1],[-193,3],[-193,1],[-383,2],[-384,0],[-373,-3],[-192,3],[-224,-1],[-333,1],[-369,-5],[-411,-2],[-378,5],[-391,-1],[-391,2],[-381,1],[-1,-29],[-417,18]],[[5777,7369],[1,-85]],[[4783,8283],[127,3],[156,-1]],[[5816,8779],[-1,-133],[-2,-117]],[[5813,8529],[-84,0],[1,-83],[12,0],[0,-101],[-21,0],[-3,-51],[23,-8],[0,-42]],[[5667,8229],[-35,0],[-181,562]],[[5813,8529],[43,-1],[-1,-83],[24,0],[-1,-102],[68,0],[3,-100]],[[5949,8243],[-83,1]],[[6175,8782],[133,-3],[11,-3]],[[6210,8263],[-4,-23],[-34,-18],[0,-28],[-51,0]],[[6121,8194],[-79,0],[0,45],[-93,4]],[[5866,8127],[203,0],[31,-12]],[[6100,8115],[0,-151]],[[6100,7964],[-45,-28],[-48,-54],[-28,-23],[-40,-14],[-72,-9]],[[6100,8115],[20,-7],[1,86]],[[6551,8080],[-143,-88],[-62,-24],[-28,-1],[-163,8],[-55,-11]],[[6100,7964],[-38,-60],[-24,-7],[2,-155]],[[4783,8452],[68,-1],[42,-8],[175,-1]],[[7574,45],[-272,-8],[-194,19],[-191,-4],[-188,-1],[-298,-3],[-378,0],[-284,-2],[-383,4],[-389,7]],[[7414,8485],[298,79]],[[4429,3858],[-7,-6],[-19,-92]],[[3272,4000],[0,26],[17,23],[-1,105],[63,65],[55,83],[16,43],[29,48],[36,29],[12,18],[28,78],[19,17],[34,17],[-9,18],[-46,-10],[-35,18],[0,46],[39,-1],[12,18],[35,23],[-9,61],[52,-16],[42,11],[38,25],[32,-7],[48,117],[270,662],[61,148]],[[8429,8715],[0,-123],[10,-23]],[[6936,7594],[0,182]],[[6950,9392],[3,-25],[20,-4],[18,-38],[-10,-25],[3,-45],[-34,-59],[-13,-32],[3,-23],[21,-14],[8,-20],[-1,-50],[-11,-22],[5,-51],[67,-33],[10,-24],[-5,-42],[12,-20]],[[5671,8062],[-208,-21]],[[5463,8041],[-2,25],[-95,-12]],[[5520,7897],[-23,2],[-9,120],[-23,-2],[-2,24]],[[9345,8469],[26,-17],[-1,-17],[-46,-84],[-10,-31],[104,-20],[31,-15],[23,-25],[30,-47],[32,-56],[19,-44],[48,-65],[9,-18],[3,-38],[21,-88],[0,-30],[-28,-59],[-45,-68],[-16,-63],[9,-68],[7,-16],[26,-20],[47,-24],[43,-40],[11,-31],[-4,-17],[-30,-69],[0,-43],[37,-106],[14,-16],[60,-19],[31,-16],[33,-53],[51,-30],[39,-12],[21,-22],[13,-59],[19,-38],[-44,-51],[-8,-32],[32,-13],[20,5],[32,26],[30,34],[10,39],[19,27],[25,-1],[35,-22],[42,-75],[25,-18],[52,-10],[41,-26],[13,-18],[-24,-44],[15,-28],[30,-20],[38,2],[58,26],[25,-1],[21,-23],[9,-27],[-12,-41],[1,-49],[-5,-30],[-1,-83],[-14,-64],[-12,-24],[-37,-46],[-45,-72],[-27,-66],[-7,-49],[21,-57],[41,-43]],[[6840,7543],[95,-1]]],"transform":{"scale":[0.000054763745892661936,0.00003494638958518675],"translate":[-123.203101,46.76203799999999]},"objects":{"Geometry\\53-067":{"type":"GeometryCollection","geometries":[{"arcs":[[0,1,2,3,4]],"type":"Polygon","properties":{"GEOID":"530670123311"}},{"arcs":[[5,6,7,8]],"type":"Polygon","properties":{"GEOID":"530670125313"}},{"arcs":[[9,10,11,12,13,14]],"type":"Polygon","properties":{"GEOID":"530670123312"}},{"arcs":[[15,16,17,18]],"type":"Polygon","properties":{"GEOID":"530670120012"}},{"arcs":[[19,20,21,22]],"type":"Polygon","properties":{"GEOID":"530670124221"}},{"arcs":[[23,24,25,26,27]],"type":"Polygon","properties":{"GEOID":"530670116233"}},{"arcs":[[28,29,30]],"type":"Polygon","properties":{"GEOID":"530670119011"}},{"arcs":[[31,32,33,34]],"type":"Polygon","properties":{"GEOID":"530670119021"}},{"arcs":[[-34,35,36,37]],"type":"Polygon","properties":{"GEOID":"530670119022"}},{"arcs":[[38,39,40,41,42,43,44]],"type":"Polygon","properties":{"GEOID":"530670108012"}},{"arcs":[[45,46,-41,47]],"type":"Polygon","properties":{"GEOID":"530670108011"}},{"arcs":[[48,49,50,51,52,53]],"type":"Polygon","properties":{"GEOID":"530670122232"}},{"arcs":[[54,55,56,-50]],"type":"Polygon","properties":{"GEOID":"530670122242"}},{"arcs":[[57,58,59,60,61,62,63]],"type":"Polygon","properties":{"GEOID":"530670117211"}},{"arcs":[[64,65,66,67,-60,68]],"type":"Polygon","properties":{"GEOID":"530670107002"}},{"arcs":[[-68,69,70,71,72,-61]],"type":"Polygon","properties":{"GEOID":"530670117213"}},{"arcs":[[73,-37,74,75,76,77,-29]],"type":"Polygon","properties":{"GEOID":"530670119012"}},{"arcs":[[-36,-33,78,79,80,-75]],"type":"Polygon","properties":{"GEOID":"530670119023"}},{"arcs":[[81,82,83,84,85]],"type":"Polygon","properties":{"GEOID":"530670122252"}},{"arcs":[[-32,86,87,88,89,90,-79]],"type":"Polygon","properties":{"GEOID":"530670120022"}},{"arcs":[[91]],"type":"Polygon","properties":{"GEOID":"530670125102"}},{"arcs":[[92,93,94,95,96]],"type":"Polygon","properties":{"GEOID":"530670125322"}},{"arcs":[[97,98,-22,99,100]],"type":"Polygon","properties":{"GEOID":"530670124223"}},{"arcs":[[101,102,103,104,105]],"type":"Polygon","properties":{"GEOID":"530670120013"}},{"arcs":[[106,107,108,109,110]],"type":"Polygon","properties":{"GEOID":"530670116251"}},{"arcs":[[111,112,113,114,115,116,117,118,-47]],"type":"Polygon","properties":{"GEOID":"530670108023"}},{"arcs":[[-64,119,-116,120]],"type":"Polygon","properties":{"GEOID":"530670108021"}},{"arcs":[[121,122,123,-58,-121,-115]],"type":"Polygon","properties":{"GEOID":"530670108022"}},{"arcs":[[124,125,126,-66]],"type":"Polygon","properties":{"GEOID":"530670107003"}},{"arcs":[[-57,127,128,129,-51]],"type":"Polygon","properties":{"GEOID":"530670122241"}},{"arcs":[[-72,130,131,132,133,134]],"type":"Polygon","properties":{"GEOID":"530670116261"}},{"arcs":[[135,136,-132,137]],"type":"Polygon","properties":{"GEOID":"530670116262"}},{"arcs":[[138,139,-107,-136]],"type":"Polygon","properties":{"GEOID":"530670114211"}},{"arcs":[[-137,-111,140,141,-133]],"type":"Polygon","properties":{"GEOID":"530670116263"}},{"arcs":[[142,143,144,145,146]],"type":"Polygon","properties":{"GEOID":"530670114105"}},{"arcs":[[147,148,-139,149]],"type":"Polygon","properties":{"GEOID":"530670114212"}},{"arcs":[[150,151,152,153,154,155,156,-149,157]],"type":"Polygon","properties":{"GEOID":"530670114221"}},{"arcs":[[158,159,-155]],"type":"Polygon","properties":{"GEOID":"530670114222"}},{"arcs":[[160,161,162,163,164]],"type":"Polygon","properties":{"GEOID":"530670122261"}},{"arcs":[[-84,165,166,167,168,-162,169]],"type":"Polygon","properties":{"GEOID":"530670122262"}},{"arcs":[[-73,-135,170,171,-62]],"type":"Polygon","properties":{"GEOID":"530670117212"}},{"arcs":[[172,173,-5,174,175,176,177]],"type":"Polygon","properties":{"GEOID":"530670116283"}},{"arcs":[[178,179,180,181,-15,-173,182,-144]],"type":"Polygon","properties":{"GEOID":"530670116271"}},{"arcs":[[-14,183,-1,-174]],"type":"Polygon","properties":{"GEOID":"530670123313"}},{"arcs":[[184,185,-10,-182]],"type":"Polygon","properties":{"GEOID":"530670123323"}},{"arcs":[[186,187,-11,-186]],"type":"Polygon","properties":{"GEOID":"530670123322"}},{"arcs":[[188,-98,189,190]],"type":"Polygon","properties":{"GEOID":"530670124222"}},{"arcs":[[191,192,-168,193,194,195,-2,-184,-13]],"type":"Polygon","properties":{"GEOID":"530670123203"}},{"arcs":[[-81,196,-19,-106,197,-76]],"type":"Polygon","properties":{"GEOID":"530670120011"}},{"arcs":[[-18,198,199,200,-102]],"type":"Polygon","properties":{"GEOID":"530670111003"}},{"arcs":[[201,202,203]],"type":"Polygon","properties":{"GEOID":"530670124123"}},{"arcs":[[204,205,206,207,-9,208,209,210]],"type":"Polygon","properties":{"GEOID":"530670125314"}},{"arcs":[[-119,211,-42]],"type":"Polygon","properties":{"GEOID":"530670108024"}},{"arcs":[[-63,-172,212,213,214,-117,-120]],"type":"Polygon","properties":{"GEOID":"530670117221"}},{"arcs":[[215,-28,216,217,218]],"type":"Polygon","properties":{"GEOID":"530670116234"}},{"arcs":[[-127,219,-70,-67]],"type":"Polygon","properties":{"GEOID":"530670107004"}},{"arcs":[[-183,-178,220,-153,221,-145]],"type":"Polygon","properties":{"GEOID":"530670116282"}},{"arcs":[[-177,222,-159,-154,-221]],"type":"Polygon","properties":{"GEOID":"530670116281"}},{"arcs":[[-217,-27,223,224,225,226]],"type":"Polygon","properties":{"GEOID":"530670116243"}},{"arcs":[[227,-54,228,229]],"type":"Polygon","properties":{"GEOID":"530670122231"}},{"arcs":[[230,-190,-101,231,232]],"type":"Polygon","properties":{"GEOID":"530670124211"}},{"arcs":[[233,-23,-99,-189,234]],"type":"Polygon","properties":{"GEOID":"530670124224"}},{"arcs":[[-85,-170,-161,235]],"type":"Polygon","properties":{"GEOID":"530670122251"}},{"arcs":[[236,-203,-96,237,-7,238]],"type":"Polygon","properties":{"GEOID":"530670125321"}},{"arcs":[[239,-239,-6,-208]],"type":"Polygon","properties":{"GEOID":"530670125311"}},{"arcs":[[-171,-134,240,241,-213]],"type":"Polygon","properties":{"GEOID":"530670117222"}},{"arcs":[[-80,-91,242,243,-16,-197]],"type":"Polygon","properties":{"GEOID":"530670120021"}},{"arcs":[[244,-192,-12,-188]],"type":"Polygon","properties":{"GEOID":"530670123321"}},{"arcs":[[-238,-95,245,-209,-8]],"type":"Polygon","properties":{"GEOID":"530670125312"}},{"arcs":[[246,247,248,249,250]],"type":"Polygon","properties":{"GEOID":"530670106004"}},{"arcs":[[251,252,253,254,255,256]],"type":"Polygon","properties":{"GEOID":"530670109101"}},{"arcs":[[257,258,259,260,-253,261]],"type":"Polygon","properties":{"GEOID":"530670109102"}},{"arcs":[[-261,262,-254]],"type":"Polygon","properties":{"GEOID":"530670109104"}},{"arcs":[[263,264,265,266,-258]],"type":"Polygon","properties":{"GEOID":"530670105202"}},{"arcs":[[-267,267,268,269,270,-259]],"type":"Polygon","properties":{"GEOID":"530670105204"}},{"arcs":[[271,272,-44]],"type":"Polygon","properties":{"GEOID":"530670118211"}},{"arcs":[[-257,273,274,275,276]],"type":"Polygon","properties":{"GEOID":"530670109203"}},{"arcs":[[-160,-223,-176,277,-225,278]],"type":"Polygon","properties":{"GEOID":"530670116241"}},{"arcs":[[279,280,-25,281,-109]],"type":"Polygon","properties":{"GEOID":"530670116222"}},{"arcs":[[-142,282,-219,283,284,-241]],"type":"Polygon","properties":{"GEOID":"530670116231"}},{"arcs":[[285,286,287,288]],"type":"Polygon","properties":{"GEOID":"530670118213"}},{"arcs":[[289,290,291,292,293,294]],"type":"Polygon","properties":{"GEOID":"530670127302"}},{"arcs":[[295,296,297,-294]],"type":"Polygon","properties":{"GEOID":"530670127203"}},{"arcs":[[-100,-21,298,-97,-202,299]],"type":"Polygon","properties":{"GEOID":"530670124121"}},{"arcs":[[300,-233,301,302]],"type":"Polygon","properties":{"GEOID":"530670125302"}},{"arcs":[[303,304,305]],"type":"Polygon","properties":{"GEOID":"530670126203"}},{"arcs":[[306,-306,307,308,309]],"type":"Polygon","properties":{"GEOID":"530670126202"}},{"arcs":[[-30,-78,310,311,312,313]],"type":"Polygon","properties":{"GEOID":"530670118101"}},{"arcs":[[-297,314,315,316]],"type":"Polygon","properties":{"GEOID":"530670127204"}},{"arcs":[[-232,-300,-204,317]],"type":"Polygon","properties":{"GEOID":"530670124122"}},{"arcs":[[318,-86,-236,-165,319,320,321]],"type":"Polygon","properties":{"GEOID":"530670122212"}},{"arcs":[[322,323,324,325,-89]],"type":"Polygon","properties":{"GEOID":"530670121002"}},{"arcs":[[-82,-319,326]],"type":"Polygon","properties":{"GEOID":"530670122211"}},{"arcs":[[327,-322,328,329,-325,330]],"type":"Polygon","properties":{"GEOID":"530670122111"}},{"arcs":[[-298,-317,331,332,333]],"type":"Polygon","properties":{"GEOID":"530670127202"}},{"arcs":[[-278,-175,-4,334,335,-226]],"type":"Polygon","properties":{"GEOID":"530670116242"}},{"arcs":[[-256,336,-112,-46,337,-274]],"type":"Polygon","properties":{"GEOID":"530670109201"}},{"arcs":[[338,339,340,-304,-307,341]],"type":"Polygon","properties":{"GEOID":"530670126104"}},{"arcs":[[-295,-334,342,343]],"type":"Polygon","properties":{"GEOID":"530670127303"}},{"arcs":[[-166,-83,-327,-328,344,345]],"type":"Polygon","properties":{"GEOID":"530679901000"}},{"arcs":[[-141,-110,-282,-24,-216,-283]],"type":"Polygon","properties":{"GEOID":"530670116232"}},{"arcs":[[346,-248,347,348,349,350]],"type":"Polygon","properties":{"GEOID":"530670106005"}},{"arcs":[[351,-349,352,353,-268,-266]],"type":"Polygon","properties":{"GEOID":"530670105203"}},{"arcs":[[354,-156,-279,-224,-26,-281]],"type":"Polygon","properties":{"GEOID":"530670116223"}},{"arcs":[[355,-343,-333,356,357]],"type":"Polygon","properties":{"GEOID":"530670127201"}},{"arcs":[[358,-277,359,360,361]],"type":"Polygon","properties":{"GEOID":"530670110003"}},{"arcs":[[-157,-355,-280,-108,-140]],"type":"Polygon","properties":{"GEOID":"530670116221"}},{"arcs":[[-311,362,-362,363]],"type":"Polygon","properties":{"GEOID":"530670110002"}},{"arcs":[[-45,-273,364,365,-286,366]],"type":"Polygon","properties":{"GEOID":"530670118212"}},{"arcs":[[-336,367,368,-231,-301,369,370]],"type":"Polygon","properties":{"GEOID":"530670124202"}},{"arcs":[[-338,-48,-40,371,372,-275]],"type":"Polygon","properties":{"GEOID":"530670109202"}},{"arcs":[[-271,373,-113,-337,-255,-263,-260]],"type":"Polygon","properties":{"GEOID":"530670109103"}},{"arcs":[[374,375,376,377,378,-131,-71,-220,-126]],"type":"Polygon","properties":{"GEOID":"530670113001"}},{"arcs":[[379,380,381,-378]],"type":"Polygon","properties":{"GEOID":"530670113002"}},{"arcs":[[382,383,384,-158,-148,385]],"type":"Polygon","properties":{"GEOID":"530670114102"}},{"arcs":[[386,387,-147,388,-151,-385,389]],"type":"Polygon","properties":{"GEOID":"530670114103"}},{"arcs":[[390,391,392,393]],"type":"Polygon","properties":{"GEOID":"530670115001"}},{"arcs":[[394,395,396,-180,397]],"type":"Polygon","properties":{"GEOID":"530670115003"}},{"arcs":[[-222,-152,-389,-146]],"type":"Polygon","properties":{"GEOID":"530670114104"}},{"arcs":[[-393,398,399,-396]],"type":"Polygon","properties":{"GEOID":"530670115004"}},{"arcs":[[-400,400,-181,-397]],"type":"Polygon","properties":{"GEOID":"530670115005"}},{"arcs":[[-360,-276,-373,401,402]],"type":"Polygon","properties":{"GEOID":"530670118221"}},{"arcs":[[-402,-372,-39,403]],"type":"Polygon","properties":{"GEOID":"530670118222"}},{"arcs":[[-198,-105,404,-262,-252,-359,-363,-77]],"type":"Polygon","properties":{"GEOID":"530670110001"}},{"arcs":[[-201,405,406,407,-103]],"type":"Polygon","properties":{"GEOID":"530670111002"}},{"arcs":[[-129,408,409,410,-143,-388,411,412]],"type":"Polygon","properties":{"GEOID":"530670112003"}},{"arcs":[[-412,-387,413,414,-380,-377,415]],"type":"Polygon","properties":{"GEOID":"530670112002"}},{"arcs":[[416,-398,-179,-411]],"type":"Polygon","properties":{"GEOID":"530670112004"}},{"arcs":[[-244,417,418,-251,419,-199,-17]],"type":"Polygon","properties":{"GEOID":"530670111001"}},{"arcs":[[-357,-332,-316,420,421]],"type":"Polygon","properties":{"GEOID":"530670127205"}},{"arcs":[[422,-345,-331,-324,423]],"type":"Polygon","properties":{"GEOID":"530670121001"}},{"arcs":[[424,-424,-323,-88]],"type":"Polygon","properties":{"GEOID":"530670121003"}},{"arcs":[[-243,-90,-326,-330,425,426,427,428,-418]],"type":"Polygon","properties":{"GEOID":"530670121004"}},{"arcs":[[-399,429,430,-187,-185,-401]],"type":"Polygon","properties":{"GEOID":"530670123301"}},{"arcs":[[-3,-196,431,-368,-335]],"type":"Polygon","properties":{"GEOID":"530670124201"}},{"arcs":[[-52,-130,-413,-416,-376,432]],"type":"Polygon","properties":{"GEOID":"530670112001"}},{"arcs":[[-218,-227,-371,433,434]],"type":"Polygon","properties":{"GEOID":"530670124203"}},{"arcs":[[-270,435,436,437,438,-122,-114,-374]],"type":"Polygon","properties":{"GEOID":"530670104002"}},{"arcs":[[439,440,441,-437,442]],"type":"Polygon","properties":{"GEOID":"530670101004"}},{"arcs":[[443,444,445,446,447,-441,448,449]],"type":"Polygon","properties":{"GEOID":"530670103003"}},{"arcs":[[-212,-118,-215,450,451,452,-365,-272,-43]],"type":"Polygon","properties":{"GEOID":"530670117202"}},{"arcs":[[-366,-453,453,454,-339,455,-287]],"type":"Polygon","properties":{"GEOID":"530670126101"}},{"arcs":[[-313,456,457,-290,-344,-356,458]],"type":"Polygon","properties":{"GEOID":"530670127301"}},{"arcs":[[-456,-342,-310,459,460]],"type":"Polygon","properties":{"GEOID":"530670126105"}},{"arcs":[[-452,461,-284,-435,462,-454]],"type":"Polygon","properties":{"GEOID":"530670126103"}},{"arcs":[[-296,-293,463,464,465,466,-421,-315]],"type":"Polygon","properties":{"GEOID":"530670127101"}},{"arcs":[[467,-302,-318,-237,-240,-207,468]],"type":"Polygon","properties":{"GEOID":"530670125303"}},{"arcs":[[-308,-305,-341,-469,-206,469,470]],"type":"Polygon","properties":{"GEOID":"530670126204"}},{"arcs":[[471,-460,-309,-471,472,-465]],"type":"Polygon","properties":{"GEOID":"530670126201"}},{"arcs":[[-408,473,474,-264,-405,-104]],"type":"Polygon","properties":{"GEOID":"530670105101"}},{"arcs":[[-94,475,-210,-246],[-92]],"type":"Polygon","properties":{"GEOID":"530670125101"}},{"arcs":[[476,-123,-439]],"type":"Polygon","properties":{"GEOID":"530670104003"}},{"arcs":[[-350,-352,-265,-475]],"type":"Polygon","properties":{"GEOID":"530670105201"}},{"arcs":[[477,-351,-474,-407]],"type":"Polygon","properties":{"GEOID":"530670106003"}},{"arcs":[[-428,478,479,-444,480]],"type":"Polygon","properties":{"GEOID":"530670102001"}},{"arcs":[[481,482,-445,-480]],"type":"Polygon","properties":{"GEOID":"530670102002"}},{"arcs":[[-427,483,-230,484,485,-482,-479]],"type":"Polygon","properties":{"GEOID":"530670102003"}},{"arcs":[[486,487,488,-447]],"type":"Polygon","properties":{"GEOID":"530670103002"}},{"arcs":[[489,-485,-229,-53,490,-488]],"type":"Polygon","properties":{"GEOID":"530670103004"}},{"arcs":[[-442,-448,-489,491,-69,-59,-124,-477,-438]],"type":"Polygon","properties":{"GEOID":"530670104001"}},{"arcs":[[-491,-433,-375,-125,-65,-492]],"type":"Polygon","properties":{"GEOID":"530670107001"}},{"arcs":[[492,-249,-347,-478,-406]],"type":"Polygon","properties":{"GEOID":"530670106002"}},{"arcs":[[-473,-470,-205,493,-466]],"type":"Polygon","properties":{"GEOID":"530670126205"}},{"arcs":[[494,-394,-395,-417,-410]],"type":"Polygon","properties":{"GEOID":"530670115002"}},{"arcs":[[-403,-404,-367,-289,495,-291,-458,496]],"type":"Polygon","properties":{"GEOID":"530670118223"}},{"arcs":[[-163,497,-430,-392]],"type":"Polygon","properties":{"GEOID":"530670123302"}},{"arcs":[[-414,-390,-384,498]],"type":"Polygon","properties":{"GEOID":"530670114101"}},{"arcs":[[-496,-288,-461,-472,-464,-292]],"type":"Polygon","properties":{"GEOID":"530670126102"}},{"arcs":[[-329,-321,499,-55,-49,-228,-484,-426]],"type":"Polygon","properties":{"GEOID":"530670122112"}},{"arcs":[[-483,-486,-490,-487,-446]],"type":"Polygon","properties":{"GEOID":"530670103001"}},{"arcs":[[-429,-481,-450,500,501,-353,-348,-247,-419]],"type":"Polygon","properties":{"GEOID":"530670101001"}},{"arcs":[[-501,-449,-440,502]],"type":"Polygon","properties":{"GEOID":"530670101002"}},{"arcs":[[-502,-503,-443,-436,-269,-354]],"type":"Polygon","properties":{"GEOID":"530670101003"}},{"arcs":[[-320,-164,-391,-495,-409,-128,-56,-500]],"type":"Polygon","properties":{"GEOID":"530670122213"}},{"arcs":[[-434,-370,-303,-468,-340,-455,-463]],"type":"Polygon","properties":{"GEOID":"530670125301"}},{"arcs":[[503,-235,-191,-369,-432,-195]],"type":"Polygon","properties":{"GEOID":"530670123201"}},{"arcs":[[-498,-169,-193,-245,-431]],"type":"Polygon","properties":{"GEOID":"530670123202"}},{"arcs":[[-382,504,-386,-150,-138,-379]],"type":"Polygon","properties":{"GEOID":"530670113004"}},{"arcs":[[-420,-250,-493,-200]],"type":"Polygon","properties":{"GEOID":"530670106001"}},{"arcs":[[-214,-242,-285,-462,-451]],"type":"Polygon","properties":{"GEOID":"530670117201"}},{"arcs":[[-415,-499,-383,-505,-381]],"type":"Polygon","properties":{"GEOID":"530670113003"}},{"arcs":[[-364,-361,-497,-457,-312]],"type":"Polygon","properties":{"GEOID":"530670118102"}}]}}}