{"type":"Topology","arcs":[[[17861,5029],[106,-35],[0,67],[15,102],[3,70],[9,74],[16,27],[42,35]],[[18052,5369],[28,-40],[46,-42],[34,-24],[52,-17],[169,-52],[217,-4],[205,-43]],[[18803,5147],[-30,-59],[-5,-42],[2,-38],[9,-56],[-17,-51],[19,-30],[12,3],[10,-34],[11,-8],[-12,-46],[-1,-73],[-17,-4],[4,-31],[-30,-81],[-22,3],[-6,-36],[-28,-13],[-11,-42],[-32,-49],[22,-14],[-14,-24],[-6,-42],[-17,-31],[11,-19],[-10,-18],[10,-83],[0,-61],[12,-28],[-9,-24],[14,-26],[4,-26],[-11,-79],[8,-15],[1,-39],[-8,-16],[-5,-114],[-6,-6],[1,-43],[13,-13],[-10,-27],[14,-45],[-25,-16],[1,-35],[-21,-31],[-18,-53],[8,-49],[-4,-35],[-14,-38],[-8,-40],[-22,-20],[-11,-24],[2,-24],[-18,-47],[-9,-66],[2,-35],[-16,-68],[5,-23],[-12,-47]],[[18513,3016],[-249,2],[-176,5],[-3,154],[-62,2],[-2,163],[-64,2],[-100,1]],[[17857,3345],[11,16],[25,74],[22,7],[-10,47],[4,45],[11,22],[-7,16],[-25,7],[-12,38],[27,61],[16,8],[1,34],[-11,11],[-9,56],[23,8],[0,22],[17,36],[21,7],[20,39],[-2,34],[-10,34],[-3,62],[5,19],[24,5],[6,50],[-6,27],[-22,15],[23,24],[-27,100],[9,40],[14,14],[-16,41],[0,28],[31,19],[-3,62],[-12,-4],[-20,29],[12,40],[-27,71],[10,25],[0,24],[-32,40],[-23,9],[-20,43],[-22,5],[-22,106],[16,41],[-24,16],[-2,22],[33,17],[2,44],[-12,28]],[[20091,4812],[50,-12],[156,-47],[60,-15]],[[20357,4738],[19,-61],[-31,-10],[9,-22],[-3,-45],[-30,-36],[-6,-47],[30,-38],[-30,-44],[3,-30],[20,-20],[18,-31],[11,-31],[17,-16],[4,-43],[22,-55],[5,-76]],[[20415,4133],[-128,0],[-75,6],[-186,4]],[[20026,4143],[1,90],[9,20],[-1,39],[27,111],[2,32],[-4,113],[31,62],[0,202]],[[10809,6896],[66,24],[57,-38],[51,-77],[54,-35],[111,-15],[80,-2],[156,19],[90,5],[82,11],[67,14],[131,-55],[58,-75],[34,-27],[58,-7],[72,4],[129,39],[119,81],[64,-8],[56,-27],[48,-61],[74,-46],[172,20],[79,-8],[69,8],[61,16],[72,24],[70,43],[125,65],[57,11],[61,-10],[65,-23],[93,73],[55,-1],[28,-16],[46,-56],[93,19],[44,124],[63,0],[39,-25]],[[13758,6884],[2,-136],[39,0],[-1,-27],[-12,-35],[1,-32],[-23,-94],[3,-40],[39,-65],[59,-42],[66,-66],[57,-47],[62,-44],[22,-34],[2,-24],[-8,-29],[-39,-41],[-15,-22],[-5,-37],[25,-164],[5,-174],[21,-14],[103,-10],[-2,-53],[2,-64],[-26,-40],[-39,-25],[-30,-25],[-15,-50],[1,-25],[-12,-44],[-35,-49],[-30,-18],[-1,-17],[-44,-41],[-71,15],[-78,-38],[23,-14],[21,-23],[66,-22],[8,-8],[-12,-43],[-13,-22],[-3,-36],[21,-11],[-5,-24]],[[13887,5030],[-19,7],[-14,-8],[-20,7],[-20,31],[-31,17],[-52,8],[-30,13],[-33,36],[-35,25],[-49,15],[-39,-1],[-47,20],[-65,52],[-36,37],[-30,17],[-98,-20],[-37,9],[-41,37],[-61,78],[-60,34],[-59,59],[-49,66],[-55,42],[-117,76],[3,-58],[-20,-37],[-19,-4],[-19,26],[-1,45],[-6,30],[-175,-314],[-409,-253],[-551,49],[-479,40]],[[11114,5211],[-87,31],[-15,1],[-68,30],[-16,40],[-28,40],[-37,7],[-31,37],[11,27],[2,32],[13,22],[5,51],[25,25],[2,16],[-16,20],[4,55],[6,18],[31,39],[24,56],[2,16],[-21,37],[17,23],[-5,23],[4,37],[-19,71]],[[10917,5965],[-3,36],[16,63],[9,56],[8,11],[-1,49],[-8,28],[15,39],[4,55],[-13,34],[4,16],[-25,77],[-7,34],[-10,15],[-17,80],[-19,31],[-11,41],[-12,82],[-25,27],[-11,25],[-2,132]],[[18826,5415],[55,17],[19,1],[297,-40],[122,-1],[187,0]],[[19506,5392],[-2,-12],[-35,-59],[-14,-58],[-12,-31],[-31,-22],[-23,-40],[-17,-18],[-1,-19],[-17,-24],[3,-14],[-12,-37],[-15,1],[-3,-25]],[[19327,5034],[-460,99],[-3,5],[-61,9]],[[18803,5147],[17,27],[-1,36],[18,12],[20,50],[-10,21],[13,15],[-8,40],[5,14],[-25,16],[-6,37]],[[15271,6417],[159,62],[80,47],[49,31],[49,-7],[73,-57],[65,-45],[55,-53],[60,-98],[36,-90],[31,-42]],[[15928,6165],[-1,-102],[-23,-39],[17,-59],[-13,-8],[-13,-49],[-16,-10],[-4,-19],[52,-1],[0,-23],[-63,1],[2,-289],[-1,-23],[81,-12],[84,14],[92,-1],[2,-209]],[[16124,5336],[-317,-59],[-51,-21],[-63,-38],[-82,-68],[-26,26],[-62,71],[-37,38],[-10,5]],[[15476,5290],[18,30],[31,28],[27,12],[9,105],[13,52],[-46,39],[-9,21],[15,33],[0,29],[-23,42],[1,31],[10,23],[0,33],[-20,70],[-42,54],[0,24],[11,16],[51,23],[21,16],[17,52],[-13,16],[-24,-1],[-23,18],[-20,30],[-5,30],[-26,56],[-24,15],[-38,-2],[-4,30],[27,30],[8,17],[-12,60],[-19,31],[-40,2],[-76,62]],[[17300,5628],[10,32],[108,171]],[[17418,5831],[67,-55],[53,-33],[70,-25],[50,-8],[44,2],[88,41],[78,20],[100,36]],[[17968,5809],[0,-124],[-31,-10],[-19,2],[29,-50],[8,-36],[-15,-45],[5,-36],[-7,-26],[-26,-37],[-13,-39],[0,-36],[-17,-15],[-9,43]],[[17873,5400],[9,40],[-13,37],[-16,8],[-25,-7],[-95,-80],[-26,-13],[-88,-2],[-33,-6],[-38,2],[-109,25]],[[17439,5404],[-17,34],[-32,5],[-52,37],[1,14],[-34,52],[-14,34],[2,37],[7,11]],[[6652,2182],[74,8],[18,-18],[21,1],[26,16],[22,0],[47,-21],[58,-14],[52,5],[52,35],[24,10],[19,-4],[12,-42],[5,-39],[50,-38],[23,-32],[29,-27],[-5,-33],[10,-22],[26,-16],[21,-23],[11,2],[38,60],[18,13],[61,-14],[5,24],[30,23],[20,-12],[13,38],[13,6],[34,-20],[16,-19],[28,-9],[19,-35],[20,-14],[34,-13],[18,-17],[24,-6],[47,15],[18,12],[28,-12],[26,-31],[35,-14],[19,-14],[31,-11],[32,-2],[26,-13],[24,4],[35,-6],[19,-35],[74,-8],[8,-10],[-5,-30],[20,-11],[46,-3],[35,-61],[36,-4],[31,-17],[40,30],[25,-3],[35,4],[48,16],[38,5],[34,17],[36,57],[19,-3],[15,-61],[24,20],[22,-18],[36,39],[60,-24],[39,41],[25,18],[42,-2],[56,28],[19,-3],[26,40],[28,4],[17,-5],[14,21],[43,-16],[6,19],[36,-4],[27,-11],[14,4],[23,26],[50,-8],[23,-14],[37,-9],[20,20],[30,18],[29,-7],[43,40],[13,28],[23,14],[14,-13],[18,31],[20,6],[19,-26],[34,12],[14,16],[52,18],[15,-1],[32,27],[28,-2],[16,37],[52,29],[36,32],[30,11],[30,20],[33,-4],[0,13],[39,-17],[37,68],[1,43],[-20,53],[-12,54],[-4,62],[2,18],[-7,68],[7,63],[-9,32],[20,49],[-4,33],[35,48],[18,-14],[-5,-22],[62,-25],[-2,-24],[11,-20],[-17,-26],[-31,-8],[-3,-24],[14,-8],[75,16],[20,-23],[13,-41],[4,-63],[20,-50],[21,-41],[30,-40],[35,-26],[32,2],[42,-18],[10,-47],[12,-31],[27,-39],[-4,-27],[14,-35],[7,-51],[41,-21],[16,-52],[2,-37],[24,-31],[12,-31],[20,0],[33,-39],[33,-24],[18,-5],[36,7],[16,16],[29,-14],[13,11],[-17,56],[-23,41],[-11,-49],[-22,2],[-38,22],[-14,18],[-7,36],[4,53],[15,44],[10,44],[17,36],[3,24],[29,28],[33,59],[19,10],[25,34],[13,40],[5,43],[18,22],[10,43],[23,37],[4,56],[14,34],[40,43],[32,12],[37,112],[54,100],[19,51],[17,19],[-8,42],[17,28],[-11,31],[24,61],[1,30],[17,15],[-1,42],[17,14],[7,62],[19,23],[-7,52],[-16,36],[6,59],[-11,20],[-10,62],[-12,37],[-21,46],[3,20],[-17,14],[-8,55],[-41,38],[-18,4],[-6,16],[-48,24],[-16,16],[-22,89],[-37,40],[-55,50],[-19,76],[-7,18],[-23,6],[-38,-15],[-11,12],[-10,35],[-33,-9],[-46,40],[-61,18],[-56,54],[-15,49],[10,55],[-14,33],[-24,32],[-39,38],[-23,61],[6,33],[11,15],[64,25],[45,24],[67,18],[31,4],[42,-3],[22,12],[31,5],[48,21],[49,4],[39,34],[3,17],[19,6],[20,21],[-7,33],[-54,21],[411,448],[57,-6]],[[13887,5030],[-18,-19],[-14,-29],[4,-20],[28,0],[7,-22],[-14,-32],[-38,-12],[31,-27],[21,-49],[50,-11],[21,-16],[28,5],[16,-59],[37,2],[15,12],[46,-10],[27,-15],[27,7],[66,3],[37,7],[50,-1],[27,-7],[68,18],[19,11],[39,-13],[20,0],[114,19],[28,17],[33,-16],[18,-21],[23,-2],[43,19],[32,3],[24,-15],[52,-5],[14,6],[12,23],[14,1],[30,-49],[43,2],[37,-10],[27,-1],[31,-20],[13,4],[67,-60],[19,22],[14,70],[3,58],[24,9],[20,43],[32,38],[16,58],[53,-5],[45,24]],[[15368,4965],[15,-15],[40,-6],[-3,-28],[-65,-50],[-41,-37],[-44,-102],[-47,-34],[-15,-34],[0,-23],[21,-97],[13,-91],[-5,-35],[-40,-34],[-17,-41],[2,-66],[-12,-27],[-16,-3],[-22,-23],[-12,-59],[-4,-47],[-35,-71],[-8,-40],[0,-79],[-21,-55],[-4,-32],[-26,-70],[-2,-29],[10,-8],[48,2],[9,-9],[2,-28],[-25,-21],[-15,-39],[2,-25],[-13,-60],[-26,-48],[8,-37],[16,-18],[9,-46],[-9,-32],[6,-24],[28,-51],[19,-43],[-1,-14],[-54,-61],[-28,17],[-19,-2],[-14,-22],[-4,-27],[12,-37],[-7,-40],[-21,-54],[-19,-30],[-13,-73],[-25,-121],[13,-58],[76,-96],[15,-45],[31,-78],[5,-27],[32,-91],[15,-54],[-5,-42],[15,-17],[43,-29],[49,-24],[30,-51],[1,-37],[50,-49],[7,-41],[-7,-20],[20,-20],[22,-67],[25,-15],[36,-2],[27,29],[12,3],[31,-54],[38,-16],[17,-39],[14,3],[43,46],[17,-1],[40,-46],[52,-111],[13,-20],[28,-62],[18,-19],[38,-21],[21,-93],[13,-27],[39,-38],[46,-28],[11,-17],[0,-45],[5,-14],[36,16],[38,-35],[15,-6],[23,11],[25,-17],[6,-25],[-9,-20],[-18,-2],[6,-36],[65,-38],[22,-24],[13,-27],[35,-35],[41,-70],[35,-26],[21,-57],[14,-49],[-5,-24],[20,-41],[6,-72],[11,-18],[29,-27],[24,-59],[45,-1],[9,-44],[-7,-89],[8,-37],[15,-12],[-10,-43],[14,-25],[45,-31],[-5,-38],[40,-44],[12,-36],[12,-17],[11,-72],[-25,-55],[2,-18],[40,-29],[9,-19],[-2,-56]],[[16558,6],[-459,-1],[0,321],[-711,0],[-741,0],[-625,0],[-698,0],[-734,0],[0,9],[-254,1],[-680,0],[-398,-1],[-194,-3],[-517,1],[-261,-1],[-256,-4],[-258,1],[-217,1],[-312,1],[-717,3],[-572,1],[-233,0],[-554,3],[-230,0],[-29,-2]],[[6908,336],[19,29],[7,66],[15,22],[10,75],[-16,40],[-48,36],[-13,16],[13,33],[15,11],[80,34],[36,1],[12,6],[34,57],[8,24],[-2,108],[-12,30],[-50,33],[-16,-11],[-34,18]],[[6966,964],[-27,188],[-2,88],[-30,32],[-1,24],[8,39],[-27,-15],[-17,35],[14,33],[-6,48],[25,23],[87,-22],[27,-18],[10,16],[-10,28],[0,30],[-12,37],[-35,17],[-40,51],[-34,37],[-3,33],[-10,24],[3,51],[-10,9],[-21,-8],[-57,7],[-16,33],[-5,63],[-17,27],[0,28],[20,11],[36,52],[0,34],[9,24],[18,20],[-26,53],[-24,-13],[-17,23],[-35,28],[-85,27],[-4,21]],[[16255,6132],[155,15],[195,85],[59,32],[116,40],[140,28],[135,9],[122,-9],[127,-15],[83,-23],[33,-115],[-20,-92],[-32,-78]],[[17368,6009],[-10,63]],[[17358,6072],[-232,-119]],[[17126,5953],[-172,-87],[-55,-103]],[[16899,5763],[-45,2],[-24,18]],[[16830,5783],[-32,25],[-26,-5],[-15,8],[-133,101],[-68,28],[-9,-19],[23,-19],[-28,-59]],[[16542,5843],[-19,-39]],[[16523,5804],[-144,111]],[[16379,5915],[-103,80],[-21,13],[0,124]],[[19506,5392],[4,50],[20,50],[7,72],[-2,18],[11,39],[-1,18],[-25,58],[23,37],[8,37],[-1,25],[-14,14],[7,30],[-25,10],[1,139]],[[19519,5989],[122,133],[155,184],[34,52]],[[19830,6358],[3,-147],[46,0],[-15,-71],[-39,-6],[-14,15],[-24,-20],[2,-71],[22,-39],[5,-22],[-4,-31]],[[19812,5966],[-41,0],[-6,-8],[1,-303],[-1,-262]],[[19765,5393],[0,-135]],[[19765,5258],[-1,-192],[2,-155]],[[19766,4911],[-363,107],[-76,16]],[[4880,1516],[13,11],[15,31],[25,10],[28,-30],[34,-60],[52,-26],[25,7],[20,-10],[9,26],[-1,38],[77,59],[40,27],[99,104],[46,43],[55,38],[29,11],[52,28],[33,37],[26,0]],[[5557,1860],[-2,-168],[-14,-43],[-17,-15],[-99,-61]],[[5425,1573],[-123,-74],[-31,-49],[-5,-51],[7,-25],[-10,-38],[-24,-8],[-6,-18],[-67,25],[-39,31],[-61,35],[-28,5],[-48,-20],[-27,2],[-23,17],[-32,37],[-26,60],[-2,14]],[[16830,5783],[-20,-38],[-57,-64]],[[16753,5681],[-211,162]],[[17259,5318],[-3,75],[19,39],[9,29],[-32,24],[31,68],[0,81],[17,-6]],[[17439,5404],[10,-32],[1,-31],[19,-43],[0,-51],[-12,-36],[-21,-28]],[[17436,5183],[-3,-34],[-21,-25],[-28,-55],[-22,-19],[-27,-38],[-8,-33],[-162,4]],[[17165,4983],[-2,43],[16,54],[68,-5],[46,-13],[11,9],[-23,62],[-29,16],[-7,77],[11,49],[3,43]],[[16737,5294],[20,-39],[16,-19],[49,-19],[2,95],[86,0]],[[16910,5312],[75,0],[78,6]],[[17063,5318],[8,-72],[-10,-26],[-37,-54],[-7,-22],[-2,-63],[-6,-27],[-23,-62]],[[16986,4992],[-3,-62],[10,-59],[18,-59],[26,-61],[0,-35],[-21,-30],[-34,-12],[-28,-41],[-2,-35],[13,-34],[75,-85],[40,-66],[46,-36],[7,-17],[-4,-39],[-12,-45],[12,-46],[-14,-55],[19,-45],[2,-42],[13,-23],[-6,-56],[-6,-11]],[[17137,3998],[-14,17],[-69,11],[-10,12],[-18,51],[-22,32],[-42,28],[-157,59],[-42,22],[-14,49],[22,67],[14,23],[-6,56],[-12,33],[-52,38],[-11,20],[12,72],[14,36],[23,34],[-2,49],[22,45],[1,23],[19,28],[4,51],[9,27],[12,7],[10,67],[-4,31],[-22,44],[-22,63],[-15,4],[-26,40],[-10,59],[2,67],[6,31]],[[18051,5803],[49,-22],[71,-78],[107,-22],[89,7],[104,47],[98,69],[124,77]],[[18693,5881],[-2,-118],[5,-52],[22,-17],[26,-38],[15,-10],[-3,-38],[12,-17],[-3,-26],[8,-52],[10,-10],[27,-4],[-2,-26],[8,-14],[-3,-37],[13,-7]],[[18052,5369],[-31,42],[10,17],[1,44],[10,140],[9,191]],[[2591,11918],[3,-349],[-9,17],[-40,-21],[-38,-11],[-10,-13],[75,-40],[13,-13],[7,-62],[50,-76],[9,-18],[-13,-47],[-3,-90],[21,9],[60,1],[24,4],[166,55],[109,70],[64,25],[30,20],[15,1],[48,-54],[138,-89],[25,-12],[100,-30],[9,-7],[4,-49],[9,-7],[31,11],[65,63],[0,48]],[[3553,11254],[66,-92]],[[3619,11162],[-6,-137],[-5,8],[-54,0],[0,-164],[-59,0],[-1,-573],[-1,-328],[0,-466],[1,-270],[-479,-1],[-46,-2],[-300,-1],[-150,1],[-26,2],[-197,0],[-379,6]],[[1917,9237],[-49,252],[-3,179],[64,129],[71,81],[-35,399],[-17,211],[-50,38],[-38,61],[-102,77],[-41,17],[-89,91],[-60,167],[-8,122],[-54,47],[-80,5],[-47,65],[1,90],[-140,204],[-44,188],[0,138],[15,122],[42,88],[63,81],[21,19],[73,10],[91,-46],[18,-12],[97,-104],[64,-47],[29,-12],[40,5],[56,26],[57,18],[72,-1],[116,20],[46,-3],[55,-35],[51,-12],[51,16],[42,61],[66,-6],[87,-52],[40,-10],[59,-7],[44,1]],[[5340,2279],[14,-46],[32,-51],[144,-141],[20,-36],[7,-30],[0,-60]],[[5557,1915],[0,-55]],[[4880,1516],[-7,14],[-26,3],[-57,-72],[-53,-6],[-23,-14],[-23,-55],[0,-31],[9,-55],[2,-39],[-22,-8],[-21,21],[-42,28],[-44,36],[-42,11],[-23,-15],[-39,-62],[-21,52],[-35,19],[-8,17],[-3,91],[65,64],[67,59],[88,96],[8,53],[9,169],[16,46],[24,21],[35,14],[28,1],[33,24],[27,42],[14,42],[26,51],[37,48],[30,18],[56,5],[23,-7],[54,-26],[29,-2],[58,20],[53,23],[116,59],[42,8]],[[5338,2340],[82,-1],[73,45],[47,20],[70,40],[38,6],[18,-6],[22,8],[19,-6],[37,-49],[20,-48],[27,3],[43,-23],[61,17],[23,-1],[45,20],[31,8]],[[5994,2373],[-17,-37],[-41,-3],[-27,-17],[-33,-52],[22,-33],[11,-34],[5,-71],[33,-27],[-3,-53],[-128,4],[-90,0],[-104,-93],[-52,-39],[-13,-3]],[[5340,2279],[-2,61]],[[16986,4992],[18,-3],[71,-1],[90,-5]],[[17436,5183],[29,-8],[153,-70],[210,-65]],[[17828,5040],[33,-11]],[[17857,3345],[-92,-5],[1,167],[-66,1],[2,150],[-49,4],[-80,1],[1,327],[-258,2],[-110,4],[-10,-29],[-16,-19],[-21,-8],[-31,1],[-58,-38],[-32,-30],[-29,-1],[22,50],[47,34],[16,20],[28,7],[15,15]],[[16523,5804],[-58,-123]],[[16465,5681],[-92,24],[-69,53],[75,157]],[[16753,5681],[-7,-18],[-50,-71],[-14,-51],[-27,-39]],[[16655,5502],[-70,23],[25,51],[-72,55]],[[16538,5631],[-48,37],[-25,13]],[[16655,5502],[-34,-47],[-3,-27]],[[16618,5428],[-134,-25]],[[16484,5403],[2,155],[15,-5],[37,78]],[[17126,5953],[-111,-207],[-28,-64]],[[16987,5682],[-64,-131]],[[16923,5551],[-93,72]],[[16830,5623],[69,140]],[[16923,5551],[-48,-100],[-14,-12]],[[16861,5439],[-68,17],[-39,-3]],[[16754,5453],[14,66],[8,-2],[54,106]],[[16754,5453],[-136,-25]],[[17358,6072],[-182,-434],[-113,-233],[-6,-27]],[[17057,5378],[-9,3]],[[17048,5381],[3,46],[-9,22],[1,59],[-12,25],[-27,105],[-17,44]],[[17048,5381],[-137,40]],[[16911,5421],[-50,18]],[[16911,5421],[-1,-109]],[[16737,5294],[-8,47],[5,23],[-3,41],[16,17],[7,31]],[[17063,5318],[-8,36],[2,24]],[[17057,5378],[202,-60]],[[17873,5400],[-20,-29],[-2,-34],[8,-76],[-20,4],[-5,-17],[-4,-51],[2,-45],[12,-36],[-16,-58],[0,-18]],[[17968,5809],[59,4],[24,-10]],[[15368,4965],[22,55],[27,85],[25,30],[38,7],[19,42],[-23,60],[0,46]],[[16124,5336],[360,67]],[[18513,3016],[604,-1],[-1,-487],[-1,-224],[285,0],[0,-319],[27,0],[1,-492],[1,-179],[134,0],[37,-42],[27,-53],[57,-61],[22,-46],[13,-37],[9,-76],[14,-23],[4,-31],[27,-38],[33,-39],[23,-70],[30,-61],[13,-50],[32,-57],[24,-2],[42,-13],[37,-3],[33,4],[27,-66],[38,-52],[40,-31],[15,-21],[5,-22],[42,-59],[35,-33],[3,-57],[7,-22],[0,-45],[15,-49],[10,-58],[3,-67],[-3,-29]],[[20277,5],[-302,0],[-744,0],[-55,0],[-1032,0],[-482,0],[-615,0],[-489,1]],[[20743,4817],[195,-2]],[[20938,4815],[-1,-148]],[[20937,4667],[-65,1]],[[20872,4668],[-130,2]],[[20742,4670],[1,147]],[[20938,4815],[0,82]],[[20938,4897],[130,-1],[0,81]],[[21068,4977],[66,0],[-2,-42],[0,-197],[18,-13]],[[21150,4725],[184,-140],[28,-41],[-37,15],[-98,54],[-78,26],[-47,12],[-96,14],[-69,2]],[[2591,11918],[19,-23],[70,-45],[98,-39],[101,-8],[38,71],[49,10],[69,-75],[58,-89],[40,-131],[72,-39],[76,-34],[50,-45],[75,-10],[65,-79],[82,-128]],[[5994,2373],[69,-3],[23,8],[53,-15],[37,6],[13,-33],[-36,-61],[10,-26],[59,8],[168,-11],[100,-5],[62,4],[25,-29],[36,-15],[40,-1],[-1,-18]],[[6966,964],[-64,55],[-72,71],[-70,78],[-16,60],[-20,117],[-14,32],[-26,26],[-57,25],[-56,45],[-36,16],[-76,-38],[-53,41],[-20,6],[-8,18],[-57,9],[-23,34],[-45,-12],[-22,18],[-22,-36],[-41,-53],[-14,-12],[-19,28],[-23,11],[-32,-12],[-24,7],[-40,-18],[-35,19],[-16,-5],[-63,-6],[-18,8],[-61,-14],[-35,13],[1,24],[-10,18],[-18,-18],[19,-50],[40,-43],[-63,-9],[-6,-8],[-36,7],[-31,0],[-9,11],[-29,92],[-41,32],[-61,-9],[-36,14],[-26,-1],[-22,-13],[-29,9],[-6,22]],[[13758,6884],[128,0],[55,-20],[100,-29],[99,-46],[108,-43],[71,-60],[108,-27],[56,-44],[47,-53],[48,-83],[18,-38],[66,-52],[55,-20],[50,-40],[27,-34],[61,13],[75,-27],[12,21],[32,-37],[26,22],[31,7],[10,19],[34,-15],[25,17],[37,7],[5,-23],[59,19],[31,36],[29,18],[10,45]],[[17368,6009],[12,-173],[38,-5]],[[23122,4487],[-4,161],[19,90],[42,168],[41,131],[41,155],[-88,116],[-116,23],[-109,-4],[-117,48],[-75,12]],[[22756,5387],[-43,-1],[-186,-29],[-107,-39],[-131,-67],[-123,-70],[-143,-96],[-101,-80],[-115,-83],[-89,-51],[-55,-23],[1,-66],[61,19],[128,57],[24,-36],[14,-38],[26,-50],[42,-52],[49,-67],[43,-64],[22,-80],[-15,-78],[-24,-60],[-29,-59],[-5,-25],[13,-76],[21,-68],[39,-76],[40,-119],[13,-131],[3,-99],[4,-30]],[[22133,3650],[-36,-26],[-71,58],[-31,41],[-28,48],[9,52],[-15,44],[-50,47],[-46,72]],[[21865,3986],[-83,155],[-48,101],[-47,52],[-43,30],[8,27],[19,7],[30,27],[12,26],[-2,14],[-32,42],[-15,30],[-28,152]],[[21636,4649],[2,104],[-10,84],[4,23],[54,27],[2,13],[-13,87],[-65,325],[-48,174],[-74,216],[-73,134],[-91,79],[-137,90],[-89,119],[-111,145],[-85,143],[-58,105],[85,188],[5,407]],[[20934,7112],[47,31],[2,114],[-9,17],[0,55],[-30,1],[-87,-31],[-97,-62],[-73,-69],[-112,-47],[-96,0],[-115,-57],[-109,-98],[-122,-155],[-97,-141],[-66,-103],[-78,-114],[-62,-95]],[[19519,5989],[-62,-52],[-96,-85],[-76,-53],[-72,-30],[-100,22],[-73,0],[-105,-31],[-41,25],[-65,4],[-67,81],[-28,15],[-41,-4]],[[16255,6132],[-99,-9],[-93,0],[-68,12],[-67,30]],[[10809,6896],[-54,-12],[-70,-8],[-83,-14],[-92,0],[-103,48],[-72,5],[-66,23],[-43,80],[-51,36],[-53,-7],[-69,-21],[-65,-3],[-46,25],[-37,46],[-125,2],[-188,66],[-48,26],[-52,107],[-53,51],[-91,39],[-77,58],[-119,95],[-72,133],[-46,142],[-22,109],[-14,57],[-54,72],[-61,50],[-69,25],[-97,-7],[-81,3],[-66,67],[-29,27],[-93,57],[-116,85],[-120,93],[-84,61],[-79,64],[-185,124],[-61,30],[-57,35],[-74,53],[-33,38],[-49,78],[-21,20],[-42,19],[-54,11],[-51,31],[-46,72],[-58,24],[-83,11],[-73,-2],[-65,-97],[-61,-75],[-71,-41],[-66,0],[-86,33],[-61,29],[-50,51],[-21,45],[-27,73],[-26,57],[-52,39],[-65,25],[-69,35],[-83,25],[-173,44],[-75,76],[-117,161],[-101,57],[-60,1],[-69,-47],[-70,-27],[-86,-12],[-148,90],[-124,172],[-74,67],[-57,61],[-67,56],[-79,40],[-67,16],[-54,79],[-49,64],[-71,102],[-79,37],[-67,43],[-79,69],[-90,89],[-98,90],[-82,23],[-54,91],[-85,48],[-55,57],[-73,52],[-86,58],[-52,38],[-54,13],[-66,1],[-65,29],[-53,31],[-61,74]],[[1917,9237],[16,-88],[-20,-152],[-71,-93],[-150,-22],[-91,-18],[-35,-29],[-16,-65],[-1,-86],[64,-349],[47,-163],[44,-97],[94,-126],[-4,-92],[-34,-164],[-29,-167],[-51,-182],[-113,-74],[-64,-103],[-80,-117],[-121,-14],[-141,175],[-154,36],[-93,-165],[42,-219],[69,-170],[43,-275],[107,-134],[144,30],[122,-2],[17,-65],[37,-115],[57,-128],[-21,-145],[88,-168],[93,-110],[54,-180],[24,-117],[-50,-124],[-42,-139],[-36,-267],[7,-317],[74,-264],[81,-205],[12,-290],[39,-241]],[[1875,3437],[30,-156],[-17,-83],[-73,-30],[-235,51],[-102,-25],[-113,-78],[-73,-201],[2,-158],[52,-177],[166,-62],[233,119],[165,94],[82,-165],[-1,-131],[-115,-124],[26,-98],[47,-162],[61,-88],[-1,-157],[-117,-234],[3,-143],[79,-125],[148,-9],[97,160],[55,135],[51,-44],[25,-61],[26,-86],[16,-70],[0,-139],[-74,-146],[-32,-95],[7,-129],[55,-105],[86,-24],[87,56],[10,-21],[-24,-121],[15,-60],[14,-87],[-28,-59],[-9,-78],[79,-1],[70,82],[114,-90]],[[2762,312],[-93,-4],[-88,-2],[-168,0],[-807,-8],[-17,36],[-22,73],[-25,53],[-6,29],[-50,28],[-60,58],[-42,48],[-74,75],[-40,57],[-100,177],[-29,59],[-51,170],[-22,121],[-2,53],[-7,35],[5,43],[1,110],[6,39],[17,186],[-18,19],[-35,22],[-70,51],[-101,91],[-32,45],[-25,23],[-71,86],[-23,42],[-20,21],[-48,109],[-13,45],[-33,91],[-13,60],[-16,90],[-4,51],[-6,26],[-11,95],[-3,43],[2,121],[6,130],[20,94],[-3,45],[5,58],[22,144],[25,70],[-22,128],[-12,148],[-16,173],[23,143],[31,120],[50,132],[77,137],[0,41],[-20,117],[-3,173],[11,165],[23,87],[-54,85],[-63,138],[-65,178],[-43,213],[-148,169],[-36,68],[-57,102],[-44,123],[-47,179],[-13,115],[-78,117],[-47,125],[-46,210],[-19,142],[-5,167],[9,154],[31,151],[89,207],[126,221],[75,85],[90,77],[107,75],[119,55],[101,33],[74,9],[-48,162],[-59,189],[-10,51],[-8,77],[1,73],[9,152],[16,150],[28,134],[63,147],[51,108],[98,151],[88,123],[-71,214],[-23,116],[-24,130],[9,170],[-87,91],[-101,97],[-55,119],[-71,158],[-46,132],[-39,158],[4,137],[-35,57],[-45,101],[-29,108],[-9,55],[-45,187],[-11,125],[0,77],[8,90],[29,170],[28,107],[57,156],[79,129],[151,201],[180,144],[103,68],[95,43],[130,46],[-17,36],[-45,35],[-40,61],[-67,93],[-60,116],[-47,141],[-36,159],[-5,142],[7,136],[23,132],[21,78],[64,99],[160,0],[226,-116],[43,-27],[594,-304],[889,-456],[612,-315],[573,-295],[740,-382],[591,-307],[739,-383],[591,-308],[886,-462],[737,-385],[443,-232],[736,-387],[442,-233],[922,-294],[768,-245],[768,-247],[460,-148],[1074,-347],[901,-190],[751,-159],[881,339],[578,222],[749,287],[466,178],[836,318],[6,12],[448,188],[576,242],[434,182],[347,148],[735,313],[417,176],[0,-2],[586,226],[-5,-1129],[-4,-1129],[9,-871],[0,-975],[0,-787],[3,-562],[158,3],[258,53],[38,-6],[60,-29],[41,-56],[38,-93],[32,-90],[12,-81],[-2,-95],[-30,-131],[-67,-242],[-1,-37],[18,-46],[106,-130],[-277,0]],[[5338,2340],[6,164],[11,70],[19,39],[21,28],[50,54],[18,36],[34,128],[5,43],[-42,-25],[-81,4],[-48,-4],[-13,11],[-5,31],[-13,6],[-50,5],[-11,7],[-51,-7],[-40,4],[-40,13],[-38,34],[-49,7],[-35,-8],[-56,22],[-54,-5],[-22,-22],[-26,-10],[-52,16],[-34,-2],[-14,-18],[-24,-11],[10,-34],[-40,-4],[-26,6],[-34,-8],[-48,23],[-31,19],[-27,65],[-34,17],[-21,29],[-21,41],[-16,-11],[-18,61],[-39,50],[-47,34],[-23,3],[-23,26],[-40,22],[-31,40],[-17,-78],[-11,-4],[-19,-35],[-21,21],[-21,6],[-28,-30],[-23,-8],[-27,14],[-32,-16],[-31,-1],[-31,-13],[-18,-15],[-43,4],[-76,-20],[-12,7],[-22,48],[-106,88],[-20,-8],[-23,-24],[-19,-48],[-9,-10],[-118,-15],[-27,-18],[-43,7],[-85,40],[-21,1],[-46,-26],[-36,-13],[-26,2],[-29,23],[-43,21],[-21,-2],[-41,23],[-30,36],[-46,21],[-26,115],[21,15],[-81,95],[-14,66],[-19,28],[-16,1],[-5,24],[-26,20],[-20,40],[-21,20],[1,53],[-31,55],[-16,12],[-4,21]],[[2717,3872],[11,56],[4,94],[15,52],[-18,23],[-4,20],[27,33],[9,27],[-11,32],[1,24],[24,31],[4,60],[-21,21],[-1,22],[29,46],[-18,36],[24,28],[3,33],[-24,35],[-27,28],[-12,60],[-4,51],[-7,15],[7,52],[-20,55],[-16,30],[-21,62],[21,32],[0,31],[33,81],[25,32],[34,69],[42,40],[25,-26],[14,-40],[-9,-44],[2,-28],[29,-12],[15,33],[13,-1],[36,-32],[34,8],[-4,14],[-48,29],[-22,44],[27,68],[0,60],[-14,21],[18,11],[-2,27],[-18,35],[37,14],[13,22],[21,-17],[-1,-21],[60,-24],[-3,-17],[38,4],[22,-8],[2,31],[17,7],[27,-3],[-17,-36],[2,-28],[45,-40],[17,45],[9,-5],[9,-40],[18,-30],[-4,-47],[16,-10],[20,13],[5,38],[15,34],[28,9],[41,36],[69,-15],[29,3],[57,-24],[20,4],[50,63],[45,-7],[50,-28],[37,-15],[5,-9],[11,-62],[32,-16],[26,-38],[36,-21],[12,-25],[29,-27],[4,-18],[2,-65],[4,-32],[12,-17],[7,-39],[14,-21],[23,42],[22,51],[13,9],[12,-16],[25,-71],[13,-6],[15,13],[29,56],[16,78],[24,13],[19,36],[13,10],[39,-12],[15,6],[14,-65],[19,-17],[25,2],[47,18],[16,18],[9,32],[12,16],[30,16],[25,-4],[16,-29],[57,-17],[17,-14],[15,8],[11,27],[26,17],[23,48],[10,10],[-12,23],[3,26],[31,51],[12,59],[-10,28],[8,19],[-4,65],[-6,30],[17,19],[8,25],[31,30],[14,28],[17,4],[33,36],[29,13],[53,-47],[12,-48],[38,-21],[17,24],[25,106],[23,44],[31,18],[34,47],[12,47],[23,49],[20,79],[7,50],[17,26],[7,25],[21,26],[6,-18],[27,-19],[44,42],[22,43],[17,48],[17,16],[-2,22],[18,26],[23,48],[3,38],[12,4],[5,34],[58,-34],[59,-27],[54,-34],[40,-51],[26,-13],[58,-57],[13,-36],[16,-22],[42,-29],[22,2],[23,-93],[10,-16],[38,-17],[-16,-23],[-9,-45],[27,-13],[6,-36],[-24,-36],[6,-28],[-11,-18],[9,-24],[-6,-40],[5,-39],[28,-17],[25,-1],[36,-26],[11,25],[18,-36],[21,-11],[16,24],[43,3],[8,20],[19,0],[24,14],[24,42],[30,5],[20,45],[43,-24],[18,-2],[32,13],[10,-15],[21,-8],[56,49],[26,70],[-5,62],[-19,63],[-1,32],[8,17],[-2,48],[11,18],[-4,20],[-20,19],[-12,26],[17,36],[0,29],[11,64],[31,19],[12,24],[39,43],[35,19],[38,14],[37,51],[28,-4],[11,17],[71,44],[31,-55],[-13,-27],[14,-68],[55,42],[13,35],[36,12],[13,12],[15,-8],[13,-22],[35,-37],[9,-31],[15,-2],[21,-30],[13,-42],[15,2],[36,-19],[2,-22],[-15,-31],[16,-16],[39,1],[23,-23],[12,2],[29,30],[20,-17],[23,16],[26,-18],[16,-22],[-2,-19],[-41,-50],[-15,-26],[-28,-17],[-6,-51],[-15,-20],[-19,-44],[3,-18],[36,-2],[41,-11],[18,-12],[78,-25],[12,-20],[3,-48],[20,-48],[8,-33],[-2,-101],[15,-18],[19,30],[20,17],[82,58],[75,36],[31,18],[114,77],[37,33],[49,-24],[1,-30],[23,-2],[41,-12],[36,-52],[61,-46],[55,-92],[27,-71],[10,-53],[-6,-60],[25,25],[33,-4],[21,-25],[30,-14],[19,10],[15,24],[14,-4],[23,-34],[-14,-24],[-24,-11],[23,-59],[33,-32],[26,-37],[6,-28],[-10,-66],[-15,-18],[44,-5],[75,44],[76,116],[306,154],[362,78],[134,-7],[199,29],[69,-106],[157,-15],[148,-11],[152,35],[166,136],[134,-15],[190,101],[84,113],[23,48],[43,74],[57,46],[51,50],[151,31],[104,17],[36,13],[134,0]],[[1875,3437],[146,0],[20,-8],[16,30],[0,22],[42,5],[0,30],[9,33],[50,-28],[15,-13],[25,3],[18,-15],[33,14],[18,-15],[20,1],[16,34],[-1,61],[7,36],[-10,31],[12,58],[15,35],[3,39],[8,23],[32,14],[14,-7],[44,-3],[38,11],[20,25],[61,46],[31,7],[30,16],[46,2],[2,-48],[21,-23],[30,-8],[11,27]],[[6908,336],[-209,-8],[-262,2],[-378,-3],[-134,1],[-125,-2],[-130,1],[-192,10],[-100,5],[-194,3],[-263,27],[-127,-7],[-382,1],[-264,-11],[-245,-1],[-256,-16],[-252,-3],[-161,-18],[-238,0],[-122,-1],[-112,-4]],[[23122,4487],[-76,4],[-125,-3],[-94,0]],[[22827,4488],[20,101],[20,56],[-112,-1],[2,498],[-1,245]],[[20547,4686],[72,-14],[123,-2]],[[20872,4668],[0,-347]],[[20872,4321],[-139,0],[-13,-12],[-43,-2],[-1,-65],[-30,-3]],[[20646,4239],[-55,1],[-28,-18],[-17,0],[1,464]],[[20808,5144],[0,144],[62,-1],[6,-11],[63,1],[0,31]],[[20939,5308],[80,1],[49,-3],[0,-18],[42,-9],[45,9]],[[21155,5288],[-9,-10],[-43,-89],[-8,-25],[-26,-32],[-1,-155]],[[20938,4897],[0,80],[-130,2]],[[20808,4979],[0,165]],[[20679,5156],[15,-12],[114,0]],[[20808,4979],[-65,0]],[[20743,4979],[-65,1]],[[20678,4980],[1,176]],[[20511,3632],[7,39],[-13,32],[-25,25],[-21,55],[1,47],[-7,44],[-16,50],[-5,34],[23,34],[7,23],[20,17],[23,60],[27,23]],[[20532,4115],[267,-86],[122,-47],[95,-30],[179,-59],[133,-47],[49,-25],[81,2],[-3,187],[1,144],[5,43],[17,22],[37,25],[11,17],[25,79]],[[21551,4340],[15,-64],[19,-25],[54,-46],[23,-27],[117,-151],[15,-41],[71,0]],[[22133,3650],[-2,-10],[53,-54],[20,-28],[-46,-43],[6,-12],[-6,-30],[3,-37],[-9,-29],[10,-27],[-10,-60],[-15,-14],[4,-62],[-10,-33],[-3,-89],[163,-112],[77,-63],[143,-36],[262,-63]],[[22773,2848],[-8,-203],[4,-325],[-24,-339],[8,0],[1,-333],[-6,-326],[7,-333],[22,-342],[8,-314],[-12,-330],[-147,-3],[-103,5],[-612,0],[-933,0],[-328,-1],[-304,1]],[[20346,5],[8,32],[35,38],[13,38],[55,39],[10,37],[31,28],[6,23],[54,24],[49,53],[-1,20],[26,31],[7,33],[-5,26],[16,8],[18,34],[40,23],[8,23],[24,2],[15,32],[22,1],[15,62],[30,53],[-3,52],[15,35],[0,21],[-11,18],[3,19],[19,27],[18,12],[21,62],[-6,38],[15,28],[38,40],[1,22],[31,49],[3,15],[22,0],[9,30],[16,21],[-14,35],[16,16],[-4,50],[12,57],[25,53],[-6,38],[12,49],[-1,30],[16,25],[-2,23],[6,36],[23,41],[-5,15],[-22,4],[-16,64],[-23,3],[-23,47],[-19,17],[-8,58],[-40,33],[-15,76],[-18,20],[-21,5],[5,37],[10,14],[-17,29],[17,37],[-16,19],[14,24],[21,6],[-3,22],[9,23],[-24,8],[-21,29],[4,65],[-7,15],[3,41],[17,25],[-2,23],[-29,63],[-45,38],[13,38],[17,28],[3,35],[27,25],[5,28],[-8,15],[2,108],[15,49],[3,45],[-22,12],[-9,-20],[-35,-31],[-18,3],[-17,23],[-6,37],[-34,7],[-18,22],[3,24],[-36,47],[-14,34],[-22,22],[-15,55],[-10,13],[-30,9],[-8,20],[14,13],[14,57],[-18,13],[-18,-19],[-15,9],[-48,46],[-4,19],[14,24],[0,21],[33,46],[15,31],[-27,8],[-16,23],[6,31],[-6,29],[5,20],[-4,37],[-27,44],[-15,65]],[[20872,4321],[56,1],[9,-11],[-1,-154],[120,-1],[8,8],[-12,33],[-3,32],[15,91],[20,29],[54,-2],[20,-7],[18,42],[-4,36],[70,-67],[24,-12],[51,-4],[26,24],[42,-7],[4,-32],[38,-2],[44,84],[8,28],[63,-72],[9,-18]],[[20532,4115],[29,51],[53,54],[32,19]],[[21150,4725],[9,7],[332,0],[39,-20],[16,-24],[6,-72],[37,-26],[1,54],[46,5]],[[19765,5393],[132,1],[195,-2],[37,6],[20,21],[8,51],[104,1],[65,-24]],[[20326,5447],[-3,-82],[8,-36],[-13,-32],[2,-48],[30,-13],[-2,-25],[12,-14],[8,-45],[-1,-56],[7,-35],[-7,-80],[24,-34]],[[20391,4947],[-83,1],[-23,12],[-93,114],[-28,26],[-399,158]],[[20326,5447],[15,71],[25,38],[0,45],[5,39]],[[20371,5640],[177,1],[392,-5]],[[20940,5636],[-1,-328]],[[20679,5156],[-4,59],[-28,84],[-15,27],[-84,65],[-19,4],[-98,1],[-19,4],[-86,47]],[[20391,4947],[16,-48],[-8,-52],[-16,-34],[1,-32],[-28,-19],[1,-24]],[[20091,4812],[-325,99]],[[22827,4488],[-54,-1],[1,-171],[-2,-330],[29,-367],[-8,-160],[-16,-163],[2,-325],[-6,-123]],[[19327,5034],[11,-28],[-3,-41],[11,-23],[-1,-27],[28,-16],[15,-27],[-25,-53],[-15,-21],[-3,-36],[-19,-17],[-61,-12],[-6,-12],[0,-53],[-10,-28],[-21,-5],[-18,-25],[0,-41],[10,-21],[1,-31],[-12,-41],[9,-40],[186,-94],[15,-4],[83,-44],[114,-57],[170,-89],[240,-5]],[[20415,4133],[12,-35],[-6,-27],[-29,-43],[-9,-46],[21,-28],[0,-65],[7,-31],[-4,-19],[-21,-10],[-6,-23],[23,-41],[41,-17],[-2,-38],[17,-25],[27,-1],[16,-13],[9,-39]],[[20346,5],[-69,0]],[[20357,4738],[99,-25]],[[20456,4713],[91,-27]],[[20678,4980],[-98,0],[0,-58],[-12,-1],[-11,-22],[-73,1],[-3,9],[-35,-1],[2,-108],[14,-21],[6,-50],[-12,-16]],[[20934,7112],[-291,-191],[-128,-406],[6,-24],[36,-62],[19,-16],[27,2],[39,-40],[7,-31],[-4,-30],[-27,-55]],[[20618,6259],[-27,-3],[-40,-40],[-5,-18],[11,-31],[-12,-25],[-17,12],[-27,-21],[-28,-56]],[[20473,6077],[-27,30],[-15,-14],[-24,35],[-110,1],[-2,-28],[-32,-5],[-94,-26],[-26,-12],[-29,-38],[-15,-10],[-54,6],[-54,-13],[-32,-31],[-22,-6],[-125,0]],[[21155,5288],[17,11],[58,6],[-31,49],[0,256],[-23,25],[-236,1]],[[20940,5636],[-1,91],[-4,18],[-42,59],[-58,61],[-34,41],[-35,58],[-24,55],[-24,81],[-13,64],[-25,43],[-37,26],[-25,26]],[[20371,5640],[33,89],[35,63],[5,18],[-9,163],[26,37],[12,67]],[[20743,4979],[0,-162]]],"transform":{"scale":[0.00008342249668789284,0.00004423328442674488],"translate":[-124.848974,47.866673000000006]},"objects":{"Geometry\\53-009":{"type":"GeometryCollection","geometries":[{"arcs":[[0,1,2,3,4]],"type":"Polygon","properties":{"GEOID":"530090014002"}},{"arcs":[[5,6,7,8]],"type":"Polygon","properties":{"GEOID":"530090018001"}},{"arcs":[[9,10,11,12,13]],"type":"Polygon","properties":{"GEOID":"530090006001"}},{"arcs":[[14,15,16,17]],"type":"Polygon","properties":{"GEOID":"530090016002"}},{"arcs":[[18,19,20,21]],"type":"Polygon","properties":{"GEOID":"530090015002"}},{"arcs":[[22,23,24,25,26]],"type":"Polygon","properties":{"GEOID":"530090013003"}},{"arcs":[[27,-12,28,29,30,31,32]],"type":"Polygon","properties":{"GEOID":"530090006002"}},{"arcs":[[33,34,35,36,37,38,39,40,41]],"type":"Polygon","properties":{"GEOID":"530090007001"}},{"arcs":[[42,43,44,45,46,47,48,-16]],"type":"Polygon","properties":{"GEOID":"530090016001"}},{"arcs":[[49,50,51]],"type":"Polygon","properties":{"GEOID":"530090003004"}},{"arcs":[[52,53,-39]],"type":"Polygon","properties":{"GEOID":"530090008003"}},{"arcs":[[54,-27,55,56,57]],"type":"Polygon","properties":{"GEOID":"530090012003"}},{"arcs":[[58,59,60,61,62]],"type":"Polygon","properties":{"GEOID":"530090011003"}},{"arcs":[[63,64,-18,-2,65]],"type":"Polygon","properties":{"GEOID":"530090014001"}},{"arcs":[[66,67,68,69]],"type":"Polygon","properties":{"GEOID":"530099400002"}},{"arcs":[[70,71,-50,72]],"type":"Polygon","properties":{"GEOID":"530090003003"}},{"arcs":[[73,74,-71,75]],"type":"Polygon","properties":{"GEOID":"530090003001"}},{"arcs":[[76,-57,77,78,-5,79,-62]],"type":"Polygon","properties":{"GEOID":"530090014003"}},{"arcs":[[-41,80,81]],"type":"Polygon","properties":{"GEOID":"530090007002"}},{"arcs":[[-81,-40,-54,82,83,84]],"type":"Polygon","properties":{"GEOID":"530090008002"}},{"arcs":[[-84,85,86,87]],"type":"Polygon","properties":{"GEOID":"530090008001"}},{"arcs":[[-37,88,89,90,91]],"type":"Polygon","properties":{"GEOID":"530090009001"}},{"arcs":[[-91,92,93,94]],"type":"Polygon","properties":{"GEOID":"530090009003"}},{"arcs":[[-83,-53,-38,-92,-95,95,-86]],"type":"Polygon","properties":{"GEOID":"530090009002"}},{"arcs":[[-36,96,97,98,-89]],"type":"Polygon","properties":{"GEOID":"530090010001"}},{"arcs":[[-90,-99,99,100,-93]],"type":"Polygon","properties":{"GEOID":"530090010002"}},{"arcs":[[-94,-101,101,-59,102]],"type":"Polygon","properties":{"GEOID":"530090011001"}},{"arcs":[[103,104,-58,-77,-61]],"type":"Polygon","properties":{"GEOID":"530090012002"}},{"arcs":[[-26,105,-78,-56]],"type":"Polygon","properties":{"GEOID":"530090013002"}},{"arcs":[[-25,106,-66,-1,-79,-106]],"type":"Polygon","properties":{"GEOID":"530090013001"}},{"arcs":[[107,-21,108,-87,-96,-103,-63,-80,-4,109,110,-30]],"type":"Polygon","properties":{"GEOID":"530090015001"}},{"arcs":[[111,112,113,114,115]],"type":"Polygon","properties":{"GEOID":"530090021002"}},{"arcs":[[116,117,118,119,-113]],"type":"Polygon","properties":{"GEOID":"530090021001"}},{"arcs":[[120,-67]],"type":"Polygon","properties":{"GEOID":"530099400001"}},{"arcs":[[-72,-75,121,-33,122,-51]],"type":"Polygon","properties":{"GEOID":"530090003002"}},{"arcs":[[123,-22,-108,-29,-11]],"type":"Polygon","properties":{"GEOID":"530090006003"}},{"arcs":[[-100,-98,-104,-60,-102]],"type":"Polygon","properties":{"GEOID":"530090011002"}},{"arcs":[[-35,124,-23,-55,-105,-97]],"type":"Polygon","properties":{"GEOID":"530090012001"}},{"arcs":[[125,126,127,128,129,130,-44,131,-64,-107,-24,-125,-34,132,-19,-124,-10,133,-68,-121,-70,134,135,136]],"type":"Polygon","properties":{"GEOID":"530099901000"}},{"arcs":[[-13,-28,-122,-74,137,138]],"type":"Polygon","properties":{"GEOID":"530090024001"}},{"arcs":[[139,-138,-76,-73,-52,-123,-32,140,-136]],"type":"Polygon","properties":{"GEOID":"530090024002"}},{"arcs":[[-69,-134,-14,-139,-140,-135]],"type":"Polygon","properties":{"GEOID":"530090024003"}},{"arcs":[[-133,-42,-82,-85,-88,-109,-20]],"type":"Polygon","properties":{"GEOID":"530090007003"}},{"arcs":[[-126,141,142]],"type":"Polygon","properties":{"GEOID":"530090023011"}},{"arcs":[[143,-115,144,145,146]],"type":"Polygon","properties":{"GEOID":"530090020021"}},{"arcs":[[147,148,149,-118,150,151]],"type":"Polygon","properties":{"GEOID":"530090020013"}},{"arcs":[[152,-152,153,154,155]],"type":"Polygon","properties":{"GEOID":"530090020012"}},{"arcs":[[156,157,158,-128,159,160,161]],"type":"Polygon","properties":{"GEOID":"530090023023"}},{"arcs":[[-146,162,-158,163]],"type":"Polygon","properties":{"GEOID":"530090023021"}},{"arcs":[[-114,-120,164,-129,-159,-163,-145]],"type":"Polygon","properties":{"GEOID":"530090020022"}},{"arcs":[[165,166,167,-47]],"type":"Polygon","properties":{"GEOID":"530090017012"}},{"arcs":[[168,169,170,-148,-153,171]],"type":"Polygon","properties":{"GEOID":"530090019011"}},{"arcs":[[-132,-43,-15,-65]],"type":"Polygon","properties":{"GEOID":"530090016003"}},{"arcs":[[-168,172,-6,173,-48]],"type":"Polygon","properties":{"GEOID":"530090017011"}},{"arcs":[[-143,174,-160,-127]],"type":"Polygon","properties":{"GEOID":"530090023012"}},{"arcs":[[-17,175,-8,176,-162,177,-110,-3]],"type":"Polygon","properties":{"GEOID":"530090018003"}},{"arcs":[[178,179,-147,-164,-157,-177,-7]],"type":"Polygon","properties":{"GEOID":"530090023022"}},{"arcs":[[-172,-156,180,-179,-173,-167]],"type":"Polygon","properties":{"GEOID":"530090019012"}},{"arcs":[[-131,181,182,183,-45]],"type":"Polygon","properties":{"GEOID":"530090017022"}},{"arcs":[[-130,-165,-119,-150,184,185,-182]],"type":"Polygon","properties":{"GEOID":"530090019021"}},{"arcs":[[186,-183,-186,-170]],"type":"Polygon","properties":{"GEOID":"530090019013"}},{"arcs":[[-184,-187,-169,-166,-46]],"type":"Polygon","properties":{"GEOID":"530090017021"}},{"arcs":[[-155,187,-116,-144,-180,-181]],"type":"Polygon","properties":{"GEOID":"530090020011"}},{"arcs":[[-154,-151,-117,-112,-188]],"type":"Polygon","properties":{"GEOID":"530090021003"}},{"arcs":[[-49,-174,-9,-176]],"type":"Polygon","properties":{"GEOID":"530090018002"}},{"arcs":[[-185,-149,-171]],"type":"Polygon","properties":{"GEOID":"530090019022"}}]}}}