{"type":"Topology","arcs":[[[15431,9844],[99,-51],[78,5],[12,-12],[2,-73],[7,-50],[-141,2],[-1,-64]],[[15487,9601],[-52,1]],[[15435,9602],[-10,66],[0,79],[6,97]],[[15613,9231],[14,30],[-3,50],[60,49],[35,54],[83,118]],[[15802,9532],[34,13],[49,40],[83,92]],[[15968,9677],[48,-42],[14,-19],[12,-40],[0,-226]],[[16042,9350],[-15,-2],[-26,-27],[-60,-12],[-37,-31],[-65,-18],[-24,5],[-40,22],[-31,-34],[-40,-66],[-91,42]],[[15613,9229],[0,2]],[[15006,9253],[5,99],[68,12],[35,28],[33,8],[34,47]],[[15181,9447],[53,-5],[29,-24],[41,-50],[10,-26]],[[15314,9342],[-55,-98],[10,-26],[48,-56],[14,-26]],[[15331,9136],[-91,83],[-11,29],[-28,-36],[-68,63],[-13,-31]],[[15120,9244],[-23,-27]],[[15097,9217],[-35,19],[-56,17]],[[15438,9857],[30,-14],[149,-18],[71,-15],[71,-28]],[[15759,9782],[135,-53],[32,-16],[42,-36]],[[15802,9532],[-86,59],[-22,5],[-70,2]],[[15624,9598],[-137,3]],[[15431,9844],[7,13]],[[15285,8996],[39,-12],[55,23]],[[15379,9007],[40,-19],[51,13],[74,90],[15,60],[54,78]],[[16042,9350],[14,-52],[54,-90]],[[16110,9208],[-80,-56],[-58,-69],[-21,-41]],[[15951,9042],[-20,-29],[-51,-24],[-39,9],[-38,-18],[-78,29],[-110,-35],[-15,-18]],[[15600,8956],[-20,-23]],[[15580,8933],[-71,54],[-21,1],[-43,-22],[-41,-54],[-12,1],[-30,-89],[-45,-74]],[[15317,8750],[2,136],[-12,68],[-22,42]],[[16174,9935],[23,-48],[25,-17],[112,-24],[67,-31],[66,-23],[96,-2],[27,4],[16,-25],[38,-9]],[[16644,9760],[37,-31],[68,-47]],[[16749,9682],[-18,-25],[-34,-2],[-69,30],[-117,-20],[-25,-54],[4,-55],[-19,-29]],[[16471,9527],[-100,-121],[-62,-61],[-61,-47],[-81,-54]],[[16167,9244],[-57,-36]],[[15968,9677],[37,43],[64,52],[26,16],[3,29],[-27,38],[7,18],[42,34],[54,28]],[[15366,9337],[-52,5]],[[15181,9447],[-76,55]],[[15105,9502],[-18,36],[58,26],[38,37],[62,-10],[-3,-14],[47,-10],[7,17],[109,-11],[17,-32],[10,-69],[-7,-61],[-19,-73],[-38,15],[-2,-16]],[[15236,9115],[33,-29],[30,36],[25,-50],[28,7]],[[15352,9079],[17,-60],[10,-12]],[[15285,8996],[-59,107],[10,12]],[[15739,8675],[36,26],[66,144],[17,18],[51,36],[45,11],[11,12],[14,73],[1,41],[-29,6]],[[16167,9244],[20,-37],[23,-92],[-7,-26],[10,-53],[-57,27],[-5,-174],[-25,-49],[29,-20],[-29,-54],[-61,31]],[[16065,8797],[5,14],[-33,12],[-55,2],[-18,-6],[-129,-133],[-25,-7],[-35,-40],[-36,36]],[[15120,9244],[127,-117],[-11,-12]],[[15317,8750],[-60,-95],[-28,22],[-30,-51],[-27,-32]],[[15172,8594],[-19,20],[4,36]],[[15157,8650],[37,58]],[[15194,8708],[43,80],[7,33],[6,84],[-10,33],[-63,77],[-53,38],[-29,34],[-59,45]],[[15036,9132],[61,85]],[[15331,9136],[16,-35]],[[15347,9101],[5,-22]],[[15675,8935],[29,-27],[7,-22],[33,-45],[-50,-81],[26,-18],[-34,-53],[32,-23]],[[15718,8666],[-69,-49],[-64,40]],[[15585,8657],[37,-8],[22,30],[-14,10],[17,27],[-28,19],[49,80],[-22,-3],[-122,-44]],[[15524,8768],[49,51],[29,37],[16,37],[45,42],[12,0]],[[15697,11089],[0,-29],[24,-45],[6,-49],[12,-32],[26,-41],[15,-76],[-183,-138],[-41,-28]],[[15556,10651],[-29,5],[-78,-69],[-44,-15],[-38,27],[-14,57],[-16,23],[-102,86],[-8,17],[-5,79],[-15,11],[-96,-14],[-46,-12],[-86,4],[-27,-5],[-51,-27],[-40,5]],[[14861,10823],[-15,35],[-3,28],[-32,12],[-37,35]],[[14774,10933],[130,136],[106,35],[190,30],[30,-14],[151,-41],[139,-14],[86,-4],[91,28]],[[15436,8744],[43,-16],[22,2],[23,38]],[[15585,8657],[-66,30],[-40,-15],[-62,43],[19,29]],[[16687,11450],[150,54],[30,21],[26,31],[93,98],[30,43],[45,47],[6,44],[15,47],[21,30],[19,57],[31,52],[-2,71],[-11,25],[-28,12],[-49,-10],[-32,-14],[-16,40],[-16,-55],[-12,7],[-4,99],[13,32],[-11,50],[7,27],[-14,16],[-11,68],[-11,22],[-9,49],[-48,153],[-1,27],[-13,28],[-8,64],[17,28]],[[16894,12713],[1114,-3],[549,1]],[[18557,12711],[15,-48],[36,-40],[22,-9],[131,-134],[43,-37],[59,-71],[72,-128],[11,-57],[15,-47]],[[18961,12140],[-23,-54],[-19,-83],[-31,-40],[-101,-84],[-87,-79],[-24,-27],[-22,-11],[-160,-50],[-47,-7],[-71,-17],[-156,-22],[-112,-25],[-143,-25],[-110,-4],[-50,-6],[-92,-27],[-123,-52],[-46,-27],[-62,-51],[-28,-31],[-59,-94],[-71,-161],[-6,-46],[7,-55],[26,-45]],[[17351,11017],[-12,-70],[2,-64],[-13,-92],[5,-22],[-15,-32]],[[17318,10737],[-78,-55],[-51,-26]],[[17189,10656],[-150,-68],[-64,-22],[-117,-76],[-96,-38],[-72,-56],[-24,-11],[-66,-10],[-19,-44]],[[16581,10331],[-37,59],[-2,45],[34,195],[-3,55],[-28,89],[-2,25],[17,134],[-2,33],[-13,37],[-13,62],[4,29],[20,57],[26,51],[67,57],[16,57],[25,60],[-3,74]],[[15556,10651],[-101,-75],[-191,-129],[-23,-21]],[[15241,10426],[-41,66],[-26,21],[-40,12],[-24,-13],[-65,-70],[-31,14],[-14,34],[-15,12],[-21,-9],[-22,-28],[-20,34],[-40,5]],[[14882,10504],[-14,21],[22,43],[-5,50],[-45,45],[7,30],[18,12],[27,42],[-12,49],[-19,27]],[[15697,11089],[145,55],[93,119],[-7,67],[-19,397],[72,221],[104,138],[236,134],[149,234],[111,129],[62,131]],[[16643,12714],[251,-1]],[[16687,11450],[-30,-14],[-231,-170],[-25,-26],[-22,-93],[-13,-30],[-27,-90],[-43,-36],[-43,-136],[-1,-53],[-11,-26],[-43,-31],[-44,-40],[-119,-29],[-22,-22],[-18,-79],[-12,-25],[-50,-38],[-21,-7],[-72,-3],[-23,59],[-83,7],[-11,-5],[-51,-87],[-17,-52],[29,-16],[-11,-45],[19,-26]],[[15692,10337],[-29,10],[-37,25],[-29,1],[-72,38],[-84,24],[-18,-2],[-35,-24],[-30,-10],[-67,6],[-50,21]],[[15094,9974],[6,174],[7,17],[149,126],[9,14],[-7,35]],[[15258,10340],[27,1],[19,21],[29,-3],[45,11],[43,35],[78,-9],[17,-15],[29,-1],[47,-24],[-8,-29]],[[15584,10327],[-143,54],[-30,-78],[-10,-42],[25,-10],[-9,-32],[21,-11],[-40,-87],[36,-44],[-4,-10]],[[15430,10067],[-48,-139],[2,-12]],[[15384,9916],[-19,3],[-269,-15]],[[15096,9904],[-2,70]],[[15929,10154],[20,-42],[116,-64],[109,-113]],[[15759,9782],[31,47],[21,43],[51,48],[46,15],[34,49],[28,27],[6,19],[-21,31],[-23,55],[-3,38]],[[15172,8594],[63,-101]],[[15235,8493],[-125,-181],[16,-28],[-12,-50]],[[15114,8234],[-31,10],[-97,-144],[-42,-76],[98,-62],[112,-66],[153,-122],[9,-4]],[[15316,7770],[8,-16],[45,-38],[26,17],[22,-77],[14,-34],[38,-27],[46,-9],[127,29],[57,35]],[[15699,7650],[8,-98],[-17,-51],[2,-35],[16,-61],[15,-27],[28,-26],[104,-67],[65,-35],[26,-23],[15,-26],[50,-20],[37,-26]],[[16048,7155],[-271,-26],[-122,-8],[-326,-17],[-290,-18]],[[15039,7086],[25,53],[-14,102],[-64,136],[-82,129],[-83,156],[-25,191],[41,197],[194,399],[6,34],[29,30],[45,63],[46,74]],[[15692,10337],[64,-13],[63,-34],[37,-40],[26,-39],[38,-31],[9,-26]],[[15438,9857],[-54,59]],[[15430,10067],[21,-2],[18,18],[37,-35],[30,28],[17,45],[-1,30],[58,132],[-34,13],[8,31]],[[15258,10340],[-14,23],[-3,63]],[[15580,8933],[-42,-83],[-24,14],[-29,-44],[-30,27],[-49,-82]],[[15406,8765],[-54,-89],[-117,-183]],[[14721,10066],[150,81]],[[14871,10147],[47,-95],[13,-4],[0,-58],[49,-2],[114,-14]],[[15096,9904],[-6,-203],[-15,-41],[-79,-26]],[[14996,9634],[-14,-4],[-93,112],[-97,31]],[[14792,9773],[33,86],[-18,65],[-57,99],[-29,43]],[[16581,10331],[-15,-33],[-93,-125],[-30,-55],[-48,-5],[-16,-12],[-35,-59],[-21,-22],[-71,-50],[-78,-35]],[[15435,9602],[17,-112]],[[15452,9490],[-7,-50]],[[15445,9440],[-20,-76]],[[15425,9364],[-11,-39],[-15,-10],[-33,22]],[[15105,9502],[-82,68],[-35,55],[8,9]],[[15235,8493],[27,-9],[62,61],[54,4],[26,49]],[[15404,8598],[27,-49],[29,-2]],[[15460,8547],[3,-41]],[[15463,8506],[-110,-14],[30,-184]],[[15383,8308],[-98,-18]],[[15285,8290],[-37,-7],[-27,43],[-18,14],[-46,-63],[-29,-48],[-15,4]],[[15113,8233],[1,1]],[[15460,8547],[72,1],[28,-7],[58,-35],[24,-28],[-9,-62],[-50,-33],[-64,-7]],[[15519,8376],[-3,0]],[[15516,8376],[-18,134],[-35,-4]],[[15285,8290],[4,-33],[-20,-28],[10,-16],[44,7],[-8,-26],[48,10],[22,-4],[40,-45],[57,52],[25,35],[103,-54]],[[15610,8188],[17,-34],[-94,-37],[21,-67],[-25,-59],[-51,-16]],[[15478,7975],[-24,21],[-84,64],[-30,12]],[[15340,8072],[-24,11],[-58,46],[-69,6],[-51,-7],[-29,26],[4,79]],[[15478,7975],[9,-18],[19,-80],[16,-36],[35,-40],[25,-10],[44,4],[29,-6]],[[15655,7789],[34,-48],[10,-91]],[[15316,7770],[7,16],[55,75],[-34,29],[-15,27],[-84,68],[49,15],[75,29],[-9,27],[-20,16]],[[14358,9131],[-2,-14],[-33,-11],[-7,-36],[15,-15],[-1,-33],[20,-8],[6,-25],[-17,-9],[42,-38],[49,26],[25,-14],[49,-82],[9,-3],[10,-52]],[[14523,8817],[-25,-12],[-100,-96],[-77,-55],[-17,-23],[-36,-80]],[[14268,8551],[-33,76],[-51,73],[-161,181]],[[14023,8881],[94,-10],[30,42],[37,31],[11,21],[-8,49],[-14,48],[32,36],[58,39],[62,-1],[17,12],[16,-17]],[[14770,9739],[22,34]],[[15006,9253],[-64,2],[-65,-12],[-48,-1],[-52,17],[-39,31],[-99,135],[-60,79]],[[14579,9504],[115,35],[-2,27],[78,173]],[[17351,11017],[69,-12],[61,2],[62,11],[98,30],[100,26],[142,10],[77,-34],[84,-44],[118,-85],[52,-46]],[[18214,10875],[20,-79],[27,-78],[41,-82],[11,-51],[0,-29],[30,-59],[53,-67]],[[18396,10430],[-227,-107],[-63,-33],[-76,-48],[-241,-167],[-39,-33],[-49,-61],[-165,-261]],[[17536,9720],[-27,17],[-10,71],[-8,18],[-88,72],[-23,34],[6,26],[81,142],[13,35],[-3,47],[-15,44],[-9,51],[-2,96],[13,66],[33,57],[16,45],[23,78],[-9,31],[-36,37],[-32,52],[-12,7],[-80,6],[-49,-15]],[[8572,12327],[36,28],[32,11],[38,-1],[50,-25],[95,-105],[177,-123],[52,-19],[49,26],[25,35],[68,144],[25,41],[23,15],[30,6],[152,-18],[37,-24],[29,-45],[26,-30],[34,-20]],[[9550,12223],[-75,-15],[-46,-34],[-29,-69],[-24,-43],[-13,-54],[-2,-71],[-10,-53],[-29,-89],[-13,-130],[-17,-36],[-5,-69],[-10,-38],[5,-27],[-8,-77],[-18,-30],[-37,-15],[3,-28],[43,-46],[16,-26],[19,-55],[28,-17],[38,5],[89,-5],[39,9],[-30,23],[81,-12],[19,-7],[30,-51],[9,-30],[20,-26],[38,-19],[43,-8],[76,24],[46,-8],[16,-18],[13,-48],[20,-18],[16,-32],[44,-32],[1,-29],[-10,-27],[16,-30],[29,-32],[61,-106],[60,-43],[-29,-73],[-45,-71],[-47,-126],[-22,-46],[-48,-78],[-2,-19],[11,-75],[0,-30],[-16,-109],[-52,-140],[-33,-38],[-89,-33],[-50,-41],[-33,-18],[-38,-7],[-77,-88],[-72,-101],[-88,-80],[14,-24],[-12,-33],[-43,-57],[-27,-10]],[[9294,9384],[-8,26],[-42,82],[-55,25],[-24,-5],[-25,10],[-32,29],[-19,2],[-18,24],[-71,34],[-30,-29],[-32,-78],[-31,-50],[-59,-55],[-84,-31],[-34,-37],[-29,-8],[-44,33],[-26,2],[-27,-10]],[[8604,9348],[-79,-19],[-31,38],[-20,48],[-24,38],[-20,17],[-37,63],[-24,72],[13,88],[-11,35],[-46,71],[-42,38],[-24,35],[-50,27],[15,34],[-6,20],[-44,43],[-2,29],[28,90],[-13,113],[-32,24],[-100,30],[-63,6],[-79,-22],[-31,-1],[-71,7],[-21,32],[-20,2],[-105,105],[-84,-23],[-23,-28],[-41,-23],[-34,14],[-19,41],[11,74],[23,63],[-32,65],[-6,44]],[[7460,10638],[31,24],[-11,71],[-35,20],[-34,-1],[-42,21],[17,54],[-31,-2],[13,27],[33,12],[30,-18],[24,30],[24,76],[39,29],[5,42],[33,30],[17,34],[6,32],[0,72],[35,3],[34,-9],[57,-32],[24,28],[-1,54],[25,39],[60,12],[82,2],[65,-19],[27,9],[39,-2],[12,9],[1,34],[-23,79],[10,16],[29,7],[28,31],[6,20],[-37,42],[-36,29],[3,35],[74,13],[25,14],[15,27],[-27,39],[-72,34],[-27,30],[4,16],[32,14],[28,0],[39,12],[15,17],[10,40],[-20,54],[-23,25],[29,16],[49,-9],[30,14],[16,34],[25,3],[23,46],[-1,21],[50,-9],[32,2],[47,-8],[64,-40],[59,-42],[35,-8],[47,37],[20,29],[50,51],[11,21],[34,94],[4,25],[-7,32],[-28,30],[-62,37],[-47,38]],[[14270,8544],[-2,7]],[[14523,8817],[29,4],[65,-33],[40,-13],[41,-5]],[[14698,8770],[36,7],[-9,-85],[72,-8],[37,-66],[38,-8],[25,24],[4,37],[26,21],[32,-5],[8,144]],[[14967,8831],[22,-5],[111,-4],[49,17],[13,-14],[-1,-69],[8,-25],[25,-23]],[[15039,7086],[-19,-41],[-35,-41],[-138,-86],[-175,-89],[-24,-10],[-75,-4]],[[14573,6815],[-6,139],[-13,44],[-39,62],[-35,31],[-153,113],[-47,46],[-61,76],[-34,56],[-34,78],[-26,91],[-9,59],[-3,95],[11,97],[15,60],[130,435],[16,74],[3,44],[-7,86],[-11,43]],[[14871,10147],[-44,87],[10,15],[58,-3],[31,27],[49,12],[39,-29],[123,135],[90,24],[14,11]],[[15347,9101],[30,23],[73,87],[-51,47],[42,52],[53,-11]],[[15494,9299],[31,-53],[1,-46],[-6,-65],[-68,-86],[-73,-42]],[[6055,11142],[-12,37],[-11,111],[14,53],[24,21],[-13,37],[-9,71],[14,42],[-41,12],[-23,74],[-35,60],[-61,73],[-13,3],[-28,66],[-49,96],[1,47],[-5,73],[-18,23],[60,16],[235,25],[160,19],[681,75],[17,284],[11,80],[38,42],[106,55],[11,11],[-13,27],[-48,4],[65,54]],[[7113,12733],[166,-3],[191,2],[328,1]],[[7798,12733],[92,-55],[42,-48],[20,-43],[21,-83],[11,-134],[31,-90],[55,-67],[93,-131],[50,33],[44,15],[200,22],[37,19],[25,26],[16,33],[17,61],[20,36]],[[7460,10638],[-71,-9],[-46,-22],[-95,-15],[-57,-26],[-19,-29],[-68,-46],[-64,-32],[-30,-23],[-91,-103],[-39,-21],[-16,-23],[10,-35],[-26,-170],[1,-50],[-16,-10],[-66,-10],[-48,-15],[-63,-31],[-107,-144],[-23,-25],[-19,-38],[-20,-60],[-77,-106],[-44,-95],[-103,-92]],[[6263,9408],[-89,42],[-65,43],[-26,-15],[-87,-26],[-66,-4],[-39,9],[-80,-34],[-156,-81],[-37,-31],[-3,28],[12,36],[-28,97],[71,90],[-9,71],[0,65],[9,100],[22,129],[28,113],[-16,80],[-40,110],[-15,129],[15,107],[25,74],[24,40],[7,-43],[-27,-53],[-10,-77],[8,-35],[22,-8],[2,29],[27,66],[22,15],[121,3],[57,-18],[77,-47],[58,-57],[49,-2],[61,24],[47,28],[89,20],[30,24],[-60,84],[-64,137],[-12,20],[-43,27],[-53,47],[-28,60],[7,62],[43,100],[-15,37],[15,46],[-12,19],[-31,10],[-45,44]],[[7798,12733],[252,-3],[932,4],[272,-1],[460,-7],[70,4],[507,-2],[539,5],[306,1],[117,8],[138,-2],[482,-2]],[[11873,12738],[-10,-69],[1,-37],[17,-76],[20,-41],[59,-95]],[[11960,12420],[72,-117]],[[12032,12303],[-117,-218],[-218,-272],[-9,-8],[-22,-56],[-270,-346],[-141,-186],[-15,-16],[-250,-323],[-298,-564]],[[10692,10314],[-12,29],[-39,55],[-13,50],[1,47],[-15,43],[-83,145],[-87,91],[-45,73],[-53,69],[-42,90],[-7,25],[-9,126],[-5,23],[-168,390],[-21,36],[-60,88],[-20,36],[-16,58],[-9,95],[5,38],[25,97],[12,24],[45,54],[13,36],[-6,62],[-104,223],[-38,35],[-36,1],[-49,-22],[-17,-29],[-45,-149],[-26,-59],[-21,-30],[-46,-15],[-52,19],[-99,55]],[[15610,8188],[22,2],[68,-17],[35,24],[47,-21],[23,1],[58,22],[46,-20],[18,18],[20,70],[6,43],[30,54],[46,168],[-16,12],[-23,-46],[-21,-86],[-11,-15],[-75,-37]],[[15883,8360],[14,17],[32,61],[27,80],[17,65],[33,28],[31,1]],[[16037,8612],[26,-37],[30,-8],[38,-84],[0,-14],[-37,-61],[-11,-67],[-20,-62],[-8,-79],[55,-59],[19,-39],[-5,-28],[-26,-21],[-13,-41],[7,-35],[23,-5],[-21,-45],[-11,-65],[-25,-5],[-103,-50],[-46,-7],[-108,-32],[-30,86],[-54,-24],[-62,-41]],[[14721,10066],[-85,163]],[[14636,10229],[23,18],[1,36],[56,68],[52,17],[28,18],[35,59],[27,4],[30,21],[-6,34]],[[16048,7155],[22,-28],[27,-82],[41,-52]],[[16138,6993],[-30,-39],[-61,-54],[-58,-32],[-625,-273],[-104,-48],[-226,-97],[-85,-28],[-182,-37]],[[14767,6385],[-53,-10],[-35,-1]],[[14679,6374],[-23,48],[-39,63],[-26,52],[-13,73],[-5,205]],[[15516,8376],[-61,3],[9,-57],[-81,-14]],[[18214,10875],[71,33],[52,7],[47,-14],[89,-66],[40,-11],[44,26],[39,8],[9,16],[117,127],[28,16],[3,16],[29,26],[25,11],[17,25],[76,67],[75,84],[321,408],[63,73],[149,157]],[[19508,11884],[10,-41],[-34,-71],[-62,-43],[-34,-57],[-1,-30],[-39,-42],[-63,-25],[-57,-50],[2,-51],[24,-25],[-5,-15],[69,-51],[27,-2],[121,-108]],[[19466,11273],[-33,-84],[-23,-35],[-161,-99],[-30,-22],[-44,-65],[-41,-31],[-34,-57],[-49,-41],[-33,-55],[-19,-17],[-63,-16],[-67,-39],[-73,-50],[-93,-72],[-154,-73],[-54,-11],[-12,-36]],[[18483,10470],[-87,-40]],[[19466,11273],[117,133],[33,49],[67,51],[46,-179],[9,-29],[73,-296],[120,-475],[88,-317],[53,-220],[15,-49],[-35,8],[-36,21],[-60,62],[-27,18],[-50,19],[-47,3],[-44,-10],[-43,-24],[-117,-100],[-68,-41],[-65,-21],[-73,-5],[-77,15],[-52,22],[-159,81],[-51,32],[-58,60],[-35,66],[-90,241],[-21,46],[-43,53],[-67,42],[-45,13],[-42,4],[-50,-8],[-49,-21],[-100,-47]],[[17173,5502],[82,-44],[50,-40],[65,-9],[44,3],[39,-18],[21,-20],[40,-20],[39,-12],[60,-9],[30,2],[48,17],[55,-1],[44,22],[38,-16],[53,-34],[61,-56],[14,-23],[8,-38],[-3,-27],[-21,-49],[-28,-86],[-1,-33],[53,-96],[59,-141],[20,-26],[30,-23],[62,-31],[20,-19],[20,-65],[11,-18],[102,-119],[60,-38],[50,-37],[35,-47],[33,-68]],[[18466,4283],[-264,-463],[-195,-343],[-15,-22],[-212,-369]],[[17780,3086],[-20,6],[-50,-77],[-132,6],[-49,-10],[-20,6],[-43,-4],[-14,39],[-50,26],[-14,22],[2,28],[-12,47],[-26,45],[7,56],[-3,44],[6,57],[-1,78],[-53,38],[-26,65],[-10,86],[4,45],[-27,61],[-100,18],[-86,-22],[-46,-8],[-56,0],[-27,-6],[-8,-24],[-48,-71],[-27,-82]],[[16851,3555],[-6,164],[-25,67],[-121,168]],[[16699,3954],[16,74],[-6,28],[0,82],[-34,24],[-66,21],[-73,54],[-23,23],[-25,74],[2,31],[26,54],[18,83],[4,35],[-11,62],[-22,26],[-6,23],[-7,87],[-14,43],[-25,9],[-27,41],[-72,5],[-47,36],[-23,39],[-10,31],[0,35],[-25,31],[-2,20],[-23,50],[-1,22],[18,32],[-3,56],[-40,34],[-29,8],[-46,65],[-26,11],[-17,34],[-22,20],[-14,36],[2,83],[-9,51],[5,52],[28,36],[5,32],[33,34],[34,65],[-13,28],[-11,66],[13,44],[-1,33],[-20,-1],[9,72],[-19,15],[-17,50],[2,63],[13,6],[18,-75],[25,-41],[3,-38],[14,-53],[6,-49],[-12,-52],[23,-45],[49,-5],[48,-47],[42,6],[25,-12],[18,-27],[56,-51],[15,-24],[56,-1],[37,29],[33,-2],[31,14],[50,-27],[17,-32],[63,-57],[18,-5],[31,10],[22,-32],[24,-10],[38,-31],[60,-29],[15,-15],[48,-19],[39,5],[141,-75],[45,-8],[8,42],[-18,62],[-29,37],[16,37]],[[16138,6993],[58,-74],[28,-55],[21,-25],[63,-33],[15,-17],[-4,-71],[32,-33],[5,-27],[23,-34],[35,-68],[21,-57],[24,-14],[42,-56],[21,-90]],[[16522,6339],[23,-68],[44,-74],[88,-125],[58,-51],[17,-22],[12,-40],[14,-19],[29,-11],[17,-19],[13,-50],[-28,-56],[3,-22],[45,-53],[93,-67],[74,-70],[39,-41],[53,-17],[57,-32]],[[16699,3954],[-41,49],[-211,156],[-35,36],[-168,227],[-29,49],[-103,244]],[[16112,4715],[-23,54],[-63,173],[-22,36],[-126,176],[-13,26],[-7,50],[16,103],[-4,41],[-84,278],[-34,51],[-25,-47],[-26,-26],[-19,-2],[-63,17],[-39,34],[-36,72],[-21,55],[-3,33],[-80,68],[-3,20],[-29,44],[-56,55],[-29,20],[-31,39],[-38,68],[-28,38],[-18,47],[-13,4],[-19,33],[-35,27],[-41,22],[-40,31],[-29,40],[-73,-18],[-38,-29],[-14,-3],[-58,17],[-69,-27],[-12,50]],[[16446,7852],[19,-50]],[[16465,7802],[27,-51],[25,-35],[30,-27],[44,-12],[14,-19],[3,-79],[12,-22],[57,-40],[32,-6]],[[16709,7511],[11,-50],[95,15],[14,-18],[16,-56],[-28,-10],[-5,-79],[22,-18],[45,22],[49,-23],[32,-5],[23,-16],[13,-25],[-1,-60],[6,-19],[-37,-31],[-30,-15],[-7,-26],[31,-166],[14,-50],[-2,-75]],[[16970,6806],[1,-33],[29,-126],[20,-52],[28,-48],[82,-61],[51,-22],[99,-11],[93,-32],[54,-39],[40,-21],[27,4]],[[17494,6365],[-16,-73],[5,-41],[22,-82],[20,-26],[20,3],[40,-12],[-91,-45],[-50,-17],[-41,0],[-120,25],[-45,21],[-42,8],[-32,-7],[-29,3],[-19,-13],[-92,-31],[-47,3],[-57,19],[-18,26],[-50,6],[-24,38],[-45,-17],[-47,12],[-56,49],[-26,43],[-14,65],[10,37],[-13,8],[-50,-35],[-30,-6],[-35,13]],[[16138,6993],[33,61],[18,51],[8,44],[2,73],[-9,60],[-43,200],[-3,57],[8,51],[18,46],[45,61],[26,21],[94,54],[59,38],[52,42]],[[4493,11557],[-8,-32],[-26,-20],[-51,-54],[-25,-53],[0,-48],[22,-43],[20,-63],[-13,-68],[22,-23],[16,-57],[70,-78],[22,-7],[38,9],[80,-7],[81,-21],[59,-28],[55,-33],[60,-49],[17,-30],[33,-31],[18,-49],[75,9],[-5,56],[34,196],[19,38],[19,-19],[35,32],[43,11],[101,6],[26,14],[46,-18],[13,-50],[22,-47],[44,-65],[27,-14],[95,-31],[7,-11],[39,-5],[46,38],[163,140],[1,20],[44,22],[61,52],[14,-26],[27,-13],[39,28],[37,7]],[[6263,9408],[-12,-64],[-17,-56],[-39,-74],[-17,-56],[-11,-69],[-51,-97],[-3,-53],[8,-50],[-17,-37],[-20,-60],[-2,-29],[14,-23],[-17,-39],[-24,-11],[-26,13],[-62,-13],[49,-27],[15,-37],[-4,-54],[11,-37],[-15,-17],[-35,-81],[-8,-52],[-47,-46],[-4,-45],[-20,-17],[-48,-19],[-43,3],[-14,39],[-25,24],[-20,-13],[2,-41],[10,-29],[24,-133],[-11,-134],[-1,-47],[6,-28],[-1,-81]],[[5788,7818],[-116,8],[-645,14],[-26,-8],[-395,4],[-870,8],[-142,11],[-84,-7],[-92,1],[-78,-32],[-61,-8],[-16,8],[-26,48],[-23,29],[-63,-21],[-35,-19],[-14,4],[-70,133],[-39,-13],[-92,-108],[-9,-5],[-72,0],[-84,-35],[-77,74],[-31,3],[-134,-49],[-34,-8],[-16,62],[-61,31],[-44,2],[-28,53],[-11,30],[12,48],[-8,42],[-24,19],[-87,-13],[-22,14],[-17,64],[-23,26],[-62,3],[-30,18],[-10,17],[38,116],[-27,106],[-109,49],[-12,16],[-53,125],[-30,29],[-10,39]],[[1826,8746],[15,40],[17,17],[28,-2],[45,-31],[41,-7],[-52,-31],[23,-14],[61,20],[68,3],[48,-39],[18,-113],[16,-121],[38,-99],[24,-12],[32,-35],[33,314],[192,1812],[11,21],[89,75],[26,7],[18,38],[39,34],[73,32],[20,-6],[34,9],[0,-30],[29,-42],[10,-35],[27,-49],[8,-37],[24,-59],[11,-12],[69,-2],[215,-57],[36,-24],[36,-48],[25,-60],[24,-40],[33,-18],[15,11],[38,62],[24,14],[10,-20],[14,-68],[32,-2],[13,-23],[4,-42],[41,1],[28,-21],[61,-13],[14,-26],[22,-9],[32,6],[37,-22],[110,15],[77,-4],[53,-32],[1,27],[-17,25],[-32,115],[-6,192],[10,84],[22,49],[7,43],[-28,71],[2,68],[13,28],[44,63],[30,77],[37,70],[2,13],[91,67],[27,46],[14,54],[-5,18],[17,44],[3,35],[12,14],[0,42],[53,44],[39,54],[32,55],[16,5],[9,78],[15,13],[48,14],[52,72],[30,5]],[[17600,8656],[53,1],[48,-190],[11,-58],[22,-6],[38,-52]],[[17772,8351],[-16,-84],[-21,-47],[-2,-89],[16,-90],[-3,-33],[-18,-51],[-47,-81],[-28,-69]],[[17653,7807],[-9,25],[12,29],[-20,27],[-59,37],[-74,-11],[-58,-5],[-29,74],[-112,-79],[-41,101],[-29,-23],[-56,-23]],[[17178,7959],[-59,-48],[-110,-54],[-20,-2],[-55,20],[-9,28],[-3,83],[18,60],[9,127],[17,90],[48,43],[218,111],[52,32],[111,54],[107,26],[45,47],[53,80]],[[17772,8351],[6,17],[53,74],[59,102],[92,76]],[[17982,8620],[68,-10]],[[18050,8610],[-3,-22],[68,-16],[62,-51],[47,-100],[25,13],[-5,55],[25,40],[68,-8],[32,-13],[52,-45],[44,-15],[39,-28],[70,9],[53,-35],[61,-67],[7,-64],[22,-64],[44,-48],[44,-19],[19,-28],[31,-23],[74,8],[45,-11],[61,24],[32,19],[45,64],[34,12],[53,2],[30,-15],[18,-36],[5,-40],[-10,-17],[-12,-58],[19,-12],[63,-65],[18,-43],[16,-12],[-3,-47],[9,-11],[13,-51],[13,-7],[-7,-88],[12,-30],[42,-8],[46,15],[19,-30],[14,-4],[-1,-124],[-20,-33],[-35,-90],[-9,-65],[8,-85],[0,-60],[7,-31],[4,-60],[-4,-53],[45,-72],[19,-45],[20,-27],[32,-21],[59,7],[35,-5],[47,-27],[133,-46],[39,-9],[12,-20]],[[19895,6774],[-246,-430],[-258,-449]],[[19391,5895],[-49,26],[-46,48],[-152,125],[-53,60],[-19,15],[-41,15],[-33,3],[-37,-15],[-64,-39],[-15,-4],[-128,38],[-30,17],[-37,46],[-85,37],[-75,17],[-28,25],[-38,74],[-70,74],[-36,24],[-35,48],[-44,39],[-32,10],[-11,33]],[[18233,6611],[45,45],[13,21],[17,63],[24,36],[28,28],[34,46],[28,50],[19,50],[1,35],[-31,108],[-6,61],[-38,44],[-36,17],[-70,17],[-34,20],[-135,118],[-56,69],[-29,60],[-60,50],[-34,42],[-28,19],[-100,40],[-137,96]],[[17648,7746],[10,30],[-5,31]],[[16112,4715],[-91,-57],[-41,-10],[-82,-29],[-25,-20],[-35,-68],[-61,-49],[-18,0],[-52,50],[-72,-1],[-68,18],[-51,1],[-96,-11],[-55,-1],[-60,-7],[-56,-20],[-52,-25],[-110,-43],[-27,-2],[-31,-30],[-6,18],[-34,11],[-47,24],[-53,17],[-61,10],[-59,-20],[-31,-2],[-68,34],[-10,-40],[-27,-28],[-20,-35]],[[14613,4400],[-31,-25],[-57,8],[-75,-24],[-49,35],[-51,23],[-151,97],[-83,31]],[[14116,4545],[186,138],[42,46],[38,68],[16,58],[2,90],[-19,251],[4,47],[57,258],[13,95],[24,218],[12,60],[32,65],[117,162],[24,44],[22,63],[7,58],[-3,64],[-11,44]],[[16205,8706],[18,25],[7,31],[24,38],[17,14],[43,15],[24,56],[19,68],[-1,101],[10,57],[58,159],[20,60],[23,50],[12,72],[21,43],[-29,32]],[[16749,9682],[63,-37],[55,-24],[154,-52],[70,-38],[95,-76],[39,-25],[31,-10],[98,-13]],[[17354,9407],[-26,-75],[-178,-646],[-32,-71],[-54,-73]],[[17064,8542],[-42,3],[-108,-80],[-55,-52],[-55,-34],[-42,-6],[-44,17],[-29,19],[-37,13],[-25,-2],[-64,-31],[-55,-22],[-70,-3],[-51,44],[-30,40],[-30,111],[-25,55],[-19,20],[-51,18],[-16,14],[-11,40]],[[9294,9384],[0,-21],[20,-37],[41,-15],[34,6],[55,-20],[49,-34],[53,-18],[17,-16],[-8,-26],[-59,-50],[-33,-95],[-9,-58],[-25,-36],[-30,-79],[-32,-42],[0,-10],[81,-138],[14,-32],[87,54],[108,73],[40,34],[86,123],[73,89],[49,66],[43,33],[67,34],[39,28],[26,58],[18,-4],[18,-29],[2,-51],[11,-60],[21,-29],[33,-19],[52,-76],[67,-21],[49,-24],[57,-59],[-23,-58],[24,-12]],[[10409,8813],[-34,-44],[-31,-100],[-40,-367],[-14,-69],[12,-137],[28,-77],[23,-24],[14,-33],[-9,-121],[11,-110],[-11,-127],[24,-47],[3,-29],[-12,-23],[-5,-41],[32,-90],[-18,-93],[3,-71],[35,-139],[16,-45],[5,-49],[17,-47],[30,-129],[23,-60],[-8,-115],[2,-57],[42,-121],[42,-47],[117,-78],[16,-23],[79,-60],[27,-4],[42,18],[83,49],[22,4],[37,-20],[30,-43],[15,-10],[86,-14],[27,-42],[52,-28],[43,-46],[15,-29],[-2,-23],[-25,-59],[5,-17],[33,-42],[42,-75],[48,-37],[45,-17]],[[11426,5805],[18,-2],[89,11],[20,-18],[19,-49],[39,-42],[34,-3],[44,-30],[23,6],[36,49],[58,-12],[27,-22],[16,-34],[38,-29],[65,-3],[34,-16],[52,-42],[15,-3],[53,40],[25,46],[22,57],[39,-14]],[[12192,5695],[-19,-17],[-17,-48],[-33,-47],[-59,-45],[-45,-64],[-55,-97],[-32,-79],[-21,-78],[-21,-61],[-31,-50],[-46,-47],[-48,-35],[-37,0],[-85,18],[-51,37],[-30,5],[-10,15],[-81,52],[-35,27],[-52,14],[-31,-3],[-119,-57]],[[11234,5135],[-30,38],[-151,155],[-13,21],[-319,316],[-106,91],[-64,45],[-79,60],[12,112],[-60,39],[-44,17],[-30,-7],[-93,33],[-20,15],[-18,93],[28,134],[-37,24],[-58,23],[-58,32],[-29,-5],[-58,-61],[-60,36],[-19,62],[-69,50],[-16,1],[-30,-22],[-76,-22],[-26,37],[-45,105],[-85,26],[-5,96],[-13,38],[-115,53],[-14,87],[29,58],[22,118],[20,57],[-105,60],[-61,30],[-129,-17],[-83,192],[0,73],[12,52],[-39,108],[-20,36],[-70,27],[-72,-22],[-90,-11],[-5,36],[-4,140],[-590,5]],[[8249,7799],[-36,86],[7,19],[34,32],[7,66],[-20,160],[5,36],[32,101],[66,134],[43,61],[12,60],[26,73],[36,71],[12,88],[13,31],[-11,22],[0,31],[26,43],[18,11],[29,-3],[24,27],[20,70],[-6,57],[10,36],[1,48],[-8,48],[-5,86],[25,38],[-5,17]],[[16037,8612],[19,6],[-30,33]],[[16026,8651],[-15,16]],[[16011,8667],[52,5],[58,-24],[52,16],[32,42]],[[17064,8542],[-122,-103],[-49,-51],[-285,-352],[-105,-126],[-57,-58]],[[17494,6365],[65,-8],[25,138],[14,18],[68,27],[48,49],[28,55],[69,51],[65,34],[19,20],[152,47],[152,-164],[34,-21]],[[19391,5895],[-450,-785],[-475,-827]],[[17648,7746],[-31,11],[-70,-16],[-24,-36],[-57,-27],[-78,-78],[-35,-7]],[[17353,7593],[-91,57],[-89,21],[-87,5],[-37,-7],[-109,-43],[-115,-61],[-46,-38],[-70,-16]],[[16465,7802],[48,-10],[76,-6],[48,-13],[42,-29],[81,14],[29,13],[37,0],[60,13],[51,-27],[19,-43],[90,34],[23,15],[59,13],[77,34],[-8,33],[24,10],[-43,106]],[[17354,9407],[20,47],[162,266]],[[17536,9720],[21,-13],[32,40],[32,10],[56,-6],[31,-42],[15,-113],[50,-69],[40,-31],[53,-59],[60,-24],[-1,-23],[34,-15]],[[17959,9375],[24,-8],[-13,-50],[8,-29],[18,-20],[-35,-14],[14,-41],[2,-40],[-2,-103],[21,-59],[40,-72],[3,-33],[-15,-39],[-2,-34],[12,-68],[-16,-30],[-26,-7],[-12,-56],[2,-52]],[[17600,8656],[-44,2],[-60,-13],[-71,-6],[-34,6],[-95,-2],[-87,-45],[-67,-20],[-47,-39],[-31,3]],[[17353,7593],[-15,-11],[5,-116],[9,-18],[0,-70],[-19,-23],[2,-21],[-12,-47],[-30,-49],[-47,-44],[-16,-27],[-29,-26],[-71,-23],[-41,2],[-18,-10],[-27,-38],[9,-42],[-14,-149],[-3,-61],[13,-28],[-19,-8],[-22,-32],[-38,54]],[[8249,7799],[-309,3],[-97,3],[-212,4],[-241,5],[-515,0],[-291,-1],[-145,3],[-550,0],[-101,2]],[[11960,12420],[129,-18],[36,-17],[33,-34],[20,-57],[7,-96],[15,-60],[16,-37],[33,-50],[85,-92],[50,-77],[76,-170],[82,-29],[16,3],[105,65],[109,51],[63,3],[33,20],[50,4],[71,67],[-32,28],[-3,18],[49,63],[16,35],[66,19],[32,25],[77,122],[71,51],[75,44],[40,-32],[228,-81],[117,-21],[76,-39],[80,-58],[13,-22],[8,-91],[16,-30],[67,-103],[91,-29],[11,-11],[65,-105],[20,-11],[52,-9],[29,-10],[48,-37],[40,-22],[17,-76],[89,-115],[10,-66],[33,-15],[42,-33],[36,-72],[8,-44],[-12,-41],[27,-64],[-14,-47],[41,-32],[1,-33],[-17,-30],[-11,-66],[69,-57]],[[14660,10799],[-41,-52],[-110,-182],[-22,-59],[-46,-108],[-58,-82]],[[14383,10316],[-76,-116],[-107,-115],[-72,-170]],[[14128,9915],[-231,62],[-33,2],[-19,-11],[-31,-37],[-20,-13],[-196,-113],[-47,-20]],[[13551,9785],[-14,72],[-7,157],[-7,50],[-13,37],[-25,41],[-36,35],[-27,18],[-242,120]],[[13180,10315],[-138,68],[-37,23],[-37,41],[-43,88],[-33,52],[-44,42],[-81,59],[-64,64],[-35,47],[-26,48],[-23,59],[-17,73],[-6,65],[-1,113],[-11,65],[-13,38],[-45,88],[-26,66],[-26,106],[-38,99],[-39,64],[-35,42],[-187,198],[-32,44],[-30,52],[-34,97],[-14,91],[-12,47],[-21,49]],[[10409,8813],[110,-1],[68,6],[127,-84],[157,-112],[37,-34],[40,-64],[89,-112],[43,-78]],[[11080,8334],[6,-33],[38,-81],[18,-29],[101,-131],[37,-38],[74,-41],[72,-55],[29,-39],[52,-122],[59,-86],[67,-142]],[[11633,7537],[4,-29],[-34,-109],[-2,-93],[-19,-82],[3,-21],[64,-31],[26,-26],[36,0],[6,-46],[33,-49],[-11,-14],[4,-35],[17,-33],[-3,-72],[54,-113],[21,-113],[-8,-35],[25,-77],[-9,-27],[-26,-40],[-5,-78],[-44,-47],[10,-71],[-2,-47],[-347,-444]],[[18961,12140],[68,-9],[41,22],[9,14],[37,22],[52,-6],[49,-13],[80,-75],[17,-39],[30,-40],[98,-1],[29,-27],[25,-45],[12,-59]],[[4860,12728],[244,-1],[577,-3],[174,5],[565,3],[103,1],[590,0]],[[4493,11557],[39,41],[-24,23],[36,6],[49,-4],[60,15],[49,29],[50,19],[21,45],[6,53],[20,73],[-70,67],[-46,19],[-40,47],[-47,24],[-71,69],[-86,54],[-63,6],[-44,-25],[-37,-65],[-67,-37],[-78,-4],[-18,-9],[-148,-132],[-14,47],[5,60],[22,37],[52,33],[94,29],[44,26],[152,123],[19,29],[57,173],[30,60],[33,28],[197,96],[32,10],[61,8],[27,13],[38,36],[27,49]],[[12518,3751],[85,30],[68,6],[116,-12],[66,4],[220,48],[38,6],[49,-1],[52,-13],[86,-41],[73,-15],[44,5],[66,31],[38,35],[22,34],[18,43],[31,105],[14,37],[23,38],[52,50],[28,16],[211,96],[44,30],[45,61],[48,123],[37,55],[24,23]],[[14613,4400],[4,-17],[-17,-64],[-25,-43],[49,-72],[33,-14],[80,-50],[88,-48],[40,-40],[41,-56],[4,-59],[15,-15],[23,-57],[19,-25],[24,-51],[-13,-88],[-20,-45],[29,-79],[24,-50],[55,-49],[33,-59],[-1,-62],[-30,-43],[-14,-39],[8,-79],[9,-20],[46,-41],[60,-30],[53,-36],[23,-6],[28,-41],[-13,-31],[17,-33],[37,-23],[58,-10],[20,-11],[52,-41],[21,-38],[19,-98],[35,-84],[7,-43],[4,-89],[10,-92],[-1,-71],[-24,-95],[-4,-40],[-12,-25],[1,-32],[39,-34],[47,-68],[9,-33],[-12,-43],[20,-66],[32,-59],[35,-17],[33,-44],[-28,-57],[-19,-56],[0,-16],[24,-49],[28,-43],[44,-55],[3,-27],[-59,-14],[-54,-26],[-29,-39],[4,-55],[16,-70],[-12,-18],[-5,-89],[14,-30],[36,-27],[15,-38],[36,-42],[56,-32],[121,35],[24,-28],[-18,-47],[-18,-15],[-4,-50],[-20,-51],[0,-21],[21,-41],[9,-47]],[[15896,754],[-331,165],[-217,106],[-306,146],[-99,50],[0,29],[-12,27],[-31,43],[-18,11],[-33,51],[-40,9],[-88,45],[-50,13],[-15,70],[23,57],[-17,42],[-26,21],[-26,67],[-18,20],[-53,16],[-55,26],[-14,15],[-30,58],[-84,42],[-118,44],[-30,6],[-19,26],[23,50],[2,69],[-20,18],[-51,17],[-18,16],[-34,62],[-46,46],[-44,64],[-37,16],[-58,-6],[-49,-16],[-89,-46],[-21,-19],[-31,20],[-14,64],[-33,7],[-84,-20],[-50,-4],[-16,6],[-26,34],[10,57],[18,48],[0,23],[-40,66],[-36,20],[-50,1],[-25,37],[-59,37],[19,46],[-5,38],[17,39],[-4,25],[-17,6],[-7,26],[27,66],[7,1],[31,67],[-34,46],[-68,42],[-68,-6],[-25,26],[-55,-14],[-26,13],[-40,35],[-78,4],[-20,51],[-47,-2],[-121,-26],[-33,-1],[-69,30],[-61,42],[-33,16],[-39,62],[-40,22],[-22,25],[-19,67],[-20,38],[-34,27],[-43,24],[-32,27],[-12,27],[4,34],[37,60],[34,8],[34,-15],[25,6],[23,-22],[26,-1],[89,8],[13,14],[-6,22],[-29,41],[-51,39],[-21,42]],[[17189,10656],[102,-463],[-602,-102],[7,-71],[-32,-122],[-35,-75],[0,-39],[15,-24]],[[13112,7956],[26,33],[141,130]],[[13279,8119],[73,-20],[179,129],[28,5],[33,-26],[163,-81],[41,15],[20,26],[31,11],[37,29],[75,-12],[17,-8],[25,-36],[44,2],[21,13],[36,79],[-1,27],[18,49],[31,22],[36,10],[34,45],[16,65],[34,81]],[[14573,6815],[-72,10],[-38,15],[-47,8],[-38,18],[-124,22],[-49,2],[-72,-4],[-184,-34]],[[13949,6852],[-43,75],[-7,23],[4,44],[-63,32],[-44,55],[-45,34],[-45,21],[-9,36],[18,77],[-19,74],[-1,67],[-22,14],[-78,153],[-7,26],[-38,17],[-20,-3],[-45,16],[-48,41],[-66,26],[-66,-5],[-40,-21],[-45,30],[-61,25],[-26,21],[11,137],[-5,90],[-27,-1]],[[17780,3086],[-497,-854],[-31,-71],[-44,-57],[-21,-37],[27,-349],[86,-1031],[53,-687],[-1204,624],[-250,128]],[[15899,752],[47,122],[74,109],[23,38],[16,61],[3,90],[13,58],[130,479],[16,41],[31,47],[179,188],[13,18],[11,39],[-2,22],[-27,109],[-3,29],[8,43],[145,353],[45,98],[211,409],[30,75],[3,42],[-14,333]],[[13180,10315],[-65,-2],[-67,10],[-57,24],[-46,49],[-89,-10],[-66,-31],[-63,-20],[-36,-21],[-34,-6],[-41,10],[-104,16],[-83,-17],[-80,-4],[-78,8],[-53,-4],[-65,2],[-39,-27],[-87,-53],[-82,-28],[-66,5],[-42,28],[-18,4],[-65,-18],[-179,-8],[-24,6],[-45,47],[-77,32],[-65,6],[-28,10],[-33,34],[-25,54],[-25,31],[-40,21],[-49,33],[-18,-6],[-34,-39],[-47,-78],[-19,-16],[-85,-60],[-31,-15],[-109,-37],[-65,-11],[-30,10],[-12,16],[-22,54]],[[11080,8334],[11,23],[50,51],[14,65],[4,68],[31,9],[27,19],[29,52],[18,21],[26,8],[29,-9],[-4,35],[18,11],[16,35],[0,34],[25,57],[37,50],[4,22],[30,50],[46,17],[90,67],[118,73],[53,25],[36,33],[23,29],[47,42],[60,10],[45,-7],[112,12],[39,14],[55,-24],[78,-65],[87,-87],[30,-38],[39,-73],[10,-3],[26,53],[86,112],[20,39],[-4,23],[17,61],[28,-1],[53,-25],[34,-38],[65,-89],[53,17],[58,65],[25,10],[62,0],[-32,134],[7,65],[-4,60],[9,84],[23,49],[20,9],[108,18],[96,35],[112,17],[44,13],[78,31],[95,57],[59,26]],[[13551,9785],[28,-72],[53,-100],[28,-83],[7,-48],[13,-149],[12,-50],[25,-49],[19,-25],[158,-178],[129,-150]],[[13279,8119],[-73,39],[-38,37],[-42,29],[-48,18],[-70,1],[-39,-12],[-38,-26],[-46,-14],[-62,-40],[-82,-36],[-107,-32],[-39,-34],[-49,-17],[-66,-10],[-41,2],[-94,-8],[-181,-90],[-149,-8],[-75,0],[-29,-20],[-26,-52],[-14,-47],[-26,-40],[-63,-58],[-149,-164]],[[11873,12738],[1023,-2],[993,-5],[516,-8],[1435,-14],[803,5]],[[14774,10933],[-33,-34],[-81,-100]],[[16011,8667],[-88,6],[-4,10],[28,31],[-19,26],[49,50],[39,3],[1,16],[48,-12]],[[12192,5695],[43,81],[23,34],[15,36],[64,116],[9,82],[-19,67],[-61,52],[-13,19],[-37,16],[-26,20],[-52,77],[-12,86],[9,55],[33,61],[74,48],[49,0],[51,-9],[16,-13],[75,-26],[33,-31],[50,-69],[25,-72],[0,-14],[35,-70],[18,-56],[66,-128],[16,-21]],[[12676,6036],[51,-42],[69,-20],[152,-33],[43,-19],[43,-32],[52,-76],[34,-95],[27,-55],[16,-69],[57,-126],[30,-31],[40,-59],[57,-36],[10,-14],[90,-27],[34,-3],[61,12],[41,19],[112,70],[213,92],[79,51],[14,22],[5,30],[-9,30],[-79,117],[-12,24],[-35,10],[-58,56],[-31,18],[-93,134],[-7,30],[22,138],[13,13],[35,82],[12,65],[1,36],[-10,43],[-19,29],[-37,29],[-51,25],[-23,30],[-28,14],[-40,35],[-56,11],[-26,19],[-36,6],[-61,56],[-50,74],[1,9],[-39,78],[-11,57],[11,75],[23,66],[59,43],[60,28],[50,-12],[30,-31],[31,-44],[32,-32],[35,-19],[20,-29],[34,-21],[49,-45],[69,-19],[49,-8],[47,19],[27,0],[44,18]],[[12518,3751],[-27,85],[-25,61],[-227,229],[-226,232],[-138,138],[-282,286],[-332,332],[-27,21]],[[1826,8746],[-14,63],[-18,17],[-111,-41],[-75,-9],[-26,-15],[-22,-26],[-16,-2],[-65,23],[-35,44],[-13,7],[-59,5],[-73,36],[-54,-19],[-30,-45],[-85,26],[-68,2],[-7,10],[-9,73],[-58,30],[-34,5],[-41,42],[-44,23],[14,69],[29,46],[20,12],[18,47],[66,93],[38,16],[18,39],[-63,165],[-26,45],[-58,31],[-14,46],[-9,91],[-19,18],[-38,12],[-32,-14],[-36,4],[-95,89],[13,52],[20,43],[-4,30],[29,36],[16,53],[-35,22],[-13,30],[-30,111],[-10,50],[-26,47],[-9,30],[14,50],[23,7],[63,0],[24,15],[21,36],[9,49],[-81,153],[-5,50],[37,36],[5,36],[33,47],[27,0],[68,11],[3,46],[14,75],[-16,74],[-52,87],[0,92],[-33,65],[-16,63],[-31,49],[-56,32],[-58,12],[-42,42],[-24,38],[-19,54],[-8,48],[11,79],[-36,129],[0,20],[40,47],[66,64],[8,24],[-2,81],[9,40],[-3,53],[-48,27],[-7,72],[-14,43],[-25,50],[-22,74],[50,78],[-72,123],[-52,-38],[-51,-31],[-36,-34],[-1,-36],[-27,-77],[-25,-40],[-34,-17],[-20,22],[-74,21],[-83,3],[-24,25],[-6,39],[15,42],[5,38],[-13,56],[-26,31],[-36,90],[28,59],[371,-1],[222,3],[270,1],[661,4],[91,4],[517,-2],[731,-2],[200,-2],[618,-1],[1076,-8],[75,0]],[[14636,10229],[-26,-4],[-18,23],[-33,3],[-21,33],[-68,12],[-8,-58]],[[14462,10238],[-4,-1],[-75,79]],[[14380,9978],[135,-46],[-16,-52],[34,-11],[88,-14],[24,-12]],[[14645,9843],[67,-42],[19,-19],[-8,-28],[47,-15]],[[14579,9504],[-137,188],[-26,32],[-44,40],[19,34],[4,60],[-11,23],[8,29],[-28,16],[16,52]],[[14462,10238],[22,-24],[-4,-18],[-55,-177],[28,-10],[25,82],[21,2],[139,-4],[26,-53],[-8,-38],[-11,-155]],[[14380,9978],[-142,49],[-18,-52],[-28,10],[-25,-81],[-39,11]],[[15036,9132],[-59,47],[-67,13],[-108,-27],[-246,43],[-39,16],[-33,22],[-39,53]],[[14445,9299],[-118,149],[-40,35],[4,8],[-89,79],[-52,52],[-30,69],[2,131],[6,93]],[[14445,9299],[-25,-27],[1,-33]],[[14421,9239],[-3,-44],[-21,-29],[-15,-42],[-24,7]],[[18050,8610],[35,9],[26,37],[35,34],[39,60],[46,48],[42,60],[92,43],[86,29],[31,48],[46,104],[7,53],[-25,136],[-25,22],[-41,-23],[-14,15],[-29,54],[-43,64],[25,31],[45,74],[28,16],[21,94],[81,25],[13,27],[17,-47],[19,12],[0,46],[11,18],[54,20],[37,32],[14,32],[-1,61],[-39,82],[24,48]],[[18707,9974],[37,-22],[55,-43],[98,-43],[66,-42],[49,-74],[22,-74],[25,-53],[20,-87],[29,-39],[21,-51],[10,-112],[14,-39],[23,-27],[73,-64],[33,-42],[88,-88],[26,-38],[102,-80],[47,-44],[44,-20],[49,-37],[87,-41],[73,-26],[63,-31],[108,-99],[45,-57],[57,-41],[39,-40],[21,-33],[27,-77],[13,-65],[4,-45],[22,-123],[29,-68],[19,-27],[59,-36],[60,-25],[26,-4],[55,5],[76,24],[36,25],[71,36],[36,10]],[[20664,8117],[-769,-1343]],[[12676,6036],[4,15],[47,36],[28,12],[40,54],[4,24],[3,172],[9,49],[-7,29],[-38,36],[-60,84],[-47,49],[31,64],[-46,69],[-22,69],[-15,104],[13,77],[4,79],[-12,115],[10,17],[66,86],[18,94],[-15,60],[84,95],[80,106],[257,325]],[[15406,8765],[30,-21]],[[15718,8666],[21,9]],[[16026,8651],[-69,-15],[-22,1],[-35,-22],[-35,-53],[-32,-59],[-94,-71],[-47,5],[-51,85],[-36,27],[-44,47],[-60,7],[-39,29],[-24,5],[-34,-39]],[[15883,8360],[-11,-8],[-146,-79],[-44,-16],[-50,-10],[-113,129]],[[15494,9299],[-17,28],[-52,37]],[[15445,9440],[53,-21],[84,-73],[25,-117],[6,2]],[[15452,9490],[53,-18],[37,-18],[33,36],[11,41],[39,12],[-1,55]],[[15675,8935],[-75,21]],[[14421,9239],[21,-9],[21,-28],[43,-92],[122,-82],[22,-9],[82,-11]],[[14732,9008],[36,-53],[-52,25],[-18,-210]],[[14967,8831],[26,119],[-20,4],[-94,65],[-91,-1],[-56,-10]],[[18557,12711],[1380,3],[1722,0],[0,-1066],[-230,-568],[-326,-805],[-154,-391],[-126,-1436],[-3,-58],[-156,-273]],[[18707,9974],[-29,47],[-15,38],[-50,61],[-19,14]],[[18594,10134],[-64,84],[-43,88],[-27,30],[-23,47],[-41,47]],[[15899,752],[-3,2]],[[17959,9375],[16,74],[38,40],[38,16],[13,21],[15,56],[39,56],[49,32],[52,68],[57,118],[79,96],[33,35],[1,29],[49,50],[58,16],[98,52]]],"transform":{"scale":[0.000030401542084122154,0.000022431138664364773],"translate":[-80.42224,39.435588]},"objects":{"Geometry\\54-061":{"type":"GeometryCollection","geometries":[{"arcs":[[0,1,2]],"type":"Polygon","properties":{"GEOID":"540610102033"}},{"arcs":[[3,4,5,6,7]],"type":"Polygon","properties":{"GEOID":"540610102031"}},{"arcs":[[8,9,10,11,12,13]],"type":"Polygon","properties":{"GEOID":"540610101033"}},{"arcs":[[14,15,-5,16,17,-1,18]],"type":"Polygon","properties":{"GEOID":"540610102032"}},{"arcs":[[19,20,-7,21,22,23,24,25,26]],"type":"Polygon","properties":{"GEOID":"540610101043"}},{"arcs":[[27,28,29,30,31,-22,-6,32]],"type":"Polygon","properties":{"GEOID":"540610106022"}},{"arcs":[[33,-10,34,35]],"type":"Polygon","properties":{"GEOID":"540610102042"}},{"arcs":[[36,37,-20,38]],"type":"Polygon","properties":{"GEOID":"540610101031"}},{"arcs":[[39,-23,-32,40,41]],"type":"Polygon","properties":{"GEOID":"540610107004"}},{"arcs":[[-13,42,-39,-27,43,44,45,46,47]],"type":"Polygon","properties":{"GEOID":"540610101041"}},{"arcs":[[48,49,-37,-43,-12]],"type":"Polygon","properties":{"GEOID":"540610101032"}},{"arcs":[[50,51,52,53]],"type":"Polygon","properties":{"GEOID":"540610107003"}},{"arcs":[[54,55,56,57]],"type":"Polygon","properties":{"GEOID":"540610116011"}},{"arcs":[[58,-53,59]],"type":"Polygon","properties":{"GEOID":"540610101011"}},{"arcs":[[60,61,62,63,64,65,66,67]],"type":"Polygon","properties":{"GEOID":"540610116022"}},{"arcs":[[-56,68,69,70]],"type":"Polygon","properties":{"GEOID":"540610116012"}},{"arcs":[[-69,-55,71,72,-61,73,74]],"type":"Polygon","properties":{"GEOID":"540610116023"}},{"arcs":[[75,76,77,78,79,80]],"type":"Polygon","properties":{"GEOID":"540610106011"}},{"arcs":[[81,-33,-16,82]],"type":"Polygon","properties":{"GEOID":"540610106021"}},{"arcs":[[-45,83,84,85,86,87,88,89]],"type":"Polygon","properties":{"GEOID":"540610110004"}},{"arcs":[[-75,90,-83,-15,91,-79,92,-77,93]],"type":"Polygon","properties":{"GEOID":"540610106013"}},{"arcs":[[-26,94,95,-84,-44]],"type":"Polygon","properties":{"GEOID":"540610101042"}},{"arcs":[[96,97,-81,98,99,100]],"type":"Polygon","properties":{"GEOID":"540610120004"}},{"arcs":[[-93,-78]],"type":"Polygon","properties":{"GEOID":"540610106012"}},{"arcs":[[-68,101,-82,-91,-74]],"type":"Polygon","properties":{"GEOID":"540610116021"}},{"arcs":[[-99,-80,-92,-19,-3,102,103,104,105,-36,106]],"type":"Polygon","properties":{"GEOID":"540610102041"}},{"arcs":[[107,108,109,110,111,112,113,-85]],"type":"Polygon","properties":{"GEOID":"540610109011"}},{"arcs":[[114,115,116,-110]],"type":"Polygon","properties":{"GEOID":"540610109012"}},{"arcs":[[-113,117,118,119,120]],"type":"Polygon","properties":{"GEOID":"540610109022"}},{"arcs":[[-120,121,122,-87,123]],"type":"Polygon","properties":{"GEOID":"540610110001"}},{"arcs":[[-114,-121,-124,-86]],"type":"Polygon","properties":{"GEOID":"540610110002"}},{"arcs":[[124,125,126,127]],"type":"Polygon","properties":{"GEOID":"540610112001"}},{"arcs":[[128,-100,-107,-35,-9,129,130]],"type":"Polygon","properties":{"GEOID":"540610120001"}},{"arcs":[[131,132,133,134,-65]],"type":"Polygon","properties":{"GEOID":"540610108003"}},{"arcs":[[135,136,137,138,139]],"type":"Polygon","properties":{"GEOID":"540610114006"}},{"arcs":[[140,-126,141,142,143,-46,-90,144,145]],"type":"Polygon","properties":{"GEOID":"540610111001"}},{"arcs":[[-94,-76,-98,146]],"type":"Polygon","properties":{"GEOID":"540610120003"}},{"arcs":[[147,148,-38,-50]],"type":"Polygon","properties":{"GEOID":"540610102025"}},{"arcs":[[149,150,151,-140,152,153]],"type":"Polygon","properties":{"GEOID":"540610114001"}},{"arcs":[[154,155,156,157,158,-136,-152]],"type":"Polygon","properties":{"GEOID":"540610115004"}},{"arcs":[[159,160,161,-122,-119]],"type":"Polygon","properties":{"GEOID":"540610109023"}},{"arcs":[[-70,-147,-97,162,163]],"type":"Polygon","properties":{"GEOID":"540610120002"}},{"arcs":[[-145,-89,164,165,166,167]],"type":"Polygon","properties":{"GEOID":"540610110003"}},{"arcs":[[-117,168,-111]],"type":"Polygon","properties":{"GEOID":"540610109013"}},{"arcs":[[169,170,171,172,-133]],"type":"Polygon","properties":{"GEOID":"540610117001"}},{"arcs":[[173,-172]],"type":"Polygon","properties":{"GEOID":"540610117003"}},{"arcs":[[174,175,176,177,178]],"type":"Polygon","properties":{"GEOID":"540610118044"}},{"arcs":[[-166,179,180,-179,181,182]],"type":"Polygon","properties":{"GEOID":"540610118042"}},{"arcs":[[183,184,185,186,187,-180,188]],"type":"Polygon","properties":{"GEOID":"540610118033"}},{"arcs":[[189,-154,190,191,192]],"type":"Polygon","properties":{"GEOID":"540610114005"}},{"arcs":[[193,194,195,196]],"type":"Polygon","properties":{"GEOID":"540610118053"}},{"arcs":[[-195,197,198,199,200,201,202,203]],"type":"Polygon","properties":{"GEOID":"540610118051"}},{"arcs":[[-167,-183,204,205,206]],"type":"Polygon","properties":{"GEOID":"540610118041"}},{"arcs":[[207,-30,208,209,210]],"type":"Polygon","properties":{"GEOID":"540610108004"}},{"arcs":[[-138,211,212,213,214,215,216]],"type":"Polygon","properties":{"GEOID":"540610113005"}},{"arcs":[[217,218,219,-211,220,-189,-165,-88,-123,-162]],"type":"Polygon","properties":{"GEOID":"540610109024"}},{"arcs":[[221,-202,222,-175,-181,-188]],"type":"Polygon","properties":{"GEOID":"540610118034"}},{"arcs":[[-196,-204,223,224,-185,225]],"type":"Polygon","properties":{"GEOID":"540610118054"}},{"arcs":[[226,227,228,-198,-194,229,-210]],"type":"Polygon","properties":{"GEOID":"540610118062"}},{"arcs":[[230,-186,-225]],"type":"Polygon","properties":{"GEOID":"540610118032"}},{"arcs":[[-153,-139,-217,231,-191]],"type":"Polygon","properties":{"GEOID":"540610114003"}},{"arcs":[[232,233,234,235,236,237,-157]],"type":"Polygon","properties":{"GEOID":"540610115005"}},{"arcs":[[238,239,240,-213]],"type":"Polygon","properties":{"GEOID":"540610113004"}},{"arcs":[[241,-170,-132,-64]],"type":"Polygon","properties":{"GEOID":"540610117002"}},{"arcs":[[242,-150,-190,243]],"type":"Polygon","properties":{"GEOID":"540610114002"}},{"arcs":[[244,-206,245,246]],"type":"Polygon","properties":{"GEOID":"540610119002"}},{"arcs":[[-102,-67,247,-28]],"type":"Polygon","properties":{"GEOID":"540610108001"}},{"arcs":[[248,249,-146,250,251]],"type":"Polygon","properties":{"GEOID":"540610113001"}},{"arcs":[[-177,252,253]],"type":"Polygon","properties":{"GEOID":"540610118043"}},{"arcs":[[-158,-238,254]],"type":"Polygon","properties":{"GEOID":"540610115003"}},{"arcs":[[255,256,-127,-141,-250,257,-240]],"type":"Polygon","properties":{"GEOID":"540610113003"}},{"arcs":[[-159,-255,-237,-256,-239,-212,-137]],"type":"Polygon","properties":{"GEOID":"540610115001"}},{"arcs":[[258,-72,-58,259,-233,-156]],"type":"Polygon","properties":{"GEOID":"540610115002"}},{"arcs":[[-41,-31,-208,-220,260]],"type":"Polygon","properties":{"GEOID":"540610107002"}},{"arcs":[[261,262,-251,-168,-207,-245,263,-215]],"type":"Polygon","properties":{"GEOID":"540610119003"}},{"arcs":[[-244,-193,264]],"type":"Polygon","properties":{"GEOID":"540610114004"}},{"arcs":[[-260,-57,-71,-164,265,266,-234]],"type":"Polygon","properties":{"GEOID":"540610104001"}},{"arcs":[[267,268,-131,269]],"type":"Polygon","properties":{"GEOID":"540610104002"}},{"arcs":[[-235,-267,270,-268,271]],"type":"Polygon","properties":{"GEOID":"540610104005"}},{"arcs":[[-272,-270,-130,-14,-48,272,273]],"type":"Polygon","properties":{"GEOID":"540610104004"}},{"arcs":[[-236,-274,274,275,-128,-257]],"type":"Polygon","properties":{"GEOID":"540610112002"}},{"arcs":[[276,277,278,-200]],"type":"Polygon","properties":{"GEOID":"540610118061"}},{"arcs":[[-252,-263,279]],"type":"Polygon","properties":{"GEOID":"540610113002"}},{"arcs":[[280,-60,-52,281,-42,-261,-219,282,-108,-96]],"type":"Polygon","properties":{"GEOID":"540610107001"}},{"arcs":[[-283,-218,-161,283,-115,-109]],"type":"Polygon","properties":{"GEOID":"540610109014"}},{"arcs":[[-149,284,-105,285,-8,-21]],"type":"Polygon","properties":{"GEOID":"540610102022"}},{"arcs":[[286,-17,-4,-286,-104]],"type":"Polygon","properties":{"GEOID":"540610102023"}},{"arcs":[[-34,-106,-285,-148,-49,-11]],"type":"Polygon","properties":{"GEOID":"540610102024"}},{"arcs":[[-24,-40,-282,-51,287]],"type":"Polygon","properties":{"GEOID":"540610107005"}},{"arcs":[[-25,-288,-54,-59,-281,-95]],"type":"Polygon","properties":{"GEOID":"540610101012"}},{"arcs":[[-112,-169,-116,-284,-160,-118]],"type":"Polygon","properties":{"GEOID":"540610109021"}},{"arcs":[[-2,-18,-287,-103]],"type":"Polygon","properties":{"GEOID":"540610102021"}},{"arcs":[[-276,288,289,-142,-125]],"type":"Polygon","properties":{"GEOID":"540610112003"}},{"arcs":[[-273,-47,-144,290,-289,-275]],"type":"Polygon","properties":{"GEOID":"540610111003"}},{"arcs":[[-266,-163,-101,-129,-269,-271]],"type":"Polygon","properties":{"GEOID":"540610104003"}},{"arcs":[[-174,-171,-242,-63,291,-278,292,293,-173]],"type":"Polygon","properties":{"GEOID":"540610117004"}},{"arcs":[[-205,-182,-178,-254,294,-246]],"type":"Polygon","properties":{"GEOID":"540610119001"}},{"arcs":[[-231,-224,-203,-222,-187]],"type":"Polygon","properties":{"GEOID":"540610118031"}},{"arcs":[[-241,-258,-249,-280,-262,-214]],"type":"Polygon","properties":{"GEOID":"540610113006"}},{"arcs":[[295,-293,-277,-199,-229]],"type":"Polygon","properties":{"GEOID":"540610118063"}},{"arcs":[[-134,-294,-296,-228]],"type":"Polygon","properties":{"GEOID":"540610118064"}},{"arcs":[[-221,-230,-197,-226,-184]],"type":"Polygon","properties":{"GEOID":"540610118052"}},{"arcs":[[-291,-143,-290]],"type":"Polygon","properties":{"GEOID":"540610111002"}},{"arcs":[[-66,-135,-227,-209,-29,-248]],"type":"Polygon","properties":{"GEOID":"540610108002"}}]}}}