{"type":"Topology","arcs":[[[4680,16311],[-2,-234],[-53,0],[0,-32],[-53,0],[0,-38]],[[4572,16007],[-50,-1],[-2,-155],[-50,0],[-3,-155],[-208,-2]],[[4259,15694],[7,544],[1,174],[122,0],[20,-6],[43,-25],[43,-8],[37,-39],[16,-13],[35,-10],[97,0]],[[6059,9573],[215,109],[128,75],[26,14],[153,62],[43,11],[135,41],[23,2],[40,12],[16,23],[7,30],[8,15],[49,31],[75,83],[20,30],[54,68],[199,151],[17,3],[41,0],[16,11],[58,84],[56,44],[82,67],[27,19],[39,16],[172,51],[148,14],[18,4],[51,26],[128,-4],[31,-4],[59,12],[48,7],[87,7],[92,16],[78,12],[75,3],[48,6],[87,18],[78,10],[108,17],[63,8],[141,19],[12,3],[39,30],[39,20],[64,12],[56,-2],[30,6],[39,13],[21,19],[22,28],[17,11],[19,-1],[45,-28],[24,-3],[71,29],[35,4],[44,1],[29,-16],[39,-6],[81,12],[25,10],[92,3],[69,-3],[56,6],[28,8],[116,2],[53,0],[21,4],[94,1],[110,-2],[4,-144],[-3,-68],[4,-41],[13,-71],[-16,-39],[-54,-40],[-23,-15],[-15,-17],[-7,-18],[2,-90],[10,-78],[0,-56],[4,-32],[-18,-41],[-64,-103],[-5,-23],[2,-71],[5,-193],[2,-35],[7,-35],[17,-19],[150,-143],[17,-18],[70,-66],[63,-54],[174,-76],[30,-5],[50,26],[49,17],[19,12],[13,16],[9,25],[16,63],[20,41],[15,65],[15,33],[32,42],[27,30],[52,41],[36,20],[30,-21],[24,-22],[26,-34],[14,-6],[23,-1],[44,-15],[27,0],[20,-14],[31,-35],[107,-42],[9,-13],[35,-65],[11,-36],[-1,-30],[4,-20],[20,-52],[27,-75],[4,-29],[-14,-50],[-21,-48],[-14,-48],[-1,-21],[41,-176],[1,-25],[-6,-83],[6,-19],[-8,-41],[0,-89],[13,-90],[-2,-13],[-27,-27],[-27,-66],[-18,-13]],[[11588,8478],[-107,-1],[-310,-4]],[[11171,8473],[-171,-7],[-74,-2],[-149,-2],[-259,0],[-151,2],[-248,-15],[-194,4],[1,-240],[2,-153],[-1,-20],[-10,-1],[-205,2],[-193,-9],[-193,-5],[-212,-2],[-117,4],[-152,3],[-168,0],[-25,-1],[-150,1],[-184,2],[-25,4],[-31,14],[-70,64],[-61,37],[-90,73],[-122,40],[-65,15],[-92,28],[-28,15],[-126,106],[-34,26],[-71,45],[-31,13],[-157,-4],[-34,3],[-43,15],[-159,68],[-33,9],[-246,-17],[-26,11],[-77,69],[-64,47],[-58,39],[-27,8],[-126,20],[-43,-1],[-55,-26],[-89,-10],[-194,-13],[-217,-19]],[[5824,8713],[-1,121],[-9,17],[-144,167]],[[5670,9018],[-4,19],[11,22],[23,68],[15,38],[19,26],[58,48],[23,38],[6,35],[0,63],[8,28],[25,37],[53,41],[86,50],[66,42]],[[4572,16007],[0,-47],[52,0],[0,28],[79,-1],[-12,-54],[-11,-24],[7,-37],[-22,-38],[-7,-58],[18,-19],[32,-22],[19,-24],[14,-35],[9,-33],[22,-33],[-7,-17],[13,-51],[-6,-10],[-51,-30],[-16,-17],[-13,-24],[-17,-49],[3,-17],[-16,-16]],[[4662,15379],[-73,-90],[-30,-8],[-35,-16],[-21,-3],[-19,-21],[-13,-26],[-31,-34],[-20,-3],[-28,-37],[-35,-35],[-16,-21],[-33,-1],[-28,10],[-31,-8],[-39,-5],[-27,-8],[-42,-2],[2,52],[11,31],[79,124],[8,25],[2,23],[3,150],[3,66],[10,152]],[[2963,14147],[256,153],[121,74],[33,18],[116,56],[39,17],[20,3],[226,-3],[31,-5],[52,-21],[96,-1],[194,4],[98,0],[102,4],[119,0],[73,3],[153,1],[41,3],[102,1],[118,3],[178,2],[88,-12]],[[5219,14447],[120,-21],[-24,-38],[82,-11],[3,-14],[-5,-263],[2,-126],[-1,-141],[-5,-122],[-3,-37],[52,-27],[31,-32],[16,-11],[41,-16],[77,-16],[42,-29],[22,-34],[9,-37],[-14,-53],[-2,-24],[6,-29],[1,-35],[-4,-11],[12,-46],[-7,-13],[14,-7],[43,-67],[15,12],[20,-8],[29,3],[31,-9],[20,24],[5,31],[10,5],[2,29],[6,7],[1,30],[-14,29],[4,14],[25,-15],[7,-60],[5,-21],[44,-24],[18,0],[12,-13],[-9,-10],[25,-20],[21,3],[16,24],[18,-6],[17,2],[7,16],[22,6],[17,15],[13,-25],[43,23],[10,13],[27,6],[58,30],[23,8],[168,25],[76,9],[35,22],[11,13],[4,21],[21,5],[12,23],[0,16],[16,33],[27,29],[9,31],[0,27],[15,16],[1,16],[14,8],[3,14],[14,1],[1,19],[15,11],[13,25],[13,38],[-9,26],[16,9],[8,20],[-4,33],[12,6],[-2,20],[48,23],[5,-27],[11,-3],[42,18],[19,1],[15,-9],[21,-3],[22,5],[41,30],[35,17],[17,23],[32,-31],[10,-26],[-6,-84],[16,-41],[4,-131],[-4,-27],[-17,-43],[-1,-24],[11,-74],[16,-79],[0,-26],[-22,-44],[-22,-53],[-7,-23],[-5,-43],[-21,-32],[-42,-52],[-18,-29],[-15,-46],[-26,-41],[-2,-22],[17,-25],[18,-7],[71,16],[95,17],[36,-25],[34,-12],[28,-5],[43,-39],[49,-25],[10,1],[81,41],[15,4],[20,-13],[20,-2],[33,8],[125,-14],[31,-11],[97,-1],[38,-2],[12,5],[22,36],[11,7],[47,2],[53,26],[43,27],[19,7],[38,5],[16,-1],[37,-36],[43,-33],[14,-3],[23,13],[53,15],[41,-26],[29,-1],[102,5],[78,22],[79,2],[23,-10],[49,-27],[55,-2],[50,30],[48,41],[30,5],[24,-10],[37,-36],[58,0],[81,-7],[13,-11],[33,-13],[5,-29],[6,-8],[33,-14],[104,-25],[32,-42],[51,-22],[22,-12],[21,1],[40,23],[96,3],[141,23],[9,4],[28,37],[20,14],[83,3],[70,-42],[33,-60],[19,-20],[24,5],[21,-11],[28,-40],[2,-20],[55,2],[16,19],[21,6],[17,30],[13,7],[6,17],[16,-5],[24,14],[4,21],[10,12],[16,4],[26,-8],[20,3],[21,-22],[-3,-12],[19,-29],[15,-16],[-4,-23],[11,-11],[54,11],[122,5],[17,-2],[17,-19],[161,-1],[-4,25],[32,303],[20,44],[62,113],[-4,73],[1,22],[30,77],[16,102],[20,29],[87,80],[11,22],[23,144],[15,31],[44,88],[34,123],[42,114],[9,26],[-2,32],[-16,43],[0,21],[20,71],[8,50],[8,16],[60,52],[6,14],[9,57],[20,33],[52,39],[15,15],[17,53],[35,55],[23,62],[37,87],[18,39],[-1,23],[140,46],[85,26],[32,6],[49,-1],[33,-7],[31,-12],[123,-55],[86,-40],[45,-30],[28,-30],[121,-174],[22,-30],[29,-23],[43,-10],[24,3],[94,28],[20,8],[30,20],[18,20],[53,79],[21,23],[25,18],[32,14],[44,6],[91,-12],[170,-27]],[[12841,14659],[0,-369],[-20,-814],[-12,-468],[-11,-259],[-5,-103],[-1,-329],[0,-249],[1,-653],[6,-439],[14,-425],[15,-410],[8,-411],[-5,-556],[-7,-688],[-2,-288]],[[12822,8198],[-41,-3],[-30,-34],[-39,-18],[-109,-20],[-21,-8],[-24,-27],[-38,-52],[-6,-14],[-13,-66],[-13,-33],[-15,-29],[-29,-21],[-23,-10],[-48,-1],[-112,25],[-24,2],[-42,-11],[-26,-29],[-5,-17],[1,-97],[-6,-15],[-40,-40],[-15,-8],[-49,-7],[-29,7],[-79,44],[-12,1],[-78,-27],[-33,5],[-39,16],[-31,34],[-12,26],[4,82],[-1,28],[-32,84],[-5,33],[-2,60],[-8,25],[-24,14],[-45,4],[-25,10],[-13,17],[-5,96],[4,211],[-2,43]],[[6059,9573],[-4,27],[-24,206],[-18,143],[4,144],[7,153],[4,115],[118,12],[25,14],[25,40],[35,45],[14,66],[36,47],[32,36],[68,82],[46,52],[3,12],[2,131],[8,17],[29,35],[13,51],[33,24],[32,155],[7,27],[-8,34],[-11,14],[-43,3],[-55,-38],[-24,9],[4,92],[-47,-6],[-6,-74],[-13,-5],[-32,0],[-16,-9],[-61,-55],[-21,-3],[-27,4],[-22,-4],[-43,13],[-14,-3],[-35,-44],[-9,-53],[-10,-28],[-5,-84],[-16,-15],[-25,-7],[-8,-10],[-10,-79],[-7,-15],[-35,-40],[-1,-8],[21,-60],[-16,-59],[-21,-29],[-10,-34],[-16,-9],[-25,-34],[-39,1],[-16,7],[-15,23],[-13,7],[-15,-11],[-25,-35],[-19,-14],[-54,-22],[-15,-25],[-16,-12],[-15,0],[-98,24],[54,208],[-4,18],[-69,123],[-173,92],[-16,3],[-238,-12],[-49,-184],[-6,-29]],[[5046,10733],[0,75],[3,134],[1,206],[3,213],[3,304],[4,162],[2,151],[-197,-4],[-11,28],[-23,-9],[-34,9],[-12,28],[-20,13],[-14,23],[9,22],[12,7],[-20,37],[-4,33],[-19,18],[-13,24],[-32,-1],[-2,-22],[-14,-10],[-28,-29],[-16,-27],[-21,-22],[1,-41],[-19,-20],[3,-20],[9,-9],[-8,-29],[-21,-9],[-47,-33],[-32,-30],[-46,-15],[-26,-27],[-7,-25],[-2,-57],[-12,-29],[-18,-20],[-26,-15],[-45,-9],[-38,-1],[-29,15],[-11,58],[6,28],[-11,31],[1,22],[-14,17],[-39,2],[-18,-31],[-25,-9],[-31,23],[-28,-1],[-11,-6],[-55,-4],[-35,-11],[-37,-22],[-21,-38],[-17,-21],[-44,-21],[-21,-22],[-33,-4],[-53,-26],[-30,2],[-33,-11],[-46,37],[17,4],[28,-12],[8,-11],[34,5],[20,-3],[32,20],[55,18],[63,43],[17,19],[27,39],[52,23],[13,62],[-14,38],[15,91],[-1,15],[-17,43],[-21,12],[-9,41],[-18,47],[-3,28],[40,90],[-4,32],[-20,38],[-11,9],[-28,4],[-28,15],[-47,-32],[-26,-1],[-75,31],[-40,-3],[-14,8],[-51,2],[-15,-5],[-16,-29],[-205,2],[-11,-7],[-7,-28],[17,-16],[-1,-15],[-65,2],[-12,3],[-17,22],[-12,51],[-12,20],[-32,9],[-71,1],[-32,-7],[-40,-26],[-125,1],[12,146],[5,77],[-1,210],[-5,193],[1,153],[-3,204],[-5,245],[-8,167],[-1,133],[2,70],[8,35],[-7,43],[0,44],[-7,19]],[[5021,2468],[-1,47],[24,3],[26,13],[52,17],[20,24],[-8,21],[12,12],[14,-13],[16,41],[12,-8],[13,11],[8,29],[33,0],[21,15],[10,25],[-12,31],[9,22],[19,1],[36,15],[27,-2],[28,13],[13,21],[40,5],[24,15],[24,25],[-8,17],[33,27],[21,-3],[50,10],[51,15],[34,5],[39,13],[-13,12],[35,35],[22,2],[-12,28],[32,-8],[23,6],[-4,17],[21,16],[48,2],[32,-7],[15,-14],[23,-1],[14,-11],[26,5],[13,-12],[11,12],[14,-8],[37,-1],[20,10],[40,9],[32,12],[17,12],[42,8],[19,16],[16,22],[7,39],[-18,29],[-2,25],[13,43],[17,39],[26,23],[7,26],[18,10],[23,-7],[12,14],[3,20],[-6,22],[15,18],[-21,37],[-10,30],[-1,27],[8,22],[-11,23],[4,16],[19,31],[24,21],[68,21],[62,22],[11,9],[6,20],[-6,36],[5,30],[34,24],[4,8],[79,-4],[57,0],[148,3],[-3,202],[-1,107],[16,47],[22,39],[-2,16],[-30,28],[5,65],[-13,4],[-191,-6],[-11,1],[6,86],[-4,160],[-4,120],[-2,90]],[[6607,4733],[77,-1],[61,10],[459,153],[121,38],[102,34],[26,12],[178,60],[62,9],[155,9]],[[7848,5057],[146,7],[66,2],[211,3],[3,-227],[8,-253],[3,-129],[-17,-19],[-18,-3],[-102,-2],[-15,-6],[50,-69],[12,-20],[41,-40]],[[8236,4301],[4,-33],[10,-14],[-5,-21],[-15,-9],[-6,-16],[5,-16],[-18,-23],[3,-16],[-8,-15],[-18,-11],[-9,-34],[-11,-18],[-31,-25],[-3,-12],[-20,-22],[-17,-5],[-12,-37],[5,-16],[-2,-30],[-12,-27],[-24,-17],[-24,-54],[-25,-23],[-158,4],[0,-191],[2,-298],[2,-243],[2,-108],[2,-176],[1,-221],[-1,-163],[20,-15],[100,0],[12,-15],[2,-100],[4,-98],[10,-59],[10,-20],[7,-45],[-87,-38],[-76,-31],[-29,-5],[-54,-3],[-1,-66],[-20,-2]],[[7751,1914],[-67,1],[-125,54],[-31,8],[-124,-2],[-168,-6],[-107,-2],[-279,-9],[-220,-12],[-211,-6],[-211,-8],[-196,-10],[-83,-3],[-138,-7],[8,-193],[-6,-13],[-58,-5],[-156,-8],[-213,-14],[-49,-1],[-131,-8],[-164,-30],[0,188],[-2,213],[-1,47],[1,200],[2,52],[-1,128]],[[4680,16311],[1,206],[335,2],[8,12],[24,91],[3,32],[25,75],[24,39],[15,38],[97,118],[24,37],[32,56],[1,24],[-1,190],[9,10],[115,0],[8,6],[73,98]],[[5473,17345],[472,-1],[751,-1],[393,0]],[[7089,17343],[-13,-1],[-9,-13],[20,-33],[-5,-25],[-15,-23],[2,-22],[-20,-22],[-33,2],[-41,-22],[-2,-18],[13,-21],[-16,-43],[-8,-8],[7,-48],[-12,-21],[6,-25],[-21,-42],[1,-30],[14,-12],[-10,-13],[0,-35],[-22,-40],[-22,-19],[38,-15],[11,-15],[26,-20],[4,-27],[0,-51],[27,-40],[6,-23],[-7,-24],[-20,-26],[3,-20],[9,-15],[-14,-35],[-10,-13],[-41,-16],[4,-18],[11,-11],[30,-10],[5,-17],[-5,-13],[27,-17],[26,-43],[-68,1],[-50,-2],[-88,-11],[-42,-10],[-101,-33],[-124,-44],[-71,-19],[-59,-6],[-242,-2],[-280,-1],[-277,0],[-138,-1],[-46,-17],[-21,-17],[-34,-39],[-32,-23],[-36,-10],[-39,-2],[-188,7],[0,-120],[2,-64],[-4,-168],[1,-77],[-2,-71],[-1,-169],[-2,-55],[-2,-102],[-1,-122],[25,-45],[-3,-39],[-208,-1]],[[4902,15078],[-58,74],[-114,130],[-33,41],[-35,56]],[[3,4590],[31,2],[30,26],[23,25],[57,15],[6,10],[37,27],[14,33],[23,12],[21,23],[29,11],[10,18],[23,10],[18,24],[-9,43],[4,38],[14,3],[24,-6],[14,15],[21,-3],[13,10],[24,-2],[7,-20],[26,-15],[32,1],[10,-11],[29,6],[30,22],[13,19],[29,9],[9,-5],[35,6],[41,33],[9,18],[49,23],[29,26],[47,-2],[416,-2],[354,-8],[63,-1],[235,3],[182,-1],[233,-5],[184,-2]],[[2492,5018],[1,-223],[0,-203],[-3,-142],[2,-217],[3,-309],[0,-125],[-4,-259],[49,1],[280,2],[110,0],[-1,-155],[0,-90],[5,-180],[6,-214],[1,-282],[4,-142],[220,-2],[367,-2],[400,-3],[199,0],[371,-4],[177,0],[316,-2],[26,1]],[[7751,1914],[4,-111],[-2,-25],[-47,0],[-4,-42],[-26,-190],[-16,-127],[2,-48],[-11,-15],[-1,-223],[-4,-340],[5,-55],[33,-124],[3,-28],[10,-475]],[[7697,111],[-304,-4],[-168,-6],[-207,-3],[-357,-20],[-460,-20],[-59,6],[-235,-15],[-365,-16],[-564,-18],[-504,-15],[-53,0],[-668,6],[-132,5],[-70,-3],[-211,0],[-189,2],[-210,-1],[-186,2],[-855,11],[-468,-4],[-168,0],[-415,4],[-415,5],[-413,2],[3,358],[8,1055],[3,1186],[0,296],[-6,182],[0,45],[8,198],[-18,213],[-4,189],[-3,72],[-3,159],[-1,163],[-4,370],[-1,75]],[[12822,8198],[-1,-116],[6,-422],[1,-453],[0,-216],[0,-379],[-4,-603],[0,-108],[6,-171],[0,-95],[1,-144],[-2,-294],[-2,-64],[1,-250],[-1,-253],[1,-41],[1,-368],[7,-381],[-1,-87],[1,-186],[1,-136],[4,-522],[1,-256],[0,-76],[1,-364]],[[12843,2213],[-150,2],[-121,-2],[-142,1],[-103,3],[-111,2],[-153,-1],[-137,-2],[-110,-4],[-215,0],[-169,2],[-215,-2],[-54,-1],[-149,-8],[-52,-1],[-179,6],[-389,7],[-77,1],[-90,3],[-53,13],[-41,22],[-51,35],[-51,24],[-31,7],[-53,6],[-115,9],[-19,3],[-125,30],[-61,4],[-93,-8],[-39,-7],[-21,-8],[-44,-24],[-71,-45],[-52,-23],[-9,32],[4,33],[9,14],[29,18],[18,20],[18,52],[1,19],[-6,59],[4,20],[37,61],[2,18],[-9,26],[-39,38],[-17,40],[-9,49],[-2,55],[-4,15],[-24,37],[-9,35],[-18,18],[-46,21],[-29,32],[-37,16],[-67,-12],[-236,13],[-114,0],[-32,11],[-15,22],[-4,14],[-4,111],[-6,247],[-19,12],[-168,-14],[-19,7],[1,44],[7,167],[6,34],[15,25],[17,129],[-1,50],[-17,111],[-22,157],[-9,27],[-26,37],[-18,14],[-134,61],[-31,16],[-39,33]],[[7848,5057],[-8,11],[3,206],[7,205],[1,199],[-2,228],[0,123],[-1,120],[0,141],[-3,116],[63,-1],[199,-11],[171,-11],[200,4],[88,3],[19,10],[-21,15],[18,14],[21,-1],[40,18],[38,23],[13,21],[52,16],[-4,31],[-19,-1],[-2,12],[27,49],[21,16],[19,6],[26,21],[41,8],[28,-7],[45,10],[16,-31],[36,0],[23,-14],[39,-12],[23,-17],[16,-2],[17,13],[2,33],[14,3],[34,-36],[12,-22],[-12,-18],[-1,-16],[16,-5],[21,7],[13,34],[22,11],[22,-7],[28,7],[10,-4],[7,-21],[-4,-22],[9,-5],[27,12],[13,-10],[40,5],[19,23],[4,31],[12,19],[23,13],[18,19],[32,0],[44,23],[21,-6],[17,3],[16,-17],[11,-3],[7,-25],[18,-15],[34,32],[41,17],[11,12],[39,23],[23,-1],[37,-23],[54,-9],[35,-20],[39,-14],[28,4],[31,-27],[-11,-13],[12,-9],[28,-3],[19,5],[13,-4],[14,12],[13,-32],[12,3],[9,-14],[2,-30],[33,-13],[-9,-18],[10,-8],[20,6],[-1,23],[36,8],[29,-7],[5,-13],[18,4],[8,-9],[18,2],[16,-25],[17,-8],[22,-1],[33,-22],[25,2],[34,-16],[25,-20],[8,11],[18,-13],[49,-8],[13,-15],[13,9],[11,-9],[21,-1],[22,-31],[21,-54],[16,-18],[11,-26],[31,-9],[35,16],[19,1],[17,-10],[14,-18],[7,-20],[27,-18],[7,-11],[68,-7],[13,-11],[64,-2],[-7,-116],[-3,-82],[27,-9],[135,-6],[53,0],[94,5],[85,3],[175,11],[29,3],[12,17],[8,162],[3,44],[22,153],[0,22],[-17,147],[-5,66],[-9,194],[10,161],[1,52],[-2,176],[-18,11],[-135,-22],[-21,-1],[-13,10],[0,17],[11,163],[11,295],[-14,19],[-155,-4],[-24,1],[-11,15],[-8,195],[4,208],[0,161],[1,119],[-5,124],[-3,10]],[[2492,5018],[1,251],[-2,164],[147,-1],[163,-9],[167,-9],[-4,364],[-3,125],[-3,63],[-12,294],[4,97],[6,180],[4,118],[12,12],[193,-12],[80,-1],[16,52],[46,56],[40,32],[21,22],[2,16],[-2,128]],[[3368,6960],[1,82],[3,14],[14,9],[45,-5],[135,-3],[9,18],[12,208],[11,0],[190,5],[106,-5],[194,-21],[111,-7],[139,-6],[141,-5],[62,-3],[149,-6],[29,-4],[9,19],[28,38],[27,21],[158,89],[26,13],[26,7],[255,26],[99,8],[151,10],[96,4],[207,15],[-10,-239],[-7,-99],[-6,-107],[-1,-179],[-101,-8],[-192,-13],[-4,-19],[10,-198],[12,-125],[9,-119],[2,-175],[-17,-324],[26,-43],[3,-16],[-3,-76],[-35,-65],[-5,-32],[-1,-73],[-13,-159],[-6,-44],[-189,-3],[-16,-13],[-1,-446],[2,-134],[55,-1],[239,-6],[756,-25],[299,-7]],[[40,13425],[20,2],[39,-7],[24,-12],[54,-39],[32,-15],[171,-60],[68,-16],[49,6],[58,29],[17,6],[31,2],[25,-4],[126,-54],[50,-8],[40,12],[72,37],[38,11],[67,9],[35,10],[58,24],[20,5],[51,6],[33,7],[44,24],[55,56],[36,27],[56,25],[122,89],[53,28],[103,39],[186,74],[148,82],[18,16],[31,43],[31,27],[24,10],[26,5],[25,-2],[226,-32],[75,-23],[41,1],[26,8],[26,17],[39,42],[19,14],[127,77],[208,124]],[[5046,10733],[-1,-26],[-2,-210],[1,-187],[-3,-196]],[[5041,10114],[-127,-2],[-207,-7],[-62,-1],[-11,11],[8,178],[-15,0],[-302,35],[-126,15],[-198,0],[-16,-14],[-21,-39],[-21,-12],[-13,0],[-63,57],[-12,8],[-229,-1],[-38,1],[-4,-7],[2,-186],[-8,-12],[-49,-2],[-153,0],[-211,-6],[-1,-5],[-33,-24],[-34,5],[-12,-19],[-21,-1],[-17,8],[-30,-7],[-37,-39],[-3,-9],[-33,-20],[-16,-23],[-10,-26],[-11,-14],[-70,-5],[-13,6],[-18,-7],[0,-16],[-13,-22],[-20,-17],[-10,-17],[5,-21],[-20,-13],[-19,1],[-9,-23],[-4,-46],[-9,-3],[-53,-76],[1,-16],[-15,-6],[-25,-40],[3,-16],[14,-13],[6,-19],[-9,-21],[25,-51],[-3,-61],[-9,-53],[6,-42],[-1,-17],[-32,-31],[3,-31],[14,-22],[-23,-4],[-16,-12],[-27,-6],[-11,13],[-20,8],[-23,1],[-34,-44],[-34,-2],[-3,14],[20,38],[4,33],[-12,17],[-4,28],[-27,10],[-4,-11],[29,-20],[11,-21],[-4,-36],[-23,-15],[-13,-1],[-6,-16],[17,-17],[23,-12],[-38,-11],[-20,-12],[-34,20],[-40,-16],[0,-53],[45,5],[25,-17],[-49,-31],[-40,-11],[-4,-39],[39,-18],[10,-20],[66,26],[34,0],[114,-37],[34,0],[32,10],[45,27],[47,11],[24,-1],[70,-9],[42,-3],[96,19],[82,4],[161,-5],[29,-6],[139,-51],[141,-29],[47,-16],[25,-16],[132,-116],[23,-21],[45,-59],[42,-40],[21,-29],[16,-35],[30,-32],[29,-15],[107,-34],[28,-5],[37,1],[110,25],[31,13],[98,65],[56,30],[45,6],[82,-4],[66,18],[63,3],[36,9],[21,1],[38,-7],[24,3],[62,32],[66,25],[13,11],[33,56],[3,-52]],[[4931,8773],[-23,-25],[-9,-18],[-17,-15],[-27,-11],[-17,-25],[-26,-15],[-15,-1],[-28,-19],[-20,-20],[-28,-42],[-4,-18],[-22,-18],[-6,-21],[-20,-25],[-25,-4],[-16,-19],[-8,-20],[-20,-13],[-12,-19],[-15,5],[-67,-29],[-12,-28],[-4,-39],[-13,-16],[-38,-28],[-22,-1],[-22,-68],[-9,-13],[-8,-33],[1,-36],[16,-25],[6,-37],[-6,-16],[10,-26],[22,-13],[9,-16],[16,-12],[3,-32],[-7,-8],[-1,-24],[11,-31],[-5,-38],[-7,-19],[-19,-20],[12,-20],[3,-18],[-5,-23],[-28,-23],[0,-20],[-12,-16],[-12,-2],[4,-20],[-22,-36],[-3,-21],[8,-20],[-11,-10],[3,-28],[-22,-40],[-2,-29],[-15,-37],[-14,-1],[-41,18],[-19,-1],[-21,-11],[-10,11],[-15,1],[-14,24],[-47,-5],[-22,17],[-32,1],[-19,19],[-36,-10],[-28,-4],[-31,-54],[-18,4],[-26,-11],[-18,13],[-21,-6],[-59,9],[-16,5],[-239,10],[-288,4],[-131,2],[-13,-79],[-15,-37],[-1,-14],[45,-150],[26,-76],[31,-64],[8,-12],[28,-63],[15,-25],[17,-12],[67,-2]],[[3,4590],[-3,23],[0,121],[2,127],[-1,179],[2,182],[4,255],[1,137],[3,243],[-5,161],[3,373],[9,726],[3,382],[2,416],[19,838],[0,662],[-1,577],[-5,307],[0,94],[13,225],[2,85],[-16,525],[4,419],[2,419],[-6,806],[5,480],[0,73]],[[5670,9018],[-17,19],[-36,25],[-1,-21],[-95,-3],[-115,-2]],[[5406,9036],[-101,-5],[-6,56],[0,94],[15,19],[12,28],[2,19],[58,39],[-20,46],[-70,169],[-13,21],[-42,44],[-155,167],[-18,24],[-16,34],[-10,54],[0,212],[-1,57]],[[5406,9036],[5,-236],[-10,-6],[-92,-8],[-5,-7],[1,-96]],[[5305,8683],[-268,-20],[-105,8],[-1,102]],[[4902,15078],[95,-121],[45,-56],[45,-60],[64,-80],[22,-36],[14,-36],[34,-118],[6,-45],[-8,-79]],[[40,13425],[-7,265],[-10,413],[25,187],[5,298],[-12,330],[-6,402],[-12,401],[-4,405],[4,407],[24,410],[10,405],[379,-2],[666,-2],[385,3],[184,3],[82,3],[81,1],[265,-2],[46,-1],[409,1],[396,-2],[72,1],[67,-2],[132,-1],[9,2],[99,-2],[530,0],[252,-4],[138,-6],[32,2],[76,-2],[109,9],[1007,-2]],[[5824,8713],[-2,-102],[-100,-5],[-2,-12],[-1,-80],[-5,-11],[-79,-6],[-186,-12],[-144,-6],[0,204]],[[12843,2213],[0,-147],[1,-36],[3,-435],[0,-253],[2,-93],[-1,-66],[2,-627],[2,-413],[-541,9],[-879,13],[-132,-5],[-121,0],[-121,-3],[-41,1],[-94,-3],[-83,-8],[-34,-9],[-117,-4],[-168,0],[-26,-2],[-157,-2],[-238,3],[-337,-1],[-249,1],[-150,-2],[-233,-1],[-56,1],[-423,-12],[-384,-4],[-416,0],[-155,-4]],[[7089,17343],[526,-1],[996,6],[621,4],[1114,7],[835,6],[978,-3],[659,-3],[7,-773],[6,-619],[5,-613],[3,-384],[1,-44],[1,-267]]],"transform":{"scale":[0.000049606053532524814,0.00003485453498416358],"translate":[-90.67981,45.376898]},"objects":{"Geometry\\55-099":{"type":"GeometryCollection","geometries":[{"arcs":[[0,1,2]],"type":"Polygon","properties":{"GEOID":"550999702002"}},{"arcs":[[3,4,5,6,7]],"type":"Polygon","properties":{"GEOID":"550999705003"}},{"arcs":[[-2,8,9]],"type":"Polygon","properties":{"GEOID":"550999702003"}},{"arcs":[[10,11,12,13,-4,14,15]],"type":"Polygon","properties":{"GEOID":"550999701003"}},{"arcs":[[16,17,18,19,20]],"type":"Polygon","properties":{"GEOID":"550999707001"}},{"arcs":[[21,22,23,24,-9,-1]],"type":"Polygon","properties":{"GEOID":"550999702001"}},{"arcs":[[25,26,-21,27,28]],"type":"Polygon","properties":{"GEOID":"550999707003"}},{"arcs":[[-5,-14,29,30,-19,31]],"type":"Polygon","properties":{"GEOID":"550999706001"}},{"arcs":[[32,33,-17,-27]],"type":"Polygon","properties":{"GEOID":"550999707002"}},{"arcs":[[34,-16,35,36,37,-33,-26,38]],"type":"Polygon","properties":{"GEOID":"550999704001"}},{"arcs":[[-36,-15,-8,39,40]],"type":"Polygon","properties":{"GEOID":"550999705001"}},{"arcs":[[-41,41,42,-37]],"type":"Polygon","properties":{"GEOID":"550999704002"}},{"arcs":[[-22,-3,-10,-25,43,-11,-35,44]],"type":"Polygon","properties":{"GEOID":"550999701001"}},{"arcs":[[-40,-7,45,-42]],"type":"Polygon","properties":{"GEOID":"550999705002"}},{"arcs":[[-20,-31,46,-28]],"type":"Polygon","properties":{"GEOID":"550999706003"}},{"arcs":[[-43,-46,-6,-32,-18,-34,-38]],"type":"Polygon","properties":{"GEOID":"550999706002"}},{"arcs":[[47,-12,-44,-24]],"type":"Polygon","properties":{"GEOID":"550999701002"}}]}}}