{"type":"Topology","arcs":[[[4494,5084],[95,2],[37,18],[11,13],[41,101],[6,20],[8,208],[1,90],[6,161],[35,5],[54,21],[2,98],[8,158]],[[4798,5979],[42,3],[135,-4],[101,-4],[271,-9],[66,-1],[311,-12],[284,-4],[180,-5],[95,-4],[348,-18]],[[6631,5921],[-8,-47],[-45,-88],[-50,-58],[-9,-14],[-4,-25],[19,-287],[11,-80],[0,-87],[-7,-184],[45,-120],[8,-12],[49,-48],[29,-63],[9,-25],[28,-182],[11,-42],[60,-123],[54,-108],[16,-54],[24,-145]],[[6871,4129],[-101,-14],[-168,16],[-57,16],[-67,22],[-95,41],[-85,31],[-109,23],[-137,38],[-51,12],[-29,10],[-67,28],[-60,28],[-78,17],[-90,11],[-184,12]],[[5493,4420],[-61,2],[-64,13],[-111,33],[-133,61],[-109,67],[-66,36],[-177,91],[-28,14],[-54,17],[-39,10],[-79,10],[-88,-1]],[[4484,4773],[5,138],[5,173]],[[2947,4064],[12,8],[13,21],[66,1],[13,11],[46,65],[78,5],[18,12],[17,-1],[25,20],[23,-16],[17,0],[16,47],[17,36],[22,30],[-1,27],[-11,10],[-24,-1],[-41,11],[-27,1],[-4,30],[15,26],[-1,57],[21,29],[23,9],[15,28],[16,15],[27,8],[19,12],[25,24],[19,45],[13,15],[2,36],[13,54],[-7,38],[-15,22],[95,-35],[69,-9],[212,0],[84,-3],[-15,-63],[-7,-51]],[[3845,4638],[-3,-64],[1,-389],[1,-32],[11,-47],[-2,-51]],[[3853,4055],[-1,-68]],[[3852,3987],[-108,4],[-281,16],[-168,7],[-185,10]],[[3110,4024],[-133,5],[-17,-1],[-13,36]],[[3845,4638],[11,2],[107,0],[230,-2]],[[4193,4638],[-1,-90],[-5,-11],[-51,-66],[-26,-60],[-12,-58],[-18,-74],[-51,-119],[0,-113],[-176,8]],[[4193,4638],[210,-2],[78,1]],[[4481,4637],[-3,-44],[-8,-28],[-21,-51],[-10,-32],[-15,-78],[-14,-35],[-33,-46],[-54,-32],[-12,-15],[-5,-21],[2,-134],[1,-149]],[[4309,3972],[-130,3],[-149,5],[1,-45],[-181,7]],[[3850,3942],[2,45]],[[4309,3972],[5,-155],[0,-94],[10,-28],[11,-16],[59,-64],[-50,2],[-323,13],[-18,-46],[-27,-64],[-37,-60],[-18,-39],[-10,-48],[-13,-111]],[[3898,3262],[-24,-1],[-10,16]],[[3864,3277],[2,27],[-1,67],[-4,140],[-8,187],[-4,66]],[[3849,3764],[-3,63],[4,115]],[[3849,3764],[-45,34],[-55,79],[-17,-16],[-94,-73],[-8,-1],[-164,-60],[-29,-6],[-118,-18],[-43,-11],[-84,-31]],[[3192,3661],[-67,111],[-11,33],[-4,219]],[[3864,3277],[-20,-17],[-30,-7],[-77,-10],[-39,3],[-44,33]],[[3654,3279],[-42,36],[-7,30],[-10,11],[-15,0],[-23,11],[-10,-2],[-25,-49],[-18,-19],[-20,0],[-13,17],[-43,18],[-20,34],[1,12],[-17,32],[-17,-46],[-20,-28],[-39,-30]],[[3316,3306],[0,60],[-4,34],[-8,23],[-82,153],[-18,37],[-12,48]],[[3019,1276],[2,120],[-1,82],[274,-13]],[[3294,1465],[184,-4],[1,104],[-46,62],[-13,21],[-22,61],[-1,27],[176,-6],[1,154]],[[3574,1884],[-1,25],[35,-2],[22,-26],[13,-2],[-12,41],[7,31],[36,14],[17,-6],[6,-14],[-23,-13],[-4,-19],[-1,-37],[16,-31],[24,-20],[25,3],[4,34],[10,16],[16,-3],[27,-38],[38,0],[29,33],[43,2],[28,-14],[11,-16],[-2,-13],[-44,-65],[4,-24],[20,-21],[18,7],[-10,30],[9,7],[32,-7],[43,40],[23,4],[27,-16],[6,-34],[-1,-32],[16,-13],[31,-4],[21,13],[16,-4],[2,-15],[40,-35],[68,-4],[10,6],[-12,18],[-1,15],[18,29],[8,27],[22,30],[43,23],[25,2]],[[4372,1806],[-9,-35],[-1,-50],[13,-53],[8,-61],[30,-162],[2,-87],[6,-75],[10,-25],[27,-25],[10,-20],[4,-63],[-60,2],[-7,-3],[0,-72],[4,-437]],[[4409,640],[3,-276],[40,0],[6,-6],[32,-122],[12,-60],[12,-141],[1,-24]],[[4515,11],[-60,-4],[-40,0],[-354,10],[-29,2],[-190,6],[-15,0],[-147,6],[-185,5],[-190,3]],[[3305,39],[11,48],[-7,51],[-6,347],[-22,14],[-17,28],[-47,60],[-56,61],[-40,50],[-6,15],[0,37],[-7,9],[-82,3],[-5,8],[0,69],[-3,170],[7,103],[-7,108],[1,56]],[[3025,2604],[249,-8],[7,187],[22,84],[3,21],[4,240],[6,178]],[[3654,3279],[-50,-151],[-114,-328],[-74,-211],[-31,-107],[-82,-240]],[[3303,2242],[-73,-2],[-1,14],[-51,-3]],[[3178,2251],[0,103],[7,28],[-151,5],[-20,8],[-59,-2],[18,74],[44,108],[8,29]],[[2537,2619],[34,19],[83,13],[50,-2],[12,-8],[20,-26],[17,-4],[272,-7]],[[3178,2251],[0,-37],[-45,15]],[[3133,2229],[-114,40],[-24,22],[-29,51],[-16,15],[-153,95],[-222,142],[-38,25]],[[3303,2242],[-8,-35]],[[3295,2207],[1,-106]],[[3296,2101],[-51,15],[-26,1],[-27,-28]],[[3192,2089],[-37,-28],[-21,-9]],[[3134,2052],[-2,159],[1,18]],[[3099,1831],[124,-6],[74,-5]],[[3297,1820],[-1,-103]],[[3296,1717],[-161,8],[5,23],[15,29],[-16,4],[-11,-8],[-50,12],[21,46]],[[3295,2207],[181,2],[-2,18],[55,-1],[21,-15],[-4,-21],[8,-15],[-1,-18],[123,52],[42,21]],[[3718,2230],[1,-26],[-10,-47],[-15,-36],[-17,-18],[-86,-39],[-26,-9],[-29,-2],[-44,9]],[[3492,2062],[-28,16],[-70,33],[-16,0],[-69,-11],[-13,1]],[[3898,3262],[-12,-64],[-49,-82],[-34,-76],[-97,-149],[-7,-33],[-35,-103],[-10,-40],[-23,-44]],[[3631,2671],[-16,-32],[-83,-105],[-38,-73],[-9,-52],[24,-54],[30,-27],[54,-14],[54,-22],[44,-28],[27,-34]],[[4409,640],[41,-30],[29,-30],[43,-5],[45,-2],[11,-8],[20,-29],[22,-22],[143,-119],[24,-32],[291,1],[197,1],[228,-1],[1,-24],[16,-34],[70,11],[29,-12],[14,0],[19,-57],[3,-36],[-1,-47],[-8,-91],[0,-67]],[[5646,7],[-578,2],[-388,1],[-126,-1],[-39,2]],[[4492,7717],[28,16],[52,15],[-2,-106],[3,-141],[1,-26],[40,-8],[15,10],[23,47],[44,28],[22,8],[18,19],[27,15],[28,8],[33,-1],[14,15],[-4,35],[0,41],[8,49],[-13,50],[10,48],[3,41],[7,11],[45,-1],[45,-24],[38,9],[43,19],[-18,-51],[21,7],[84,18],[67,21],[-1,62],[8,30],[13,21],[16,11],[32,5]],[[5242,8018],[-17,-66],[-7,-47],[-4,-96],[-7,-211],[-4,-87],[-4,-178],[-3,-89],[367,-19],[3,174],[8,112],[13,241]],[[5587,7752],[129,-5],[35,-15],[98,-74],[18,-6],[84,-3],[73,1],[18,4],[61,37],[16,-25],[23,-22],[103,-79],[127,-99]],[[6372,7466],[23,-16],[43,-13],[49,-5],[150,-24],[35,-11]],[[6672,7397],[-6,-368],[-6,-355],[-2,-177]],[[6658,6497],[-4,-213],[-2,-259],[-21,-104]],[[4798,5979],[-267,-15],[-93,-3],[-557,-2]],[[3881,5959],[3,117],[6,13],[71,62],[73,28],[37,26],[4,8],[16,225],[2,12],[58,1],[13,8],[29,85],[2,227],[0,123],[2,236],[-4,22],[8,32],[26,57],[14,41],[16,26],[84,90],[18,24],[37,61],[12,33],[13,66],[20,69],[15,30],[36,36]],[[8661,1428],[139,104]],[[8800,1532],[0,-276],[-2,-157],[3,-87],[1,-72],[-2,-41],[5,-266],[-3,-53],[4,-200],[6,-327],[0,-38],[-93,-2],[-231,-4],[-137,0],[-218,-2],[-58,0],[-183,-2],[-124,0],[-219,-3]],[[7549,2],[-22,120],[-2,16],[1,100],[13,68],[-1,45],[7,28],[85,153],[23,28],[197,152],[179,197],[28,33],[34,4],[81,27],[131,51],[36,16],[33,9],[39,0],[28,-7],[22,-11],[70,85],[24,40],[7,20],[35,121],[31,67],[17,42],[16,22]],[[2221,2582],[79,-8],[34,0],[18,6],[41,28],[33,10],[44,-1],[35,-10],[32,12]],[[3134,2052],[-15,-6],[-52,-10],[-18,1],[-37,-6],[-40,-23],[-48,-23],[-95,-6],[-32,-13],[-39,-38],[-37,-53]],[[2721,1875],[-40,14],[-33,-23],[-29,-9],[-74,-1],[-67,11]],[[2478,1867],[-41,16],[-200,93],[-30,19],[11,56],[1,214],[2,317]],[[3297,1820],[0,111]],[[3297,1931],[70,0],[48,-4],[1,66],[17,0],[1,60],[52,-16]],[[3486,2037],[-1,-62],[18,-23],[27,5],[39,41],[18,10],[21,-9],[-30,-58],[-19,-14],[5,-35],[10,-8]],[[3294,1465],[2,252]],[[7549,2],[-138,-2],[-331,2],[-530,2]],[[6550,4],[4,41],[28,21],[29,29],[0,20],[-54,35],[1,15],[-25,80],[23,43],[9,35],[10,7],[33,52],[2,37],[7,3],[107,24],[26,13],[24,18],[23,32],[77,166],[22,38],[16,15],[59,33],[45,41],[47,33],[92,55],[101,49],[25,2],[43,-8],[104,-24],[-2,247],[-28,3],[-17,7],[-23,19],[-11,16],[-34,110],[-30,52],[8,4],[41,-11],[44,-5],[19,19],[24,9],[29,2],[27,8],[24,-18],[5,-14],[33,-15],[-1,-14],[15,-14],[43,-23],[4,16],[33,-7],[3,-18],[18,-41],[16,6],[13,-10],[28,5],[14,-20],[21,-2],[25,7],[33,-14],[19,-29],[28,8],[11,34],[46,4],[11,11],[79,-7],[32,-6],[5,-14],[36,6],[21,-7],[-1,17],[16,33],[35,61],[76,113],[30,-13],[278,2],[123,3],[14,-1]],[[2721,1875],[-14,-31],[-7,-47],[4,-23],[44,-69],[29,-49],[3,-35],[-8,-29],[-29,-37],[-14,-86],[15,-10],[6,-17],[19,-17],[6,-33],[24,-14],[33,-3],[16,-10],[68,-7],[2,-23],[16,-22],[17,-6],[5,-15],[24,-10],[18,-15],[21,9]],[[3305,39],[-359,15],[-191,10],[-3,-2],[-177,8],[-357,17],[-78,1],[-107,1],[-55,2],[-129,1],[-552,-1],[-183,0],[-631,21]],[[483,112],[28,399],[791,755],[233,183],[219,169],[0,105],[57,12],[44,14],[60,-5],[119,17],[93,16],[95,0],[62,18],[131,43],[51,15],[12,14]],[[3492,2062],[-6,-25]],[[3297,1931],[-1,170]],[[8679,7103],[4,104],[8,341],[54,-19],[47,13],[35,15],[45,-2]],[[8872,7555],[-3,-132],[-5,-134],[-1,-89],[-4,-171],[-6,-13],[3,-31],[-2,-141]],[[8854,6844],[-135,6],[-44,22]],[[8675,6872],[0,54],[4,177]],[[6875,4102],[20,7],[26,18],[38,37],[38,17],[36,4],[122,-17],[240,-18],[112,0],[106,5],[123,25],[21,2],[184,-7],[23,28],[16,12],[26,40],[25,27],[23,16],[31,13]],[[8085,4311],[43,17],[23,5],[89,0],[83,-15],[56,-13],[34,3],[19,8],[49,31],[43,14],[50,12],[221,65],[20,9]],[[8815,4447],[-4,-116],[0,-95],[-3,-117],[0,-140],[5,-48],[-5,-122],[2,-137],[1,-432]],[[8811,3240],[-26,-37],[-52,-80],[-33,-40],[-42,41],[-17,9],[-67,25],[-44,13],[-211,123],[-19,12],[-19,21],[-47,74],[-18,4],[1,33],[-20,28],[1,-40],[-13,-19],[-24,-21],[-40,-4],[-11,5],[-2,22],[-23,14],[-20,6],[-20,-12],[-67,21],[-22,20],[-8,-30],[-38,8],[-55,-1],[-10,-15],[-1,-55],[-11,-16],[-16,21],[-35,-15],[-17,24],[-3,-36],[-6,-19],[-18,3],[-35,-23],[-221,139],[-51,42],[-7,34],[-61,-45],[-114,-106],[-15,-7],[16,-87],[9,-30],[14,-17],[98,-67],[7,-10],[28,-78],[1,-17],[-157,-3],[-62,-2],[-170,1],[-26,36],[-17,3],[-125,10],[-62,3],[-131,2],[-154,-1]],[[6503,3104],[-1,63],[5,17],[25,50],[6,20],[9,66],[4,130],[19,48],[8,48],[18,41],[2,44],[19,27],[6,46],[18,58],[25,5],[-11,38],[-5,63],[0,31],[140,9],[92,8],[-1,100],[-2,54],[-4,32]],[[1619,6225],[48,0],[29,-10],[34,-26],[37,-73],[16,-56],[41,-118],[24,-33],[80,-91]],[[1928,5818],[11,-18]],[[1939,5800],[-52,9],[-10,-25],[-29,3],[-29,-6],[-38,-23],[-111,1],[-111,-5]],[[1559,5754],[73,469],[-13,2]],[[5475,8692],[72,-2]],[[5547,8690],[-17,-98]],[[5530,8592],[-16,3],[-22,-130]],[[5492,8465],[-12,-64],[2,-11],[45,-8],[-4,-22]],[[5523,8360],[-115,58]],[[5408,8418],[4,21],[18,-3],[42,251],[3,5]],[[7977,6500],[-35,22],[-12,19],[-2,46],[-5,40],[-24,40],[-36,35],[-14,34],[-2,58],[3,69],[96,-1],[474,-1],[236,-8],[14,-3],[5,22]],[[8854,6844],[-6,-354],[-4,-133],[-2,-164],[0,-89],[-3,-355],[-5,-320],[0,-16],[-6,-452],[-5,-170],[1,-52],[-9,-292]],[[8085,4311],[-11,48],[-4,76],[3,75],[5,179],[4,93],[-8,29],[-29,28],[-34,17],[-27,18],[-95,80],[-28,29],[-35,49],[-40,73],[-59,138],[-9,46],[2,166],[-12,70],[4,43],[21,28],[176,123],[28,34],[60,144],[13,16],[60,29],[18,20],[6,19],[1,41],[16,34],[-2,37],[-12,30],[-3,20],[2,89],[-12,30],[-19,14],[-41,20],[-13,15],[-8,30],[4,109],[-6,27],[-24,23]],[[17,3924],[27,-11],[12,35],[42,1],[6,19],[90,0],[23,64],[6,10],[29,-16],[369,-265],[49,-39],[8,7],[19,63],[42,-1],[22,26],[36,69],[14,110],[36,60],[56,83],[33,52],[7,21],[4,200]],[[947,4412],[354,-8],[280,-6],[89,0]],[[1670,4398],[-1,-354],[-2,-340],[-4,-15],[-188,1],[-357,6],[4,-359],[-1,-357],[1,-65],[-7,-286]],[[1115,2629],[-36,-6],[-132,4],[-98,32],[-100,28],[-24,1],[-70,-11],[-15,-6],[-51,-32],[-22,-9],[-33,-2],[-73,0],[-82,3],[-49,1],[-118,-3],[-61,2],[-141,1]],[[10,2632],[1,352],[1,96],[9,777],[-4,67]],[[73,7986],[130,5],[221,7]],[[424,7998],[-3,-148],[-2,-119],[70,-1],[75,1],[36,3],[33,20],[105,54],[69,16],[26,3],[58,-1],[9,69],[25,55],[19,37],[40,59],[2,8],[4,107],[8,14],[-11,53],[2,93],[-34,-1],[15,42],[21,13],[38,-1],[27,19],[18,7],[26,36],[-13,20],[-8,32],[2,56],[-31,-8],[-2,25],[-39,39],[-6,11],[-28,19],[-32,4],[12,32],[-1,18],[23,19]],[[977,8703],[97,0],[139,-2],[13,-3],[47,0],[352,-3],[114,3],[269,3],[95,-4],[176,2]],[[2279,8699],[105,-65],[39,-14],[0,-9],[30,-18],[-1,-71],[-5,-194],[-8,-14],[-142,-154],[-4,-2],[-2,-213],[0,-192],[-1,-139],[-4,-311],[-1,-8],[-1,-209],[-15,-360],[-8,-183],[-5,-171],[-5,-96],[-10,-267]],[[2241,6009],[-45,16]],[[2196,6025],[-316,143],[-324,146]],[[1556,6314],[-421,190],[-94,36],[-63,16],[-74,10],[-38,2],[-100,1],[-179,0],[-275,-2],[-89,1],[-195,-3]],[[28,6565],[10,177],[3,178],[6,189],[9,245],[9,364],[8,268]],[[6658,6497],[342,-3],[176,1],[377,4],[424,1]],[[6875,4102],[-4,27]],[[2228,5114],[333,-7],[177,-2],[17,2],[-7,45],[0,28],[2,195],[6,34],[57,166],[8,30],[0,34]],[[2821,5639],[1,180],[2,117],[46,50]],[[2870,5986],[110,-2],[347,-5],[369,-19]],[[3696,5960],[-10,-341],[103,-15],[25,0],[78,8],[71,2],[132,-3],[-17,-33],[-76,-90],[-23,-35],[-23,-19],[-21,-33],[-2,-38],[24,-66],[1,-28],[46,-4],[113,-2],[-20,-27],[-10,-45],[6,-11],[89,82],[174,175],[66,51],[23,22],[16,-15],[22,-6],[26,4],[-3,-129],[-9,-199],[-3,-81]],[[4484,4773],[-3,-136]],[[2947,4064],[-26,69],[-19,33],[-43,39],[-128,125],[-94,94],[-21,15],[-143,69],[-27,16]],[[2446,4524],[-25,26],[-16,23],[-45,102],[-134,242]],[[2226,4917],[-110,198],[112,-1]],[[5639,8687],[233,-5],[224,-2]],[[6096,8680],[-3,-63],[-6,-8],[-51,-46],[-60,0]],[[5976,8563],[-59,-19],[-102,5],[-9,-4],[-38,-42],[-30,1]],[[5738,8504],[-27,80],[-29,41],[-25,10],[-13,15],[-5,37]],[[4372,1806],[11,-22],[-10,-46],[4,-24],[26,-2],[56,32],[15,1],[6,-14],[-11,-23],[-3,-26],[8,-57],[28,-29],[28,-18],[14,13],[-1,44],[6,21],[28,-3],[32,-22],[22,1],[18,19],[4,16],[-10,60],[2,13],[34,19],[126,11],[31,0],[27,-8],[12,-14],[30,-59],[23,-8],[24,20],[20,45],[14,5],[54,5],[15,-2],[18,-15],[2,-47],[29,-43],[13,2],[40,37],[26,14],[24,-11],[18,-23],[24,-11],[90,21],[12,-5],[43,-57],[4,-11],[-18,-34],[23,-16],[34,-47],[34,-21],[38,-6],[25,-27],[13,-8],[27,12],[-2,32],[-11,22],[-2,20],[16,22],[12,-12],[10,-37],[20,-1],[21,12],[19,-15],[-4,-29],[9,-13],[51,-16],[2,-37],[19,-25],[3,-24],[48,-37],[27,-36],[10,-6]],[[5822,1278],[31,-4],[36,-11],[22,3],[74,-3],[16,-8],[48,-7],[18,23],[4,16],[18,15],[12,-5],[15,-20],[12,2],[15,18],[44,5],[30,12],[42,10],[25,16],[45,42],[19,5],[14,-5],[16,-33],[9,-30],[26,-22],[27,-8],[17,27],[-10,28],[0,15],[15,14],[15,1],[33,-17],[29,4],[10,37],[14,39],[17,18],[20,-6],[-1,160],[0,169],[6,3],[355,-3],[92,-1],[5,178],[-4,88],[0,218],[99,24],[124,38],[52,12],[163,16],[27,7],[54,21],[28,7],[247,-7],[39,-9],[57,-56],[10,-7],[112,-69],[18,-8],[83,-29],[123,-34],[30,-16],[146,-97],[23,-4],[216,3],[42,6],[56,12]],[[8802,2071],[-1,-282],[-1,-257]],[[6550,4],[-904,3]],[[6672,7397],[95,-49],[73,-40],[12,-9],[54,59]],[[6906,7358],[22,15],[37,8],[120,-2],[48,9],[51,-8],[181,-1],[290,6],[15,-7],[1,47],[84,-45],[14,-3],[95,-26],[12,58],[20,38],[85,-81],[25,-23],[39,-27],[58,-28],[122,-40],[277,-85],[127,-44],[50,-16]],[[8811,3240],[-2,-205],[-3,-155],[-3,-338],[0,-375],[-1,-96]],[[5822,1278],[2,56],[14,129],[8,27],[21,36],[53,87],[47,82],[31,97],[5,64],[0,60],[-11,115],[-37,73],[-56,69],[-36,1],[2,136],[13,33],[21,20],[12,32],[1,188],[2,17],[47,94],[16,79],[9,28],[45,62],[13,35],[-1,72],[73,-2],[51,-32],[70,-26],[144,-19],[37,71],[22,22],[27,32],[36,49],[0,39]],[[1556,6314],[9,-22],[41,-48],[13,-19]],[[1559,5754],[-44,-206],[-9,-45],[18,-52],[62,-34],[20,-82],[11,-29],[-55,28],[-25,-23],[12,-13],[-3,-22],[-19,-10],[46,-23],[8,5],[22,-17],[58,-75],[21,-130],[-34,-33],[-3,-32],[8,-13],[-28,-11],[-20,-27],[-2,-15],[13,-48],[-16,-46],[3,-46],[85,-1],[41,9],[34,20],[32,39],[59,31],[93,-2],[0,-88],[277,-6],[2,160]],[[2446,4524],[-12,-9],[-64,5],[-148,10],[-81,0],[-22,-23],[-21,-60],[-39,-44],[-8,-4],[-196,-2],[-47,-2],[-138,3]],[[947,4412],[-201,4],[-143,1],[-12,-6],[-48,-53],[-24,-18],[-29,-2],[-99,44],[-89,42],[-114,93],[-56,6],[-27,12],[-33,35],[-44,40]],[[28,4610],[9,335],[2,121],[4,178],[-2,16],[3,248],[-1,12],[-1,336],[-2,204],[-3,150],[-6,180],[-3,175]],[[1115,2629],[174,47],[32,6],[70,7],[47,-4],[68,-15],[28,-11],[45,-28],[34,-10],[88,0],[114,-3],[69,-20],[31,-6],[29,3],[34,9],[28,1],[215,-23]],[[483,112],[-231,7],[-252,9],[0,44],[7,566],[-1,277],[-1,350],[1,179],[0,346],[4,384],[1,173],[-1,185]],[[3099,1831],[26,41],[-19,11],[38,65],[11,7],[31,60],[-17,8],[9,18],[31,23],[-17,25]],[[5493,4420],[-2,-101],[-71,-15],[-27,-1],[3,-260],[92,-2],[1,-89],[-1,-236],[26,-48],[26,-69],[29,-37],[8,-30],[2,-104],[-1,-55],[92,-1],[-2,-130],[-133,-1],[-286,4],[-515,5],[-4,-17],[-2,-182],[-5,-20],[-19,-28],[-31,-18],[-10,-30],[-1,-59],[5,-339],[-12,-2],[-51,-101],[-148,1],[-41,5],[-81,105],[-33,69],[-24,30],[-44,24],[-3,31],[-14,11],[-42,-4],[-21,6],[-37,2],[-31,-14],[-15,3],[-20,-18],[-20,1],[-12,-18],[-13,2],[-59,-17],[-16,11],[-24,2],[-25,-6],[-25,21],[-25,4],[-13,-20],[-2,-20],[-146,7],[-39,-1]],[[5601,8321],[69,-34],[46,-21],[45,-14]],[[5761,8252],[139,-42],[244,-75]],[[6144,8135],[20,-46],[3,-36],[2,-82],[10,-25],[-2,-16],[-23,-29],[1,-47],[-9,-49],[0,-19],[11,-40],[2,-34],[13,-17],[26,-5],[57,-28],[15,-19],[32,-8],[25,-18],[15,-26],[18,-20],[5,-21],[16,-22],[18,-33],[22,-16],[-49,-13]],[[5587,7752],[2,98],[5,112],[4,152],[6,156],[-3,51]],[[5976,8563],[-3,-143],[24,-26],[87,-81],[45,-33],[40,-21],[-17,-9],[18,-20],[72,-107],[3,-19],[-101,31]],[[5761,8252],[-1,30],[10,2],[-24,65],[26,-2],[-23,46],[-5,31],[6,22],[-1,34],[-11,24]],[[5492,8465],[107,-19],[48,-10],[58,8],[-38,78]],[[5667,8522],[44,-17],[27,-1]],[[5601,8321],[-78,39]],[[5398,8694],[77,-2]],[[5408,8418],[-51,25]],[[5357,8443],[2,54],[8,48],[33,127],[-2,22]],[[5547,8690],[92,-3]],[[5667,8522],[-62,32],[-49,33],[-26,5]],[[424,7998],[4,170],[2,42],[41,146],[-38,-1],[-1,186],[3,158]],[[435,8699],[332,1],[144,3],[66,0]],[[2196,6025],[-59,-42],[-124,-96],[-85,-69]],[[2241,6009],[45,-10],[48,-6],[366,-6],[170,-1]],[[2821,5639],[-55,5],[-232,47],[-87,21],[-119,25],[-87,17]],[[2241,5754],[-261,39],[-41,7]],[[17,3924],[2,23],[0,216],[4,269],[5,178]],[[3696,5960],[55,-1],[130,0]],[[7115,8678],[505,-1],[279,-3],[94,0],[691,-13],[234,-7],[-20,-437],[-3,-41],[-18,-397],[-5,-224]],[[6906,7358],[-28,36],[-44,69],[-9,35],[4,105],[5,154],[4,84],[-9,58],[2,7],[278,-157],[8,169],[3,187],[6,125],[10,151],[11,63],[1,47],[-2,89],[-31,98]],[[2279,8699],[24,1],[252,-2],[30,0],[47,8],[70,1],[220,-1],[188,-6],[55,0],[394,0],[223,2],[297,-6],[334,-1],[93,1]],[[4506,8696],[-5,-190],[156,2]],[[4657,8508],[-3,-90]],[[4654,8418],[-3,-90],[0,-97],[2,-219],[-7,-12],[-68,4],[-32,-6],[-53,-30],[-4,-180],[0,-62],[3,-9]],[[4657,8508],[164,1],[101,-4],[284,-14]],[[5206,8491],[59,-4]],[[5265,8487],[-31,-37],[-165,-130],[-155,7],[-6,2],[-123,6],[-9,13],[1,27],[-11,32],[-34,23],[-39,8],[-23,-19],[-16,-1]],[[5209,8698],[142,-4],[47,0]],[[5357,8443],[-90,45],[-2,-1]],[[5206,8491],[3,207]],[[2241,5754],[-5,-21],[-2,-89],[-24,-23],[-8,-16],[-2,-47],[31,0],[4,-10],[-3,-76],[-4,-358]],[[5242,8018],[45,-11],[21,8],[12,20],[3,139],[83,-4],[3,137],[-4,85],[-3,4]],[[5402,8396],[6,22]],[[4506,8696],[204,-1],[138,0],[212,0],[34,2],[115,1]],[[6096,8680],[257,-1],[168,3],[190,1],[35,-3],[369,-2]],[[5402,8396],[-76,-87],[-93,3],[8,-23],[-2,-43],[34,-4],[-21,-173],[-10,-51]],[[73,7986],[4,163],[6,192],[3,177],[3,177],[228,4],[118,0]]],"transform":{"scale":[0.00005357041937654123,0.00004086482140806309],"translate":[-89.013584,42.842389]},"objects":{"Geometry\\55-055":{"type":"GeometryCollection","geometries":[{"arcs":[[0,1,2,3,4,5]],"type":"Polygon","properties":{"GEOID":"550551007003"}},{"arcs":[[6,7,8,9,10]],"type":"Polygon","properties":{"GEOID":"550551010001"}},{"arcs":[[11,12,-8]],"type":"Polygon","properties":{"GEOID":"550551010002"}},{"arcs":[[-9,-13,13,14,15,16]],"type":"Polygon","properties":{"GEOID":"550551010003"}},{"arcs":[[-16,17,18,19,20]],"type":"Polygon","properties":{"GEOID":"550551011001"}},{"arcs":[[-10,-17,-21,21,22]],"type":"Polygon","properties":{"GEOID":"550551011002"}},{"arcs":[[-22,-20,23,24,25]],"type":"Polygon","properties":{"GEOID":"550551011003"}},{"arcs":[[26,27,28,29,30,31,32]],"type":"Polygon","properties":{"GEOID":"550551012021"}},{"arcs":[[33,-25,34,35,36]],"type":"Polygon","properties":{"GEOID":"550551013001"}},{"arcs":[[37,-37,38,39]],"type":"Polygon","properties":{"GEOID":"550551013002"}},{"arcs":[[-39,-36,40,41,42,43,44]],"type":"Polygon","properties":{"GEOID":"550551013004"}},{"arcs":[[45,46,47]],"type":"Polygon","properties":{"GEOID":"550551014003"}},{"arcs":[[48,49,50,-42]],"type":"Polygon","properties":{"GEOID":"550551015004"}},{"arcs":[[-35,-24,-19,51,52,-49,-41]],"type":"Polygon","properties":{"GEOID":"550551015003"}},{"arcs":[[53,54,-31]],"type":"Polygon","properties":{"GEOID":"550551016001"}},{"arcs":[[55,56,57,58,59,60,-2,61,62]],"type":"Polygon","properties":{"GEOID":"550551017011"}},{"arcs":[[63,64,65]],"type":"Polygon","properties":{"GEOID":"550551016004"}},{"arcs":[[66,-40,-45,67,68,69]],"type":"Polygon","properties":{"GEOID":"550551013003"}},{"arcs":[[-47,70,71,72,-28,73]],"type":"Polygon","properties":{"GEOID":"550551015002"}},{"arcs":[[-66,74,75]],"type":"Polygon","properties":{"GEOID":"550551016003"}},{"arcs":[[-69,76,-33,77,78]],"type":"Polygon","properties":{"GEOID":"550551012011"}},{"arcs":[[-51,79,-72,80]],"type":"Polygon","properties":{"GEOID":"550551015001"}},{"arcs":[[81,82,83,84]],"type":"Polygon","properties":{"GEOID":"550551017021"}},{"arcs":[[85,86,87,88,89]],"type":"Polygon","properties":{"GEOID":"550551008003"}},{"arcs":[[90,91,92,93]],"type":"Polygon","properties":{"GEOID":"550551005003"}},{"arcs":[[94,95,96,97,98,99]],"type":"Polygon","properties":{"GEOID":"550551002001"}},{"arcs":[[100,-84,101,-87,102]],"type":"Polygon","properties":{"GEOID":"550551008002"}},{"arcs":[[103,104,105,106,107]],"type":"Polygon","properties":{"GEOID":"550551006022"}},{"arcs":[[108,109,110,111,112,113,114,115]],"type":"Polygon","properties":{"GEOID":"550551004003"}},{"arcs":[[-61,116,-103,-86,117,-3]],"type":"Polygon","properties":{"GEOID":"550551008001"}},{"arcs":[[118,119,120,121,-6,122,-14,-12,-7,123,124,125]],"type":"Polygon","properties":{"GEOID":"550551007002"}},{"arcs":[[126,127,128,129]],"type":"Polygon","properties":{"GEOID":"550551001001"}},{"arcs":[[130,131,132,-64,-76,133,-54,-30]],"type":"Polygon","properties":{"GEOID":"550551016002"}},{"arcs":[[134,135,-85,-101,-117,-60]],"type":"Polygon","properties":{"GEOID":"550551017022"}},{"arcs":[[-89,136,-132,137]],"type":"Polygon","properties":{"GEOID":"550551009001"}},{"arcs":[[-115,138,-94,139,-125,140,-105,141,142]],"type":"Polygon","properties":{"GEOID":"550551006011"}},{"arcs":[[-107,143,-70,-79,144]],"type":"Polygon","properties":{"GEOID":"550551012012"}},{"arcs":[[-43,-81,-71,-46,145]],"type":"Polygon","properties":{"GEOID":"550551014001"}},{"arcs":[[-52,-18,-15,-123,-5,146]],"type":"Polygon","properties":{"GEOID":"550551009002"}},{"arcs":[[-68,-44,-146,-48,-74,-27,-77]],"type":"Polygon","properties":{"GEOID":"550551014002"}},{"arcs":[[-147,-4,-118,-90,-138,-131,-29,-73,-80,-50,-53]],"type":"Polygon","properties":{"GEOID":"550551009003"}},{"arcs":[[147,148,149,-58,150]],"type":"Polygon","properties":{"GEOID":"550551001004"}},{"arcs":[[-129,151,-149,152]],"type":"Polygon","properties":{"GEOID":"550551001002"}},{"arcs":[[153,154,-153,-148,155,-98]],"type":"Polygon","properties":{"GEOID":"550551001003"}},{"arcs":[[156,-100,157,158]],"type":"Polygon","properties":{"GEOID":"550551002003"}},{"arcs":[[159,-130,-155,160,-96]],"type":"Polygon","properties":{"GEOID":"550551002004"}},{"arcs":[[-161,-154,-97]],"type":"Polygon","properties":{"GEOID":"550551002002"}},{"arcs":[[161,162,-110]],"type":"Polygon","properties":{"GEOID":"550551004002"}},{"arcs":[[-114,163,-91,-139]],"type":"Polygon","properties":{"GEOID":"550551005001"}},{"arcs":[[-164,-113,164,-120,165,166,-92]],"type":"Polygon","properties":{"GEOID":"550551005002"}},{"arcs":[[-142,-104,167]],"type":"Polygon","properties":{"GEOID":"550551006021"}},{"arcs":[[168,-62,-1,-122]],"type":"Polygon","properties":{"GEOID":"550551007001"}},{"arcs":[[169,-82,-136,170]],"type":"Polygon","properties":{"GEOID":"550551017024"}},{"arcs":[[-141,-124,-11,-23,-26,-34,-38,-67,-144,-106]],"type":"Polygon","properties":{"GEOID":"550551006023"}},{"arcs":[[171,172,173,174,-63,-169,-121,-165,-112]],"type":"Polygon","properties":{"GEOID":"550551004004"}},{"arcs":[[175,176,177,-174]],"type":"Polygon","properties":{"GEOID":"550551003011"}},{"arcs":[[178,-159,179,-177,180]],"type":"Polygon","properties":{"GEOID":"550551003022"}},{"arcs":[[-93,-167,181,-126,-140]],"type":"Polygon","properties":{"GEOID":"550551005005"}},{"arcs":[[182,183,-99,-156,-151,-57]],"type":"Polygon","properties":{"GEOID":"550551001005"}},{"arcs":[[184,-181,-176,-173]],"type":"Polygon","properties":{"GEOID":"550551003021"}},{"arcs":[[-128,185,-171,-135,-59,-150,-152]],"type":"Polygon","properties":{"GEOID":"550551017023"}},{"arcs":[[-178,-180,-158,-184,186,-56,-175]],"type":"Polygon","properties":{"GEOID":"550551003012"}},{"arcs":[[-162,-109,187]],"type":"Polygon","properties":{"GEOID":"550551004001"}},{"arcs":[[-183,-187]],"type":"Polygon","properties":{"GEOID":"550551003013"}},{"arcs":[[-166,-119,-182]],"type":"Polygon","properties":{"GEOID":"550551005004"}}]}}}