{"type":"Topology","arcs":[[[9242,12013],[24,45],[98,223]],[[9364,12281],[115,7],[82,2],[204,-3]],[[9765,12287],[-3,-146],[8,-52]],[[9770,12089],[-32,-1],[2,-32],[-60,20],[-10,-42],[-4,-32],[-31,0],[-19,13],[-22,-2],[7,-24],[-14,-20],[-23,-6],[-13,-15],[-58,1],[-11,-12],[9,-20],[-15,-8],[-24,22],[-81,57],[-27,-46],[-102,71]],[[2487,1588],[89,267],[-20,6],[-39,0],[-1,113],[-5,20],[-18,29],[19,24],[2,342],[1,23]],[[2515,2412],[15,-1],[40,10],[14,-3],[20,14],[1,26],[-13,18],[-27,25],[18,20],[14,0],[5,22],[27,3],[6,20],[21,6],[16,-12],[49,23],[25,2],[-17,27],[7,58],[-3,21],[-15,60],[-38,17],[23,26],[-18,9],[-23,51],[1,15],[-25,2],[-8,18],[19,3],[-1,43],[-20,1],[4,21],[17,-2],[-4,38],[32,27],[1,19],[11,25],[-15,8],[6,21]],[[2680,3093],[42,-9],[92,-14],[63,-15]],[[2877,3055],[85,-26],[104,-34]],[[3066,2995],[178,-45],[42,-14],[52,-36],[111,-118],[19,-15],[40,-19],[42,-8],[338,-13],[305,-2],[98,0],[90,2],[59,-9],[49,-25],[20,-15],[79,-78],[56,-41],[40,-18]],[[4684,2541],[-59,-166],[-5,-20],[-4,-293],[-2,-329],[-2,-55],[-14,-25],[-29,-13],[-48,-34],[-7,-10],[0,-122],[2,-326],[91,2]],[[4607,1150],[15,-20],[7,-23],[18,-2],[9,-35],[21,-23],[29,-13],[-4,-23],[11,-14],[24,-11],[24,2],[15,-13],[10,-25],[23,8],[-2,-26],[-33,-18],[-17,0],[-19,-43],[4,-22],[-6,-20],[-14,-6],[8,-28],[-15,-3],[-8,-32],[-16,-15],[-20,1],[-7,9],[-28,-20],[-8,-34],[12,-10],[-9,-15],[12,-20],[-4,-22],[18,-8],[-17,-27],[-41,-27],[-10,-49],[-24,-53],[8,-11],[-11,-32],[9,-17],[25,-24],[4,-16],[26,-3],[32,-14],[-1,-29],[-7,-23],[13,-11],[-4,-24],[5,-30],[-9,-6],[-40,7],[-23,-12],[-18,-36],[-16,4],[-11,-38],[14,-28],[-6,-50],[-16,0],[-14,-15],[-8,-21],[-43,-1],[-22,-14],[-4,-18]],[[4448,8],[-167,1],[-269,0],[-402,0],[-204,4],[-146,-2],[-319,0],[-418,5]],[[2523,16],[-30,139],[1,63],[11,51],[3,30],[-1,152],[-3,28],[-33,147],[-40,144],[-11,51],[-12,83],[1,133],[13,34],[43,58],[8,36],[-9,87],[3,35],[35,103],[6,23],[-1,23],[-22,113],[2,39]],[[4607,1150],[203,2],[36,-25],[168,-95],[40,-18],[48,-15],[135,-35],[397,-106],[226,-60],[13,15],[16,-18],[108,-34],[104,-28],[43,-5],[-8,20],[10,10],[-4,41],[4,14],[15,4],[23,67],[38,15],[36,-4],[137,-34],[135,13],[114,5],[93,0],[66,-4],[63,-25],[18,15],[93,9],[27,14],[15,18],[9,25],[-2,79],[11,20],[17,13],[23,7],[54,-6],[21,5],[32,20],[7,9],[7,32],[-6,20]],[[7192,1130],[-13,20],[53,-2],[-4,-33],[17,-8],[4,-29],[77,14],[-2,-146],[-8,-315],[0,-79],[102,0],[1,-162],[-3,-144],[-3,-48],[-1,-91],[2,-106]],[[7414,1],[-54,2],[-70,-3],[-36,1],[-662,1],[-583,0],[-401,3],[-246,2],[-152,4],[-213,-2],[-88,0],[-101,-2],[-104,2],[-151,1],[-105,-2]],[[5005,2959],[480,-199],[56,-19],[67,0],[152,-2],[0,-11],[54,0],[150,13],[55,-2],[23,-4],[174,-2],[203,0],[201,1]],[[6620,2734],[-8,-182],[-5,-14],[-50,10],[-18,-3],[-30,-16],[-60,-70],[-15,-26],[-5,-40],[-2,-44],[-23,-15],[-36,-31],[-16,-4],[-88,32],[-204,110],[-12,5],[-41,0],[2,74],[-12,6],[-117,0],[0,-53],[-43,0],[0,-78],[3,-26],[0,-52],[-37,1],[-1,-59],[1,-134],[-1,-17],[-18,-45],[-28,55],[-43,54],[-36,32],[-75,71],[-48,47],[-133,124],[-37,27],[-47,20],[-48,9],[-108,6],[-120,12],[-184,9],[-60,-1]],[[4817,2528],[1,213],[127,-1],[26,14],[22,5],[12,-5],[1,93],[-1,22],[0,90]],[[4832,8407],[298,0],[66,1],[22,8],[9,16],[3,56],[12,25],[29,8],[124,-2],[229,-7],[368,1],[67,-4],[30,3],[114,-2],[68,-4],[65,-6],[12,-14],[28,-70],[11,-16],[43,0],[0,-110],[158,-77],[14,-32],[27,-13],[202,2]],[[6831,8170],[6,-297],[301,13],[99,3],[49,-3],[32,-20],[42,18],[71,-3],[11,-7],[9,-28],[72,-77],[35,-15],[32,4],[58,-13]],[[7648,7745],[-5,-19],[1,-181],[-18,-15],[-170,-3],[-13,-18],[0,-329],[-2,-328],[-6,-9],[-203,3],[-194,-2],[-193,-4]],[[6845,6840],[-4,-219],[-10,-9],[-83,1],[-9,-13],[-2,-159],[-10,-451],[9,-26],[24,-30],[18,-10],[249,-1],[182,0],[19,-14],[-2,-216],[-34,0],[12,-52],[19,-37],[3,-15],[-1,-126],[1,-133]],[[7226,5330],[-59,6]],[[7167,5336],[-17,48],[-48,66],[-37,32],[-142,69],[-29,10],[-50,12],[-171,43],[-35,3],[-151,-14],[-17,1],[-27,11],[-24,28],[-22,-10],[-148,7],[-126,8],[-79,7],[-23,7],[-59,50],[-24,9],[-128,-4],[-49,-11],[-54,0],[-112,3],[-20,-9],[-27,-23],[-15,-3],[-20,7],[24,-52],[8,-36],[-3,-24],[-20,-71],[-38,-106],[-12,-23],[-60,-59],[-14,-9],[-28,-4],[-68,6],[-24,-4],[-32,-12],[-63,-10],[-61,-2],[-7,-14],[2,-201],[1,-43],[-84,3],[-13,5],[-110,86],[-39,18],[-48,12]],[[4824,5143],[0,41],[-8,21],[-62,89],[-126,182],[-4,20],[3,304],[0,194],[1,135],[4,10],[80,-56],[49,-25],[64,-20],[0,340],[0,65],[-2,25],[-12,21],[-35,17],[-8,10],[57,66],[2,19],[1,244],[-63,4],[-51,-3],[-63,-9],[-216,3],[-171,2],[0,17],[-10,23],[5,44],[-17,31],[3,35],[-10,5],[-14,55],[-25,52],[3,36],[6,13],[-26,44],[-13,-1],[-27,39],[1,17],[-12,11],[9,23],[33,22],[13,17],[10,26],[31,127],[3,18],[8,107],[6,37],[15,34],[14,18],[36,25],[84,28],[40,7],[64,8],[73,18],[32,12],[76,42],[17,20],[69,92],[14,33],[21,110],[24,110],[12,69],[0,141]],[[6845,6840],[-9,461],[-183,4],[-15,-12],[-1,-68],[-7,-24],[-13,-5],[-28,25],[-32,12],[-22,0],[-25,12],[-34,-2],[-9,-19],[-20,-93],[-19,-30],[-32,-12],[-87,0],[-74,-18],[0,7],[-60,1],[-12,83],[4,32],[35,1],[5,10],[24,10],[-1,93],[-202,3],[-503,12],[-84,-1],[-17,-11],[5,-340],[193,2],[114,-1],[2,-117],[-2,-146],[-1,-201],[151,-12],[37,-1],[9,-5],[-1,-58],[-5,-6],[97,-9],[10,-8],[0,-26],[200,4],[4,463],[405,-8],[203,-2]],[[8553,12206],[169,-134],[235,-185],[29,-11],[107,10],[6,2],[60,-40],[3,0]],[[9162,11848],[-1,-55],[-10,-77],[49,-19],[54,-36],[10,-3],[196,2],[7,-5],[-1,-48],[12,-4],[88,0],[0,230]],[[9566,11833],[256,0],[100,-1],[6,-454],[-262,-3],[-401,-4],[-159,-2],[-27,-193],[-1,-62],[16,-130],[8,-72]],[[9102,10912],[-46,-1],[-398,3],[-212,0],[-393,-1],[-7,230]],[[8046,11143],[0,230],[206,-3],[192,-2],[6,6],[1,451],[101,0],[2,169],[0,145],[-1,67]],[[2595,4939],[12,17],[0,48],[3,131],[4,122]],[[2614,5257],[143,-4],[123,-6],[35,0],[71,7],[9,49],[38,-3],[27,1],[44,16],[17,-5],[24,-47],[13,-8],[150,1],[6,-8],[-2,-93],[5,-8],[52,0],[12,-2],[14,-27],[20,-2],[30,23],[23,5],[120,-1],[173,-6],[185,-4],[138,0],[125,1],[14,5],[96,109],[176,3],[10,-12],[0,-87],[10,-15],[309,4]],[[4824,5143],[-2,-345],[-3,-230],[1,-228],[0,-59],[36,-4],[19,-40],[0,-18],[-54,-82],[-38,-22],[-64,-5],[-35,-16],[-51,-54],[-20,-45],[0,-91],[2,-21],[3,-233],[1,-273],[0,-67],[117,0],[80,1]],[[4816,3311],[78,1],[12,-13],[1,-95],[7,-8],[93,0],[1,-46],[-3,-191]],[[4817,2528],[-73,0],[-60,13]],[[3066,2995],[20,58],[6,32],[-7,32],[-29,56],[20,-3],[13,-33],[27,10],[0,29],[28,-24],[-5,-30],[15,-16],[35,9],[21,-22],[14,10],[19,-7],[3,23],[14,13],[1,-34],[8,-4],[24,15],[27,5],[60,-8],[0,29],[-26,14],[-9,16],[24,38],[4,29],[9,13],[24,-4],[3,13],[-12,15],[-20,46],[-30,3],[-8,-20],[-27,-21],[-10,10],[-51,-26],[-29,21],[-3,-23],[-21,11],[-1,31],[23,50],[18,11],[1,22],[10,15],[-1,26],[73,1],[-2,78],[-8,17],[-24,27],[-8,19],[0,71],[42,32],[-5,211],[-99,1]],[[3217,3882],[-5,226],[2,228],[-4,180],[2,23],[-62,3],[-17,-15],[20,-44],[-45,3],[-20,-12],[-14,18],[-13,-6],[-26,16],[-9,-32],[-19,1],[-19,-15],[-13,-26],[-12,-5],[-3,-17],[-16,5],[-32,-35],[1,-9],[-18,-24],[-17,-73],[-23,-17],[-32,9],[-23,42],[0,57],[-7,28],[-31,25],[-18,3],[-23,-9],[-8,-21],[2,-26],[-16,-4],[-6,-24],[-16,-22],[-4,-27],[-18,-47],[-1,-16],[-23,-43],[-5,-21]],[[2626,4159],[-9,56],[-3,34],[-2,438],[-4,198],[-2,24],[-11,30]],[[2,450],[3,370],[2,183],[1,273],[0,112],[1,524],[1,389],[3,228]],[[13,2529],[166,2],[31,-12],[7,23],[0,156],[-1,53],[3,11],[100,116],[80,111],[188,-1],[237,-1],[181,-7],[12,-9],[6,-17],[17,-73],[9,-23],[26,-44],[45,-13],[33,-29],[44,-4],[27,-13],[295,-4]],[[1519,2751],[-2,-31],[1,-92],[-7,-45],[-45,-143],[-6,-27],[-35,-197],[-7,-14],[-123,5],[-27,-31],[-25,0],[-13,-9],[-4,-102],[-10,-235],[-1,-110]],[[1215,1720],[-2,-97],[-3,-32],[-11,-33],[-21,-32],[-19,-16],[-199,-111],[-31,-13],[-46,-6],[-59,2],[-39,-8],[-17,-9],[-24,-22],[-14,-22],[-11,-32],[-4,-36],[-6,-287],[1,-249],[-1,-124],[-3,-33],[-11,-28],[-22,-30],[-25,-18],[-39,-9],[-199,4],[-187,1],[-13,2],[-108,-4],[-52,-6],[-48,-22]],[[23,5486],[189,-2],[-1,108],[-14,46],[40,46],[30,43],[40,38],[16,-16],[22,-11],[20,-34],[-4,-94],[4,-13],[112,-32],[71,-26],[94,-39],[40,-14],[97,0],[24,66],[14,66],[19,19],[14,2],[108,-2],[40,2],[7,4],[25,-17],[58,-59],[26,-14],[134,-34],[108,-2],[61,-11],[58,-43],[31,-19],[56,-9],[58,-18],[74,-5],[57,-14],[21,-12],[16,-19],[28,-13],[128,-28],[20,2],[98,19],[87,19],[117,4],[129,-185],[16,-14],[49,-29],[32,-30],[18,-35],[13,-37],[17,-32],[35,-38],[20,-31]],[[2626,4159],[6,-39],[-21,-17],[-11,-28],[-37,2],[-33,40],[-120,2],[-99,9],[-57,13],[-58,18],[-162,10],[3,-89],[-24,-70],[-3,-21],[0,-120]],[[2010,3869],[-20,20],[-2,37],[9,12],[-9,13],[-50,6],[-13,9],[-18,23],[-66,45],[-6,29],[-17,16],[-20,6],[-8,20],[-14,6],[-11,-10],[-12,18],[-28,15],[-1,23],[-11,21],[-4,30],[-15,17],[5,15],[24,19],[-6,25],[3,18],[-15,30],[-15,18],[-34,1],[-62,-18],[-5,-18],[-19,6],[-23,-7],[-9,-16],[6,-26],[-39,-8],[3,-23],[17,-23],[-12,-10],[-24,4],[6,-29],[-10,-11],[-31,-3],[-33,-29],[-26,-1],[-45,21],[-28,4],[-35,20],[-19,-4],[-11,17],[-29,22],[10,22],[-10,29],[-26,15],[-9,-10],[11,-19],[-23,1],[-8,22],[-21,-1],[-16,-13],[-13,-26],[-25,-8],[-16,-18],[-50,1],[-30,17],[-32,13],[-23,51],[-25,37],[-42,8],[-30,-6],[-16,-10],[-25,-27],[-7,-31],[12,-13],[-7,-35],[-13,-37],[1,-25],[-11,-7],[-5,-34],[-12,-18],[15,-28],[-3,-36],[-14,-39],[-23,-31],[-19,-13],[-44,-12],[-7,13],[2,27],[-17,43],[-13,6],[-13,-8],[-28,8],[6,17],[-8,11],[-17,4],[-23,13],[-7,-21],[-12,-10],[-19,15],[-48,-9],[-20,-22],[-10,-21],[-26,15],[-11,-17],[19,-17],[-9,-23],[-21,-73],[-29,-11],[-16,-34],[-1,50],[-11,2],[-17,-22],[-28,-11],[-25,14],[-16,2],[-21,-15],[-11,11],[1,39],[-10,49],[-9,25],[23,12],[4,39],[27,3],[-4,44],[-18,14],[-14,-1],[-27,24],[-18,8],[1,27],[-13,61],[-44,12],[-12,17],[1,18],[-31,10],[-3,19],[-13,19],[18,19],[1,10],[-43,40],[-21,-6]],[[18,4377],[2,704],[3,405]],[[8046,13707],[283,-5],[317,-7],[193,-4],[314,7],[147,-1],[153,-2],[200,1],[17,-2],[405,-5],[77,2],[98,-2],[50,-3],[258,-2],[67,1],[103,-1],[229,-2],[161,-3],[332,-12],[79,1],[244,0],[125,1],[163,-3],[206,5],[2,-155],[-2,-80]],[[12267,13436],[-14,-16],[-69,-1],[-16,-8],[-57,-48],[-51,-38],[-76,-48],[-118,-85],[-10,-4],[-164,1],[-9,-6],[-29,-36],[1,-73],[1,-347],[-204,-7],[0,-228],[-201,4],[-501,19],[-121,3],[-396,2],[-361,-3],[-20,-77],[-41,-153],[-46,0]],[[9364,12281],[3,6],[-208,-2],[0,115],[-245,-2],[-59,1],[0,114],[-38,1],[-363,0]],[[8454,12514],[0,348],[-213,-1],[-192,-2]],[[8049,12859],[0,115],[-7,230],[-5,229],[9,274]],[[5615,12745],[203,0],[203,0],[414,11]],[[6435,12756],[-6,-461],[204,0],[-8,-487],[1,-473],[3,-425],[-199,4],[-201,-1],[-200,0],[-4,-241],[-4,-214],[6,-14],[31,4],[21,25],[20,6],[41,-30],[14,-5],[66,0],[201,-2],[202,-8],[391,3],[13,-8],[3,-216]],[[7030,10213],[1,-223],[24,-10],[18,-18],[109,-88],[46,-32],[3,-10],[3,-61],[2,-241],[1,-456],[-105,1],[-235,-1],[-26,-5],[-25,-20],[-15,-37],[0,-54],[3,-257],[-3,-27],[-12,-24],[17,-30],[-5,-450]],[[4832,8407],[0,224],[2,451],[0,452],[-5,562],[4,50],[16,18],[7,19],[-1,23],[-20,43],[-6,21],[1,167],[1,226],[-402,4]],[[4429,10667],[0,253],[5,450],[1,71],[47,11],[21,-3],[130,-24],[-12,399],[3,205],[-3,14],[4,74],[2,174],[5,55],[25,99],[9,25],[50,103],[16,21],[101,98],[39,28],[35,13],[108,7],[201,-2],[199,1],[200,6]],[[5522,13711],[92,0],[138,-3],[197,1],[114,1],[148,4],[259,1],[207,-2],[91,0]],[[6768,13713],[-2,-16],[-53,-16],[26,-114],[-67,-20],[6,-30],[-30,-50],[-8,-25],[1,-87],[-19,-57],[-24,-86],[-12,-63],[-33,-36],[-76,-70],[-26,-34],[-10,-24],[-4,-31],[-2,-198]],[[5615,12745],[2,231],[1,232],[110,0],[10,38],[-1,20],[-14,13],[-20,42],[-26,37],[9,31],[-6,19],[-20,5],[-33,0],[-7,12],[-42,16],[-44,31],[-6,14],[-20,-3],[-8,9],[-9,36],[-2,55],[12,30],[16,5],[1,18],[18,48],[-14,27]],[[7415,2345],[28,60],[18,20],[26,18],[7,30],[-16,29],[21,20],[53,-12],[26,26],[6,24],[-2,38],[18,29],[54,31],[31,28],[14,36],[4,29],[-5,19],[-42,43],[-52,18],[-54,30],[-28,23],[-6,33],[15,20],[22,-6],[19,-42],[36,-12],[67,-1],[28,9],[16,16],[2,25],[-19,30],[1,43],[21,30],[20,8],[59,3],[16,-10],[14,-32],[4,-19],[0,-47],[4,-31],[10,-23],[32,-21],[17,-4],[43,-2],[36,4],[27,19],[25,42],[-2,19],[-15,27],[33,-11],[26,-26],[30,-12],[30,8],[25,15],[98,77],[61,85],[7,36],[27,6],[18,-31],[23,-16],[36,-6],[31,28],[9,25],[13,6],[8,19],[19,1],[15,-12],[26,1],[4,19],[32,-1],[17,-20],[15,-3],[13,19],[32,-7],[23,7],[11,-11],[25,5],[4,-10],[29,13],[35,3],[16,-5],[27,9],[10,-5],[0,31],[199,5],[199,1],[201,-1],[164,11],[39,-2]],[[9644,3213],[-7,-452],[-11,-456],[-5,-227],[-3,-228],[-2,-228],[0,-94],[-1,-363],[-5,-129],[-1,-107],[-2,-77],[0,-126],[-3,-248],[-2,-251],[0,-204],[-200,3],[-400,-1],[-199,-2],[-398,-11],[-197,-4],[-204,-2],[-96,0],[-188,-2],[-9,-3],[-102,2],[-195,-2]],[[7192,1130],[-41,51],[-64,109],[-8,27],[5,39],[39,58],[3,51],[-6,28],[-11,12],[16,22],[15,1],[35,-47],[35,-16],[60,-4],[44,6],[43,12],[26,35],[6,26],[-12,10],[-38,-12],[-38,-2],[-36,29],[-39,52],[-15,42],[-9,57],[-18,49],[-24,24],[-14,27],[-21,14],[5,22],[-10,11],[-1,24],[12,31],[16,2],[23,-10],[13,6],[14,22],[9,47],[15,42],[16,33],[46,67],[19,19],[29,20],[44,17],[26,28],[16,30],[5,25],[-7,79]],[[2339,8997],[70,-67],[8,-18],[-2,-209],[2,-424],[1,-36],[10,-15],[18,-46],[-4,-44],[-5,-14],[-21,-23],[-1,-114],[-1,-228],[-102,1],[1,-150],[9,-22]],[[2322,7588],[-104,-15],[-8,-12],[-6,-32],[-86,0],[-109,-33],[0,37],[-65,0],[-40,-5],[-48,6],[-128,0],[-10,8],[-3,95],[-5,11],[-26,16],[-47,-14],[-21,-2],[-92,0],[3,13],[28,17],[54,6],[13,16],[2,17],[-7,15],[-17,8],[9,18],[-36,33],[4,31],[-14,7],[-14,-21],[-24,38],[-1,18],[9,17],[-4,13],[-15,1],[-18,23],[1,43],[-18,11],[3,23],[-8,16],[-5,53],[17,16],[-17,10],[10,35],[-2,24],[11,5],[-7,36],[8,42],[-8,9],[33,41],[-8,17]],[[1506,8299],[0,26],[-18,9],[-25,2],[-19,29],[-23,18],[-12,-12],[-49,-6],[-4,-15],[-30,4],[-23,21],[-19,8],[-5,12],[-23,3],[1,11],[-20,8],[-26,-13],[-15,-16],[1,-14],[-11,-22],[0,-39],[-16,-6],[-17,6],[-26,0],[-29,5],[-16,8],[-1,13],[-23,-4],[-17,11],[-13,-2],[-52,27],[-17,21],[-46,4],[-14,6],[-16,24],[-16,-6],[-19,6],[-28,-1],[-10,-9],[-3,53],[-9,39],[-23,28],[63,4],[72,-1],[36,-16],[63,20],[70,11],[31,-14],[44,2],[24,14],[26,28],[98,70],[14,3],[196,2],[0,131],[-2,147],[18,12],[43,-13],[28,-13],[15,-23],[19,-3],[3,23],[24,-2],[34,11],[10,21],[-28,20],[8,22],[32,-12],[24,-36],[23,-9],[15,-31],[0,-24],[16,4],[8,-18],[41,-26],[1,-17],[15,-8],[-2,-26],[28,-37],[15,-1],[22,-24],[9,-28],[12,-6],[12,-23],[-8,-9],[168,0],[1,162],[21,4],[33,36],[14,27],[19,27],[31,26],[51,11],[28,27],[26,16]],[[7167,5336],[-40,-6],[-38,-22],[45,-74],[13,-17],[98,-96],[18,-24],[42,-106],[10,-32],[1,-22],[-10,-75],[5,-21],[32,-36],[12,-6],[113,-36],[-10,-13],[-115,-95],[-81,-69],[-34,-33],[-47,-85],[-31,-72],[-57,-65],[-206,-241],[-51,-57],[-9,-44],[-27,1],[-180,-7],[-162,2],[-39,-3],[-8,-6],[-74,-86],[-53,-89],[-62,-69],[-42,-36],[-9,-16],[-21,-91],[-11,-28],[-66,-72],[-13,-11],[-85,-52],[-24,-8],[-60,0],[-121,2],[-49,3],[-12,24],[0,120],[-10,16],[-94,10],[-42,1],[-261,0],[-89,-19],[-9,-16],[2,-135],[-123,0],[-87,2],[-168,-1],[-12,-9],[0,-105]],[[6620,2734],[199,1]],[[6819,2735],[207,2],[190,0],[4,-23],[55,-50],[44,1],[12,-22],[-19,-25],[-5,-35],[3,-12],[31,-21],[16,-2],[32,10],[10,-22],[-19,-85],[6,-50],[29,-56]],[[2845,3673],[76,-1],[-1,142],[9,42],[17,20],[15,9],[31,4],[158,-6],[67,-1]],[[2877,3055],[-21,106],[-17,27],[10,55],[12,207],[-17,0],[0,148],[1,75]],[[29,8201],[221,2],[164,1],[36,-1],[265,-1],[111,5],[94,-6],[438,-1],[36,1],[19,5],[24,18],[51,60],[18,15]],[[2322,7588],[10,-9],[50,-24],[17,-11],[11,-18],[12,-38],[28,-72],[-35,-1],[-3,-110],[1,-162],[2,-16],[13,-15],[31,-21],[50,-64],[27,-58],[12,-49],[-1,-21],[-22,-77],[-17,-75],[-75,-154],[-1,-16],[8,-38],[-4,-18],[-20,-48],[3,-366],[16,-4],[43,-25],[38,-56],[29,-27],[23,-45],[40,-41],[29,-69],[9,-71],[-4,-40],[4,-17],[24,-66],[2,-23],[-14,-41],[-32,-35],[-7,-17],[3,-57],[-8,-216]],[[23,5486],[-2,277],[3,861],[5,1249],[0,328]],[[9566,11833],[-54,26],[89,56],[69,26],[82,68],[6,9],[14,52],[-2,19]],[[12267,13436],[-1,-259],[-6,-445],[-2,-345],[-4,-123],[0,-96],[-4,-298],[-2,-240],[-5,-184],[3,-320],[2,-210],[-207,-3],[-170,5],[-864,1],[-189,0],[-201,0],[-200,1],[-199,-2],[-201,-1],[-356,2]],[[9661,10919],[-404,-4],[-155,-3]],[[7030,10213],[4,14],[23,23],[26,13],[57,35],[31,23],[17,4],[249,-6],[15,19],[0,574],[-7,221],[8,8],[83,1],[179,-1],[169,0],[162,2]],[[9661,10919],[-3,-270],[1,-227],[0,-569],[1,-795],[-1,-244],[-4,-438]],[[9655,8376],[-200,2],[0,-230],[-200,1],[-199,2],[-200,3],[-205,5],[-193,1],[-7,-8],[3,-407],[-203,4],[-203,5],[-380,5],[-20,-14]],[[2339,8997],[12,57],[48,164],[4,19],[-5,46],[21,47],[1,222],[5,452],[2,226],[-1,226],[-2,215]],[[2424,10671],[16,13],[352,-3],[446,1],[362,2],[67,2],[28,10],[22,26],[8,26],[10,-43],[-8,-25],[8,-32],[13,-12],[8,-25],[8,-42],[30,-32],[10,7],[38,-25],[-4,-17],[7,-31],[-18,-31],[1,-23],[-19,-16],[5,-20],[18,2],[7,-23],[32,-19],[-10,-27],[29,-15],[12,-26],[24,16],[24,-34],[24,-5],[15,-12],[57,5],[19,-6],[24,8],[9,-12],[20,0],[24,-17],[13,5],[58,8],[12,-12],[38,-11],[15,-21],[1,-14],[40,-52],[19,-19],[30,5],[50,100],[13,51],[-2,190],[0,221]],[[9655,8376],[0,-226],[3,-182],[0,-117],[4,-343],[-3,-231],[2,-139],[0,-63],[5,-1016],[-1,-55],[2,-250],[-5,-308]],[[9662,5446],[-97,2],[0,134],[-15,5],[-177,115],[-94,57],[-22,-44],[-12,-40],[12,-20],[-11,-48],[-19,-29],[-6,-38],[-14,-5],[7,-25],[-19,-5],[-12,-30],[-44,-30],[1,-39],[-46,-14],[-10,-15],[-23,-4],[-22,15],[-4,-21],[-20,-2],[-14,-17],[6,-24],[-7,-17],[-25,3],[2,-14],[-23,-1],[-12,-9],[-10,22],[-21,27],[-36,-1],[-8,9],[-24,4],[-20,11],[-31,-8],[-23,-31],[-24,-9],[-19,-34],[4,-21],[15,-32],[-8,-7]],[[8737,5216],[-55,22],[-45,9],[-590,0],[-267,7],[-35,8],[-68,25],[-301,29],[-150,14]],[[9162,11848],[0,15],[25,48]],[[9187,11911],[55,102]],[[8737,5216],[-13,-44],[-23,-31],[-37,-23],[-19,-23],[6,-23],[20,-21],[0,-18],[-12,-26],[-24,-36],[-16,-15],[-34,11],[-20,32],[-24,12],[-22,-11]],[[8519,5000],[-35,32],[-19,8],[-25,-2],[-160,-58],[-37,-23],[-19,-23],[-61,-94],[-17,-21],[-41,-35],[-61,-36],[-19,-21],[-14,-30],[-39,-129],[-6,-13],[-212,-352],[-23,-25],[-14,-6],[-73,-22],[-21,-2],[-86,0],[-23,-4],[-17,-11],[-111,-95],[-300,-255],[-177,-147],[-90,-81],[0,-95],[17,-62],[21,-62],[42,-60],[18,-43],[4,-20],[-1,-45],[-6,-17],[-65,-50],[-28,-7],[1,-130],[-3,-229]],[[23,11406],[234,-8],[771,4],[200,-2],[282,-1],[56,-14],[61,-27],[86,-26],[85,-14],[42,-4],[120,-1],[68,5],[-5,-378],[378,0],[23,-28],[0,-241]],[[29,8201],[1,1046],[2,202],[3,531],[-1,257],[-6,439],[-4,406],[-1,324]],[[8737,5216],[3,-3],[486,-212],[25,-8],[48,-1],[236,34],[-42,-150],[-1,-18],[-2,-285]],[[9490,4573],[-126,1]],[[9364,4574],[0,73],[-35,-5],[-117,-48],[-49,-13],[-42,5],[-21,17],[-19,26],[-28,64],[-17,30],[-51,73],[-35,61],[-30,24],[-23,4],[-124,2],[-58,-8],[-36,7],[-56,27],[-38,26],[-66,61]],[[1519,2751],[8,19],[42,73],[83,160],[11,14],[233,174],[33,29],[32,33],[137,145],[9,16]],[[2107,3414],[5,-11],[4,-149],[0,-53],[4,-24],[29,-112],[1,-90],[148,-2],[25,-11],[26,-30],[6,-20],[-8,-19],[-14,-12],[-11,-28],[-6,-139],[1,-179],[-8,-35],[-23,-39],[-7,-22],[2,-26],[19,-33],[17,3],[36,-27],[37,12],[9,9],[27,8],[17,-15],[5,24],[31,20],[36,-2]],[[2487,1588],[-85,3],[-111,15],[-35,7],[-127,41],[-47,20],[-157,101],[-7,8],[-1,48],[-304,7],[-12,-18],[-71,-75],[-8,-18],[-1,-51],[-93,2],[-134,38],[-79,4]],[[2523,16],[-285,1],[-213,-2],[-215,1],[-58,-2],[-145,-1],[-492,0],[-61,1],[-246,2],[-482,12],[-134,1],[-82,-4],[-110,1],[2,424]],[[8454,12514],[0,-192],[31,-16],[77,-30],[35,-12],[18,-29],[33,-66],[36,-33],[33,-8],[44,-21],[69,-49],[26,-6],[63,1],[61,24],[37,46],[21,5],[37,-48],[4,-32],[34,-30],[19,-26],[13,-33],[20,-16],[22,-32]],[[8553,12206],[-81,64],[-29,14],[-254,0],[-38,6],[-9,-3],[-94,120],[-177,230],[-132,169],[64,57],[123,-3],[123,-1]],[[9364,4574],[-3,-227],[-1,-6],[176,4],[-1,-26],[47,0]],[[9582,4319],[0,-150],[-22,0],[0,-51]],[[9560,4118],[-268,-4],[-15,10],[-18,-20],[-7,-20],[0,-36],[-7,-24],[-20,-20],[-17,-5],[-70,0],[-100,-4],[-73,0],[-24,-11],[-15,11],[-72,-1],[-269,1],[-146,-1],[-17,9],[-72,80],[-21,26],[13,6],[65,0],[34,24],[18,38],[1,34],[-4,59],[-19,61],[-16,25],[-10,31],[15,39],[24,9],[34,-7],[43,-45],[31,-5],[18,3],[42,17],[14,19],[7,32],[-4,27],[-9,17],[-19,14],[-21,2],[-54,-19],[-16,5],[-8,28],[37,60],[15,33],[0,24],[-8,32],[-37,64],[-25,35],[-23,22],[-14,22],[-7,24],[0,29],[8,27],[65,105]],[[9560,4118],[100,1]],[[9660,4119],[-10,-443],[-6,-463]],[[6768,13713],[78,2],[272,0],[318,-6],[202,-5],[209,0],[199,3]],[[9662,5446],[-2,-419],[1,-54],[-1,-93],[2,-186],[-2,-45]],[[9660,4649],[-79,1],[0,-77]],[[9581,4573],[-91,0]],[[9582,4319],[-1,254]],[[9660,4649],[0,-304],[0,-226]],[[2845,3673],[-27,1],[0,30],[-41,-18],[-10,-11],[-23,0]],[[2744,3675],[-18,0],[-31,14],[-80,1],[-90,-52],[-3,-17],[-44,-4],[-101,-28],[-31,-5],[-238,-19]],[[2108,3565],[-10,16],[-100,136],[-18,20],[-7,17],[11,28],[25,42],[1,45]],[[2744,3675],[2,-315],[42,0],[11,-41],[-8,-15],[4,-26],[-25,-16],[-30,-3],[-29,-39],[-12,-63],[-14,-29],[4,-17],[-9,-18]],[[2107,3414],[5,32],[-4,119]],[[23,11406],[-1,39],[3,282],[0,440],[-1,152],[0,466],[1,118],[-1,305],[-3,558],[162,-1],[71,-3],[249,1],[295,-3],[384,-10],[420,-5],[34,-4],[337,-2],[104,-1],[342,3],[649,-12],[226,-2],[65,-2],[132,-1],[116,3],[399,-3],[338,0],[51,-2],[59,1],[355,-7],[127,1],[163,-1],[88,-2],[335,-3]],[[13,2529],[1,240],[-1,269],[1,233],[2,405],[1,252],[1,449]]],"transform":{"scale":[0.00005051593446898619,0.000031876289408688005],"translate":[-89.224813,44.242556]},"objects":{"Geometry\\55-135":{"type":"GeometryCollection","geometries":[{"arcs":[[0,1,2,3]],"type":"Polygon","properties":{"GEOID":"551351011003"}},{"arcs":[[4,5,6,7,8,9,10,11,12]],"type":"Polygon","properties":{"GEOID":"551351006004"}},{"arcs":[[13,14,15,-11]],"type":"Polygon","properties":{"GEOID":"551351008001"}},{"arcs":[[16,17,18]],"type":"Polygon","properties":{"GEOID":"551351007003"}},{"arcs":[[19,20,21,22,23,24,25],[26]],"type":"Polygon","properties":{"GEOID":"551351004002"}},{"arcs":[[27,28,29,30,31]],"type":"Polygon","properties":{"GEOID":"551351011001"}},{"arcs":[[32,33,34,35,-19,36,-9,37,38,39]],"type":"Polygon","properties":{"GEOID":"551351007002"}},{"arcs":[[40,41,42,43]],"type":"Polygon","properties":{"GEOID":"551351006003"}},{"arcs":[[44,-40,45,46,47]],"type":"Polygon","properties":{"GEOID":"551351005001"}},{"arcs":[[48,49,-2,50,51,52]],"type":"Polygon","properties":{"GEOID":"551351001003"}},{"arcs":[[53,54,55,-20,56,57]],"type":"Polygon","properties":{"GEOID":"551351002002"}},{"arcs":[[58,59,-54,60]],"type":"Polygon","properties":{"GEOID":"551351001002"}},{"arcs":[[61,62,-15,63]],"type":"Polygon","properties":{"GEOID":"551351008003"}},{"arcs":[[64,65,66]],"type":"Polygon","properties":{"GEOID":"551351003002"}},{"arcs":[[-25,67,-35]],"type":"Polygon","properties":{"GEOID":"551351012003"}},{"arcs":[[-37,-18,68,69,-64,-14,-10]],"type":"Polygon","properties":{"GEOID":"551351007001"}},{"arcs":[[70,-38,-8,71]],"type":"Polygon","properties":{"GEOID":"551351010004"}},{"arcs":[[72,-66,73,-33,-45,74]],"type":"Polygon","properties":{"GEOID":"551351003003"}},{"arcs":[[75,-3,-50,76,77,-30]],"type":"Polygon","properties":{"GEOID":"551351001004"}},{"arcs":[[78,-31,-78,79,80,-21,-56]],"type":"Polygon","properties":{"GEOID":"551351002001"}},{"arcs":[[81,82,-57,-26,-34,-74,-65]],"type":"Polygon","properties":{"GEOID":"551351004001"}},{"arcs":[[-22,-81,83,84,85,-23]],"type":"Polygon","properties":{"GEOID":"551351012001"}},{"arcs":[[86,87,-4,-76,-29]],"type":"Polygon","properties":{"GEOID":"551351011002"}},{"arcs":[[-24,-86,88,89,-69,-17,-36,-68]],"type":"Polygon","properties":{"GEOID":"551351012002"}},{"arcs":[[90,-82,-67,-73,91]],"type":"Polygon","properties":{"GEOID":"551351003001"}},{"arcs":[[-27]],"type":"Polygon","properties":{"GEOID":"551351004003"}},{"arcs":[[-89,92,93,94]],"type":"Polygon","properties":{"GEOID":"551351009003"}},{"arcs":[[95,96,-5,97,-43]],"type":"Polygon","properties":{"GEOID":"551351006001"}},{"arcs":[[-44,-98,-13,98]],"type":"Polygon","properties":{"GEOID":"551351006002"}},{"arcs":[[-52,99,-87,-28,100]],"type":"Polygon","properties":{"GEOID":"551351011005"}},{"arcs":[[-51,-1,-88,-100]],"type":"Polygon","properties":{"GEOID":"551351011004"}},{"arcs":[[-95,101,102,103]],"type":"Polygon","properties":{"GEOID":"551351009001"}},{"arcs":[[-104,104,105,-62,-70,-90]],"type":"Polygon","properties":{"GEOID":"551351008002"}},{"arcs":[[-60,106,-53,-101,-32,-79,-55]],"type":"Polygon","properties":{"GEOID":"551351001001"}},{"arcs":[[107,108,109,-93,-85]],"type":"Polygon","properties":{"GEOID":"551351009002"}},{"arcs":[[110,-109,111,-105,-103]],"type":"Polygon","properties":{"GEOID":"551351009004"}},{"arcs":[[-94,-110,-111,-102]],"type":"Polygon","properties":{"GEOID":"551351009005"}},{"arcs":[[-46,-39,-71,112,113,114]],"type":"Polygon","properties":{"GEOID":"551351010001"}},{"arcs":[[-114,115,-6,-97,116]],"type":"Polygon","properties":{"GEOID":"551351010002"}},{"arcs":[[-113,-72,-7,-116]],"type":"Polygon","properties":{"GEOID":"551351010003"}},{"arcs":[[-61,-58,-83,-91,117]],"type":"Polygon","properties":{"GEOID":"551351002003"}},{"arcs":[[-47,-115,-117,-96,-42,118]],"type":"Polygon","properties":{"GEOID":"551351005002"}}]}}}